{"type":"FeatureCollection","features":[{"type":"Feature","id":"AD-02","properties":{"id":"AD-02","countryCode":"AD","isoSubdivision":"AD-02","name":"Canillo","name_en":"Canillo","name_ko":"카닐료","type":"Principal subdivision","labelLongitude":1.605,"labelLatitude":42.584,"minZoom":11},"geometry":{"type":"Polygon","coordinates":[[[1.597,42.622],[1.608,42.618],[1.722,42.61],[1.713,42.59],[1.729,42.582],[1.753,42.577],[1.761,42.568],[1.765,42.563],[1.74,42.562],[1.722,42.549],[1.717,42.54],[1.71,42.545],[1.701,42.549],[1.69,42.553],[1.686,42.566],[1.683,42.575],[1.669,42.57],[1.649,42.57],[1.628,42.568],[1.605,42.564],[1.585,42.564],[1.571,42.564],[1.556,42.563],[1.558,42.575],[1.565,42.584],[1.575,42.592],[1.588,42.595],[1.599,42.598],[1.599,42.607],[1.597,42.622]]]}},{"type":"Feature","id":"AD-03","properties":{"id":"AD-03","countryCode":"AD","isoSubdivision":"AD-03","name":"Encamp","name_en":"Encamp","name_ko":"엥캄","type":"Principal subdivision","labelLongitude":1.644,"labelLatitude":42.538,"minZoom":11},"geometry":{"type":"Polygon","coordinates":[[[1.717,42.54],[1.711,42.528],[1.707,42.503],[1.697,42.494],[1.686,42.491],[1.674,42.491],[1.662,42.494],[1.66,42.497],[1.657,42.498],[1.654,42.51],[1.641,42.518],[1.629,42.522],[1.608,42.524],[1.593,42.522],[1.579,42.527],[1.576,42.536],[1.569,42.539],[1.556,42.538],[1.556,42.552],[1.556,42.563],[1.571,42.564],[1.585,42.564],[1.605,42.564],[1.628,42.568],[1.649,42.57],[1.669,42.57],[1.683,42.575],[1.686,42.566],[1.69,42.553],[1.701,42.549],[1.71,42.545],[1.717,42.54]]]}},{"type":"Feature","id":"AD-04","properties":{"id":"AD-04","countryCode":"AD","isoSubdivision":"AD-04","name":"La Massana","name_en":"La Massana","name_ko":"라마사나","type":"Principal subdivision","labelLongitude":1.471,"labelLatitude":42.55,"minZoom":11},"geometry":{"type":"Polygon","coordinates":[[[1.429,42.595],[1.451,42.602],[1.46,42.597],[1.471,42.597],[1.481,42.595],[1.486,42.59],[1.492,42.578],[1.501,42.571],[1.515,42.568],[1.533,42.565],[1.546,42.563],[1.556,42.563],[1.556,42.552],[1.556,42.538],[1.544,42.538],[1.532,42.534],[1.518,42.532],[1.503,42.525],[1.487,42.518],[1.473,42.515],[1.46,42.51],[1.45,42.504],[1.447,42.52],[1.429,42.531],[1.406,42.529],[1.41,42.541],[1.426,42.562],[1.426,42.566],[1.418,42.57],[1.419,42.579],[1.425,42.589],[1.429,42.595]]]}},{"type":"Feature","id":"AD-05","properties":{"id":"AD-05","countryCode":"AD","isoSubdivision":"AD-05","name":"Ordino","name_en":"Ordino","name_ko":"오르디노","type":"Principal subdivision","labelLongitude":1.524,"labelLatitude":42.604,"minZoom":11},"geometry":{"type":"Polygon","coordinates":[[[1.543,42.649],[1.597,42.622],[1.599,42.607],[1.599,42.598],[1.588,42.595],[1.575,42.592],[1.565,42.584],[1.558,42.575],[1.556,42.563],[1.546,42.563],[1.533,42.565],[1.515,42.568],[1.501,42.571],[1.492,42.578],[1.486,42.59],[1.481,42.595],[1.471,42.597],[1.46,42.597],[1.451,42.602],[1.467,42.641],[1.498,42.64],[1.528,42.649],[1.543,42.649]]]}},{"type":"Feature","id":"AD-06","properties":{"id":"AD-06","countryCode":"AD","isoSubdivision":"AD-06","name":"Sant Julià de Lòria","name_en":"Sant Julià de Lòria","name_ko":"산줄리아데로리아","type":"Principal subdivision","labelLongitude":1.48,"labelLatitude":42.451,"minZoom":11},"geometry":{"type":"Polygon","coordinates":[[[1.508,42.429],[1.448,42.435],[1.436,42.441],[1.436,42.453],[1.408,42.487],[1.425,42.492],[1.43,42.494],[1.45,42.504],[1.46,42.51],[1.473,42.515],[1.487,42.518],[1.489,42.509],[1.489,42.503],[1.493,42.493],[1.499,42.489],[1.516,42.486],[1.53,42.482],[1.548,42.485],[1.565,42.486],[1.575,42.485],[1.568,42.476],[1.57,42.465],[1.573,42.453],[1.544,42.45],[1.539,42.446],[1.535,42.44],[1.528,42.434],[1.517,42.43],[1.508,42.429]]]}},{"type":"Feature","id":"AD-07","properties":{"id":"AD-07","countryCode":"AD","isoSubdivision":"AD-07","name":"Andorra la Vella","name_en":"Andorra la Vella","name_ko":"안도라 라 벨라","type":"Principal subdivision","labelLongitude":1.511,"labelLatitude":42.513,"minZoom":11},"geometry":{"type":"Polygon","coordinates":[[[1.556,42.538],[1.55,42.53],[1.539,42.522],[1.533,42.517],[1.527,42.508],[1.519,42.498],[1.507,42.493],[1.499,42.489],[1.493,42.493],[1.489,42.503],[1.489,42.509],[1.487,42.518],[1.503,42.525],[1.518,42.532],[1.532,42.534],[1.544,42.538],[1.556,42.538]]]}},{"type":"Feature","id":"AD-08","properties":{"id":"AD-08","countryCode":"AD","isoSubdivision":"AD-08","name":"Escaldes-Engordany","name_en":"Escaldes-Engordany","name_ko":"에스칼데스엥고르다뉴","type":"Principal subdivision","labelLongitude":1.594,"labelLatitude":42.495,"minZoom":11},"geometry":{"type":"Polygon","coordinates":[[[1.657,42.498],[1.654,42.497],[1.65,42.493],[1.64,42.466],[1.607,42.456],[1.573,42.453],[1.57,42.465],[1.568,42.476],[1.575,42.485],[1.565,42.486],[1.548,42.485],[1.53,42.482],[1.516,42.486],[1.499,42.489],[1.507,42.493],[1.519,42.498],[1.527,42.508],[1.533,42.517],[1.539,42.522],[1.55,42.53],[1.556,42.538],[1.569,42.539],[1.576,42.536],[1.579,42.527],[1.593,42.522],[1.608,42.524],[1.629,42.522],[1.641,42.518],[1.654,42.51],[1.657,42.498]]]}}]}
