{"type":"FeatureCollection","features":[{"type":"Feature","id":"AE-AJ","properties":{"id":"AE-AJ","countryCode":"AE","isoSubdivision":"AE-AJ","name":"Emirate of Ajman","name_en":"Emirate of Ajman","name_ko":"아지만 토후국","type":"Emirate","labelLongitude":55.541,"labelLatitude":25.397,"minZoom":8.7},"geometry":{"type":"MultiPolygon","coordinates":[[[[55.424,25.395],[55.439,25.413],[55.445,25.413],[55.45,25.401],[55.455,25.4],[55.461,25.407],[55.466,25.42],[55.473,25.413],[55.486,25.45],[55.492,25.46],[55.493,25.46],[55.505,25.452],[55.521,25.449],[55.531,25.445],[55.546,25.436],[55.557,25.432],[55.618,25.422],[55.628,25.418],[55.632,25.413],[55.619,25.38],[55.61,25.365],[55.604,25.361],[55.597,25.36],[55.513,25.364],[55.478,25.371],[55.448,25.381],[55.425,25.394],[55.424,25.395]]],[[[55.983,25.332],[55.997,25.326],[56,25.324],[56.003,25.322],[56.005,25.319],[56.006,25.316],[56.007,25.312],[56.003,25.301],[55.977,25.282],[55.965,25.307],[55.965,25.312],[55.967,25.319],[55.971,25.324],[55.975,25.327],[55.983,25.332]]]]}},{"type":"Feature","id":"AE-AZ","properties":{"id":"AE-AZ","countryCode":"AE","isoSubdivision":"AE-AZ","name":"Emirate of Abu Dhabi","name_en":"Emirate of Abu Dhabi","name_ko":"아부다비 토후국","type":"Emirate","labelLongitude":54.082,"labelLatitude":23.524,"minZoom":8.7},"geometry":{"type":"MultiPolygon","coordinates":[[[[55.8,24.693],[55.815,24.663],[55.818,24.643],[55.79,24.62],[55.784,24.586],[55.77,24.572],[55.76,24.559],[55.761,24.537],[55.774,24.495],[55.771,24.441],[55.775,24.426],[55.781,24.419],[55.801,24.406],[55.809,24.398],[55.811,24.389],[55.807,24.341],[55.801,24.326],[55.762,24.263],[55.754,24.245],[55.756,24.23],[55.768,24.225],[55.83,24.212],[55.847,24.211],[55.903,24.232],[55.933,24.221],[55.949,24.185],[55.961,24.142],[55.998,24.081],[55.987,24.065],[55.924,24.051],[55.807,24.007],[55.788,24.01],[55.762,24.028],[55.744,24.025],[55.728,24.02],[55.713,24.019],[55.68,24.024],[55.647,24.025],[55.618,24.02],[55.591,24.01],[55.562,23.995],[55.542,23.985],[55.5,23.971],[55.457,23.963],[55.453,23.949],[55.462,23.931],[55.478,23.917],[55.515,23.897],[55.531,23.875],[55.535,23.846],[55.538,23.77],[55.534,23.757],[55.487,23.693],[55.478,23.676],[55.445,23.552],[55.431,23.533],[55.394,23.495],[55.375,23.469],[55.364,23.436],[55.343,23.336],[55.321,23.275],[55.226,23.121],[55.195,23.025],[55.191,22.995],[55.198,22.849],[55.187,22.704],[55.12,22.623],[55.105,22.621],[54.969,22.638],[54.829,22.655],[54.69,22.672],[54.551,22.689],[54.412,22.706],[54.273,22.723],[54.134,22.74],[53.995,22.757],[53.856,22.775],[53.717,22.792],[53.578,22.809],[53.439,22.826],[53.3,22.843],[53.161,22.86],[53.022,22.877],[52.883,22.894],[52.744,22.911],[52.583,22.931],[52.558,22.939],[52.538,22.955],[52.485,23.018],[52.433,23.08],[52.381,23.142],[52.328,23.204],[52.276,23.266],[52.224,23.328],[52.172,23.39],[52.12,23.453],[52.068,23.514],[52.016,23.576],[51.963,23.639],[51.911,23.701],[51.859,23.763],[51.807,23.824],[51.755,23.887],[51.703,23.949],[51.65,24.011],[51.594,24.078],[51.579,24.102],[51.573,24.128],[51.575,24.192],[51.576,24.218],[51.569,24.256],[51.591,24.284],[51.592,24.329],[51.574,24.364],[51.594,24.385],[51.602,24.368],[51.624,24.339],[51.628,24.32],[51.628,24.262],[51.634,24.227],[51.649,24.219],[51.663,24.233],[51.673,24.278],[51.679,24.266],[51.689,24.235],[51.696,24.224],[51.701,24.222],[51.71,24.221],[51.718,24.223],[51.724,24.228],[51.725,24.233],[51.721,24.235],[51.74,24.278],[51.759,24.291],[51.779,24.262],[51.782,24.24],[51.772,24.176],[51.773,24.153],[51.786,24.104],[51.787,24.093],[51.786,24.059],[51.788,24.049],[51.797,24.028],[51.799,24.018],[51.809,24.001],[51.833,23.995],[51.882,23.994],[51.894,23.99],[51.903,23.986],[51.92,23.97],[51.929,23.965],[51.936,23.965],[51.939,23.969],[51.933,23.977],[51.931,23.988],[51.953,23.991],[52.01,23.988],[52.017,23.99],[52.024,23.988],[52.036,23.977],[52.067,23.963],[52.076,23.964],[52.118,23.971],[52.136,23.967],[52.146,23.972],[52.156,23.967],[52.171,23.973],[52.188,23.974],[52.206,23.973],[52.224,23.974],[52.241,23.98],[52.279,24.001],[52.296,24.004],[52.328,24.004],[52.341,24.008],[52.353,24.016],[52.365,24.028],[52.378,24.038],[52.392,24.042],[52.409,24.045],[52.428,24.053],[52.444,24.063],[52.451,24.073],[52.457,24.085],[52.487,24.097],[52.502,24.107],[52.515,24.12],[52.532,24.132],[52.55,24.141],[52.564,24.145],[52.575,24.152],[52.578,24.169],[52.578,24.187],[52.581,24.199],[52.6,24.21],[52.618,24.204],[52.634,24.19],[52.67,24.145],[52.681,24.141],[52.685,24.143],[52.689,24.149],[52.697,24.152],[52.72,24.152],[52.761,24.141],[52.783,24.138],[52.795,24.14],[52.817,24.149],[52.828,24.152],[52.839,24.152],[52.848,24.15],[52.855,24.147],[52.862,24.145],[52.947,24.138],[52.957,24.14],[52.992,24.152],[52.997,24.156],[52.998,24.161],[53,24.166],[53.006,24.166],[53.011,24.163],[53.015,24.158],[53.018,24.154],[53.02,24.152],[53.049,24.13],[53.067,24.122],[53.107,24.138],[53.128,24.131],[53.146,24.121],[53.163,24.125],[53.15,24.132],[53.146,24.142],[53.145,24.153],[53.142,24.166],[53.165,24.17],[53.192,24.159],[53.216,24.142],[53.232,24.125],[53.246,24.104],[53.254,24.099],[53.309,24.096],[53.437,24.12],[53.446,24.12],[53.455,24.114],[53.468,24.1],[53.479,24.094],[53.493,24.091],[53.508,24.092],[53.519,24.097],[53.537,24.084],[53.548,24.079],[53.557,24.076],[53.562,24.073],[53.574,24.054],[53.581,24.049],[53.59,24.047],[53.601,24.047],[53.612,24.049],[53.629,24.057],[53.639,24.055],[53.649,24.05],[53.657,24.049],[53.688,24.062],[53.695,24.066],[53.703,24.071],[53.712,24.069],[53.722,24.065],[53.732,24.063],[53.854,24.062],[53.879,24.065],[53.89,24.073],[53.951,24.104],[54.014,24.113],[54.034,24.123],[54.055,24.126],[54.082,24.138],[54.112,24.142],[54.123,24.145],[54.135,24.152],[54.154,24.165],[54.17,24.181],[54.177,24.196],[54.187,24.204],[54.253,24.221],[54.306,24.257],[54.315,24.258],[54.323,24.271],[54.342,24.27],[54.383,24.255],[54.39,24.266],[54.427,24.292],[54.446,24.316],[54.486,24.388],[54.48,24.413],[54.483,24.425],[54.499,24.433],[54.49,24.438],[54.486,24.44],[54.486,24.447],[54.501,24.446],[54.526,24.435],[54.54,24.433],[54.534,24.445],[54.517,24.462],[54.513,24.474],[54.528,24.468],[54.544,24.464],[54.559,24.458],[54.568,24.447],[54.574,24.447],[54.571,24.473],[54.553,24.482],[54.526,24.483],[54.499,24.488],[54.441,24.524],[54.417,24.529],[54.417,24.535],[54.429,24.538],[54.442,24.546],[54.452,24.557],[54.454,24.55],[54.457,24.542],[54.465,24.535],[54.462,24.545],[54.466,24.554],[54.479,24.57],[54.486,24.57],[54.494,24.542],[54.513,24.515],[54.537,24.498],[54.561,24.502],[54.555,24.505],[54.54,24.516],[54.552,24.515],[54.573,24.509],[54.582,24.508],[54.585,24.512],[54.594,24.526],[54.599,24.529],[54.636,24.598],[54.62,24.604],[54.612,24.613],[54.616,24.621],[54.633,24.624],[54.643,24.631],[54.646,24.644],[54.652,24.658],[54.671,24.666],[54.671,24.672],[54.662,24.678],[54.658,24.688],[54.655,24.701],[54.65,24.714],[54.656,24.721],[54.648,24.725],[54.64,24.733],[54.643,24.749],[54.653,24.758],[54.692,24.782],[54.697,24.789],[54.701,24.798],[54.707,24.804],[54.738,24.791],[54.739,24.79],[54.754,24.792],[54.769,24.801],[54.774,24.815],[54.76,24.831],[54.869,24.889],[54.918,24.921],[54.948,24.946],[54.968,24.959],[54.993,24.966],[54.995,24.967],[54.999,24.968],[55.003,24.969],[55.006,24.97],[55.015,24.96],[55.138,24.637],[55.148,24.618],[55.16,24.603],[55.18,24.597],[55.201,24.595],[55.412,24.603],[55.44,24.608],[55.47,24.619],[55.538,24.654],[55.648,24.695],[55.671,24.709],[55.749,24.691],[55.79,24.691],[55.8,24.693]]],[[[53.657,24.158],[53.639,24.16],[53.628,24.164],[53.628,24.172],[53.643,24.186],[53.655,24.193],[53.656,24.193],[53.656,24.194],[53.681,24.202],[53.691,24.207],[53.71,24.222],[53.716,24.226],[53.723,24.23],[53.727,24.231],[53.739,24.235],[53.748,24.234],[53.763,24.229],[53.765,24.228],[53.77,24.227],[53.777,24.23],[53.801,24.248],[53.829,24.258],[53.84,24.264],[53.848,24.275],[53.854,24.263],[53.852,24.26],[53.848,24.255],[53.858,24.239],[53.863,24.235],[53.889,24.22],[53.892,24.218],[53.927,24.211],[53.934,24.209],[53.955,24.201],[53.965,24.173],[53.951,24.15],[53.92,24.14],[53.885,24.141],[53.855,24.152],[53.857,24.161],[53.849,24.174],[53.837,24.177],[53.827,24.158],[53.834,24.152],[53.807,24.136],[53.775,24.13],[53.741,24.133],[53.712,24.145],[53.694,24.154],[53.684,24.157],[53.657,24.158]]],[[[54.191,24.227],[54.181,24.245],[54.159,24.254],[54.134,24.26],[54.113,24.272],[54.102,24.298],[54.115,24.319],[54.137,24.327],[54.142,24.323],[54.15,24.316],[54.176,24.29],[54.188,24.277],[54.199,24.253],[54.191,24.227]]],[[[52.574,24.344],[52.587,24.361],[52.611,24.373],[52.634,24.367],[52.645,24.351],[52.651,24.325],[52.649,24.31],[52.627,24.284],[52.609,24.268],[52.592,24.253],[52.579,24.266],[52.568,24.283],[52.556,24.307],[52.558,24.327],[52.574,24.344]]],[[[53.323,24.263],[53.309,24.279],[53.295,24.28],[53.276,24.289],[53.266,24.274],[53.228,24.279],[53.214,24.281],[53.193,24.277],[53.189,24.276],[53.187,24.276],[53.184,24.281],[53.185,24.287],[53.188,24.294],[53.191,24.3],[53.194,24.303],[53.232,24.296],[53.242,24.298],[53.268,24.308],[53.273,24.313],[53.278,24.316],[53.311,24.328],[53.33,24.336],[53.338,24.336],[53.348,24.32],[53.358,24.315],[53.367,24.319],[53.369,24.33],[53.368,24.341],[53.362,24.351],[53.399,24.401],[53.417,24.413],[53.418,24.407],[53.422,24.397],[53.424,24.392],[53.447,24.38],[53.44,24.341],[53.428,24.329],[53.388,24.312],[53.37,24.301],[53.346,24.298],[53.332,24.288],[53.332,24.278],[53.323,24.263]]],[[[54.383,24.44],[54.335,24.453],[54.335,24.469],[54.375,24.504],[54.389,24.523],[54.396,24.523],[54.389,24.502],[54.397,24.483],[54.414,24.471],[54.451,24.453],[54.47,24.436],[54.471,24.425],[54.457,24.421],[54.43,24.425],[54.383,24.44]]],[[[54.266,24.295],[54.257,24.288],[54.248,24.283],[54.239,24.281],[54.228,24.281],[54.222,24.284],[54.205,24.303],[54.192,24.311],[54.183,24.315],[54.179,24.321],[54.185,24.337],[54.192,24.346],[54.204,24.354],[54.218,24.358],[54.232,24.358],[54.241,24.341],[54.251,24.327],[54.273,24.303],[54.266,24.295]]],[[[54.326,24.373],[54.335,24.364],[54.336,24.35],[54.325,24.321],[54.309,24.314],[54.282,24.357],[54.279,24.364],[54.286,24.366],[54.297,24.363],[54.307,24.357],[54.311,24.355],[54.313,24.36],[54.31,24.365],[54.295,24.375],[54.292,24.385],[54.305,24.386],[54.326,24.373]]],[[[52.31,24.539],[52.333,24.525],[52.339,24.502],[52.326,24.481],[52.314,24.476],[52.3,24.483],[52.294,24.489],[52.29,24.492],[52.283,24.497],[52.282,24.51],[52.291,24.521],[52.299,24.533],[52.31,24.539]]],[[[52.005,24.253],[52.017,24.258],[52.025,24.246],[52.025,24.242],[52.023,24.239],[52.025,24.235],[52.018,24.22],[52.008,24.211],[52.004,24.214],[51.998,24.216],[51.994,24.219],[51.999,24.226],[51.999,24.237],[52.005,24.253]]],[[[51.724,24.607],[51.735,24.599],[51.74,24.591],[51.738,24.585],[51.737,24.582],[51.733,24.573],[51.73,24.565],[51.725,24.569],[51.724,24.583],[51.726,24.589],[51.723,24.587],[51.722,24.59],[51.722,24.595],[51.721,24.593],[51.72,24.593],[51.718,24.594],[51.719,24.592],[51.718,24.592],[51.719,24.588],[51.713,24.593],[51.712,24.602],[51.72,24.608],[51.724,24.607]]],[[[53.061,24.894],[53.079,24.891],[53.083,24.874],[53.079,24.854],[53.073,24.859],[53.071,24.864],[53.063,24.873],[53.058,24.886],[53.061,24.894]]],[[[54.211,25.249],[54.231,25.243],[54.24,25.209],[54.227,25.214],[54.214,25.214],[54.198,25.232],[54.211,25.249]]]]}},{"type":"Feature","id":"AE-DU","properties":{"id":"AE-DU","countryCode":"AE","isoSubdivision":"AE-DU","name":"Emirate of Dubai","name_en":"Emirate of Dubai","name_ko":"두바이 토후국","type":"Emirate","labelLongitude":55.344,"labelLatitude":24.951,"minZoom":8.7},"geometry":{"type":"MultiPolygon","coordinates":[[[[56.171,24.824],[56.155,24.787],[56.133,24.763],[56.127,24.746],[56.118,24.735],[56.099,24.731],[56.078,24.73],[56.076,24.73],[56.077,24.738],[56.076,24.752],[56.082,24.772],[56.106,24.82],[56.171,24.824]]],[[[55.018,24.977],[55.022,24.979],[55.05,24.993],[55.045,25.014],[55.078,25.02],[55.082,25.017],[55.157,25.097],[55.259,25.215],[55.264,25.231],[55.263,25.245],[55.282,25.261],[55.298,25.258],[55.313,25.239],[55.318,25.225],[55.314,25.212],[55.301,25.194],[55.329,25.201],[55.334,25.219],[55.327,25.241],[55.306,25.275],[55.304,25.283],[55.309,25.292],[55.325,25.307],[55.327,25.306],[55.378,25.293],[55.406,25.294],[55.44,25.305],[55.449,25.307],[55.455,25.302],[55.465,25.288],[55.474,25.281],[55.506,25.264],[55.514,25.259],[55.522,25.252],[55.529,25.244],[55.601,25.2],[55.617,25.185],[55.629,25.164],[55.658,25.055],[55.658,25.048],[55.656,25.042],[55.652,25.036],[55.647,25.03],[55.634,25.02],[55.629,25.015],[55.626,25.011],[55.62,25],[55.62,24.999],[55.627,24.976],[55.645,24.944],[55.656,24.916],[55.66,24.903],[55.661,24.895],[55.661,24.872],[55.664,24.842],[55.676,24.801],[55.681,24.769],[55.681,24.752],[55.68,24.739],[55.678,24.728],[55.676,24.72],[55.671,24.709],[55.648,24.695],[55.538,24.654],[55.47,24.619],[55.44,24.608],[55.412,24.603],[55.201,24.595],[55.18,24.597],[55.16,24.603],[55.148,24.618],[55.138,24.637],[55.015,24.96],[55.006,24.97],[55.011,24.973],[55.014,24.974],[55.016,24.975],[55.018,24.977]]]]}},{"type":"Feature","id":"AE-FU","properties":{"id":"AE-FU","countryCode":"AE","isoSubdivision":"AE-FU","name":"Emirate of Fujairah","name_en":"Emirate of Fujairah","name_ko":"푸자이라 토후국","type":"Emirate","labelLongitude":56.222,"labelLatitude":25.475,"minZoom":8.7},"geometry":{"type":"MultiPolygon","coordinates":[[[[56.236,25.211],[56.252,25.218],[56.282,25.237],[56.293,25.246],[56.316,25.253],[56.344,25.267],[56.349,25.294],[56.356,25.303],[56.382,25.321],[56.383,25.321],[56.384,25.313],[56.383,25.302],[56.378,25.283],[56.375,25.253],[56.366,25.209],[56.362,25.068],[56.357,25.069],[56.304,25.08],[56.295,25.08],[56.286,25.078],[56.285,25.074],[56.287,25.07],[56.29,25.065],[56.293,25.058],[56.296,25.05],[56.298,25.036],[56.299,25.03],[56.303,25.024],[56.306,25.021],[56.307,25.014],[56.306,25.005],[56.302,24.992],[56.296,24.984],[56.29,24.979],[56.282,24.951],[56.27,24.939],[56.254,24.977],[56.182,25.046],[56.176,25.051],[56.164,25.053],[56.16,25.067],[56.157,25.074],[56.154,25.082],[56.153,25.091],[56.153,25.103],[56.165,25.166],[56.165,25.177],[56.165,25.188],[56.159,25.209],[56.16,25.216],[56.166,25.22],[56.194,25.222],[56.207,25.227],[56.208,25.221],[56.22,25.215],[56.236,25.211]]],[[[56.261,25.331],[56.234,25.313],[56.206,25.308],[56.197,25.311],[56.196,25.314],[56.196,25.317],[56.198,25.32],[56.199,25.323],[56.198,25.325],[56.195,25.327],[56.163,25.335],[56.159,25.335],[56.151,25.332],[56.143,25.327],[56.129,25.314],[56.129,25.31],[56.131,25.307],[56.138,25.308],[56.143,25.308],[56.147,25.306],[56.152,25.3],[56.154,25.299],[56.157,25.297],[56.16,25.297],[56.164,25.297],[56.178,25.297],[56.179,25.297],[56.179,25.296],[56.18,25.295],[56.18,25.294],[56.175,25.286],[56.169,25.281],[56.162,25.275],[56.146,25.265],[56.142,25.257],[56.14,25.251],[56.142,25.245],[56.142,25.24],[56.14,25.236],[56.137,25.233],[56.131,25.23],[56.128,25.227],[56.126,25.222],[56.119,25.219],[56.109,25.218],[56.079,25.224],[56.069,25.224],[56.06,25.221],[56.051,25.219],[56.039,25.219],[56.024,25.223],[55.986,25.225],[55.989,25.246],[55.989,25.252],[55.977,25.282],[56.003,25.301],[56.007,25.312],[56.006,25.316],[56.005,25.319],[56.003,25.322],[56,25.324],[55.997,25.326],[55.983,25.332],[56.001,25.381],[56.009,25.375],[56.013,25.371],[56.017,25.365],[56.022,25.36],[56.028,25.356],[56.077,25.343],[56.088,25.342],[56.097,25.343],[56.105,25.347],[56.111,25.352],[56.118,25.36],[56.123,25.362],[56.129,25.362],[56.133,25.365],[56.137,25.372],[56.135,25.393],[56.13,25.399],[56.123,25.402],[56.115,25.4],[56.108,25.4],[56.103,25.402],[56.099,25.404],[56.098,25.407],[56.097,25.41],[56.096,25.412],[56.094,25.414],[56.093,25.415],[56.092,25.418],[56.092,25.42],[56.095,25.424],[56.12,25.448],[56.125,25.457],[56.128,25.466],[56.126,25.474],[56.122,25.48],[56.109,25.496],[56.105,25.5],[56.104,25.5],[56.103,25.501],[56.1,25.502],[56.096,25.502],[56.092,25.501],[56.09,25.501],[56.089,25.5],[56.076,25.491],[56.07,25.488],[56.064,25.487],[56.042,25.488],[56.012,25.485],[56.008,25.486],[56.001,25.488],[55.998,25.489],[55.989,25.491],[55.985,25.493],[55.983,25.496],[55.982,25.5],[55.979,25.516],[55.971,25.548],[55.971,25.556],[55.966,25.577],[55.966,25.584],[55.97,25.591],[55.978,25.597],[55.988,25.598],[55.996,25.597],[56.002,25.597],[56.011,25.599],[56.022,25.605],[56.047,25.629],[56.059,25.637],[56.064,25.64],[56.069,25.642],[56.075,25.64],[56.083,25.639],[56.097,25.639],[56.139,25.65],[56.152,25.658],[56.156,25.656],[56.18,25.652],[56.189,25.645],[56.199,25.625],[56.206,25.618],[56.222,25.614],[56.238,25.617],[56.279,25.627],[56.3,25.616],[56.323,25.608],[56.34,25.605],[56.348,25.593],[56.37,25.526],[56.364,25.433],[56.365,25.423],[56.36,25.421],[56.32,25.388],[56.283,25.367],[56.272,25.359],[56.267,25.348],[56.264,25.338],[56.261,25.331]]],[[[56.314,24.912],[56.314,24.905],[56.308,24.895],[56.28,24.877],[56.275,24.872],[56.27,24.883],[56.253,24.895],[56.259,24.915],[56.276,24.914],[56.307,24.909],[56.314,24.912]]]]}},{"type":"Feature","id":"AE-RK","properties":{"id":"AE-RK","countryCode":"AE","isoSubdivision":"AE-RK","name":"Emirate of Ras Al Khaimah","name_en":"Emirate of Ras Al Khaimah","name_ko":"라스알카이마 토후국","type":"Emirate","labelLongitude":55.979,"labelLatitude":25.696,"minZoom":8.7},"geometry":{"type":"MultiPolygon","coordinates":[[[[56.234,25.313],[56.236,25.296],[56.239,25.286],[56.245,25.278],[56.235,25.267],[56.208,25.255],[56.206,25.231],[56.207,25.227],[56.194,25.222],[56.166,25.22],[56.16,25.216],[56.159,25.209],[56.165,25.188],[56.165,25.177],[56.165,25.166],[56.153,25.103],[56.153,25.091],[56.154,25.082],[56.157,25.074],[56.16,25.067],[56.164,25.053],[56.153,25.047],[56.152,25.043],[56.152,25.036],[56.172,25.007],[56.185,24.979],[56.189,24.967],[56.189,24.959],[56.186,24.952],[56.183,24.943],[56.181,24.923],[56.186,24.911],[56.195,24.904],[56.204,24.901],[56.253,24.895],[56.27,24.883],[56.275,24.872],[56.242,24.842],[56.224,24.834],[56.186,24.83],[56.171,24.824],[56.106,24.82],[56.051,24.866],[56.025,24.883],[56.017,24.927],[56.006,24.956],[55.978,24.972],[55.976,24.972],[55.977,24.982],[55.971,25.003],[55.953,25.034],[55.95,25.044],[55.949,25.059],[55.949,25.071],[55.951,25.084],[55.973,25.133],[55.979,25.141],[55.979,25.145],[55.975,25.152],[55.97,25.159],[55.957,25.172],[55.953,25.177],[55.952,25.182],[55.952,25.187],[55.961,25.201],[55.975,25.211],[55.986,25.225],[56.024,25.223],[56.039,25.219],[56.051,25.219],[56.06,25.221],[56.069,25.224],[56.079,25.224],[56.109,25.218],[56.119,25.219],[56.126,25.222],[56.128,25.227],[56.131,25.23],[56.137,25.233],[56.14,25.236],[56.142,25.24],[56.142,25.245],[56.14,25.251],[56.142,25.257],[56.146,25.265],[56.162,25.275],[56.169,25.281],[56.175,25.286],[56.18,25.294],[56.18,25.295],[56.179,25.296],[56.179,25.297],[56.178,25.297],[56.164,25.297],[56.16,25.297],[56.157,25.297],[56.154,25.299],[56.152,25.3],[56.147,25.306],[56.143,25.308],[56.138,25.308],[56.131,25.307],[56.129,25.31],[56.129,25.314],[56.143,25.327],[56.151,25.332],[56.159,25.335],[56.163,25.335],[56.195,25.327],[56.198,25.325],[56.199,25.323],[56.198,25.32],[56.196,25.317],[56.196,25.314],[56.197,25.311],[56.206,25.308],[56.234,25.313]]],[[[56.151,26.075],[56.163,26.074],[56.178,26.035],[56.183,26.015],[56.181,25.996],[56.175,25.967],[56.171,25.877],[56.164,25.862],[56.145,25.838],[56.14,25.823],[56.144,25.806],[56.167,25.778],[56.172,25.765],[56.165,25.752],[56.152,25.743],[56.141,25.733],[56.14,25.716],[56.145,25.671],[56.151,25.659],[56.152,25.658],[56.139,25.65],[56.097,25.639],[56.083,25.639],[56.075,25.64],[56.069,25.642],[56.064,25.64],[56.059,25.637],[56.047,25.629],[56.022,25.605],[56.011,25.599],[56.002,25.597],[55.996,25.597],[55.988,25.598],[55.978,25.597],[55.97,25.591],[55.966,25.584],[55.966,25.577],[55.971,25.556],[55.971,25.548],[55.979,25.516],[55.982,25.5],[55.983,25.496],[55.985,25.493],[55.989,25.491],[55.998,25.489],[56.001,25.488],[56.008,25.486],[56.012,25.485],[56.042,25.488],[56.064,25.487],[56.07,25.488],[56.076,25.491],[56.089,25.5],[56.09,25.501],[56.092,25.501],[56.096,25.502],[56.1,25.502],[56.103,25.501],[56.104,25.5],[56.105,25.5],[56.109,25.496],[56.122,25.48],[56.126,25.474],[56.128,25.466],[56.125,25.457],[56.12,25.448],[56.095,25.424],[56.092,25.42],[56.092,25.418],[56.093,25.415],[56.094,25.414],[56.096,25.412],[56.097,25.41],[56.098,25.407],[56.099,25.404],[56.103,25.402],[56.108,25.4],[56.115,25.4],[56.123,25.402],[56.13,25.399],[56.135,25.393],[56.137,25.372],[56.133,25.365],[56.129,25.362],[56.123,25.362],[56.118,25.36],[56.111,25.352],[56.105,25.347],[56.097,25.343],[56.088,25.342],[56.077,25.343],[56.028,25.356],[56.022,25.36],[56.017,25.365],[56.013,25.371],[56.009,25.375],[56.001,25.381],[55.98,25.39],[55.973,25.389],[55.966,25.385],[55.962,25.375],[55.958,25.352],[55.944,25.326],[55.928,25.348],[55.907,25.371],[55.881,25.394],[55.879,25.402],[55.883,25.41],[55.888,25.417],[55.889,25.427],[55.882,25.437],[55.845,25.474],[55.838,25.486],[55.835,25.496],[55.834,25.499],[55.835,25.509],[55.833,25.525],[55.829,25.546],[55.802,25.626],[55.797,25.634],[55.789,25.638],[55.779,25.64],[55.771,25.641],[55.747,25.661],[55.746,25.662],[55.76,25.68],[55.771,25.687],[55.78,25.688],[55.792,25.692],[55.803,25.697],[55.808,25.704],[55.813,25.707],[55.842,25.714],[55.878,25.74],[55.932,25.803],[55.96,25.824],[55.954,25.815],[55.947,25.794],[55.937,25.777],[55.941,25.771],[55.948,25.769],[55.952,25.772],[55.954,25.787],[55.964,25.815],[55.966,25.834],[55.972,25.843],[56.014,25.879],[56.023,25.889],[56.031,25.901],[56.037,25.915],[56.041,25.934],[56.034,25.934],[56.031,25.924],[56.025,25.916],[56.017,25.91],[56.008,25.907],[56.034,25.946],[56.055,25.989],[56.073,26.052],[56.077,26.061],[56.101,26.063],[56.151,26.075]]]]}},{"type":"Feature","id":"AE-SH","properties":{"id":"AE-SH","countryCode":"AE","isoSubdivision":"AE-SH","name":"Emirate of Sharjah","name_en":"Emirate of Sharjah","name_ko":"샤르자 토후국","type":"Emirate","labelLongitude":55.779,"labelLatitude":25.172,"minZoom":8.7},"geometry":{"type":"MultiPolygon","coordinates":[[[[56.349,25.294],[56.309,25.301],[56.291,25.328],[56.261,25.331],[56.264,25.338],[56.267,25.348],[56.272,25.359],[56.283,25.367],[56.32,25.388],[56.36,25.421],[56.365,25.423],[56.368,25.396],[56.367,25.389],[56.359,25.376],[56.36,25.367],[56.37,25.351],[56.375,25.341],[56.379,25.335],[56.382,25.327],[56.383,25.321],[56.382,25.321],[56.356,25.303],[56.349,25.294]]],[[[56.383,24.978],[56.329,24.973],[56.324,24.968],[56.319,24.963],[56.316,24.93],[56.31,24.93],[56.297,24.935],[56.282,24.951],[56.29,24.979],[56.296,24.984],[56.302,24.992],[56.306,25.005],[56.307,25.014],[56.306,25.021],[56.303,25.024],[56.299,25.03],[56.298,25.036],[56.296,25.05],[56.293,25.058],[56.29,25.065],[56.287,25.07],[56.285,25.074],[56.286,25.078],[56.295,25.08],[56.304,25.08],[56.357,25.069],[56.362,25.068],[56.362,25.057],[56.383,24.978]]],[[[55.976,24.972],[55.935,24.978],[55.897,24.969],[55.862,24.948],[55.858,24.945],[55.829,24.921],[55.799,24.886],[55.789,24.855],[55.797,24.778],[55.797,24.76],[55.793,24.722],[55.795,24.704],[55.8,24.693],[55.79,24.691],[55.749,24.691],[55.671,24.709],[55.676,24.72],[55.678,24.728],[55.68,24.739],[55.681,24.752],[55.681,24.769],[55.676,24.801],[55.664,24.842],[55.661,24.872],[55.661,24.895],[55.66,24.903],[55.656,24.916],[55.645,24.944],[55.627,24.976],[55.62,24.999],[55.62,25],[55.626,25.011],[55.629,25.015],[55.634,25.02],[55.647,25.03],[55.652,25.036],[55.656,25.042],[55.658,25.048],[55.658,25.055],[55.629,25.164],[55.617,25.185],[55.601,25.2],[55.529,25.244],[55.522,25.252],[55.514,25.259],[55.506,25.264],[55.474,25.281],[55.465,25.288],[55.455,25.302],[55.449,25.307],[55.44,25.305],[55.406,25.294],[55.378,25.293],[55.327,25.306],[55.325,25.307],[55.339,25.321],[55.348,25.325],[55.363,25.324],[55.359,25.337],[55.359,25.349],[55.365,25.359],[55.377,25.365],[55.387,25.357],[55.407,25.373],[55.424,25.395],[55.425,25.394],[55.448,25.381],[55.478,25.371],[55.513,25.364],[55.597,25.36],[55.604,25.361],[55.61,25.365],[55.619,25.38],[55.632,25.413],[55.628,25.418],[55.618,25.422],[55.557,25.432],[55.546,25.436],[55.531,25.445],[55.521,25.449],[55.505,25.452],[55.493,25.46],[55.492,25.46],[55.496,25.466],[55.507,25.475],[55.494,25.481],[55.5,25.493],[55.513,25.509],[55.515,25.513],[55.518,25.512],[55.584,25.475],[55.614,25.452],[55.626,25.444],[55.696,25.418],[55.715,25.406],[55.761,25.369],[55.774,25.356],[55.782,25.344],[55.789,25.318],[55.799,25.297],[55.807,25.286],[55.813,25.281],[55.823,25.278],[55.835,25.277],[55.85,25.278],[55.863,25.28],[55.871,25.283],[55.882,25.288],[55.897,25.292],[55.904,25.295],[55.91,25.299],[55.913,25.305],[55.914,25.312],[55.912,25.321],[55.91,25.33],[55.905,25.342],[55.907,25.346],[55.91,25.348],[55.928,25.348],[55.944,25.326],[55.958,25.352],[55.962,25.375],[55.966,25.385],[55.973,25.389],[55.98,25.39],[56.001,25.381],[55.983,25.332],[55.975,25.327],[55.971,25.324],[55.967,25.319],[55.965,25.312],[55.965,25.307],[55.977,25.282],[55.989,25.252],[55.989,25.246],[55.986,25.225],[55.975,25.211],[55.961,25.201],[55.952,25.187],[55.952,25.182],[55.953,25.177],[55.957,25.172],[55.97,25.159],[55.975,25.152],[55.979,25.145],[55.979,25.141],[55.973,25.133],[55.951,25.084],[55.949,25.071],[55.949,25.059],[55.95,25.044],[55.953,25.034],[55.971,25.003],[55.977,24.982],[55.976,24.972]]],[[[56.274,25.281],[56.288,25.272],[56.283,25.255],[56.263,25.249],[56.26,25.276],[56.265,25.281],[56.274,25.281]]],[[[56.164,25.053],[56.176,25.051],[56.182,25.046],[56.254,24.977],[56.27,24.939],[56.272,24.93],[56.276,24.914],[56.259,24.915],[56.253,24.895],[56.204,24.901],[56.195,24.904],[56.186,24.911],[56.181,24.923],[56.183,24.943],[56.186,24.952],[56.189,24.959],[56.189,24.967],[56.185,24.979],[56.172,25.007],[56.152,25.036],[56.152,25.043],[56.153,25.047],[56.164,25.053]]]]}},{"type":"Feature","id":"AE-UQ","properties":{"id":"AE-UQ","countryCode":"AE","isoSubdivision":"AE-UQ","name":"Emirate of Umm Al Quwain","name_en":"Emirate of Umm Al Quwain","name_ko":"움알쿠와인 토후국","type":"Emirate","labelLongitude":55.722,"labelLatitude":25.522,"minZoom":8.7},"geometry":{"type":"Polygon","coordinates":[[[55.515,25.513],[55.52,25.526],[55.525,25.543],[55.536,25.562],[55.551,25.579],[55.568,25.585],[55.56,25.568],[55.549,25.555],[55.542,25.543],[55.548,25.529],[55.564,25.524],[55.583,25.527],[55.605,25.533],[55.626,25.536],[55.633,25.544],[55.648,25.583],[55.657,25.598],[55.683,25.624],[55.699,25.635],[55.734,25.647],[55.746,25.662],[55.747,25.661],[55.771,25.641],[55.779,25.64],[55.789,25.638],[55.797,25.634],[55.802,25.626],[55.829,25.546],[55.833,25.525],[55.835,25.509],[55.834,25.499],[55.835,25.496],[55.838,25.486],[55.845,25.474],[55.882,25.437],[55.889,25.427],[55.888,25.417],[55.883,25.41],[55.879,25.402],[55.881,25.394],[55.907,25.371],[55.928,25.348],[55.91,25.348],[55.907,25.346],[55.905,25.342],[55.91,25.33],[55.912,25.321],[55.914,25.312],[55.913,25.305],[55.91,25.299],[55.904,25.295],[55.897,25.292],[55.882,25.288],[55.871,25.283],[55.863,25.28],[55.85,25.278],[55.835,25.277],[55.823,25.278],[55.813,25.281],[55.807,25.286],[55.799,25.297],[55.789,25.318],[55.782,25.344],[55.774,25.356],[55.761,25.369],[55.715,25.406],[55.696,25.418],[55.626,25.444],[55.614,25.452],[55.584,25.475],[55.518,25.512],[55.515,25.513]]]}},{"type":"Feature","id":"AE-X01~","properties":{"id":"AE-X01~","countryCode":"AE","isoSubdivision":"AE-X01~","name":"Fujairah","name_en":"Fujairah","name_ko":"뉴트럴 존","type":"Emirate","labelLongitude":56.293,"labelLatitude":24.925,"minZoom":8.7},"geometry":{"type":"Polygon","coordinates":[[[56.316,24.93],[56.314,24.912],[56.307,24.909],[56.276,24.914],[56.272,24.93],[56.27,24.939],[56.282,24.951],[56.297,24.935],[56.31,24.93],[56.316,24.93]]]}},{"type":"Feature","id":"AE-X02~","properties":{"id":"AE-X02~","countryCode":"AE","isoSubdivision":"AE-X02~","name":"Sayh Mudayrah","name_en":"Sayh Mudayrah","name_ko":"뉴트럴 존","type":"Emirate","labelLongitude":56.032,"labelLatitude":24.816,"minZoom":8.7},"geometry":{"type":"Polygon","coordinates":[[[56.029,24.861],[56.025,24.883],[56.051,24.866],[56.106,24.82],[56.082,24.772],[56.076,24.752],[56.077,24.738],[56.076,24.73],[56.062,24.732],[56.032,24.754],[56.002,24.823],[55.965,24.854],[55.958,24.869],[55.961,24.881],[55.978,24.886],[55.992,24.883],[56.005,24.877],[56.029,24.861]]]}}]}
