{"type":"FeatureCollection","features":[{"type":"Feature","id":"AI-X00","properties":{"id":"AI-X00","countryCode":"AI","isoSubdivision":"AI-X00","name":"AI-X00","name_en":"AI-X00","name_ko":"AI-X00","type":"Principal subdivision","labelLongitude":-63.426,"labelLatitude":18.598,"minZoom":11},"geometry":{"type":"MultiPolygon","coordinates":[[[[-63.428,18.593],[-63.429,18.601],[-63.424,18.6],[-63.428,18.593]]],[[[-63.252,18.273],[-63.261,18.276],[-63.263,18.282],[-63.254,18.287],[-63.246,18.283],[-63.236,18.283],[-63.252,18.273]]],[[[-63.185,18.268],[-63.179,18.267],[-63.184,18.265],[-63.187,18.265],[-63.19,18.267],[-63.192,18.269],[-63.19,18.269],[-63.186,18.268],[-63.185,18.268]]],[[[-63.174,18.265],[-63.172,18.265],[-63.171,18.266],[-63.169,18.265],[-63.168,18.262],[-63.171,18.261],[-63.174,18.262],[-63.174,18.265]]]]}},{"type":"Feature","id":"AI-X01~","properties":{"id":"AI-X01~","countryCode":"AI","isoSubdivision":"AI-X01~","name":"Blowing Point","name_en":"Blowing Point","name_ko":"블로잉 포인트","type":"District","labelLongitude":-63.094,"labelLatitude":18.189,"minZoom":11},"geometry":{"type":"Polygon","coordinates":[[[-63.061,18.199],[-63.1,18.176],[-63.102,18.18],[-63.109,18.185],[-63.114,18.19],[-63.114,18.197],[-63.103,18.197],[-63.102,18.201],[-63.088,18.202],[-63.081,18.207],[-63.073,18.212],[-63.072,18.203],[-63.065,18.206],[-63.061,18.212],[-63.061,18.199]]]}},{"type":"Feature","id":"AI-X02~","properties":{"id":"AI-X02~","countryCode":"AI","isoSubdivision":"AI-X02~","name":"East End","name_en":"East End","name_ko":"이스트 엔드","type":"District","labelLongitude":-62.985,"labelLatitude":18.262,"minZoom":11},"geometry":{"type":"MultiPolygon","coordinates":[[[[-63.013,18.272],[-63.007,18.273],[-63.008,18.267],[-63,18.267],[-62.995,18.275],[-62.984,18.276],[-62.973,18.276],[-62.973,18.269],[-62.993,18.237],[-62.995,18.235],[-62.994,18.244],[-63.002,18.244],[-62.996,18.252],[-62.995,18.256],[-63.003,18.261],[-63.014,18.261],[-63.013,18.272]]],[[[-62.958,18.289],[-62.951,18.292],[-62.948,18.297],[-62.934,18.295],[-62.926,18.29],[-62.932,18.287],[-62.945,18.284],[-62.947,18.28],[-62.957,18.274],[-62.96,18.278],[-62.956,18.282],[-62.958,18.289]]]]}},{"type":"Feature","id":"AI-X03~","properties":{"id":"AI-X03~","countryCode":"AI","isoSubdivision":"AI-X03~","name":"George Hill","name_en":"George Hill","name_ko":"조지 힐","type":"District","labelLongitude":-63.066,"labelLatitude":18.209,"minZoom":11},"geometry":{"type":"Polygon","coordinates":[[[-63.073,18.212],[-63.061,18.219],[-63.061,18.212],[-63.065,18.206],[-63.072,18.203],[-63.073,18.212]]]}},{"type":"Feature","id":"AI-X04~","properties":{"id":"AI-X04~","countryCode":"AI","isoSubdivision":"AI-X04~","name":"Island Harbour","name_en":"Island Harbour","name_ko":"아일랜드 하버","type":"District","labelLongitude":-63.003,"labelLatitude":18.271,"minZoom":11},"geometry":{"type":"Polygon","coordinates":[[[-63.007,18.273],[-62.995,18.275],[-63,18.267],[-63.008,18.267],[-63.007,18.273]]]}},{"type":"Feature","id":"AI-X05~","properties":{"id":"AI-X05~","countryCode":"AI","isoSubdivision":"AI-X05~","name":"North Hill","name_en":"North Hill","name_ko":"노스 힐","type":"District","labelLongitude":-63.074,"labelLatitude":18.224,"minZoom":11},"geometry":{"type":"Polygon","coordinates":[[[-63.078,18.226],[-63.073,18.231],[-63.047,18.227],[-63.061,18.219],[-63.069,18.22],[-63.076,18.216],[-63.076,18.221],[-63.078,18.226]]]}},{"type":"Feature","id":"AI-X06~","properties":{"id":"AI-X06~","countryCode":"AI","isoSubdivision":"AI-X06~","name":"North Side","name_en":"North Side","name_ko":"노스 사이드","type":"District","labelLongitude":-63.033,"labelLatitude":18.261,"minZoom":11},"geometry":{"type":"Polygon","coordinates":[[[-63.061,18.246],[-63.055,18.254],[-63.038,18.268],[-63.023,18.27],[-63.022,18.263],[-63.026,18.253],[-63.039,18.253],[-63.048,18.235],[-63.061,18.246]]]}},{"type":"Feature","id":"AI-X07~","properties":{"id":"AI-X07~","countryCode":"AI","isoSubdivision":"AI-X07~","name":"Sandy Ground","name_en":"Sandy Ground","name_ko":"샌디 그라운드","type":"District","labelLongitude":-63.081,"labelLatitude":18.219,"minZoom":11},"geometry":{"type":"Polygon","coordinates":[[[-63.097,18.212],[-63.086,18.218],[-63.078,18.226],[-63.076,18.221],[-63.076,18.216],[-63.079,18.215],[-63.097,18.212]]]}},{"type":"Feature","id":"AI-X08~","properties":{"id":"AI-X08~","countryCode":"AI","isoSubdivision":"AI-X08~","name":"Sandy Hill Bay","name_en":"Sandy Hill Bay","name_ko":"샌디 힐","type":"District","labelLongitude":-63.015,"labelLatitude":18.23,"minZoom":11},"geometry":{"type":"Polygon","coordinates":[[[-62.995,18.235],[-63.001,18.227],[-63.012,18.22],[-63.03,18.215],[-63.031,18.225],[-63.034,18.228],[-63.029,18.235],[-63.023,18.251],[-63.011,18.25],[-62.995,18.256],[-62.996,18.252],[-63.002,18.244],[-62.994,18.244],[-62.995,18.235]]]}},{"type":"Feature","id":"AI-X09~","properties":{"id":"AI-X09~","countryCode":"AI","isoSubdivision":"AI-X09~","name":"South Hill","name_en":"South Hill","name_ko":"사우스 힐","type":"District","labelLongitude":-63.088,"labelLatitude":18.208,"minZoom":11},"geometry":{"type":"Polygon","coordinates":[[[-63.123,18.208],[-63.097,18.212],[-63.079,18.215],[-63.076,18.216],[-63.069,18.22],[-63.061,18.219],[-63.073,18.212],[-63.081,18.207],[-63.088,18.202],[-63.102,18.201],[-63.103,18.197],[-63.114,18.197],[-63.114,18.19],[-63.123,18.184],[-63.123,18.208]]]}},{"type":"Feature","id":"AI-X10~","properties":{"id":"AI-X10~","countryCode":"AI","isoSubdivision":"AI-X10~","name":"Stoney Ground","name_en":"Stoney Ground","name_ko":"스토니 그라운드","type":"District","labelLongitude":-63.037,"labelLatitude":18.239,"minZoom":11},"geometry":{"type":"Polygon","coordinates":[[[-63.023,18.27],[-63.013,18.272],[-63.014,18.261],[-63.003,18.261],[-62.995,18.256],[-63.011,18.25],[-63.023,18.251],[-63.029,18.235],[-63.043,18.235],[-63.044,18.232],[-63.048,18.235],[-63.039,18.253],[-63.026,18.253],[-63.022,18.263],[-63.023,18.27]]]}},{"type":"Feature","id":"AI-X11~","properties":{"id":"AI-X11~","countryCode":"AI","isoSubdivision":"AI-X11~","name":"The Farrington","name_en":"The Farrington","name_ko":"더 패링턴","type":"District","labelLongitude":-63.044,"labelLatitude":18.217,"minZoom":11},"geometry":{"type":"Polygon","coordinates":[[[-63.03,18.215],[-63.038,18.213],[-63.061,18.199],[-63.061,18.212],[-63.061,18.219],[-63.047,18.227],[-63.034,18.228],[-63.031,18.225],[-63.03,18.215]]]}},{"type":"Feature","id":"AI-X12~","properties":{"id":"AI-X12~","countryCode":"AI","isoSubdivision":"AI-X12~","name":"The Quarter","name_en":"The Quarter","name_ko":"더 콰터","type":"District","labelLongitude":-63.04,"labelLatitude":18.23,"minZoom":11},"geometry":{"type":"Polygon","coordinates":[[[-63.034,18.228],[-63.047,18.227],[-63.044,18.232],[-63.043,18.235],[-63.029,18.235],[-63.034,18.228]]]}},{"type":"Feature","id":"AI-X13~","properties":{"id":"AI-X13~","countryCode":"AI","isoSubdivision":"AI-X13~","name":"The Valley","name_en":"The Valley","name_ko":"더 밸리","type":"District","labelLongitude":-63.052,"labelLatitude":18.232,"minZoom":11},"geometry":{"type":"Polygon","coordinates":[[[-63.073,18.231],[-63.068,18.236],[-63.061,18.246],[-63.048,18.235],[-63.044,18.232],[-63.047,18.227],[-63.073,18.231]]]}},{"type":"Feature","id":"AI-X14~","properties":{"id":"AI-X14~","countryCode":"AI","isoSubdivision":"AI-X14~","name":"West End","name_en":"West End","name_ko":"웨스트 엔드","type":"District","labelLongitude":-63.138,"labelLatitude":18.187,"minZoom":11},"geometry":{"type":"Polygon","coordinates":[[[-63.123,18.184],[-63.137,18.173],[-63.151,18.169],[-63.168,18.169],[-63.142,18.198],[-63.134,18.204],[-63.123,18.208],[-63.123,18.184]]]}}]}
