{"type":"FeatureCollection","features":[{"type":"Feature","id":"AM-AG","properties":{"id":"AM-AG","countryCode":"AM","isoSubdivision":"AM-AG","name":"Aragatsotn","name_en":"Aragatsotn","name_ko":"아라가초튼","type":"Province","labelLongitude":44.074,"labelLatitude":40.321,"minZoom":9},"geometry":{"type":"Polygon","coordinates":[[[43.69,40.24],[43.676,40.266],[43.631,40.31],[43.604,40.33],[43.594,40.345],[43.601,40.362],[43.61,40.373],[43.624,40.411],[43.642,40.409],[43.646,40.411],[43.65,40.414],[43.658,40.422],[43.665,40.427],[43.685,40.436],[43.692,40.441],[43.698,40.448],[43.7,40.454],[43.702,40.459],[43.706,40.465],[43.712,40.47],[43.726,40.475],[43.754,40.481],[43.763,40.483],[43.793,40.498],[43.801,40.5],[43.807,40.499],[43.823,40.492],[43.828,40.491],[43.841,40.49],[43.847,40.489],[43.853,40.487],[43.873,40.475],[43.879,40.473],[43.884,40.472],[43.901,40.47],[43.942,40.471],[43.948,40.473],[43.951,40.476],[43.953,40.481],[43.954,40.485],[43.957,40.487],[43.963,40.488],[44.005,40.487],[44.007,40.486],[44.009,40.484],[44.015,40.477],[44.031,40.456],[44.035,40.453],[44.039,40.45],[44.043,40.448],[44.048,40.448],[44.054,40.448],[44.06,40.451],[44.087,40.464],[44.114,40.472],[44.13,40.482],[44.134,40.483],[44.138,40.484],[44.155,40.486],[44.161,40.488],[44.165,40.49],[44.17,40.493],[44.179,40.497],[44.182,40.499],[44.187,40.504],[44.191,40.507],[44.199,40.51],[44.2,40.512],[44.197,40.513],[44.186,40.518],[44.183,40.52],[44.18,40.523],[44.178,40.528],[44.178,40.535],[44.182,40.548],[44.192,40.574],[44.193,40.579],[44.192,40.583],[44.187,40.586],[44.181,40.586],[44.149,40.582],[44.134,40.582],[44.13,40.582],[44.127,40.585],[44.125,40.588],[44.122,40.599],[44.12,40.605],[44.117,40.609],[44.111,40.618],[44.104,40.625],[44.095,40.631],[44.08,40.64],[44.079,40.644],[44.082,40.649],[44.116,40.674],[44.133,40.691],[44.166,40.741],[44.179,40.743],[44.184,40.743],[44.19,40.742],[44.197,40.74],[44.204,40.734],[44.214,40.724],[44.219,40.72],[44.227,40.717],[44.238,40.716],[44.255,40.719],[44.266,40.724],[44.273,40.729],[44.281,40.737],[44.284,40.74],[44.287,40.741],[44.292,40.742],[44.306,40.741],[44.322,40.738],[44.374,40.722],[44.399,40.71],[44.406,40.704],[44.413,40.697],[44.418,40.682],[44.426,40.647],[44.426,40.638],[44.421,40.624],[44.422,40.62],[44.429,40.613],[44.493,40.577],[44.502,40.574],[44.54,40.569],[44.546,40.567],[44.553,40.564],[44.553,40.549],[44.545,40.523],[44.497,40.416],[44.499,40.407],[44.507,40.394],[44.507,40.387],[44.505,40.38],[44.495,40.374],[44.48,40.366],[44.443,40.316],[44.435,40.309],[44.426,40.305],[44.419,40.304],[44.412,40.302],[44.408,40.297],[44.409,40.291],[44.417,40.281],[44.423,40.276],[44.435,40.269],[44.437,40.265],[44.437,40.261],[44.432,40.256],[44.427,40.253],[44.414,40.246],[44.412,40.242],[44.412,40.235],[44.413,40.224],[44.426,40.201],[44.418,40.189],[44.36,40.199],[44.338,40.207],[44.32,40.218],[44.315,40.22],[44.31,40.221],[44.293,40.228],[44.287,40.234],[44.282,40.238],[44.275,40.241],[44.264,40.24],[44.243,40.237],[44.232,40.232],[44.223,40.227],[44.218,40.225],[44.211,40.225],[44.204,40.228],[44.195,40.237],[44.192,40.24],[44.187,40.241],[44.181,40.242],[44.175,40.243],[44.169,40.242],[44.163,40.238],[44.162,40.232],[44.163,40.225],[44.169,40.211],[44.169,40.201],[44.158,40.192],[44.136,40.185],[44.018,40.186],[44.01,40.188],[44.002,40.192],[43.987,40.201],[43.972,40.215],[43.962,40.22],[43.924,40.23],[43.91,40.236],[43.884,40.253],[43.88,40.254],[43.873,40.256],[43.847,40.26],[43.838,40.263],[43.832,40.266],[43.82,40.281],[43.816,40.285],[43.81,40.285],[43.803,40.283],[43.793,40.273],[43.787,40.267],[43.781,40.262],[43.774,40.261],[43.764,40.265],[43.756,40.27],[43.748,40.271],[43.74,40.268],[43.717,40.252],[43.692,40.241],[43.69,40.24]]]}},{"type":"Feature","id":"AM-AR","properties":{"id":"AM-AR","countryCode":"AM","isoSubdivision":"AM-AR","name":"Ararat","name_en":"Ararat","name_ko":"아라라트","type":"Province","labelLongitude":44.73,"labelLatitude":39.92,"minZoom":9},"geometry":{"type":"Polygon","coordinates":[[[45.075,39.75],[45.068,39.757],[45.034,39.77],[44.996,39.76],[44.959,39.739],[44.953,39.736],[44.927,39.725],[44.893,39.718],[44.849,39.719],[44.803,39.712],[44.775,39.703],[44.759,39.723],[44.698,39.785],[44.692,39.793],[44.687,39.796],[44.682,39.797],[44.671,39.796],[44.666,39.796],[44.648,39.805],[44.612,39.837],[44.598,39.831],[44.594,39.837],[44.594,39.848],[44.591,39.858],[44.576,39.866],[44.567,39.873],[44.564,39.882],[44.559,39.897],[44.548,39.911],[44.522,39.934],[44.464,39.972],[44.381,40.01],[44.381,40.011],[44.38,40.027],[44.378,40.037],[44.369,40.056],[44.351,40.083],[44.352,40.087],[44.357,40.094],[44.371,40.103],[44.386,40.122],[44.392,40.128],[44.402,40.132],[44.429,40.141],[44.438,40.145],[44.44,40.153],[44.453,40.156],[44.457,40.154],[44.464,40.149],[44.466,40.146],[44.467,40.141],[44.467,40.137],[44.464,40.125],[44.463,40.119],[44.464,40.115],[44.465,40.111],[44.467,40.107],[44.471,40.103],[44.474,40.1],[44.477,40.098],[44.479,40.097],[44.514,40.09],[44.524,40.087],[44.531,40.082],[44.54,40.066],[44.542,40.064],[44.545,40.061],[44.555,40.055],[44.559,40.054],[44.564,40.054],[44.577,40.057],[44.604,40.071],[44.648,40.116],[44.657,40.112],[44.667,40.094],[44.674,40.089],[44.686,40.084],[44.693,40.083],[44.742,40.09],[44.783,40.1],[44.858,40.133],[44.887,40.142],[44.923,40.15],[44.962,40.162],[44.992,40.165],[45.03,40.163],[45.025,40.135],[45.014,40.102],[45.013,40.089],[45.015,40.079],[45.057,40],[45.061,39.991],[45.063,39.987],[45.065,39.985],[45.068,39.984],[45.079,39.98],[45.083,39.976],[45.084,39.97],[45.083,39.947],[45.085,39.938],[45.089,39.93],[45.095,39.918],[45.098,39.909],[45.1,39.888],[45.101,39.881],[45.11,39.866],[45.086,39.825],[45.079,39.809],[45.078,39.805],[45.078,39.772],[45.075,39.75]]]}},{"type":"Feature","id":"AM-AV","properties":{"id":"AM-AV","countryCode":"AM","isoSubdivision":"AM-AV","name":"Armavir","name_en":"Armavir","name_ko":"아르마비르","type":"Province","labelLongitude":44.046,"labelLatitude":40.099,"minZoom":9},"geometry":{"type":"Polygon","coordinates":[[[43.665,40.11],[43.653,40.139],[43.666,40.149],[43.712,40.156],[43.721,40.169],[43.715,40.181],[43.684,40.21],[43.673,40.228],[43.691,40.239],[43.69,40.24],[43.692,40.241],[43.717,40.252],[43.74,40.268],[43.748,40.271],[43.756,40.27],[43.764,40.265],[43.774,40.261],[43.781,40.262],[43.787,40.267],[43.793,40.273],[43.803,40.283],[43.81,40.285],[43.816,40.285],[43.82,40.281],[43.832,40.266],[43.838,40.263],[43.847,40.26],[43.873,40.256],[43.88,40.254],[43.884,40.253],[43.91,40.236],[43.924,40.23],[43.962,40.22],[43.972,40.215],[43.987,40.201],[44.002,40.192],[44.01,40.188],[44.018,40.186],[44.136,40.185],[44.158,40.192],[44.169,40.201],[44.169,40.211],[44.163,40.225],[44.162,40.232],[44.163,40.238],[44.169,40.242],[44.175,40.243],[44.181,40.242],[44.187,40.241],[44.192,40.24],[44.195,40.237],[44.204,40.228],[44.211,40.225],[44.218,40.225],[44.223,40.227],[44.232,40.232],[44.243,40.237],[44.264,40.24],[44.275,40.241],[44.282,40.238],[44.287,40.234],[44.293,40.228],[44.31,40.221],[44.315,40.22],[44.32,40.218],[44.338,40.207],[44.36,40.199],[44.418,40.189],[44.428,40.179],[44.429,40.166],[44.431,40.162],[44.44,40.153],[44.438,40.145],[44.429,40.141],[44.402,40.132],[44.392,40.128],[44.386,40.122],[44.371,40.103],[44.357,40.094],[44.352,40.087],[44.351,40.083],[44.369,40.056],[44.378,40.037],[44.38,40.027],[44.381,40.011],[44.381,40.01],[44.326,40.035],[44.289,40.043],[44.255,40.043],[44.195,40.031],[44.166,40.028],[44.146,40.023],[44.135,40.022],[44.127,40.024],[44.114,40.034],[44.104,40.036],[44.083,40.032],[44.048,40.013],[44.032,40.009],[43.912,40.024],[43.803,40.071],[43.711,40.091],[43.665,40.11]]]}},{"type":"Feature","id":"AM-ER","properties":{"id":"AM-ER","countryCode":"AM","isoSubdivision":"AM-ER","name":"Yerevan","name_en":"Yerevan","name_ko":"예레반","type":"City","labelLongitude":44.533,"labelLatitude":40.147,"minZoom":9},"geometry":{"type":"Polygon","coordinates":[[[44.572,40.229],[44.58,40.227],[44.589,40.223],[44.604,40.208],[44.612,40.202],[44.617,40.198],[44.618,40.195],[44.615,40.191],[44.611,40.187],[44.595,40.173],[44.592,40.17],[44.588,40.164],[44.585,40.158],[44.583,40.151],[44.581,40.144],[44.584,40.139],[44.59,40.135],[44.607,40.134],[44.627,40.136],[44.633,40.134],[44.64,40.131],[44.648,40.116],[44.604,40.071],[44.577,40.057],[44.564,40.054],[44.559,40.054],[44.555,40.055],[44.545,40.061],[44.542,40.064],[44.54,40.066],[44.531,40.082],[44.524,40.087],[44.514,40.09],[44.479,40.097],[44.477,40.098],[44.474,40.1],[44.471,40.103],[44.467,40.107],[44.465,40.111],[44.464,40.115],[44.463,40.119],[44.464,40.125],[44.467,40.137],[44.467,40.141],[44.466,40.146],[44.464,40.149],[44.457,40.154],[44.453,40.156],[44.44,40.153],[44.431,40.162],[44.429,40.166],[44.428,40.179],[44.418,40.189],[44.426,40.201],[44.429,40.205],[44.43,40.206],[44.431,40.208],[44.433,40.209],[44.435,40.21],[44.439,40.21],[44.449,40.209],[44.454,40.209],[44.46,40.209],[44.463,40.21],[44.469,40.213],[44.472,40.214],[44.475,40.214],[44.487,40.212],[44.526,40.215],[44.532,40.216],[44.561,40.227],[44.572,40.229]]]}},{"type":"Feature","id":"AM-GR","properties":{"id":"AM-GR","countryCode":"AM","isoSubdivision":"AM-GR","name":"Gegharkunik","name_en":"Gegharkunik","name_ko":"게가르쿠니크","type":"Province","labelLongitude":45.385,"labelLatitude":40.278,"minZoom":9},"geometry":{"type":"MultiPolygon","coordinates":[[[[45.374,40.651],[45.374,40.633],[45.388,40.61],[45.407,40.595],[45.427,40.583],[45.445,40.566],[45.449,40.556],[45.451,40.534],[45.455,40.524],[45.465,40.516],[45.485,40.505],[45.494,40.494],[45.526,40.441],[45.585,40.399],[45.818,40.298],[45.819,40.297],[45.862,40.261],[45.882,40.26],[45.889,40.262],[45.903,40.265],[45.925,40.266],[45.939,40.26],[45.954,40.25],[45.979,40.224],[45.981,40.218],[45.982,40.212],[45.981,40.206],[45.963,40.142],[45.951,40.117],[45.932,40.098],[45.91,40.083],[45.906,40.075],[45.894,40.029],[45.887,40.018],[45.874,40.01],[45.804,40.004],[45.64,40.025],[45.576,39.994],[45.578,39.984],[45.577,39.984],[45.574,39.984],[45.565,39.989],[45.56,39.994],[45.557,39.996],[45.554,39.998],[45.551,39.999],[45.546,39.999],[45.54,39.994],[45.536,39.991],[45.526,39.979],[45.512,39.969],[45.477,39.955],[45.46,39.951],[45.392,39.942],[45.367,39.942],[45.336,39.937],[45.262,39.94],[45.253,39.939],[45.222,39.93],[45.209,39.924],[45.197,39.918],[45.157,39.889],[45.11,39.866],[45.101,39.881],[45.1,39.888],[45.098,39.909],[45.095,39.918],[45.089,39.93],[45.085,39.938],[45.083,39.947],[45.084,39.97],[45.083,39.976],[45.079,39.98],[45.068,39.984],[45.065,39.985],[45.063,39.987],[45.061,39.991],[45.057,40],[45.015,40.079],[45.013,40.089],[45.014,40.102],[45.025,40.135],[45.03,40.163],[45.015,40.181],[44.947,40.242],[44.943,40.248],[44.942,40.255],[44.945,40.266],[44.95,40.273],[44.959,40.281],[44.957,40.292],[44.911,40.425],[44.907,40.432],[44.899,40.439],[44.87,40.454],[44.866,40.458],[44.865,40.463],[44.866,40.47],[44.87,40.482],[44.872,40.489],[44.871,40.498],[44.867,40.507],[44.856,40.52],[44.849,40.527],[44.843,40.531],[44.837,40.532],[44.815,40.531],[44.808,40.532],[44.803,40.536],[44.799,40.544],[44.788,40.597],[44.788,40.607],[44.79,40.615],[44.797,40.625],[44.8,40.631],[44.797,40.65],[44.915,40.669],[44.93,40.666],[44.945,40.66],[44.952,40.656],[44.964,40.647],[44.97,40.643],[44.982,40.639],[44.989,40.638],[44.997,40.638],[45.039,40.644],[45.054,40.648],[45.059,40.651],[45.065,40.654],[45.069,40.658],[45.072,40.663],[45.084,40.686],[45.088,40.691],[45.093,40.696],[45.098,40.699],[45.137,40.711],[45.145,40.715],[45.174,40.732],[45.181,40.734],[45.187,40.733],[45.207,40.729],[45.242,40.726],[45.251,40.724],[45.257,40.72],[45.28,40.698],[45.285,40.695],[45.291,40.693],[45.309,40.69],[45.315,40.687],[45.321,40.684],[45.333,40.676],[45.342,40.666],[45.354,40.657],[45.373,40.651],[45.374,40.651]]],[[[45.52,40.66],[45.535,40.659],[45.561,40.648],[45.547,40.622],[45.514,40.602],[45.479,40.61],[45.473,40.619],[45.471,40.63],[45.473,40.64],[45.479,40.65],[45.492,40.657],[45.506,40.66],[45.52,40.66]]]]}},{"type":"Feature","id":"AM-KT","properties":{"id":"AM-KT","countryCode":"AM","isoSubdivision":"AM-KT","name":"Kotayk","name_en":"Kotayk","name_ko":"코타이크","type":"Province","labelLongitude":44.719,"labelLatitude":40.375,"minZoom":9},"geometry":{"type":"Polygon","coordinates":[[[44.772,40.665],[44.797,40.65],[44.8,40.631],[44.797,40.625],[44.79,40.615],[44.788,40.607],[44.788,40.597],[44.799,40.544],[44.803,40.536],[44.808,40.532],[44.815,40.531],[44.837,40.532],[44.843,40.531],[44.849,40.527],[44.856,40.52],[44.867,40.507],[44.871,40.498],[44.872,40.489],[44.87,40.482],[44.866,40.47],[44.865,40.463],[44.866,40.458],[44.87,40.454],[44.899,40.439],[44.907,40.432],[44.911,40.425],[44.957,40.292],[44.959,40.281],[44.95,40.273],[44.945,40.266],[44.942,40.255],[44.943,40.248],[44.947,40.242],[45.015,40.181],[45.03,40.163],[44.992,40.165],[44.962,40.162],[44.923,40.15],[44.887,40.142],[44.858,40.133],[44.783,40.1],[44.742,40.09],[44.693,40.083],[44.686,40.084],[44.674,40.089],[44.667,40.094],[44.657,40.112],[44.648,40.116],[44.64,40.131],[44.633,40.134],[44.627,40.136],[44.607,40.134],[44.59,40.135],[44.584,40.139],[44.581,40.144],[44.583,40.151],[44.585,40.158],[44.588,40.164],[44.592,40.17],[44.595,40.173],[44.611,40.187],[44.615,40.191],[44.618,40.195],[44.617,40.198],[44.612,40.202],[44.604,40.208],[44.589,40.223],[44.58,40.227],[44.572,40.229],[44.561,40.227],[44.532,40.216],[44.526,40.215],[44.487,40.212],[44.475,40.214],[44.472,40.214],[44.469,40.213],[44.463,40.21],[44.46,40.209],[44.454,40.209],[44.449,40.209],[44.439,40.21],[44.435,40.21],[44.433,40.209],[44.431,40.208],[44.43,40.206],[44.429,40.205],[44.426,40.201],[44.413,40.224],[44.412,40.235],[44.412,40.242],[44.414,40.246],[44.427,40.253],[44.432,40.256],[44.437,40.261],[44.437,40.265],[44.435,40.269],[44.423,40.276],[44.417,40.281],[44.409,40.291],[44.408,40.297],[44.412,40.302],[44.419,40.304],[44.426,40.305],[44.435,40.309],[44.443,40.316],[44.48,40.366],[44.495,40.374],[44.505,40.38],[44.507,40.387],[44.507,40.394],[44.499,40.407],[44.497,40.416],[44.545,40.523],[44.553,40.549],[44.553,40.564],[44.546,40.567],[44.54,40.569],[44.502,40.574],[44.493,40.577],[44.429,40.613],[44.422,40.62],[44.421,40.624],[44.426,40.638],[44.426,40.647],[44.418,40.682],[44.502,40.698],[44.527,40.7],[44.543,40.691],[44.553,40.688],[44.561,40.689],[44.58,40.696],[44.588,40.696],[44.594,40.695],[44.644,40.675],[44.685,40.665],[44.733,40.661],[44.743,40.662],[44.772,40.665]]]}},{"type":"Feature","id":"AM-LO","properties":{"id":"AM-LO","countryCode":"AM","isoSubdivision":"AM-LO","name":"Lori","name_en":"Lori","name_ko":"로리","type":"Province","labelLongitude":44.452,"labelLatitude":40.935,"minZoom":9},"geometry":{"type":"Polygon","coordinates":[[[44.822,41.206],[44.848,41.209],[44.858,41.219],[44.854,41.224],[44.878,41.222],[44.912,41.204],[44.922,41.196],[44.924,41.19],[44.924,41.185],[44.921,41.18],[44.917,41.177],[44.903,41.169],[44.888,41.163],[44.884,41.16],[44.881,41.153],[44.88,41.139],[44.884,41.118],[44.889,41.108],[44.896,41.103],[44.904,41.101],[44.915,41.097],[44.925,41.091],[44.937,41.077],[44.939,41.069],[44.936,41.063],[44.871,41.025],[44.861,41.022],[44.852,41.021],[44.844,41.023],[44.831,41.03],[44.824,41.032],[44.818,41.033],[44.811,41.032],[44.805,41.028],[44.772,41],[44.771,40.994],[44.771,40.988],[44.775,40.983],[44.785,40.975],[44.81,40.958],[44.822,40.953],[44.829,40.951],[44.844,40.95],[44.857,40.95],[44.861,40.95],[44.864,40.948],[44.867,40.947],[44.879,40.942],[44.883,40.94],[44.887,40.933],[44.891,40.93],[44.902,40.922],[44.908,40.914],[44.905,40.909],[44.9,40.905],[44.894,40.901],[44.886,40.894],[44.883,40.892],[44.878,40.89],[44.873,40.887],[44.869,40.881],[44.865,40.875],[44.844,40.823],[44.838,40.815],[44.833,40.809],[44.826,40.805],[44.819,40.803],[44.785,40.796],[44.766,40.789],[44.759,40.784],[44.752,40.778],[44.752,40.773],[44.753,40.768],[44.756,40.762],[44.762,40.749],[44.766,40.743],[44.773,40.723],[44.772,40.665],[44.743,40.662],[44.733,40.661],[44.685,40.665],[44.644,40.675],[44.594,40.695],[44.588,40.696],[44.58,40.696],[44.561,40.689],[44.553,40.688],[44.543,40.691],[44.527,40.7],[44.502,40.698],[44.418,40.682],[44.413,40.697],[44.406,40.704],[44.399,40.71],[44.374,40.722],[44.322,40.738],[44.306,40.741],[44.292,40.742],[44.287,40.741],[44.284,40.74],[44.281,40.737],[44.273,40.729],[44.266,40.724],[44.255,40.719],[44.238,40.716],[44.227,40.717],[44.219,40.72],[44.214,40.724],[44.204,40.734],[44.197,40.74],[44.19,40.742],[44.184,40.743],[44.179,40.743],[44.166,40.741],[44.124,40.739],[44.117,40.741],[44.109,40.744],[44.106,40.748],[44.099,40.761],[44.092,40.768],[44.085,40.771],[44.05,40.775],[44.042,40.779],[44.037,40.785],[44.035,40.791],[44.031,40.799],[44.026,40.806],[44.018,40.817],[44.015,40.823],[44.015,40.83],[44.023,40.84],[44.024,40.843],[44.032,40.87],[44.035,40.875],[44.038,40.88],[44.039,40.881],[44.04,40.882],[44.043,40.883],[44.046,40.883],[44.05,40.882],[44.066,40.875],[44.073,40.874],[44.08,40.875],[44.089,40.877],[44.094,40.88],[44.098,40.885],[44.1,40.895],[44.101,40.902],[44.105,40.908],[44.116,40.916],[44.12,40.921],[44.128,40.953],[44.126,40.957],[44.123,40.958],[44.1,40.957],[44.078,40.96],[44.071,40.962],[44.065,40.964],[44.059,40.969],[44.058,40.973],[44.059,40.977],[44.062,40.98],[44.07,40.984],[44.074,40.987],[44.077,40.992],[44.078,40.999],[44.077,41.004],[44.075,41.007],[44.073,41.008],[44.054,41.017],[44.047,41.023],[44.038,41.031],[44.02,41.053],[44.014,41.059],[44.009,41.062],[43.985,41.069],[43.978,41.072],[43.97,41.078],[43.967,41.083],[43.966,41.089],[43.978,41.163],[43.978,41.165],[44.001,41.169],[44.041,41.183],[44.061,41.184],[44.104,41.175],[44.125,41.178],[44.144,41.186],[44.16,41.198],[44.165,41.208],[44.166,41.216],[44.168,41.224],[44.18,41.23],[44.191,41.23],[44.218,41.222],[44.266,41.196],[44.285,41.191],[44.308,41.194],[44.318,41.199],[44.325,41.205],[44.333,41.21],[44.345,41.213],[44.357,41.212],[44.411,41.188],[44.432,41.182],[44.455,41.18],[44.479,41.186],[44.499,41.203],[44.506,41.207],[44.517,41.207],[44.522,41.199],[44.526,41.189],[44.531,41.181],[44.552,41.177],[44.566,41.187],[44.578,41.203],[44.591,41.216],[44.613,41.223],[44.633,41.221],[44.675,41.208],[44.822,41.206]]]}},{"type":"Feature","id":"AM-SH","properties":{"id":"AM-SH","countryCode":"AM","isoSubdivision":"AM-SH","name":"Shirak","name_en":"Shirak","name_ko":"시라크","type":"Province","labelLongitude":43.818,"labelLatitude":40.819,"minZoom":9},"geometry":{"type":"Polygon","coordinates":[[[43.73,41.107],[43.754,41.108],[43.774,41.114],[43.82,41.146],[43.863,41.159],[43.956,41.16],[43.978,41.165],[43.978,41.163],[43.966,41.089],[43.967,41.083],[43.97,41.078],[43.978,41.072],[43.985,41.069],[44.009,41.062],[44.014,41.059],[44.02,41.053],[44.038,41.031],[44.047,41.023],[44.054,41.017],[44.073,41.008],[44.075,41.007],[44.077,41.004],[44.078,40.999],[44.077,40.992],[44.074,40.987],[44.07,40.984],[44.062,40.98],[44.059,40.977],[44.058,40.973],[44.059,40.969],[44.065,40.964],[44.071,40.962],[44.078,40.96],[44.1,40.957],[44.123,40.958],[44.126,40.957],[44.128,40.953],[44.12,40.921],[44.116,40.916],[44.105,40.908],[44.101,40.902],[44.1,40.895],[44.098,40.885],[44.094,40.88],[44.089,40.877],[44.08,40.875],[44.073,40.874],[44.066,40.875],[44.05,40.882],[44.046,40.883],[44.043,40.883],[44.04,40.882],[44.039,40.881],[44.038,40.88],[44.035,40.875],[44.032,40.87],[44.024,40.843],[44.023,40.84],[44.015,40.83],[44.015,40.823],[44.018,40.817],[44.026,40.806],[44.031,40.799],[44.035,40.791],[44.037,40.785],[44.042,40.779],[44.05,40.775],[44.085,40.771],[44.092,40.768],[44.099,40.761],[44.106,40.748],[44.109,40.744],[44.117,40.741],[44.124,40.739],[44.166,40.741],[44.133,40.691],[44.116,40.674],[44.082,40.649],[44.079,40.644],[44.08,40.64],[44.095,40.631],[44.104,40.625],[44.111,40.618],[44.117,40.609],[44.12,40.605],[44.122,40.599],[44.125,40.588],[44.127,40.585],[44.13,40.582],[44.134,40.582],[44.149,40.582],[44.181,40.586],[44.187,40.586],[44.192,40.583],[44.193,40.579],[44.192,40.574],[44.182,40.548],[44.178,40.535],[44.178,40.528],[44.18,40.523],[44.183,40.52],[44.186,40.518],[44.197,40.513],[44.2,40.512],[44.199,40.51],[44.191,40.507],[44.187,40.504],[44.182,40.499],[44.179,40.497],[44.17,40.493],[44.165,40.49],[44.161,40.488],[44.155,40.486],[44.138,40.484],[44.134,40.483],[44.13,40.482],[44.114,40.472],[44.087,40.464],[44.06,40.451],[44.054,40.448],[44.048,40.448],[44.043,40.448],[44.039,40.45],[44.035,40.453],[44.031,40.456],[44.015,40.477],[44.009,40.484],[44.007,40.486],[44.005,40.487],[43.963,40.488],[43.957,40.487],[43.954,40.485],[43.953,40.481],[43.951,40.476],[43.948,40.473],[43.942,40.471],[43.901,40.47],[43.884,40.472],[43.879,40.473],[43.873,40.475],[43.853,40.487],[43.847,40.489],[43.841,40.49],[43.828,40.491],[43.823,40.492],[43.807,40.499],[43.801,40.5],[43.793,40.498],[43.763,40.483],[43.754,40.481],[43.726,40.475],[43.712,40.47],[43.706,40.465],[43.702,40.459],[43.7,40.454],[43.698,40.448],[43.692,40.441],[43.685,40.436],[43.665,40.427],[43.658,40.422],[43.65,40.414],[43.646,40.411],[43.642,40.409],[43.624,40.411],[43.625,40.413],[43.625,40.42],[43.585,40.447],[43.564,40.465],[43.559,40.478],[43.594,40.509],[43.615,40.52],[43.639,40.523],[43.636,40.53],[43.635,40.533],[43.631,40.537],[43.638,40.535],[43.642,40.534],[43.646,40.533],[43.653,40.529],[43.651,40.553],[43.665,40.574],[43.707,40.612],[43.7,40.635],[43.706,40.641],[43.726,40.669],[43.729,40.677],[43.724,40.746],[43.721,40.763],[43.711,40.782],[43.67,40.832],[43.66,40.852],[43.654,40.875],[43.652,40.895],[43.648,40.914],[43.636,40.934],[43.605,40.963],[43.565,40.988],[43.522,41.004],[43.48,41.009],[43.46,41.023],[43.445,41.051],[43.436,41.083],[43.44,41.107],[43.45,41.105],[43.46,41.105],[43.47,41.106],[43.524,41.123],[43.567,41.124],[43.73,41.107]]]}},{"type":"Feature","id":"AM-SU","properties":{"id":"AM-SU","countryCode":"AM","isoSubdivision":"AM-SU","name":"Syunik","name_en":"Syunik","name_ko":"슈니크","type":"Province","labelLongitude":46.152,"labelLatitude":39.248,"minZoom":9},"geometry":{"type":"Polygon","coordinates":[[[45.809,39.851],[45.817,39.839],[45.862,39.805],[45.883,39.796],[45.916,39.783],[45.979,39.768],[46.007,39.748],[46.045,39.688],[46.077,39.668],[46.114,39.66],[46.132,39.652],[46.146,39.638],[46.17,39.604],[46.184,39.593],[46.206,39.588],[46.241,39.594],[46.31,39.621],[46.344,39.619],[46.358,39.61],[46.381,39.585],[46.396,39.577],[46.416,39.574],[46.479,39.579],[46.495,39.576],[46.512,39.568],[46.524,39.555],[46.527,39.538],[46.518,39.525],[46.504,39.518],[46.492,39.51],[46.492,39.494],[46.499,39.483],[46.498,39.474],[46.491,39.466],[46.479,39.462],[46.406,39.451],[46.374,39.436],[46.361,39.41],[46.375,39.379],[46.407,39.359],[46.479,39.334],[46.495,39.324],[46.503,39.309],[46.508,39.294],[46.518,39.279],[46.542,39.259],[46.585,39.236],[46.591,39.231],[46.598,39.225],[46.599,39.222],[46.603,39.215],[46.594,39.212],[46.573,39.212],[46.526,39.186],[46.514,39.184],[46.453,39.208],[46.418,39.212],[46.395,39.195],[46.396,39.164],[46.422,39.145],[46.455,39.13],[46.479,39.115],[46.492,39.082],[46.498,39.054],[46.495,39.026],[46.481,38.994],[46.481,38.991],[46.479,38.988],[46.476,38.976],[46.474,38.963],[46.475,38.951],[46.479,38.939],[46.514,38.882],[46.496,38.886],[46.392,38.922],[46.378,38.925],[46.368,38.924],[46.343,38.917],[46.305,38.916],[46.291,38.914],[46.272,38.907],[46.22,38.877],[46.202,38.871],[46.136,38.864],[46.078,38.95],[46.025,39.064],[46.005,39.095],[45.979,39.124],[45.958,39.152],[45.949,39.178],[45.955,39.203],[45.979,39.228],[45.986,39.235],[45.988,39.242],[45.986,39.249],[45.979,39.257],[45.959,39.272],[45.902,39.294],[45.887,39.3],[45.863,39.314],[45.844,39.33],[45.824,39.343],[45.767,39.354],[45.764,39.359],[45.759,39.369],[45.765,39.389],[45.799,39.432],[45.803,39.448],[45.794,39.494],[45.797,39.519],[45.797,39.536],[45.788,39.549],[45.765,39.562],[45.738,39.57],[45.715,39.569],[45.709,39.568],[45.709,39.569],[45.708,39.57],[45.703,39.58],[45.702,39.584],[45.701,39.59],[45.728,39.67],[45.732,39.692],[45.732,39.707],[45.713,39.734],[45.715,39.745],[45.723,39.76],[45.776,39.829],[45.792,39.844],[45.809,39.851]]]}},{"type":"Feature","id":"AM-TV","properties":{"id":"AM-TV","countryCode":"AM","isoSubdivision":"AM-TV","name":"Tavush","name_en":"Tavush","name_ko":"타부시","type":"Province","labelLongitude":45.176,"labelLatitude":40.888,"minZoom":9},"geometry":{"type":"Polygon","coordinates":[[[44.917,41.262],[44.955,41.263],[44.967,41.269],[44.99,41.284],[45.002,41.29],[45.039,41.231],[45.029,41.21],[45.035,41.198],[45.052,41.192],[45.117,41.192],[45.134,41.188],[45.187,41.157],[45.2,41.143],[45.201,41.127],[45.167,41.108],[45.068,41.111],[45.057,41.079],[45.07,41.062],[45.092,41.051],[45.111,41.05],[45.117,41.061],[45.12,41.08],[45.137,41.073],[45.169,41.047],[45.19,41.038],[45.205,41.025],[45.222,41.014],[45.269,41.01],[45.313,40.997],[45.335,40.994],[45.382,41.011],[45.392,41.015],[45.419,41.017],[45.425,40.994],[45.416,40.961],[45.429,40.951],[45.443,40.948],[45.453,40.946],[45.479,40.93],[45.522,40.888],[45.538,40.876],[45.558,40.871],[45.582,40.87],[45.599,40.863],[45.601,40.841],[45.582,40.799],[45.556,40.777],[45.478,40.748],[45.438,40.733],[45.399,40.709],[45.374,40.675],[45.374,40.651],[45.373,40.651],[45.354,40.657],[45.342,40.666],[45.333,40.676],[45.321,40.684],[45.315,40.687],[45.309,40.69],[45.291,40.693],[45.285,40.695],[45.28,40.698],[45.257,40.72],[45.251,40.724],[45.242,40.726],[45.207,40.729],[45.187,40.733],[45.181,40.734],[45.174,40.732],[45.145,40.715],[45.137,40.711],[45.098,40.699],[45.093,40.696],[45.088,40.691],[45.084,40.686],[45.072,40.663],[45.069,40.658],[45.065,40.654],[45.059,40.651],[45.054,40.648],[45.039,40.644],[44.997,40.638],[44.989,40.638],[44.982,40.639],[44.97,40.643],[44.964,40.647],[44.952,40.656],[44.945,40.66],[44.93,40.666],[44.915,40.669],[44.797,40.65],[44.772,40.665],[44.773,40.723],[44.766,40.743],[44.762,40.749],[44.756,40.762],[44.753,40.768],[44.752,40.773],[44.752,40.778],[44.759,40.784],[44.766,40.789],[44.785,40.796],[44.819,40.803],[44.826,40.805],[44.833,40.809],[44.838,40.815],[44.844,40.823],[44.865,40.875],[44.869,40.881],[44.873,40.887],[44.878,40.89],[44.883,40.892],[44.886,40.894],[44.894,40.901],[44.9,40.905],[44.905,40.909],[44.908,40.914],[44.902,40.922],[44.891,40.93],[44.887,40.933],[44.883,40.94],[44.879,40.942],[44.867,40.947],[44.864,40.948],[44.861,40.95],[44.857,40.95],[44.844,40.95],[44.829,40.951],[44.822,40.953],[44.81,40.958],[44.785,40.975],[44.775,40.983],[44.771,40.988],[44.771,40.994],[44.772,41],[44.805,41.028],[44.811,41.032],[44.818,41.033],[44.824,41.032],[44.831,41.03],[44.844,41.023],[44.852,41.021],[44.861,41.022],[44.871,41.025],[44.936,41.063],[44.939,41.069],[44.937,41.077],[44.925,41.091],[44.915,41.097],[44.904,41.101],[44.896,41.103],[44.889,41.108],[44.884,41.118],[44.88,41.139],[44.881,41.153],[44.884,41.16],[44.888,41.163],[44.903,41.169],[44.917,41.177],[44.921,41.18],[44.924,41.185],[44.924,41.19],[44.922,41.196],[44.912,41.204],[44.878,41.222],[44.854,41.224],[44.847,41.231],[44.81,41.244],[44.801,41.259],[44.821,41.273],[44.917,41.262]],[[45.016,41.023],[45.03,41.046],[45.019,41.075],[44.979,41.082],[44.964,41.074],[44.961,41.06],[44.967,41.045],[44.979,41.033],[45.016,41.023]],[[45.21,40.968],[45.22,40.979],[45.192,40.998],[45.188,40.998],[45.184,40.998],[45.18,40.996],[45.177,40.994],[45.187,40.971],[45.21,40.968]]]}},{"type":"Feature","id":"AM-VD","properties":{"id":"AM-VD","countryCode":"AM","isoSubdivision":"AM-VD","name":"Vayots Dzor","name_en":"Vayots Dzor","name_ko":"바요츠조르","type":"Province","labelLongitude":45.442,"labelLatitude":39.718,"minZoom":9},"geometry":{"type":"Polygon","coordinates":[[[45.578,39.984],[45.579,39.97],[45.611,39.959],[45.715,39.951],[45.743,39.941],[45.764,39.922],[45.809,39.851],[45.792,39.844],[45.776,39.829],[45.723,39.76],[45.715,39.745],[45.713,39.734],[45.732,39.707],[45.732,39.692],[45.728,39.67],[45.701,39.59],[45.702,39.584],[45.703,39.58],[45.708,39.57],[45.709,39.569],[45.709,39.568],[45.586,39.545],[45.56,39.537],[45.479,39.497],[45.469,39.494],[45.457,39.489],[45.446,39.488],[45.435,39.489],[45.424,39.494],[45.392,39.519],[45.375,39.526],[45.328,39.529],[45.313,39.534],[45.303,39.545],[45.291,39.566],[45.266,39.593],[45.26,39.6],[45.233,39.593],[45.205,39.572],[45.168,39.566],[45.148,39.575],[45.144,39.59],[45.154,39.626],[45.156,39.649],[45.152,39.668],[45.141,39.684],[45.075,39.75],[45.078,39.772],[45.078,39.805],[45.079,39.809],[45.086,39.825],[45.11,39.866],[45.157,39.889],[45.197,39.918],[45.209,39.924],[45.222,39.93],[45.253,39.939],[45.262,39.94],[45.336,39.937],[45.367,39.942],[45.392,39.942],[45.46,39.951],[45.477,39.955],[45.512,39.969],[45.526,39.979],[45.536,39.991],[45.54,39.994],[45.546,39.999],[45.551,39.999],[45.554,39.998],[45.557,39.996],[45.56,39.994],[45.565,39.989],[45.574,39.984],[45.577,39.984],[45.578,39.984]]]}}]}
