{"type":"FeatureCollection","features":[{"type":"Feature","id":"AS-X01~","properties":{"id":"AS-X01~","countryCode":"AS","isoSubdivision":"AS-X01~","name":"Eastern District","name_en":"Eastern District","name_ko":"이스턴","type":"Principal subdivision","labelLongitude":-170.639,"labelLatitude":-14.272,"minZoom":9},"geometry":{"type":"Polygon","coordinates":[[[-170.722,-14.289],[-170.698,-14.261],[-170.661,-14.252],[-170.62,-14.255],[-170.591,-14.265],[-170.576,-14.253],[-170.567,-14.259],[-170.568,-14.271],[-170.584,-14.278],[-170.642,-14.281],[-170.659,-14.285],[-170.684,-14.303],[-170.693,-14.315],[-170.701,-14.312],[-170.714,-14.314],[-170.715,-14.301],[-170.722,-14.289]]]}},{"type":"Feature","id":"AS-X02~","properties":{"id":"AS-X02~","countryCode":"AS","isoSubdivision":"AS-X02~","name":"Manu'a Islands","name_en":"Manu'a Islands","name_ko":"마누스","type":"Principal subdivision","labelLongitude":-169.493,"labelLatitude":-14.234,"minZoom":9},"geometry":{"type":"MultiPolygon","coordinates":[[[[-169.464,-14.223],[-169.444,-14.231],[-169.44,-14.245],[-169.447,-14.256],[-169.46,-14.25],[-169.468,-14.259],[-169.476,-14.262],[-169.485,-14.262],[-169.495,-14.257],[-169.498,-14.266],[-169.504,-14.271],[-169.513,-14.272],[-169.523,-14.271],[-169.526,-14.259],[-169.529,-14.249],[-169.535,-14.241],[-169.543,-14.237],[-169.528,-14.226],[-169.506,-14.222],[-169.464,-14.223]]],[[[-169.676,-14.175],[-169.668,-14.169],[-169.658,-14.169],[-169.647,-14.172],[-169.636,-14.177],[-169.66,-14.189],[-169.67,-14.188],[-169.676,-14.175]]]]}},{"type":"Feature","id":"AS-X03~","properties":{"id":"AS-X03~","countryCode":"AS","isoSubdivision":"AS-X03~","name":"Rose Atoll","name_en":"Rose Atoll","name_ko":"로즈 애톨","type":"Principal subdivision","labelLongitude":-168.166,"labelLatitude":-14.525,"minZoom":9},"geometry":{"type":"Polygon","coordinates":[[[-168.162,-14.533],[-168.173,-14.524],[-168.164,-14.52],[-168.16,-14.521],[-168.162,-14.533]]]}},{"type":"Feature","id":"AS-X04~","properties":{"id":"AS-X04~","countryCode":"AS","isoSubdivision":"AS-X04~","name":"Swains Island","name_en":"Swains Island","name_ko":"스웨인스 아일랜드","type":"Principal subdivision","labelLongitude":-171.08,"labelLatitude":-11.058,"minZoom":9},"geometry":{"type":"Polygon","coordinates":[[[-171.073,-11.053],[-171.073,-11.062],[-171.082,-11.066],[-171.087,-11.06],[-171.086,-11.051],[-171.073,-11.053]]]}},{"type":"Feature","id":"AS-X05~","properties":{"id":"AS-X05~","countryCode":"AS","isoSubdivision":"AS-X05~","name":"Western District","name_en":"Western District","name_ko":"웨스턴","type":"Principal subdivision","labelLongitude":-170.768,"labelLatitude":-14.324,"minZoom":9},"geometry":{"type":"Polygon","coordinates":[[[-170.693,-14.315],[-170.722,-14.353],[-170.749,-14.375],[-170.755,-14.367],[-170.796,-14.34],[-170.823,-14.327],[-170.831,-14.319],[-170.789,-14.295],[-170.773,-14.291],[-170.738,-14.292],[-170.722,-14.289],[-170.715,-14.301],[-170.714,-14.314],[-170.701,-14.312],[-170.693,-14.315]]]}}]}
