{"type":"FeatureCollection","features":[{"type":"Feature","id":"AT-1","properties":{"id":"AT-1","countryCode":"AT","isoSubdivision":"AT-1","name":"Burgenland","name_en":"Burgenland","name_ko":"부르겐란트","type":"State","labelLongitude":16.358,"labelLatitude":47.428,"minZoom":7.7},"geometry":{"type":"Polygon","coordinates":[[[17.148,48.005],[17.086,47.97],[17.096,47.962],[17.096,47.956],[17.091,47.949],[17.088,47.941],[17.086,47.939],[17.077,47.935],[17.074,47.932],[17.075,47.928],[17.08,47.926],[17.085,47.925],[17.087,47.923],[17.083,47.905],[17.078,47.892],[17.068,47.882],[17.051,47.873],[17.017,47.868],[17.004,47.863],[17.004,47.852],[17.011,47.848],[17.032,47.841],[17.04,47.837],[17.049,47.819],[17.056,47.812],[17.041,47.801],[17.042,47.784],[17.049,47.764],[17.051,47.731],[17.056,47.721],[17.064,47.713],[17.075,47.708],[17.055,47.702],[16.982,47.695],[16.903,47.682],[16.865,47.687],[16.85,47.713],[16.837,47.705],[16.817,47.684],[16.806,47.677],[16.797,47.675],[16.741,47.681],[16.73,47.686],[16.719,47.694],[16.717,47.697],[16.712,47.704],[16.708,47.715],[16.702,47.724],[16.69,47.73],[16.61,47.751],[16.568,47.754],[16.531,47.743],[16.525,47.733],[16.527,47.72],[16.521,47.712],[16.513,47.706],[16.473,47.692],[16.461,47.685],[16.455,47.682],[16.45,47.682],[16.445,47.686],[16.439,47.69],[16.432,47.685],[16.417,47.669],[16.408,47.661],[16.426,47.654],[16.482,47.639],[16.51,47.643],[16.558,47.63],[16.575,47.625],[16.608,47.629],[16.63,47.622],[16.648,47.606],[16.656,47.586],[16.651,47.567],[16.668,47.56],[16.681,47.551],[16.689,47.538],[16.688,47.523],[16.677,47.51],[16.648,47.502],[16.637,47.493],[16.641,47.453],[16.627,47.446],[16.589,47.426],[16.482,47.392],[16.47,47.406],[16.457,47.412],[16.444,47.41],[16.434,47.397],[16.436,47.359],[16.434,47.356],[16.429,47.354],[16.425,47.351],[16.424,47.345],[16.427,47.341],[16.432,47.34],[16.436,47.339],[16.439,47.337],[16.469,47.293],[16.473,47.277],[16.467,47.263],[16.452,47.255],[16.421,47.243],[16.425,47.226],[16.409,47.204],[16.413,47.187],[16.419,47.184],[16.427,47.184],[16.435,47.184],[16.442,47.177],[16.442,47.168],[16.434,47.151],[16.434,47.146],[16.447,47.14],[16.481,47.151],[16.497,47.15],[16.51,47.138],[16.505,47.126],[16.482,47.105],[16.461,47.096],[16.454,47.082],[16.462,47.068],[16.482,47.064],[16.494,47.06],[16.497,47.055],[16.493,47.049],[16.482,47.044],[16.437,47.032],[16.425,47.024],[16.453,47.022],[16.468,47.018],[16.482,47.009],[16.486,46.999],[16.467,46.995],[16.441,46.995],[16.425,46.993],[16.42,46.99],[16.416,46.989],[16.41,46.99],[16.405,46.993],[16.388,47.002],[16.367,47.004],[16.326,47],[16.289,47.006],[16.275,47.004],[16.265,46.993],[16.261,46.978],[16.253,46.974],[16.243,46.972],[16.233,46.966],[16.23,46.96],[16.231,46.954],[16.231,46.948],[16.224,46.941],[16.217,46.937],[16.196,46.931],[16.171,46.919],[16.159,46.91],[16.123,46.876],[16.11,46.868],[16.094,46.863],[16.053,46.846],[16.032,46.838],[16.028,46.837],[16.028,46.842],[16.027,46.853],[16.025,46.855],[16.021,46.859],[16.009,46.866],[16.004,46.871],[16.003,46.877],[16.007,46.894],[16.008,46.904],[16.012,46.913],[16.019,46.923],[16.054,46.944],[16.103,46.988],[16.129,47.014],[16.136,47.025],[16.137,47.032],[16.135,47.04],[16.098,47.072],[16.09,47.083],[16.086,47.097],[16.084,47.107],[16.095,47.138],[16.095,47.165],[16.068,47.238],[16.066,47.253],[16.058,47.291],[16.049,47.319],[16.038,47.344],[16.02,47.372],[16.019,47.381],[16.022,47.389],[16.037,47.404],[16.047,47.411],[16.06,47.412],[16.065,47.406],[16.068,47.399],[16.072,47.395],[16.09,47.402],[16.148,47.443],[16.205,47.442],[16.231,47.446],[16.256,47.455],[16.272,47.463],[16.324,47.501],[16.326,47.511],[16.327,47.524],[16.321,47.535],[16.318,47.55],[16.321,47.572],[16.327,47.583],[16.337,47.595],[16.343,47.602],[16.376,47.645],[16.346,47.676],[16.313,47.703],[16.297,47.72],[16.289,47.733],[16.29,47.794],[16.324,47.796],[16.336,47.803],[16.348,47.812],[16.354,47.821],[16.358,47.833],[16.36,47.872],[16.375,47.891],[16.391,47.903],[16.439,47.928],[16.468,47.934],[16.503,47.935],[16.573,47.92],[16.612,47.933],[16.632,47.946],[16.666,47.963],[16.68,47.972],[16.69,47.984],[16.704,48.009],[16.729,48.023],[16.75,48.03],[16.762,48.031],[16.774,48.03],[16.816,48.043],[16.857,48.063],[16.88,48.07],[16.9,48.072],[16.916,48.067],[16.946,48.051],[16.962,48.046],[16.974,48.051],[16.981,48.06],[16.983,48.068],[16.98,48.076],[16.979,48.083],[16.983,48.098],[16.996,48.107],[17.003,48.109],[17.014,48.106],[17.023,48.102],[17.034,48.1],[17.043,48.102],[17.05,48.104],[17.062,48.113],[17.067,48.107],[17.08,48.098],[17.07,48.089],[17.065,48.079],[17.059,48.06],[17.063,48.059],[17.075,48.052],[17.07,48.036],[17.093,48.027],[17.125,48.02],[17.148,48.005]]]}},{"type":"Feature","id":"AT-2","properties":{"id":"AT-2","countryCode":"AT","isoSubdivision":"AT-2","name":"Carinthia","name_en":"Carinthia","name_ko":"케른텐","type":"State","labelLongitude":13.87,"labelLatitude":46.72,"minZoom":7.7},"geometry":{"type":"Polygon","coordinates":[[[12.707,46.638],[12.697,46.641],[12.679,46.65],[12.671,46.652],[12.672,46.653],[12.676,46.66],[12.709,46.705],[12.717,46.72],[12.721,46.732],[12.724,46.749],[12.746,46.756],[12.835,46.765],[12.875,46.778],[12.887,46.779],[12.897,46.776],[12.933,46.758],[12.941,46.757],[12.945,46.757],[12.948,46.759],[12.95,46.762],[12.951,46.764],[12.951,46.767],[12.945,46.775],[12.885,46.832],[12.839,46.866],[12.829,46.876],[12.822,46.892],[12.82,46.905],[12.815,46.919],[12.807,46.929],[12.794,46.939],[12.784,46.944],[12.764,46.957],[12.756,46.968],[12.746,46.977],[12.739,46.986],[12.736,46.995],[12.735,47],[12.735,47.004],[12.736,47.011],[12.739,47.019],[12.752,47.04],[12.753,47.05],[12.744,47.058],[12.658,47.078],[12.645,47.085],[12.637,47.093],[12.634,47.112],[12.647,47.118],[12.65,47.12],[12.654,47.123],[12.655,47.126],[12.656,47.13],[12.657,47.132],[12.66,47.135],[12.665,47.136],[12.674,47.136],[12.687,47.132],[12.727,47.115],[12.772,47.099],[12.834,47.089],[12.866,47.087],[12.914,47.076],[12.994,47.041],[13.011,47.035],[13.03,47.031],[13.059,47.029],[13.135,47.032],[13.174,47.037],[13.226,47.055],[13.249,47.067],[13.274,47.084],[13.29,47.086],[13.308,47.087],[13.347,47.079],[13.44,47.062],[13.461,47.061],[13.562,47.047],[13.606,47.044],[13.632,47.039],[13.667,47.026],[13.753,46.981],[13.782,46.954],[13.821,46.932],[13.835,46.926],[13.844,46.923],[13.862,46.924],[13.88,46.928],[13.942,46.961],[13.979,46.973],[13.994,46.991],[13.998,46.998],[14.003,47.003],[14.011,47.01],[14.027,47.018],[14.136,47.053],[14.165,47.057],[14.201,47.057],[14.226,47.049],[14.267,47.029],[14.338,47.014],[14.355,47.008],[14.365,47.003],[14.368,47],[14.377,46.999],[14.395,46.998],[14.497,47.023],[14.524,47.021],[14.589,47.024],[14.616,47.017],[14.739,47.023],[14.85,47.041],[14.865,47.04],[14.875,47.035],[14.89,47.027],[14.93,46.994],[15.008,46.911],[15.006,46.881],[15,46.869],[14.994,46.86],[14.988,46.848],[14.987,46.842],[14.989,46.833],[14.994,46.82],[15.009,46.796],[15.02,46.761],[15.023,46.727],[15.035,46.703],[15.097,46.654],[15.105,46.647],[15.106,46.646],[15.086,46.648],[15.062,46.65],[15.004,46.637],[14.967,46.6],[14.948,46.619],[14.934,46.621],[14.92,46.615],[14.898,46.606],[14.894,46.605],[14.877,46.604],[14.863,46.605],[14.85,46.601],[14.834,46.584],[14.822,46.568],[14.815,46.551],[14.807,46.536],[14.797,46.519],[14.789,46.507],[14.783,46.503],[14.761,46.496],[14.735,46.493],[14.726,46.498],[14.71,46.493],[14.704,46.488],[14.699,46.481],[14.687,46.471],[14.68,46.459],[14.673,46.46],[14.667,46.461],[14.662,46.46],[14.642,46.445],[14.632,46.441],[14.622,46.439],[14.6,46.437],[14.59,46.434],[14.575,46.42],[14.567,46.4],[14.562,46.392],[14.558,46.384],[14.54,46.379],[14.527,46.388],[14.516,46.405],[14.502,46.418],[14.468,46.413],[14.451,46.414],[14.437,46.419],[14.42,46.424],[14.414,46.429],[14.411,46.435],[14.406,46.439],[14.396,46.441],[14.362,46.436],[14.242,46.438],[14.15,46.44],[14.148,46.44],[14.137,46.442],[14.081,46.476],[14.066,46.481],[14.05,46.484],[14.032,46.485],[14.015,46.483],[13.999,46.481],[13.982,46.482],[13.891,46.512],[13.861,46.515],[13.796,46.508],[13.782,46.508],[13.716,46.519],[13.701,46.52],[13.685,46.518],[13.67,46.519],[13.549,46.546],[13.507,46.547],[13.499,46.551],[13.485,46.562],[13.478,46.564],[13.417,46.56],[13.373,46.566],[13.271,46.551],[13.231,46.552],[13.21,46.558],[13.146,46.585],[13.065,46.598],[12.83,46.61],[12.774,46.635],[12.748,46.641],[12.74,46.643],[12.732,46.642],[12.716,46.638],[12.707,46.638]]]}},{"type":"Feature","id":"AT-3","properties":{"id":"AT-3","countryCode":"AT","isoSubdivision":"AT-3","name":"Lower Austria","name_en":"Lower Austria","name_ko":"니더외스터라이히","type":"State","labelLongitude":15.745,"labelLatitude":48.248,"minZoom":7.7},"geometry":{"type":"Polygon","coordinates":[[[15.004,49.01],[15.06,48.997],[15.137,48.993],[15.145,48.979],[15.149,48.965],[15.149,48.952],[15.142,48.937],[15.162,48.937],[15.238,48.951],[15.243,48.953],[15.257,48.964],[15.26,48.969],[15.263,48.983],[15.267,48.987],[15.275,48.987],[15.28,48.983],[15.284,48.978],[15.289,48.975],[15.336,48.975],[15.358,48.971],[15.406,48.955],[15.45,48.945],[15.472,48.937],[15.521,48.908],[15.544,48.903],[15.604,48.887],[15.681,48.858],[15.704,48.855],[15.727,48.855],[15.744,48.858],[15.779,48.871],[15.788,48.872],[15.818,48.872],[15.824,48.869],[15.828,48.857],[15.833,48.852],[15.84,48.85],[15.859,48.849],[15.87,48.844],[15.878,48.842],[15.886,48.842],[15.876,48.833],[15.888,48.835],[15.9,48.835],[15.907,48.83],[15.908,48.82],[15.925,48.823],[15.93,48.818],[15.93,48.811],[15.932,48.806],[16.032,48.758],[16.085,48.743],[16.178,48.747],[16.318,48.733],[16.319,48.734],[16.339,48.736],[16.353,48.728],[16.358,48.727],[16.374,48.73],[16.385,48.737],[16.436,48.795],[16.453,48.802],[16.482,48.799],[16.492,48.8],[16.51,48.805],[16.52,48.806],[16.529,48.804],[16.546,48.796],[16.606,48.785],[16.624,48.783],[16.643,48.778],[16.651,48.766],[16.655,48.752],[16.662,48.74],[16.675,48.734],[16.691,48.732],[16.729,48.733],[16.744,48.73],[16.781,48.714],[16.799,48.709],[16.818,48.711],[16.857,48.72],[16.873,48.719],[16.897,48.697],[16.911,48.631],[16.945,48.604],[16.954,48.557],[16.949,48.545],[16.947,48.54],[16.93,48.528],[16.914,48.519],[16.906,48.51],[16.901,48.497],[16.875,48.472],[16.865,48.458],[16.861,48.444],[16.852,48.39],[16.849,48.384],[16.847,48.381],[16.845,48.377],[16.844,48.366],[16.848,48.36],[16.855,48.356],[16.875,48.355],[16.881,48.353],[16.892,48.347],[16.902,48.339],[16.906,48.331],[16.904,48.327],[16.9,48.321],[16.898,48.316],[16.903,48.314],[16.905,48.312],[16.909,48.307],[16.912,48.301],[16.913,48.297],[16.917,48.291],[16.924,48.288],[16.933,48.285],[16.944,48.278],[16.951,48.277],[16.954,48.273],[16.955,48.269],[16.954,48.257],[16.954,48.253],[16.97,48.217],[16.975,48.199],[16.975,48.177],[16.982,48.161],[17.007,48.143],[17.021,48.137],[17.037,48.136],[17.047,48.131],[17.062,48.113],[17.05,48.104],[17.043,48.102],[17.034,48.1],[17.023,48.102],[17.014,48.106],[17.003,48.109],[16.996,48.107],[16.983,48.098],[16.979,48.083],[16.98,48.076],[16.983,48.068],[16.981,48.06],[16.974,48.051],[16.962,48.046],[16.946,48.051],[16.916,48.067],[16.9,48.072],[16.88,48.07],[16.857,48.063],[16.816,48.043],[16.774,48.03],[16.762,48.031],[16.75,48.03],[16.729,48.023],[16.704,48.009],[16.69,47.984],[16.68,47.972],[16.666,47.963],[16.632,47.946],[16.612,47.933],[16.573,47.92],[16.503,47.935],[16.468,47.934],[16.439,47.928],[16.391,47.903],[16.375,47.891],[16.36,47.872],[16.358,47.833],[16.354,47.821],[16.348,47.812],[16.336,47.803],[16.324,47.796],[16.29,47.794],[16.289,47.733],[16.297,47.72],[16.313,47.703],[16.346,47.676],[16.376,47.645],[16.343,47.602],[16.337,47.595],[16.327,47.583],[16.321,47.572],[16.318,47.55],[16.321,47.535],[16.327,47.524],[16.326,47.511],[16.324,47.501],[16.272,47.463],[16.256,47.455],[16.231,47.446],[16.205,47.442],[16.148,47.443],[16.113,47.463],[16.103,47.478],[16.097,47.489],[16.095,47.493],[16.095,47.5],[16.092,47.508],[16.089,47.512],[16.085,47.515],[16.08,47.517],[16.057,47.508],[16.047,47.506],[16.04,47.506],[16.032,47.509],[16.023,47.515],[15.998,47.524],[15.917,47.533],[15.904,47.556],[15.892,47.572],[15.866,47.585],[15.842,47.585],[15.834,47.586],[15.828,47.589],[15.825,47.595],[15.827,47.6],[15.831,47.609],[15.832,47.617],[15.832,47.623],[15.83,47.629],[15.829,47.632],[15.823,47.64],[15.818,47.644],[15.81,47.647],[15.797,47.645],[15.763,47.633],[15.753,47.632],[15.743,47.637],[15.736,47.65],[15.732,47.661],[15.726,47.69],[15.721,47.697],[15.714,47.702],[15.701,47.704],[15.693,47.702],[15.683,47.702],[15.672,47.704],[15.653,47.711],[15.639,47.717],[15.627,47.729],[15.606,47.743],[15.539,47.747],[15.5,47.766],[15.417,47.793],[15.375,47.82],[15.359,47.824],[15.339,47.825],[15.278,47.815],[15.271,47.815],[15.23,47.819],[15.202,47.796],[15.197,47.788],[15.187,47.78],[15.176,47.776],[15.138,47.77],[15.087,47.757],[15.056,47.751],[15.046,47.751],[15.03,47.753],[15.015,47.752],[14.994,47.749],[14.954,47.737],[14.93,47.727],[14.904,47.723],[14.883,47.725],[14.853,47.742],[14.844,47.748],[14.838,47.751],[14.734,47.75],[14.699,47.769],[14.716,47.794],[14.718,47.806],[14.719,47.829],[14.732,47.866],[14.75,47.883],[14.751,47.902],[14.744,47.91],[14.733,47.918],[14.712,47.929],[14.691,47.937],[14.659,47.944],[14.607,47.961],[14.445,48.043],[14.427,48.057],[14.428,48.062],[14.436,48.063],[14.441,48.065],[14.445,48.069],[14.459,48.086],[14.461,48.089],[14.461,48.094],[14.461,48.097],[14.463,48.099],[14.474,48.108],[14.48,48.114],[14.48,48.118],[14.478,48.121],[14.476,48.124],[14.474,48.128],[14.469,48.156],[14.471,48.162],[14.476,48.17],[14.479,48.178],[14.485,48.218],[14.487,48.225],[14.488,48.227],[14.49,48.229],[14.493,48.231],[14.5,48.235],[14.506,48.237],[14.52,48.245],[14.565,48.244],[14.582,48.24],[14.597,48.233],[14.61,48.223],[14.638,48.197],[14.655,48.187],[14.675,48.182],[14.819,48.206],[14.833,48.213],[14.847,48.227],[14.862,48.237],[14.88,48.242],[14.93,48.244],[14.941,48.242],[14.953,48.237],[14.968,48.225],[14.969,48.247],[14.975,48.334],[14.964,48.383],[14.959,48.392],[14.94,48.402],[14.934,48.434],[14.91,48.44],[14.887,48.461],[14.882,48.471],[14.882,48.48],[14.884,48.486],[14.884,48.495],[14.885,48.499],[14.887,48.5],[14.891,48.501],[14.914,48.5],[14.917,48.502],[14.918,48.506],[14.916,48.516],[14.906,48.527],[14.892,48.535],[14.876,48.539],[14.839,48.542],[14.807,48.553],[14.774,48.563],[14.712,48.572],[14.693,48.584],[14.691,48.587],[14.696,48.59],[14.701,48.616],[14.7,48.646],[14.704,48.673],[14.723,48.693],[14.775,48.724],[14.78,48.743],[14.79,48.755],[14.794,48.767],[14.8,48.777],[14.815,48.78],[14.868,48.776],[14.919,48.762],[14.94,48.763],[14.951,48.78],[14.949,48.782],[14.944,48.789],[14.94,48.797],[14.938,48.803],[14.94,48.81],[14.947,48.822],[14.968,48.885],[14.968,48.913],[14.964,48.943],[14.965,48.972],[14.978,48.993],[14.977,48.998],[14.977,49.003],[14.979,49.006],[14.982,49.008],[15.004,49.01]],[[16.483,48.289],[16.48,48.291],[16.452,48.323],[16.446,48.328],[16.415,48.33],[16.412,48.322],[16.404,48.318],[16.387,48.315],[16.351,48.303],[16.284,48.274],[16.279,48.268],[16.267,48.261],[16.259,48.258],[16.246,48.255],[16.233,48.254],[16.208,48.262],[16.201,48.257],[16.194,48.25],[16.192,48.247],[16.189,48.239],[16.188,48.23],[16.196,48.221],[16.204,48.215],[16.208,48.209],[16.211,48.203],[16.203,48.174],[16.211,48.164],[16.217,48.16],[16.221,48.154],[16.233,48.149],[16.294,48.146],[16.32,48.149],[16.347,48.149],[16.36,48.143],[16.378,48.137],[16.388,48.136],[16.41,48.135],[16.421,48.14],[16.426,48.144],[16.429,48.149],[16.432,48.152],[16.44,48.157],[16.455,48.16],[16.502,48.162],[16.571,48.153],[16.55,48.183],[16.543,48.198],[16.548,48.225],[16.555,48.246],[16.556,48.249],[16.555,48.252],[16.552,48.255],[16.545,48.26],[16.541,48.273],[16.538,48.28],[16.527,48.288],[16.522,48.296],[16.512,48.303],[16.493,48.301],[16.486,48.293],[16.483,48.289]]]}},{"type":"Feature","id":"AT-4","properties":{"id":"AT-4","countryCode":"AT","isoSubdivision":"AT-4","name":"Upper Austria","name_en":"Upper Austria","name_ko":"오버외스터라이히","type":"State","labelLongitude":13.856,"labelLatitude":48.238,"minZoom":7.7},"geometry":{"type":"Polygon","coordinates":[[[14.676,48.576],[14.691,48.587],[14.693,48.584],[14.712,48.572],[14.774,48.563],[14.807,48.553],[14.839,48.542],[14.876,48.539],[14.892,48.535],[14.906,48.527],[14.916,48.516],[14.918,48.506],[14.917,48.502],[14.914,48.5],[14.891,48.501],[14.887,48.5],[14.885,48.499],[14.884,48.495],[14.884,48.486],[14.882,48.48],[14.882,48.471],[14.887,48.461],[14.91,48.44],[14.934,48.434],[14.94,48.402],[14.959,48.392],[14.964,48.383],[14.975,48.334],[14.969,48.247],[14.968,48.225],[14.953,48.237],[14.941,48.242],[14.93,48.244],[14.88,48.242],[14.862,48.237],[14.847,48.227],[14.833,48.213],[14.819,48.206],[14.675,48.182],[14.655,48.187],[14.638,48.197],[14.61,48.223],[14.597,48.233],[14.582,48.24],[14.565,48.244],[14.52,48.245],[14.506,48.237],[14.5,48.235],[14.493,48.231],[14.49,48.229],[14.488,48.227],[14.487,48.225],[14.485,48.218],[14.479,48.178],[14.476,48.17],[14.471,48.162],[14.469,48.156],[14.474,48.128],[14.476,48.124],[14.478,48.121],[14.48,48.118],[14.48,48.114],[14.474,48.108],[14.463,48.099],[14.461,48.097],[14.461,48.094],[14.461,48.089],[14.459,48.086],[14.445,48.069],[14.441,48.065],[14.436,48.063],[14.428,48.062],[14.427,48.057],[14.445,48.043],[14.607,47.961],[14.659,47.944],[14.691,47.937],[14.712,47.929],[14.733,47.918],[14.744,47.91],[14.751,47.902],[14.75,47.883],[14.732,47.866],[14.719,47.829],[14.718,47.806],[14.716,47.794],[14.699,47.769],[14.636,47.734],[14.492,47.695],[14.481,47.685],[14.477,47.678],[14.466,47.671],[14.449,47.665],[14.417,47.659],[14.392,47.649],[14.347,47.626],[14.323,47.621],[14.293,47.621],[14.273,47.625],[14.251,47.631],[14.195,47.658],[14.186,47.659],[14.172,47.657],[14.135,47.645],[14.086,47.636],[14.066,47.626],[14.06,47.626],[14.055,47.636],[14.053,47.643],[14.042,47.662],[13.997,47.699],[13.953,47.695],[13.937,47.697],[13.911,47.704],[13.881,47.707],[13.868,47.711],[13.843,47.721],[13.834,47.722],[13.823,47.72],[13.717,47.685],[13.7,47.675],[13.687,47.664],[13.682,47.65],[13.679,47.637],[13.677,47.618],[13.678,47.608],[13.681,47.598],[13.689,47.587],[13.7,47.577],[13.713,47.568],[13.721,47.56],[13.73,47.546],[13.735,47.53],[13.735,47.516],[13.732,47.506],[13.728,47.501],[13.724,47.498],[13.699,47.483],[13.696,47.48],[13.684,47.478],[13.674,47.474],[13.582,47.486],[13.524,47.511],[13.489,47.536],[13.481,47.549],[13.479,47.564],[13.485,47.578],[13.5,47.595],[13.506,47.603],[13.509,47.613],[13.506,47.622],[13.489,47.641],[13.526,47.718],[13.521,47.726],[13.513,47.735],[13.488,47.738],[13.468,47.743],[13.458,47.747],[13.453,47.751],[13.449,47.754],[13.445,47.762],[13.446,47.766],[13.453,47.77],[13.493,47.771],[13.509,47.773],[13.521,47.784],[13.498,47.798],[13.317,47.825],[13.301,47.832],[13.292,47.841],[13.288,47.85],[13.275,47.886],[13.272,47.899],[13.271,47.912],[13.274,47.94],[13.276,47.952],[13.28,47.961],[13.283,47.966],[13.288,47.968],[13.295,47.969],[13.322,47.964],[13.337,47.963],[13.351,47.966],[13.36,47.973],[13.361,47.981],[13.352,47.988],[13.343,47.992],[13.333,47.995],[13.303,48.01],[13.235,47.989],[13.177,47.984],[13.139,47.987],[13.1,47.996],[13.095,47.998],[13.09,48],[13.061,48.021],[13.036,48.031],[13.011,48.033],[12.968,48.032],[12.95,48.028],[12.938,48.021],[12.93,48.006],[12.927,48.002],[12.915,47.997],[12.868,47.988],[12.848,47.982],[12.846,47.993],[12.831,48.015],[12.76,48.065],[12.751,48.075],[12.742,48.087],[12.737,48.1],[12.739,48.113],[12.745,48.121],[12.751,48.122],[12.758,48.122],[12.764,48.124],[12.778,48.139],[12.782,48.142],[12.822,48.161],[12.835,48.171],[12.853,48.19],[12.863,48.197],[12.878,48.202],[12.933,48.209],[12.932,48.212],[12.947,48.22],[12.979,48.232],[13.017,48.256],[13.033,48.264],[13.136,48.291],[13.274,48.307],[13.308,48.32],[13.406,48.377],[13.42,48.392],[13.425,48.413],[13.427,48.419],[13.432,48.424],[13.436,48.431],[13.438,48.441],[13.436,48.469],[13.438,48.479],[13.443,48.488],[13.456,48.507],[13.459,48.516],[13.457,48.525],[13.448,48.535],[13.444,48.553],[13.441,48.557],[13.44,48.561],[13.446,48.568],[13.455,48.573],[13.487,48.582],[13.521,48.585],[13.624,48.565],[13.642,48.559],[13.658,48.551],[13.673,48.535],[13.714,48.523],[13.717,48.522],[13.725,48.548],[13.734,48.56],[13.737,48.559],[13.758,48.561],[13.766,48.564],[13.774,48.569],[13.779,48.574],[13.796,48.599],[13.802,48.612],[13.805,48.626],[13.806,48.643],[13.801,48.675],[13.804,48.687],[13.817,48.696],[13.804,48.7],[13.799,48.703],[13.789,48.717],[13.784,48.715],[13.786,48.725],[13.816,48.766],[13.856,48.759],[13.875,48.752],[13.893,48.743],[13.915,48.731],[13.982,48.706],[13.991,48.7],[14.008,48.683],[14.014,48.675],[14.019,48.672],[14.026,48.67],[14.032,48.667],[14.035,48.661],[14.033,48.655],[14.028,48.654],[14.023,48.655],[14.02,48.653],[14.014,48.644],[14.008,48.642],[14.006,48.64],[14.011,48.626],[14.015,48.62],[14.032,48.606],[14.041,48.601],[14.075,48.592],[14.217,48.581],[14.316,48.558],[14.325,48.559],[14.333,48.561],[14.353,48.571],[14.405,48.586],[14.421,48.597],[14.444,48.637],[14.458,48.643],[14.482,48.624],[14.522,48.611],[14.534,48.609],[14.549,48.611],[14.579,48.62],[14.594,48.621],[14.601,48.618],[14.602,48.611],[14.602,48.605],[14.605,48.6],[14.613,48.6],[14.628,48.603],[14.635,48.602],[14.645,48.593],[14.651,48.583],[14.659,48.577],[14.676,48.576]]]}},{"type":"Feature","id":"AT-5","properties":{"id":"AT-5","countryCode":"AT","isoSubdivision":"AT-5","name":"Salzburg","name_en":"Salzburg","name_ko":"잘츠부르크","type":"State","labelLongitude":13.011,"labelLatitude":47.253,"minZoom":7.7},"geometry":{"type":"Polygon","coordinates":[[[12.204,47.067],[12.204,47.08],[12.181,47.085],[12.133,47.079],[12.134,47.084],[12.131,47.121],[12.128,47.131],[12.12,47.145],[12.112,47.151],[12.095,47.16],[12.089,47.166],[12.084,47.176],[12.082,47.187],[12.082,47.206],[12.084,47.22],[12.098,47.26],[12.096,47.28],[12.124,47.29],[12.138,47.292],[12.168,47.291],[12.28,47.318],[12.315,47.333],[12.33,47.334],[12.342,47.333],[12.364,47.324],[12.378,47.321],[12.393,47.321],[12.425,47.324],[12.445,47.329],[12.457,47.333],[12.47,47.342],[12.48,47.353],[12.489,47.371],[12.496,47.38],[12.502,47.385],[12.509,47.388],[12.519,47.39],[12.568,47.393],[12.58,47.396],[12.59,47.401],[12.599,47.406],[12.607,47.412],[12.614,47.42],[12.635,47.451],[12.646,47.463],[12.665,47.479],[12.672,47.487],[12.677,47.495],[12.679,47.499],[12.677,47.505],[12.657,47.539],[12.653,47.55],[12.652,47.558],[12.657,47.566],[12.658,47.571],[12.654,47.576],[12.645,47.583],[12.61,47.599],[12.589,47.612],[12.563,47.642],[12.598,47.663],[12.617,47.669],[12.653,47.675],[12.689,47.675],[12.745,47.665],[12.762,47.667],[12.752,47.649],[12.767,47.636],[12.793,47.625],[12.813,47.612],[12.786,47.603],[12.774,47.58],[12.779,47.555],[12.804,47.541],[12.819,47.54],[12.828,47.537],[12.837,47.533],[12.883,47.499],[12.932,47.474],[12.943,47.47],[12.951,47.472],[12.959,47.476],[12.97,47.476],[12.979,47.472],[12.985,47.468],[12.991,47.466],[13.002,47.466],[13.009,47.47],[13.037,47.493],[13.037,47.501],[13.034,47.507],[13.031,47.513],[13.029,47.518],[13.028,47.524],[13.028,47.542],[13.031,47.544],[13.04,47.56],[13.041,47.562],[13.039,47.561],[13.038,47.584],[13.041,47.583],[13.057,47.598],[13.058,47.6],[13.07,47.62],[13.072,47.622],[13.074,47.635],[13.075,47.647],[13.072,47.659],[13.064,47.674],[13.045,47.697],[13.032,47.707],[13.02,47.713],[13.004,47.715],[12.979,47.707],[12.964,47.705],[12.908,47.712],[12.892,47.724],[12.911,47.743],[12.917,47.75],[12.919,47.757],[12.919,47.763],[12.921,47.77],[12.927,47.777],[12.991,47.847],[12.987,47.85],[12.965,47.872],[12.931,47.925],[12.914,47.936],[12.906,47.939],[12.886,47.953],[12.862,47.963],[12.854,47.97],[12.849,47.981],[12.848,47.982],[12.868,47.988],[12.915,47.997],[12.927,48.002],[12.93,48.006],[12.938,48.021],[12.95,48.028],[12.968,48.032],[13.011,48.033],[13.036,48.031],[13.061,48.021],[13.09,48],[13.095,47.998],[13.1,47.996],[13.139,47.987],[13.177,47.984],[13.235,47.989],[13.303,48.01],[13.333,47.995],[13.343,47.992],[13.352,47.988],[13.361,47.981],[13.36,47.973],[13.351,47.966],[13.337,47.963],[13.322,47.964],[13.295,47.969],[13.288,47.968],[13.283,47.966],[13.28,47.961],[13.276,47.952],[13.274,47.94],[13.271,47.912],[13.272,47.899],[13.275,47.886],[13.288,47.85],[13.292,47.841],[13.301,47.832],[13.317,47.825],[13.498,47.798],[13.521,47.784],[13.509,47.773],[13.493,47.771],[13.453,47.77],[13.446,47.766],[13.445,47.762],[13.449,47.754],[13.453,47.751],[13.458,47.747],[13.468,47.743],[13.488,47.738],[13.513,47.735],[13.521,47.726],[13.526,47.718],[13.489,47.641],[13.506,47.622],[13.509,47.613],[13.506,47.603],[13.5,47.595],[13.485,47.578],[13.479,47.564],[13.481,47.549],[13.489,47.536],[13.524,47.511],[13.582,47.486],[13.574,47.472],[13.567,47.453],[13.565,47.445],[13.575,47.41],[13.604,47.343],[13.631,47.306],[13.662,47.286],[13.679,47.277],[13.694,47.274],[13.708,47.278],[13.722,47.285],[13.739,47.29],[13.767,47.292],[13.782,47.299],[13.797,47.302],[13.81,47.296],[13.826,47.274],[13.848,47.25],[13.853,47.241],[13.856,47.233],[13.861,47.222],[13.869,47.213],[13.902,47.184],[13.932,47.169],[13.939,47.161],[13.937,47.151],[13.918,47.134],[13.888,47.114],[13.88,47.105],[13.878,47.093],[13.88,47.073],[13.875,47.061],[13.864,47.042],[13.821,46.988],[13.782,46.954],[13.753,46.981],[13.667,47.026],[13.632,47.039],[13.606,47.044],[13.562,47.047],[13.461,47.061],[13.44,47.062],[13.347,47.079],[13.308,47.087],[13.29,47.086],[13.274,47.084],[13.249,47.067],[13.226,47.055],[13.174,47.037],[13.135,47.032],[13.059,47.029],[13.03,47.031],[13.011,47.035],[12.994,47.041],[12.914,47.076],[12.866,47.087],[12.834,47.089],[12.772,47.099],[12.727,47.115],[12.687,47.132],[12.674,47.136],[12.665,47.136],[12.66,47.135],[12.657,47.132],[12.656,47.13],[12.655,47.126],[12.654,47.123],[12.65,47.12],[12.647,47.118],[12.634,47.112],[12.595,47.138],[12.578,47.144],[12.558,47.147],[12.532,47.149],[12.503,47.155],[12.476,47.156],[12.441,47.151],[12.417,47.152],[12.397,47.149],[12.38,47.144],[12.321,47.105],[12.231,47.077],[12.204,47.067]]]}},{"type":"Feature","id":"AT-6","properties":{"id":"AT-6","countryCode":"AT","isoSubdivision":"AT-6","name":"Styria","name_en":"Styria","name_ko":"슈타이어마르크","type":"State","labelLongitude":14.857,"labelLatitude":47.39,"minZoom":7.7},"geometry":{"type":"Polygon","coordinates":[[[16.028,46.837],[15.988,46.83],[15.982,46.828],[15.972,46.821],[15.973,46.818],[15.977,46.816],[15.978,46.809],[15.971,46.778],[15.971,46.775],[15.97,46.761],[15.971,46.743],[15.982,46.719],[16.003,46.709],[16.015,46.694],[16.017,46.671],[15.998,46.687],[15.987,46.692],[15.968,46.695],[15.946,46.697],[15.879,46.721],[15.851,46.724],[15.823,46.723],[15.785,46.712],[15.755,46.704],[15.729,46.703],[15.652,46.711],[15.636,46.718],[15.633,46.702],[15.633,46.69],[15.627,46.681],[15.622,46.678],[15.617,46.676],[15.604,46.673],[15.589,46.676],[15.567,46.676],[15.546,46.672],[15.531,46.664],[15.521,46.65],[15.52,46.648],[15.518,46.638],[15.514,46.633],[15.511,46.628],[15.493,46.618],[15.463,46.615],[15.44,46.624],[15.435,46.627],[15.418,46.638],[15.388,46.646],[15.333,46.644],[15.205,46.639],[15.173,46.641],[15.106,46.646],[15.105,46.647],[15.097,46.654],[15.035,46.703],[15.023,46.727],[15.02,46.761],[15.009,46.796],[14.994,46.82],[14.989,46.833],[14.987,46.842],[14.988,46.848],[14.994,46.86],[15,46.869],[15.006,46.881],[15.008,46.911],[14.93,46.994],[14.89,47.027],[14.875,47.035],[14.865,47.04],[14.85,47.041],[14.739,47.023],[14.616,47.017],[14.589,47.024],[14.524,47.021],[14.497,47.023],[14.395,46.998],[14.377,46.999],[14.368,47],[14.365,47.003],[14.355,47.008],[14.338,47.014],[14.267,47.029],[14.226,47.049],[14.201,47.057],[14.165,47.057],[14.136,47.053],[14.027,47.018],[14.011,47.01],[14.003,47.003],[13.998,46.998],[13.994,46.991],[13.979,46.973],[13.942,46.961],[13.88,46.928],[13.862,46.924],[13.844,46.923],[13.835,46.926],[13.821,46.932],[13.782,46.954],[13.821,46.988],[13.864,47.042],[13.875,47.061],[13.88,47.073],[13.878,47.093],[13.88,47.105],[13.888,47.114],[13.918,47.134],[13.937,47.151],[13.939,47.161],[13.932,47.169],[13.902,47.184],[13.869,47.213],[13.861,47.222],[13.856,47.233],[13.853,47.241],[13.848,47.25],[13.826,47.274],[13.81,47.296],[13.797,47.302],[13.782,47.299],[13.767,47.292],[13.739,47.29],[13.722,47.285],[13.708,47.278],[13.694,47.274],[13.679,47.277],[13.662,47.286],[13.631,47.306],[13.604,47.343],[13.575,47.41],[13.565,47.445],[13.567,47.453],[13.574,47.472],[13.582,47.486],[13.674,47.474],[13.684,47.478],[13.696,47.48],[13.699,47.483],[13.724,47.498],[13.728,47.501],[13.732,47.506],[13.735,47.516],[13.735,47.53],[13.73,47.546],[13.721,47.56],[13.713,47.568],[13.7,47.577],[13.689,47.587],[13.681,47.598],[13.678,47.608],[13.677,47.618],[13.679,47.637],[13.682,47.65],[13.687,47.664],[13.7,47.675],[13.717,47.685],[13.823,47.72],[13.834,47.722],[13.843,47.721],[13.868,47.711],[13.881,47.707],[13.911,47.704],[13.937,47.697],[13.953,47.695],[13.997,47.699],[14.042,47.662],[14.053,47.643],[14.055,47.636],[14.06,47.626],[14.066,47.626],[14.086,47.636],[14.135,47.645],[14.172,47.657],[14.186,47.659],[14.195,47.658],[14.251,47.631],[14.273,47.625],[14.293,47.621],[14.323,47.621],[14.347,47.626],[14.392,47.649],[14.417,47.659],[14.449,47.665],[14.466,47.671],[14.477,47.678],[14.481,47.685],[14.492,47.695],[14.636,47.734],[14.699,47.769],[14.734,47.75],[14.838,47.751],[14.844,47.748],[14.853,47.742],[14.883,47.725],[14.904,47.723],[14.93,47.727],[14.954,47.737],[14.994,47.749],[15.015,47.752],[15.03,47.753],[15.046,47.751],[15.056,47.751],[15.087,47.757],[15.138,47.77],[15.176,47.776],[15.187,47.78],[15.197,47.788],[15.202,47.796],[15.23,47.819],[15.271,47.815],[15.278,47.815],[15.339,47.825],[15.359,47.824],[15.375,47.82],[15.417,47.793],[15.5,47.766],[15.539,47.747],[15.606,47.743],[15.627,47.729],[15.639,47.717],[15.653,47.711],[15.672,47.704],[15.683,47.702],[15.693,47.702],[15.701,47.704],[15.714,47.702],[15.721,47.697],[15.726,47.69],[15.732,47.661],[15.736,47.65],[15.743,47.637],[15.753,47.632],[15.763,47.633],[15.797,47.645],[15.81,47.647],[15.818,47.644],[15.823,47.64],[15.829,47.632],[15.83,47.629],[15.832,47.623],[15.832,47.617],[15.831,47.609],[15.827,47.6],[15.825,47.595],[15.828,47.589],[15.834,47.586],[15.842,47.585],[15.866,47.585],[15.892,47.572],[15.904,47.556],[15.917,47.533],[15.998,47.524],[16.023,47.515],[16.032,47.509],[16.04,47.506],[16.047,47.506],[16.057,47.508],[16.08,47.517],[16.085,47.515],[16.089,47.512],[16.092,47.508],[16.095,47.5],[16.095,47.493],[16.097,47.489],[16.103,47.478],[16.113,47.463],[16.148,47.443],[16.09,47.402],[16.072,47.395],[16.068,47.399],[16.065,47.406],[16.06,47.412],[16.047,47.411],[16.037,47.404],[16.022,47.389],[16.019,47.381],[16.02,47.372],[16.038,47.344],[16.049,47.319],[16.058,47.291],[16.066,47.253],[16.068,47.238],[16.095,47.165],[16.095,47.138],[16.084,47.107],[16.086,47.097],[16.09,47.083],[16.098,47.072],[16.135,47.04],[16.137,47.032],[16.136,47.025],[16.129,47.014],[16.103,46.988],[16.054,46.944],[16.019,46.923],[16.012,46.913],[16.008,46.904],[16.007,46.894],[16.003,46.877],[16.004,46.871],[16.009,46.866],[16.021,46.859],[16.025,46.855],[16.027,46.853],[16.028,46.842],[16.028,46.837]]]}},{"type":"Feature","id":"AT-7","properties":{"id":"AT-7","countryCode":"AT","isoSubdivision":"AT-7","name":"Tyrol","name_en":"Tyrol","name_ko":"티롤","type":"State","labelLongitude":11.38,"labelLatitude":47.208,"minZoom":7.7},"geometry":{"type":"MultiPolygon","coordinates":[[[[10.132,46.847],[10.125,46.847],[10.124,46.85],[10.106,46.883],[10.083,46.908],[10.081,46.918],[10.084,46.926],[10.097,46.937],[10.109,46.945],[10.12,46.955],[10.127,46.968],[10.129,46.985],[10.129,46.996],[10.126,47.01],[10.125,47.022],[10.127,47.037],[10.138,47.077],[10.148,47.096],[10.187,47.136],[10.202,47.161],[10.204,47.189],[10.203,47.199],[10.191,47.244],[10.175,47.272],[10.239,47.278],[10.261,47.283],[10.306,47.302],[10.325,47.314],[10.343,47.331],[10.366,47.361],[10.372,47.367],[10.382,47.372],[10.403,47.377],[10.412,47.381],[10.428,47.396],[10.443,47.416],[10.452,47.439],[10.452,47.46],[10.448,47.473],[10.442,47.481],[10.434,47.488],[10.42,47.493],[10.43,47.533],[10.431,47.542],[10.424,47.553],[10.416,47.564],[10.414,47.573],[10.429,47.577],[10.446,47.579],[10.454,47.581],[10.457,47.579],[10.462,47.57],[10.46,47.566],[10.455,47.561],[10.452,47.555],[10.454,47.546],[10.459,47.542],[10.467,47.538],[10.483,47.533],[10.525,47.528],[10.537,47.53],[10.55,47.537],[10.57,47.556],[10.584,47.562],[10.608,47.562],[10.74,47.528],[10.744,47.525],[10.747,47.52],[10.752,47.515],[10.761,47.514],[10.79,47.516],[10.831,47.529],[10.845,47.531],[10.859,47.531],[10.869,47.527],[10.892,47.515],[10.884,47.508],[10.852,47.493],[10.858,47.485],[10.91,47.469],[10.96,47.433],[10.963,47.428],[10.963,47.421],[10.961,47.414],[10.958,47.41],[10.955,47.41],[10.966,47.396],[10.979,47.391],[11.084,47.39],[11.103,47.394],[11.169,47.424],[11.194,47.429],[11.215,47.423],[11.213,47.396],[11.237,47.394],[11.259,47.401],[11.273,47.411],[11.286,47.423],[11.306,47.435],[11.324,47.439],[11.368,47.44],[11.384,47.445],[11.392,47.455],[11.389,47.462],[11.378,47.467],[11.365,47.469],[11.413,47.506],[11.435,47.51],[11.46,47.507],[11.483,47.503],[11.53,47.508],[11.551,47.514],[11.569,47.527],[11.574,47.537],[11.582,47.56],[11.589,47.57],[11.617,47.587],[11.62,47.59],[11.639,47.589],[11.683,47.583],[11.764,47.583],[11.82,47.575],[11.831,47.578],[11.841,47.595],[11.852,47.599],[11.936,47.611],[12.166,47.604],[12.174,47.605],[12.202,47.63],[12.206,47.636],[12.207,47.646],[12.205,47.672],[12.202,47.678],[12.197,47.68],[12.189,47.686],[12.182,47.692],[12.179,47.698],[12.177,47.706],[12.192,47.71],[12.216,47.724],[12.225,47.727],[12.24,47.732],[12.242,47.732],[12.239,47.727],[12.237,47.717],[12.233,47.709],[12.227,47.703],[12.223,47.696],[12.229,47.685],[12.239,47.679],[12.25,47.68],[12.272,47.688],[12.294,47.69],[12.351,47.682],[12.368,47.684],[12.408,47.694],[12.424,47.692],[12.429,47.686],[12.439,47.664],[12.445,47.656],[12.453,47.65],[12.483,47.634],[12.497,47.629],[12.517,47.629],[12.538,47.631],[12.554,47.636],[12.563,47.642],[12.589,47.612],[12.61,47.599],[12.645,47.583],[12.654,47.576],[12.658,47.571],[12.657,47.566],[12.652,47.558],[12.653,47.55],[12.657,47.539],[12.677,47.505],[12.679,47.499],[12.677,47.495],[12.672,47.487],[12.665,47.479],[12.646,47.463],[12.635,47.451],[12.614,47.42],[12.607,47.412],[12.599,47.406],[12.59,47.401],[12.58,47.396],[12.568,47.393],[12.519,47.39],[12.509,47.388],[12.502,47.385],[12.496,47.38],[12.489,47.371],[12.48,47.353],[12.47,47.342],[12.457,47.333],[12.445,47.329],[12.425,47.324],[12.393,47.321],[12.378,47.321],[12.364,47.324],[12.342,47.333],[12.33,47.334],[12.315,47.333],[12.28,47.318],[12.168,47.291],[12.138,47.292],[12.124,47.29],[12.096,47.28],[12.098,47.26],[12.084,47.22],[12.082,47.206],[12.082,47.187],[12.084,47.176],[12.089,47.166],[12.095,47.16],[12.112,47.151],[12.12,47.145],[12.128,47.131],[12.131,47.121],[12.134,47.084],[12.133,47.079],[12.116,47.077],[12.015,47.04],[11.944,47.038],[11.9,47.028],[11.857,47.012],[11.823,46.993],[11.777,46.988],[11.766,46.983],[11.746,46.972],[11.735,46.971],[11.716,46.975],[11.684,46.992],[11.665,46.993],[11.657,46.993],[11.65,46.993],[11.648,46.993],[11.596,47],[11.573,46.999],[11.544,46.993],[11.543,46.993],[11.534,46.99],[11.524,46.988],[11.515,46.989],[11.507,46.993],[11.502,46.998],[11.496,47.002],[11.489,47.004],[11.472,47.007],[11.462,47.006],[11.453,47.001],[11.445,46.993],[11.411,46.97],[11.381,46.972],[11.349,46.982],[11.314,46.987],[11.244,46.979],[11.174,46.964],[11.157,46.957],[11.092,46.912],[11.084,46.9],[11.073,46.865],[11.054,46.834],[11.053,46.83],[11.055,46.82],[11.053,46.815],[11.049,46.812],[11.037,46.808],[11.033,46.806],[11.011,46.779],[10.997,46.769],[10.983,46.768],[10.966,46.772],[10.931,46.774],[10.914,46.772],[10.88,46.765],[10.87,46.764],[10.86,46.767],[10.843,46.777],[10.834,46.78],[10.824,46.78],[10.805,46.777],[10.795,46.777],[10.766,46.788],[10.755,46.791],[10.734,46.786],[10.723,46.786],[10.717,46.795],[10.722,46.8],[10.744,46.813],[10.749,46.819],[10.739,46.83],[10.662,46.861],[10.647,46.864],[10.629,46.862],[10.528,46.843],[10.486,46.846],[10.454,46.864],[10.451,46.886],[10.464,46.92],[10.458,46.937],[10.45,46.944],[10.416,46.962],[10.395,46.985],[10.384,46.993],[10.379,46.996],[10.373,46.996],[10.368,46.996],[10.339,46.984],[10.314,46.964],[10.296,46.941],[10.296,46.923],[10.271,46.922],[10.251,46.925],[10.235,46.923],[10.22,46.906],[10.215,46.893],[10.214,46.885],[10.212,46.877],[10.201,46.867],[10.158,46.852],[10.132,46.847]]],[[[12.47,46.676],[12.446,46.679],[12.405,46.69],[12.37,46.711],[12.351,46.743],[12.343,46.765],[12.326,46.772],[12.305,46.774],[12.284,46.78],[12.275,46.785],[12.269,46.789],[12.267,46.795],[12.267,46.808],[12.27,46.82],[12.273,46.827],[12.276,46.834],[12.276,46.846],[12.267,46.868],[12.251,46.876],[12.209,46.877],[12.195,46.88],[12.189,46.885],[12.184,46.891],[12.172,46.899],[12.161,46.903],[12.137,46.906],[12.127,46.909],[12.142,46.919],[12.142,46.928],[12.135,46.937],[12.128,46.949],[12.122,46.972],[12.118,46.983],[12.111,46.993],[12.122,47.011],[12.182,47.034],[12.204,47.053],[12.204,47.067],[12.231,47.077],[12.321,47.105],[12.38,47.144],[12.397,47.149],[12.417,47.152],[12.441,47.151],[12.476,47.156],[12.503,47.155],[12.532,47.149],[12.558,47.147],[12.578,47.144],[12.595,47.138],[12.634,47.112],[12.637,47.093],[12.645,47.085],[12.658,47.078],[12.744,47.058],[12.753,47.05],[12.752,47.04],[12.739,47.019],[12.736,47.011],[12.735,47.004],[12.735,47],[12.736,46.995],[12.739,46.986],[12.746,46.977],[12.756,46.968],[12.764,46.957],[12.784,46.944],[12.794,46.939],[12.807,46.929],[12.815,46.919],[12.82,46.905],[12.822,46.892],[12.829,46.876],[12.839,46.866],[12.885,46.832],[12.945,46.775],[12.951,46.767],[12.951,46.764],[12.95,46.762],[12.948,46.759],[12.945,46.757],[12.941,46.757],[12.933,46.758],[12.897,46.776],[12.887,46.779],[12.875,46.778],[12.835,46.765],[12.746,46.756],[12.724,46.749],[12.721,46.732],[12.717,46.72],[12.709,46.705],[12.676,46.66],[12.672,46.653],[12.671,46.652],[12.67,46.653],[12.62,46.656],[12.562,46.651],[12.547,46.652],[12.531,46.658],[12.5,46.672],[12.47,46.676]]]]}},{"type":"Feature","id":"AT-8","properties":{"id":"AT-8","countryCode":"AT","isoSubdivision":"AT-8","name":"Vorarlberg","name_en":"Vorarlberg","name_ko":"포어아를베르크","type":"State","labelLongitude":9.874,"labelLatitude":47.262,"minZoom":7.7},"geometry":{"type":"Polygon","coordinates":[[[9.861,47.002],[9.856,47.004],[9.858,47.015],[9.669,47.056],[9.652,47.058],[9.6,47.053],[9.581,47.057],[9.588,47.063],[9.605,47.078],[9.609,47.081],[9.616,47.107],[9.614,47.111],[9.61,47.122],[9.606,47.132],[9.582,47.155],[9.567,47.161],[9.552,47.167],[9.552,47.176],[9.562,47.191],[9.563,47.198],[9.554,47.212],[9.545,47.22],[9.54,47.229],[9.543,47.235],[9.547,47.243],[9.534,47.251],[9.53,47.254],[9.521,47.263],[9.553,47.3],[9.587,47.328],[9.591,47.335],[9.596,47.352],[9.601,47.361],[9.64,47.395],[9.65,47.41],[9.65,47.452],[9.622,47.469],[9.585,47.481],[9.555,47.511],[9.553,47.517],[9.547,47.535],[9.55,47.534],[9.554,47.533],[9.613,47.522],[9.677,47.523],[9.704,47.531],[9.718,47.547],[9.731,47.565],[9.753,47.582],[9.767,47.587],[9.782,47.588],[9.796,47.585],[9.808,47.576],[9.811,47.564],[9.809,47.552],[9.813,47.542],[9.833,47.535],[9.842,47.535],[9.854,47.54],[9.859,47.541],[9.889,47.534],[9.919,47.532],[9.934,47.534],[9.946,47.541],[9.949,47.524],[9.959,47.515],[9.972,47.506],[9.981,47.493],[9.981,47.49],[9.981,47.487],[9.983,47.481],[9.994,47.477],[10.002,47.479],[10.011,47.484],[10.023,47.488],[10.072,47.439],[10.081,47.427],[10.076,47.417],[10.053,47.405],[10.064,47.396],[10.067,47.386],[10.068,47.375],[10.073,47.365],[10.083,47.359],[10.09,47.359],[10.097,47.363],[10.11,47.367],[10.115,47.367],[10.126,47.363],[10.131,47.363],[10.135,47.365],[10.147,47.374],[10.191,47.379],[10.209,47.372],[10.209,47.354],[10.19,47.317],[10.193,47.311],[10.193,47.305],[10.191,47.298],[10.186,47.295],[10.173,47.292],[10.169,47.29],[10.159,47.279],[10.155,47.273],[10.16,47.271],[10.175,47.272],[10.191,47.244],[10.203,47.199],[10.204,47.189],[10.202,47.161],[10.187,47.136],[10.148,47.096],[10.138,47.077],[10.127,47.037],[10.125,47.022],[10.126,47.01],[10.129,46.996],[10.129,46.985],[10.127,46.968],[10.12,46.955],[10.109,46.945],[10.097,46.937],[10.084,46.926],[10.081,46.918],[10.083,46.908],[10.106,46.883],[10.124,46.85],[10.125,46.847],[10.111,46.847],[10.068,46.857],[10.046,46.866],[10.007,46.891],[9.9,46.914],[9.875,46.927],[9.862,46.94],[9.861,46.949],[9.864,46.96],[9.866,46.983],[9.871,46.993],[9.871,46.999],[9.867,47.002],[9.861,47.002]]]}},{"type":"Feature","id":"AT-9","properties":{"id":"AT-9","countryCode":"AT","isoSubdivision":"AT-9","name":"Vienna","name_en":"Vienna","name_ko":"빈","type":"State","labelLongitude":16.38,"labelLatitude":48.225,"minZoom":7.7},"geometry":{"type":"Polygon","coordinates":[[[16.415,48.33],[16.446,48.328],[16.452,48.323],[16.48,48.291],[16.483,48.289],[16.486,48.293],[16.493,48.301],[16.512,48.303],[16.522,48.296],[16.527,48.288],[16.538,48.28],[16.541,48.273],[16.545,48.26],[16.552,48.255],[16.555,48.252],[16.556,48.249],[16.555,48.246],[16.548,48.225],[16.543,48.198],[16.55,48.183],[16.571,48.153],[16.502,48.162],[16.455,48.16],[16.44,48.157],[16.432,48.152],[16.429,48.149],[16.426,48.144],[16.421,48.14],[16.41,48.135],[16.388,48.136],[16.378,48.137],[16.36,48.143],[16.347,48.149],[16.32,48.149],[16.294,48.146],[16.233,48.149],[16.221,48.154],[16.217,48.16],[16.211,48.164],[16.203,48.174],[16.211,48.203],[16.208,48.209],[16.204,48.215],[16.196,48.221],[16.188,48.23],[16.189,48.239],[16.192,48.247],[16.194,48.25],[16.201,48.257],[16.208,48.262],[16.233,48.254],[16.246,48.255],[16.259,48.258],[16.267,48.261],[16.279,48.268],[16.284,48.274],[16.351,48.303],[16.387,48.315],[16.404,48.318],[16.412,48.322],[16.415,48.33]]]}}]}
