{"type":"FeatureCollection","features":[{"type":"Feature","id":"AW-X01~","properties":{"id":"AW-X01~","countryCode":"AW","isoSubdivision":"AW-X01~","name":"Aruba","name_en":"Aruba","name_ko":"아루바","type":"Principal subdivision","labelLongitude":-69.969,"labelLatitude":12.515,"minZoom":11},"geometry":{"type":"Polygon","coordinates":[[[-69.997,12.578],[-69.936,12.532],[-69.925,12.519],[-69.916,12.497],[-69.88,12.454],[-69.877,12.427],[-69.888,12.418],[-69.909,12.418],[-69.931,12.426],[-69.945,12.44],[-69.925,12.44],[-69.925,12.447],[-69.959,12.463],[-70.028,12.523],[-70.048,12.531],[-70.058,12.537],[-70.062,12.547],[-70.06,12.557],[-70.051,12.574],[-70.049,12.584],[-70.053,12.6],[-70.06,12.614],[-70.061,12.625],[-70.049,12.632],[-70.007,12.586],[-69.997,12.578]]]}}]}
