{"type":"FeatureCollection","features":[{"type":"Feature","id":"AX-X02~","properties":{"id":"AX-X02~","countryCode":"AX","isoSubdivision":"AX-X02~","name":"Jomala","name_en":"Jomala","name_ko":"조말라","type":"Principal subdivision","labelLongitude":19.895,"labelLatitude":60.14,"minZoom":9},"geometry":{"type":"Polygon","coordinates":[[[19.91,60.101],[19.887,60.101],[19.873,60.096],[19.87,60.091],[19.868,60.086],[19.859,60.081],[19.845,60.079],[19.832,60.079],[19.823,60.084],[19.824,60.094],[19.807,60.1],[19.789,60.096],[19.773,60.086],[19.763,60.074],[19.748,60.101],[19.764,60.108],[19.789,60.118],[19.812,60.125],[19.81,60.149],[19.833,60.151],[19.827,60.17],[19.847,60.178],[19.862,60.178],[19.894,60.184],[19.917,60.184],[19.944,60.186],[19.959,60.179],[19.987,60.173],[19.997,60.166],[20.004,60.159],[20.01,60.156],[20.02,60.158],[20.028,60.163],[20.035,60.17],[20.044,60.176],[20.033,60.144],[20.03,60.129],[20.031,60.115],[20.034,60.111],[20.041,60.109],[20.048,60.105],[20.05,60.098],[20.045,60.087],[20.032,60.087],[20.006,60.094],[19.966,60.091],[19.949,60.1],[19.937,60.111],[19.91,60.101]]]}},{"type":"Feature","id":"AX-X04~","properties":{"id":"AX-X04~","countryCode":"AX","isoSubdivision":"AX-X04~","name":"Eckerö","name_en":"Eckerö","name_ko":"에케뢰","type":"Principal subdivision","labelLongitude":19.591,"labelLatitude":60.217,"minZoom":9},"geometry":{"type":"Polygon","coordinates":[[[19.639,60.221],[19.643,60.213],[19.66,60.203],[19.667,60.197],[19.671,60.191],[19.673,60.184],[19.674,60.166],[19.671,60.158],[19.663,60.157],[19.654,60.158],[19.647,60.156],[19.632,60.165],[19.61,60.187],[19.592,60.197],[19.599,60.18],[19.603,60.164],[19.6,60.149],[19.585,60.135],[19.565,60.13],[19.545,60.135],[19.527,60.149],[19.517,60.17],[19.514,60.179],[19.513,60.184],[19.518,60.188],[19.53,60.194],[19.537,60.201],[19.537,60.211],[19.535,60.222],[19.537,60.232],[19.542,60.237],[19.56,60.249],[19.568,60.255],[19.579,60.26],[19.594,60.26],[19.608,60.257],[19.628,60.247],[19.634,60.24],[19.638,60.232],[19.639,60.221]]]}},{"type":"Feature","id":"AX-X06~","properties":{"id":"AX-X06~","countryCode":"AX","isoSubdivision":"AX-X06~","name":"Föglö","name_en":"Föglö","name_ko":"포글로","type":"Principal subdivision","labelLongitude":20.348,"labelLatitude":60.002,"minZoom":9},"geometry":{"type":"MultiPolygon","coordinates":[[[[20.61,60.045],[20.613,60.043],[20.618,60.042],[20.615,60.041],[20.603,60.04],[20.601,60.039],[20.608,60.036],[20.61,60.03],[20.606,60.023],[20.596,60.016],[20.587,60.008],[20.577,60.007],[20.55,60.019],[20.546,60.017],[20.54,60.01],[20.527,60.005],[20.512,60.006],[20.501,60.013],[20.506,60.024],[20.531,60.048],[20.545,60.056],[20.558,60.058],[20.568,60.057],[20.576,60.059],[20.583,60.059],[20.587,60.056],[20.588,60.052],[20.591,60.051],[20.599,60.053],[20.605,60.052],[20.609,60.048],[20.61,60.045]]],[[[20.424,60.055],[20.449,60.065],[20.463,60.067],[20.451,60.04],[20.432,60.025],[20.402,60.021],[20.39,60.028],[20.403,60.041],[20.424,60.055]]],[[[20.521,60.048],[20.519,60.043],[20.5,60.036],[20.471,60.041],[20.47,60.057],[20.488,60.062],[20.522,60.065],[20.525,60.065],[20.516,60.067],[20.518,60.07],[20.533,60.074],[20.542,60.071],[20.536,60.064],[20.526,60.057],[20.521,60.048]]],[[[20.281,59.977],[20.302,59.999],[20.339,60.02],[20.362,60.018],[20.398,60.009],[20.437,60.005],[20.447,59.995],[20.399,59.981],[20.367,59.982],[20.339,59.98],[20.325,59.977],[20.322,59.963],[20.307,59.954],[20.284,59.958],[20.281,59.977]]]]}},{"type":"Feature","id":"AX-X09~","properties":{"id":"AX-X09~","countryCode":"AX","isoSubdivision":"AX-X09~","name":"Mariehamn","name_en":"Mariehamn","name_ko":"마리에함","type":"Principal subdivision","labelLongitude":19.942,"labelLatitude":60.09,"minZoom":9},"geometry":{"type":"Polygon","coordinates":[[[19.966,60.091],[19.949,60.084],[19.951,60.07],[19.958,60.054],[19.948,60.048],[19.938,60.05],[19.941,60.06],[19.924,60.092],[19.91,60.101],[19.937,60.111],[19.949,60.1],[19.966,60.091]]]}},{"type":"Feature","id":"AX-X10~","properties":{"id":"AX-X10~","countryCode":"AX","isoSubdivision":"AX-X10~","name":"Lemland","name_en":"Lemland","name_ko":"렘랜드","type":"Principal subdivision","labelLongitude":20.15,"labelLatitude":60.045,"minZoom":9},"geometry":{"type":"Polygon","coordinates":[[[20.034,60.064],[20.068,60.073],[20.101,60.095],[20.13,60.087],[20.163,60.088],[20.193,60.066],[20.213,60.036],[20.223,60.015],[20.225,60.005],[20.212,59.991],[20.188,59.976],[20.175,59.971],[20.184,59.993],[20.171,59.999],[20.152,59.993],[20.123,59.989],[20.105,59.996],[20.117,60.005],[20.121,60.017],[20.104,60.028],[20.078,60.028],[20.058,60.039],[20.025,60.042],[20.034,60.064]]]}},{"type":"Feature","id":"AX-X11~","properties":{"id":"AX-X11~","countryCode":"AX","isoSubdivision":"AX-X11~","name":"Lumparland","name_en":"Lumparland","name_ko":"룸파랜드","type":"Principal subdivision","labelLongitude":20.229,"labelLatitude":60.102,"minZoom":9},"geometry":{"type":"Polygon","coordinates":[[[20.278,60.142],[20.298,60.122],[20.285,60.104],[20.269,60.086],[20.278,60.066],[20.266,60.06],[20.259,60.063],[20.252,60.068],[20.243,60.074],[20.209,60.083],[20.202,60.088],[20.198,60.104],[20.205,60.12],[20.215,60.136],[20.222,60.15],[20.245,60.12],[20.258,60.108],[20.264,60.118],[20.253,60.139],[20.256,60.145],[20.278,60.142]]]}},{"type":"Feature","id":"AX-X12~","properties":{"id":"AX-X12~","countryCode":"AX","isoSubdivision":"AX-X12~","name":"Vårdö","name_en":"Vårdö","name_ko":"바르되","type":"Principal subdivision","labelLongitude":20.405,"labelLatitude":60.246,"minZoom":9},"geometry":{"type":"Polygon","coordinates":[[[20.428,60.266],[20.435,60.262],[20.439,60.258],[20.441,60.253],[20.441,60.245],[20.393,60.197],[20.381,60.199],[20.381,60.204],[20.386,60.211],[20.386,60.217],[20.388,60.222],[20.388,60.233],[20.383,60.241],[20.353,60.229],[20.345,60.238],[20.347,60.253],[20.359,60.266],[20.38,60.27],[20.411,60.26],[20.428,60.266]]]}},{"type":"Feature","id":"AX-X13~","properties":{"id":"AX-X13~","countryCode":"AX","isoSubdivision":"AX-X13~","name":"Sottunga","name_en":"Sottunga","name_ko":"소퉁가","type":"Principal subdivision","labelLongitude":20.663,"labelLatitude":60.133,"minZoom":9},"geometry":{"type":"Polygon","coordinates":[[[20.683,60.131],[20.687,60.127],[20.688,60.117],[20.682,60.11],[20.672,60.109],[20.656,60.116],[20.639,60.131],[20.636,60.144],[20.644,60.149],[20.654,60.151],[20.66,60.15],[20.669,60.145],[20.679,60.136],[20.683,60.131]]]}},{"type":"Feature","id":"AX-X14~","properties":{"id":"AX-X14~","countryCode":"AX","isoSubdivision":"AX-X14~","name":"Kumlinge","name_en":"Kumlinge","name_ko":"쿰링게","type":"Principal subdivision","labelLongitude":20.807,"labelLatitude":60.265,"minZoom":9},"geometry":{"type":"MultiPolygon","coordinates":[[[[20.819,60.232],[20.791,60.239],[20.781,60.264],[20.787,60.286],[20.805,60.286],[20.815,60.281],[20.846,60.27],[20.853,60.266],[20.851,60.254],[20.839,60.247],[20.824,60.244],[20.811,60.245],[20.819,60.232]]],[[[20.684,60.229],[20.706,60.218],[20.716,60.209],[20.708,60.2],[20.687,60.195],[20.671,60.199],[20.664,60.205],[20.663,60.216],[20.668,60.227],[20.684,60.229]]],[[[20.777,60.326],[20.74,60.312],[20.733,60.314],[20.731,60.321],[20.732,60.324],[20.733,60.333],[20.735,60.338],[20.744,60.348],[20.747,60.352],[20.751,60.355],[20.755,60.361],[20.757,60.366],[20.764,60.368],[20.776,60.366],[20.787,60.362],[20.792,60.353],[20.789,60.343],[20.785,60.334],[20.777,60.326]]]]}},{"type":"Feature","id":"AX-X15~","properties":{"id":"AX-X15~","countryCode":"AX","isoSubdivision":"AX-X15~","name":"Brändö","name_en":"Brändö","name_ko":"브렌도","type":"Principal subdivision","labelLongitude":21.048,"labelLatitude":60.41,"minZoom":9},"geometry":{"type":"Polygon","coordinates":[[[21.089,60.48],[21.095,60.476],[21.097,60.463],[21.088,60.452],[21.078,60.449],[21.065,60.455],[21.059,60.467],[21.064,60.474],[21.076,60.48],[21.085,60.481],[21.089,60.48]]]}},{"type":"Feature","id":"AX-X16~","properties":{"id":"AX-X16~","countryCode":"AX","isoSubdivision":"AX-X16~","name":"Kökar","name_en":"Kökar","name_ko":"쾨카르","type":"Principal subdivision","labelLongitude":20.89,"labelLatitude":59.923,"minZoom":9},"geometry":{"type":"MultiPolygon","coordinates":[[[[20.875,59.914],[20.868,59.918],[20.862,59.928],[20.871,59.937],[20.885,59.94],[20.897,59.94],[20.907,59.934],[20.913,59.921],[20.92,59.909],[20.912,59.904],[20.888,59.909],[20.875,59.914]]],[[[20.984,59.943],[20.969,59.944],[20.969,59.942],[20.984,59.936],[20.991,59.927],[20.983,59.922],[20.932,59.936],[20.918,59.943],[20.913,59.948],[20.915,59.949],[20.92,59.953],[20.935,59.958],[20.979,59.952],[20.99,59.952],[20.996,59.95],[20.997,59.945],[20.984,59.943]]]]}}]}
