{"type":"FeatureCollection","features":[{"type":"Feature","id":"BA-BIH","properties":{"id":"BA-BIH","countryCode":"BA","isoSubdivision":"BA-BIH","name":"Herzegovina-Neretva Canton","name_en":"Herzegovina-Neretva Canton","name_ko":"헤르체고비나네레트바","type":"Canton","labelLongitude":17.888,"labelLatitude":43.323,"minZoom":9},"geometry":{"type":"MultiPolygon","coordinates":[[[[17.787,42.901],[17.765,42.904],[17.724,42.916],[17.702,42.92],[17.679,42.916],[17.666,42.905],[17.653,42.891],[17.556,42.935],[17.574,42.934],[17.601,42.925],[17.618,42.922],[17.603,42.933],[17.581,42.942],[17.635,42.95],[17.663,42.966],[17.659,42.993],[17.659,42.994],[17.628,43.047],[17.598,43.073],[17.629,43.105],[17.654,43.148],[17.664,43.187],[17.653,43.213],[17.651,43.217],[17.62,43.242],[17.598,43.245],[17.595,43.246],[17.585,43.269],[17.582,43.275],[17.585,43.292],[17.595,43.3],[17.619,43.299],[17.642,43.292],[17.663,43.29],[17.691,43.287],[17.747,43.284],[17.75,43.284],[17.75,43.304],[17.74,43.326],[17.738,43.329],[17.736,43.333],[17.726,43.346],[17.715,43.367],[17.714,43.371],[17.713,43.39],[17.712,43.395],[17.709,43.409],[17.705,43.426],[17.663,43.431],[17.647,43.439],[17.644,43.439],[17.634,43.456],[17.628,43.469],[17.606,43.48],[17.588,43.504],[17.573,43.521],[17.557,43.52],[17.552,43.52],[17.551,43.52],[17.537,43.525],[17.537,43.532],[17.538,43.545],[17.54,43.546],[17.548,43.549],[17.56,43.549],[17.581,43.549],[17.595,43.549],[17.599,43.552],[17.602,43.554],[17.602,43.57],[17.602,43.59],[17.595,43.598],[17.586,43.607],[17.586,43.617],[17.586,43.635],[17.578,43.644],[17.571,43.652],[17.57,43.652],[17.548,43.654],[17.536,43.651],[17.531,43.65],[17.531,43.656],[17.516,43.667],[17.504,43.675],[17.491,43.692],[17.46,43.72],[17.445,43.74],[17.417,43.745],[17.402,43.745],[17.391,43.745],[17.391,43.755],[17.391,43.767],[17.381,43.782],[17.381,43.795],[17.381,43.815],[17.382,43.822],[17.383,43.842],[17.39,43.852],[17.393,43.857],[17.418,43.859],[17.436,43.851],[17.466,43.843],[17.46,43.857],[17.459,43.86],[17.477,43.857],[17.497,43.849],[17.525,43.837],[17.551,43.839],[17.571,43.844],[17.597,43.848],[17.643,43.839],[17.682,43.822],[17.716,43.814],[17.755,43.818],[17.763,43.822],[17.78,43.833],[17.812,43.839],[17.86,43.839],[17.89,43.837],[17.897,43.831],[17.9,43.827],[17.911,43.807],[17.916,43.798],[17.944,43.776],[17.947,43.776],[17.979,43.77],[18.007,43.775],[18.015,43.765],[18.025,43.737],[18.026,43.734],[18.027,43.732],[18.034,43.706],[18.042,43.693],[18.059,43.681],[18.091,43.676],[18.096,43.675],[18.103,43.676],[18.126,43.68],[18.147,43.677],[18.149,43.677],[18.157,43.672],[18.182,43.654],[18.196,43.626],[18.197,43.611],[18.198,43.605],[18.209,43.599],[18.236,43.591],[18.258,43.58],[18.262,43.578],[18.265,43.577],[18.275,43.576],[18.287,43.575],[18.29,43.574],[18.294,43.588],[18.303,43.602],[18.322,43.597],[18.345,43.59],[18.373,43.59],[18.383,43.588],[18.376,43.583],[18.375,43.582],[18.37,43.557],[18.376,43.518],[18.385,43.485],[18.395,43.452],[18.39,43.438],[18.356,43.438],[18.257,43.445],[18.17,43.442],[18.099,43.442],[18.03,43.445],[18.025,43.431],[18.023,43.424],[18.047,43.395],[18.051,43.362],[18.054,43.298],[18.057,43.208],[18.046,43.196],[18.03,43.182],[18.007,43.173],[17.991,43.156],[17.989,43.141],[17.991,43.129],[18.011,43.128],[18.014,43.127],[18.019,43.126],[18.04,43.12],[18.056,43.109],[18.054,43.087],[18.053,43.071],[18.043,43.042],[18.036,43.037],[18.026,43.028],[18.016,43.012],[18.014,42.976],[18.014,42.967],[18.015,42.965],[18.024,42.922],[18.04,42.885],[18.057,42.862],[18.058,42.861],[18.059,42.86],[18.088,42.845],[18.151,42.804],[18.174,42.787],[18.203,42.766],[18.212,42.753],[18.216,42.746],[18.269,42.705],[18.318,42.67],[18.346,42.649],[18.373,42.643],[18.375,42.621],[18.37,42.574],[18.35,42.596],[18.339,42.603],[18.312,42.601],[18.257,42.615],[18.224,42.628],[18.049,42.715],[17.995,42.74],[17.972,42.755],[17.929,42.791],[17.904,42.805],[17.869,42.812],[17.858,42.817],[17.827,42.853],[17.825,42.865],[17.826,42.889],[17.823,42.898],[17.812,42.91],[17.803,42.91],[17.795,42.905],[17.787,42.901]]],[[[16.316,45.001],[16.341,45.006],[16.346,45.02],[16.349,45.016],[16.355,45.01],[16.355,45.002],[16.349,44.992],[16.326,44.984],[16.279,44.973],[16.263,44.954],[16.263,44.937],[16.273,44.921],[16.302,44.897],[16.333,44.89],[16.399,44.886],[16.469,44.883],[16.501,44.88],[16.559,44.877],[16.614,44.871],[16.651,44.866],[16.704,44.856],[16.745,44.837],[16.79,44.806],[16.828,44.767],[16.838,44.741],[16.838,44.701],[16.838,44.684],[16.844,44.673],[16.87,44.674],[16.878,44.663],[16.883,44.621],[16.883,44.571],[16.881,44.514],[16.871,44.497],[16.861,44.477],[16.853,44.459],[16.81,44.458],[16.754,44.455],[16.697,44.471],[16.626,44.489],[16.566,44.502],[16.528,44.502],[16.508,44.501],[16.503,44.481],[16.512,44.464],[16.526,44.455],[16.518,44.452],[16.495,44.421],[16.479,44.407],[16.431,44.399],[16.397,44.389],[16.363,44.387],[16.34,44.381],[16.305,44.383],[16.281,44.381],[16.266,44.367],[16.26,44.358],[16.248,44.354],[16.223,44.356],[16.212,44.353],[16.206,44.351],[16.203,44.36],[16.192,44.367],[16.171,44.377],[16.153,44.38],[16.142,44.381],[16.138,44.378],[16.139,44.385],[16.145,44.39],[16.154,44.394],[16.16,44.401],[16.16,44.416],[16.153,44.435],[16.128,44.484],[16.123,44.504],[16.116,44.521],[16.105,44.532],[16.084,44.535],[16.047,44.523],[16.027,44.525],[16.006,44.541],[16.014,44.557],[16.03,44.572],[16.035,44.585],[16.043,44.588],[16.045,44.589],[16.041,44.603],[16.036,44.615],[16.028,44.625],[16.016,44.629],[15.992,44.631],[15.979,44.634],[15.969,44.639],[15.956,44.653],[15.948,44.678],[15.937,44.689],[15.93,44.689],[15.922,44.686],[15.913,44.685],[15.905,44.69],[15.902,44.699],[15.899,44.709],[15.896,44.719],[15.889,44.724],[15.876,44.725],[15.869,44.719],[15.864,44.71],[15.856,44.704],[15.848,44.702],[15.83,44.701],[15.82,44.698],[15.806,44.697],[15.797,44.703],[15.79,44.713],[15.783,44.723],[15.759,44.734],[15.754,44.739],[15.728,44.769],[15.717,44.786],[15.716,44.803],[15.731,44.817],[15.751,44.822],[15.769,44.827],[15.773,44.845],[15.764,44.864],[15.748,44.882],[15.734,44.902],[15.731,44.927],[15.734,44.934],[15.739,44.945],[15.764,44.976],[15.767,44.993],[15.756,45.024],[15.756,45.042],[15.779,45.085],[15.784,45.101],[15.78,45.16],[15.781,45.168],[15.792,45.19],[15.803,45.196],[15.825,45.211],[15.879,45.217],[15.975,45.215],[15.998,45.219],[16.008,45.218],[16.02,45.214],[16.029,45.205],[16.029,45.196],[16.025,45.189],[16.024,45.184],[16.033,45.18],[16.055,45.176],[16.067,45.17],[16.083,45.152],[16.104,45.113],[16.122,45.096],[16.213,45.031],[16.241,45.019],[16.279,45.007],[16.316,45.001]]],[[[16.378,44.057],[16.367,44.058],[16.357,44.062],[16.346,44.068],[16.327,44.082],[16.312,44.1],[16.29,44.139],[16.276,44.157],[16.232,44.191],[16.216,44.208],[16.197,44.251],[16.188,44.282],[16.187,44.298],[16.19,44.309],[16.2,44.325],[16.203,44.333],[16.206,44.35],[16.206,44.351],[16.212,44.353],[16.223,44.356],[16.248,44.354],[16.26,44.358],[16.266,44.367],[16.281,44.381],[16.305,44.383],[16.34,44.381],[16.363,44.387],[16.397,44.389],[16.431,44.399],[16.479,44.407],[16.495,44.421],[16.518,44.452],[16.526,44.455],[16.556,44.437],[16.585,44.416],[16.628,44.391],[16.689,44.361],[16.717,44.345],[16.741,44.345],[16.757,44.342],[16.768,44.329],[16.781,44.311],[16.8,44.286],[16.835,44.278],[16.854,44.276],[16.877,44.261],[16.917,44.239],[16.968,44.219],[17.016,44.199],[17.046,44.19],[17.061,44.169],[17.084,44.158],[17.107,44.153],[17.113,44.128],[17.114,44.096],[17.129,44.083],[17.156,44.079],[17.249,44.067],[17.249,44.068],[17.255,44.055],[17.272,44.032],[17.291,44.017],[17.297,44.007],[17.299,43.994],[17.311,43.978],[17.313,43.974],[17.323,43.966],[17.328,43.945],[17.339,43.937],[17.356,43.922],[17.373,43.91],[17.398,43.909],[17.426,43.908],[17.454,43.876],[17.459,43.86],[17.46,43.857],[17.466,43.843],[17.436,43.851],[17.418,43.859],[17.393,43.857],[17.39,43.852],[17.383,43.842],[17.382,43.822],[17.381,43.815],[17.381,43.795],[17.381,43.782],[17.391,43.767],[17.391,43.755],[17.391,43.745],[17.402,43.745],[17.417,43.745],[17.445,43.74],[17.46,43.72],[17.491,43.692],[17.504,43.675],[17.516,43.667],[17.531,43.656],[17.531,43.65],[17.53,43.64],[17.527,43.619],[17.512,43.606],[17.499,43.587],[17.476,43.582],[17.442,43.577],[17.414,43.577],[17.391,43.574],[17.358,43.561],[17.335,43.55],[17.299,43.538],[17.272,43.538],[17.26,43.548],[17.254,43.559],[17.23,43.565],[17.214,43.555],[17.169,43.546],[17.117,43.546],[17.108,43.544],[17.062,43.528],[17.031,43.548],[16.982,43.59],[16.824,43.707],[16.713,43.772],[16.698,43.788],[16.69,43.809],[16.686,43.826],[16.679,43.841],[16.637,43.868],[16.605,43.901],[16.556,43.937],[16.527,43.968],[16.517,43.98],[16.501,43.993],[16.483,44.003],[16.44,44.014],[16.431,44.026],[16.427,44.041],[16.414,44.056],[16.404,44.059],[16.378,44.057]]],[[[17.451,43.148],[17.442,43.152],[17.427,43.166],[17.415,43.185],[17.407,43.205],[17.4,43.216],[17.39,43.223],[17.369,43.233],[17.329,43.26],[17.29,43.303],[17.268,43.353],[17.286,43.437],[17.271,43.463],[17.239,43.478],[17.143,43.489],[17.085,43.513],[17.062,43.528],[17.108,43.544],[17.117,43.546],[17.169,43.546],[17.214,43.555],[17.23,43.565],[17.254,43.559],[17.26,43.548],[17.272,43.538],[17.299,43.538],[17.335,43.55],[17.358,43.561],[17.391,43.574],[17.414,43.577],[17.442,43.577],[17.476,43.582],[17.499,43.587],[17.512,43.606],[17.527,43.619],[17.53,43.64],[17.531,43.65],[17.536,43.651],[17.548,43.654],[17.57,43.652],[17.571,43.652],[17.578,43.644],[17.586,43.635],[17.586,43.617],[17.586,43.607],[17.595,43.598],[17.602,43.59],[17.602,43.57],[17.602,43.554],[17.599,43.552],[17.595,43.549],[17.581,43.549],[17.56,43.549],[17.548,43.549],[17.54,43.546],[17.538,43.545],[17.537,43.532],[17.537,43.525],[17.551,43.52],[17.552,43.52],[17.557,43.52],[17.573,43.521],[17.588,43.504],[17.606,43.48],[17.628,43.469],[17.634,43.456],[17.644,43.439],[17.647,43.439],[17.663,43.431],[17.705,43.426],[17.709,43.409],[17.712,43.395],[17.713,43.39],[17.714,43.371],[17.715,43.367],[17.726,43.346],[17.736,43.333],[17.738,43.329],[17.74,43.326],[17.75,43.304],[17.75,43.284],[17.747,43.284],[17.691,43.287],[17.663,43.29],[17.642,43.292],[17.619,43.299],[17.595,43.3],[17.585,43.292],[17.582,43.275],[17.585,43.269],[17.595,43.246],[17.598,43.245],[17.62,43.242],[17.651,43.217],[17.653,43.213],[17.664,43.187],[17.654,43.148],[17.629,43.105],[17.598,43.073],[17.587,43.082],[17.451,43.148]]],[[[17.249,44.068],[17.259,44.092],[17.267,44.115],[17.273,44.143],[17.263,44.182],[17.21,44.231],[17.186,44.258],[17.169,44.291],[17.153,44.325],[17.149,44.369],[17.144,44.429],[17.151,44.458],[17.176,44.462],[17.227,44.461],[17.24,44.452],[17.267,44.445],[17.325,44.443],[17.372,44.443],[17.408,44.442],[17.439,44.426],[17.465,44.394],[17.485,44.381],[17.502,44.366],[17.538,44.364],[17.601,44.364],[17.688,44.376],[17.731,44.374],[17.733,44.375],[17.742,44.361],[17.753,44.338],[17.772,44.323],[17.792,44.305],[17.796,44.287],[17.791,44.244],[17.794,44.192],[17.806,44.168],[17.84,44.145],[17.865,44.127],[17.894,44.131],[17.911,44.128],[17.911,44.114],[17.92,44.091],[17.926,44.075],[17.945,44.067],[17.962,44.067],[17.973,44.067],[17.985,44.057],[17.99,44.035],[17.997,44.005],[18.013,44.005],[18.042,44.006],[18.05,44],[18.053,43.986],[18.05,43.976],[18.061,43.965],[18.061,43.955],[18.073,43.955],[18.082,43.955],[18.09,43.948],[18.114,43.919],[18.123,43.905],[18.135,43.905],[18.147,43.907],[18.155,43.9],[18.164,43.868],[18.165,43.851],[18.16,43.842],[18.147,43.832],[18.125,43.826],[18.094,43.809],[18.062,43.801],[18.024,43.798],[18.011,43.787],[18.007,43.775],[17.979,43.77],[17.947,43.776],[17.944,43.776],[17.916,43.798],[17.911,43.807],[17.9,43.827],[17.897,43.831],[17.89,43.837],[17.86,43.839],[17.812,43.839],[17.78,43.833],[17.763,43.822],[17.755,43.818],[17.716,43.814],[17.682,43.822],[17.643,43.839],[17.597,43.848],[17.571,43.844],[17.551,43.839],[17.525,43.837],[17.497,43.849],[17.477,43.857],[17.459,43.86],[17.454,43.876],[17.426,43.908],[17.398,43.909],[17.373,43.91],[17.356,43.922],[17.339,43.937],[17.328,43.945],[17.323,43.966],[17.313,43.974],[17.311,43.978],[17.299,43.994],[17.297,44.007],[17.291,44.017],[17.272,44.032],[17.255,44.055],[17.249,44.068]]],[[[17.733,44.375],[17.765,44.393],[17.815,44.413],[17.857,44.43],[17.893,44.45],[17.917,44.47],[17.921,44.494],[17.921,44.519],[17.915,44.546],[17.891,44.563],[17.857,44.587],[17.835,44.616],[17.835,44.639],[17.852,44.668],[17.888,44.72],[17.923,44.727],[17.974,44.724],[18.016,44.72],[18.05,44.697],[18.083,44.657],[18.117,44.604],[18.137,44.58],[18.164,44.577],[18.21,44.575],[18.287,44.575],[18.287,44.563],[18.286,44.543],[18.286,44.529],[18.294,44.512],[18.296,44.488],[18.296,44.467],[18.296,44.446],[18.305,44.426],[18.321,44.417],[18.371,44.419],[18.385,44.411],[18.392,44.392],[18.392,44.374],[18.405,44.353],[18.43,44.333],[18.454,44.329],[18.488,44.317],[18.507,44.305],[18.516,44.27],[18.53,44.235],[18.53,44.206],[18.535,44.201],[18.557,44.197],[18.585,44.197],[18.594,44.177],[18.615,44.171],[18.684,44.173],[18.74,44.173],[18.763,44.149],[18.749,44.139],[18.737,44.12],[18.704,44.099],[18.659,44.066],[18.624,44.05],[18.587,44.049],[18.581,44.057],[18.557,44.061],[18.54,44.069],[18.53,44.082],[18.515,44.099],[18.499,44.109],[18.478,44.111],[18.461,44.111],[18.441,44.111],[18.437,44.108],[18.426,44.098],[18.413,44.08],[18.396,44.07],[18.377,44.07],[18.351,44.07],[18.339,44.063],[18.338,44.048],[18.339,44.016],[18.327,44.005],[18.299,43.994],[18.259,43.993],[18.225,43.994],[18.195,43.987],[18.188,43.967],[18.188,43.941],[18.18,43.931],[18.165,43.926],[18.154,43.926],[18.142,43.918],[18.144,43.908],[18.147,43.907],[18.135,43.905],[18.123,43.905],[18.114,43.919],[18.09,43.948],[18.082,43.955],[18.073,43.955],[18.061,43.955],[18.061,43.965],[18.05,43.976],[18.053,43.986],[18.05,44],[18.042,44.006],[18.013,44.005],[17.997,44.005],[17.99,44.035],[17.985,44.057],[17.973,44.067],[17.962,44.067],[17.945,44.067],[17.926,44.075],[17.92,44.091],[17.911,44.114],[17.911,44.128],[17.894,44.131],[17.865,44.127],[17.84,44.145],[17.806,44.168],[17.794,44.192],[17.791,44.244],[17.796,44.287],[17.792,44.305],[17.772,44.323],[17.753,44.338],[17.742,44.361],[17.733,44.375]]],[[[18.287,44.575],[18.333,44.574],[18.385,44.582],[18.39,44.605],[18.385,44.631],[18.357,44.654],[18.313,44.664],[18.272,44.674],[18.222,44.687],[18.18,44.7],[18.136,44.713],[18.094,44.728],[18.079,44.741],[18.079,44.77],[18.086,44.787],[18.126,44.791],[18.169,44.794],[18.247,44.794],[18.287,44.801],[18.312,44.829],[18.333,44.873],[18.347,44.899],[18.373,44.911],[18.398,44.919],[18.461,44.916],[18.495,44.909],[18.495,44.886],[18.495,44.875],[18.506,44.865],[18.533,44.864],[18.558,44.868],[18.594,44.879],[18.649,44.876],[18.709,44.865],[18.748,44.845],[18.762,44.803],[18.768,44.763],[18.775,44.746],[18.804,44.745],[18.805,44.728],[18.798,44.705],[18.771,44.692],[18.742,44.679],[18.731,44.668],[18.729,44.645],[18.739,44.625],[18.778,44.597],[18.832,44.552],[18.848,44.542],[18.868,44.542],[18.891,44.55],[18.92,44.586],[18.938,44.617],[18.951,44.633],[18.987,44.639],[19.023,44.633],[19.03,44.617],[19.031,44.568],[19.031,44.559],[19.028,44.49],[19.02,44.476],[18.994,44.46],[18.977,44.455],[18.948,44.438],[18.923,44.426],[18.883,44.425],[18.838,44.416],[18.825,44.392],[18.807,44.374],[18.777,44.361],[18.754,44.358],[18.745,44.341],[18.752,44.299],[18.768,44.273],[18.782,44.246],[18.792,44.215],[18.787,44.18],[18.765,44.15],[18.763,44.149],[18.74,44.173],[18.684,44.173],[18.615,44.171],[18.594,44.177],[18.585,44.197],[18.557,44.197],[18.535,44.201],[18.53,44.206],[18.53,44.235],[18.516,44.27],[18.507,44.305],[18.488,44.317],[18.454,44.329],[18.43,44.333],[18.405,44.353],[18.392,44.374],[18.392,44.392],[18.385,44.411],[18.371,44.419],[18.321,44.417],[18.305,44.426],[18.296,44.446],[18.296,44.467],[18.296,44.488],[18.294,44.512],[18.286,44.529],[18.286,44.543],[18.287,44.563],[18.287,44.575]]],[[[18.587,44.049],[18.576,44.049],[18.569,44.028],[18.539,44.009],[18.509,43.992],[18.499,43.978],[18.498,43.954],[18.503,43.918],[18.506,43.888],[18.506,43.856],[18.498,43.844],[18.482,43.834],[18.452,43.831],[18.425,43.835],[18.383,43.838],[18.37,43.832],[18.373,43.812],[18.376,43.789],[18.403,43.755],[18.416,43.738],[18.443,43.736],[18.486,43.735],[18.518,43.723],[18.559,43.71],[18.609,43.684],[18.606,43.681],[18.594,43.672],[18.586,43.657],[18.583,43.645],[18.583,43.637],[18.549,43.648],[18.516,43.659],[18.492,43.676],[18.463,43.69],[18.443,43.69],[18.413,43.69],[18.402,43.666],[18.398,43.625],[18.39,43.594],[18.383,43.588],[18.373,43.59],[18.345,43.59],[18.322,43.597],[18.303,43.602],[18.294,43.588],[18.29,43.574],[18.287,43.575],[18.275,43.576],[18.265,43.577],[18.262,43.578],[18.258,43.58],[18.236,43.591],[18.209,43.599],[18.198,43.605],[18.197,43.611],[18.196,43.626],[18.182,43.654],[18.157,43.672],[18.149,43.677],[18.147,43.677],[18.126,43.68],[18.103,43.676],[18.096,43.675],[18.091,43.676],[18.059,43.681],[18.042,43.693],[18.034,43.706],[18.027,43.732],[18.026,43.734],[18.025,43.737],[18.015,43.765],[18.007,43.775],[18.011,43.787],[18.024,43.798],[18.062,43.801],[18.094,43.809],[18.125,43.826],[18.147,43.832],[18.16,43.842],[18.165,43.851],[18.164,43.868],[18.155,43.9],[18.147,43.907],[18.144,43.908],[18.142,43.918],[18.154,43.926],[18.165,43.926],[18.18,43.931],[18.188,43.941],[18.188,43.967],[18.195,43.987],[18.225,43.994],[18.259,43.993],[18.299,43.994],[18.327,44.005],[18.339,44.016],[18.338,44.048],[18.339,44.063],[18.351,44.07],[18.377,44.07],[18.396,44.07],[18.413,44.08],[18.426,44.098],[18.437,44.108],[18.441,44.111],[18.461,44.111],[18.478,44.111],[18.499,44.109],[18.515,44.099],[18.53,44.082],[18.54,44.069],[18.557,44.061],[18.581,44.057],[18.587,44.049]]],[[[18.609,43.684],[18.612,43.682],[18.636,43.679],[18.674,43.678],[18.692,43.69],[18.709,43.715],[18.719,43.748],[18.739,43.766],[18.784,43.771],[18.878,43.769],[18.925,43.763],[18.95,43.742],[18.973,43.725],[18.996,43.725],[19.028,43.718],[19.046,43.702],[19.057,43.673],[19.051,43.659],[19.02,43.655],[18.996,43.636],[18.963,43.617],[18.918,43.603],[18.885,43.592],[18.845,43.587],[18.792,43.582],[18.761,43.576],[18.694,43.583],[18.649,43.599],[18.585,43.636],[18.583,43.637],[18.583,43.645],[18.586,43.657],[18.594,43.672],[18.606,43.681],[18.609,43.684]]]]}},{"type":"Feature","id":"BA-BRC","properties":{"id":"BA-BRC","countryCode":"BA","isoSubdivision":"BA-BRC","name":"Brčko","name_en":"Brčko","name_ko":"브르치코 행정구","type":"Condominium","labelLongitude":18.854,"labelLatitude":44.831,"minZoom":9},"geometry":{"type":"Polygon","coordinates":[[[18.842,44.876],[18.859,44.869],[18.89,44.861],[18.975,44.863],[18.975,44.844],[18.96,44.836],[18.937,44.828],[18.922,44.811],[18.909,44.784],[18.886,44.772],[18.837,44.769],[18.821,44.761],[18.804,44.745],[18.775,44.746],[18.768,44.763],[18.762,44.803],[18.748,44.845],[18.769,44.892],[18.78,44.886],[18.784,44.872],[18.781,44.852],[18.781,44.842],[18.806,44.842],[18.835,44.86],[18.84,44.873],[18.842,44.876]]]}},{"type":"Feature","id":"BA-SRP","properties":{"id":"BA-SRP","countryCode":"BA","isoSubdivision":"BA-SRP","name":"Posavina Canton","name_en":"Posavina Canton","name_ko":"포사비나","type":"Canton","labelLongitude":18.298,"labelLatitude":45.06,"minZoom":9},"geometry":{"type":"MultiPolygon","coordinates":[[[[18.482,45.067],[18.491,45.063],[18.517,45.056],[18.541,45.055],[18.539,45.069],[18.534,45.082],[18.535,45.088],[18.535,45.09],[18.55,45.095],[18.558,45.094],[18.574,45.092],[18.582,45.091],[18.589,45.093],[18.603,45.099],[18.609,45.1],[18.617,45.098],[18.621,45.093],[18.628,45.08],[18.634,45.072],[18.641,45.065],[18.649,45.063],[18.658,45.066],[18.661,45.071],[18.663,45.077],[18.666,45.083],[18.671,45.087],[18.678,45.087],[18.684,45.085],[18.689,45.08],[18.726,45.026],[18.738,45.016],[18.75,45.012],[18.778,45.01],[18.785,45.008],[18.789,45.006],[18.792,45.002],[18.795,44.995],[18.795,44.993],[18.795,44.988],[18.796,44.985],[18.798,44.982],[18.803,44.977],[18.805,44.974],[18.802,44.964],[18.78,44.952],[18.773,44.942],[18.783,44.914],[18.818,44.888],[18.842,44.876],[18.84,44.873],[18.835,44.86],[18.806,44.842],[18.781,44.842],[18.781,44.852],[18.784,44.872],[18.78,44.886],[18.769,44.892],[18.743,44.894],[18.723,44.897],[18.72,44.918],[18.694,44.937],[18.651,44.954],[18.608,44.954],[18.568,44.964],[18.528,44.986],[18.497,45.012],[18.483,45.023],[18.48,45.055],[18.482,45.067]]],[[[18.238,45.157],[18.262,45.151],[18.307,45.128],[18.322,45.123],[18.393,45.119],[18.412,45.112],[18.429,45.102],[18.452,45.085],[18.443,45.072],[18.437,45.049],[18.413,45.04],[18.379,45.03],[18.351,45.023],[18.344,45.009],[18.336,44.997],[18.331,44.987],[18.31,44.987],[18.278,44.987],[18.256,44.991],[18.231,45.021],[18.21,45.038],[18.192,45.049],[18.173,45.05],[18.161,45.064],[18.145,45.092],[18.144,45.097],[18.144,45.098],[18.154,45.098],[18.175,45.101],[18.193,45.109],[18.199,45.119],[18.2,45.132],[18.202,45.144],[18.213,45.154],[18.238,45.157]]]]}},{"type":"Feature","id":"BA-X01~","properties":{"id":"BA-X01~","countryCode":"BA","isoSubdivision":"BA-X01~","name":"Doboj","name_en":"Doboj","name_ko":"도보이","type":"Region","labelLongitude":18.068,"labelLatitude":44.931,"minZoom":9},"geometry":{"type":"Polygon","coordinates":[[[17.766,45.111],[17.797,45.082],[17.816,45.07],[17.836,45.064],[17.846,45.065],[17.875,45.074],[17.903,45.078],[17.911,45.081],[17.928,45.092],[17.988,45.144],[18.003,45.149],[18.019,45.149],[18.035,45.143],[18.09,45.108],[18.112,45.101],[18.132,45.098],[18.144,45.098],[18.144,45.097],[18.145,45.092],[18.161,45.064],[18.173,45.05],[18.192,45.049],[18.21,45.038],[18.231,45.021],[18.256,44.991],[18.278,44.987],[18.31,44.987],[18.331,44.987],[18.336,44.997],[18.344,45.009],[18.351,45.023],[18.379,45.03],[18.413,45.04],[18.437,45.049],[18.443,45.072],[18.452,45.085],[18.466,45.074],[18.482,45.067],[18.48,45.055],[18.483,45.023],[18.497,45.012],[18.528,44.986],[18.568,44.964],[18.608,44.954],[18.651,44.954],[18.694,44.937],[18.72,44.918],[18.723,44.897],[18.743,44.894],[18.769,44.892],[18.748,44.845],[18.709,44.865],[18.649,44.876],[18.594,44.879],[18.558,44.868],[18.533,44.864],[18.506,44.865],[18.495,44.875],[18.495,44.886],[18.495,44.909],[18.461,44.916],[18.398,44.919],[18.373,44.911],[18.347,44.899],[18.333,44.873],[18.312,44.829],[18.287,44.801],[18.247,44.794],[18.169,44.794],[18.126,44.791],[18.086,44.787],[18.079,44.77],[18.079,44.741],[18.094,44.728],[18.136,44.713],[18.18,44.7],[18.222,44.687],[18.272,44.674],[18.313,44.664],[18.357,44.654],[18.385,44.631],[18.39,44.605],[18.385,44.582],[18.333,44.574],[18.287,44.575],[18.21,44.575],[18.164,44.577],[18.137,44.58],[18.117,44.604],[18.083,44.657],[18.05,44.697],[18.016,44.72],[17.974,44.724],[17.923,44.727],[17.888,44.72],[17.817,44.706],[17.78,44.719],[17.756,44.753],[17.723,44.816],[17.722,44.875],[17.733,44.909],[17.763,44.929],[17.763,44.979],[17.743,45.024],[17.74,45.072],[17.766,45.111]]]}},{"type":"Feature","id":"BA-X02~","properties":{"id":"BA-X02~","countryCode":"BA","isoSubdivision":"BA-X02~","name":"Banja Luka","name_en":"Banja Luka","name_ko":"반자루카","type":"Region","labelLongitude":17.262,"labelLatitude":44.815,"minZoom":9},"geometry":{"type":"Polygon","coordinates":[[[16.924,45.285],[16.933,45.279],[16.941,45.258],[16.942,45.25],[16.942,45.241],[16.947,45.236],[16.968,45.237],[16.965,45.244],[16.961,45.251],[16.976,45.247],[16.988,45.237],[16.999,45.231],[17.008,45.244],[17.012,45.236],[17.014,45.231],[17.013,45.224],[17.008,45.216],[17.014,45.22],[17.03,45.227],[17.036,45.23],[17.056,45.2],[17.098,45.178],[17.125,45.169],[17.187,45.149],[17.198,45.153],[17.245,45.155],[17.25,45.16],[17.269,45.19],[17.308,45.171],[17.327,45.166],[17.359,45.151],[17.369,45.145],[17.382,45.14],[17.401,45.141],[17.434,45.149],[17.436,45.152],[17.439,45.158],[17.443,45.162],[17.451,45.158],[17.457,45.152],[17.458,45.146],[17.455,45.141],[17.448,45.134],[17.46,45.131],[17.472,45.133],[17.496,45.142],[17.487,45.121],[17.482,45.114],[17.489,45.116],[17.54,45.121],[17.561,45.119],[17.572,45.12],[17.593,45.13],[17.63,45.157],[17.652,45.165],[17.685,45.164],[17.715,45.152],[17.741,45.133],[17.766,45.111],[17.74,45.072],[17.743,45.024],[17.763,44.979],[17.763,44.929],[17.733,44.909],[17.722,44.875],[17.723,44.816],[17.756,44.753],[17.78,44.719],[17.817,44.706],[17.888,44.72],[17.852,44.668],[17.835,44.639],[17.835,44.616],[17.857,44.587],[17.891,44.563],[17.915,44.546],[17.921,44.519],[17.921,44.494],[17.917,44.47],[17.893,44.45],[17.857,44.43],[17.815,44.413],[17.765,44.393],[17.733,44.375],[17.731,44.374],[17.688,44.376],[17.601,44.364],[17.538,44.364],[17.502,44.366],[17.485,44.381],[17.465,44.394],[17.439,44.426],[17.408,44.442],[17.372,44.443],[17.325,44.443],[17.267,44.445],[17.24,44.452],[17.227,44.461],[17.176,44.462],[17.151,44.458],[17.144,44.429],[17.149,44.369],[17.153,44.325],[17.169,44.291],[17.186,44.258],[17.21,44.231],[17.263,44.182],[17.273,44.143],[17.267,44.115],[17.259,44.092],[17.249,44.068],[17.249,44.067],[17.156,44.079],[17.129,44.083],[17.114,44.096],[17.113,44.128],[17.107,44.153],[17.084,44.158],[17.061,44.169],[17.046,44.19],[17.016,44.199],[16.968,44.219],[16.917,44.239],[16.877,44.261],[16.854,44.276],[16.835,44.278],[16.8,44.286],[16.781,44.311],[16.768,44.329],[16.757,44.342],[16.741,44.345],[16.717,44.345],[16.689,44.361],[16.628,44.391],[16.585,44.416],[16.556,44.437],[16.526,44.455],[16.512,44.464],[16.503,44.481],[16.508,44.501],[16.528,44.502],[16.566,44.502],[16.626,44.489],[16.697,44.471],[16.754,44.455],[16.81,44.458],[16.853,44.459],[16.861,44.477],[16.871,44.497],[16.881,44.514],[16.883,44.571],[16.883,44.621],[16.878,44.663],[16.87,44.674],[16.844,44.673],[16.838,44.684],[16.838,44.701],[16.838,44.741],[16.828,44.767],[16.79,44.806],[16.745,44.837],[16.704,44.856],[16.651,44.866],[16.614,44.871],[16.559,44.877],[16.501,44.88],[16.469,44.883],[16.399,44.886],[16.333,44.89],[16.302,44.897],[16.273,44.921],[16.263,44.937],[16.263,44.954],[16.279,44.973],[16.326,44.984],[16.349,44.992],[16.355,45.002],[16.355,45.01],[16.349,45.016],[16.346,45.02],[16.357,45.049],[16.377,45.076],[16.382,45.084],[16.384,45.095],[16.382,45.102],[16.382,45.108],[16.389,45.117],[16.399,45.121],[16.425,45.127],[16.436,45.133],[16.449,45.148],[16.482,45.2],[16.529,45.222],[16.587,45.221],[16.786,45.179],[16.812,45.181],[16.824,45.189],[16.826,45.196],[16.825,45.205],[16.831,45.217],[16.841,45.224],[16.852,45.227],[16.862,45.232],[16.867,45.243],[16.875,45.247],[16.886,45.255],[16.894,45.264],[16.897,45.268],[16.924,45.285]]]}},{"type":"Feature","id":"BA-X03~","properties":{"id":"BA-X03~","countryCode":"BA","isoSubdivision":"BA-X03~","name":"Bijeljina","name_en":"Bijeljina","name_ko":"비젤지나","type":"Region","labelLongitude":19.147,"labelLatitude":44.751,"minZoom":9},"geometry":{"type":"Polygon","coordinates":[[[18.975,44.863],[19.005,44.863],[19.016,44.866],[19.048,44.873],[19.068,44.875],[19.085,44.879],[19.174,44.925],[19.187,44.928],[19.193,44.922],[19.197,44.913],[19.202,44.908],[19.212,44.908],[19.23,44.914],[19.239,44.915],[19.284,44.908],[19.293,44.909],[19.301,44.912],[19.31,44.912],[19.33,44.899],[19.34,44.896],[19.35,44.897],[19.353,44.898],[19.353,44.899],[19.357,44.896],[19.363,44.891],[19.369,44.887],[19.373,44.881],[19.376,44.873],[19.377,44.863],[19.373,44.86],[19.368,44.859],[19.364,44.855],[19.328,44.734],[19.318,44.715],[19.308,44.705],[19.288,44.693],[19.278,44.685],[19.27,44.676],[19.256,44.646],[19.209,44.588],[19.204,44.585],[19.193,44.581],[19.188,44.576],[19.186,44.569],[19.187,44.553],[19.185,44.546],[19.18,44.538],[19.168,44.555],[19.147,44.575],[19.115,44.591],[19.099,44.594],[19.075,44.588],[19.047,44.574],[19.031,44.568],[19.03,44.617],[19.023,44.633],[18.987,44.639],[18.951,44.633],[18.938,44.617],[18.92,44.586],[18.891,44.55],[18.868,44.542],[18.848,44.542],[18.832,44.552],[18.778,44.597],[18.739,44.625],[18.729,44.645],[18.731,44.668],[18.742,44.679],[18.771,44.692],[18.798,44.705],[18.805,44.728],[18.804,44.745],[18.821,44.761],[18.837,44.769],[18.886,44.772],[18.909,44.784],[18.922,44.811],[18.937,44.828],[18.96,44.836],[18.975,44.844],[18.975,44.863]]]}},{"type":"Feature","id":"BA-X04~","properties":{"id":"BA-X04~","countryCode":"BA","isoSubdivision":"BA-X04~","name":"Vlasenica","name_en":"Vlasenica","name_ko":"블라세니카","type":"Region","labelLongitude":19.076,"labelLatitude":44.197,"minZoom":9},"geometry":{"type":"Polygon","coordinates":[[[19.18,44.538],[19.173,44.531],[19.165,44.527],[19.13,44.518],[19.127,44.503],[19.143,44.458],[19.141,44.431],[19.13,44.416],[19.116,44.404],[19.107,44.383],[19.109,44.364],[19.117,44.344],[19.139,44.309],[19.157,44.294],[19.177,44.287],[19.22,44.28],[19.241,44.273],[19.25,44.271],[19.264,44.27],[19.296,44.276],[19.307,44.274],[19.324,44.264],[19.342,44.246],[19.354,44.224],[19.356,44.204],[19.362,44.191],[19.381,44.177],[19.425,44.154],[19.436,44.146],[19.443,44.143],[19.448,44.144],[19.46,44.153],[19.466,44.153],[19.474,44.145],[19.476,44.127],[19.483,44.121],[19.498,44.11],[19.516,44.091],[19.522,44.085],[19.555,44.071],[19.571,44.057],[19.58,44.052],[19.584,44.054],[19.59,44.06],[19.599,44.063],[19.611,44.055],[19.619,44.036],[19.61,44.019],[19.593,44.006],[19.552,43.983],[19.529,43.977],[19.504,43.976],[19.447,43.98],[19.394,43.977],[19.379,43.974],[19.365,43.973],[19.352,43.979],[19.326,43.997],[19.301,44.01],[19.287,44.013],[19.273,44.012],[19.252,44.007],[19.244,44.002],[19.238,43.993],[19.238,43.985],[19.243,43.973],[19.241,43.966],[19.229,43.958],[19.241,43.952],[19.225,43.922],[19.176,43.962],[19.127,43.999],[19.006,44.047],[18.908,44.092],[18.823,44.108],[18.737,44.12],[18.749,44.139],[18.763,44.149],[18.765,44.15],[18.787,44.18],[18.792,44.215],[18.782,44.246],[18.768,44.273],[18.752,44.299],[18.745,44.341],[18.754,44.358],[18.777,44.361],[18.807,44.374],[18.825,44.392],[18.838,44.416],[18.883,44.425],[18.923,44.426],[18.948,44.438],[18.977,44.455],[18.994,44.46],[19.02,44.476],[19.028,44.49],[19.031,44.559],[19.031,44.568],[19.047,44.574],[19.075,44.588],[19.099,44.594],[19.115,44.591],[19.147,44.575],[19.168,44.555],[19.18,44.538]]]}},{"type":"Feature","id":"BA-X05~","properties":{"id":"BA-X05~","countryCode":"BA","isoSubdivision":"BA-X05~","name":"Sarajevo-Romanija","name_en":"Sarajevo-Romanija","name_ko":"사라예보-루마니아","type":"Region","labelLongitude":18.751,"labelLatitude":43.928,"minZoom":9},"geometry":{"type":"MultiPolygon","coordinates":[[[[18.587,44.049],[18.624,44.05],[18.659,44.066],[18.704,44.099],[18.737,44.12],[18.823,44.108],[18.908,44.092],[19.006,44.047],[19.127,43.999],[19.176,43.962],[19.225,43.922],[19.217,43.905],[19.225,43.853],[19.221,43.816],[19.241,43.776],[19.221,43.751],[19.176,43.755],[19.144,43.772],[19.071,43.784],[19.002,43.768],[18.95,43.742],[18.925,43.763],[18.878,43.769],[18.784,43.771],[18.739,43.766],[18.719,43.748],[18.709,43.715],[18.692,43.69],[18.674,43.678],[18.636,43.679],[18.612,43.682],[18.609,43.684],[18.559,43.71],[18.518,43.723],[18.486,43.735],[18.443,43.736],[18.416,43.738],[18.403,43.755],[18.376,43.789],[18.373,43.812],[18.37,43.832],[18.383,43.838],[18.425,43.835],[18.452,43.831],[18.482,43.834],[18.498,43.844],[18.506,43.856],[18.506,43.888],[18.503,43.918],[18.498,43.954],[18.499,43.978],[18.509,43.992],[18.539,44.009],[18.569,44.028],[18.576,44.049],[18.587,44.049]]],[[[18.39,43.594],[18.398,43.625],[18.402,43.666],[18.413,43.69],[18.443,43.69],[18.463,43.69],[18.492,43.676],[18.516,43.659],[18.549,43.648],[18.583,43.637],[18.553,43.617],[18.514,43.614],[18.468,43.614],[18.429,43.588],[18.39,43.594]]]]}},{"type":"Feature","id":"BA-X06~","properties":{"id":"BA-X06~","countryCode":"BA","isoSubdivision":"BA-X06~","name":"Foča","name_en":"Foča","name_ko":"포차","type":"Region","labelLongitude":18.735,"labelLatitude":43.444,"minZoom":9},"geometry":{"type":"Polygon","coordinates":[[[19.055,43.507],[19.038,43.511],[19.025,43.523],[19.014,43.538],[19,43.548],[18.977,43.546],[18.963,43.538],[18.939,43.519],[18.921,43.512],[18.911,43.507],[18.905,43.499],[18.906,43.491],[18.915,43.485],[18.931,43.482],[18.938,43.479],[18.951,43.464],[18.951,43.457],[18.946,43.449],[18.946,43.444],[18.968,43.448],[18.975,43.444],[19.01,43.411],[19.04,43.351],[19.07,43.309],[19.063,43.304],[19.036,43.303],[19.025,43.299],[19.023,43.297],[19.017,43.291],[19.011,43.282],[19.003,43.274],[18.992,43.267],[18.99,43.272],[18.989,43.273],[18.969,43.292],[18.959,43.303],[18.957,43.312],[18.958,43.319],[18.957,43.326],[18.95,43.333],[18.923,43.347],[18.899,43.352],[18.84,43.348],[18.821,43.341],[18.825,43.337],[18.83,43.328],[18.834,43.324],[18.807,43.318],[18.68,43.249],[18.664,43.233],[18.633,43.248],[18.588,43.269],[18.507,43.321],[18.45,43.313],[18.41,43.334],[18.377,43.321],[18.349,43.346],[18.365,43.39],[18.356,43.438],[18.39,43.438],[18.395,43.452],[18.385,43.485],[18.376,43.518],[18.37,43.557],[18.375,43.582],[18.376,43.583],[18.383,43.588],[18.39,43.594],[18.429,43.588],[18.468,43.614],[18.514,43.614],[18.553,43.617],[18.583,43.637],[18.585,43.636],[18.649,43.599],[18.694,43.583],[18.761,43.576],[18.792,43.582],[18.845,43.587],[18.885,43.592],[18.918,43.603],[18.963,43.617],[18.996,43.636],[19.02,43.655],[19.051,43.659],[19.057,43.673],[19.046,43.702],[19.028,43.718],[18.996,43.725],[18.973,43.725],[18.95,43.742],[19.002,43.768],[19.071,43.784],[19.144,43.772],[19.176,43.755],[19.221,43.751],[19.241,43.776],[19.221,43.816],[19.225,43.853],[19.217,43.905],[19.225,43.922],[19.241,43.952],[19.275,43.933],[19.306,43.905],[19.359,43.842],[19.462,43.762],[19.482,43.729],[19.506,43.674],[19.507,43.647],[19.482,43.629],[19.477,43.617],[19.476,43.603],[19.477,43.589],[19.482,43.578],[19.489,43.573],[19.492,43.569],[19.49,43.564],[19.482,43.561],[19.444,43.572],[19.432,43.571],[19.419,43.549],[19.411,43.541],[19.403,43.55],[19.395,43.566],[19.38,43.586],[19.363,43.602],[19.347,43.609],[19.336,43.607],[19.313,43.593],[19.301,43.588],[19.289,43.588],[19.264,43.591],[19.253,43.589],[19.239,43.572],[19.229,43.55],[19.217,43.533],[19.195,43.533],[19.148,43.538],[19.123,43.536],[19.096,43.513],[19.076,43.507],[19.055,43.507]]]}},{"type":"Feature","id":"BA-X07~","properties":{"id":"BA-X07~","countryCode":"BA","isoSubdivision":"BA-X07~","name":"Trebinje","name_en":"Trebinje","name_ko":"트레비네","type":"Region","labelLongitude":18.339,"labelLatitude":43.104,"minZoom":9},"geometry":{"type":"Polygon","coordinates":[[[18.437,42.559],[18.421,42.564],[18.385,42.567],[18.37,42.574],[18.375,42.621],[18.373,42.643],[18.346,42.649],[18.318,42.67],[18.269,42.705],[18.216,42.746],[18.212,42.753],[18.203,42.766],[18.174,42.787],[18.151,42.804],[18.088,42.845],[18.059,42.86],[18.058,42.861],[18.057,42.862],[18.04,42.885],[18.024,42.922],[18.015,42.965],[18.014,42.967],[18.014,42.976],[18.016,43.012],[18.026,43.028],[18.036,43.037],[18.043,43.042],[18.053,43.071],[18.054,43.087],[18.056,43.109],[18.04,43.12],[18.019,43.126],[18.014,43.127],[18.011,43.128],[17.991,43.129],[17.989,43.141],[17.991,43.156],[18.007,43.173],[18.03,43.182],[18.046,43.196],[18.057,43.208],[18.054,43.298],[18.051,43.362],[18.047,43.395],[18.023,43.424],[18.025,43.431],[18.03,43.445],[18.099,43.442],[18.17,43.442],[18.257,43.445],[18.356,43.438],[18.365,43.39],[18.349,43.346],[18.377,43.321],[18.41,43.334],[18.45,43.313],[18.507,43.321],[18.588,43.269],[18.633,43.248],[18.664,43.233],[18.688,43.224],[18.645,43.18],[18.629,43.155],[18.621,43.125],[18.621,43.123],[18.621,43.096],[18.639,43.02],[18.598,43.024],[18.539,43.024],[18.483,43.015],[18.453,42.993],[18.434,42.954],[18.434,42.937],[18.444,42.917],[18.468,42.882],[18.473,42.863],[18.466,42.853],[18.453,42.846],[18.444,42.834],[18.445,42.817],[18.454,42.793],[18.467,42.769],[18.502,42.727],[18.523,42.712],[18.54,42.695],[18.55,42.668],[18.55,42.639],[18.543,42.626],[18.538,42.618],[18.517,42.603],[18.507,42.598],[18.487,42.59],[18.494,42.58],[18.496,42.571],[18.492,42.565],[18.482,42.564],[18.471,42.569],[18.459,42.57],[18.448,42.566],[18.437,42.559]]]}}]}
