{"type":"FeatureCollection","features":[{"type":"Feature","id":"BB-01","properties":{"id":"BB-01","countryCode":"BB","isoSubdivision":"BB-01","name":"Christ Church","name_en":"Christ Church","name_ko":"크라이스트처치구","type":"Parish","labelLongitude":-59.538,"labelLatitude":13.087,"minZoom":11},"geometry":{"type":"Polygon","coordinates":[[[-59.476,13.086],[-59.488,13.079],[-59.509,13.057],[-59.517,13.056],[-59.523,13.056],[-59.529,13.055],[-59.536,13.051],[-59.546,13.068],[-59.564,13.078],[-59.587,13.083],[-59.6,13.084],[-59.569,13.1],[-59.569,13.102],[-59.57,13.108],[-59.513,13.129],[-59.504,13.127],[-59.502,13.125],[-59.501,13.122],[-59.499,13.112],[-59.499,13.111],[-59.493,13.101],[-59.492,13.098],[-59.491,13.097],[-59.489,13.097],[-59.483,13.094],[-59.481,13.093],[-59.476,13.086]]]}},{"type":"Feature","id":"BB-02","properties":{"id":"BB-02","countryCode":"BB","isoSubdivision":"BB-02","name":"Saint Andrew","name_en":"Saint Andrew","name_ko":"세인트앤드루구","type":"Parish","labelLongitude":-59.576,"labelLatitude":13.255,"minZoom":11},"geometry":{"type":"Polygon","coordinates":[[[-59.569,13.29],[-59.55,13.249],[-59.546,13.244],[-59.548,13.243],[-59.561,13.237],[-59.564,13.237],[-59.565,13.237],[-59.566,13.238],[-59.567,13.238],[-59.568,13.238],[-59.571,13.233],[-59.581,13.21],[-59.586,13.216],[-59.589,13.217],[-59.601,13.216],[-59.606,13.242],[-59.605,13.276],[-59.604,13.278],[-59.603,13.283],[-59.602,13.283],[-59.601,13.283],[-59.6,13.282],[-59.599,13.282],[-59.598,13.282],[-59.597,13.282],[-59.596,13.282],[-59.595,13.282],[-59.594,13.282],[-59.593,13.282],[-59.591,13.283],[-59.586,13.287],[-59.584,13.288],[-59.583,13.289],[-59.582,13.288],[-59.581,13.288],[-59.58,13.288],[-59.578,13.289],[-59.576,13.289],[-59.571,13.289],[-59.569,13.29]]]}},{"type":"Feature","id":"BB-03","properties":{"id":"BB-03","countryCode":"BB","isoSubdivision":"BB-03","name":"Saint George","name_en":"Saint George","name_ko":"세인트조지구","type":"Parish","labelLongitude":-59.548,"labelLatitude":13.149,"minZoom":11},"geometry":{"type":"Polygon","coordinates":[[[-59.54,13.183],[-59.519,13.164],[-59.517,13.161],[-59.509,13.146],[-59.513,13.129],[-59.57,13.108],[-59.587,13.161],[-59.564,13.17],[-59.562,13.172],[-59.554,13.18],[-59.541,13.182],[-59.54,13.183]]]}},{"type":"Feature","id":"BB-04","properties":{"id":"BB-04","countryCode":"BB","isoSubdivision":"BB-04","name":"Saint James","name_en":"Saint James","name_ko":"세인트제임스구","type":"Parish","labelLongitude":-59.626,"labelLatitude":13.192,"minZoom":11},"geometry":{"type":"Polygon","coordinates":[[[-59.641,13.142],[-59.646,13.16],[-59.651,13.239],[-59.644,13.237],[-59.628,13.245],[-59.606,13.242],[-59.601,13.216],[-59.606,13.209],[-59.608,13.208],[-59.609,13.208],[-59.61,13.208],[-59.611,13.207],[-59.612,13.207],[-59.613,13.206],[-59.614,13.205],[-59.615,13.205],[-59.617,13.204],[-59.618,13.203],[-59.62,13.191],[-59.622,13.188],[-59.623,13.186],[-59.624,13.186],[-59.624,13.185],[-59.625,13.184],[-59.625,13.183],[-59.624,13.182],[-59.617,13.175],[-59.611,13.15],[-59.622,13.142],[-59.623,13.141],[-59.624,13.14],[-59.629,13.138],[-59.631,13.137],[-59.631,13.136],[-59.633,13.137],[-59.638,13.142],[-59.641,13.142]]]}},{"type":"Feature","id":"BB-05","properties":{"id":"BB-05","countryCode":"BB","isoSubdivision":"BB-05","name":"Saint John","name_en":"Saint John","name_ko":"세인트존구","type":"Parish","labelLongitude":-59.504,"labelLatitude":13.18,"minZoom":11},"geometry":{"type":"Polygon","coordinates":[[[-59.518,13.218],[-59.492,13.198],[-59.477,13.189],[-59.468,13.187],[-59.469,13.184],[-59.48,13.171],[-59.481,13.17],[-59.488,13.166],[-59.495,13.163],[-59.509,13.146],[-59.517,13.161],[-59.519,13.164],[-59.54,13.183],[-59.539,13.198],[-59.539,13.2],[-59.539,13.201],[-59.538,13.201],[-59.537,13.201],[-59.537,13.202],[-59.52,13.217],[-59.518,13.218]]]}},{"type":"Feature","id":"BB-06","properties":{"id":"BB-06","countryCode":"BB","isoSubdivision":"BB-06","name":"Saint Joseph","name_en":"Saint Joseph","name_ko":"세인트조지프구","type":"Parish","labelLongitude":-59.549,"labelLatitude":13.212,"minZoom":11},"geometry":{"type":"Polygon","coordinates":[[[-59.546,13.244],[-59.537,13.231],[-59.518,13.218],[-59.52,13.217],[-59.537,13.202],[-59.537,13.201],[-59.538,13.201],[-59.539,13.201],[-59.539,13.2],[-59.539,13.198],[-59.54,13.183],[-59.541,13.182],[-59.554,13.18],[-59.563,13.197],[-59.565,13.2],[-59.567,13.201],[-59.581,13.21],[-59.571,13.233],[-59.568,13.238],[-59.567,13.238],[-59.566,13.238],[-59.565,13.237],[-59.564,13.237],[-59.561,13.237],[-59.548,13.243],[-59.546,13.244]]]}},{"type":"Feature","id":"BB-07","properties":{"id":"BB-07","countryCode":"BB","isoSubdivision":"BB-07","name":"Saint Lucy","name_en":"Saint Lucy","name_ko":"세인트루시구","type":"Parish","labelLongitude":-59.615,"labelLatitude":13.318,"minZoom":11},"geometry":{"type":"Polygon","coordinates":[[[-59.653,13.274],[-59.654,13.295],[-59.652,13.311],[-59.645,13.324],[-59.631,13.338],[-59.613,13.345],[-59.594,13.335],[-59.581,13.315],[-59.576,13.304],[-59.577,13.304],[-59.63,13.287],[-59.649,13.275],[-59.653,13.274]]]}},{"type":"Feature","id":"BB-08","properties":{"id":"BB-08","countryCode":"BB","isoSubdivision":"BB-08","name":"Saint Michael","name_en":"Saint Michael","name_ko":"세인트마이클구","type":"Parish","labelLongitude":-59.605,"labelLatitude":13.118,"minZoom":11},"geometry":{"type":"Polygon","coordinates":[[[-59.6,13.084],[-59.608,13.085],[-59.622,13.094],[-59.633,13.116],[-59.641,13.142],[-59.638,13.142],[-59.633,13.137],[-59.631,13.136],[-59.631,13.137],[-59.629,13.138],[-59.624,13.14],[-59.623,13.141],[-59.622,13.142],[-59.611,13.15],[-59.595,13.153],[-59.594,13.154],[-59.587,13.161],[-59.57,13.108],[-59.569,13.102],[-59.569,13.1],[-59.6,13.084]]]}},{"type":"Feature","id":"BB-09","properties":{"id":"BB-09","countryCode":"BB","isoSubdivision":"BB-09","name":"Saint Peter","name_en":"Saint Peter","name_ko":"세인트피터구","type":"Parish","labelLongitude":-59.611,"labelLatitude":13.268,"minZoom":11},"geometry":{"type":"Polygon","coordinates":[[[-59.576,13.304],[-59.569,13.29],[-59.571,13.289],[-59.576,13.289],[-59.578,13.289],[-59.58,13.288],[-59.581,13.288],[-59.582,13.288],[-59.583,13.289],[-59.584,13.288],[-59.586,13.287],[-59.591,13.283],[-59.593,13.282],[-59.594,13.282],[-59.595,13.282],[-59.596,13.282],[-59.597,13.282],[-59.598,13.282],[-59.599,13.282],[-59.6,13.282],[-59.601,13.283],[-59.602,13.283],[-59.603,13.283],[-59.604,13.278],[-59.605,13.276],[-59.606,13.242],[-59.628,13.245],[-59.644,13.237],[-59.651,13.239],[-59.653,13.274],[-59.649,13.275],[-59.63,13.287],[-59.577,13.304],[-59.576,13.304]]]}},{"type":"Feature","id":"BB-10","properties":{"id":"BB-10","countryCode":"BB","isoSubdivision":"BB-10","name":"Saint Philip","name_en":"Saint Philip","name_ko":"세인트필립구","type":"Parish","labelLongitude":-59.47,"labelLatitude":13.137,"minZoom":11},"geometry":{"type":"Polygon","coordinates":[[[-59.468,13.187],[-59.457,13.183],[-59.439,13.175],[-59.427,13.16],[-59.43,13.126],[-59.456,13.1],[-59.476,13.086],[-59.481,13.093],[-59.483,13.094],[-59.489,13.097],[-59.491,13.097],[-59.492,13.098],[-59.493,13.101],[-59.499,13.111],[-59.499,13.112],[-59.501,13.122],[-59.502,13.125],[-59.504,13.127],[-59.513,13.129],[-59.509,13.146],[-59.495,13.163],[-59.488,13.166],[-59.481,13.17],[-59.48,13.171],[-59.469,13.184],[-59.468,13.187]]]}},{"type":"Feature","id":"BB-11","properties":{"id":"BB-11","countryCode":"BB","isoSubdivision":"BB-11","name":"Saint Thomas","name_en":"Saint Thomas","name_ko":"세인트토머스구","type":"Parish","labelLongitude":-59.59,"labelLatitude":13.188,"minZoom":11},"geometry":{"type":"Polygon","coordinates":[[[-59.589,13.217],[-59.586,13.216],[-59.581,13.21],[-59.567,13.201],[-59.565,13.2],[-59.563,13.197],[-59.554,13.18],[-59.562,13.172],[-59.564,13.17],[-59.587,13.161],[-59.594,13.154],[-59.595,13.153],[-59.611,13.15],[-59.617,13.175],[-59.624,13.182],[-59.625,13.183],[-59.625,13.184],[-59.624,13.185],[-59.624,13.186],[-59.623,13.186],[-59.622,13.188],[-59.62,13.191],[-59.618,13.203],[-59.617,13.204],[-59.615,13.205],[-59.614,13.205],[-59.613,13.206],[-59.612,13.207],[-59.611,13.207],[-59.61,13.208],[-59.609,13.208],[-59.608,13.208],[-59.606,13.209],[-59.601,13.216],[-59.589,13.217]]]}}]}
