{"type":"FeatureCollection","features":[{"type":"Feature","id":"BD-A","properties":{"id":"BD-A","countryCode":"BD","isoSubdivision":"BD-A","name":"Barisal","name_en":"Barisal","name_ko":"바리살","type":"Division","labelLongitude":90.237,"labelLatitude":22.435,"minZoom":7.7},"geometry":{"type":"MultiPolygon","coordinates":[[[[90.45,23.049],[90.454,23.028],[90.468,22.996],[90.487,22.966],[90.507,22.942],[90.509,22.937],[90.508,22.925],[90.51,22.918],[90.513,22.917],[90.517,22.917],[90.521,22.916],[90.524,22.912],[90.536,22.903],[90.54,22.897],[90.535,22.887],[90.52,22.88],[90.505,22.882],[90.49,22.885],[90.476,22.884],[90.457,22.862],[90.448,22.828],[90.436,22.801],[90.408,22.795],[90.424,22.782],[90.42,22.768],[90.406,22.763],[90.394,22.775],[90.373,22.761],[90.387,22.751],[90.416,22.742],[90.435,22.733],[90.445,22.752],[90.462,22.749],[90.479,22.735],[90.49,22.72],[90.493,22.71],[90.497,22.679],[90.509,22.646],[90.513,22.611],[90.51,22.604],[90.5,22.592],[90.491,22.588],[90.469,22.585],[90.459,22.579],[90.453,22.564],[90.442,22.509],[90.442,22.494],[90.445,22.504],[90.451,22.51],[90.458,22.515],[90.463,22.521],[90.464,22.531],[90.46,22.551],[90.463,22.562],[90.473,22.576],[90.487,22.584],[90.505,22.586],[90.524,22.583],[90.56,22.562],[90.578,22.534],[90.59,22.5],[90.607,22.466],[90.591,22.471],[90.586,22.473],[90.586,22.451],[90.594,22.432],[90.613,22.397],[90.618,22.377],[90.619,22.356],[90.613,22.315],[90.582,22.238],[90.558,22.203],[90.538,22.199],[90.512,22.185],[90.501,22.177],[90.497,22.168],[90.494,22.154],[90.488,22.139],[90.46,22.092],[90.45,22.081],[90.439,22.076],[90.425,22.079],[90.408,22.086],[90.394,22.095],[90.387,22.103],[90.393,22.127],[90.417,22.175],[90.422,22.199],[90.41,22.227],[90.408,22.24],[90.414,22.272],[90.411,22.284],[90.394,22.288],[90.399,22.267],[90.389,22.223],[90.391,22.209],[90.399,22.202],[90.406,22.2],[90.41,22.196],[90.414,22.186],[90.413,22.178],[90.408,22.171],[90.401,22.164],[90.399,22.162],[90.397,22.161],[90.395,22.157],[90.393,22.143],[90.389,22.143],[90.384,22.146],[90.38,22.144],[90.377,22.134],[90.374,22.103],[90.37,22.09],[90.366,22.081],[90.347,22.055],[90.335,22.042],[90.332,22.038],[90.328,22.02],[90.309,21.984],[90.304,21.966],[90.3,21.928],[90.291,21.89],[90.283,21.871],[90.273,21.857],[90.218,21.813],[90.204,21.805],[90.185,21.801],[90.164,21.804],[90.127,21.819],[90.109,21.822],[90.093,21.83],[90.089,21.847],[90.095,21.859],[90.112,21.856],[90.105,21.87],[90.111,21.88],[90.121,21.889],[90.126,21.901],[90.125,21.91],[90.122,21.915],[90.121,21.922],[90.126,21.932],[90.116,21.919],[90.098,21.879],[90.089,21.87],[90.079,21.867],[90.067,21.853],[90.058,21.849],[90.049,21.851],[90.036,21.861],[90.024,21.862],[90.031,21.889],[90.034,21.944],[90.045,21.966],[90.054,21.973],[90.066,21.98],[90.077,21.988],[90.086,22],[90.091,22.015],[90.093,22.028],[90.096,22.04],[90.106,22.054],[90.147,22.089],[90.152,22.095],[90.159,22.107],[90.164,22.113],[90.173,22.117],[90.182,22.115],[90.19,22.111],[90.195,22.11],[90.216,22.123],[90.232,22.146],[90.239,22.172],[90.236,22.199],[90.218,22.156],[90.206,22.133],[90.192,22.123],[90.165,22.12],[90.148,22.111],[90.089,22.051],[90.082,22.041],[90.074,22.019],[90.061,22.001],[90.058,21.994],[90.052,21.989],[90.038,21.987],[90.028,21.988],[89.996,22],[90.002,22.014],[90.003,22.029],[90.011,22.041],[90.02,22.049],[90.029,22.053],[90.035,22.06],[90.038,22.075],[90.035,22.105],[90.039,22.116],[90.043,22.131],[90.052,22.141],[90.063,22.146],[90.073,22.152],[90.078,22.164],[90.053,22.155],[90.04,22.138],[90.024,22.089],[90.015,22.078],[89.989,22.053],[89.983,22.045],[89.985,21.999],[89.983,21.987],[89.968,21.975],[89.95,21.981],[89.934,21.998],[89.928,22.017],[89.926,22.027],[89.917,22.05],[89.915,22.062],[89.912,22.136],[89.903,22.177],[89.901,22.202],[89.898,22.212],[89.886,22.231],[89.88,22.24],[89.877,22.253],[89.875,22.264],[89.877,22.275],[89.88,22.288],[89.9,22.334],[89.983,22.445],[89.988,22.458],[89.992,22.47],[89.998,22.481],[90.01,22.49],[89.983,22.473],[89.98,22.47],[89.971,22.493],[89.969,22.496],[89.967,22.5],[89.966,22.5],[89.95,22.508],[89.947,22.512],[89.946,22.517],[89.948,22.526],[89.95,22.532],[89.959,22.551],[89.96,22.556],[89.961,22.566],[89.96,22.578],[89.956,22.593],[89.952,22.599],[89.947,22.605],[89.934,22.613],[89.931,22.616],[89.919,22.646],[89.912,22.655],[89.902,22.664],[89.901,22.668],[89.907,22.672],[89.913,22.672],[89.918,22.671],[89.922,22.669],[89.926,22.669],[89.929,22.671],[89.931,22.678],[89.93,22.686],[89.925,22.693],[89.916,22.696],[89.891,22.698],[89.885,22.701],[89.884,22.706],[89.893,22.716],[89.924,22.735],[89.928,22.739],[89.929,22.743],[89.924,22.748],[89.915,22.753],[89.913,22.756],[89.911,22.762],[89.911,22.769],[89.915,22.776],[89.92,22.779],[89.925,22.781],[89.93,22.783],[89.932,22.787],[89.932,22.791],[89.928,22.795],[89.925,22.797],[89.924,22.799],[89.925,22.803],[89.929,22.81],[89.932,22.815],[89.935,22.817],[89.938,22.818],[89.946,22.816],[89.948,22.817],[89.962,22.827],[89.943,22.857],[89.929,22.87],[89.964,22.876],[89.981,22.879],[89.995,22.886],[90.019,22.909],[90.044,22.941],[90.058,22.969],[90.063,22.975],[90.083,22.992],[90.091,23.004],[90.108,23.02],[90.127,23.029],[90.134,23.047],[90.143,23.063],[90.192,23.072],[90.204,23.07],[90.212,23.066],[90.218,23.059],[90.221,23.051],[90.224,23.025],[90.229,23.009],[90.248,22.987],[90.263,22.978],[90.274,22.974],[90.283,22.974],[90.289,22.975],[90.299,22.982],[90.31,22.998],[90.318,23.005],[90.32,23.011],[90.324,23.016],[90.326,23.021],[90.326,23.038],[90.318,23.044],[90.302,23.041],[90.292,23.043],[90.301,23.059],[90.313,23.066],[90.325,23.069],[90.327,23.072],[90.34,23.069],[90.36,23.065],[90.382,23.049],[90.396,23.036],[90.422,23.025],[90.439,23.034],[90.443,23.038],[90.448,23.048],[90.45,23.049]]],[[[90.594,21.987],[90.594,21.966],[90.597,21.961],[90.601,21.955],[90.607,21.939],[90.591,21.935],[90.581,21.913],[90.573,21.918],[90.566,21.918],[90.557,21.898],[90.541,21.876],[90.521,21.861],[90.504,21.862],[90.504,21.87],[90.511,21.871],[90.523,21.876],[90.532,21.877],[90.523,21.888],[90.518,21.893],[90.51,21.898],[90.517,21.904],[90.517,21.912],[90.515,21.921],[90.518,21.932],[90.522,21.939],[90.526,21.944],[90.594,21.987]]],[[[90.332,21.939],[90.354,21.977],[90.371,21.995],[90.394,22],[90.391,21.978],[90.365,21.939],[90.342,21.86],[90.332,21.85],[90.323,21.844],[90.319,21.846],[90.319,21.893],[90.323,21.917],[90.332,21.939]]],[[[90.387,22.048],[90.381,22.023],[90.353,21.993],[90.346,21.972],[90.34,21.972],[90.346,21.994],[90.359,22.023],[90.374,22.046],[90.387,22.048]]],[[[90.435,22.041],[90.473,22.004],[90.486,21.977],[90.476,21.945],[90.455,21.933],[90.432,21.908],[90.416,21.901],[90.402,21.907],[90.395,21.921],[90.394,21.939],[90.4,21.953],[90.406,21.963],[90.412,21.976],[90.414,21.997],[90.412,22.029],[90.416,22.038],[90.428,22.048],[90.435,22.041]]],[[[90.544,22.062],[90.538,22.069],[90.495,22.045],[90.49,22.035],[90.484,22.035],[90.486,22.058],[90.492,22.08],[90.503,22.096],[90.521,22.103],[90.533,22.11],[90.56,22.138],[90.573,22.137],[90.581,22.149],[90.593,22.159],[90.605,22.166],[90.613,22.164],[90.594,22.103],[90.593,22.113],[90.592,22.119],[90.586,22.131],[90.575,22.096],[90.569,22.058],[90.56,22.024],[90.538,22],[90.52,21.995],[90.509,21.999],[90.505,22.01],[90.504,22.024],[90.509,22.033],[90.544,22.062]]],[[[90.942,22.205],[90.947,22.212],[90.951,22.212],[90.954,22.208],[90.957,22.199],[90.957,22.145],[90.949,22.122],[90.929,22.117],[90.919,22.132],[90.92,22.16],[90.928,22.19],[90.936,22.212],[90.942,22.205]]],[[[90.976,22.186],[90.977,22.239],[90.983,22.259],[90.997,22.253],[90.998,22.235],[90.995,22.214],[90.988,22.195],[90.976,22.186]]],[[[90.953,22.227],[90.937,22.233],[90.94,22.247],[90.951,22.264],[90.957,22.278],[90.96,22.323],[90.966,22.347],[90.976,22.363],[90.984,22.356],[90.99,22.341],[90.994,22.322],[90.994,22.302],[90.99,22.281],[90.953,22.227]]],[[[90.62,22.425],[90.614,22.429],[90.607,22.427],[90.601,22.429],[90.599,22.442],[90.602,22.448],[90.608,22.45],[90.614,22.449],[90.62,22.445],[90.633,22.432],[90.648,22.407],[90.659,22.38],[90.661,22.356],[90.65,22.376],[90.647,22.384],[90.64,22.366],[90.647,22.326],[90.64,22.309],[90.635,22.318],[90.634,22.328],[90.634,22.34],[90.633,22.35],[90.64,22.35],[90.634,22.368],[90.626,22.407],[90.62,22.425]]],[[[90.647,22.425],[90.653,22.483],[90.656,22.481],[90.661,22.48],[90.665,22.469],[90.667,22.458],[90.667,22.439],[90.657,22.434],[90.654,22.431],[90.647,22.425]]],[[[90.791,22.495],[90.835,22.458],[90.855,22.435],[90.835,22.34],[90.836,22.178],[90.828,22.152],[90.775,22.076],[90.757,22.062],[90.756,22.066],[90.75,22.076],[90.727,22.054],[90.718,22.048],[90.692,22.007],[90.683,22.004],[90.67,21.998],[90.658,21.993],[90.647,21.994],[90.639,22.016],[90.651,22.045],[90.67,22.075],[90.682,22.103],[90.626,22.027],[90.61,22.024],[90.604,22.044],[90.608,22.072],[90.619,22.101],[90.633,22.123],[90.622,22.145],[90.632,22.182],[90.674,22.266],[90.678,22.283],[90.682,22.302],[90.682,22.36],[90.688,22.378],[90.68,22.407],[90.678,22.427],[90.682,22.439],[90.682,22.445],[90.671,22.464],[90.659,22.524],[90.647,22.548],[90.631,22.562],[90.575,22.599],[90.559,22.603],[90.554,22.64],[90.556,22.675],[90.579,22.757],[90.585,22.768],[90.596,22.775],[90.613,22.782],[90.631,22.786],[90.651,22.787],[90.661,22.758],[90.672,22.722],[90.684,22.694],[90.701,22.662],[90.716,22.638],[90.731,22.621],[90.747,22.597],[90.755,22.548],[90.767,22.518],[90.791,22.495]]],[[[90.645,22.849],[90.664,22.829],[90.678,22.808],[90.662,22.805],[90.628,22.812],[90.591,22.814],[90.562,22.789],[90.547,22.784],[90.532,22.769],[90.53,22.744],[90.535,22.729],[90.521,22.712],[90.511,22.723],[90.498,22.734],[90.497,22.743],[90.493,22.753],[90.483,22.76],[90.456,22.767],[90.464,22.779],[90.466,22.788],[90.463,22.816],[90.463,22.834],[90.466,22.852],[90.473,22.865],[90.487,22.87],[90.521,22.865],[90.538,22.867],[90.544,22.881],[90.553,22.882],[90.592,22.882],[90.607,22.877],[90.627,22.857],[90.645,22.849]]],[[[90.667,22.953],[90.642,22.952],[90.633,22.953],[90.645,22.946],[90.655,22.937],[90.662,22.928],[90.667,22.918],[90.636,22.921],[90.627,22.925],[90.62,22.933],[90.608,22.953],[90.599,22.959],[90.589,22.962],[90.585,22.96],[90.581,22.957],[90.573,22.953],[90.562,22.952],[90.535,22.951],[90.524,22.953],[90.508,22.976],[90.528,23.008],[90.561,23.033],[90.586,23.035],[90.607,23.018],[90.645,22.975],[90.667,22.959],[90.667,22.953]]],[[[90.51,23.069],[90.517,23.059],[90.516,23.052],[90.5,23.038],[90.478,23.012],[90.469,23.008],[90.461,23.048],[90.456,23.063],[90.494,23.063],[90.502,23.065],[90.51,23.069]]]]}},{"type":"Feature","id":"BD-B","properties":{"id":"BD-B","countryCode":"BD","isoSubdivision":"BD-B","name":"Chattogram","name_en":"Chattogram","name_ko":"치타공","type":"Division","labelLongitude":92.133,"labelLatitude":22.425,"minZoom":7.7},"geometry":{"type":"MultiPolygon","coordinates":[[[[92.641,21.309],[92.643,21.298],[92.634,21.282],[92.614,21.263],[92.591,21.249],[92.571,21.247],[92.559,21.26],[92.552,21.281],[92.544,21.321],[92.525,21.361],[92.499,21.367],[92.465,21.36],[92.423,21.364],[92.4,21.371],[92.39,21.377],[92.381,21.385],[92.374,21.402],[92.372,21.419],[92.368,21.435],[92.355,21.452],[92.323,21.462],[92.285,21.419],[92.253,21.42],[92.236,21.417],[92.225,21.397],[92.212,21.355],[92.184,21.317],[92.178,21.3],[92.178,21.28],[92.185,21.24],[92.184,21.221],[92.178,21.191],[92.175,21.176],[92.181,21.158],[92.188,21.144],[92.212,21.124],[92.218,21.109],[92.224,21.093],[92.265,21.061],[92.259,21.023],[92.257,20.981],[92.261,20.94],[92.272,20.904],[92.301,20.862],[92.305,20.852],[92.308,20.833],[92.326,20.781],[92.333,20.768],[92.336,20.757],[92.334,20.746],[92.326,20.739],[92.319,20.742],[92.314,20.749],[92.309,20.753],[92.301,20.762],[92.278,20.814],[92.21,20.931],[92.193,20.996],[92.186,21.006],[92.134,21.048],[92.124,21.06],[92.108,21.09],[92.097,21.106],[92.053,21.155],[92.045,21.171],[92.044,21.192],[92.052,21.257],[92.05,21.28],[92.045,21.3],[91.99,21.394],[91.98,21.404],[91.969,21.41],[91.96,21.424],[91.953,21.442],[91.95,21.458],[91.956,21.458],[91.958,21.455],[91.959,21.454],[91.96,21.454],[91.963,21.452],[91.971,21.47],[91.983,21.489],[91.999,21.499],[92.018,21.493],[92.005,21.504],[91.995,21.523],[91.99,21.543],[91.99,21.562],[91.999,21.573],[92.012,21.585],[92.022,21.599],[92.018,21.616],[92.033,21.633],[92.036,21.64],[92.032,21.65],[92.038,21.66],[92.036,21.668],[92.029,21.675],[92.023,21.677],[92.026,21.687],[92.029,21.696],[92.029,21.705],[92.025,21.713],[92.024,21.705],[92.022,21.702],[92.018,21.699],[92.025,21.699],[92.012,21.664],[92.001,21.65],[91.984,21.65],[91.976,21.662],[91.979,21.678],[91.984,21.694],[91.984,21.705],[91.977,21.705],[91.972,21.688],[91.963,21.69],[91.954,21.701],[91.95,21.716],[91.953,21.738],[91.962,21.744],[91.975,21.746],[91.99,21.76],[91.984,21.767],[91.967,21.755],[91.96,21.764],[91.967,21.779],[91.99,21.788],[91.99,21.795],[91.944,21.791],[91.924,21.785],[91.909,21.781],[91.899,21.789],[91.901,21.813],[91.911,21.835],[91.929,21.843],[91.922,21.853],[91.926,21.863],[91.936,21.871],[91.95,21.877],[91.95,21.884],[91.939,21.883],[91.93,21.879],[91.922,21.872],[91.916,21.862],[91.91,21.875],[91.906,21.896],[91.901,21.935],[91.898,21.945],[91.884,21.96],[91.881,21.969],[91.881,22.007],[91.855,22.109],[91.854,22.144],[91.864,22.14],[91.867,22.137],[91.862,22.151],[91.853,22.149],[91.846,22.136],[91.846,22.117],[91.84,22.117],[91.829,22.134],[91.819,22.156],[91.813,22.18],[91.812,22.205],[91.817,22.22],[91.826,22.23],[91.835,22.238],[91.84,22.247],[91.838,22.263],[91.83,22.271],[91.819,22.276],[91.812,22.281],[91.809,22.306],[91.827,22.318],[91.852,22.325],[91.874,22.336],[91.885,22.354],[91.908,22.425],[91.902,22.424],[91.888,22.425],[91.886,22.41],[91.876,22.371],[91.877,22.363],[91.87,22.358],[91.859,22.347],[91.844,22.335],[91.826,22.329],[91.823,22.324],[91.799,22.312],[91.791,22.302],[91.794,22.286],[91.805,22.278],[91.817,22.274],[91.826,22.268],[91.826,22.248],[91.809,22.236],[91.787,22.238],[91.772,22.26],[91.754,22.375],[91.744,22.411],[91.676,22.535],[91.548,22.7],[91.516,22.712],[91.499,22.727],[91.485,22.746],[91.477,22.761],[91.469,22.757],[91.462,22.762],[91.458,22.772],[91.456,22.785],[91.458,22.797],[91.468,22.809],[91.474,22.838],[91.49,22.881],[91.49,22.905],[91.483,22.905],[91.48,22.886],[91.462,22.833],[91.452,22.823],[91.43,22.816],[91.417,22.8],[91.412,22.778],[91.415,22.754],[91.4,22.764],[91.385,22.771],[91.368,22.774],[91.346,22.775],[91.346,22.767],[91.367,22.762],[91.37,22.752],[91.36,22.743],[91.343,22.739],[91.291,22.738],[91.309,22.733],[91.325,22.726],[91.333,22.72],[91.33,22.706],[91.317,22.697],[91.301,22.693],[91.284,22.692],[91.283,22.693],[91.253,22.699],[91.248,22.698],[91.245,22.698],[91.243,22.702],[91.244,22.717],[91.243,22.72],[91.231,22.724],[91.216,22.726],[91.182,22.726],[91.182,22.72],[91.195,22.71],[91.199,22.699],[91.192,22.692],[91.169,22.692],[91.169,22.685],[91.227,22.671],[91.253,22.661],[91.264,22.641],[91.261,22.628],[91.253,22.614],[91.242,22.575],[91.221,22.557],[91.203,22.543],[91.177,22.536],[91.127,22.527],[91.089,22.544],[91.07,22.572],[91.059,22.614],[91.049,22.626],[91.038,22.644],[91.027,22.674],[91.018,22.683],[91.004,22.679],[91.019,22.664],[91.032,22.637],[91.04,22.608],[91.038,22.589],[91.018,22.579],[90.985,22.574],[90.955,22.576],[90.942,22.586],[90.936,22.6],[90.908,22.618],[90.902,22.627],[90.899,22.636],[90.884,22.654],[90.876,22.683],[90.865,22.687],[90.836,22.685],[90.831,22.691],[90.82,22.726],[90.812,22.732],[90.803,22.736],[90.795,22.741],[90.788,22.759],[90.774,22.778],[90.771,22.785],[90.77,22.795],[90.757,22.823],[90.75,22.857],[90.742,22.874],[90.733,22.889],[90.726,22.906],[90.723,22.928],[90.717,22.941],[90.64,23.038],[90.629,23.064],[90.627,23.076],[90.627,23.087],[90.639,23.148],[90.64,23.189],[90.646,23.211],[90.657,23.23],[90.665,23.249],[90.661,23.268],[90.667,23.268],[90.651,23.3],[90.65,23.314],[90.661,23.322],[90.658,23.323],[90.655,23.323],[90.653,23.325],[90.654,23.33],[90.628,23.322],[90.611,23.342],[90.602,23.372],[90.599,23.391],[90.6,23.45],[90.609,23.473],[90.633,23.487],[90.692,23.486],[90.715,23.498],[90.716,23.535],[90.711,23.549],[90.706,23.555],[90.702,23.555],[90.711,23.567],[90.733,23.58],[90.743,23.59],[90.736,23.602],[90.74,23.61],[90.752,23.616],[90.768,23.618],[90.77,23.623],[90.761,23.634],[90.735,23.659],[90.743,23.667],[90.751,23.681],[90.752,23.688],[90.749,23.695],[90.745,23.701],[90.74,23.706],[90.725,23.716],[90.722,23.722],[90.724,23.731],[90.739,23.753],[90.76,23.802],[90.761,23.809],[90.761,23.817],[90.756,23.838],[90.756,23.847],[90.76,23.854],[90.766,23.86],[90.772,23.865],[90.779,23.869],[90.785,23.871],[90.792,23.872],[90.823,23.871],[90.83,23.872],[90.837,23.874],[90.844,23.877],[90.85,23.88],[90.873,23.866],[90.88,23.863],[90.885,23.861],[90.891,23.86],[90.901,23.864],[90.914,23.875],[90.952,23.923],[90.973,23.965],[90.978,23.99],[90.973,24.009],[90.982,24.032],[90.994,24.042],[91.01,24.052],[91.03,24.072],[91.037,24.093],[91.018,24.104],[91.025,24.118],[91.007,24.142],[91.009,24.146],[91.004,24.166],[91.01,24.169],[91.022,24.172],[91.033,24.176],[91.066,24.218],[91.08,24.208],[91.087,24.206],[91.094,24.207],[91.097,24.215],[91.095,24.226],[91.095,24.236],[91.104,24.241],[91.123,24.243],[91.14,24.248],[91.153,24.256],[91.236,24.217],[91.261,24.213],[91.294,24.239],[91.3,24.242],[91.308,24.244],[91.319,24.246],[91.327,24.245],[91.332,24.241],[91.333,24.238],[91.332,24.235],[91.328,24.231],[91.315,24.221],[91.287,24.206],[91.283,24.202],[91.281,24.199],[91.281,24.194],[91.286,24.191],[91.311,24.185],[91.315,24.182],[91.317,24.18],[91.315,24.178],[91.311,24.176],[91.289,24.172],[91.285,24.171],[91.282,24.169],[91.278,24.166],[91.275,24.162],[91.273,24.154],[91.274,24.145],[91.282,24.13],[91.284,24.122],[91.286,24.113],[91.285,24.1],[91.287,24.082],[91.289,24.075],[91.292,24.064],[91.294,24.057],[91.299,24.041],[91.307,24.032],[91.313,24.025],[91.313,24.023],[91.313,24.016],[91.309,23.999],[91.308,23.993],[91.305,23.994],[91.292,23.995],[91.274,23.988],[91.261,23.977],[91.25,23.964],[91.216,23.908],[91.212,23.894],[91.213,23.881],[91.224,23.857],[91.228,23.845],[91.225,23.826],[91.205,23.772],[91.195,23.755],[91.177,23.747],[91.158,23.745],[91.142,23.74],[91.132,23.721],[91.137,23.699],[91.152,23.691],[91.169,23.685],[91.175,23.67],[91.166,23.654],[91.152,23.655],[91.14,23.654],[91.136,23.63],[91.141,23.612],[91.17,23.562],[91.178,23.544],[91.186,23.512],[91.195,23.495],[91.203,23.488],[91.221,23.478],[91.227,23.469],[91.23,23.461],[91.234,23.436],[91.248,23.394],[91.258,23.374],[91.271,23.365],[91.284,23.361],[91.287,23.356],[91.283,23.348],[91.273,23.338],[91.266,23.329],[91.268,23.322],[91.273,23.313],[91.277,23.303],[91.301,23.142],[91.314,23.101],[91.337,23.071],[91.371,23.063],[91.375,23.096],[91.356,23.18],[91.356,23.224],[91.361,23.248],[91.372,23.262],[91.394,23.263],[91.414,23.249],[91.428,23.23],[91.437,23.215],[91.436,23.216],[91.44,23.223],[91.44,23.224],[91.446,23.216],[91.447,23.209],[91.445,23.203],[91.446,23.198],[91.461,23.184],[91.464,23.184],[91.47,23.153],[91.475,23.143],[91.498,23.07],[91.503,23.044],[91.506,23.041],[91.516,23.039],[91.518,23.035],[91.519,23.006],[91.524,22.995],[91.537,22.982],[91.55,22.977],[91.563,22.975],[91.577,22.969],[91.583,22.958],[91.583,22.948],[91.586,22.944],[91.602,22.953],[91.608,22.96],[91.612,22.97],[91.617,22.978],[91.626,22.982],[91.633,22.98],[91.64,22.978],[91.647,22.977],[91.654,22.978],[91.668,22.983],[91.695,22.988],[91.707,22.995],[91.714,23.003],[91.731,23.017],[91.738,23.025],[91.755,23.048],[91.756,23.052],[91.756,23.057],[91.756,23.062],[91.761,23.065],[91.764,23.066],[91.774,23.065],[91.776,23.065],[91.791,23.08],[91.796,23.089],[91.792,23.101],[91.779,23.132],[91.764,23.201],[91.749,23.232],[91.744,23.272],[91.763,23.322],[91.792,23.368],[91.818,23.401],[91.834,23.414],[91.889,23.436],[91.905,23.447],[91.918,23.46],[91.941,23.495],[91.942,23.534],[91.916,23.65],[91.914,23.688],[91.916,23.71],[91.923,23.723],[91.937,23.724],[91.949,23.71],[91.962,23.691],[92.004,23.647],[92.019,23.64],[92.042,23.646],[92.06,23.659],[92.092,23.701],[92.108,23.718],[92.151,23.732],[92.171,23.704],[92.181,23.665],[92.194,23.648],[92.209,23.662],[92.222,23.708],[92.239,23.717],[92.259,23.706],[92.26,23.703],[92.262,23.685],[92.25,23.643],[92.253,23.609],[92.291,23.495],[92.297,23.447],[92.301,23.432],[92.307,23.424],[92.32,23.412],[92.325,23.404],[92.327,23.396],[92.325,23.382],[92.327,23.375],[92.332,23.369],[92.345,23.359],[92.349,23.354],[92.35,23.345],[92.347,23.325],[92.347,23.315],[92.352,23.299],[92.357,23.289],[92.357,23.279],[92.351,23.261],[92.333,23.226],[92.329,23.211],[92.328,23.171],[92.353,23.03],[92.352,22.96],[92.36,22.927],[92.379,22.9],[92.412,22.888],[92.426,22.871],[92.435,22.793],[92.442,22.763],[92.454,22.748],[92.481,22.726],[92.492,22.711],[92.496,22.696],[92.503,22.619],[92.501,22.561],[92.505,22.544],[92.517,22.513],[92.519,22.495],[92.577,22.169],[92.576,22.143],[92.564,22.138],[92.549,22.138],[92.537,22.129],[92.56,22.061],[92.573,21.995],[92.575,21.987],[92.576,21.978],[92.59,21.917],[92.593,21.887],[92.576,21.734],[92.59,21.496],[92.593,21.47],[92.603,21.42],[92.639,21.319],[92.641,21.309]]],[[[91.936,21.76],[91.939,21.715],[91.975,21.649],[91.984,21.609],[91.982,21.588],[91.972,21.546],[91.97,21.524],[91.961,21.506],[91.939,21.505],[91.914,21.509],[91.895,21.507],[91.895,21.501],[91.899,21.494],[91.9,21.486],[91.888,21.48],[91.877,21.481],[91.868,21.487],[91.863,21.495],[91.858,21.513],[91.855,21.519],[91.855,21.527],[91.871,21.548],[91.874,21.558],[91.874,21.582],[91.869,21.622],[91.848,21.689],[91.854,21.726],[91.863,21.746],[91.872,21.755],[91.883,21.754],[91.898,21.743],[91.903,21.73],[91.898,21.715],[91.891,21.699],[91.888,21.685],[91.903,21.703],[91.91,21.727],[91.908,21.752],[91.901,21.774],[91.919,21.777],[91.936,21.781],[91.936,21.765],[91.936,21.76]]],[[[91.888,21.866],[91.884,21.85],[91.87,21.825],[91.863,21.79],[91.841,21.735],[91.833,21.726],[91.824,21.743],[91.84,21.826],[91.833,21.877],[91.836,21.894],[91.843,21.907],[91.867,21.932],[91.871,21.929],[91.873,21.926],[91.874,21.918],[91.886,21.88],[91.888,21.866]]],[[[91.149,22.357],[91.156,22.332],[91.171,22.32],[91.181,22.284],[91.182,22.26],[91.187,22.228],[91.171,22.197],[91.161,22.182],[91.154,22.17],[91.141,22.146],[91.121,22.13],[91.106,22.122],[91.094,22.119],[91.082,22.101],[91.063,22.09],[91.039,22.091],[91.022,22.095],[91.011,22.102],[91.005,22.117],[91.034,22.149],[91.052,22.175],[91.059,22.192],[91.068,22.241],[91.069,22.311],[91.075,22.389],[91.092,22.391],[91.127,22.375],[91.149,22.357]]],[[[91.159,22.503],[91.2,22.515],[91.211,22.496],[91.201,22.472],[91.18,22.459],[91.16,22.451],[91.134,22.449],[91.114,22.461],[91.124,22.489],[91.159,22.503]]],[[[91.468,22.586],[91.556,22.478],[91.564,22.436],[91.555,22.402],[91.508,22.397],[91.476,22.413],[91.447,22.453],[91.43,22.493],[91.424,22.525],[91.447,22.576],[91.468,22.586]]]]}},{"type":"Feature","id":"BD-C","properties":{"id":"BD-C","countryCode":"BD","isoSubdivision":"BD-C","name":"Dhaka","name_en":"Dhaka","name_ko":"다카","type":"Division","labelLongitude":90.405,"labelLatitude":24.165,"minZoom":7.7},"geometry":{"type":"MultiPolygon","coordinates":[[[[89.799,25.403],[89.795,25.374],[89.799,25.34],[89.807,25.305],[89.819,25.285],[89.835,25.282],[89.87,25.296],[89.908,25.297],[90.13,25.212],[90.287,25.18],[90.365,25.15],[90.4,25.149],[90.501,25.169],[90.583,25.162],[90.623,25.171],[90.638,25.171],[90.649,25.168],[90.671,25.159],[90.708,25.153],[90.716,25.154],[90.722,25.157],[90.733,25.167],[90.738,25.169],[90.754,25.168],[90.767,25.161],[90.779,25.152],[90.794,25.145],[90.822,25.142],[90.935,25.156],[90.932,25.113],[90.947,25.07],[90.946,25.056],[90.943,25.046],[90.932,25.032],[90.924,25.015],[90.912,24.979],[90.978,24.881],[91.007,24.869],[91.125,24.88],[91.139,24.835],[91.145,24.815],[91.149,24.77],[91.142,24.718],[91.148,24.7],[91.154,24.698],[91.158,24.698],[91.164,24.699],[91.172,24.7],[91.203,24.699],[91.213,24.694],[91.219,24.686],[91.223,24.674],[91.222,24.666],[91.219,24.661],[91.215,24.656],[91.212,24.65],[91.211,24.643],[91.211,24.637],[91.21,24.631],[91.207,24.625],[91.2,24.621],[91.189,24.618],[91.184,24.615],[91.184,24.607],[91.197,24.593],[91.202,24.582],[91.208,24.576],[91.214,24.572],[91.231,24.563],[91.217,24.53],[91.207,24.511],[91.198,24.5],[91.192,24.493],[91.189,24.491],[91.187,24.488],[91.188,24.484],[91.195,24.475],[91.203,24.471],[91.214,24.47],[91.226,24.465],[91.23,24.447],[91.231,24.442],[91.23,24.43],[91.214,24.419],[91.235,24.401],[91.242,24.394],[91.247,24.387],[91.249,24.379],[91.244,24.37],[91.237,24.368],[91.226,24.357],[91.239,24.337],[91.218,24.323],[91.184,24.309],[91.169,24.275],[91.161,24.268],[91.153,24.256],[91.14,24.248],[91.123,24.243],[91.104,24.241],[91.095,24.236],[91.095,24.226],[91.097,24.215],[91.094,24.207],[91.087,24.206],[91.08,24.208],[91.066,24.218],[91.033,24.176],[91.022,24.172],[91.01,24.169],[91.004,24.166],[91.009,24.146],[91.007,24.142],[91.025,24.118],[91.018,24.104],[91.037,24.093],[91.03,24.072],[91.01,24.052],[90.994,24.042],[90.982,24.032],[90.973,24.009],[90.978,23.99],[90.973,23.965],[90.952,23.923],[90.914,23.875],[90.901,23.864],[90.891,23.86],[90.885,23.861],[90.88,23.863],[90.873,23.866],[90.85,23.88],[90.844,23.877],[90.837,23.874],[90.83,23.872],[90.823,23.871],[90.792,23.872],[90.785,23.871],[90.779,23.869],[90.772,23.865],[90.766,23.86],[90.76,23.854],[90.756,23.847],[90.756,23.838],[90.761,23.817],[90.761,23.809],[90.76,23.802],[90.739,23.753],[90.724,23.731],[90.722,23.722],[90.725,23.716],[90.74,23.706],[90.745,23.701],[90.749,23.695],[90.752,23.688],[90.751,23.681],[90.743,23.667],[90.735,23.659],[90.761,23.634],[90.77,23.623],[90.768,23.618],[90.752,23.616],[90.74,23.61],[90.736,23.602],[90.743,23.59],[90.733,23.58],[90.711,23.567],[90.702,23.555],[90.696,23.555],[90.678,23.555],[90.675,23.551],[90.684,23.542],[90.702,23.528],[90.695,23.508],[90.678,23.517],[90.667,23.518],[90.647,23.508],[90.622,23.5],[90.608,23.491],[90.603,23.495],[90.588,23.534],[90.592,23.562],[90.608,23.586],[90.633,23.597],[90.627,23.603],[90.625,23.599],[90.625,23.598],[90.624,23.598],[90.62,23.597],[90.612,23.606],[90.595,23.604],[90.559,23.59],[90.564,23.576],[90.559,23.568],[90.547,23.564],[90.532,23.562],[90.515,23.564],[90.502,23.568],[90.476,23.583],[90.484,23.567],[90.498,23.557],[90.515,23.551],[90.532,23.549],[90.569,23.548],[90.577,23.539],[90.579,23.45],[90.576,23.439],[90.568,23.433],[90.56,23.418],[90.554,23.401],[90.552,23.385],[90.518,23.398],[90.322,23.433],[90.284,23.446],[90.25,23.467],[90.249,23.455],[90.259,23.445],[90.389,23.372],[90.404,23.36],[90.413,23.348],[90.42,23.336],[90.428,23.326],[90.46,23.32],[90.488,23.307],[90.504,23.302],[90.569,23.295],[90.577,23.288],[90.607,23.247],[90.611,23.231],[90.615,23.195],[90.61,23.201],[90.603,23.211],[90.594,23.22],[90.598,23.2],[90.603,23.141],[90.599,23.117],[90.572,23.082],[90.566,23.076],[90.554,23.079],[90.551,23.087],[90.556,23.097],[90.566,23.104],[90.566,23.111],[90.559,23.111],[90.548,23.097],[90.537,23.087],[90.523,23.08],[90.504,23.076],[90.466,23.077],[90.454,23.072],[90.449,23.056],[90.45,23.049],[90.448,23.048],[90.443,23.038],[90.439,23.034],[90.422,23.025],[90.396,23.036],[90.382,23.049],[90.36,23.065],[90.34,23.069],[90.327,23.072],[90.325,23.069],[90.313,23.066],[90.301,23.059],[90.292,23.043],[90.302,23.041],[90.318,23.044],[90.326,23.038],[90.326,23.021],[90.324,23.016],[90.32,23.011],[90.318,23.005],[90.31,22.998],[90.299,22.982],[90.289,22.975],[90.283,22.974],[90.274,22.974],[90.263,22.978],[90.248,22.987],[90.229,23.009],[90.224,23.025],[90.221,23.051],[90.218,23.059],[90.212,23.066],[90.204,23.07],[90.192,23.072],[90.143,23.063],[90.134,23.047],[90.127,23.029],[90.108,23.02],[90.091,23.004],[90.083,22.992],[90.063,22.975],[90.058,22.969],[90.044,22.941],[90.019,22.909],[89.995,22.886],[89.981,22.879],[89.964,22.876],[89.929,22.87],[89.928,22.871],[89.887,22.89],[89.88,22.897],[89.86,22.918],[89.853,22.922],[89.838,22.928],[89.833,22.932],[89.828,22.939],[89.823,22.957],[89.819,22.967],[89.805,22.983],[89.773,23.01],[89.757,23.028],[89.733,23.076],[89.723,23.09],[89.715,23.094],[89.698,23.097],[89.689,23.104],[89.685,23.11],[89.682,23.118],[89.681,23.127],[89.681,23.138],[89.701,23.123],[89.711,23.119],[89.719,23.133],[89.734,23.154],[89.74,23.158],[89.753,23.162],[89.756,23.171],[89.751,23.18],[89.737,23.185],[89.725,23.183],[89.716,23.176],[89.708,23.17],[89.695,23.172],[89.68,23.189],[89.683,23.21],[89.681,23.227],[89.628,23.24],[89.637,23.255],[89.656,23.273],[89.668,23.289],[89.638,23.288],[89.613,23.315],[89.598,23.353],[89.599,23.385],[89.606,23.385],[89.61,23.38],[89.614,23.376],[89.627,23.371],[89.608,23.453],[89.599,23.473],[89.579,23.49],[89.548,23.506],[89.519,23.508],[89.503,23.487],[89.499,23.493],[89.497,23.499],[89.496,23.507],[89.497,23.514],[89.504,23.518],[89.517,23.528],[89.526,23.537],[89.52,23.542],[89.51,23.547],[89.504,23.558],[89.5,23.57],[89.493,23.58],[89.481,23.593],[89.421,23.675],[89.411,23.679],[89.398,23.678],[89.381,23.674],[89.353,23.672],[89.311,23.72],[89.308,23.729],[89.36,23.853],[89.361,23.873],[89.36,23.881],[89.345,23.921],[89.378,23.9],[89.468,23.865],[89.49,23.853],[89.53,23.82],[89.556,23.815],[89.573,23.82],[89.604,23.838],[89.62,23.844],[89.675,23.849],[89.698,23.854],[89.698,23.866],[89.688,23.912],[89.685,23.927],[89.689,23.949],[89.702,23.98],[89.788,24.045],[89.8,24.056],[89.809,24.07],[89.817,24.083],[89.82,24.119],[89.83,24.136],[89.827,24.138],[89.829,24.152],[89.833,24.166],[89.829,24.173],[89.828,24.177],[89.83,24.186],[89.826,24.195],[89.808,24.199],[89.808,24.221],[89.807,24.227],[89.804,24.23],[89.793,24.238],[89.766,24.264],[89.764,24.268],[89.758,24.272],[89.757,24.273],[89.756,24.275],[89.755,24.283],[89.756,24.323],[89.749,24.361],[89.749,24.371],[89.759,24.443],[89.76,24.48],[89.768,24.511],[89.769,24.531],[89.768,24.55],[89.766,24.562],[89.771,24.573],[89.782,24.585],[89.789,24.61],[89.789,24.623],[89.784,24.642],[89.786,24.653],[89.797,24.699],[89.796,24.719],[89.791,24.738],[89.785,24.748],[89.776,24.758],[89.758,24.773],[89.729,24.787],[89.711,24.798],[89.701,24.808],[89.688,24.833],[89.679,24.852],[89.655,24.961],[89.653,24.969],[89.659,25.053],[89.668,25.106],[89.682,25.16],[89.704,25.202],[89.713,25.216],[89.725,25.229],[89.74,25.248],[89.746,25.273],[89.737,25.328],[89.76,25.377],[89.762,25.384],[89.768,25.392],[89.783,25.4],[89.799,25.403]]],[[[90.524,23.322],[90.506,23.314],[90.487,23.319],[90.469,23.332],[90.437,23.362],[90.427,23.376],[90.43,23.385],[90.456,23.385],[90.492,23.373],[90.539,23.35],[90.578,23.324],[90.586,23.302],[90.55,23.326],[90.53,23.334],[90.524,23.322]]]]}},{"type":"Feature","id":"BD-D","properties":{"id":"BD-D","countryCode":"BD","isoSubdivision":"BD-D","name":"Khulna","name_en":"Khulna","name_ko":"쿨나구","type":"Division","labelLongitude":89.371,"labelLatitude":22.918,"minZoom":7.7},"geometry":{"type":"MultiPolygon","coordinates":[[[[89.06,22.13],[89.061,22.13],[89.078,22.151],[89.076,22.175],[89.071,22.195],[89.062,22.212],[89.019,22.265],[89.009,22.286],[89.024,22.295],[89.007,22.321],[89.002,22.334],[88.99,22.387],[88.989,22.397],[88.992,22.407],[89.001,22.42],[89.003,22.428],[88.998,22.451],[88.98,22.491],[88.971,22.528],[88.959,22.537],[88.928,22.548],[88.95,22.562],[88.956,22.585],[88.952,22.612],[88.942,22.637],[88.93,22.659],[88.926,22.681],[88.923,22.694],[88.911,22.723],[88.908,22.741],[88.915,22.754],[88.926,22.767],[88.937,22.782],[88.941,22.796],[88.945,22.815],[88.947,22.835],[88.945,22.848],[88.933,22.858],[88.905,22.866],[88.893,22.88],[88.872,22.927],[88.862,22.942],[88.843,22.965],[88.839,22.976],[88.839,22.995],[88.849,23.024],[88.851,23.075],[88.865,23.1],[88.919,23.154],[88.946,23.174],[88.955,23.184],[88.96,23.194],[88.96,23.203],[88.954,23.207],[88.927,23.207],[88.918,23.209],[88.91,23.212],[88.84,23.235],[88.823,23.238],[88.81,23.236],[88.801,23.231],[88.794,23.225],[88.786,23.222],[88.776,23.222],[88.71,23.241],[88.697,23.252],[88.687,23.272],[88.686,23.293],[88.695,23.313],[88.719,23.348],[88.768,23.467],[88.77,23.489],[88.757,23.499],[88.744,23.489],[88.732,23.473],[88.719,23.468],[88.705,23.495],[88.694,23.5],[88.664,23.518],[88.648,23.535],[88.624,23.574],[88.609,23.589],[88.601,23.59],[88.582,23.588],[88.571,23.592],[88.562,23.602],[88.561,23.609],[88.564,23.616],[88.566,23.629],[88.561,23.632],[88.551,23.634],[88.542,23.639],[88.54,23.65],[88.561,23.741],[88.56,23.75],[88.553,23.765],[88.553,23.775],[88.558,23.786],[88.572,23.807],[88.578,23.819],[88.578,23.828],[88.575,23.837],[88.574,23.846],[88.578,23.855],[88.594,23.867],[88.613,23.868],[88.634,23.866],[88.653,23.87],[88.667,23.88],[88.704,23.914],[88.714,23.925],[88.717,23.943],[88.714,23.964],[88.708,23.984],[88.702,23.995],[88.714,24.015],[88.725,24.029],[88.725,24.038],[88.701,24.044],[88.698,24.056],[88.679,24.071],[88.674,24.083],[88.675,24.092],[88.682,24.113],[88.683,24.124],[88.678,24.145],[88.678,24.154],[88.684,24.167],[88.694,24.175],[88.716,24.183],[88.731,24.19],[88.732,24.182],[88.736,24.175],[88.752,24.153],[88.758,24.147],[88.783,24.136],[88.797,24.126],[88.805,24.122],[88.825,24.119],[88.843,24.123],[88.908,24.151],[88.921,24.159],[88.931,24.172],[88.941,24.172],[88.951,24.17],[88.96,24.167],[88.969,24.162],[88.977,24.156],[89,24.128],[89.023,24.107],[89.033,24.1],[89.037,24.095],[89.041,24.086],[89.043,24.078],[89.046,24.071],[89.052,24.062],[89.06,24.055],[89.066,24.047],[89.07,24.038],[89.07,24.028],[89.067,24.015],[89.065,24.005],[89.068,23.997],[89.078,23.986],[89.116,23.956],[89.138,23.943],[89.16,23.934],[89.187,23.929],[89.27,23.937],[89.297,23.935],[89.322,23.93],[89.345,23.921],[89.36,23.881],[89.361,23.873],[89.36,23.853],[89.308,23.729],[89.311,23.72],[89.353,23.672],[89.381,23.674],[89.398,23.678],[89.411,23.679],[89.421,23.675],[89.481,23.593],[89.493,23.58],[89.5,23.57],[89.504,23.558],[89.51,23.547],[89.52,23.542],[89.526,23.537],[89.517,23.528],[89.504,23.518],[89.497,23.514],[89.496,23.507],[89.497,23.499],[89.499,23.493],[89.503,23.487],[89.519,23.508],[89.548,23.506],[89.579,23.49],[89.599,23.473],[89.608,23.453],[89.627,23.371],[89.614,23.376],[89.61,23.38],[89.606,23.385],[89.599,23.385],[89.598,23.353],[89.613,23.315],[89.638,23.288],[89.668,23.289],[89.656,23.273],[89.637,23.255],[89.628,23.24],[89.681,23.227],[89.683,23.21],[89.68,23.189],[89.695,23.172],[89.708,23.17],[89.716,23.176],[89.725,23.183],[89.737,23.185],[89.751,23.18],[89.756,23.171],[89.753,23.162],[89.74,23.158],[89.734,23.154],[89.719,23.133],[89.711,23.119],[89.701,23.123],[89.681,23.138],[89.681,23.127],[89.682,23.118],[89.685,23.11],[89.689,23.104],[89.698,23.097],[89.715,23.094],[89.723,23.09],[89.733,23.076],[89.757,23.028],[89.773,23.01],[89.805,22.983],[89.819,22.967],[89.823,22.957],[89.828,22.939],[89.833,22.932],[89.838,22.928],[89.853,22.922],[89.86,22.918],[89.88,22.897],[89.887,22.89],[89.928,22.871],[89.929,22.87],[89.943,22.857],[89.962,22.827],[89.948,22.817],[89.946,22.816],[89.938,22.818],[89.935,22.817],[89.932,22.815],[89.929,22.81],[89.925,22.803],[89.924,22.799],[89.925,22.797],[89.928,22.795],[89.932,22.791],[89.932,22.787],[89.93,22.783],[89.925,22.781],[89.92,22.779],[89.915,22.776],[89.911,22.769],[89.911,22.762],[89.913,22.756],[89.915,22.753],[89.924,22.748],[89.929,22.743],[89.928,22.739],[89.924,22.735],[89.893,22.716],[89.884,22.706],[89.885,22.701],[89.891,22.698],[89.916,22.696],[89.925,22.693],[89.93,22.686],[89.931,22.678],[89.929,22.671],[89.926,22.669],[89.922,22.669],[89.918,22.671],[89.913,22.672],[89.907,22.672],[89.901,22.668],[89.902,22.664],[89.912,22.655],[89.919,22.646],[89.931,22.616],[89.934,22.613],[89.947,22.605],[89.952,22.599],[89.956,22.593],[89.96,22.578],[89.961,22.566],[89.96,22.556],[89.959,22.551],[89.95,22.532],[89.948,22.526],[89.946,22.517],[89.947,22.512],[89.95,22.508],[89.966,22.5],[89.967,22.5],[89.969,22.496],[89.971,22.493],[89.98,22.47],[89.947,22.44],[89.934,22.424],[89.928,22.408],[89.92,22.392],[89.903,22.396],[89.873,22.419],[89.875,22.398],[89.881,22.381],[89.884,22.364],[89.88,22.342],[89.839,22.268],[89.851,22.247],[89.861,22.211],[89.873,22.144],[89.874,22.109],[89.871,22.092],[89.863,22.079],[89.846,22.071],[89.832,22.072],[89.816,22.076],[89.797,22.076],[89.797,22.069],[89.818,22.06],[89.836,22.049],[89.848,22.034],[89.852,22.01],[89.851,22.001],[89.846,21.983],[89.846,21.972],[89.85,21.963],[89.864,21.943],[89.872,21.924],[89.882,21.913],[89.887,21.9],[89.88,21.884],[89.873,21.882],[89.851,21.878],[89.825,21.856],[89.82,21.85],[89.818,21.845],[89.814,21.841],[89.805,21.836],[89.786,21.829],[89.776,21.828],[89.771,21.832],[89.766,21.847],[89.753,21.844],[89.738,21.834],[89.726,21.829],[89.709,21.83],[89.69,21.834],[89.673,21.84],[89.661,21.849],[89.657,21.857],[89.653,21.868],[89.653,21.879],[89.663,21.896],[89.661,21.906],[89.647,21.925],[89.619,21.87],[89.63,21.851],[89.65,21.826],[89.672,21.804],[89.692,21.795],[89.701,21.785],[89.69,21.765],[89.668,21.751],[89.644,21.757],[89.632,21.764],[89.62,21.764],[89.595,21.76],[89.593,21.754],[89.604,21.728],[89.606,21.719],[89.587,21.701],[89.566,21.713],[89.537,21.754],[89.539,21.771],[89.527,21.813],[89.53,21.836],[89.538,21.849],[89.557,21.869],[89.564,21.884],[89.568,21.901],[89.563,21.973],[89.571,22.031],[89.577,22.052],[89.601,22.091],[89.606,22.113],[89.603,22.135],[89.594,22.155],[89.581,22.174],[89.568,22.189],[89.567,22.203],[89.598,22.24],[89.606,22.257],[89.607,22.278],[89.611,22.299],[89.617,22.318],[89.626,22.336],[89.615,22.328],[89.606,22.316],[89.592,22.288],[89.581,22.277],[89.577,22.269],[89.586,22.245],[89.58,22.237],[89.561,22.223],[89.549,22.205],[89.55,22.192],[89.571,22.158],[89.576,22.145],[89.579,22.136],[89.579,22.113],[89.577,22.101],[89.567,22.082],[89.564,22.072],[89.556,22.008],[89.551,21.994],[89.533,21.985],[89.525,22],[89.523,22.045],[89.526,22.055],[89.536,22.076],[89.537,22.089],[89.492,22.188],[89.489,22.209],[89.494,22.254],[89.493,22.274],[89.483,22.295],[89.476,22.295],[89.467,22.229],[89.476,22.103],[89.483,22.103],[89.484,22.117],[89.489,22.13],[89.494,22.137],[89.497,22.134],[89.498,22.125],[89.502,22.113],[89.507,22.101],[89.513,22.092],[89.518,22.081],[89.517,22.066],[89.509,22.041],[89.504,22.037],[89.492,22.035],[89.489,22.031],[89.49,22.024],[89.493,22.019],[89.497,22.014],[89.5,22.003],[89.513,21.978],[89.52,21.969],[89.522,21.962],[89.513,21.909],[89.502,21.898],[89.489,21.888],[89.476,21.877],[89.465,21.859],[89.464,21.845],[89.467,21.829],[89.469,21.804],[89.466,21.781],[89.456,21.762],[89.443,21.747],[89.406,21.717],[89.395,21.716],[89.37,21.743],[89.364,21.758],[89.363,21.784],[89.366,21.829],[89.371,21.847],[89.384,21.878],[89.387,21.901],[89.383,21.921],[89.364,21.955],[89.36,21.972],[89.352,21.972],[89.346,21.957],[89.349,21.944],[89.355,21.932],[89.36,21.918],[89.36,21.902],[89.356,21.893],[89.339,21.877],[89.329,21.865],[89.323,21.855],[89.306,21.818],[89.301,21.809],[89.296,21.809],[89.291,21.822],[89.284,21.822],[89.284,21.797],[89.295,21.758],[89.291,21.733],[89.274,21.699],[89.277,21.688],[89.298,21.678],[89.286,21.666],[89.269,21.654],[89.249,21.646],[89.229,21.644],[89.21,21.654],[89.204,21.673],[89.208,21.691],[89.219,21.699],[89.221,21.709],[89.19,21.791],[89.188,21.8],[89.188,21.812],[89.183,21.816],[89.174,21.81],[89.165,21.8],[89.16,21.791],[89.155,21.787],[89.141,21.79],[89.119,21.801],[89.109,21.81],[89.105,21.816],[89.08,21.897],[89.078,21.914],[89.08,21.935],[89.091,21.977],[89.091,22],[89.084,22.021],[89.062,22.05],[89.057,22.065],[89.063,22.111],[89.06,22.13]]],[[[89.116,21.781],[89.139,21.767],[89.145,21.739],[89.132,21.722],[89.102,21.737],[89.052,21.793],[89.051,21.797],[89.058,21.803],[89.064,21.822],[89.064,21.841],[89.054,21.875],[89.051,21.89],[89.045,21.908],[89.046,21.917],[89.057,21.918],[89.062,21.915],[89.065,21.91],[89.068,21.904],[89.072,21.89],[89.081,21.823],[89.093,21.793],[89.116,21.781]]]]}},{"type":"Feature","id":"BD-E","properties":{"id":"BD-E","countryCode":"BD","isoSubdivision":"BD-E","name":"Rajshahi","name_en":"Rajshahi","name_ko":"라지샤히구","type":"Division","labelLongitude":89.044,"labelLatitude":24.666,"minZoom":7.7},"geometry":{"type":"Polygon","coordinates":[[[88.731,24.19],[88.732,24.19],[88.735,24.198],[88.746,24.214],[88.75,24.223],[88.747,24.227],[88.745,24.243],[88.743,24.248],[88.738,24.287],[88.715,24.315],[88.682,24.334],[88.66,24.338],[88.65,24.315],[88.635,24.294],[88.612,24.293],[88.563,24.308],[88.498,24.311],[88.475,24.315],[88.401,24.369],[88.139,24.495],[88.11,24.501],[88.108,24.508],[88.099,24.522],[88.09,24.533],[88.086,24.537],[88.085,24.542],[88.085,24.594],[88.082,24.6],[88.067,24.614],[88.057,24.634],[88.041,24.64],[88.022,24.646],[88.027,24.676],[88.035,24.694],[88.048,24.711],[88.053,24.755],[88.064,24.759],[88.077,24.761],[88.084,24.77],[88.085,24.784],[88.088,24.796],[88.095,24.803],[88.108,24.801],[88.117,24.819],[88.131,24.832],[88.141,24.845],[88.138,24.863],[88.125,24.898],[88.12,24.907],[88.115,24.912],[88.115,24.916],[88.165,24.941],[88.183,24.947],[88.202,24.945],[88.219,24.935],[88.233,24.918],[88.242,24.899],[88.243,24.881],[88.255,24.88],[88.297,24.87],[88.314,24.868],[88.323,24.875],[88.341,24.904],[88.376,24.946],[88.388,24.969],[88.391,24.995],[88.414,25.022],[88.426,25.051],[88.434,25.117],[88.431,25.173],[88.441,25.19],[88.475,25.195],[88.492,25.191],[88.523,25.18],[88.55,25.173],[88.555,25.171],[88.559,25.171],[88.571,25.173],[88.578,25.177],[88.59,25.19],[88.599,25.193],[88.634,25.192],[88.665,25.187],[88.725,25.166],[88.784,25.161],[88.792,25.167],[88.803,25.188],[88.809,25.195],[88.817,25.197],[88.824,25.195],[88.83,25.191],[88.899,25.169],[88.924,25.168],[88.91,25.189],[88.928,25.193],[88.931,25.203],[88.928,25.216],[88.929,25.229],[88.938,25.24],[88.975,25.265],[88.982,25.275],[88.985,25.285],[88.983,25.294],[88.975,25.303],[89.074,25.3],[89.182,25.3],[89.223,25.29],[89.227,25.252],[89.252,25.201],[89.284,25.173],[89.351,25.208],[89.411,25.195],[89.506,25.166],[89.605,25.166],[89.682,25.16],[89.668,25.106],[89.659,25.053],[89.653,24.969],[89.655,24.961],[89.679,24.852],[89.688,24.833],[89.701,24.808],[89.711,24.798],[89.729,24.787],[89.758,24.773],[89.776,24.758],[89.785,24.748],[89.791,24.738],[89.796,24.719],[89.797,24.699],[89.786,24.653],[89.784,24.642],[89.789,24.623],[89.789,24.61],[89.782,24.585],[89.771,24.573],[89.766,24.562],[89.768,24.55],[89.769,24.531],[89.768,24.511],[89.76,24.48],[89.759,24.443],[89.749,24.371],[89.749,24.361],[89.756,24.323],[89.755,24.283],[89.756,24.275],[89.757,24.273],[89.758,24.272],[89.764,24.268],[89.766,24.264],[89.793,24.238],[89.804,24.23],[89.807,24.227],[89.808,24.221],[89.808,24.199],[89.826,24.195],[89.83,24.186],[89.828,24.177],[89.829,24.173],[89.833,24.166],[89.829,24.152],[89.827,24.138],[89.83,24.136],[89.82,24.119],[89.817,24.083],[89.809,24.07],[89.8,24.056],[89.788,24.045],[89.702,23.98],[89.689,23.949],[89.685,23.927],[89.688,23.912],[89.698,23.866],[89.698,23.854],[89.675,23.849],[89.62,23.844],[89.604,23.838],[89.573,23.82],[89.556,23.815],[89.53,23.82],[89.49,23.853],[89.468,23.865],[89.378,23.9],[89.345,23.921],[89.322,23.93],[89.297,23.935],[89.27,23.937],[89.187,23.929],[89.16,23.934],[89.138,23.943],[89.116,23.956],[89.078,23.986],[89.068,23.997],[89.065,24.005],[89.067,24.015],[89.07,24.028],[89.07,24.038],[89.066,24.047],[89.06,24.055],[89.052,24.062],[89.046,24.071],[89.043,24.078],[89.041,24.086],[89.037,24.095],[89.033,24.1],[89.023,24.107],[89,24.128],[88.977,24.156],[88.969,24.162],[88.96,24.167],[88.951,24.17],[88.941,24.172],[88.931,24.172],[88.921,24.159],[88.908,24.151],[88.843,24.123],[88.825,24.119],[88.805,24.122],[88.797,24.126],[88.783,24.136],[88.758,24.147],[88.752,24.153],[88.736,24.175],[88.732,24.182],[88.731,24.19]]]}},{"type":"Feature","id":"BD-F","properties":{"id":"BD-F","countryCode":"BD","isoSubdivision":"BD-F","name":"Rangpur","name_en":"Rangpur","name_ko":"랑푸르구","type":"Division","labelLongitude":89.112,"labelLatitude":25.757,"minZoom":7.7},"geometry":{"type":"Polygon","coordinates":[[[89.809,25.44],[89.801,25.413],[89.799,25.403],[89.783,25.4],[89.768,25.392],[89.762,25.384],[89.76,25.377],[89.737,25.328],[89.746,25.273],[89.74,25.248],[89.725,25.229],[89.713,25.216],[89.704,25.202],[89.682,25.16],[89.605,25.166],[89.506,25.166],[89.411,25.195],[89.351,25.208],[89.284,25.173],[89.252,25.201],[89.227,25.252],[89.223,25.29],[89.182,25.3],[89.074,25.3],[88.975,25.303],[88.926,25.3],[88.903,25.303],[88.886,25.319],[88.88,25.323],[88.859,25.325],[88.849,25.327],[88.842,25.333],[88.818,25.36],[88.814,25.37],[88.813,25.38],[88.81,25.388],[88.8,25.396],[88.799,25.402],[88.816,25.437],[88.815,25.459],[88.806,25.472],[88.793,25.482],[88.781,25.495],[88.772,25.502],[88.742,25.513],[88.743,25.495],[88.733,25.491],[88.723,25.491],[88.714,25.493],[88.706,25.492],[88.696,25.484],[88.687,25.474],[88.678,25.466],[88.666,25.463],[88.645,25.467],[88.613,25.486],[88.594,25.495],[88.551,25.496],[88.53,25.5],[88.52,25.509],[88.513,25.524],[88.486,25.543],[88.475,25.563],[88.438,25.58],[88.424,25.592],[88.419,25.654],[88.393,25.681],[88.32,25.725],[88.26,25.789],[88.227,25.804],[88.183,25.792],[88.166,25.784],[88.146,25.776],[88.128,25.775],[88.115,25.787],[88.108,25.806],[88.103,25.815],[88.088,25.831],[88.088,25.84],[88.089,25.849],[88.082,25.864],[88.074,25.908],[88.077,25.913],[88.083,25.916],[88.088,25.923],[88.107,25.98],[88.126,26.013],[88.151,26.031],[88.158,26.05],[88.156,26.061],[88.151,26.067],[88.145,26.071],[88.141,26.075],[88.14,26.085],[88.141,26.091],[88.144,26.096],[88.156,26.128],[88.164,26.14],[88.197,26.16],[88.206,26.166],[88.212,26.174],[88.219,26.18],[88.23,26.184],[88.25,26.188],[88.309,26.206],[88.326,26.216],[88.335,26.231],[88.333,26.267],[88.337,26.282],[88.352,26.301],[88.367,26.313],[88.414,26.34],[88.421,26.349],[88.426,26.358],[88.432,26.362],[88.442,26.356],[88.449,26.353],[88.458,26.353],[88.468,26.354],[88.475,26.356],[88.498,26.353],[88.495,26.378],[88.475,26.432],[88.461,26.454],[88.435,26.465],[88.377,26.475],[88.354,26.485],[88.347,26.484],[88.343,26.477],[88.34,26.454],[88.336,26.448],[88.323,26.452],[88.315,26.465],[88.314,26.482],[88.319,26.495],[88.332,26.515],[88.353,26.579],[88.36,26.593],[88.373,26.612],[88.385,26.624],[88.394,26.618],[88.396,26.6],[88.395,26.578],[88.398,26.559],[88.411,26.545],[88.446,26.536],[88.462,26.529],[88.475,26.515],[88.488,26.506],[88.499,26.495],[88.507,26.488],[88.527,26.475],[88.55,26.467],[88.558,26.466],[88.579,26.466],[88.591,26.461],[88.598,26.451],[88.604,26.44],[88.612,26.431],[88.622,26.425],[88.633,26.42],[88.656,26.415],[88.652,26.407],[88.65,26.398],[88.652,26.392],[88.661,26.389],[88.669,26.386],[88.667,26.368],[88.673,26.361],[88.696,26.35],[88.71,26.341],[88.712,26.328],[88.703,26.31],[88.69,26.3],[88.653,26.283],[88.646,26.276],[88.663,26.264],[88.748,26.293],[88.784,26.28],[88.792,26.265],[88.798,26.248],[88.808,26.233],[88.825,26.227],[88.841,26.232],[88.856,26.265],[88.876,26.277],[88.903,26.273],[88.947,26.233],[88.975,26.224],[89.019,26.234],[89.04,26.247],[89.034,26.266],[89.024,26.269],[89.012,26.269],[89.004,26.276],[89.008,26.297],[88.999,26.292],[88.99,26.289],[88.982,26.292],[88.975,26.3],[88.966,26.328],[88.941,26.34],[88.912,26.349],[88.892,26.369],[88.891,26.386],[88.899,26.404],[88.912,26.421],[88.925,26.432],[88.941,26.439],[88.95,26.437],[88.959,26.429],[88.975,26.418],[88.987,26.413],[89.002,26.397],[89.011,26.39],[89.022,26.386],[89.044,26.381],[89.053,26.375],[89.057,26.363],[89.054,26.354],[89.055,26.347],[89.072,26.341],[89.096,26.335],[89.103,26.327],[89.104,26.314],[89.095,26.31],[89.08,26.316],[89.069,26.314],[89.069,26.287],[89.076,26.271],[89.096,26.241],[89.103,26.225],[89.112,26.165],[89.119,26.147],[89.132,26.134],[89.198,26.108],[89.213,26.099],[89.223,26.087],[89.229,26.067],[89.238,26.058],[89.273,26.043],[89.297,26.018],[89.315,26.007],[89.335,25.999],[89.351,25.997],[89.368,26.005],[89.38,26.015],[89.391,26.015],[89.407,25.995],[89.411,25.993],[89.416,25.993],[89.421,25.993],[89.426,25.995],[89.481,25.999],[89.486,25.999],[89.491,25.997],[89.495,25.995],[89.509,25.973],[89.518,25.962],[89.528,25.957],[89.542,25.96],[89.549,25.969],[89.552,25.982],[89.551,25.995],[89.559,26.022],[89.603,26.055],[89.611,26.072],[89.604,26.085],[89.591,26.085],[89.577,26.083],[89.567,26.087],[89.567,26.099],[89.578,26.107],[89.593,26.114],[89.604,26.121],[89.586,26.123],[89.569,26.13],[89.563,26.143],[89.573,26.161],[89.58,26.166],[89.587,26.169],[89.594,26.17],[89.614,26.164],[89.615,26.169],[89.608,26.181],[89.606,26.211],[89.613,26.219],[89.635,26.226],[89.653,26.223],[89.658,26.208],[89.658,26.187],[89.657,26.165],[89.656,26.161],[89.658,26.159],[89.67,26.154],[89.678,26.153],[89.698,26.155],[89.707,26.154],[89.718,26.146],[89.724,26.131],[89.729,26.114],[89.737,26.101],[89.75,26.084],[89.751,26.072],[89.749,26.059],[89.75,26.042],[89.756,26.032],[89.776,26.008],[89.784,25.995],[89.789,25.988],[89.796,25.986],[89.802,25.989],[89.809,25.995],[89.811,25.996],[89.813,25.996],[89.814,25.996],[89.815,25.995],[89.829,25.979],[89.826,25.966],[89.812,25.955],[89.792,25.949],[89.811,25.939],[89.826,25.937],[89.834,25.932],[89.83,25.908],[89.787,25.839],[89.783,25.814],[89.802,25.725],[89.824,25.674],[89.834,25.635],[89.825,25.564],[89.823,25.489],[89.809,25.44]]]}},{"type":"Feature","id":"BD-G","properties":{"id":"BD-G","countryCode":"BD","isoSubdivision":"BD-G","name":"Sylhet","name_en":"Sylhet","name_ko":"실렛","type":"Division","labelLongitude":91.703,"labelLatitude":24.645,"minZoom":7.7},"geometry":{"type":"Polygon","coordinates":[[[92.15,24.542],[92.139,24.534],[92.123,24.525],[92.111,24.514],[92.106,24.495],[92.111,24.434],[92.108,24.406],[92.088,24.382],[92.063,24.371],[92.033,24.369],[91.95,24.375],[91.949,24.364],[91.971,24.33],[91.972,24.316],[91.953,24.323],[91.931,24.337],[91.922,24.345],[91.9,24.338],[91.896,24.32],[91.907,24.28],[91.906,24.261],[91.884,24.176],[91.877,24.158],[91.865,24.151],[91.844,24.155],[91.814,24.183],[91.811,24.192],[91.81,24.215],[91.807,24.221],[91.797,24.222],[91.733,24.234],[91.723,24.221],[91.726,24.202],[91.732,24.182],[91.733,24.164],[91.721,24.149],[91.704,24.143],[91.684,24.145],[91.666,24.156],[91.657,24.171],[91.64,24.212],[91.629,24.215],[91.625,24.203],[91.614,24.14],[91.606,24.119],[91.597,24.105],[91.582,24.096],[91.559,24.09],[91.518,24.085],[91.48,24.088],[91.405,24.103],[91.363,24.1],[91.351,24.074],[91.349,24.036],[91.339,23.995],[91.327,23.988],[91.316,23.989],[91.308,23.993],[91.309,23.999],[91.313,24.016],[91.313,24.023],[91.313,24.025],[91.307,24.032],[91.299,24.041],[91.294,24.057],[91.292,24.064],[91.289,24.075],[91.287,24.082],[91.285,24.1],[91.286,24.113],[91.284,24.122],[91.282,24.13],[91.274,24.145],[91.273,24.154],[91.275,24.162],[91.278,24.166],[91.282,24.169],[91.285,24.171],[91.289,24.172],[91.311,24.176],[91.315,24.178],[91.317,24.18],[91.315,24.182],[91.311,24.185],[91.286,24.191],[91.281,24.194],[91.281,24.199],[91.283,24.202],[91.287,24.206],[91.315,24.221],[91.328,24.231],[91.332,24.235],[91.333,24.238],[91.332,24.241],[91.327,24.245],[91.319,24.246],[91.308,24.244],[91.3,24.242],[91.294,24.239],[91.261,24.213],[91.236,24.217],[91.153,24.256],[91.161,24.268],[91.169,24.275],[91.184,24.309],[91.218,24.323],[91.239,24.337],[91.226,24.357],[91.237,24.368],[91.244,24.37],[91.249,24.379],[91.247,24.387],[91.242,24.394],[91.235,24.401],[91.214,24.419],[91.23,24.43],[91.231,24.442],[91.23,24.447],[91.226,24.465],[91.214,24.47],[91.203,24.471],[91.195,24.475],[91.188,24.484],[91.187,24.488],[91.189,24.491],[91.192,24.493],[91.198,24.5],[91.207,24.511],[91.217,24.53],[91.231,24.563],[91.214,24.572],[91.208,24.576],[91.202,24.582],[91.197,24.593],[91.184,24.607],[91.184,24.615],[91.189,24.618],[91.2,24.621],[91.207,24.625],[91.21,24.631],[91.211,24.637],[91.211,24.643],[91.212,24.65],[91.215,24.656],[91.219,24.661],[91.222,24.666],[91.223,24.674],[91.219,24.686],[91.213,24.694],[91.203,24.699],[91.172,24.7],[91.164,24.699],[91.158,24.698],[91.154,24.698],[91.148,24.7],[91.142,24.718],[91.149,24.77],[91.145,24.815],[91.139,24.835],[91.125,24.88],[91.007,24.869],[90.978,24.881],[90.912,24.979],[90.924,25.015],[90.932,25.032],[90.943,25.046],[90.946,25.056],[90.947,25.07],[90.932,25.113],[90.935,25.156],[90.943,25.157],[90.975,25.168],[91.135,25.191],[91.191,25.189],[91.203,25.191],[91.225,25.202],[91.236,25.202],[91.284,25.179],[91.432,25.138],[91.471,25.134],[91.481,25.135],[91.501,25.141],[91.512,25.142],[91.523,25.145],[91.54,25.158],[91.549,25.161],[91.566,25.16],[91.573,25.152],[91.58,25.141],[91.596,25.129],[91.613,25.125],[91.639,25.124],[91.662,25.127],[91.672,25.137],[91.677,25.153],[91.689,25.153],[91.702,25.147],[91.711,25.145],[91.718,25.15],[91.724,25.162],[91.73,25.167],[91.745,25.169],[91.794,25.165],[91.901,25.178],[91.956,25.17],[91.975,25.175],[92.002,25.183],[92.034,25.182],[92.066,25.175],[92.093,25.165],[92.1,25.159],[92.11,25.145],[92.116,25.139],[92.124,25.137],[92.139,25.136],[92.146,25.132],[92.151,25.13],[92.165,25.134],[92.173,25.132],[92.179,25.127],[92.194,25.109],[92.208,25.098],[92.22,25.09],[92.234,25.085],[92.252,25.081],[92.304,25.074],[92.312,25.069],[92.328,25.048],[92.356,25.037],[92.381,25.023],[92.385,25.005],[92.387,24.995],[92.395,24.993],[92.412,24.988],[92.412,24.987],[92.412,24.984],[92.444,24.962],[92.445,24.962],[92.454,24.958],[92.458,24.954],[92.458,24.953],[92.45,24.947],[92.45,24.946],[92.474,24.937],[92.484,24.928],[92.491,24.912],[92.495,24.895],[92.492,24.884],[92.478,24.864],[92.442,24.855],[92.381,24.837],[92.371,24.838],[92.364,24.841],[92.359,24.846],[92.358,24.854],[92.29,24.891],[92.252,24.903],[92.223,24.891],[92.218,24.875],[92.222,24.857],[92.235,24.825],[92.237,24.809],[92.236,24.793],[92.234,24.778],[92.183,24.647],[92.173,24.608],[92.169,24.574],[92.164,24.559],[92.153,24.545],[92.15,24.542]]]}}]}
