{"type":"FeatureCollection","features":[{"type":"Feature","id":"BE-BRU","properties":{"id":"BE-BRU","countryCode":"BE","isoSubdivision":"BE-BRU","name":"Brussels Capital","name_en":"Brussels Capital","name_ko":"브뤼셀","type":"Capital Region","labelLongitude":4.363,"labelLatitude":50.833,"minZoom":8.7},"geometry":{"type":"Polygon","coordinates":[[[4.48,50.795],[4.398,50.768],[4.377,50.765],[4.355,50.767],[4.328,50.779],[4.301,50.814],[4.283,50.808],[4.246,50.822],[4.257,50.837],[4.283,50.84],[4.289,50.856],[4.279,50.868],[4.298,50.891],[4.335,50.903],[4.377,50.899],[4.403,50.915],[4.42,50.906],[4.436,50.889],[4.436,50.88],[4.42,50.869],[4.46,50.853],[4.476,50.822],[4.455,50.82],[4.446,50.811],[4.48,50.795]]]}},{"type":"Feature","id":"BE-VAN","properties":{"id":"BE-VAN","countryCode":"BE","isoSubdivision":"BE-VAN","name":"Antwerp","name_en":"Antwerp","name_ko":"안트베르펜","type":"Province","labelLongitude":4.721,"labelLatitude":51.249,"minZoom":8.7},"geometry":{"type":"Polygon","coordinates":[[[4.764,51.496],[4.779,51.495],[4.797,51.491],[4.814,51.484],[4.824,51.476],[4.826,51.461],[4.82,51.446],[4.815,51.431],[4.823,51.414],[4.779,51.426],[4.768,51.425],[4.762,51.413],[4.783,51.408],[4.853,51.406],[4.872,51.403],[4.91,51.392],[4.932,51.396],[4.957,51.411],[4.98,51.431],[4.996,51.447],[5.003,51.459],[5.006,51.468],[5.012,51.474],[5.028,51.477],[5.03,51.474],[5.06,51.462],[5.08,51.439],[5.076,51.422],[5.065,51.406],[5.062,51.384],[5.068,51.375],[5.103,51.351],[5.108,51.342],[5.118,51.32],[5.123,51.313],[5.14,51.307],[5.179,51.31],[5.197,51.308],[5.215,51.294],[5.215,51.259],[5.233,51.256],[5.239,51.257],[5.227,51.251],[5.217,51.212],[5.257,51.188],[5.26,51.148],[5.235,51.134],[5.203,51.14],[5.18,51.119],[5.13,51.118],[5.09,51.085],[5.01,51.075],[5.01,51.061],[4.981,51.036],[4.967,51.046],[4.948,51.046],[4.91,51.036],[4.883,51.021],[4.871,51.025],[4.819,51.011],[4.806,51.017],[4.789,51.04],[4.756,51.024],[4.734,51.027],[4.695,51],[4.706,51.016],[4.679,51.025],[4.606,51.012],[4.593,50.992],[4.578,50.992],[4.546,51.004],[4.528,50.993],[4.494,51.01],[4.476,50.992],[4.454,51.007],[4.393,50.997],[4.388,51.012],[4.37,51.016],[4.379,51.031],[4.348,51.018],[4.341,51.02],[4.348,51.027],[4.299,51.041],[4.275,51.044],[4.24,51.038],[4.232,51.044],[4.212,51.034],[4.201,51.037],[4.189,51.044],[4.191,51.045],[4.196,51.055],[4.193,51.066],[4.188,51.077],[4.185,51.087],[4.183,51.096],[4.182,51.1],[4.185,51.104],[4.198,51.114],[4.216,51.122],[4.236,51.124],[4.276,51.124],[4.316,51.132],[4.329,51.148],[4.333,51.17],[4.331,51.177],[4.325,51.189],[4.301,51.211],[4.31,51.215],[4.289,51.258],[4.295,51.268],[4.299,51.27],[4.297,51.268],[4.308,51.271],[4.316,51.277],[4.331,51.296],[4.297,51.305],[4.289,51.309],[4.285,51.318],[4.286,51.34],[4.283,51.35],[4.276,51.358],[4.261,51.369],[4.281,51.369],[4.29,51.369],[4.326,51.356],[4.346,51.352],[4.392,51.35],[4.411,51.357],[4.416,51.374],[4.41,51.384],[4.388,51.401],[4.38,51.41],[4.381,51.42],[4.387,51.427],[4.389,51.435],[4.377,51.443],[4.429,51.462],[4.483,51.474],[4.513,51.477],[4.525,51.476],[4.533,51.468],[4.532,51.451],[4.523,51.438],[4.522,51.429],[4.541,51.42],[4.554,51.419],[4.583,51.423],[4.615,51.418],[4.63,51.418],[4.644,51.421],[4.654,51.426],[4.731,51.486],[4.764,51.496]]]}},{"type":"Feature","id":"BE-VBR","properties":{"id":"BE-VBR","countryCode":"BE","isoSubdivision":"BE-VBR","name":"Flemish Brabant","name_en":"Flemish Brabant","name_ko":"플람스브라반트","type":"Province","labelLongitude":4.537,"labelLatitude":50.871,"minZoom":8.7},"geometry":{"type":"Polygon","coordinates":[[[4.1,50.707],[4.073,50.713],[4.059,50.696],[4.051,50.703],[4.028,50.695],[4.009,50.699],[3.989,50.689],[3.928,50.69],[3.907,50.695],[3.893,50.706],[3.888,50.718],[3.895,50.734],[3.918,50.729],[3.951,50.734],[3.952,50.739],[3.931,50.758],[3.944,50.775],[3.956,50.78],[3.982,50.767],[3.999,50.78],[4.013,50.772],[4.03,50.776],[4.06,50.793],[4.075,50.821],[4.066,50.835],[4.04,50.838],[4.087,50.881],[4.088,50.892],[4.074,50.9],[4.1,50.913],[4.091,50.932],[4.137,50.92],[4.16,50.93],[4.161,50.943],[4.146,50.971],[4.162,50.991],[4.194,50.984],[4.217,50.99],[4.24,51.038],[4.275,51.044],[4.299,51.041],[4.348,51.027],[4.341,51.02],[4.348,51.018],[4.379,51.031],[4.37,51.016],[4.388,51.012],[4.393,50.997],[4.454,51.007],[4.476,50.992],[4.494,51.01],[4.528,50.993],[4.546,51.004],[4.578,50.992],[4.593,50.992],[4.606,51.012],[4.679,51.025],[4.706,51.016],[4.695,51],[4.734,51.027],[4.756,51.024],[4.789,51.04],[4.806,51.017],[4.819,51.011],[4.871,51.025],[4.883,51.021],[4.91,51.036],[4.948,51.046],[4.967,51.046],[4.981,51.036],[5.006,51.04],[5.022,51.021],[5.043,51.026],[5.063,51.017],[5.081,51.024],[5.081,51.05],[5.109,51.052],[5.131,51.045],[5.158,51.024],[5.133,51.017],[5.128,51.025],[5.118,51.023],[5.124,51],[5.083,50.988],[5.082,50.966],[5.041,50.943],[5.055,50.921],[5.061,50.918],[5.078,50.923],[5.095,50.911],[5.133,50.923],[5.137,50.915],[5.172,50.914],[5.186,50.906],[5.177,50.879],[5.173,50.875],[5.153,50.88],[5.137,50.85],[5.129,50.817],[5.152,50.812],[5.106,50.782],[5.115,50.764],[5.101,50.743],[5.12,50.736],[5.101,50.71],[5.075,50.707],[5.06,50.712],[5.043,50.725],[5.044,50.743],[5.019,50.752],[4.981,50.771],[4.932,50.746],[4.917,50.745],[4.905,50.752],[4.908,50.77],[4.833,50.765],[4.837,50.775],[4.813,50.777],[4.792,50.799],[4.75,50.809],[4.723,50.803],[4.714,50.79],[4.71,50.797],[4.693,50.791],[4.64,50.8],[4.636,50.774],[4.655,50.758],[4.635,50.744],[4.602,50.743],[4.597,50.765],[4.573,50.748],[4.529,50.742],[4.527,50.729],[4.495,50.741],[4.49,50.746],[4.495,50.758],[4.48,50.759],[4.458,50.755],[4.422,50.737],[4.374,50.732],[4.368,50.717],[4.349,50.718],[4.33,50.734],[4.323,50.729],[4.333,50.719],[4.311,50.719],[4.309,50.704],[4.302,50.698],[4.287,50.695],[4.26,50.701],[4.24,50.692],[4.207,50.709],[4.18,50.709],[4.159,50.728],[4.149,50.73],[4.139,50.728],[4.132,50.717],[4.107,50.717],[4.1,50.707]],[[4.48,50.795],[4.446,50.811],[4.455,50.82],[4.476,50.822],[4.46,50.853],[4.42,50.869],[4.436,50.88],[4.436,50.889],[4.42,50.906],[4.403,50.915],[4.377,50.899],[4.335,50.903],[4.298,50.891],[4.279,50.868],[4.289,50.856],[4.283,50.84],[4.257,50.837],[4.246,50.822],[4.283,50.808],[4.301,50.814],[4.328,50.779],[4.355,50.767],[4.377,50.765],[4.398,50.768],[4.48,50.795]]]}},{"type":"Feature","id":"BE-VLI","properties":{"id":"BE-VLI","countryCode":"BE","isoSubdivision":"BE-VLI","name":"Limburg","name_en":"Limburg","name_ko":"림뷔르흐","type":"Province","labelLongitude":5.413,"labelLatitude":50.995,"minZoom":8.7},"geometry":{"type":"MultiPolygon","coordinates":[[[[5.551,51.217],[5.568,51.208],[5.625,51.197],[5.639,51.191],[5.648,51.184],[5.659,51.179],[5.676,51.179],[5.718,51.185],[5.731,51.184],[5.747,51.178],[5.768,51.159],[5.781,51.152],[5.812,51.157],[5.829,51.156],[5.838,51.144],[5.841,51.139],[5.826,51.13],[5.823,51.119],[5.846,51.103],[5.837,51.099],[5.827,51.097],[5.816,51.096],[5.805,51.097],[5.807,51.089],[5.809,51.086],[5.812,51.082],[5.804,51.069],[5.799,51.061],[5.791,51.055],[5.78,51.061],[5.771,51.058],[5.766,51.048],[5.764,51.035],[5.778,51.024],[5.762,50.999],[5.722,50.959],[5.745,50.963],[5.754,50.963],[5.764,50.959],[5.753,50.947],[5.735,50.924],[5.722,50.912],[5.718,50.909],[5.706,50.907],[5.694,50.904],[5.622,50.853],[5.624,50.83],[5.641,50.815],[5.657,50.808],[5.608,50.776],[5.522,50.76],[5.524,50.744],[5.497,50.729],[5.481,50.726],[5.461,50.74],[5.453,50.722],[5.431,50.721],[5.404,50.727],[5.392,50.747],[5.378,50.751],[5.332,50.741],[5.312,50.73],[5.307,50.718],[5.276,50.729],[5.243,50.717],[5.236,50.728],[5.229,50.719],[5.169,50.724],[5.18,50.707],[5.168,50.697],[5.101,50.71],[5.12,50.736],[5.101,50.743],[5.115,50.764],[5.106,50.782],[5.152,50.812],[5.129,50.817],[5.137,50.85],[5.153,50.88],[5.173,50.875],[5.177,50.879],[5.186,50.906],[5.172,50.914],[5.137,50.915],[5.133,50.923],[5.095,50.911],[5.078,50.923],[5.061,50.918],[5.055,50.921],[5.041,50.943],[5.082,50.966],[5.083,50.988],[5.124,51],[5.118,51.023],[5.128,51.025],[5.133,51.017],[5.158,51.024],[5.131,51.045],[5.109,51.052],[5.081,51.05],[5.081,51.024],[5.063,51.017],[5.043,51.026],[5.022,51.021],[5.006,51.04],[4.981,51.036],[5.01,51.061],[5.01,51.075],[5.09,51.085],[5.13,51.118],[5.18,51.119],[5.203,51.14],[5.235,51.134],[5.26,51.148],[5.257,51.188],[5.217,51.212],[5.227,51.251],[5.239,51.257],[5.271,51.262],[5.389,51.259],[5.41,51.264],[5.452,51.282],[5.472,51.288],[5.493,51.287],[5.517,51.277],[5.535,51.262],[5.542,51.243],[5.546,51.22],[5.551,51.217]]],[[[5.752,50.773],[5.762,50.771],[5.783,50.757],[5.793,50.752],[5.88,50.754],[5.891,50.751],[5.91,50.736],[5.887,50.713],[5.878,50.711],[5.854,50.719],[5.818,50.716],[5.776,50.751],[5.75,50.747],[5.735,50.756],[5.733,50.759],[5.744,50.769],[5.752,50.773]]]]}},{"type":"Feature","id":"BE-VOV","properties":{"id":"BE-VOV","countryCode":"BE","isoSubdivision":"BE-VOV","name":"East Flanders","name_en":"East Flanders","name_ko":"오스트플란데런","type":"Province","labelLongitude":3.832,"labelLatitude":50.975,"minZoom":8.7},"geometry":{"type":"Polygon","coordinates":[[[3.399,51.245],[3.422,51.238],[3.454,51.236],[3.501,51.24],[3.504,51.25],[3.502,51.262],[3.503,51.274],[3.514,51.281],[3.529,51.283],[3.545,51.284],[3.585,51.29],[3.61,51.29],[3.635,51.288],[3.757,51.262],[3.776,51.255],[3.781,51.241],[3.78,51.23],[3.781,51.22],[3.796,51.209],[3.809,51.205],[3.927,51.206],[3.949,51.211],[3.995,51.233],[4.119,51.272],[4.169,51.297],[4.208,51.331],[4.214,51.341],[4.221,51.364],[4.221,51.368],[4.222,51.368],[4.241,51.357],[4.249,51.347],[4.256,51.328],[4.273,51.316],[4.291,51.306],[4.303,51.296],[4.307,51.29],[4.308,51.284],[4.305,51.277],[4.299,51.27],[4.295,51.268],[4.289,51.258],[4.31,51.215],[4.301,51.211],[4.325,51.189],[4.331,51.177],[4.333,51.17],[4.329,51.148],[4.316,51.132],[4.276,51.124],[4.236,51.124],[4.216,51.122],[4.198,51.114],[4.185,51.104],[4.182,51.1],[4.183,51.096],[4.185,51.087],[4.188,51.077],[4.193,51.066],[4.196,51.055],[4.191,51.045],[4.189,51.044],[4.201,51.037],[4.212,51.034],[4.232,51.044],[4.24,51.038],[4.217,50.99],[4.194,50.984],[4.162,50.991],[4.146,50.971],[4.161,50.943],[4.16,50.93],[4.137,50.92],[4.091,50.932],[4.1,50.913],[4.074,50.9],[4.088,50.892],[4.087,50.881],[4.04,50.838],[4.066,50.835],[4.075,50.821],[4.06,50.793],[4.03,50.776],[4.013,50.772],[3.999,50.78],[3.982,50.767],[3.956,50.78],[3.944,50.775],[3.931,50.758],[3.952,50.739],[3.951,50.734],[3.918,50.729],[3.895,50.734],[3.884,50.751],[3.828,50.744],[3.815,50.752],[3.775,50.749],[3.758,50.78],[3.715,50.769],[3.704,50.782],[3.675,50.772],[3.635,50.722],[3.607,50.734],[3.541,50.735],[3.534,50.766],[3.494,50.759],[3.458,50.769],[3.52,50.798],[3.523,50.805],[3.499,50.825],[3.512,50.836],[3.45,50.869],[3.474,50.885],[3.466,50.903],[3.45,50.907],[3.427,50.898],[3.419,50.912],[3.433,50.921],[3.425,50.932],[3.448,50.93],[3.455,50.934],[3.44,50.944],[3.46,50.944],[3.412,50.959],[3.443,50.968],[3.426,50.982],[3.452,51.007],[3.422,51.039],[3.444,51.049],[3.331,51.1],[3.374,51.118],[3.41,51.161],[3.387,51.187],[3.36,51.193],[3.384,51.204],[3.367,51.23],[3.4,51.243],[3.399,51.245]]]}},{"type":"Feature","id":"BE-VWV","properties":{"id":"BE-VWV","countryCode":"BE","isoSubdivision":"BE-VWV","name":"West Flanders","name_en":"West Flanders","name_ko":"베스트플란데런","type":"Province","labelLongitude":3.022,"labelLatitude":51.031,"minZoom":8.7},"geometry":{"type":"Polygon","coordinates":[[[2.651,50.812],[2.642,50.812],[2.628,50.814],[2.62,50.816],[2.615,50.822],[2.607,50.835],[2.602,50.838],[2.59,50.842],[2.587,50.845],[2.588,50.85],[2.596,50.861],[2.597,50.868],[2.577,50.912],[2.583,50.921],[2.606,50.935],[2.612,50.941],[2.608,50.961],[2.593,50.976],[2.557,51.001],[2.547,51.02],[2.537,51.065],[2.522,51.088],[2.542,51.097],[2.58,51.105],[2.716,51.17],[2.924,51.246],[3.125,51.33],[3.349,51.375],[3.358,51.337],[3.354,51.312],[3.353,51.289],[3.367,51.263],[3.392,51.247],[3.399,51.245],[3.4,51.243],[3.367,51.23],[3.384,51.204],[3.36,51.193],[3.387,51.187],[3.41,51.161],[3.374,51.118],[3.331,51.1],[3.444,51.049],[3.422,51.039],[3.452,51.007],[3.426,50.982],[3.443,50.968],[3.412,50.959],[3.46,50.944],[3.44,50.944],[3.455,50.934],[3.448,50.93],[3.425,50.932],[3.433,50.921],[3.419,50.912],[3.427,50.898],[3.45,50.907],[3.466,50.903],[3.474,50.885],[3.45,50.869],[3.512,50.836],[3.499,50.825],[3.523,50.805],[3.52,50.798],[3.458,50.769],[3.413,50.747],[3.367,50.717],[3.363,50.71],[3.354,50.712],[3.348,50.712],[3.323,50.723],[3.325,50.737],[3.303,50.756],[3.261,50.752],[3.22,50.767],[3.175,50.753],[3.163,50.75],[3.146,50.769],[3.129,50.779],[3.103,50.784],[3.024,50.768],[3.023,50.772],[3.014,50.805],[2.999,50.812],[2.941,50.797],[2.94,50.792],[2.96,50.777],[2.922,50.767],[2.918,50.758],[2.89,50.754],[2.875,50.762],[2.869,50.761],[2.842,50.751],[2.863,50.71],[2.867,50.7],[2.787,50.723],[2.768,50.733],[2.763,50.739],[2.75,50.76],[2.744,50.766],[2.707,50.789],[2.7,50.796],[2.697,50.803],[2.692,50.809],[2.679,50.813],[2.669,50.814],[2.651,50.812]]]}},{"type":"Feature","id":"BE-WBR","properties":{"id":"BE-WBR","countryCode":"BE","isoSubdivision":"BE-WBR","name":"Walloon Brabant","name_en":"Walloon Brabant","name_ko":"브라방왈롱","type":"Province","labelLongitude":4.555,"labelLatitude":50.642,"minZoom":8.7},"geometry":{"type":"Polygon","coordinates":[[[4.1,50.707],[4.107,50.717],[4.132,50.717],[4.139,50.728],[4.149,50.73],[4.159,50.728],[4.18,50.709],[4.207,50.709],[4.24,50.692],[4.26,50.701],[4.287,50.695],[4.302,50.698],[4.309,50.704],[4.311,50.719],[4.333,50.719],[4.323,50.729],[4.33,50.734],[4.349,50.718],[4.368,50.717],[4.374,50.732],[4.422,50.737],[4.458,50.755],[4.48,50.759],[4.495,50.758],[4.49,50.746],[4.495,50.741],[4.527,50.729],[4.529,50.742],[4.573,50.748],[4.597,50.765],[4.602,50.743],[4.635,50.744],[4.655,50.758],[4.636,50.774],[4.64,50.8],[4.693,50.791],[4.71,50.797],[4.714,50.79],[4.723,50.803],[4.75,50.809],[4.792,50.799],[4.813,50.777],[4.837,50.775],[4.833,50.765],[4.908,50.77],[4.905,50.752],[4.917,50.745],[4.932,50.746],[4.981,50.771],[5.019,50.752],[5.016,50.733],[4.992,50.725],[5.017,50.703],[5.001,50.696],[5.002,50.666],[4.983,50.643],[4.951,50.648],[4.928,50.628],[4.901,50.63],[4.9,50.624],[4.793,50.606],[4.788,50.603],[4.792,50.591],[4.781,50.602],[4.74,50.592],[4.734,50.612],[4.708,50.607],[4.704,50.596],[4.676,50.609],[4.666,50.608],[4.655,50.597],[4.667,50.565],[4.644,50.562],[4.608,50.57],[4.59,50.569],[4.573,50.56],[4.577,50.543],[4.517,50.527],[4.502,50.531],[4.503,50.541],[4.47,50.53],[4.473,50.554],[4.468,50.56],[4.423,50.559],[4.413,50.566],[4.356,50.562],[4.331,50.545],[4.334,50.57],[4.304,50.568],[4.279,50.593],[4.246,50.597],[4.252,50.618],[4.199,50.627],[4.204,50.648],[4.184,50.664],[4.173,50.661],[4.142,50.634],[4.119,50.631],[4.101,50.636],[4.091,50.654],[4.09,50.691],[4.094,50.703],[4.112,50.707],[4.1,50.707]]]}},{"type":"Feature","id":"BE-WHT","properties":{"id":"BE-WHT","countryCode":"BE","isoSubdivision":"BE-WHT","name":"Hainaut","name_en":"Hainaut","name_ko":"에노","type":"Province","labelLongitude":3.889,"labelLatitude":50.521,"minZoom":8.7},"geometry":{"type":"MultiPolygon","coordinates":[[[[2.887,50.697],[2.871,50.699],[2.867,50.7],[2.863,50.71],[2.842,50.751],[2.869,50.761],[2.875,50.762],[2.89,50.754],[2.918,50.758],[2.922,50.767],[2.96,50.777],[2.94,50.792],[2.941,50.797],[2.999,50.812],[3.014,50.805],[3.023,50.772],[3.024,50.768],[2.971,50.758],[2.948,50.749],[2.93,50.736],[2.9,50.703],[2.887,50.697]]],[[[3.361,50.49],[3.344,50.493],[3.3,50.507],[3.287,50.514],[3.271,50.527],[3.266,50.538],[3.264,50.57],[3.238,50.626],[3.23,50.655],[3.244,50.672],[3.232,50.696],[3.224,50.705],[3.211,50.708],[3.197,50.709],[3.189,50.715],[3.177,50.734],[3.163,50.75],[3.175,50.753],[3.22,50.767],[3.261,50.752],[3.303,50.756],[3.325,50.737],[3.323,50.723],[3.348,50.712],[3.354,50.712],[3.363,50.71],[3.367,50.717],[3.413,50.747],[3.458,50.769],[3.494,50.759],[3.534,50.766],[3.541,50.735],[3.607,50.734],[3.635,50.722],[3.675,50.772],[3.704,50.782],[3.715,50.769],[3.758,50.78],[3.775,50.749],[3.815,50.752],[3.828,50.744],[3.884,50.751],[3.895,50.734],[3.888,50.718],[3.893,50.706],[3.907,50.695],[3.928,50.69],[3.989,50.689],[4.009,50.699],[4.028,50.695],[4.051,50.703],[4.059,50.696],[4.073,50.713],[4.1,50.707],[4.112,50.707],[4.094,50.703],[4.09,50.691],[4.091,50.654],[4.101,50.636],[4.119,50.631],[4.142,50.634],[4.173,50.661],[4.184,50.664],[4.204,50.648],[4.199,50.627],[4.252,50.618],[4.246,50.597],[4.279,50.593],[4.304,50.568],[4.334,50.57],[4.331,50.545],[4.356,50.562],[4.413,50.566],[4.423,50.559],[4.468,50.56],[4.473,50.554],[4.47,50.53],[4.503,50.541],[4.502,50.531],[4.517,50.527],[4.577,50.543],[4.559,50.494],[4.595,50.5],[4.587,50.491],[4.599,50.48],[4.586,50.456],[4.572,50.455],[4.582,50.448],[4.573,50.442],[4.616,50.425],[4.601,50.404],[4.585,50.401],[4.606,50.386],[4.582,50.36],[4.588,50.322],[4.52,50.315],[4.502,50.33],[4.474,50.329],[4.454,50.306],[4.398,50.311],[4.39,50.293],[4.372,50.293],[4.359,50.278],[4.326,50.277],[4.286,50.258],[4.302,50.244],[4.339,50.23],[4.347,50.23],[4.365,50.244],[4.386,50.241],[4.401,50.234],[4.388,50.202],[4.397,50.187],[4.36,50.169],[4.398,50.126],[4.385,50.109],[4.386,50.069],[4.391,50.053],[4.407,50.049],[4.415,49.997],[4.444,49.959],[4.431,49.938],[4.428,49.934],[4.278,49.96],[4.216,49.954],[4.201,49.953],[4.188,49.956],[4.132,49.975],[4.14,49.975],[4.138,49.989],[4.133,50.004],[4.128,50.006],[4.132,50.018],[4.137,50.025],[4.145,50.031],[4.163,50.042],[4.186,50.052],[4.21,50.06],[4.21,50.067],[4.203,50.075],[4.197,50.084],[4.181,50.127],[4.171,50.13],[4.16,50.129],[4.14,50.124],[4.126,50.128],[4.128,50.146],[4.147,50.186],[4.153,50.205],[4.157,50.213],[4.168,50.222],[4.192,50.234],[4.201,50.242],[4.204,50.252],[4.198,50.258],[4.185,50.265],[4.172,50.271],[4.163,50.273],[4.15,50.27],[4.15,50.263],[4.151,50.256],[4.144,50.252],[4.125,50.257],[4.098,50.295],[4.077,50.307],[4.056,50.315],[4.023,50.338],[4.003,50.344],[3.982,50.343],[3.919,50.325],[3.896,50.325],[3.878,50.331],[3.861,50.338],[3.84,50.345],[3.799,50.348],[3.755,50.346],[3.742,50.343],[3.733,50.337],[3.715,50.318],[3.711,50.309],[3.708,50.306],[3.704,50.304],[3.702,50.305],[3.701,50.305],[3.697,50.298],[3.662,50.319],[3.653,50.36],[3.653,50.407],[3.644,50.446],[3.628,50.464],[3.608,50.477],[3.586,50.483],[3.564,50.487],[3.499,50.487],[3.487,50.493],[3.496,50.504],[3.498,50.512],[3.491,50.517],[3.477,50.52],[3.463,50.519],[3.453,50.515],[3.443,50.508],[3.429,50.502],[3.385,50.492],[3.361,50.49]]]]}},{"type":"Feature","id":"BE-WLG","properties":{"id":"BE-WLG","countryCode":"BE","isoSubdivision":"BE-WLG","name":"Liège","name_en":"Liège","name_ko":"리에주","type":"Province","labelLongitude":5.677,"labelLatitude":50.579,"minZoom":8.7},"geometry":{"type":"Polygon","coordinates":[[[6.039,50.148],[6.027,50.149],[6.023,50.151],[6.025,50.182],[6.024,50.184],[6.02,50.195],[6.034,50.205],[6.012,50.208],[6.007,50.219],[6.013,50.312],[5.981,50.322],[5.979,50.331],[5.858,50.348],[5.849,50.33],[5.868,50.319],[5.845,50.285],[5.88,50.281],[5.874,50.272],[5.81,50.266],[5.804,50.256],[5.797,50.266],[5.781,50.269],[5.721,50.263],[5.748,50.3],[5.721,50.304],[5.704,50.322],[5.703,50.333],[5.721,50.358],[5.67,50.358],[5.675,50.37],[5.642,50.368],[5.588,50.401],[5.554,50.39],[5.537,50.392],[5.532,50.395],[5.535,50.404],[5.518,50.406],[5.509,50.426],[5.468,50.409],[5.425,50.431],[5.412,50.43],[5.406,50.423],[5.426,50.401],[5.392,50.38],[5.35,50.39],[5.295,50.366],[5.281,50.378],[5.282,50.397],[5.233,50.406],[5.22,50.418],[5.236,50.438],[5.218,50.465],[5.196,50.479],[5.162,50.47],[5.151,50.482],[5.156,50.491],[5.136,50.489],[5.129,50.505],[5.143,50.513],[5.119,50.506],[5.105,50.507],[5.09,50.531],[5.035,50.533],[5.053,50.542],[5.028,50.59],[4.979,50.619],[4.983,50.643],[5.002,50.666],[5.001,50.696],[5.017,50.703],[4.992,50.725],[5.016,50.733],[5.019,50.752],[5.044,50.743],[5.043,50.725],[5.06,50.712],[5.075,50.707],[5.101,50.71],[5.168,50.697],[5.18,50.707],[5.169,50.724],[5.229,50.719],[5.236,50.728],[5.243,50.717],[5.276,50.729],[5.307,50.718],[5.312,50.73],[5.332,50.741],[5.378,50.751],[5.392,50.747],[5.404,50.727],[5.431,50.721],[5.453,50.722],[5.461,50.74],[5.481,50.726],[5.497,50.729],[5.524,50.744],[5.522,50.76],[5.608,50.776],[5.657,50.808],[5.663,50.805],[5.685,50.799],[5.7,50.796],[5.699,50.784],[5.688,50.761],[5.707,50.754],[5.717,50.753],[5.728,50.754],[5.733,50.759],[5.735,50.756],[5.75,50.747],[5.776,50.751],[5.818,50.716],[5.854,50.719],[5.878,50.711],[5.887,50.713],[5.91,50.736],[5.891,50.751],[5.902,50.749],[5.975,50.748],[5.995,50.75],[5.993,50.748],[5.993,50.746],[5.993,50.744],[5.994,50.743],[6.011,50.737],[6.011,50.727],[6.008,50.717],[6.012,50.709],[6.025,50.708],[6.064,50.714],[6.081,50.713],[6.1,50.701],[6.161,50.642],[6.148,50.637],[6.159,50.622],[6.18,50.616],[6.249,50.614],[6.251,50.608],[6.244,50.6],[6.233,50.591],[6.233,50.587],[6.211,50.579],[6.179,50.562],[6.161,50.544],[6.177,50.53],[6.169,50.522],[6.171,50.518],[6.179,50.516],[6.191,50.515],[6.183,50.507],[6.191,50.502],[6.199,50.49],[6.207,50.486],[6.217,50.486],[6.251,50.493],[6.253,50.494],[6.256,50.495],[6.258,50.494],[6.26,50.493],[6.275,50.488],[6.319,50.482],[6.337,50.481],[6.326,50.474],[6.323,50.466],[6.326,50.457],[6.332,50.447],[6.34,50.438],[6.347,50.437],[6.351,50.434],[6.35,50.417],[6.343,50.393],[6.336,50.38],[6.338,50.368],[6.372,50.329],[6.373,50.323],[6.375,50.315],[6.362,50.307],[6.335,50.304],[6.322,50.305],[6.311,50.308],[6.299,50.309],[6.286,50.304],[6.276,50.296],[6.269,50.286],[6.267,50.276],[6.272,50.267],[6.253,50.257],[6.21,50.249],[6.19,50.243],[6.18,50.233],[6.157,50.223],[6.147,50.214],[6.16,50.205],[6.166,50.193],[6.165,50.182],[6.159,50.172],[6.152,50.169],[6.132,50.168],[6.123,50.165],[6.121,50.162],[6.118,50.15],[6.116,50.145],[6.126,50.14],[6.129,50.134],[6.127,50.127],[6.117,50.12],[6.103,50.125],[6.1,50.133],[6.101,50.142],[6.097,50.151],[6.084,50.159],[6.076,50.159],[6.07,50.154],[6.061,50.151],[6.039,50.148]]]}},{"type":"Feature","id":"BE-WLX","properties":{"id":"BE-WLX","countryCode":"BE","isoSubdivision":"BE-WLX","name":"Luxembourg","name_en":"Luxembourg","name_ko":"룩셈부르크 구","type":"Province","labelLongitude":5.501,"labelLatitude":49.964,"minZoom":8.7},"geometry":{"type":"Polygon","coordinates":[[[5.192,49.683],[5.169,49.687],[5.151,49.696],[5.136,49.705],[5.094,49.745],[5.082,49.753],[5.046,49.759],[5.026,49.767],[4.989,49.791],[4.971,49.797],[4.968,49.797],[4.969,49.797],[4.972,49.804],[4.976,49.821],[4.989,49.823],[4.981,49.843],[4.985,49.851],[5.06,49.886],[5.043,49.897],[5.069,49.912],[5.119,49.925],[5.097,49.939],[5.101,49.962],[5.072,49.971],[5.063,49.985],[5.02,49.979],[5.009,49.983],[4.997,50.015],[4.972,50.031],[4.991,50.03],[4.998,50.046],[5.007,50.04],[5.017,50.042],[5.05,50.064],[5.06,50.081],[5.052,50.086],[5.066,50.125],[5.072,50.097],[5.093,50.092],[5.187,50.096],[5.208,50.099],[5.235,50.111],[5.262,50.11],[5.267,50.12],[5.242,50.136],[5.27,50.141],[5.28,50.159],[5.244,50.186],[5.246,50.196],[5.234,50.196],[5.244,50.206],[5.206,50.22],[5.224,50.228],[5.253,50.227],[5.251,50.239],[5.273,50.249],[5.284,50.249],[5.294,50.24],[5.365,50.27],[5.393,50.288],[5.394,50.303],[5.383,50.319],[5.36,50.318],[5.348,50.307],[5.34,50.312],[5.394,50.338],[5.38,50.35],[5.401,50.368],[5.392,50.38],[5.426,50.401],[5.406,50.423],[5.412,50.43],[5.425,50.431],[5.468,50.409],[5.509,50.426],[5.518,50.406],[5.535,50.404],[5.532,50.395],[5.537,50.392],[5.554,50.39],[5.588,50.401],[5.642,50.368],[5.675,50.37],[5.67,50.358],[5.721,50.358],[5.703,50.333],[5.704,50.322],[5.721,50.304],[5.748,50.3],[5.721,50.263],[5.781,50.269],[5.797,50.266],[5.804,50.256],[5.81,50.266],[5.874,50.272],[5.88,50.281],[5.845,50.285],[5.868,50.319],[5.849,50.33],[5.858,50.348],[5.979,50.331],[5.981,50.322],[6.013,50.312],[6.007,50.219],[6.012,50.208],[6.034,50.205],[6.02,50.195],[6.024,50.184],[6.025,50.182],[6.023,50.151],[6.014,50.154],[6.008,50.161],[6.005,50.17],[5.998,50.175],[5.983,50.167],[5.962,50.166],[5.953,50.156],[5.949,50.143],[5.941,50.128],[5.926,50.118],[5.889,50.107],[5.872,50.097],[5.869,50.091],[5.867,50.074],[5.864,50.067],[5.858,50.062],[5.844,50.054],[5.838,50.047],[5.839,50.036],[5.839,50.026],[5.836,50.019],[5.829,50.014],[5.809,50.008],[5.803,50.002],[5.802,49.989],[5.809,49.983],[5.813,49.978],[5.802,49.964],[5.793,49.959],[5.779,49.957],[5.772,49.954],[5.764,49.947],[5.76,49.942],[5.758,49.937],[5.754,49.93],[5.719,49.891],[5.715,49.882],[5.727,49.878],[5.749,49.867],[5.758,49.858],[5.732,49.86],[5.732,49.854],[5.731,49.851],[5.729,49.849],[5.727,49.845],[5.737,49.839],[5.725,49.834],[5.72,49.825],[5.722,49.813],[5.728,49.8],[5.738,49.789],[5.748,49.786],[5.759,49.784],[5.772,49.779],[5.778,49.773],[5.802,49.743],[5.804,49.738],[5.806,49.724],[5.805,49.722],[5.812,49.719],[5.826,49.716],[5.832,49.714],[5.837,49.713],[5.844,49.714],[5.85,49.714],[5.856,49.708],[5.856,49.706],[5.857,49.7],[5.854,49.696],[5.849,49.693],[5.847,49.687],[5.847,49.681],[5.844,49.677],[5.842,49.674],[5.846,49.667],[5.853,49.663],[5.873,49.662],[5.88,49.658],[5.885,49.644],[5.88,49.635],[5.87,49.629],[5.862,49.623],[5.849,49.6],[5.841,49.59],[5.83,49.583],[5.847,49.577],[5.837,49.561],[5.814,49.545],[5.791,49.538],[5.779,49.54],[5.757,49.548],[5.746,49.549],[5.736,49.546],[5.723,49.535],[5.71,49.531],[5.689,49.534],[5.667,49.54],[5.645,49.544],[5.62,49.536],[5.608,49.525],[5.606,49.518],[5.602,49.514],[5.587,49.512],[5.579,49.514],[5.548,49.523],[5.529,49.518],[5.504,49.505],[5.478,49.495],[5.456,49.499],[5.45,49.508],[5.451,49.517],[5.454,49.526],[5.454,49.537],[5.45,49.546],[5.402,49.602],[5.391,49.609],[5.383,49.613],[5.352,49.621],[5.341,49.625],[5.335,49.626],[5.331,49.623],[5.327,49.618],[5.322,49.613],[5.315,49.611],[5.298,49.613],[5.293,49.617],[5.291,49.626],[5.294,49.641],[5.302,49.644],[5.306,49.648],[5.299,49.662],[5.28,49.678],[5.259,49.691],[5.238,49.691],[5.192,49.683]]]}},{"type":"Feature","id":"BE-WNA","properties":{"id":"BE-WNA","countryCode":"BE","isoSubdivision":"BE-WNA","name":"Namur","name_en":"Namur","name_ko":"나뮈르","type":"Province","labelLongitude":4.887,"labelLatitude":50.324,"minZoom":8.7},"geometry":{"type":"Polygon","coordinates":[[[4.831,50.143],[4.82,50.146],[4.816,50.161],[4.789,50.153],[4.682,50.084],[4.676,50.076],[4.673,50.066],[4.676,50.06],[4.68,50.055],[4.681,50.048],[4.673,50.016],[4.666,50.001],[4.657,49.989],[4.646,49.984],[4.604,49.98],[4.465,49.936],[4.435,49.932],[4.428,49.934],[4.431,49.938],[4.444,49.959],[4.415,49.997],[4.407,50.049],[4.391,50.053],[4.386,50.069],[4.385,50.109],[4.398,50.126],[4.36,50.169],[4.397,50.187],[4.388,50.202],[4.401,50.234],[4.386,50.241],[4.365,50.244],[4.347,50.23],[4.339,50.23],[4.302,50.244],[4.286,50.258],[4.326,50.277],[4.359,50.278],[4.372,50.293],[4.39,50.293],[4.398,50.311],[4.454,50.306],[4.474,50.329],[4.502,50.33],[4.52,50.315],[4.588,50.322],[4.582,50.36],[4.606,50.386],[4.585,50.401],[4.601,50.404],[4.616,50.425],[4.573,50.442],[4.582,50.448],[4.572,50.455],[4.586,50.456],[4.599,50.48],[4.587,50.491],[4.595,50.5],[4.559,50.494],[4.577,50.543],[4.573,50.56],[4.59,50.569],[4.608,50.57],[4.644,50.562],[4.667,50.565],[4.655,50.597],[4.666,50.608],[4.676,50.609],[4.704,50.596],[4.708,50.607],[4.734,50.612],[4.74,50.592],[4.781,50.602],[4.792,50.591],[4.788,50.603],[4.793,50.606],[4.9,50.624],[4.901,50.63],[4.928,50.628],[4.951,50.648],[4.983,50.643],[4.979,50.619],[5.028,50.59],[5.053,50.542],[5.035,50.533],[5.09,50.531],[5.105,50.507],[5.119,50.506],[5.143,50.513],[5.129,50.505],[5.136,50.489],[5.156,50.491],[5.151,50.482],[5.162,50.47],[5.196,50.479],[5.218,50.465],[5.236,50.438],[5.22,50.418],[5.233,50.406],[5.282,50.397],[5.281,50.378],[5.295,50.366],[5.35,50.39],[5.392,50.38],[5.401,50.368],[5.38,50.35],[5.394,50.338],[5.34,50.312],[5.348,50.307],[5.36,50.318],[5.383,50.319],[5.394,50.303],[5.393,50.288],[5.365,50.27],[5.294,50.24],[5.284,50.249],[5.273,50.249],[5.251,50.239],[5.253,50.227],[5.224,50.228],[5.206,50.22],[5.244,50.206],[5.234,50.196],[5.246,50.196],[5.244,50.186],[5.28,50.159],[5.27,50.141],[5.242,50.136],[5.267,50.12],[5.262,50.11],[5.235,50.111],[5.208,50.099],[5.187,50.096],[5.093,50.092],[5.072,50.097],[5.066,50.125],[5.052,50.086],[5.06,50.081],[5.05,50.064],[5.017,50.042],[5.007,50.04],[4.998,50.046],[4.991,50.03],[4.972,50.031],[4.997,50.015],[5.009,49.983],[5.02,49.979],[5.063,49.985],[5.072,49.971],[5.101,49.962],[5.097,49.939],[5.119,49.925],[5.069,49.912],[5.043,49.897],[5.06,49.886],[4.985,49.851],[4.981,49.843],[4.989,49.823],[4.976,49.821],[4.972,49.804],[4.969,49.797],[4.968,49.797],[4.95,49.796],[4.907,49.786],[4.884,49.784],[4.858,49.787],[4.849,49.794],[4.849,49.832],[4.847,49.838],[4.837,49.848],[4.835,49.853],[4.837,49.859],[4.846,49.866],[4.849,49.871],[4.854,49.883],[4.859,49.892],[4.862,49.9],[4.86,49.913],[4.845,49.932],[4.797,49.944],[4.784,49.958],[4.788,49.974],[4.827,50.036],[4.828,50.047],[4.826,50.055],[4.827,50.064],[4.846,50.091],[4.852,50.092],[4.863,50.084],[4.865,50.102],[4.871,50.122],[4.872,50.14],[4.863,50.148],[4.831,50.143]]]}}]}
