{"type":"FeatureCollection","features":[{"type":"Feature","id":"BH-13","properties":{"id":"BH-13","countryCode":"BH","isoSubdivision":"BH-13","name":"Capital","name_en":"Capital","name_ko":"수도","type":"Governorate","labelLongitude":50.578,"labelLatitude":26.22,"minZoom":11},"geometry":{"type":"Polygon","coordinates":[[[50.504,26.242],[50.516,26.24],[50.532,26.233],[50.545,26.228],[50.546,26.228],[50.587,26.242],[50.593,26.239],[50.597,26.226],[50.605,26.216],[50.607,26.212],[50.609,26.208],[50.604,26.198],[50.594,26.195],[50.566,26.199],[50.552,26.194],[50.535,26.213],[50.502,26.216],[50.504,26.242]]]}},{"type":"Feature","id":"BH-14","properties":{"id":"BH-14","countryCode":"BH","isoSubdivision":"BH-14","name":"Southern","name_en":"Southern","name_ko":"남부","type":"Governorate","labelLongitude":50.562,"labelLatitude":25.969,"minZoom":11},"geometry":{"type":"MultiPolygon","coordinates":[[[[50.616,26.096],[50.621,26.053],[50.618,25.965],[50.604,25.855],[50.594,25.833],[50.565,25.79],[50.559,25.82],[50.547,25.853],[50.531,25.885],[50.511,25.913],[50.468,25.958],[50.46,25.985],[50.48,26.019],[50.485,26.033],[50.491,26.048],[50.515,26.047],[50.539,26.056],[50.531,26.104],[50.524,26.129],[50.569,26.116],[50.581,26.122],[50.616,26.096]]],[[[50.774,25.722],[50.783,25.72],[50.791,25.726],[50.801,25.731],[50.801,25.725],[50.798,25.716],[50.791,25.706],[50.783,25.697],[50.788,25.693],[50.796,25.685],[50.792,25.68],[50.78,25.682],[50.774,25.679],[50.766,25.672],[50.762,25.668],[50.767,25.655],[50.774,25.645],[50.776,25.639],[50.769,25.636],[50.765,25.63],[50.764,25.622],[50.77,25.618],[50.774,25.612],[50.768,25.606],[50.762,25.598],[50.757,25.589],[50.76,25.582],[50.757,25.58],[50.745,25.585],[50.738,25.596],[50.741,25.605],[50.749,25.621],[50.748,25.631],[50.748,25.644],[50.74,25.653],[50.74,25.662],[50.741,25.674],[50.745,25.687],[50.755,25.702],[50.769,25.717],[50.774,25.722]]],[[[50.776,25.753],[50.783,25.756],[50.79,25.755],[50.791,25.749],[50.781,25.745],[50.776,25.753]]],[[[50.805,25.679],[50.82,25.679],[50.817,25.669],[50.808,25.664],[50.804,25.67],[50.802,25.675],[50.805,25.679]]],[[[50.793,25.652],[50.8,25.651],[50.812,25.65],[50.817,25.644],[50.815,25.637],[50.812,25.632],[50.808,25.633],[50.803,25.634],[50.796,25.633],[50.791,25.631],[50.786,25.639],[50.788,25.644],[50.785,25.648],[50.787,25.653],[50.793,25.652]]]]}},{"type":"Feature","id":"BH-15","properties":{"id":"BH-15","countryCode":"BH","isoSubdivision":"BH-15","name":"Muharraq","name_en":"Muharraq","name_ko":"무하라크","type":"Governorate","labelLongitude":50.638,"labelLatitude":26.261,"minZoom":11},"geometry":{"type":"Polygon","coordinates":[[[50.602,26.279],[50.633,26.287],[50.655,26.277],[50.656,26.262],[50.656,26.247],[50.671,26.227],[50.684,26.222],[50.679,26.208],[50.674,26.203],[50.657,26.211],[50.653,26.225],[50.648,26.239],[50.634,26.242],[50.621,26.245],[50.612,26.241],[50.6,26.263],[50.602,26.279]]]}},{"type":"Feature","id":"BH-16","properties":{"id":"BH-16","countryCode":"BH","isoSubdivision":"BH-16","name":"Central","name_en":"Central","name_ko":"중부","type":"Governorate","labelLongitude":50.574,"labelLatitude":26.137,"minZoom":11},"geometry":{"type":"Polygon","coordinates":[[[50.552,26.194],[50.595,26.16],[50.605,26.175],[50.62,26.185],[50.626,26.17],[50.633,26.147],[50.646,26.146],[50.636,26.134],[50.635,26.116],[50.615,26.111],[50.616,26.096],[50.581,26.122],[50.569,26.116],[50.524,26.129],[50.51,26.178],[50.522,26.188],[50.552,26.194]]]}},{"type":"Feature","id":"BH-17","properties":{"id":"BH-17","countryCode":"BH","isoSubdivision":"BH-17","name":"Northern","name_en":"Northern","name_ko":"북부","type":"Governorate","labelLongitude":50.487,"labelLatitude":26.162,"minZoom":11},"geometry":{"type":"MultiPolygon","coordinates":[[[[50.491,26.048],[50.485,26.086],[50.47,26.123],[50.453,26.15],[50.449,26.162],[50.45,26.178],[50.461,26.225],[50.469,26.237],[50.481,26.243],[50.482,26.243],[50.483,26.243],[50.504,26.242],[50.502,26.216],[50.535,26.213],[50.552,26.194],[50.522,26.188],[50.51,26.178],[50.524,26.129],[50.531,26.104],[50.539,26.056],[50.515,26.047],[50.491,26.048]]],[[[50.398,26.175],[50.408,26.172],[50.419,26.166],[50.419,26.149],[50.421,26.135],[50.423,26.12],[50.405,26.124],[50.386,26.123],[50.381,26.139],[50.383,26.16],[50.398,26.175]]]]}}]}
