{"type":"FeatureCollection","features":[{"type":"Feature","id":"BI-BB","properties":{"id":"BI-BB","countryCode":"BI","isoSubdivision":"BI-BB","name":"Bubanza","name_en":"Bubanza","name_ko":"부반자","type":"Province","labelLongitude":29.386,"labelLatitude":-3.104,"minZoom":10},"geometry":{"type":"Polygon","coordinates":[[[29.236,-3.271],[29.241,-3.266],[29.224,-3.253],[29.217,-3.233],[29.214,-3.166],[29.218,-3.146],[29.225,-3.129],[29.238,-3.122],[29.242,-3.111],[29.242,-3.104],[29.287,-3.103],[29.317,-3.072],[29.308,-3.052],[29.295,-3.036],[29.289,-3.021],[29.294,-3.013],[29.357,-2.987],[29.372,-2.951],[29.405,-2.951],[29.414,-2.959],[29.438,-2.942],[29.471,-2.934],[29.495,-2.911],[29.52,-2.945],[29.534,-3.006],[29.544,-3.024],[29.556,-3.057],[29.559,-3.091],[29.548,-3.112],[29.546,-3.135],[29.559,-3.16],[29.556,-3.188],[29.542,-3.211],[29.534,-3.239],[29.54,-3.246],[29.543,-3.254],[29.535,-3.269],[29.523,-3.28],[29.494,-3.26],[29.453,-3.262],[29.434,-3.267],[29.416,-3.261],[29.398,-3.257],[29.379,-3.259],[29.352,-3.265],[29.327,-3.276],[29.294,-3.311],[29.259,-3.299],[29.236,-3.271]]]}},{"type":"Feature","id":"BI-BL","properties":{"id":"BI-BL","countryCode":"BI","isoSubdivision":"BI-BL","name":"Bujumbura Rural","name_en":"Bujumbura Rural","name_ko":"부줌부라 교외","type":"Province","labelLongitude":29.424,"labelLatitude":-3.618,"minZoom":10},"geometry":{"type":"Polygon","coordinates":[[[29.212,-3.407],[29.207,-3.335],[29.209,-3.305],[29.213,-3.292],[29.236,-3.271],[29.259,-3.299],[29.294,-3.311],[29.327,-3.276],[29.352,-3.265],[29.379,-3.259],[29.398,-3.257],[29.416,-3.261],[29.434,-3.267],[29.453,-3.262],[29.494,-3.26],[29.523,-3.28],[29.538,-3.324],[29.537,-3.344],[29.547,-3.362],[29.555,-3.384],[29.565,-3.402],[29.572,-3.395],[29.583,-3.387],[29.593,-3.399],[29.591,-3.417],[29.604,-3.464],[29.592,-3.5],[29.593,-3.524],[29.584,-3.546],[29.564,-3.556],[29.546,-3.567],[29.532,-3.593],[29.508,-3.659],[29.502,-3.67],[29.499,-3.681],[29.5,-3.694],[29.499,-3.706],[29.488,-3.717],[29.472,-3.717],[29.45,-3.72],[29.429,-3.727],[29.31,-3.729],[29.242,-3.714],[29.217,-3.709],[29.223,-3.667],[29.225,-3.589],[29.224,-3.571],[29.308,-3.572],[29.344,-3.56],[29.36,-3.546],[29.378,-3.525],[29.383,-3.493],[29.389,-3.453],[29.397,-3.421],[29.406,-3.393],[29.411,-3.37],[29.412,-3.343],[29.408,-3.325],[29.391,-3.31],[29.375,-3.31],[29.352,-3.313],[29.334,-3.327],[29.316,-3.343],[29.267,-3.373],[29.212,-3.407]]]}},{"type":"Feature","id":"BI-BM","properties":{"id":"BI-BM","countryCode":"BI","isoSubdivision":"BI-BM","name":"Bujumbura Mairie","name_en":"Bujumbura Mairie","name_ko":"부줌부라 도시","type":"Province","labelLongitude":29.369,"labelLatitude":-3.399,"minZoom":10},"geometry":{"type":"Polygon","coordinates":[[[29.224,-3.571],[29.212,-3.407],[29.267,-3.373],[29.316,-3.343],[29.334,-3.327],[29.352,-3.313],[29.375,-3.31],[29.391,-3.31],[29.408,-3.325],[29.412,-3.343],[29.411,-3.37],[29.406,-3.393],[29.397,-3.421],[29.389,-3.453],[29.383,-3.493],[29.378,-3.525],[29.36,-3.546],[29.344,-3.56],[29.308,-3.572],[29.224,-3.571]]]}},{"type":"Feature","id":"BI-BR","properties":{"id":"BI-BR","countryCode":"BI","isoSubdivision":"BI-BR","name":"Bururi","name_en":"Bururi","name_ko":"부루리","type":"Province","labelLongitude":29.567,"labelLatitude":-3.852,"minZoom":10},"geometry":{"type":"Polygon","coordinates":[[[29.367,-4.189],[29.339,-4.093],[29.278,-3.989],[29.24,-3.948],[29.225,-3.927],[29.215,-3.9],[29.207,-3.782],[29.217,-3.709],[29.242,-3.714],[29.31,-3.729],[29.429,-3.727],[29.45,-3.72],[29.472,-3.717],[29.488,-3.717],[29.499,-3.706],[29.5,-3.694],[29.499,-3.681],[29.502,-3.67],[29.508,-3.659],[29.532,-3.593],[29.546,-3.567],[29.564,-3.556],[29.584,-3.546],[29.6,-3.576],[29.643,-3.63],[29.669,-3.646],[29.676,-3.674],[29.675,-3.716],[29.702,-3.682],[29.706,-3.668],[29.717,-3.654],[29.726,-3.64],[29.755,-3.643],[29.782,-3.65],[29.783,-3.672],[29.778,-3.695],[29.766,-3.77],[29.767,-3.781],[29.762,-3.791],[29.756,-3.801],[29.773,-3.819],[29.8,-3.803],[29.82,-3.778],[29.833,-3.742],[29.842,-3.727],[29.868,-3.764],[29.854,-3.789],[29.886,-3.802],[29.913,-3.803],[29.928,-3.82],[29.908,-3.837],[29.91,-3.857],[29.921,-3.872],[29.928,-3.894],[29.895,-3.935],[29.899,-3.96],[29.893,-3.983],[29.89,-4.03],[29.882,-4.059],[29.868,-4.07],[29.851,-4.078],[29.836,-4.07],[29.83,-4.046],[29.83,-4.007],[29.818,-3.975],[29.819,-3.957],[29.817,-3.943],[29.803,-3.95],[29.799,-3.973],[29.781,-4.02],[29.744,-4.053],[29.707,-4.064],[29.675,-4.085],[29.64,-4.124],[29.592,-4.146],[29.566,-4.149],[29.532,-4.178],[29.38,-4.188],[29.367,-4.189]]]}},{"type":"Feature","id":"BI-CA","properties":{"id":"BI-CA","countryCode":"BI","isoSubdivision":"BI-CA","name":"Cankuzo","name_en":"Cankuzo","name_ko":"캉쿠조","type":"Province","labelLongitude":30.561,"labelLatitude":-3.111,"minZoom":10},"geometry":{"type":"Polygon","coordinates":[[[30.488,-2.943],[30.488,-2.944],[30.493,-2.941],[30.513,-2.914],[30.525,-2.904],[30.539,-2.899],[30.547,-2.9],[30.612,-2.939],[30.625,-2.945],[30.63,-2.948],[30.632,-2.954],[30.635,-2.97],[30.638,-2.974],[30.651,-2.977],[30.661,-2.975],[30.671,-2.971],[30.684,-2.97],[30.696,-2.975],[30.719,-2.99],[30.732,-2.993],[30.755,-2.991],[30.802,-2.978],[30.825,-2.979],[30.819,-2.99],[30.816,-2.996],[30.785,-3.031],[30.778,-3.047],[30.783,-3.062],[30.808,-3.085],[30.818,-3.099],[30.818,-3.104],[30.813,-3.118],[30.812,-3.123],[30.816,-3.131],[30.829,-3.141],[30.833,-3.148],[30.834,-3.16],[30.832,-3.173],[30.824,-3.197],[30.809,-3.217],[30.81,-3.224],[30.814,-3.242],[30.815,-3.248],[30.8,-3.275],[30.776,-3.291],[30.748,-3.294],[30.721,-3.281],[30.718,-3.293],[30.712,-3.302],[30.702,-3.307],[30.69,-3.309],[30.663,-3.319],[30.641,-3.333],[30.622,-3.35],[30.603,-3.373],[30.61,-3.376],[30.592,-3.383],[30.591,-3.361],[30.585,-3.335],[30.577,-3.324],[30.567,-3.315],[30.556,-3.311],[30.547,-3.305],[30.539,-3.298],[30.529,-3.293],[30.517,-3.299],[30.506,-3.306],[30.479,-3.299],[30.456,-3.281],[30.454,-3.268],[30.455,-3.254],[30.449,-3.242],[30.44,-3.231],[30.425,-3.225],[30.409,-3.223],[30.393,-3.217],[30.379,-3.207],[30.367,-3.201],[30.344,-3.205],[30.336,-3.201],[30.327,-3.198],[30.289,-3.185],[30.33,-3.15],[30.338,-3.145],[30.352,-3.141],[30.358,-3.136],[30.37,-3.109],[30.371,-3.108],[30.376,-3.069],[30.384,-3.058],[30.41,-3.051],[30.413,-3.043],[30.412,-3.022],[30.415,-3.011],[30.422,-3.007],[30.429,-3.004],[30.434,-2.988],[30.439,-2.983],[30.447,-2.979],[30.456,-2.978],[30.462,-2.973],[30.477,-2.95],[30.488,-2.943]]]}},{"type":"Feature","id":"BI-CI","properties":{"id":"BI-CI","countryCode":"BI","isoSubdivision":"BI-CI","name":"Cibitoke","name_en":"Cibitoke","name_ko":"치비토케","type":"Province","labelLongitude":29.241,"labelLatitude":-2.867,"minZoom":10},"geometry":{"type":"Polygon","coordinates":[[[29.113,-2.595],[29.13,-2.597],[29.19,-2.623],[29.213,-2.63],[29.255,-2.636],[29.276,-2.641],[29.294,-2.651],[29.307,-2.66],[29.307,-2.665],[29.306,-2.677],[29.309,-2.69],[29.31,-2.691],[29.331,-2.711],[29.338,-2.724],[29.335,-2.735],[29.321,-2.752],[29.318,-2.763],[29.32,-2.774],[29.33,-2.795],[29.331,-2.807],[29.34,-2.826],[29.364,-2.824],[29.407,-2.805],[29.425,-2.803],[29.445,-2.807],[29.463,-2.823],[29.465,-2.851],[29.478,-2.882],[29.495,-2.911],[29.471,-2.934],[29.438,-2.942],[29.414,-2.959],[29.405,-2.951],[29.372,-2.951],[29.357,-2.987],[29.294,-3.013],[29.289,-3.021],[29.295,-3.036],[29.308,-3.052],[29.317,-3.072],[29.287,-3.103],[29.242,-3.104],[29.235,-3.047],[29.225,-3.032],[29.212,-3.021],[29.194,-3.015],[29.176,-3.012],[29.157,-3.005],[29.148,-2.987],[29.144,-2.966],[29.138,-2.95],[29.123,-2.94],[29.105,-2.934],[29.09,-2.926],[29.083,-2.91],[29.082,-2.894],[29.078,-2.884],[29.063,-2.862],[29.054,-2.835],[29.049,-2.827],[29.034,-2.821],[29.013,-2.819],[28.995,-2.814],[28.987,-2.797],[28.989,-2.775],[28.996,-2.758],[29.008,-2.747],[29.029,-2.745],[29.015,-2.721],[29.033,-2.621],[29.055,-2.598],[29.113,-2.595]]]}},{"type":"Feature","id":"BI-GI","properties":{"id":"BI-GI","countryCode":"BI","isoSubdivision":"BI-GI","name":"Gitega","name_en":"Gitega","name_ko":"기테가","type":"Province","labelLongitude":29.916,"labelLatitude":-3.49,"minZoom":10},"geometry":{"type":"Polygon","coordinates":[[[29.878,-3.058],[29.888,-3.06],[29.904,-3.068],[29.908,-3.087],[29.898,-3.128],[29.891,-3.149],[29.891,-3.159],[29.898,-3.17],[29.911,-3.177],[29.918,-3.172],[29.922,-3.162],[29.929,-3.156],[29.952,-3.157],[29.961,-3.16],[29.973,-3.19],[29.985,-3.204],[30.001,-3.216],[30.015,-3.232],[30.021,-3.256],[30.021,-3.269],[30.018,-3.278],[30.013,-3.287],[30.004,-3.297],[29.983,-3.331],[29.98,-3.334],[29.986,-3.355],[30.003,-3.37],[30.021,-3.375],[30.029,-3.365],[30.031,-3.354],[30.038,-3.347],[30.063,-3.387],[30.065,-3.401],[30.074,-3.413],[30.082,-3.425],[30.074,-3.481],[30.074,-3.508],[30.082,-3.52],[30.093,-3.557],[30.104,-3.579],[30.106,-3.608],[30.104,-3.636],[30.099,-3.663],[30.081,-3.686],[30.048,-3.703],[30.015,-3.716],[30.003,-3.735],[30,-3.757],[29.955,-3.803],[29.955,-3.818],[29.952,-3.832],[29.939,-3.831],[29.928,-3.82],[29.913,-3.803],[29.886,-3.802],[29.854,-3.789],[29.868,-3.764],[29.842,-3.727],[29.833,-3.742],[29.82,-3.778],[29.8,-3.803],[29.773,-3.819],[29.756,-3.801],[29.762,-3.791],[29.767,-3.781],[29.766,-3.77],[29.778,-3.695],[29.783,-3.672],[29.782,-3.65],[29.755,-3.643],[29.726,-3.64],[29.762,-3.614],[29.809,-3.62],[29.806,-3.6],[29.798,-3.58],[29.785,-3.56],[29.77,-3.544],[29.825,-3.511],[29.869,-3.476],[29.874,-3.457],[29.874,-3.437],[29.879,-3.42],[29.887,-3.403],[29.873,-3.375],[29.843,-3.356],[29.839,-3.315],[29.797,-3.29],[29.823,-3.255],[29.866,-3.233],[29.849,-3.225],[29.835,-3.214],[29.826,-3.195],[29.815,-3.179],[29.83,-3.174],[29.841,-3.162],[29.833,-3.108],[29.878,-3.058]]]}},{"type":"Feature","id":"BI-KI","properties":{"id":"BI-KI","countryCode":"BI","isoSubdivision":"BI-KI","name":"Kirundo","name_en":"Kirundo","name_ko":"키룬도","type":"Province","labelLongitude":30.165,"labelLatitude":-2.564,"minZoom":10},"geometry":{"type":"Polygon","coordinates":[[[30.263,-2.358],[30.279,-2.358],[30.298,-2.354],[30.317,-2.348],[30.331,-2.34],[30.344,-2.328],[30.349,-2.322],[30.371,-2.339],[30.381,-2.377],[30.388,-2.386],[30.394,-2.398],[30.395,-2.412],[30.401,-2.425],[30.416,-2.438],[30.426,-2.457],[30.411,-2.499],[30.419,-2.516],[30.426,-2.536],[30.423,-2.557],[30.416,-2.577],[30.396,-2.588],[30.374,-2.59],[30.363,-2.605],[30.352,-2.618],[30.28,-2.681],[30.274,-2.677],[30.266,-2.675],[30.256,-2.678],[30.234,-2.691],[30.213,-2.706],[30.187,-2.711],[30.164,-2.721],[30.149,-2.739],[30.143,-2.76],[30.118,-2.774],[30.078,-2.781],[30.043,-2.734],[30.022,-2.717],[30.008,-2.691],[29.978,-2.655],[29.93,-2.642],[29.904,-2.638],[29.908,-2.535],[29.93,-2.46],[29.922,-2.383],[29.929,-2.332],[29.929,-2.322],[29.932,-2.317],[29.942,-2.317],[29.95,-2.321],[29.957,-2.327],[29.959,-2.329],[29.976,-2.344],[29.984,-2.345],[29.992,-2.344],[30.002,-2.344],[30.013,-2.348],[30.026,-2.358],[30.057,-2.394],[30.073,-2.409],[30.094,-2.423],[30.117,-2.432],[30.139,-2.431],[30.156,-2.419],[30.201,-2.362],[30.203,-2.355],[30.204,-2.346],[30.207,-2.339],[30.219,-2.34],[30.25,-2.356],[30.263,-2.358]]]}},{"type":"Feature","id":"BI-KR","properties":{"id":"BI-KR","countryCode":"BI","isoSubdivision":"BI-KR","name":"Karuzi","name_en":"Karuzi","name_ko":"카루지","type":"Province","labelLongitude":30.115,"labelLatitude":-3.144,"minZoom":10},"geometry":{"type":"Polygon","coordinates":[[[29.908,-3.087],[29.947,-3.077],[29.956,-3.059],[29.976,-3.048],[29.993,-3.032],[30.015,-2.998],[30.054,-2.981],[30.093,-2.979],[30.158,-2.934],[30.187,-2.898],[30.23,-2.906],[30.271,-2.925],[30.288,-2.96],[30.288,-3],[30.273,-3.042],[30.252,-3.08],[30.247,-3.095],[30.244,-3.109],[30.252,-3.119],[30.273,-3.135],[30.283,-3.14],[30.295,-3.137],[30.308,-3.133],[30.322,-3.137],[30.331,-3.141],[30.338,-3.145],[30.33,-3.15],[30.289,-3.185],[30.276,-3.205],[30.176,-3.304],[30.156,-3.317],[30.136,-3.323],[30.09,-3.328],[30.08,-3.331],[30.076,-3.336],[30.071,-3.34],[30.048,-3.343],[30.038,-3.347],[30.031,-3.354],[30.029,-3.365],[30.021,-3.375],[30.003,-3.37],[29.986,-3.355],[29.98,-3.334],[29.983,-3.331],[30.004,-3.297],[30.013,-3.287],[30.018,-3.278],[30.021,-3.269],[30.021,-3.256],[30.015,-3.232],[30.001,-3.216],[29.985,-3.204],[29.973,-3.19],[29.961,-3.16],[29.952,-3.157],[29.929,-3.156],[29.922,-3.162],[29.918,-3.172],[29.911,-3.177],[29.898,-3.17],[29.891,-3.159],[29.891,-3.149],[29.898,-3.128],[29.908,-3.087]]]}},{"type":"Feature","id":"BI-KY","properties":{"id":"BI-KY","countryCode":"BI","isoSubdivision":"BI-KY","name":"Kayanza","name_en":"Kayanza","name_ko":"카얀자","type":"Province","labelLongitude":29.661,"labelLatitude":-3.025,"minZoom":10},"geometry":{"type":"Polygon","coordinates":[[[29.619,-2.788],[29.626,-2.788],[29.637,-2.792],[29.637,-2.798],[29.642,-2.842],[29.605,-2.869],[29.617,-2.875],[29.628,-2.872],[29.65,-2.892],[29.662,-2.89],[29.673,-2.89],[29.684,-2.898],[29.721,-2.907],[29.741,-2.897],[29.761,-2.896],[29.782,-2.905],[29.793,-2.939],[29.802,-2.985],[29.838,-2.989],[29.852,-2.998],[29.868,-3.003],[29.878,-3.01],[29.874,-3.023],[29.873,-3.041],[29.878,-3.058],[29.833,-3.108],[29.841,-3.162],[29.83,-3.174],[29.815,-3.179],[29.791,-3.186],[29.767,-3.19],[29.755,-3.197],[29.74,-3.2],[29.722,-3.191],[29.712,-3.173],[29.713,-3.157],[29.707,-3.147],[29.682,-3.157],[29.66,-3.16],[29.657,-3.119],[29.645,-3.11],[29.629,-3.115],[29.619,-3.109],[29.61,-3.098],[29.585,-3.097],[29.559,-3.091],[29.556,-3.057],[29.544,-3.024],[29.534,-3.006],[29.52,-2.945],[29.495,-2.911],[29.478,-2.882],[29.465,-2.851],[29.463,-2.823],[29.445,-2.807],[29.481,-2.814],[29.504,-2.827],[29.523,-2.82],[29.542,-2.809],[29.564,-2.806],[29.574,-2.806],[29.582,-2.803],[29.589,-2.798],[29.619,-2.788]]]}},{"type":"Feature","id":"BI-MA","properties":{"id":"BI-MA","countryCode":"BI","isoSubdivision":"BI-MA","name":"Makamba","name_en":"Makamba","name_ko":"마캄바","type":"Province","labelLongitude":29.771,"labelLatitude":-4.216,"minZoom":10},"geometry":{"type":"Polygon","coordinates":[[[30.176,-4.04],[30.173,-4.046],[30.15,-4.087],[30.12,-4.124],[30.051,-4.18],[30.041,-4.195],[30.016,-4.256],[30.003,-4.272],[29.981,-4.284],[29.971,-4.293],[29.936,-4.312],[29.9,-4.346],[29.847,-4.371],[29.839,-4.374],[29.822,-4.371],[29.811,-4.365],[29.8,-4.364],[29.784,-4.374],[29.782,-4.377],[29.78,-4.394],[29.775,-4.402],[29.758,-4.41],[29.752,-4.416],[29.748,-4.43],[29.747,-4.443],[29.744,-4.454],[29.733,-4.463],[29.728,-4.462],[29.687,-4.458],[29.638,-4.447],[29.404,-4.45],[29.373,-4.208],[29.367,-4.189],[29.38,-4.188],[29.532,-4.178],[29.566,-4.149],[29.592,-4.146],[29.64,-4.124],[29.675,-4.085],[29.707,-4.064],[29.744,-4.053],[29.781,-4.02],[29.799,-3.973],[29.803,-3.95],[29.817,-3.943],[29.819,-3.957],[29.818,-3.975],[29.83,-4.007],[29.83,-4.046],[29.836,-4.07],[29.851,-4.078],[29.868,-4.07],[29.882,-4.059],[29.892,-4.079],[29.91,-4.09],[29.928,-4.102],[29.953,-4.136],[29.969,-4.125],[29.995,-4.092],[30.041,-4.066],[30.126,-4.063],[30.154,-4.048],[30.167,-4.038],[30.175,-4.04],[30.176,-4.04]]]}},{"type":"Feature","id":"BI-MU","properties":{"id":"BI-MU","countryCode":"BI","isoSubdivision":"BI-MU","name":"Muramvya","name_en":"Muramvya","name_ko":"무람비야","type":"Province","labelLongitude":29.668,"labelLatitude":-3.253,"minZoom":10},"geometry":{"type":"Polygon","coordinates":[[[29.559,-3.091],[29.585,-3.097],[29.61,-3.098],[29.619,-3.109],[29.629,-3.115],[29.645,-3.11],[29.657,-3.119],[29.66,-3.16],[29.682,-3.157],[29.707,-3.147],[29.713,-3.157],[29.712,-3.173],[29.722,-3.191],[29.74,-3.2],[29.755,-3.197],[29.767,-3.19],[29.791,-3.186],[29.815,-3.179],[29.826,-3.195],[29.835,-3.214],[29.849,-3.225],[29.866,-3.233],[29.823,-3.255],[29.797,-3.29],[29.839,-3.315],[29.843,-3.356],[29.819,-3.366],[29.746,-3.379],[29.707,-3.379],[29.677,-3.385],[29.664,-3.392],[29.658,-3.398],[29.649,-3.399],[29.644,-3.39],[29.629,-3.382],[29.609,-3.387],[29.593,-3.399],[29.583,-3.387],[29.572,-3.395],[29.565,-3.402],[29.555,-3.384],[29.547,-3.362],[29.537,-3.344],[29.538,-3.324],[29.523,-3.28],[29.535,-3.269],[29.543,-3.254],[29.54,-3.246],[29.534,-3.239],[29.542,-3.211],[29.556,-3.188],[29.559,-3.16],[29.546,-3.135],[29.548,-3.112],[29.559,-3.091]]]}},{"type":"Feature","id":"BI-MW","properties":{"id":"BI-MW","countryCode":"BI","isoSubdivision":"BI-MW","name":"Mwaro","name_en":"Mwaro","name_ko":"음와로","type":"Province","labelLongitude":29.694,"labelLatitude":-3.518,"minZoom":10},"geometry":{"type":"Polygon","coordinates":[[[29.843,-3.356],[29.873,-3.375],[29.887,-3.403],[29.879,-3.42],[29.874,-3.437],[29.874,-3.457],[29.869,-3.476],[29.825,-3.511],[29.77,-3.544],[29.785,-3.56],[29.798,-3.58],[29.806,-3.6],[29.809,-3.62],[29.762,-3.614],[29.726,-3.64],[29.717,-3.654],[29.706,-3.668],[29.702,-3.682],[29.675,-3.716],[29.676,-3.674],[29.669,-3.646],[29.643,-3.63],[29.6,-3.576],[29.584,-3.546],[29.593,-3.524],[29.592,-3.5],[29.604,-3.464],[29.591,-3.417],[29.593,-3.399],[29.609,-3.387],[29.629,-3.382],[29.644,-3.39],[29.649,-3.399],[29.658,-3.398],[29.664,-3.392],[29.677,-3.385],[29.707,-3.379],[29.746,-3.379],[29.819,-3.366],[29.843,-3.356]]]}},{"type":"Feature","id":"BI-MY","properties":{"id":"BI-MY","countryCode":"BI","isoSubdivision":"BI-MY","name":"Muyinga","name_en":"Muyinga","name_ko":"무잉가","type":"Province","labelLongitude":30.316,"labelLatitude":-2.892,"minZoom":10},"geometry":{"type":"Polygon","coordinates":[[[30.379,-2.303],[30.383,-2.306],[30.415,-2.313],[30.418,-2.312],[30.423,-2.317],[30.428,-2.331],[30.434,-2.339],[30.488,-2.384],[30.522,-2.399],[30.555,-2.401],[30.521,-2.442],[30.508,-2.463],[30.47,-2.556],[30.462,-2.587],[30.458,-2.598],[30.448,-2.611],[30.424,-2.633],[30.416,-2.646],[30.412,-2.67],[30.423,-2.681],[30.443,-2.681],[30.464,-2.674],[30.5,-2.658],[30.523,-2.649],[30.516,-2.668],[30.459,-2.729],[30.451,-2.742],[30.447,-2.757],[30.447,-2.783],[30.425,-2.812],[30.414,-2.834],[30.416,-2.852],[30.441,-2.884],[30.456,-2.898],[30.474,-2.903],[30.47,-2.914],[30.475,-2.922],[30.484,-2.931],[30.488,-2.943],[30.477,-2.95],[30.462,-2.973],[30.456,-2.978],[30.447,-2.979],[30.439,-2.983],[30.434,-2.988],[30.429,-3.004],[30.422,-3.007],[30.415,-3.011],[30.412,-3.022],[30.413,-3.043],[30.41,-3.051],[30.384,-3.058],[30.376,-3.069],[30.371,-3.108],[30.37,-3.109],[30.358,-3.136],[30.352,-3.141],[30.338,-3.145],[30.331,-3.141],[30.322,-3.137],[30.308,-3.133],[30.295,-3.137],[30.283,-3.14],[30.273,-3.135],[30.252,-3.119],[30.244,-3.109],[30.247,-3.095],[30.252,-3.08],[30.273,-3.042],[30.288,-3],[30.288,-2.96],[30.271,-2.925],[30.23,-2.906],[30.187,-2.898],[30.186,-2.884],[30.187,-2.87],[30.173,-2.869],[30.16,-2.862],[30.143,-2.86],[30.129,-2.875],[30.106,-2.895],[30.082,-2.883],[30.105,-2.852],[30.119,-2.82],[30.103,-2.794],[30.078,-2.781],[30.118,-2.774],[30.143,-2.76],[30.149,-2.739],[30.164,-2.721],[30.187,-2.711],[30.213,-2.706],[30.234,-2.691],[30.256,-2.678],[30.266,-2.675],[30.274,-2.677],[30.28,-2.681],[30.352,-2.618],[30.363,-2.605],[30.374,-2.59],[30.396,-2.588],[30.416,-2.577],[30.423,-2.557],[30.426,-2.536],[30.419,-2.516],[30.411,-2.499],[30.426,-2.457],[30.416,-2.438],[30.401,-2.425],[30.395,-2.412],[30.394,-2.398],[30.388,-2.386],[30.381,-2.377],[30.371,-2.339],[30.349,-2.322],[30.353,-2.317],[30.363,-2.308],[30.379,-2.303]]]}},{"type":"Feature","id":"BI-NG","properties":{"id":"BI-NG","countryCode":"BI","isoSubdivision":"BI-NG","name":"Ngozi","name_en":"Ngozi","name_ko":"응고지","type":"Province","labelLongitude":29.896,"labelLatitude":-2.869,"minZoom":10},"geometry":{"type":"Polygon","coordinates":[[[29.803,-2.767],[29.824,-2.763],[29.842,-2.752],[29.863,-2.732],[29.876,-2.714],[29.888,-2.693],[29.898,-2.671],[29.903,-2.649],[29.904,-2.638],[29.93,-2.642],[29.978,-2.655],[30.008,-2.691],[30.022,-2.717],[30.043,-2.734],[30.078,-2.781],[30.103,-2.794],[30.119,-2.82],[30.105,-2.852],[30.082,-2.883],[30.106,-2.895],[30.129,-2.875],[30.143,-2.86],[30.16,-2.862],[30.173,-2.869],[30.187,-2.87],[30.186,-2.884],[30.187,-2.898],[30.158,-2.934],[30.093,-2.979],[30.054,-2.981],[30.015,-2.998],[29.993,-3.032],[29.976,-3.048],[29.956,-3.059],[29.947,-3.077],[29.908,-3.087],[29.904,-3.068],[29.888,-3.06],[29.878,-3.058],[29.873,-3.041],[29.874,-3.023],[29.878,-3.01],[29.868,-3.003],[29.852,-2.998],[29.838,-2.989],[29.802,-2.985],[29.793,-2.939],[29.782,-2.905],[29.761,-2.896],[29.741,-2.897],[29.721,-2.907],[29.684,-2.898],[29.673,-2.89],[29.662,-2.89],[29.65,-2.892],[29.628,-2.872],[29.617,-2.875],[29.605,-2.869],[29.642,-2.842],[29.637,-2.798],[29.637,-2.792],[29.679,-2.805],[29.698,-2.808],[29.72,-2.805],[29.73,-2.8],[29.734,-2.79],[29.737,-2.769],[29.745,-2.76],[29.756,-2.76],[29.779,-2.767],[29.803,-2.767]]]}},{"type":"Feature","id":"BI-RT","properties":{"id":"BI-RT","countryCode":"BI","isoSubdivision":"BI-RT","name":"Rutana","name_en":"Rutana","name_ko":"루타나","type":"Province","labelLongitude":30.133,"labelLatitude":-3.848,"minZoom":10},"geometry":{"type":"Polygon","coordinates":[[[30.373,-3.704],[30.372,-3.723],[30.376,-3.74],[30.382,-3.755],[30.385,-3.771],[30.382,-3.788],[30.337,-3.774],[30.312,-3.79],[30.273,-3.856],[30.221,-3.91],[30.209,-3.93],[30.191,-4.002],[30.176,-4.04],[30.175,-4.04],[30.167,-4.038],[30.154,-4.048],[30.126,-4.063],[30.041,-4.066],[29.995,-4.092],[29.969,-4.125],[29.953,-4.136],[29.928,-4.102],[29.91,-4.09],[29.892,-4.079],[29.882,-4.059],[29.89,-4.03],[29.893,-3.983],[29.899,-3.96],[29.895,-3.935],[29.928,-3.894],[29.921,-3.872],[29.91,-3.857],[29.908,-3.837],[29.928,-3.82],[29.939,-3.831],[29.952,-3.832],[29.955,-3.818],[29.955,-3.803],[30,-3.757],[30.003,-3.735],[30.015,-3.716],[30.048,-3.703],[30.081,-3.686],[30.099,-3.663],[30.104,-3.636],[30.127,-3.636],[30.15,-3.643],[30.161,-3.659],[30.173,-3.67],[30.228,-3.639],[30.288,-3.661],[30.312,-3.674],[30.338,-3.682],[30.362,-3.704],[30.373,-3.704]]]}},{"type":"Feature","id":"BI-RY","properties":{"id":"BI-RY","countryCode":"BI","isoSubdivision":"BI-RY","name":"Ruyigi","name_en":"Ruyigi","name_ko":"루이기","type":"Province","labelLongitude":30.339,"labelLatitude":-3.443,"minZoom":10},"geometry":{"type":"Polygon","coordinates":[[[30.61,-3.376],[30.64,-3.393],[30.639,-3.419],[30.613,-3.445],[30.566,-3.467],[30.553,-3.482],[30.545,-3.489],[30.538,-3.492],[30.512,-3.498],[30.51,-3.5],[30.508,-3.509],[30.507,-3.511],[30.488,-3.513],[30.488,-3.511],[30.486,-3.511],[30.469,-3.513],[30.466,-3.516],[30.463,-3.528],[30.46,-3.532],[30.432,-3.552],[30.427,-3.564],[30.429,-3.584],[30.429,-3.602],[30.421,-3.621],[30.38,-3.686],[30.373,-3.704],[30.362,-3.704],[30.338,-3.682],[30.312,-3.674],[30.288,-3.661],[30.228,-3.639],[30.173,-3.67],[30.161,-3.659],[30.15,-3.643],[30.127,-3.636],[30.104,-3.636],[30.106,-3.608],[30.104,-3.579],[30.093,-3.557],[30.082,-3.52],[30.074,-3.508],[30.074,-3.481],[30.082,-3.425],[30.074,-3.413],[30.065,-3.401],[30.063,-3.387],[30.038,-3.347],[30.048,-3.343],[30.071,-3.34],[30.076,-3.336],[30.08,-3.331],[30.09,-3.328],[30.136,-3.323],[30.156,-3.317],[30.176,-3.304],[30.276,-3.205],[30.289,-3.185],[30.327,-3.198],[30.336,-3.201],[30.344,-3.205],[30.367,-3.201],[30.379,-3.207],[30.393,-3.217],[30.409,-3.223],[30.425,-3.225],[30.44,-3.231],[30.449,-3.242],[30.455,-3.254],[30.454,-3.268],[30.456,-3.281],[30.479,-3.299],[30.506,-3.306],[30.517,-3.299],[30.529,-3.293],[30.539,-3.298],[30.547,-3.305],[30.556,-3.311],[30.567,-3.315],[30.577,-3.324],[30.585,-3.335],[30.591,-3.361],[30.592,-3.383],[30.61,-3.376]]]}}]}
