{"type":"FeatureCollection","features":[{"type":"Feature","id":"BJ-AK","properties":{"id":"BJ-AK","countryCode":"BJ","isoSubdivision":"BJ-AK","name":"Atakora","name_en":"Atakora","name_ko":"아타코라","type":"Department","labelLongitude":1.558,"labelLatitude":10.704,"minZoom":7.7},"geometry":{"type":"Polygon","coordinates":[[[1.983,11.414],[2.011,11.427],[2.015,11.432],[2.02,11.426],[2.215,11.082],[2.264,11.012],[2.273,11.012],[2.286,11.01],[2.295,11.005],[2.3,11.003],[2.305,11],[2.309,11],[2.312,10.999],[2.324,10.991],[2.356,10.96],[2.297,10.911],[2.277,10.889],[2.267,10.871],[2.263,10.859],[2.261,10.842],[2.266,10.524],[2.255,10.518],[2.234,10.506],[2.23,10.503],[2.228,10.501],[2.202,10.468],[2.19,10.447],[2.184,10.431],[2.182,10.416],[2.182,10.401],[2.183,10.396],[2.184,10.393],[2.188,10.386],[2.194,10.378],[2.219,10.354],[2.225,10.346],[2.23,10.339],[2.245,10.3],[2.248,10.284],[2.263,10.238],[2.271,10.167],[2.27,10.147],[2.268,10.135],[2.264,10.13],[2.257,10.123],[2.25,10.117],[2.241,10.112],[2.201,10.098],[2.185,10.094],[2.13,10.093],[2.12,10.09],[2.111,10.085],[2.105,10.082],[2.1,10.077],[2.092,10.067],[2.089,10.06],[2.087,10.054],[2.088,10.05],[2.092,10.032],[1.808,10.04],[1.77,10.026],[1.735,10.006],[1.702,9.98],[1.66,9.959],[1.61,9.947],[1.547,9.954],[1.504,9.963],[1.455,9.969],[1.413,9.97],[1.357,9.959],[1.344,9.955],[1.344,9.962],[1.331,9.996],[1.225,10.066],[1.082,10.16],[0.997,10.217],[0.94,10.255],[0.844,10.317],[0.769,10.367],[0.761,10.382],[0.76,10.405],[0.774,10.508],[0.789,10.564],[0.789,10.603],[0.781,10.693],[0.796,10.726],[0.85,10.778],[0.863,10.796],[0.866,10.806],[0.868,10.829],[0.87,10.84],[0.885,10.869],[0.884,10.88],[0.875,10.901],[0.873,10.911],[0.876,10.931],[0.901,10.993],[0.932,10.976],[0.945,10.974],[0.963,10.974],[0.968,10.979],[0.97,10.991],[0.969,11.003],[0.963,11.008],[0.955,11.012],[0.952,11.021],[0.951,11.032],[0.952,11.042],[0.956,11.045],[0.964,11.057],[0.97,11.069],[0.977,11.078],[0.981,11.08],[0.986,11.078],[1.008,11.075],[1.015,11.07],[1.02,11.066],[1.025,11.064],[1.028,11.061],[1.033,11.052],[1.035,11.049],[1.041,11.05],[1.052,11.055],[1.056,11.056],[1.087,11.053],[1.097,11.049],[1.1,11.044],[1.107,11.034],[1.114,11.028],[1.117,11.032],[1.119,11.048],[1.107,11.06],[1.101,11.07],[1.099,11.081],[1.099,11.093],[1.097,11.104],[1.095,11.104],[1.086,11.109],[1.083,11.111],[1.082,11.115],[1.084,11.128],[1.083,11.132],[1.073,11.134],[1.067,11.128],[1.063,11.127],[1.062,11.142],[1.067,11.144],[1.1,11.152],[1.106,11.156],[1.113,11.174],[1.117,11.179],[1.128,11.179],[1.148,11.17],[1.158,11.166],[1.153,11.183],[1.149,11.217],[1.131,11.248],[1.136,11.26],[1.146,11.27],[1.156,11.286],[1.166,11.278],[1.173,11.267],[1.172,11.261],[1.181,11.261],[1.186,11.264],[1.191,11.267],[1.2,11.269],[1.219,11.268],[1.235,11.263],[1.268,11.248],[1.281,11.271],[1.283,11.279],[1.28,11.289],[1.271,11.298],[1.268,11.306],[1.273,11.318],[1.285,11.313],[1.296,11.3],[1.302,11.289],[1.309,11.297],[1.316,11.3],[1.323,11.297],[1.33,11.289],[1.348,11.303],[1.346,11.316],[1.336,11.33],[1.33,11.347],[1.339,11.366],[1.359,11.379],[1.382,11.389],[1.398,11.399],[1.389,11.42],[1.39,11.428],[1.398,11.44],[1.411,11.45],[1.423,11.454],[1.424,11.454],[1.434,11.459],[1.44,11.474],[1.456,11.465],[1.475,11.461],[1.569,11.453],[1.567,11.447],[1.565,11.433],[1.563,11.426],[1.581,11.427],[1.602,11.389],[1.621,11.395],[1.638,11.404],[1.684,11.414],[1.703,11.423],[1.719,11.428],[1.763,11.425],[1.782,11.426],[1.822,11.442],[1.841,11.445],[1.858,11.44],[1.868,11.447],[1.88,11.445],[1.906,11.433],[1.948,11.417],[1.983,11.414]]]}},{"type":"Feature","id":"BJ-AL","properties":{"id":"BJ-AL","countryCode":"BJ","isoSubdivision":"BJ-AL","name":"Alibori","name_en":"Alibori","name_ko":"알리보리","type":"Department","labelLongitude":2.926,"labelLatitude":11.431,"minZoom":7.7},"geometry":{"type":"Polygon","coordinates":[[[3.596,11.696],[3.574,11.673],[3.505,11.557],[3.493,11.511],[3.487,11.496],[3.467,11.442],[3.468,11.419],[3.483,11.392],[3.663,11.143],[3.687,11.12],[3.695,11.119],[3.704,11.121],[3.706,11.121],[3.714,11.12],[3.722,11.112],[3.712,11.074],[3.712,11.052],[3.716,11.032],[3.723,11.014],[3.734,10.996],[3.754,10.907],[3.753,10.878],[3.731,10.825],[3.73,10.808],[3.735,10.796],[3.743,10.787],[3.752,10.78],[3.759,10.772],[3.764,10.761],[3.774,10.728],[3.783,10.717],[3.796,10.713],[3.81,10.71],[3.823,10.703],[3.832,10.684],[3.837,10.655],[3.837,10.631],[3.458,10.589],[3.217,10.541],[2.976,10.521],[2.83,10.551],[2.775,10.552],[2.615,10.531],[2.457,10.542],[2.406,10.533],[2.356,10.53],[2.303,10.518],[2.255,10.518],[2.266,10.524],[2.261,10.842],[2.263,10.859],[2.267,10.871],[2.277,10.889],[2.297,10.911],[2.356,10.96],[2.324,10.991],[2.312,10.999],[2.309,11],[2.305,11],[2.3,11.003],[2.295,11.005],[2.286,11.01],[2.273,11.012],[2.264,11.012],[2.215,11.082],[2.02,11.426],[2.015,11.432],[2.147,11.564],[2.22,11.623],[2.274,11.652],[2.287,11.665],[2.291,11.675],[2.29,11.686],[2.291,11.703],[2.302,11.732],[2.34,11.774],[2.354,11.8],[2.39,11.897],[2.388,11.907],[2.377,11.924],[2.375,11.935],[2.381,11.948],[2.389,11.95],[2.399,11.949],[2.407,11.951],[2.414,11.959],[2.422,11.973],[2.429,11.98],[2.439,11.981],[2.449,11.978],[2.457,11.979],[2.457,11.996],[2.455,12.009],[2.449,12.013],[2.439,12.016],[2.429,12.02],[2.418,12.029],[2.411,12.037],[2.406,12.047],[2.372,12.14],[2.362,12.196],[2.361,12.219],[2.37,12.236],[2.394,12.247],[2.408,12.249],[2.431,12.248],[2.444,12.249],[2.446,12.252],[2.454,12.263],[2.46,12.267],[2.467,12.265],[2.473,12.259],[2.478,12.258],[2.483,12.268],[2.488,12.28],[2.495,12.283],[2.504,12.282],[2.516,12.281],[2.519,12.279],[2.521,12.274],[2.524,12.269],[2.531,12.27],[2.537,12.273],[2.546,12.282],[2.551,12.285],[2.586,12.294],[2.59,12.293],[2.599,12.288],[2.604,12.288],[2.61,12.291],[2.622,12.3],[2.629,12.301],[2.664,12.292],[2.673,12.297],[2.687,12.318],[2.69,12.326],[2.692,12.334],[2.695,12.341],[2.7,12.347],[2.711,12.351],[2.722,12.344],[2.732,12.347],[2.741,12.354],[2.757,12.373],[2.769,12.38],[2.778,12.382],[2.798,12.381],[2.809,12.383],[2.832,12.384],[2.844,12.399],[2.892,12.357],[2.913,12.346],[2.923,12.336],[2.93,12.323],[2.937,12.301],[2.945,12.292],[2.956,12.287],[2.968,12.283],[3.001,12.279],[3.009,12.276],[3.013,12.271],[3.023,12.252],[3.063,12.194],[3.235,12.04],[3.238,12.034],[3.252,12.024],[3.255,12.019],[3.258,11.997],[3.263,11.975],[3.27,11.957],[3.293,11.919],[3.307,11.902],[3.315,11.895],[3.328,11.886],[3.342,11.883],[3.355,11.889],[3.369,11.897],[3.381,11.895],[3.392,11.889],[3.403,11.885],[3.448,11.858],[3.484,11.845],[3.495,11.838],[3.503,11.83],[3.537,11.783],[3.544,11.777],[3.549,11.774],[3.554,11.77],[3.557,11.762],[3.563,11.746],[3.566,11.738],[3.568,11.73],[3.572,11.722],[3.58,11.717],[3.589,11.702],[3.596,11.696]]]}},{"type":"Feature","id":"BJ-AQ","properties":{"id":"BJ-AQ","countryCode":"BJ","isoSubdivision":"BJ-AQ","name":"Atlantique","name_en":"Atlantique","name_ko":"아틀랑티크","type":"Department","labelLongitude":2.223,"labelLatitude":6.617,"minZoom":7.7},"geometry":{"type":"Polygon","coordinates":[[[2.36,6.336],[2.307,6.331],[2.227,6.314],[1.988,6.287],[1.988,6.295],[1.985,6.313],[1.976,6.339],[1.961,6.361],[1.958,6.392],[1.963,6.413],[1.985,6.47],[1.99,6.484],[1.993,6.496],[1.994,6.516],[1.991,6.573],[1.99,6.6],[1.991,6.609],[1.994,6.618],[2.002,6.63],[2.007,6.637],[2.015,6.645],[2.017,6.652],[2.019,6.662],[2.018,6.681],[2.024,6.706],[2.037,6.734],[2.036,6.753],[2.034,6.766],[2.036,6.774],[2.039,6.784],[2.054,6.809],[2.062,6.819],[2.066,6.828],[2.082,6.868],[2.088,6.88],[2.093,6.895],[2.084,6.919],[2.385,6.921],[2.419,6.865],[2.429,6.824],[2.432,6.767],[2.436,6.659],[2.437,6.629],[2.444,6.538],[2.455,6.519],[2.461,6.517],[2.467,6.515],[2.471,6.513],[2.483,6.505],[2.487,6.459],[2.483,6.434],[2.468,6.396],[2.42,6.39],[2.399,6.384],[2.381,6.373],[2.369,6.361],[2.36,6.336]]]}},{"type":"Feature","id":"BJ-BO","properties":{"id":"BJ-BO","countryCode":"BJ","isoSubdivision":"BJ-BO","name":"Borgou","name_en":"Borgou","name_ko":"보르구","type":"Department","labelLongitude":2.904,"labelLatitude":9.807,"minZoom":7.7},"geometry":{"type":"Polygon","coordinates":[[[3.837,10.631],[3.837,10.6],[3.83,10.573],[3.804,10.523],[3.795,10.496],[3.794,10.445],[3.788,10.426],[3.773,10.408],[3.757,10.405],[3.693,10.438],[3.672,10.442],[3.652,10.436],[3.633,10.417],[3.626,10.407],[3.623,10.401],[3.622,10.381],[3.618,10.369],[3.593,10.331],[3.572,10.286],[3.573,10.267],[3.588,10.244],[3.656,10.175],[3.665,10.162],[3.668,10.147],[3.665,10.129],[3.664,10.123],[3.655,10.101],[3.642,10.092],[3.628,10.085],[3.612,10.07],[3.606,10.054],[3.6,9.969],[3.589,9.949],[3.557,9.911],[3.531,9.863],[3.513,9.847],[3.453,9.853],[3.414,9.843],[3.342,9.814],[3.326,9.802],[3.317,9.782],[3.315,9.759],[3.318,9.739],[3.331,9.709],[3.339,9.678],[3.332,9.652],[3.299,9.634],[3.281,9.635],[3.262,9.639],[3.246,9.634],[3.238,9.609],[3.239,9.602],[3.245,9.59],[3.244,9.584],[3.183,9.505],[3.175,9.499],[3.159,9.493],[3.152,9.488],[3.133,9.457],[3.129,9.43],[3.135,9.402],[3.148,9.37],[3.151,9.354],[3.151,9.289],[3.145,9.268],[3.125,9.229],[3.091,9.126],[3.076,9.095],[3.051,9.078],[2.983,9.061],[2.971,9.061],[2.961,9.065],[2.952,9.072],[2.941,9.077],[2.93,9.078],[2.899,9.077],[2.888,9.075],[2.878,9.069],[2.869,9.06],[2.86,9.053],[2.846,9.051],[2.769,9.057],[2.772,9.031],[2.77,8.967],[2.765,8.94],[2.762,8.934],[2.75,8.917],[2.748,8.915],[2.75,8.907],[2.754,8.904],[2.759,8.903],[2.763,8.896],[2.762,8.88],[2.75,8.852],[2.746,8.837],[2.747,8.828],[2.752,8.812],[2.751,8.803],[2.746,8.798],[2.729,8.79],[2.723,8.783],[2.723,8.772],[2.723,8.771],[2.195,8.777],[2.203,8.812],[2.197,8.818],[2.194,8.82],[2.188,8.822],[2.088,8.85],[2.068,8.86],[2.059,8.866],[2.051,8.872],[2.044,8.879],[2.038,8.887],[2.034,8.894],[2.031,8.903],[2.027,8.923],[2.025,8.94],[2.027,8.989],[2.029,9],[2.034,9.035],[2.041,9.059],[2.049,9.079],[2.051,9.085],[2.051,9.091],[2.049,9.098],[2.045,9.106],[2.042,9.11],[2.039,9.113],[2.009,9.126],[2.001,9.131],[1.997,9.136],[1.99,9.142],[1.985,9.15],[1.98,9.159],[1.978,9.164],[1.973,9.185],[1.97,9.217],[1.971,9.274],[1.976,9.308],[1.99,9.351],[1.999,9.358],[2.007,9.362],[2.012,9.364],[2.028,9.367],[2.051,9.368],[2.089,9.367],[2.095,9.368],[2.1,9.37],[2.104,9.372],[2.108,9.375],[2.114,9.381],[2.118,9.387],[2.122,9.4],[2.161,9.656],[2.161,9.671],[2.152,9.688],[2.136,9.703],[2.115,9.725],[2.102,9.745],[2.1,9.75],[2.081,9.805],[2.079,9.818],[2.08,9.836],[2.089,9.888],[2.097,9.917],[2.097,9.936],[2.088,9.985],[2.096,10],[2.097,10.001],[2.098,10.002],[2.1,10.007],[2.1,10.011],[2.092,10.032],[2.088,10.05],[2.087,10.054],[2.089,10.06],[2.092,10.067],[2.1,10.077],[2.105,10.082],[2.111,10.085],[2.12,10.09],[2.13,10.093],[2.185,10.094],[2.201,10.098],[2.241,10.112],[2.25,10.117],[2.257,10.123],[2.264,10.13],[2.268,10.135],[2.27,10.147],[2.271,10.167],[2.263,10.238],[2.248,10.284],[2.245,10.3],[2.23,10.339],[2.225,10.346],[2.219,10.354],[2.194,10.378],[2.188,10.386],[2.184,10.393],[2.183,10.396],[2.182,10.401],[2.182,10.416],[2.184,10.431],[2.19,10.447],[2.202,10.468],[2.228,10.501],[2.23,10.503],[2.234,10.506],[2.255,10.518],[2.303,10.518],[2.356,10.53],[2.406,10.533],[2.457,10.542],[2.615,10.531],[2.775,10.552],[2.83,10.551],[2.976,10.521],[3.217,10.541],[3.458,10.589],[3.837,10.631]]]}},{"type":"Feature","id":"BJ-CO","properties":{"id":"BJ-CO","countryCode":"BJ","isoSubdivision":"BJ-CO","name":"Collines","name_en":"Collines","name_ko":"콜린","type":"Department","labelLongitude":2.173,"labelLatitude":8.005,"minZoom":7.7},"geometry":{"type":"Polygon","coordinates":[[[2.672,7.893],[2.672,7.89],[2.68,7.877],[2.692,7.849],[2.716,7.822],[2.724,7.808],[2.727,7.793],[2.718,7.659],[2.717,7.659],[2.512,7.66],[2.498,7.659],[2.483,7.618],[2.481,7.589],[2.488,7.563],[2.485,7.552],[2.471,7.548],[2.461,7.541],[2.43,7.497],[2.418,7.475],[2.42,7.451],[2.428,7.426],[2.248,7.508],[2.178,7.53],[2.119,7.535],[2.067,7.534],[2.019,7.542],[1.981,7.567],[1.944,7.6],[1.889,7.623],[1.845,7.632],[1.643,7.621],[1.623,7.622],[1.623,7.64],[1.622,7.838],[1.621,7.997],[1.624,8.156],[1.626,8.27],[1.615,8.356],[1.61,8.365],[1.604,8.367],[1.601,8.372],[1.606,8.396],[1.606,8.413],[1.608,8.422],[1.64,8.476],[1.644,8.493],[1.64,8.503],[1.614,8.536],[1.609,8.547],[1.608,8.559],[1.607,8.589],[1.625,8.587],[1.679,8.585],[1.698,8.587],[1.703,8.587],[1.714,8.588],[1.801,8.611],[1.818,8.614],[1.83,8.615],[1.836,8.613],[1.847,8.609],[1.855,8.604],[1.863,8.597],[1.89,8.568],[1.894,8.566],[1.898,8.563],[1.904,8.561],[1.909,8.559],[1.915,8.558],[1.946,8.559],[1.952,8.558],[1.957,8.556],[1.961,8.553],[1.965,8.55],[1.979,8.531],[1.987,8.524],[1.995,8.518],[2.005,8.513],[2.034,8.504],[2.039,8.502],[2.05,8.492],[2.055,8.49],[2.06,8.489],[2.085,8.49],[2.097,8.487],[2.124,8.477],[2.13,8.476],[2.136,8.476],[2.16,8.476],[2.177,8.481],[2.189,8.487],[2.198,8.492],[2.212,8.503],[2.219,8.515],[2.214,8.521],[2.207,8.545],[2.22,8.631],[2.204,8.72],[2.196,8.734],[2.187,8.746],[2.195,8.777],[2.723,8.771],[2.742,8.527],[2.745,8.498],[2.737,8.465],[2.729,8.453],[2.709,8.43],[2.704,8.418],[2.704,8.409],[2.706,8.391],[2.706,8.381],[2.698,8.34],[2.697,8.321],[2.701,8.297],[2.708,8.275],[2.728,8.233],[2.735,8.212],[2.734,8.19],[2.727,8.172],[2.716,8.155],[2.708,8.138],[2.706,8.12],[2.704,8.06],[2.691,7.997],[2.687,7.934],[2.684,7.925],[2.673,7.906],[2.671,7.898],[2.672,7.893]]]}},{"type":"Feature","id":"BJ-DO","properties":{"id":"BJ-DO","countryCode":"BJ","isoSubdivision":"BJ-DO","name":"Donga","name_en":"Donga","name_ko":"동가","type":"Department","labelLongitude":1.771,"labelLatitude":9.315,"minZoom":7.7},"geometry":{"type":"Polygon","coordinates":[[[1.351,9.483],[1.336,9.498],[1.326,9.522],[1.323,9.542],[1.327,9.555],[1.345,9.582],[1.351,9.595],[1.353,9.605],[1.352,9.625],[1.355,9.635],[1.356,9.647],[1.348,9.694],[1.347,9.772],[1.345,9.881],[1.344,9.955],[1.357,9.959],[1.413,9.97],[1.455,9.969],[1.504,9.963],[1.547,9.954],[1.61,9.947],[1.66,9.959],[1.702,9.98],[1.735,10.006],[1.77,10.026],[1.808,10.04],[2.092,10.032],[2.1,10.011],[2.1,10.007],[2.098,10.002],[2.097,10.001],[2.096,10],[2.088,9.985],[2.097,9.936],[2.097,9.917],[2.089,9.888],[2.08,9.836],[2.079,9.818],[2.081,9.805],[2.1,9.75],[2.102,9.745],[2.115,9.725],[2.136,9.703],[2.152,9.688],[2.161,9.671],[2.161,9.656],[2.122,9.4],[2.118,9.387],[2.114,9.381],[2.108,9.375],[2.104,9.372],[2.1,9.37],[2.095,9.368],[2.089,9.367],[2.051,9.368],[2.028,9.367],[2.012,9.364],[2.007,9.362],[1.999,9.358],[1.99,9.351],[1.976,9.308],[1.971,9.274],[1.97,9.217],[1.973,9.185],[1.978,9.164],[1.98,9.159],[1.985,9.15],[1.99,9.142],[1.997,9.136],[2.001,9.131],[2.009,9.126],[2.039,9.113],[2.042,9.11],[2.045,9.106],[2.049,9.098],[2.051,9.091],[2.051,9.085],[2.049,9.079],[2.041,9.059],[2.034,9.035],[2.029,9],[2.027,8.989],[2.025,8.94],[2.027,8.923],[2.031,8.903],[2.034,8.894],[2.038,8.887],[2.044,8.879],[2.051,8.872],[2.059,8.866],[2.068,8.86],[2.088,8.85],[2.188,8.822],[2.194,8.82],[2.197,8.818],[2.203,8.812],[2.195,8.777],[2.187,8.746],[2.196,8.734],[2.204,8.72],[2.22,8.631],[2.207,8.545],[2.214,8.521],[2.219,8.515],[2.212,8.503],[2.198,8.492],[2.189,8.487],[2.177,8.481],[2.16,8.476],[2.136,8.476],[2.13,8.476],[2.124,8.477],[2.097,8.487],[2.085,8.49],[2.06,8.489],[2.055,8.49],[2.05,8.492],[2.039,8.502],[2.034,8.504],[2.005,8.513],[1.995,8.518],[1.987,8.524],[1.979,8.531],[1.965,8.55],[1.961,8.553],[1.957,8.556],[1.952,8.558],[1.946,8.559],[1.915,8.558],[1.909,8.559],[1.904,8.561],[1.898,8.563],[1.894,8.566],[1.89,8.568],[1.863,8.597],[1.855,8.604],[1.847,8.609],[1.836,8.613],[1.83,8.615],[1.818,8.614],[1.801,8.611],[1.714,8.588],[1.703,8.587],[1.698,8.587],[1.679,8.585],[1.625,8.587],[1.607,8.589],[1.606,8.722],[1.604,8.815],[1.603,8.924],[1.601,9.05],[1.596,9.077],[1.588,9.101],[1.567,9.137],[1.505,9.201],[1.425,9.284],[1.42,9.292],[1.401,9.321],[1.387,9.361],[1.38,9.462],[1.368,9.491],[1.351,9.483]]]}},{"type":"Feature","id":"BJ-KO","properties":{"id":"BJ-KO","countryCode":"BJ","isoSubdivision":"BJ-KO","name":"Kouffo","name_en":"Kouffo","name_ko":"쿠포","type":"Department","labelLongitude":1.812,"labelLatitude":6.985,"minZoom":7.7},"geometry":{"type":"Polygon","coordinates":[[[1.607,6.991],[1.626,6.997],[1.625,7.144],[1.624,7.289],[1.624,7.438],[1.623,7.536],[1.656,7.53],[1.677,7.504],[1.684,7.492],[1.737,7.381],[1.743,7.355],[1.746,7.348],[1.752,7.339],[1.754,7.332],[1.755,7.314],[1.759,7.306],[1.767,7.296],[1.783,7.284],[1.821,7.235],[1.826,7.224],[1.83,7.218],[1.843,7.21],[1.858,7.183],[1.871,7.136],[1.88,7.093],[1.893,7.072],[1.9,7.067],[1.905,7.064],[1.921,7.052],[1.942,7.02],[1.959,6.997],[1.975,6.989],[1.988,6.969],[1.993,6.951],[1.995,6.946],[2.001,6.941],[2.035,6.916],[2.043,6.913],[2.05,6.912],[2.06,6.916],[2.077,6.925],[2.084,6.919],[2.093,6.895],[2.088,6.88],[2.082,6.868],[2.066,6.828],[2.062,6.819],[2.054,6.809],[2.039,6.784],[2.036,6.774],[2.034,6.766],[2.036,6.753],[2.037,6.734],[2.024,6.706],[1.963,6.737],[1.932,6.746],[1.898,6.747],[1.844,6.735],[1.781,6.712],[1.687,6.69],[1.665,6.69],[1.648,6.692],[1.593,6.719],[1.589,6.72],[1.597,6.731],[1.601,6.746],[1.595,6.771],[1.588,6.791],[1.583,6.808],[1.583,6.825],[1.59,6.867],[1.588,6.881],[1.579,6.892],[1.564,6.903],[1.563,6.904],[1.551,6.921],[1.532,6.992],[1.607,6.991]]]}},{"type":"Feature","id":"BJ-LI","properties":{"id":"BJ-LI","countryCode":"BJ","isoSubdivision":"BJ-LI","name":"Littoral","name_en":"Littoral","name_ko":"리토랄","type":"Department","labelLongitude":2.422,"labelLatitude":6.366,"minZoom":7.7},"geometry":{"type":"Polygon","coordinates":[[[2.484,6.348],[2.36,6.336],[2.369,6.361],[2.381,6.373],[2.399,6.384],[2.42,6.39],[2.468,6.396],[2.464,6.375],[2.472,6.369],[2.477,6.368],[2.482,6.365],[2.484,6.348]]]}},{"type":"Feature","id":"BJ-MO","properties":{"id":"BJ-MO","countryCode":"BJ","isoSubdivision":"BJ-MO","name":"Mono","name_en":"Mono","name_ko":"모노","type":"Department","labelLongitude":1.795,"labelLatitude":6.486,"minZoom":7.7},"geometry":{"type":"Polygon","coordinates":[[[1.637,6.572],[1.627,6.573],[1.62,6.578],[1.611,6.585],[1.603,6.593],[1.597,6.601],[1.594,6.611],[1.595,6.62],[1.597,6.629],[1.596,6.636],[1.585,6.656],[1.572,6.667],[1.566,6.678],[1.574,6.701],[1.589,6.72],[1.593,6.719],[1.648,6.692],[1.665,6.69],[1.687,6.69],[1.781,6.712],[1.844,6.735],[1.898,6.747],[1.932,6.746],[1.963,6.737],[2.024,6.706],[2.018,6.681],[2.019,6.662],[2.017,6.652],[2.015,6.645],[2.007,6.637],[2.002,6.63],[1.994,6.618],[1.991,6.609],[1.99,6.6],[1.991,6.573],[1.994,6.516],[1.993,6.496],[1.99,6.484],[1.985,6.47],[1.963,6.413],[1.958,6.392],[1.961,6.361],[1.976,6.339],[1.985,6.313],[1.988,6.295],[1.988,6.287],[1.885,6.275],[1.62,6.214],[1.612,6.235],[1.633,6.246],[1.762,6.276],[1.782,6.277],[1.764,6.351],[1.744,6.426],[1.718,6.467],[1.71,6.473],[1.688,6.484],[1.682,6.49],[1.68,6.499],[1.682,6.52],[1.681,6.53],[1.674,6.539],[1.658,6.552],[1.655,6.559],[1.654,6.571],[1.647,6.573],[1.637,6.572]]]}},{"type":"Feature","id":"BJ-OU","properties":{"id":"BJ-OU","countryCode":"BJ","isoSubdivision":"BJ-OU","name":"Ouémé","name_en":"Ouémé","name_ko":"우에메","type":"Department","labelLongitude":2.552,"labelLatitude":6.594,"minZoom":7.7},"geometry":{"type":"Polygon","coordinates":[[[2.712,6.474],[2.704,6.429],[2.704,6.368],[2.703,6.368],[2.484,6.348],[2.482,6.365],[2.477,6.368],[2.472,6.369],[2.464,6.375],[2.468,6.396],[2.483,6.434],[2.487,6.459],[2.483,6.505],[2.471,6.513],[2.467,6.515],[2.461,6.517],[2.455,6.519],[2.444,6.538],[2.437,6.629],[2.436,6.659],[2.432,6.767],[2.429,6.824],[2.419,6.865],[2.385,6.921],[2.387,6.941],[2.398,6.96],[2.414,6.982],[2.43,6.991],[2.458,6.994],[2.52,6.993],[2.518,6.942],[2.528,6.892],[2.576,6.776],[2.596,6.659],[2.616,6.628],[2.664,6.587],[2.68,6.57],[2.719,6.505],[2.719,6.504],[2.715,6.494],[2.712,6.474]]]}},{"type":"Feature","id":"BJ-PL","properties":{"id":"BJ-PL","countryCode":"BJ","isoSubdivision":"BJ-PL","name":"Plateau","name_en":"Plateau","name_ko":"플라토","type":"Department","labelLongitude":2.605,"labelLatitude":7.152,"minZoom":7.7},"geometry":{"type":"Polygon","coordinates":[[[2.718,7.659],[2.715,7.626],[2.721,7.587],[2.741,7.549],[2.77,7.514],[2.792,7.478],[2.79,7.436],[2.787,7.427],[2.787,7.421],[2.783,7.419],[2.762,7.424],[2.751,7.424],[2.744,7.419],[2.741,7.408],[2.762,7.162],[2.761,7.148],[2.758,7.139],[2.75,7.129],[2.741,7.11],[2.736,7.103],[2.735,7.096],[2.739,7.083],[2.748,7.072],[2.774,7.051],[2.78,7.041],[2.776,7.031],[2.766,7.025],[2.753,7.021],[2.741,7.016],[2.715,6.98],[2.718,6.944],[2.732,6.905],[2.737,6.863],[2.726,6.821],[2.724,6.8],[2.729,6.78],[2.736,6.77],[2.745,6.764],[2.755,6.761],[2.767,6.76],[2.773,6.755],[2.775,6.745],[2.779,6.699],[2.773,6.687],[2.761,6.679],[2.743,6.663],[2.731,6.642],[2.731,6.621],[2.739,6.579],[2.737,6.558],[2.719,6.504],[2.719,6.505],[2.68,6.57],[2.664,6.587],[2.616,6.628],[2.596,6.659],[2.576,6.776],[2.528,6.892],[2.518,6.942],[2.52,6.993],[2.539,6.992],[2.546,6.992],[2.552,6.993],[2.557,6.995],[2.559,6.998],[2.56,7],[2.555,7.045],[2.533,7.156],[2.534,7.173],[2.534,7.178],[2.528,7.185],[2.481,7.217],[2.466,7.25],[2.45,7.309],[2.447,7.321],[2.447,7.337],[2.442,7.346],[2.436,7.354],[2.433,7.363],[2.433,7.407],[2.428,7.426],[2.42,7.451],[2.418,7.475],[2.43,7.497],[2.461,7.541],[2.471,7.548],[2.485,7.552],[2.488,7.563],[2.481,7.589],[2.483,7.618],[2.498,7.659],[2.512,7.66],[2.717,7.659],[2.718,7.659]]]}},{"type":"Feature","id":"BJ-ZO","properties":{"id":"BJ-ZO","countryCode":"BJ","isoSubdivision":"BJ-ZO","name":"Zou","name_en":"Zou","name_ko":"주","type":"Department","labelLongitude":2.091,"labelLatitude":7.227,"minZoom":7.7},"geometry":{"type":"Polygon","coordinates":[[[1.623,7.536],[1.623,7.622],[1.643,7.621],[1.845,7.632],[1.889,7.623],[1.944,7.6],[1.981,7.567],[2.019,7.542],[2.067,7.534],[2.119,7.535],[2.178,7.53],[2.248,7.508],[2.428,7.426],[2.433,7.407],[2.433,7.363],[2.436,7.354],[2.442,7.346],[2.447,7.337],[2.447,7.321],[2.45,7.309],[2.466,7.25],[2.481,7.217],[2.528,7.185],[2.534,7.178],[2.534,7.173],[2.533,7.156],[2.555,7.045],[2.56,7],[2.559,6.998],[2.557,6.995],[2.552,6.993],[2.546,6.992],[2.539,6.992],[2.52,6.993],[2.458,6.994],[2.43,6.991],[2.414,6.982],[2.398,6.96],[2.387,6.941],[2.385,6.921],[2.084,6.919],[2.077,6.925],[2.06,6.916],[2.05,6.912],[2.043,6.913],[2.035,6.916],[2.001,6.941],[1.995,6.946],[1.993,6.951],[1.988,6.969],[1.975,6.989],[1.959,6.997],[1.942,7.02],[1.921,7.052],[1.905,7.064],[1.9,7.067],[1.893,7.072],[1.88,7.093],[1.871,7.136],[1.858,7.183],[1.843,7.21],[1.83,7.218],[1.826,7.224],[1.821,7.235],[1.783,7.284],[1.767,7.296],[1.759,7.306],[1.755,7.314],[1.754,7.332],[1.752,7.339],[1.746,7.348],[1.743,7.355],[1.737,7.381],[1.684,7.492],[1.677,7.504],[1.656,7.53],[1.623,7.536]]]}}]}
