{"type":"FeatureCollection","features":[{"type":"Feature","id":"BL-X00~","properties":{"id":"BL-X00~","countryCode":"BL","isoSubdivision":"BL-X00~","name":"Saint Barthélemy","name_en":"Saint Barthélemy","name_ko":"생바르텔레미","type":"Principal subdivision","labelLongitude":-62.829,"labelLatitude":17.902,"minZoom":11},"geometry":{"type":"Polygon","coordinates":[[[-62.839,17.882],[-62.851,17.89],[-62.861,17.905],[-62.867,17.92],[-62.866,17.929],[-62.857,17.925],[-62.792,17.915],[-62.799,17.904],[-62.81,17.892],[-62.824,17.883],[-62.839,17.882]]]}}]}
