{"type":"FeatureCollection","features":[{"type":"Feature","id":"BO-B","properties":{"id":"BO-B","countryCode":"BO","isoSubdivision":"BO-B","name":"Beni","name_en":"Beni","name_ko":"베니","type":"Department","labelLongitude":-64.581,"labelLatitude":-14.036,"minZoom":6.6},"geometry":{"type":"Polygon","coordinates":[[[-65.395,-10.392],[-65.393,-10.4],[-65.391,-10.403],[-65.387,-10.407],[-65.411,-10.449],[-65.425,-10.463],[-65.45,-10.468],[-65.45,-10.475],[-65.438,-10.493],[-65.436,-10.499],[-65.437,-10.504],[-65.441,-10.513],[-65.442,-10.519],[-65.442,-10.528],[-65.439,-10.538],[-65.436,-10.547],[-65.432,-10.551],[-65.429,-10.561],[-65.436,-10.611],[-65.436,-10.626],[-65.419,-10.645],[-65.401,-10.655],[-65.387,-10.67],[-65.381,-10.698],[-65.382,-10.716],[-65.39,-10.754],[-65.405,-10.799],[-65.4,-10.812],[-65.36,-10.823],[-65.342,-10.835],[-65.327,-10.85],[-65.319,-10.865],[-65.313,-10.951],[-65.31,-10.957],[-65.305,-10.962],[-65.3,-10.97],[-65.299,-10.982],[-65.303,-10.991],[-65.31,-10.997],[-65.318,-11.002],[-65.326,-11.009],[-65.342,-11.033],[-65.343,-11.051],[-65.337,-11.068],[-65.333,-11.089],[-65.341,-11.107],[-65.38,-11.136],[-65.395,-11.153],[-65.398,-11.178],[-65.385,-11.194],[-65.368,-11.205],[-65.36,-11.219],[-65.366,-11.234],[-65.379,-11.242],[-65.389,-11.253],[-65.387,-11.278],[-65.374,-11.296],[-65.354,-11.311],[-65.335,-11.321],[-65.326,-11.328],[-65.33,-11.34],[-65.348,-11.361],[-65.354,-11.372],[-65.355,-11.382],[-65.353,-11.391],[-65.32,-11.476],[-65.292,-11.505],[-65.258,-11.495],[-65.233,-11.508],[-65.223,-11.517],[-65.216,-11.53],[-65.216,-11.54],[-65.224,-11.558],[-65.223,-11.571],[-65.219,-11.585],[-65.215,-11.588],[-65.207,-11.588],[-65.195,-11.592],[-65.174,-11.607],[-65.167,-11.616],[-65.191,-11.623],[-65.193,-11.632],[-65.189,-11.657],[-65.191,-11.667],[-65.2,-11.682],[-65.202,-11.691],[-65.202,-11.728],[-65.196,-11.742],[-65.182,-11.757],[-65.164,-11.77],[-65.151,-11.773],[-65.144,-11.764],[-65.138,-11.715],[-65.134,-11.703],[-65.128,-11.695],[-65.113,-11.691],[-65.11,-11.7],[-65.114,-11.723],[-65.099,-11.736],[-65.081,-11.743],[-65.066,-11.753],[-65.056,-11.786],[-65.043,-11.808],[-65.038,-11.819],[-65.037,-11.828],[-65.039,-11.849],[-65.038,-11.858],[-65.034,-11.88],[-65.028,-11.889],[-65.018,-11.894],[-65.015,-11.894],[-65.005,-11.898],[-64.998,-11.909],[-64.996,-11.921],[-65.001,-11.931],[-65.015,-11.95],[-65.016,-11.968],[-65.009,-11.984],[-64.997,-11.996],[-64.983,-12.004],[-64.968,-12.008],[-64.925,-12.01],[-64.904,-12.014],[-64.884,-12.021],[-64.862,-12.025],[-64.84,-12.017],[-64.828,-12.022],[-64.809,-12.026],[-64.793,-12.033],[-64.785,-12.047],[-64.78,-12.068],[-64.769,-12.086],[-64.737,-12.12],[-64.744,-12.134],[-64.74,-12.145],[-64.728,-12.15],[-64.716,-12.147],[-64.714,-12.138],[-64.71,-12.112],[-64.706,-12.106],[-64.69,-12.104],[-64.686,-12.11],[-64.682,-12.127],[-64.682,-12.135],[-64.689,-12.147],[-64.689,-12.154],[-64.686,-12.159],[-64.677,-12.168],[-64.675,-12.171],[-64.665,-12.181],[-64.641,-12.195],[-64.593,-12.216],[-64.581,-12.217],[-64.555,-12.218],[-64.548,-12.219],[-64.532,-12.232],[-64.511,-12.243],[-64.51,-12.24],[-64.51,-12.237],[-64.509,-12.236],[-64.494,-12.238],[-64.489,-12.239],[-64.473,-12.253],[-64.469,-12.261],[-64.468,-12.273],[-64.469,-12.295],[-64.474,-12.316],[-64.492,-12.357],[-64.49,-12.374],[-64.484,-12.378],[-64.462,-12.385],[-64.453,-12.39],[-64.444,-12.4],[-64.432,-12.421],[-64.425,-12.431],[-64.411,-12.445],[-64.396,-12.457],[-64.377,-12.466],[-64.353,-12.469],[-64.313,-12.462],[-64.298,-12.466],[-64.288,-12.497],[-64.278,-12.499],[-64.269,-12.497],[-64.264,-12.495],[-64.257,-12.491],[-64.246,-12.479],[-64.237,-12.475],[-64.215,-12.474],[-64.198,-12.479],[-64.183,-12.488],[-64.155,-12.517],[-64.145,-12.52],[-64.135,-12.511],[-64.12,-12.49],[-64.104,-12.507],[-64.044,-12.509],[-64.023,-12.538],[-64.004,-12.535],[-63.972,-12.524],[-63.959,-12.528],[-63.95,-12.537],[-63.939,-12.544],[-63.921,-12.544],[-63.909,-12.534],[-63.902,-12.525],[-63.897,-12.516],[-63.863,-12.475],[-63.863,-12.469],[-63.846,-12.467],[-63.815,-12.457],[-63.801,-12.455],[-63.658,-12.475],[-63.655,-12.478],[-63.6,-12.506],[-63.559,-12.54],[-63.542,-12.548],[-63.52,-12.551],[-63.508,-12.552],[-63.496,-12.553],[-63.486,-12.557],[-63.476,-12.565],[-63.469,-12.576],[-63.467,-12.586],[-63.466,-12.595],[-63.463,-12.605],[-63.454,-12.612],[-63.445,-12.615],[-63.438,-12.619],[-63.435,-12.63],[-63.431,-12.637],[-63.393,-12.665],[-63.371,-12.67],[-63.359,-12.675],[-63.33,-12.697],[-63.318,-12.702],[-63.247,-12.701],[-63.236,-12.699],[-63.232,-12.691],[-63.223,-12.683],[-63.202,-12.668],[-63.197,-12.667],[-63.186,-12.668],[-63.181,-12.668],[-63.176,-12.664],[-63.172,-12.652],[-63.167,-12.647],[-63.139,-12.636],[-63.137,-12.634],[-63.125,-12.636],[-63.105,-12.645],[-63.075,-12.653],[-63.065,-12.666],[-63.058,-12.702],[-63.054,-12.708],[-63.047,-12.714],[-63.043,-12.719],[-63.051,-12.731],[-63.052,-12.736],[-63.051,-12.742],[-63.048,-12.747],[-63.026,-12.766],[-63.015,-12.778],[-63.01,-12.788],[-63.007,-12.81],[-62.999,-12.829],[-62.988,-12.844],[-62.975,-12.853],[-62.964,-12.857],[-62.955,-12.858],[-62.947,-12.855],[-62.938,-12.849],[-62.929,-12.846],[-62.924,-12.853],[-62.92,-12.862],[-62.868,-12.929],[-62.865,-12.936],[-62.86,-12.94],[-62.849,-12.942],[-62.839,-12.943],[-62.831,-12.945],[-62.827,-12.95],[-62.825,-12.959],[-62.82,-12.975],[-62.807,-12.989],[-62.79,-13.001],[-62.77,-13.01],[-62.769,-12.991],[-62.758,-12.985],[-62.741,-12.985],[-62.722,-12.983],[-62.709,-12.975],[-62.699,-12.967],[-62.687,-12.965],[-62.667,-12.976],[-62.658,-12.985],[-62.651,-12.992],[-62.648,-13.002],[-62.645,-13.025],[-62.642,-13.03],[-62.555,-13.067],[-62.493,-13.065],[-62.472,-13.068],[-62.458,-13.078],[-62.431,-13.11],[-62.429,-13.115],[-62.427,-13.125],[-62.424,-13.127],[-62.41,-13.126],[-62.407,-13.127],[-62.39,-13.137],[-62.382,-13.14],[-62.335,-13.145],[-62.322,-13.144],[-62.311,-13.134],[-62.29,-13.142],[-62.274,-13.138],[-62.259,-13.131],[-62.222,-13.121],[-62.212,-13.12],[-62.201,-13.123],[-62.174,-13.141],[-62.172,-13.118],[-62.162,-13.121],[-62.14,-13.147],[-62.129,-13.151],[-62.12,-13.149],[-62.115,-13.15],[-62.113,-13.165],[-62.112,-13.232],[-62.109,-13.249],[-62.099,-13.263],[-62.078,-13.278],[-62.034,-13.326],[-62.02,-13.333],[-62.019,-13.337],[-62.003,-13.36],[-61.998,-13.364],[-61.975,-13.374],[-61.958,-13.385],[-61.91,-13.432],[-61.899,-13.439],[-61.88,-13.449],[-61.872,-13.456],[-61.869,-13.464],[-61.848,-13.531],[-61.836,-13.541],[-61.814,-13.544],[-61.794,-13.54],[-61.774,-13.533],[-61.754,-13.53],[-61.735,-13.538],[-61.716,-13.527],[-61.693,-13.518],[-61.668,-13.513],[-61.597,-13.506],[-61.593,-13.507],[-61.594,-13.507],[-62.129,-13.809],[-63.013,-14.305],[-63.57,-14.619],[-63.916,-14.716],[-63.963,-14.737],[-63.94,-14.832],[-63.94,-14.948],[-63.934,-15],[-63.935,-15.028],[-63.939,-15.047],[-63.945,-15.062],[-63.95,-15.086],[-63.939,-15.134],[-63.932,-15.149],[-63.9,-15.198],[-63.863,-15.298],[-63.758,-15.456],[-63.749,-15.466],[-63.739,-15.472],[-63.714,-15.481],[-63.701,-15.489],[-63.688,-15.505],[-63.682,-15.518],[-63.677,-15.567],[-63.67,-15.58],[-63.624,-15.627],[-63.612,-15.634],[-63.601,-15.637],[-63.59,-15.638],[-63.579,-15.643],[-63.549,-15.667],[-63.538,-15.674],[-63.506,-15.688],[-63.499,-15.692],[-63.49,-15.701],[-63.48,-15.714],[-63.467,-15.739],[-63.446,-15.765],[-63.441,-15.774],[-63.439,-15.784],[-63.438,-15.809],[-63.436,-15.824],[-63.43,-15.844],[-63.421,-15.857],[-63.395,-15.885],[-63.385,-15.891],[-63.373,-15.896],[-63.338,-15.905],[-63.327,-15.909],[-63.317,-15.914],[-63.321,-15.917],[-63.341,-15.918],[-64.658,-15.85],[-64.67,-15.85],[-64.684,-15.843],[-64.783,-15.863],[-65.164,-15.907],[-65.194,-15.927],[-65.242,-16.007],[-65.273,-16.072],[-65.277,-16.086],[-65.276,-16.117],[-65.331,-16.279],[-65.346,-16.307],[-65.36,-16.324],[-65.456,-16.369],[-65.804,-16.466],[-65.837,-16.469],[-65.886,-16.466],[-65.992,-16.445],[-66.07,-16.42],[-66.12,-16.397],[-66.218,-16.334],[-66.239,-16.317],[-66.403,-16.148],[-66.461,-16.074],[-66.466,-16.064],[-66.478,-16.034],[-66.493,-15.991],[-66.504,-15.972],[-66.784,-15.699],[-66.826,-15.659],[-67.026,-15.477],[-67.047,-15.44],[-67.056,-15.432],[-67.062,-15.427],[-67.083,-15.419],[-67.097,-15.411],[-67.107,-15.4],[-67.115,-15.389],[-67.119,-15.378],[-67.12,-15.368],[-67.12,-15.358],[-67.112,-15.316],[-67.112,-15.304],[-67.116,-15.29],[-67.179,-15.165],[-67.206,-15.126],[-67.23,-15.099],[-67.243,-15.087],[-67.252,-15.073],[-67.271,-15.036],[-67.281,-15.024],[-67.293,-15.015],[-67.305,-15.013],[-67.317,-15.013],[-67.34,-15.016],[-67.353,-15.015],[-67.364,-15.012],[-67.374,-15.007],[-67.388,-14.996],[-67.403,-14.987],[-67.418,-14.968],[-67.43,-14.932],[-67.433,-14.912],[-67.434,-14.896],[-67.431,-14.875],[-67.426,-14.855],[-67.422,-14.817],[-67.423,-14.776],[-67.428,-14.754],[-67.436,-14.738],[-67.485,-14.695],[-67.504,-14.669],[-67.531,-14.607],[-67.536,-14.599],[-67.533,-14.591],[-67.528,-14.581],[-67.52,-14.573],[-67.505,-14.559],[-67.498,-14.551],[-67.489,-14.531],[-67.488,-14.512],[-67.494,-14.492],[-67.506,-14.474],[-67.528,-14.453],[-67.532,-14.443],[-67.533,-14.437],[-67.533,-14.424],[-67.534,-14.418],[-67.537,-14.415],[-67.544,-14.409],[-67.546,-14.406],[-67.561,-14.369],[-67.566,-14.349],[-67.568,-14.33],[-67.564,-14.312],[-67.553,-14.303],[-67.521,-14.289],[-67.508,-14.275],[-67.504,-14.259],[-67.505,-14.242],[-67.515,-14.209],[-67.511,-14.149],[-67.522,-14.071],[-67.523,-14.059],[-67.535,-14.014],[-67.536,-13.998],[-67.509,-13.88],[-67.501,-13.865],[-67.492,-13.853],[-67.483,-13.837],[-67.48,-13.817],[-67.494,-13.791],[-67.493,-13.771],[-67.481,-13.731],[-67.472,-13.711],[-67.459,-13.698],[-67.443,-13.688],[-67.431,-13.675],[-67.411,-13.643],[-67.37,-13.591],[-67.361,-13.574],[-67.361,-13.554],[-67.378,-13.529],[-67.395,-13.437],[-67.396,-13.402],[-67.38,-13.369],[-67.337,-13.304],[-67.322,-13.288],[-67.287,-13.262],[-67.206,-13.168],[-67.202,-13.159],[-67.198,-13.139],[-67.193,-13.13],[-67.186,-13.123],[-67.167,-13.114],[-67.159,-13.107],[-67.12,-13.037],[-67.103,-13.022],[-67.083,-13.018],[-67.066,-13.02],[-67.052,-13.016],[-67.004,-12.901],[-66.949,-12.671],[-66.946,-12.645],[-66.951,-12.624],[-66.967,-12.582],[-66.94,-12.546],[-66.928,-12.525],[-66.927,-12.509],[-66.935,-12.494],[-66.937,-12.481],[-66.938,-12.42],[-66.936,-12.4],[-66.928,-12.382],[-66.913,-12.361],[-66.905,-12.342],[-66.909,-12.325],[-66.916,-12.308],[-66.919,-12.289],[-66.912,-12.267],[-66.899,-12.245],[-66.889,-12.223],[-66.892,-12.199],[-66.899,-12.174],[-66.897,-12.152],[-66.882,-12.106],[-66.877,-12.065],[-66.883,-12.015],[-66.897,-11.966],[-66.918,-11.929],[-66.933,-11.912],[-66.939,-11.907],[-66.943,-11.907],[-66.948,-11.911],[-66.955,-11.913],[-66.961,-11.911],[-66.97,-11.894],[-66.975,-11.869],[-66.971,-11.849],[-66.954,-11.845],[-66.936,-11.847],[-66.918,-11.842],[-66.901,-11.831],[-66.888,-11.818],[-66.877,-11.796],[-66.882,-11.782],[-66.894,-11.77],[-66.905,-11.755],[-66.905,-11.735],[-66.892,-11.727],[-66.872,-11.726],[-66.855,-11.729],[-66.836,-11.728],[-66.822,-11.715],[-66.811,-11.699],[-66.797,-11.686],[-66.78,-11.681],[-66.745,-11.682],[-66.729,-11.675],[-66.715,-11.656],[-66.714,-11.633],[-66.721,-11.584],[-66.715,-11.565],[-66.691,-11.538],[-66.688,-11.519],[-66.691,-11.494],[-66.689,-11.469],[-66.679,-11.449],[-66.656,-11.44],[-66.565,-11.435],[-66.497,-11.442],[-66.471,-11.434],[-66.417,-11.401],[-66.348,-11.394],[-66.317,-11.386],[-66.312,-11.365],[-66.309,-11.344],[-66.255,-11.332],[-66.243,-11.313],[-66.25,-11.299],[-66.261,-11.29],[-66.268,-11.277],[-66.264,-11.254],[-66.255,-11.238],[-66.219,-11.193],[-66.212,-11.175],[-66.212,-11.157],[-66.221,-11.121],[-66.218,-11.098],[-66.205,-11.094],[-66.188,-11.099],[-66.171,-11.101],[-66.147,-11.081],[-66.142,-11.048],[-66.141,-11.012],[-66.131,-10.982],[-66.122,-10.968],[-66.106,-10.979],[-66.09,-10.97],[-66.078,-10.951],[-66.066,-10.911],[-66.053,-10.888],[-66.045,-10.868],[-66.053,-10.851],[-66.064,-10.85],[-66.084,-10.858],[-66.095,-10.858],[-66.102,-10.854],[-66.108,-10.847],[-66.108,-10.841],[-66.076,-10.831],[-66.035,-10.798],[-66.012,-10.789],[-65.974,-10.796],[-65.93,-10.81],[-65.895,-10.812],[-65.882,-10.783],[-65.887,-10.765],[-65.898,-10.747],[-65.914,-10.733],[-65.933,-10.728],[-65.942,-10.719],[-65.936,-10.701],[-65.922,-10.682],[-65.909,-10.674],[-65.898,-10.68],[-65.885,-10.693],[-65.873,-10.708],[-65.868,-10.718],[-65.856,-10.723],[-65.829,-10.717],[-65.786,-10.701],[-65.763,-10.684],[-65.753,-10.667],[-65.752,-10.647],[-65.752,-10.622],[-65.757,-10.6],[-65.764,-10.58],[-65.761,-10.564],[-65.738,-10.557],[-65.717,-10.561],[-65.696,-10.569],[-65.674,-10.572],[-65.652,-10.56],[-65.632,-10.542],[-65.613,-10.528],[-65.526,-10.487],[-65.519,-10.478],[-65.512,-10.458],[-65.497,-10.436],[-65.479,-10.417],[-65.464,-10.406],[-65.448,-10.401],[-65.395,-10.392]]]}},{"type":"Feature","id":"BO-C","properties":{"id":"BO-C","countryCode":"BO","isoSubdivision":"BO-C","name":"Cochabamba","name_en":"Cochabamba","name_ko":"코차밤바","type":"Department","labelLongitude":-65.614,"labelLatitude":-17.288,"minZoom":6.6},"geometry":{"type":"Polygon","coordinates":[[[-66.99,-17.551],[-66.861,-17.485],[-66.849,-17.477],[-66.842,-17.468],[-66.845,-17.454],[-66.85,-17.445],[-66.86,-17.436],[-66.866,-17.425],[-66.87,-17.415],[-66.85,-17.377],[-66.865,-17.324],[-66.873,-17.315],[-66.881,-17.302],[-66.885,-17.292],[-66.886,-17.279],[-66.882,-17.248],[-66.897,-17.175],[-66.903,-17.16],[-66.91,-17.147],[-66.923,-17.128],[-66.938,-17.113],[-66.949,-17.096],[-66.995,-17.079],[-67.01,-17.065],[-67.015,-17.047],[-67.012,-17.026],[-67.004,-17.005],[-66.999,-16.997],[-66.982,-16.975],[-66.978,-16.964],[-66.978,-16.955],[-66.98,-16.935],[-66.978,-16.915],[-66.971,-16.897],[-66.952,-16.863],[-66.932,-16.835],[-66.908,-16.824],[-66.848,-16.817],[-66.825,-16.809],[-66.798,-16.795],[-66.775,-16.778],[-66.761,-16.758],[-66.758,-16.741],[-66.759,-16.725],[-66.767,-16.678],[-66.767,-16.665],[-66.766,-16.59],[-66.775,-16.561],[-66.805,-16.51],[-66.816,-16.483],[-66.818,-16.458],[-66.804,-16.407],[-66.8,-16.283],[-66.806,-16.269],[-66.827,-16.243],[-66.835,-16.229],[-66.839,-16.226],[-66.871,-16.215],[-66.872,-16.209],[-66.87,-16.193],[-66.872,-16.171],[-66.883,-16.154],[-66.912,-16.123],[-66.928,-16.098],[-66.946,-16.075],[-66.949,-16.068],[-66.95,-16.058],[-66.94,-15.984],[-66.941,-15.959],[-66.944,-15.935],[-66.944,-15.924],[-66.941,-15.912],[-66.934,-15.9],[-66.926,-15.89],[-66.92,-15.879],[-66.918,-15.864],[-66.92,-15.857],[-66.924,-15.854],[-66.928,-15.851],[-66.932,-15.848],[-66.934,-15.845],[-66.904,-15.813],[-66.868,-15.768],[-66.784,-15.699],[-66.504,-15.972],[-66.493,-15.991],[-66.478,-16.034],[-66.466,-16.064],[-66.461,-16.074],[-66.403,-16.148],[-66.239,-16.317],[-66.218,-16.334],[-66.12,-16.397],[-66.07,-16.42],[-65.992,-16.445],[-65.886,-16.466],[-65.837,-16.469],[-65.804,-16.466],[-65.456,-16.369],[-65.36,-16.324],[-65.346,-16.307],[-65.331,-16.279],[-65.276,-16.117],[-65.277,-16.086],[-65.273,-16.072],[-65.242,-16.007],[-65.194,-15.927],[-65.164,-15.907],[-64.783,-15.863],[-64.684,-15.843],[-64.67,-15.85],[-64.658,-15.85],[-64.664,-15.872],[-64.676,-15.875],[-64.704,-15.875],[-64.681,-15.895],[-64.675,-15.906],[-64.676,-15.922],[-64.69,-15.916],[-64.704,-15.912],[-64.717,-15.913],[-64.731,-15.922],[-64.714,-15.935],[-64.7,-15.951],[-64.689,-15.97],[-64.682,-15.991],[-64.682,-16.003],[-64.684,-16.01],[-64.688,-16.015],[-64.69,-16.022],[-64.69,-16.057],[-64.685,-16.077],[-64.666,-16.103],[-64.662,-16.118],[-64.666,-16.134],[-64.674,-16.151],[-64.677,-16.169],[-64.669,-16.19],[-64.677,-16.21],[-64.676,-16.228],[-64.674,-16.245],[-64.676,-16.265],[-64.698,-16.293],[-64.7,-16.305],[-64.676,-16.306],[-64.694,-16.335],[-64.696,-16.344],[-64.694,-16.352],[-64.685,-16.365],[-64.682,-16.374],[-64.684,-16.388],[-64.715,-16.458],[-64.717,-16.461],[-64.718,-16.463],[-64.723,-16.491],[-64.732,-16.5],[-64.755,-16.516],[-64.765,-16.526],[-64.773,-16.54],[-64.78,-16.556],[-64.782,-16.572],[-64.778,-16.587],[-64.771,-16.595],[-64.762,-16.598],[-64.754,-16.602],[-64.751,-16.611],[-64.754,-16.618],[-64.79,-16.676],[-64.795,-16.699],[-64.807,-16.717],[-64.808,-16.73],[-64.803,-16.739],[-64.788,-16.757],[-64.782,-16.766],[-64.78,-16.775],[-64.778,-16.794],[-64.756,-16.874],[-64.742,-16.898],[-64.647,-16.996],[-64.624,-17.008],[-64.602,-17.016],[-64.592,-17.02],[-64.582,-17.027],[-64.519,-17.092],[-64.503,-17.103],[-64.445,-17.137],[-64.418,-17.145],[-64.409,-17.15],[-64.376,-17.175],[-64.29,-17.268],[-64.244,-17.304],[-64.238,-17.311],[-64.234,-17.319],[-64.224,-17.344],[-64.216,-17.36],[-64.212,-17.379],[-64.217,-17.397],[-64.225,-17.416],[-64.241,-17.417],[-64.259,-17.42],[-64.271,-17.416],[-64.279,-17.416],[-64.301,-17.422],[-64.31,-17.422],[-64.33,-17.42],[-64.34,-17.421],[-64.351,-17.425],[-64.388,-17.449],[-64.396,-17.456],[-64.401,-17.468],[-64.401,-17.478],[-64.4,-17.501],[-64.402,-17.511],[-64.406,-17.52],[-64.564,-17.746],[-64.585,-17.77],[-64.668,-17.849],[-64.69,-17.867],[-64.704,-17.883],[-64.711,-17.911],[-64.706,-17.93],[-64.7,-17.94],[-64.655,-17.986],[-64.641,-18.005],[-64.608,-18.066],[-64.589,-18.115],[-64.575,-18.13],[-64.567,-18.137],[-64.553,-18.145],[-64.547,-18.153],[-64.538,-18.164],[-64.525,-18.188],[-64.504,-18.214],[-64.488,-18.24],[-64.478,-18.28],[-64.463,-18.306],[-64.449,-18.315],[-64.444,-18.32],[-64.441,-18.326],[-64.441,-18.337],[-64.443,-18.344],[-64.445,-18.351],[-64.446,-18.356],[-64.444,-18.361],[-64.432,-18.371],[-64.429,-18.377],[-64.43,-18.393],[-64.43,-18.4],[-64.427,-18.409],[-64.42,-18.421],[-64.415,-18.428],[-64.41,-18.431],[-64.406,-18.433],[-64.388,-18.439],[-64.377,-18.445],[-64.362,-18.455],[-64.346,-18.472],[-64.336,-18.478],[-64.314,-18.489],[-64.309,-18.492],[-64.305,-18.496],[-64.302,-18.5],[-64.301,-18.505],[-64.299,-18.512],[-64.302,-18.552],[-64.301,-18.562],[-64.3,-18.569],[-64.293,-18.585],[-64.293,-18.591],[-64.297,-18.598],[-64.323,-18.627],[-64.34,-18.657],[-64.35,-18.648],[-64.355,-18.64],[-64.365,-18.616],[-64.37,-18.609],[-64.391,-18.602],[-64.414,-18.61],[-64.482,-18.662],[-64.494,-18.666],[-64.51,-18.669],[-64.561,-18.669],[-64.575,-18.667],[-64.584,-18.661],[-64.6,-18.641],[-64.608,-18.633],[-64.628,-18.618],[-64.636,-18.609],[-64.651,-18.58],[-64.652,-18.575],[-64.665,-18.571],[-64.673,-18.562],[-64.685,-18.54],[-64.703,-18.528],[-64.751,-18.529],[-64.772,-18.521],[-64.778,-18.513],[-64.789,-18.496],[-64.797,-18.489],[-64.816,-18.485],[-64.839,-18.487],[-64.91,-18.507],[-64.965,-18.531],[-65.002,-18.556],[-65.025,-18.576],[-65.035,-18.588],[-65.042,-18.602],[-65.049,-18.631],[-65.055,-18.644],[-65.067,-18.655],[-65.08,-18.656],[-65.094,-18.651],[-65.139,-18.621],[-65.157,-18.614],[-65.175,-18.612],[-65.214,-18.619],[-65.231,-18.616],[-65.245,-18.601],[-65.247,-18.581],[-65.247,-18.554],[-65.25,-18.53],[-65.262,-18.52],[-65.273,-18.516],[-65.284,-18.507],[-65.294,-18.495],[-65.3,-18.486],[-65.306,-18.452],[-65.317,-18.449],[-65.328,-18.452],[-65.337,-18.452],[-65.341,-18.441],[-65.342,-18.433],[-65.344,-18.423],[-65.347,-18.414],[-65.351,-18.41],[-65.361,-18.408],[-65.395,-18.39],[-65.404,-18.379],[-65.409,-18.376],[-65.416,-18.374],[-65.431,-18.371],[-65.436,-18.369],[-65.467,-18.339],[-65.51,-18.267],[-65.546,-18.239],[-65.563,-18.23],[-65.581,-18.218],[-65.595,-18.204],[-65.607,-18.175],[-65.618,-18.157],[-65.642,-18.129],[-65.678,-18.109],[-65.696,-18.095],[-65.703,-18.078],[-65.765,-18.026],[-65.825,-17.994],[-65.843,-17.968],[-65.865,-17.968],[-65.931,-17.984],[-65.94,-17.981],[-65.947,-17.957],[-65.953,-17.947],[-65.963,-17.94],[-65.974,-17.938],[-65.986,-17.929],[-66.001,-17.907],[-66.013,-17.882],[-66.019,-17.862],[-66.039,-17.862],[-66.049,-17.859],[-66.061,-17.857],[-66.095,-17.855],[-66.136,-17.857],[-66.162,-17.863],[-66.175,-17.867],[-66.256,-17.921],[-66.278,-17.938],[-66.336,-17.983],[-66.346,-17.989],[-66.356,-17.99],[-66.367,-17.99],[-66.418,-17.982],[-66.478,-17.984],[-66.517,-17.98],[-66.525,-17.978],[-66.534,-17.977],[-66.557,-17.979],[-66.625,-17.991],[-66.68,-17.864],[-66.756,-17.751],[-66.808,-17.688],[-66.826,-17.671],[-66.99,-17.551]]]}},{"type":"Feature","id":"BO-H","properties":{"id":"BO-H","countryCode":"BO","isoSubdivision":"BO-H","name":"Chuquisaca","name_en":"Chuquisaca","name_ko":"추키사카","type":"Department","labelLongitude":-63.953,"labelLatitude":-20.085,"minZoom":6.6},"geometry":{"type":"Polygon","coordinates":[[[-62.211,-20.471],[-62.232,-20.501],[-62.269,-20.553],[-62.277,-20.58],[-62.276,-20.671],[-62.275,-20.759],[-62.274,-20.855],[-62.272,-21],[-63.869,-20.999],[-63.962,-20.997],[-63.983,-20.997],[-63.983,-20.994],[-64.003,-20.976],[-64.01,-20.966],[-64.008,-20.956],[-64,-20.944],[-64.008,-20.942],[-64.019,-20.944],[-64.025,-20.946],[-64.054,-20.945],[-64.062,-20.939],[-64.066,-20.921],[-64.074,-20.914],[-64.094,-20.91],[-64.116,-20.91],[-64.131,-20.915],[-64.143,-20.916],[-64.156,-20.908],[-64.169,-20.895],[-64.175,-20.891],[-64.183,-20.909],[-64.184,-20.914],[-64.186,-20.924],[-64.187,-20.948],[-64.181,-21.008],[-64.181,-21.013],[-64.183,-21.019],[-64.186,-21.026],[-64.193,-21.034],[-64.195,-21.041],[-64.196,-21.046],[-64.197,-21.05],[-64.202,-21.059],[-64.202,-21.064],[-64.197,-21.079],[-64.197,-21.084],[-64.198,-21.104],[-64.199,-21.11],[-64.201,-21.116],[-64.203,-21.12],[-64.206,-21.125],[-64.21,-21.129],[-64.216,-21.135],[-64.221,-21.138],[-64.226,-21.141],[-64.232,-21.142],[-64.241,-21.141],[-64.268,-21.133],[-64.28,-21.132],[-64.341,-21.138],[-64.359,-21.135],[-64.396,-21.12],[-64.432,-21.091],[-64.441,-21.085],[-64.446,-21.083],[-64.458,-21.081],[-64.465,-21.081],[-64.484,-21.083],[-64.515,-21.091],[-64.524,-21.091],[-64.531,-21.09],[-64.536,-21.087],[-64.54,-21.084],[-64.543,-21.081],[-64.546,-21.076],[-64.57,-21.025],[-64.573,-21.021],[-64.592,-21],[-64.596,-20.994],[-64.603,-20.987],[-64.607,-20.984],[-64.626,-20.974],[-64.63,-20.971],[-64.633,-20.967],[-64.638,-20.952],[-64.641,-20.947],[-64.644,-20.944],[-64.649,-20.942],[-64.655,-20.942],[-64.667,-20.942],[-64.673,-20.94],[-64.679,-20.939],[-64.692,-20.932],[-64.697,-20.93],[-64.703,-20.929],[-64.71,-20.931],[-64.717,-20.936],[-64.727,-20.949],[-64.736,-20.964],[-64.75,-20.986],[-64.756,-21],[-64.758,-21.013],[-64.758,-21.025],[-64.758,-21.031],[-64.759,-21.036],[-64.767,-21.05],[-64.769,-21.055],[-64.771,-21.067],[-64.775,-21.074],[-64.782,-21.08],[-64.799,-21.087],[-64.817,-21.092],[-64.83,-21.098],[-64.835,-21.097],[-64.839,-21.094],[-64.842,-21.091],[-64.846,-21.087],[-64.85,-21.084],[-64.865,-21.077],[-64.869,-21.074],[-64.873,-21.071],[-64.876,-21.067],[-64.878,-21.063],[-64.881,-21.059],[-64.885,-21.056],[-64.889,-21.053],[-64.894,-21.051],[-64.906,-21.047],[-64.91,-21.044],[-64.912,-21.039],[-64.913,-21.034],[-64.915,-21.029],[-64.918,-21.025],[-64.922,-21.022],[-64.927,-21.02],[-64.933,-21.019],[-64.946,-21.02],[-64.952,-21.02],[-64.957,-21.018],[-64.961,-21.015],[-64.969,-21.009],[-64.973,-21.006],[-64.978,-21.005],[-64.985,-21.007],[-64.994,-21.01],[-64.999,-21.011],[-65.003,-21.01],[-65.006,-21.007],[-65.012,-21],[-65.013,-21],[-65.02,-20.999],[-65.027,-21.001],[-65.031,-21.001],[-65.034,-21],[-65.035,-21],[-65.066,-20.964],[-65.074,-20.957],[-65.078,-20.955],[-65.084,-20.955],[-65.09,-20.957],[-65.104,-20.962],[-65.11,-20.962],[-65.116,-20.962],[-65.133,-20.957],[-65.138,-20.954],[-65.146,-20.948],[-65.151,-20.946],[-65.157,-20.946],[-65.162,-20.948],[-65.168,-20.956],[-65.172,-20.962],[-65.174,-20.968],[-65.187,-21.151],[-65.204,-21.207],[-65.205,-21.217],[-65.205,-21.257],[-65.203,-21.277],[-65.231,-21.478],[-65.235,-21.535],[-65.317,-21.478],[-65.458,-21.335],[-65.476,-21.297],[-65.477,-21.292],[-65.478,-21.267],[-65.467,-21.163],[-65.468,-21.157],[-65.471,-21.147],[-65.473,-21.135],[-65.474,-21.122],[-65.472,-21.101],[-65.429,-20.963],[-65.423,-20.837],[-65.396,-20.795],[-65.389,-20.777],[-65.377,-20.72],[-65.372,-20.705],[-65.296,-20.534],[-65.366,-20.269],[-65.369,-20.248],[-65.37,-20.213],[-65.369,-20.203],[-65.359,-20.17],[-65.354,-20.16],[-65.348,-20.152],[-65.342,-20.144],[-65.315,-20.109],[-65.311,-20.092],[-65.316,-20.075],[-65.317,-20.07],[-65.317,-20.048],[-65.313,-20.042],[-65.308,-20.039],[-65.297,-20.036],[-65.292,-20.034],[-65.288,-20.031],[-65.271,-20.015],[-65.251,-20],[-65.248,-19.998],[-65.228,-19.991],[-65.198,-19.987],[-65.176,-19.981],[-65.073,-19.973],[-65.056,-19.969],[-64.868,-19.868],[-64.79,-19.79],[-64.756,-19.746],[-64.747,-19.732],[-64.755,-19.712],[-64.776,-19.672],[-64.861,-19.567],[-64.871,-19.547],[-64.876,-19.528],[-64.878,-19.509],[-64.875,-19.488],[-64.869,-19.472],[-64.868,-19.463],[-64.869,-19.454],[-64.872,-19.448],[-64.879,-19.44],[-64.886,-19.434],[-64.888,-19.434],[-64.893,-19.413],[-64.904,-19.391],[-64.92,-19.371],[-64.937,-19.357],[-64.964,-19.35],[-64.994,-19.353],[-65.071,-19.377],[-65.094,-19.377],[-65.096,-19.374],[-65.099,-19.37],[-65.104,-19.369],[-65.111,-19.373],[-65.131,-19.379],[-65.155,-19.371],[-65.216,-19.339],[-65.232,-19.327],[-65.248,-19.318],[-65.293,-19.31],[-65.309,-19.3],[-65.324,-19.286],[-65.373,-19.254],[-65.384,-19.243],[-65.406,-19.211],[-65.433,-19.192],[-65.447,-19.179],[-65.453,-19.167],[-65.457,-19.141],[-65.462,-19.128],[-65.468,-19.12],[-65.474,-19.114],[-65.506,-19.094],[-65.522,-19.067],[-65.541,-19.019],[-65.541,-19.015],[-65.541,-19.013],[-65.54,-19.009],[-65.538,-19.005],[-65.535,-19],[-65.519,-18.973],[-65.493,-18.934],[-65.486,-18.926],[-65.474,-18.916],[-65.471,-18.91],[-65.47,-18.905],[-65.472,-18.901],[-65.474,-18.89],[-65.475,-18.877],[-65.477,-18.871],[-65.479,-18.865],[-65.481,-18.86],[-65.484,-18.855],[-65.492,-18.848],[-65.5,-18.841],[-65.502,-18.838],[-65.505,-18.832],[-65.507,-18.822],[-65.506,-18.813],[-65.504,-18.807],[-65.502,-18.805],[-65.466,-18.775],[-65.451,-18.765],[-65.444,-18.76],[-65.437,-18.751],[-65.427,-18.734],[-65.423,-18.723],[-65.422,-18.712],[-65.424,-18.702],[-65.426,-18.696],[-65.43,-18.692],[-65.435,-18.688],[-65.441,-18.686],[-65.447,-18.684],[-65.452,-18.683],[-65.457,-18.683],[-65.501,-18.693],[-65.521,-18.7],[-65.63,-18.752],[-65.635,-18.753],[-65.64,-18.754],[-65.645,-18.753],[-65.652,-18.749],[-65.655,-18.744],[-65.656,-18.737],[-65.655,-18.731],[-65.652,-18.725],[-65.648,-18.72],[-65.644,-18.716],[-65.621,-18.697],[-65.613,-18.688],[-65.609,-18.679],[-65.608,-18.674],[-65.629,-18.566],[-65.631,-18.524],[-65.624,-18.476],[-65.625,-18.466],[-65.629,-18.458],[-65.639,-18.451],[-65.661,-18.442],[-65.667,-18.437],[-65.674,-18.432],[-65.684,-18.421],[-65.687,-18.415],[-65.688,-18.409],[-65.689,-18.4],[-65.694,-18.364],[-65.692,-18.355],[-65.689,-18.351],[-65.684,-18.348],[-65.678,-18.346],[-65.673,-18.345],[-65.668,-18.347],[-65.666,-18.351],[-65.664,-18.358],[-65.661,-18.362],[-65.657,-18.364],[-65.645,-18.366],[-65.639,-18.368],[-65.634,-18.371],[-65.629,-18.374],[-65.622,-18.375],[-65.593,-18.374],[-65.585,-18.375],[-65.58,-18.377],[-65.575,-18.38],[-65.572,-18.384],[-65.57,-18.388],[-65.567,-18.394],[-65.564,-18.399],[-65.56,-18.403],[-65.554,-18.405],[-65.548,-18.405],[-65.543,-18.404],[-65.515,-18.391],[-65.508,-18.389],[-65.503,-18.388],[-65.501,-18.389],[-65.499,-18.39],[-65.491,-18.394],[-65.415,-18.418],[-65.392,-18.428],[-65.377,-18.43],[-65.344,-18.423],[-65.342,-18.433],[-65.341,-18.441],[-65.337,-18.452],[-65.328,-18.452],[-65.317,-18.449],[-65.306,-18.452],[-65.3,-18.486],[-65.294,-18.495],[-65.284,-18.507],[-65.273,-18.516],[-65.262,-18.52],[-65.25,-18.53],[-65.247,-18.554],[-65.247,-18.581],[-65.245,-18.601],[-65.231,-18.616],[-65.214,-18.619],[-65.175,-18.612],[-65.157,-18.614],[-65.139,-18.621],[-65.094,-18.651],[-65.08,-18.656],[-65.067,-18.655],[-65.055,-18.644],[-65.049,-18.631],[-65.042,-18.602],[-65.035,-18.588],[-65.025,-18.576],[-65.002,-18.556],[-64.965,-18.531],[-64.91,-18.507],[-64.839,-18.487],[-64.816,-18.485],[-64.797,-18.489],[-64.789,-18.496],[-64.778,-18.513],[-64.772,-18.521],[-64.751,-18.529],[-64.703,-18.528],[-64.685,-18.54],[-64.673,-18.562],[-64.665,-18.571],[-64.652,-18.575],[-64.651,-18.58],[-64.636,-18.609],[-64.628,-18.618],[-64.608,-18.633],[-64.6,-18.641],[-64.584,-18.661],[-64.575,-18.667],[-64.561,-18.669],[-64.51,-18.669],[-64.494,-18.666],[-64.482,-18.662],[-64.414,-18.61],[-64.391,-18.602],[-64.37,-18.609],[-64.365,-18.616],[-64.355,-18.64],[-64.35,-18.648],[-64.34,-18.657],[-64.33,-18.667],[-64.32,-18.679],[-64.316,-18.691],[-64.317,-18.704],[-64.319,-18.719],[-64.319,-18.735],[-64.316,-18.748],[-64.302,-18.774],[-64.296,-18.787],[-64.289,-18.814],[-64.282,-18.826],[-64.261,-18.843],[-64.24,-18.853],[-64.221,-18.866],[-64.206,-18.888],[-64.203,-18.901],[-64.202,-18.915],[-64.199,-18.929],[-64.192,-18.939],[-64.18,-18.946],[-64.165,-18.949],[-64.136,-18.951],[-64.12,-18.955],[-64.111,-18.965],[-64.103,-18.976],[-64.092,-18.987],[-64.084,-18.989],[-64.077,-18.99],[-64.071,-18.992],[-64.065,-19],[-64.023,-19.138],[-64.021,-19.15],[-64.016,-19.161],[-64.007,-19.169],[-63.992,-19.173],[-63.973,-19.174],[-63.955,-19.173],[-63.94,-19.169],[-63.927,-19.163],[-63.918,-19.154],[-63.911,-19.143],[-63.906,-19.129],[-63.897,-19.056],[-63.885,-19.035],[-63.873,-19.026],[-63.861,-19.026],[-63.834,-19.034],[-63.813,-19.035],[-63.751,-19.028],[-63.741,-19.044],[-63.765,-19.211],[-63.768,-19.271],[-63.725,-19.963],[-63.722,-19.973],[-63.709,-20],[-63.707,-20.004],[-63.665,-20.407],[-63.652,-20.45],[-63.629,-20.452],[-63.567,-20.453],[-63.521,-20.463],[-63.511,-20.463],[-63.502,-20.46],[-63.497,-20.458],[-63.491,-20.452],[-63.474,-20.428],[-63.467,-20.42],[-63.459,-20.415],[-63.449,-20.412],[-63.429,-20.409],[-63.421,-20.406],[-63.415,-20.403],[-63.402,-20.393],[-63.396,-20.386],[-63.384,-20.369],[-63.377,-20.361],[-63.368,-20.357],[-63.356,-20.367],[-63.342,-20.387],[-63.312,-20.456],[-63.303,-20.469],[-63.295,-20.473],[-63.286,-20.475],[-62.211,-20.471]]]}},{"type":"Feature","id":"BO-L","properties":{"id":"BO-L","countryCode":"BO","isoSubdivision":"BO-L","name":"La Paz","name_en":"La Paz","name_ko":"라파스","type":"Department","labelLongitude":-68.213,"labelLatitude":-14.833,"minZoom":6.6},"geometry":{"type":"Polygon","coordinates":[[[-69.29,-17.977],[-69.302,-17.976],[-69.318,-17.952],[-69.327,-17.915],[-69.328,-17.842],[-69.334,-17.806],[-69.359,-17.759],[-69.395,-17.721],[-69.476,-17.652],[-69.497,-17.621],[-69.506,-17.585],[-69.51,-17.507],[-69.51,-17.505],[-69.508,-17.434],[-69.511,-17.399],[-69.523,-17.369],[-69.537,-17.351],[-69.557,-17.331],[-69.597,-17.3],[-69.613,-17.295],[-69.664,-17.289],[-69.666,-17.288],[-69.649,-17.263],[-69.634,-17.207],[-69.623,-17.186],[-69.618,-17.184],[-69.601,-17.182],[-69.595,-17.18],[-69.541,-17.132],[-69.51,-17.112],[-69.483,-17.102],[-69.454,-17.097],[-69.427,-17.087],[-69.406,-17.063],[-69.401,-17.047],[-69.406,-17.041],[-69.413,-17.038],[-69.417,-17.032],[-69.414,-17.022],[-69.407,-17.016],[-69.364,-16.991],[-69.352,-16.978],[-69.326,-16.922],[-69.224,-16.818],[-69.211,-16.797],[-69.192,-16.743],[-69.182,-16.729],[-69.166,-16.719],[-69.131,-16.716],[-69.112,-16.711],[-69.054,-16.682],[-69.037,-16.67],[-69.021,-16.649],[-69.008,-16.634],[-69.035,-16.598],[-69.04,-16.581],[-69.038,-16.55],[-69.039,-16.492],[-69.037,-16.471],[-69.028,-16.454],[-69.002,-16.423],[-68.968,-16.406],[-68.856,-16.363],[-68.833,-16.329],[-68.844,-16.302],[-68.867,-16.287],[-68.919,-16.267],[-68.96,-16.223],[-68.982,-16.21],[-69.01,-16.219],[-69.043,-16.209],[-69.054,-16.208],[-69.065,-16.212],[-69.084,-16.227],[-69.095,-16.231],[-69.121,-16.231],[-69.145,-16.223],[-69.166,-16.21],[-69.185,-16.195],[-69.22,-16.153],[-69.242,-16.098],[-69.285,-15.995],[-69.327,-15.892],[-69.37,-15.789],[-69.412,-15.686],[-69.424,-15.656],[-69.43,-15.626],[-69.421,-15.596],[-69.356,-15.501],[-69.351,-15.482],[-69.349,-15.462],[-69.343,-15.442],[-69.33,-15.424],[-69.32,-15.419],[-69.293,-15.41],[-69.286,-15.405],[-69.285,-15.397],[-69.297,-15.367],[-69.291,-15.351],[-69.275,-15.33],[-69.256,-15.313],[-69.223,-15.302],[-69.209,-15.264],[-69.19,-15.262],[-69.166,-15.264],[-69.15,-15.252],[-69.148,-15.233],[-69.172,-15.211],[-69.196,-15.177],[-69.213,-15.161],[-69.272,-15.118],[-69.289,-15.102],[-69.346,-15.016],[-69.363,-15.001],[-69.384,-14.982],[-69.391,-14.964],[-69.386,-14.946],[-69.37,-14.908],[-69.368,-14.901],[-69.372,-14.819],[-69.371,-14.802],[-69.361,-14.788],[-69.339,-14.775],[-69.284,-14.76],[-69.268,-14.751],[-69.254,-14.722],[-69.247,-14.594],[-69.235,-14.574],[-69.215,-14.572],[-69.192,-14.577],[-69.17,-14.578],[-69.165,-14.566],[-69.167,-14.52],[-69.164,-14.503],[-69.158,-14.498],[-69.141,-14.494],[-69.134,-14.491],[-69.095,-14.446],[-69.075,-14.432],[-69.01,-14.397],[-68.99,-14.379],[-68.995,-14.359],[-69.008,-14.339],[-69.016,-14.321],[-69.017,-14.282],[-69.016,-14.263],[-69.01,-14.246],[-68.985,-14.228],[-68.951,-14.22],[-68.884,-14.211],[-68.864,-14.191],[-68.869,-14.156],[-68.894,-14.089],[-68.9,-14.055],[-68.906,-14.039],[-68.916,-14.025],[-68.97,-13.991],[-68.983,-13.972],[-68.989,-13.94],[-68.989,-13.904],[-68.993,-13.87],[-69.01,-13.844],[-69.023,-13.806],[-69.024,-13.792],[-69.021,-13.776],[-69.016,-13.765],[-69.016,-13.753],[-69.027,-13.738],[-69.081,-13.695],[-69.102,-13.667],[-69.088,-13.644],[-69.075,-13.643],[-69.044,-13.648],[-69.033,-13.646],[-69.024,-13.635],[-69.024,-13.623],[-69.026,-13.611],[-69.023,-13.597],[-69.015,-13.585],[-68.994,-13.563],[-68.986,-13.55],[-68.977,-13.526],[-68.971,-13.501],[-68.974,-13.479],[-68.963,-13.284],[-68.977,-13.205],[-68.98,-13.165],[-68.972,-13.046],[-68.974,-13.032],[-68.986,-12.933],[-68.987,-12.89],[-68.981,-12.868],[-68.949,-12.844],[-68.939,-12.82],[-68.927,-12.801],[-68.905,-12.804],[-68.892,-12.776],[-68.877,-12.755],[-68.856,-12.741],[-68.774,-12.719],[-68.766,-12.711],[-68.743,-12.666],[-68.753,-12.655],[-68.785,-12.646],[-68.795,-12.637],[-68.793,-12.62],[-68.784,-12.606],[-68.77,-12.594],[-68.74,-12.579],[-68.726,-12.566],[-68.715,-12.551],[-68.706,-12.536],[-68.7,-12.516],[-68.694,-12.507],[-68.684,-12.502],[-68.689,-12.493],[-68.678,-12.495],[-68.646,-12.497],[-68.636,-12.495],[-68.63,-12.491],[-68.618,-12.478],[-68.613,-12.475],[-68.593,-12.421],[-68.582,-12.407],[-68.558,-12.402],[-68.541,-12.41],[-68.526,-12.422],[-68.51,-12.427],[-68.489,-12.425],[-68.477,-12.417],[-68.458,-12.387],[-68.412,-12.273],[-68.39,-12.242],[-68.272,-12.181],[-68.246,-12.154],[-68.238,-12.12],[-68.231,-12.048],[-68.215,-12.02],[-68.185,-12.006],[-68.109,-11.996],[-68.082,-11.982],[-68.062,-11.984],[-68.037,-11.979],[-68.013,-11.97],[-67.996,-11.958],[-67.981,-11.936],[-67.973,-11.91],[-67.974,-11.905],[-67.956,-11.909],[-66.928,-12.382],[-66.936,-12.4],[-66.938,-12.42],[-66.937,-12.481],[-66.935,-12.494],[-66.927,-12.509],[-66.928,-12.525],[-66.94,-12.546],[-66.967,-12.582],[-66.951,-12.624],[-66.946,-12.645],[-66.949,-12.671],[-67.004,-12.901],[-67.052,-13.016],[-67.066,-13.02],[-67.083,-13.018],[-67.103,-13.022],[-67.12,-13.037],[-67.159,-13.107],[-67.167,-13.114],[-67.186,-13.123],[-67.193,-13.13],[-67.198,-13.139],[-67.202,-13.159],[-67.206,-13.168],[-67.287,-13.262],[-67.322,-13.288],[-67.337,-13.304],[-67.38,-13.369],[-67.396,-13.402],[-67.395,-13.437],[-67.378,-13.529],[-67.361,-13.554],[-67.361,-13.574],[-67.37,-13.591],[-67.411,-13.643],[-67.431,-13.675],[-67.443,-13.688],[-67.459,-13.698],[-67.472,-13.711],[-67.481,-13.731],[-67.493,-13.771],[-67.494,-13.791],[-67.48,-13.817],[-67.483,-13.837],[-67.492,-13.853],[-67.501,-13.865],[-67.509,-13.88],[-67.536,-13.998],[-67.535,-14.014],[-67.523,-14.059],[-67.522,-14.071],[-67.511,-14.149],[-67.515,-14.209],[-67.505,-14.242],[-67.504,-14.259],[-67.508,-14.275],[-67.521,-14.289],[-67.553,-14.303],[-67.564,-14.312],[-67.568,-14.33],[-67.566,-14.349],[-67.561,-14.369],[-67.546,-14.406],[-67.544,-14.409],[-67.537,-14.415],[-67.534,-14.418],[-67.533,-14.424],[-67.533,-14.437],[-67.532,-14.443],[-67.528,-14.453],[-67.506,-14.474],[-67.494,-14.492],[-67.488,-14.512],[-67.489,-14.531],[-67.498,-14.551],[-67.505,-14.559],[-67.52,-14.573],[-67.528,-14.581],[-67.533,-14.591],[-67.536,-14.599],[-67.531,-14.607],[-67.504,-14.669],[-67.485,-14.695],[-67.436,-14.738],[-67.428,-14.754],[-67.423,-14.776],[-67.422,-14.817],[-67.426,-14.855],[-67.431,-14.875],[-67.434,-14.896],[-67.433,-14.912],[-67.43,-14.932],[-67.418,-14.968],[-67.403,-14.987],[-67.388,-14.996],[-67.374,-15.007],[-67.364,-15.012],[-67.353,-15.015],[-67.34,-15.016],[-67.317,-15.013],[-67.305,-15.013],[-67.293,-15.015],[-67.281,-15.024],[-67.271,-15.036],[-67.252,-15.073],[-67.243,-15.087],[-67.23,-15.099],[-67.206,-15.126],[-67.179,-15.165],[-67.116,-15.29],[-67.112,-15.304],[-67.112,-15.316],[-67.12,-15.358],[-67.12,-15.368],[-67.119,-15.378],[-67.115,-15.389],[-67.107,-15.4],[-67.097,-15.411],[-67.083,-15.419],[-67.062,-15.427],[-67.056,-15.432],[-67.047,-15.44],[-67.026,-15.477],[-66.826,-15.659],[-66.784,-15.699],[-66.868,-15.768],[-66.904,-15.813],[-66.934,-15.845],[-66.932,-15.848],[-66.928,-15.851],[-66.924,-15.854],[-66.92,-15.857],[-66.918,-15.864],[-66.92,-15.879],[-66.926,-15.89],[-66.934,-15.9],[-66.941,-15.912],[-66.944,-15.924],[-66.944,-15.935],[-66.941,-15.959],[-66.94,-15.984],[-66.95,-16.058],[-66.949,-16.068],[-66.946,-16.075],[-66.928,-16.098],[-66.912,-16.123],[-66.883,-16.154],[-66.872,-16.171],[-66.87,-16.193],[-66.872,-16.209],[-66.871,-16.215],[-66.839,-16.226],[-66.835,-16.229],[-66.827,-16.243],[-66.806,-16.269],[-66.8,-16.283],[-66.804,-16.407],[-66.818,-16.458],[-66.816,-16.483],[-66.805,-16.51],[-66.775,-16.561],[-66.766,-16.59],[-66.767,-16.665],[-66.767,-16.678],[-66.759,-16.725],[-66.758,-16.741],[-66.761,-16.758],[-66.775,-16.778],[-66.798,-16.795],[-66.825,-16.809],[-66.848,-16.817],[-66.908,-16.824],[-66.932,-16.835],[-66.952,-16.863],[-66.971,-16.897],[-66.978,-16.915],[-66.98,-16.935],[-66.978,-16.955],[-66.978,-16.964],[-66.982,-16.975],[-66.999,-16.997],[-67.004,-17.005],[-67.012,-17.026],[-67.015,-17.047],[-67.01,-17.065],[-66.995,-17.079],[-66.949,-17.096],[-66.938,-17.113],[-66.923,-17.128],[-66.91,-17.147],[-66.903,-17.16],[-66.897,-17.175],[-66.882,-17.248],[-66.886,-17.279],[-66.885,-17.292],[-66.881,-17.302],[-66.873,-17.315],[-66.865,-17.324],[-66.85,-17.377],[-66.87,-17.415],[-66.866,-17.425],[-66.86,-17.436],[-66.85,-17.445],[-66.845,-17.454],[-66.842,-17.468],[-66.849,-17.477],[-66.861,-17.485],[-66.99,-17.551],[-67.013,-17.53],[-67.016,-17.526],[-67.04,-17.5],[-67.057,-17.476],[-67.07,-17.449],[-67.077,-17.438],[-67.084,-17.429],[-67.092,-17.421],[-67.106,-17.409],[-67.113,-17.406],[-67.12,-17.403],[-67.133,-17.401],[-67.142,-17.4],[-67.151,-17.401],[-67.281,-17.437],[-67.302,-17.445],[-67.421,-17.512],[-67.543,-17.596],[-67.567,-17.614],[-67.732,-17.713],[-67.751,-17.727],[-67.755,-17.732],[-67.756,-17.739],[-67.754,-17.753],[-67.752,-17.761],[-67.749,-17.768],[-67.739,-17.783],[-67.733,-17.797],[-67.732,-17.801],[-67.732,-17.808],[-67.733,-17.814],[-67.736,-17.825],[-67.739,-17.832],[-67.744,-17.842],[-67.751,-17.849],[-67.772,-17.863],[-67.786,-17.865],[-67.798,-17.864],[-67.804,-17.862],[-67.809,-17.86],[-68.006,-17.718],[-68.028,-17.709],[-68.061,-17.697],[-68.14,-17.659],[-68.17,-17.65],[-68.327,-17.644],[-68.447,-17.652],[-68.48,-17.661],[-68.542,-17.688],[-68.552,-17.695],[-68.608,-17.74],[-68.696,-17.847],[-68.732,-17.878],[-68.817,-17.94],[-68.868,-17.967],[-68.999,-18.001],[-69.072,-18.036],[-69.082,-18.039],[-69.092,-18.023],[-69.104,-18.024],[-69.12,-18.03],[-69.141,-18.031],[-69.158,-18.026],[-69.174,-18.019],[-69.204,-18.001],[-69.228,-17.996],[-69.235,-17.993],[-69.242,-17.987],[-69.262,-17.964],[-69.278,-17.968],[-69.29,-17.977]]]}},{"type":"Feature","id":"BO-N","properties":{"id":"BO-N","countryCode":"BO","isoSubdivision":"BO-N","name":"Pando","name_en":"Pando","name_ko":"판도","type":"Department","labelLongitude":-67.432,"labelLatitude":-11.273,"minZoom":6.6},"geometry":{"type":"Polygon","coordinates":[[[-65.442,-9.68],[-65.416,-9.68],[-65.398,-9.687],[-65.371,-9.711],[-65.356,-9.742],[-65.354,-9.745],[-65.34,-9.79],[-65.33,-9.801],[-65.317,-9.813],[-65.304,-9.826],[-65.299,-9.841],[-65.304,-9.865],[-65.325,-9.905],[-65.333,-9.927],[-65.337,-9.967],[-65.333,-10.008],[-65.324,-10.046],[-65.306,-10.098],[-65.301,-10.12],[-65.299,-10.163],[-65.297,-10.173],[-65.287,-10.196],[-65.285,-10.207],[-65.288,-10.216],[-65.305,-10.242],[-65.316,-10.291],[-65.328,-10.314],[-65.365,-10.332],[-65.379,-10.351],[-65.39,-10.374],[-65.395,-10.392],[-65.448,-10.401],[-65.464,-10.406],[-65.479,-10.417],[-65.497,-10.436],[-65.512,-10.458],[-65.519,-10.478],[-65.526,-10.487],[-65.613,-10.528],[-65.632,-10.542],[-65.652,-10.56],[-65.674,-10.572],[-65.696,-10.569],[-65.717,-10.561],[-65.738,-10.557],[-65.761,-10.564],[-65.764,-10.58],[-65.757,-10.6],[-65.752,-10.622],[-65.752,-10.647],[-65.753,-10.667],[-65.763,-10.684],[-65.786,-10.701],[-65.829,-10.717],[-65.856,-10.723],[-65.868,-10.718],[-65.873,-10.708],[-65.885,-10.693],[-65.898,-10.68],[-65.909,-10.674],[-65.922,-10.682],[-65.936,-10.701],[-65.942,-10.719],[-65.933,-10.728],[-65.914,-10.733],[-65.898,-10.747],[-65.887,-10.765],[-65.882,-10.783],[-65.895,-10.812],[-65.93,-10.81],[-65.974,-10.796],[-66.012,-10.789],[-66.035,-10.798],[-66.076,-10.831],[-66.108,-10.841],[-66.108,-10.847],[-66.102,-10.854],[-66.095,-10.858],[-66.084,-10.858],[-66.064,-10.85],[-66.053,-10.851],[-66.045,-10.868],[-66.053,-10.888],[-66.066,-10.911],[-66.078,-10.951],[-66.09,-10.97],[-66.106,-10.979],[-66.122,-10.968],[-66.131,-10.982],[-66.141,-11.012],[-66.142,-11.048],[-66.147,-11.081],[-66.171,-11.101],[-66.188,-11.099],[-66.205,-11.094],[-66.218,-11.098],[-66.221,-11.121],[-66.212,-11.157],[-66.212,-11.175],[-66.219,-11.193],[-66.255,-11.238],[-66.264,-11.254],[-66.268,-11.277],[-66.261,-11.29],[-66.25,-11.299],[-66.243,-11.313],[-66.255,-11.332],[-66.309,-11.344],[-66.312,-11.365],[-66.317,-11.386],[-66.348,-11.394],[-66.417,-11.401],[-66.471,-11.434],[-66.497,-11.442],[-66.565,-11.435],[-66.656,-11.44],[-66.679,-11.449],[-66.689,-11.469],[-66.691,-11.494],[-66.688,-11.519],[-66.691,-11.538],[-66.715,-11.565],[-66.721,-11.584],[-66.714,-11.633],[-66.715,-11.656],[-66.729,-11.675],[-66.745,-11.682],[-66.78,-11.681],[-66.797,-11.686],[-66.811,-11.699],[-66.822,-11.715],[-66.836,-11.728],[-66.855,-11.729],[-66.872,-11.726],[-66.892,-11.727],[-66.905,-11.735],[-66.905,-11.755],[-66.894,-11.77],[-66.882,-11.782],[-66.877,-11.796],[-66.888,-11.818],[-66.901,-11.831],[-66.918,-11.842],[-66.936,-11.847],[-66.954,-11.845],[-66.971,-11.849],[-66.975,-11.869],[-66.97,-11.894],[-66.961,-11.911],[-66.955,-11.913],[-66.948,-11.911],[-66.943,-11.907],[-66.939,-11.907],[-66.933,-11.912],[-66.918,-11.929],[-66.897,-11.966],[-66.883,-12.015],[-66.877,-12.065],[-66.882,-12.106],[-66.897,-12.152],[-66.899,-12.174],[-66.892,-12.199],[-66.889,-12.223],[-66.899,-12.245],[-66.912,-12.267],[-66.919,-12.289],[-66.916,-12.308],[-66.909,-12.325],[-66.905,-12.342],[-66.913,-12.361],[-66.928,-12.382],[-67.956,-11.909],[-67.974,-11.905],[-67.973,-11.91],[-67.981,-11.936],[-67.996,-11.958],[-68.013,-11.97],[-68.037,-11.979],[-68.062,-11.984],[-68.082,-11.982],[-68.109,-11.996],[-68.185,-12.006],[-68.215,-12.02],[-68.231,-12.048],[-68.238,-12.12],[-68.246,-12.154],[-68.272,-12.181],[-68.39,-12.242],[-68.412,-12.273],[-68.458,-12.387],[-68.477,-12.417],[-68.489,-12.425],[-68.51,-12.427],[-68.526,-12.422],[-68.541,-12.41],[-68.558,-12.402],[-68.582,-12.407],[-68.593,-12.421],[-68.613,-12.475],[-68.618,-12.478],[-68.63,-12.491],[-68.636,-12.495],[-68.646,-12.497],[-68.678,-12.495],[-68.689,-12.493],[-68.714,-12.45],[-68.819,-12.269],[-68.923,-12.088],[-69.027,-11.907],[-69.132,-11.726],[-69.236,-11.545],[-69.34,-11.364],[-69.445,-11.183],[-69.549,-11.002],[-69.552,-10.996],[-69.556,-10.989],[-69.56,-10.983],[-69.563,-10.977],[-69.567,-10.971],[-69.571,-10.965],[-69.574,-10.959],[-69.578,-10.952],[-69.503,-10.955],[-69.463,-10.951],[-69.396,-10.935],[-69.363,-10.94],[-69.33,-10.949],[-69.294,-10.955],[-69.237,-10.953],[-69.159,-10.962],[-69.121,-10.971],[-69.087,-10.967],[-69.071,-10.97],[-68.997,-11.002],[-68.993,-11.002],[-68.983,-11.002],[-68.979,-11.002],[-68.955,-11],[-68.908,-11.013],[-68.884,-11.016],[-68.859,-11.01],[-68.832,-11],[-68.805,-10.995],[-68.775,-11.003],[-68.758,-11.012],[-68.774,-11.035],[-68.786,-11.059],[-68.791,-11.085],[-68.787,-11.126],[-68.784,-11.135],[-68.776,-11.141],[-68.758,-11.141],[-68.616,-11.112],[-68.588,-11.099],[-68.536,-11.062],[-68.493,-11.047],[-68.477,-11.045],[-68.46,-11.045],[-68.442,-11.048],[-68.428,-11.044],[-68.396,-11.014],[-68.378,-11.005],[-68.331,-11],[-68.314,-10.993],[-68.293,-10.979],[-68.274,-10.96],[-68.258,-10.939],[-68.244,-10.917],[-68.218,-10.858],[-68.204,-10.839],[-68.147,-10.78],[-68.112,-10.714],[-68.098,-10.698],[-68.075,-10.682],[-68.044,-10.667],[-68.027,-10.662],[-68.01,-10.66],[-67.982,-10.664],[-67.863,-10.659],[-67.848,-10.661],[-67.833,-10.665],[-67.814,-10.676],[-67.775,-10.707],[-67.756,-10.714],[-67.722,-10.705],[-67.705,-10.677],[-67.696,-10.64],[-67.685,-10.611],[-67.674,-10.599],[-67.643,-10.575],[-67.631,-10.56],[-67.611,-10.529],[-67.6,-10.515],[-67.585,-10.502],[-67.565,-10.496],[-67.529,-10.479],[-67.488,-10.465],[-67.468,-10.452],[-67.451,-10.436],[-67.437,-10.417],[-67.432,-10.406],[-67.432,-10.398],[-67.429,-10.39],[-67.418,-10.381],[-67.409,-10.379],[-67.365,-10.378],[-67.353,-10.376],[-67.343,-10.372],[-67.335,-10.366],[-67.334,-10.357],[-67.339,-10.335],[-67.338,-10.326],[-67.324,-10.319],[-67.301,-10.315],[-67.259,-10.314],[-67.241,-10.316],[-67.202,-10.327],[-67.185,-10.327],[-67.172,-10.32],[-67.165,-10.309],[-67.159,-10.297],[-67.152,-10.289],[-67.142,-10.286],[-67.121,-10.285],[-67.11,-10.283],[-67.064,-10.257],[-66.903,-10.093],[-66.771,-9.993],[-66.752,-9.983],[-66.67,-9.952],[-66.66,-9.945],[-66.655,-9.937],[-66.652,-9.926],[-66.649,-9.916],[-66.643,-9.908],[-66.632,-9.904],[-66.514,-9.884],[-66.453,-9.889],[-66.433,-9.886],[-66.413,-9.879],[-66.372,-9.856],[-66.355,-9.85],[-66.257,-9.835],[-66.239,-9.828],[-66.208,-9.808],[-66.191,-9.801],[-66.135,-9.795],[-66.132,-9.797],[-66.128,-9.801],[-66.124,-9.805],[-66.118,-9.806],[-66.113,-9.802],[-66.106,-9.79],[-66.102,-9.787],[-66.087,-9.785],[-66.082,-9.786],[-66.069,-9.79],[-66.043,-9.805],[-66.029,-9.808],[-66.01,-9.804],[-65.966,-9.777],[-65.947,-9.771],[-65.929,-9.77],[-65.915,-9.772],[-65.874,-9.781],[-65.862,-9.782],[-65.85,-9.775],[-65.834,-9.758],[-65.832,-9.765],[-65.827,-9.774],[-65.822,-9.782],[-65.817,-9.786],[-65.806,-9.784],[-65.804,-9.776],[-65.804,-9.765],[-65.803,-9.757],[-65.795,-9.738],[-65.789,-9.733],[-65.782,-9.746],[-65.78,-9.756],[-65.777,-9.763],[-65.772,-9.769],[-65.763,-9.772],[-65.725,-9.757],[-65.71,-9.756],[-65.714,-9.779],[-65.717,-9.791],[-65.713,-9.794],[-65.705,-9.793],[-65.697,-9.794],[-65.694,-9.794],[-65.684,-9.79],[-65.679,-9.789],[-65.673,-9.793],[-65.664,-9.803],[-65.658,-9.807],[-65.629,-9.827],[-65.614,-9.834],[-65.596,-9.838],[-65.584,-9.837],[-65.579,-9.833],[-65.577,-9.826],[-65.572,-9.819],[-65.571,-9.816],[-65.57,-9.806],[-65.568,-9.802],[-65.563,-9.799],[-65.551,-9.797],[-65.547,-9.795],[-65.535,-9.782],[-65.525,-9.768],[-65.521,-9.759],[-65.517,-9.743],[-65.511,-9.734],[-65.465,-9.696],[-65.452,-9.681],[-65.442,-9.68]]]}},{"type":"Feature","id":"BO-O","properties":{"id":"BO-O","countryCode":"BO","isoSubdivision":"BO-O","name":"Oruro","name_en":"Oruro","name_ko":"오루로","type":"Department","labelLongitude":-67.598,"labelLatitude":-18.715,"minZoom":6.6},"geometry":{"type":"Polygon","coordinates":[[[-68.99,-18.946],[-68.96,-18.908],[-68.952,-18.889],[-68.951,-18.867],[-68.955,-18.857],[-69.01,-18.745],[-69.011,-18.745],[-69.011,-18.744],[-69.011,-18.743],[-69.003,-18.73],[-69.001,-18.716],[-69.003,-18.703],[-69.01,-18.69],[-69.034,-18.649],[-69.043,-18.6],[-69.042,-18.549],[-69.035,-18.501],[-69.034,-18.478],[-69.042,-18.458],[-69.078,-18.399],[-69.082,-18.382],[-69.079,-18.328],[-69.081,-18.319],[-69.096,-18.277],[-69.097,-18.268],[-69.097,-18.258],[-69.1,-18.234],[-69.111,-18.218],[-69.141,-18.187],[-69.155,-18.14],[-69.126,-18.111],[-69.089,-18.083],[-69.082,-18.04],[-69.082,-18.039],[-69.072,-18.036],[-68.999,-18.001],[-68.868,-17.967],[-68.817,-17.94],[-68.732,-17.878],[-68.696,-17.847],[-68.608,-17.74],[-68.552,-17.695],[-68.542,-17.688],[-68.48,-17.661],[-68.447,-17.652],[-68.327,-17.644],[-68.17,-17.65],[-68.14,-17.659],[-68.061,-17.697],[-68.028,-17.709],[-68.006,-17.718],[-67.809,-17.86],[-67.804,-17.862],[-67.798,-17.864],[-67.786,-17.865],[-67.772,-17.863],[-67.751,-17.849],[-67.744,-17.842],[-67.739,-17.832],[-67.736,-17.825],[-67.733,-17.814],[-67.732,-17.808],[-67.732,-17.801],[-67.733,-17.797],[-67.739,-17.783],[-67.749,-17.768],[-67.752,-17.761],[-67.754,-17.753],[-67.756,-17.739],[-67.755,-17.732],[-67.751,-17.727],[-67.732,-17.713],[-67.567,-17.614],[-67.543,-17.596],[-67.421,-17.512],[-67.302,-17.445],[-67.281,-17.437],[-67.151,-17.401],[-67.142,-17.4],[-67.133,-17.401],[-67.12,-17.403],[-67.113,-17.406],[-67.106,-17.409],[-67.092,-17.421],[-67.084,-17.429],[-67.077,-17.438],[-67.07,-17.449],[-67.057,-17.476],[-67.04,-17.5],[-67.016,-17.526],[-67.013,-17.53],[-66.99,-17.551],[-66.826,-17.671],[-66.808,-17.688],[-66.756,-17.751],[-66.68,-17.864],[-66.625,-17.991],[-66.633,-18.011],[-66.643,-18.02],[-66.654,-18.027],[-66.666,-18.033],[-66.735,-18.054],[-66.742,-18.07],[-66.748,-18.163],[-66.747,-18.185],[-66.742,-18.198],[-66.736,-18.208],[-66.728,-18.216],[-66.718,-18.223],[-66.685,-18.237],[-66.672,-18.24],[-66.66,-18.24],[-66.634,-18.235],[-66.607,-18.235],[-66.597,-18.237],[-66.576,-18.245],[-66.566,-18.246],[-66.545,-18.246],[-66.522,-18.253],[-66.545,-18.277],[-66.574,-18.295],[-66.619,-18.316],[-66.644,-18.332],[-66.665,-18.342],[-66.676,-18.351],[-66.68,-18.358],[-66.68,-18.364],[-66.678,-18.397],[-66.679,-18.414],[-66.68,-18.426],[-66.691,-18.47],[-66.691,-18.482],[-66.691,-18.494],[-66.689,-18.498],[-66.689,-18.5],[-66.676,-18.518],[-66.641,-18.591],[-66.633,-18.603],[-66.627,-18.609],[-66.616,-18.618],[-66.532,-18.681],[-66.503,-18.698],[-66.414,-18.729],[-66.351,-18.735],[-66.299,-18.754],[-66.285,-18.766],[-66.273,-18.777],[-66.267,-18.788],[-66.223,-18.921],[-66.22,-18.926],[-66.182,-18.996],[-66.133,-19.059],[-66.059,-19.141],[-66.041,-19.173],[-66.042,-19.183],[-66.046,-19.192],[-66.056,-19.199],[-66.068,-19.204],[-66.097,-19.209],[-66.219,-19.218],[-66.43,-19.233],[-66.454,-19.242],[-66.496,-19.264],[-66.616,-19.368],[-66.689,-19.42],[-66.728,-19.441],[-66.936,-19.531],[-67.241,-19.656],[-67.552,-19.782],[-67.687,-19.826],[-67.74,-19.825],[-67.832,-19.808],[-68.289,-19.664],[-68.572,-19.567],[-68.577,-19.565],[-68.532,-19.501],[-68.51,-19.472],[-68.496,-19.458],[-68.456,-19.441],[-68.448,-19.435],[-68.455,-19.415],[-68.473,-19.395],[-68.493,-19.377],[-68.6,-19.303],[-68.636,-19.291],[-68.663,-19.274],[-68.698,-19.216],[-68.721,-19.192],[-68.815,-19.113],[-68.847,-19.092],[-68.895,-19.077],[-68.909,-19.068],[-68.92,-19.054],[-68.943,-19.001],[-68.962,-18.969],[-68.974,-18.956],[-68.99,-18.946]]]}},{"type":"Feature","id":"BO-P","properties":{"id":"BO-P","countryCode":"BO","isoSubdivision":"BO-P","name":"Potosí","name_en":"Potosí","name_ko":"포토시","type":"Department","labelLongitude":-66.77,"labelLatitude":-20.903,"minZoom":6.6},"geometry":{"type":"Polygon","coordinates":[[[-68.597,-20.057],[-68.588,-20.056],[-68.579,-20.045],[-68.575,-20.035],[-68.566,-20.001],[-68.565,-19.981],[-68.545,-19.935],[-68.542,-19.92],[-68.543,-19.914],[-68.547,-19.908],[-68.552,-19.894],[-68.553,-19.865],[-68.554,-19.858],[-68.561,-19.844],[-68.571,-19.838],[-68.602,-19.825],[-68.619,-19.813],[-68.65,-19.782],[-68.698,-19.746],[-68.705,-19.734],[-68.703,-19.716],[-68.69,-19.695],[-68.649,-19.66],[-68.631,-19.642],[-68.577,-19.565],[-68.572,-19.567],[-68.289,-19.664],[-67.832,-19.808],[-67.74,-19.825],[-67.687,-19.826],[-67.552,-19.782],[-67.241,-19.656],[-66.936,-19.531],[-66.728,-19.441],[-66.689,-19.42],[-66.616,-19.368],[-66.496,-19.264],[-66.454,-19.242],[-66.43,-19.233],[-66.219,-19.218],[-66.097,-19.209],[-66.068,-19.204],[-66.056,-19.199],[-66.046,-19.192],[-66.042,-19.183],[-66.041,-19.173],[-66.059,-19.141],[-66.133,-19.059],[-66.182,-18.996],[-66.22,-18.926],[-66.223,-18.921],[-66.267,-18.788],[-66.273,-18.777],[-66.285,-18.766],[-66.299,-18.754],[-66.351,-18.735],[-66.414,-18.729],[-66.503,-18.698],[-66.532,-18.681],[-66.616,-18.618],[-66.627,-18.609],[-66.633,-18.603],[-66.641,-18.591],[-66.676,-18.518],[-66.689,-18.5],[-66.689,-18.498],[-66.691,-18.494],[-66.691,-18.482],[-66.691,-18.47],[-66.68,-18.426],[-66.679,-18.414],[-66.678,-18.397],[-66.68,-18.364],[-66.68,-18.358],[-66.676,-18.351],[-66.665,-18.342],[-66.644,-18.332],[-66.619,-18.316],[-66.574,-18.295],[-66.545,-18.277],[-66.522,-18.253],[-66.545,-18.246],[-66.566,-18.246],[-66.576,-18.245],[-66.597,-18.237],[-66.607,-18.235],[-66.634,-18.235],[-66.66,-18.24],[-66.672,-18.24],[-66.685,-18.237],[-66.718,-18.223],[-66.728,-18.216],[-66.736,-18.208],[-66.742,-18.198],[-66.747,-18.185],[-66.748,-18.163],[-66.742,-18.07],[-66.735,-18.054],[-66.666,-18.033],[-66.654,-18.027],[-66.643,-18.02],[-66.633,-18.011],[-66.625,-17.991],[-66.557,-17.979],[-66.534,-17.977],[-66.525,-17.978],[-66.517,-17.98],[-66.478,-17.984],[-66.418,-17.982],[-66.367,-17.99],[-66.356,-17.99],[-66.346,-17.989],[-66.336,-17.983],[-66.278,-17.938],[-66.256,-17.921],[-66.175,-17.867],[-66.162,-17.863],[-66.136,-17.857],[-66.095,-17.855],[-66.061,-17.857],[-66.049,-17.859],[-66.039,-17.862],[-66.019,-17.862],[-66.013,-17.882],[-66.001,-17.907],[-65.986,-17.929],[-65.974,-17.938],[-65.963,-17.94],[-65.953,-17.947],[-65.947,-17.957],[-65.94,-17.981],[-65.931,-17.984],[-65.865,-17.968],[-65.843,-17.968],[-65.825,-17.994],[-65.765,-18.026],[-65.703,-18.078],[-65.696,-18.095],[-65.678,-18.109],[-65.642,-18.129],[-65.618,-18.157],[-65.607,-18.175],[-65.595,-18.204],[-65.581,-18.218],[-65.563,-18.23],[-65.546,-18.239],[-65.51,-18.267],[-65.467,-18.339],[-65.436,-18.369],[-65.431,-18.371],[-65.416,-18.374],[-65.409,-18.376],[-65.404,-18.379],[-65.395,-18.39],[-65.361,-18.408],[-65.351,-18.41],[-65.347,-18.414],[-65.344,-18.423],[-65.377,-18.43],[-65.392,-18.428],[-65.415,-18.418],[-65.491,-18.394],[-65.499,-18.39],[-65.501,-18.389],[-65.503,-18.388],[-65.508,-18.389],[-65.515,-18.391],[-65.543,-18.404],[-65.548,-18.405],[-65.554,-18.405],[-65.56,-18.403],[-65.564,-18.399],[-65.567,-18.394],[-65.57,-18.388],[-65.572,-18.384],[-65.575,-18.38],[-65.58,-18.377],[-65.585,-18.375],[-65.593,-18.374],[-65.622,-18.375],[-65.629,-18.374],[-65.634,-18.371],[-65.639,-18.368],[-65.645,-18.366],[-65.657,-18.364],[-65.661,-18.362],[-65.664,-18.358],[-65.666,-18.351],[-65.668,-18.347],[-65.673,-18.345],[-65.678,-18.346],[-65.684,-18.348],[-65.689,-18.351],[-65.692,-18.355],[-65.694,-18.364],[-65.689,-18.4],[-65.688,-18.409],[-65.687,-18.415],[-65.684,-18.421],[-65.674,-18.432],[-65.667,-18.437],[-65.661,-18.442],[-65.639,-18.451],[-65.629,-18.458],[-65.625,-18.466],[-65.624,-18.476],[-65.631,-18.524],[-65.629,-18.566],[-65.608,-18.674],[-65.609,-18.679],[-65.613,-18.688],[-65.621,-18.697],[-65.644,-18.716],[-65.648,-18.72],[-65.652,-18.725],[-65.655,-18.731],[-65.656,-18.737],[-65.655,-18.744],[-65.652,-18.749],[-65.645,-18.753],[-65.64,-18.754],[-65.635,-18.753],[-65.63,-18.752],[-65.521,-18.7],[-65.501,-18.693],[-65.457,-18.683],[-65.452,-18.683],[-65.447,-18.684],[-65.441,-18.686],[-65.435,-18.688],[-65.43,-18.692],[-65.426,-18.696],[-65.424,-18.702],[-65.422,-18.712],[-65.423,-18.723],[-65.427,-18.734],[-65.437,-18.751],[-65.444,-18.76],[-65.451,-18.765],[-65.466,-18.775],[-65.502,-18.805],[-65.504,-18.807],[-65.506,-18.813],[-65.507,-18.822],[-65.505,-18.832],[-65.502,-18.838],[-65.5,-18.841],[-65.492,-18.848],[-65.484,-18.855],[-65.481,-18.86],[-65.479,-18.865],[-65.477,-18.871],[-65.475,-18.877],[-65.474,-18.89],[-65.472,-18.901],[-65.47,-18.905],[-65.471,-18.91],[-65.474,-18.916],[-65.486,-18.926],[-65.493,-18.934],[-65.519,-18.973],[-65.535,-19],[-65.538,-19.005],[-65.54,-19.009],[-65.541,-19.013],[-65.541,-19.015],[-65.541,-19.019],[-65.522,-19.067],[-65.506,-19.094],[-65.474,-19.114],[-65.468,-19.12],[-65.462,-19.128],[-65.457,-19.141],[-65.453,-19.167],[-65.447,-19.179],[-65.433,-19.192],[-65.406,-19.211],[-65.384,-19.243],[-65.373,-19.254],[-65.324,-19.286],[-65.309,-19.3],[-65.293,-19.31],[-65.248,-19.318],[-65.232,-19.327],[-65.216,-19.339],[-65.155,-19.371],[-65.131,-19.379],[-65.111,-19.373],[-65.104,-19.369],[-65.099,-19.37],[-65.096,-19.374],[-65.094,-19.377],[-65.071,-19.377],[-64.994,-19.353],[-64.964,-19.35],[-64.937,-19.357],[-64.92,-19.371],[-64.904,-19.391],[-64.893,-19.413],[-64.888,-19.434],[-64.886,-19.434],[-64.879,-19.44],[-64.872,-19.448],[-64.869,-19.454],[-64.868,-19.463],[-64.869,-19.472],[-64.875,-19.488],[-64.878,-19.509],[-64.876,-19.528],[-64.871,-19.547],[-64.861,-19.567],[-64.776,-19.672],[-64.755,-19.712],[-64.747,-19.732],[-64.756,-19.746],[-64.79,-19.79],[-64.868,-19.868],[-65.056,-19.969],[-65.073,-19.973],[-65.176,-19.981],[-65.198,-19.987],[-65.228,-19.991],[-65.248,-19.998],[-65.251,-20],[-65.271,-20.015],[-65.288,-20.031],[-65.292,-20.034],[-65.297,-20.036],[-65.308,-20.039],[-65.313,-20.042],[-65.317,-20.048],[-65.317,-20.07],[-65.316,-20.075],[-65.311,-20.092],[-65.315,-20.109],[-65.342,-20.144],[-65.348,-20.152],[-65.354,-20.16],[-65.359,-20.17],[-65.369,-20.203],[-65.37,-20.213],[-65.369,-20.248],[-65.366,-20.269],[-65.296,-20.534],[-65.372,-20.705],[-65.377,-20.72],[-65.389,-20.777],[-65.396,-20.795],[-65.423,-20.837],[-65.429,-20.963],[-65.472,-21.101],[-65.474,-21.122],[-65.473,-21.135],[-65.471,-21.147],[-65.468,-21.157],[-65.467,-21.163],[-65.478,-21.267],[-65.477,-21.292],[-65.476,-21.297],[-65.458,-21.335],[-65.317,-21.478],[-65.235,-21.535],[-65.234,-21.568],[-65.236,-21.577],[-65.238,-21.589],[-65.255,-21.632],[-65.269,-21.654],[-65.282,-21.669],[-65.286,-21.672],[-65.289,-21.678],[-65.292,-21.688],[-65.295,-21.717],[-65.298,-21.726],[-65.304,-21.733],[-65.313,-21.742],[-65.32,-21.757],[-65.329,-21.803],[-65.319,-21.808],[-65.315,-21.811],[-65.31,-21.815],[-65.305,-21.819],[-65.3,-21.827],[-65.294,-21.834],[-65.283,-21.843],[-65.276,-21.851],[-65.26,-21.874],[-65.235,-21.92],[-65.223,-21.936],[-65.215,-21.943],[-65.211,-21.946],[-65.201,-21.977],[-65.174,-22.095],[-65.173,-22.098],[-65.19,-22.098],[-65.457,-22.101],[-65.51,-22.096],[-65.58,-22.086],[-65.589,-22.087],[-65.593,-22.091],[-65.598,-22.096],[-65.605,-22.099],[-65.745,-22.114],[-65.775,-22.105],[-65.805,-22.086],[-65.933,-21.945],[-65.954,-21.933],[-66.047,-21.918],[-66.052,-21.913],[-66.064,-21.864],[-66.094,-21.833],[-66.138,-21.812],[-66.222,-21.787],[-66.24,-21.792],[-66.288,-21.957],[-66.297,-22.05],[-66.302,-22.065],[-66.308,-22.077],[-66.31,-22.078],[-66.314,-22.076],[-66.327,-22.077],[-66.335,-22.082],[-66.343,-22.09],[-66.349,-22.1],[-66.353,-22.11],[-66.377,-22.127],[-66.51,-22.163],[-66.627,-22.193],[-66.631,-22.197],[-66.633,-22.205],[-66.636,-22.211],[-66.641,-22.213],[-66.658,-22.207],[-66.677,-22.205],[-66.688,-22.202],[-66.699,-22.201],[-66.713,-22.206],[-66.736,-22.225],[-66.749,-22.245],[-66.756,-22.268],[-66.768,-22.343],[-66.775,-22.365],[-66.788,-22.38],[-66.791,-22.388],[-66.784,-22.417],[-66.785,-22.428],[-66.796,-22.435],[-66.909,-22.468],[-66.935,-22.481],[-66.956,-22.501],[-66.965,-22.514],[-66.978,-22.522],[-66.994,-22.526],[-67.016,-22.524],[-67.033,-22.525],[-67.024,-22.618],[-67.027,-22.639],[-67.038,-22.655],[-67.113,-22.71],[-67.143,-22.743],[-67.194,-22.822],[-67.51,-22.886],[-67.547,-22.893],[-67.617,-22.897],[-67.771,-22.889],[-67.804,-22.879],[-67.811,-22.872],[-67.833,-22.84],[-67.838,-22.841],[-67.876,-22.834],[-67.887,-22.819],[-67.891,-22.793],[-67.891,-22.716],[-67.859,-22.567],[-67.859,-22.547],[-67.89,-22.491],[-67.898,-22.441],[-67.907,-22.42],[-67.945,-22.354],[-67.952,-22.334],[-67.952,-22.314],[-67.935,-22.252],[-67.936,-22.232],[-67.945,-22.208],[-67.973,-22.171],[-67.977,-22.16],[-67.973,-22.15],[-67.961,-22.134],[-67.957,-22.125],[-67.961,-22.103],[-67.973,-22.079],[-67.99,-22.058],[-68.01,-22.045],[-68.059,-22.001],[-68.083,-21.98],[-68.092,-21.968],[-68.096,-21.954],[-68.108,-21.79],[-68.128,-21.712],[-68.191,-21.606],[-68.198,-21.572],[-68.194,-21.328],[-68.208,-21.284],[-68.416,-20.96],[-68.432,-20.945],[-68.454,-20.94],[-68.496,-20.942],[-68.51,-20.94],[-68.532,-20.928],[-68.555,-20.914],[-68.572,-20.872],[-68.573,-20.743],[-68.565,-20.72],[-68.55,-20.699],[-68.482,-20.643],[-68.481,-20.625],[-68.51,-20.602],[-68.536,-20.592],[-68.583,-20.563],[-68.686,-20.517],[-68.708,-20.501],[-68.73,-20.479],[-68.751,-20.452],[-68.765,-20.421],[-68.769,-20.391],[-68.758,-20.364],[-68.735,-20.348],[-68.679,-20.329],[-68.718,-20.262],[-68.729,-20.229],[-68.728,-20.19],[-68.723,-20.161],[-68.726,-20.151],[-68.759,-20.144],[-68.789,-20.126],[-68.793,-20.107],[-68.776,-20.09],[-68.653,-20.054],[-68.622,-20.051],[-68.608,-20.054],[-68.597,-20.057]]]}},{"type":"Feature","id":"BO-S","properties":{"id":"BO-S","countryCode":"BO","isoSubdivision":"BO-S","name":"Santa Cruz","name_en":"Santa Cruz","name_ko":"산타크루스","type":"Department","labelLongitude":-61.137,"labelLatitude":-16.517,"minZoom":6.6},"geometry":{"type":"Polygon","coordinates":[[[-57.86,-19.98],[-57.87,-19.993],[-57.881,-20.009],[-57.896,-20.024],[-57.918,-20.034],[-57.943,-20.028],[-57.959,-20.026],[-57.966,-20.031],[-57.969,-20.04],[-57.976,-20.048],[-57.986,-20.053],[-57.997,-20.055],[-58.022,-20.065],[-58.054,-20.108],[-58.08,-20.117],[-58.086,-20.121],[-58.098,-20.138],[-58.104,-20.144],[-58.116,-20.15],[-58.159,-20.165],[-58.16,-20.139],[-58.145,-20.086],[-58.143,-20.065],[-58.144,-20.023],[-58.142,-20.001],[-58.145,-19.97],[-58.162,-19.912],[-58.164,-19.88],[-58.161,-19.847],[-58.164,-19.833],[-58.175,-19.821],[-58.214,-19.798],[-58.308,-19.744],[-58.401,-19.689],[-58.494,-19.634],[-58.588,-19.579],[-58.681,-19.525],[-58.774,-19.47],[-58.867,-19.415],[-58.961,-19.361],[-59.011,-19.331],[-59.04,-19.312],[-59.07,-19.291],[-59.09,-19.287],[-59.171,-19.288],[-59.359,-19.29],[-59.547,-19.292],[-59.736,-19.295],[-59.924,-19.297],[-60.006,-19.298],[-60.157,-19.329],[-60.495,-19.398],[-60.834,-19.468],[-61.172,-19.537],[-61.511,-19.607],[-61.532,-19.61],[-61.58,-19.617],[-61.627,-19.624],[-61.648,-19.627],[-61.737,-19.64],[-61.753,-19.646],[-61.761,-19.658],[-61.78,-19.707],[-61.808,-19.78],[-61.836,-19.854],[-61.864,-19.927],[-61.893,-20.001],[-61.906,-20.027],[-61.918,-20.053],[-61.925,-20.065],[-61.931,-20.078],[-61.944,-20.104],[-61.961,-20.128],[-61.978,-20.152],[-61.994,-20.176],[-62.011,-20.2],[-62.056,-20.26],[-62.1,-20.321],[-62.145,-20.382],[-62.19,-20.443],[-62.211,-20.471],[-63.286,-20.475],[-63.295,-20.473],[-63.303,-20.469],[-63.312,-20.456],[-63.342,-20.387],[-63.356,-20.367],[-63.368,-20.357],[-63.377,-20.361],[-63.384,-20.369],[-63.396,-20.386],[-63.402,-20.393],[-63.415,-20.403],[-63.421,-20.406],[-63.429,-20.409],[-63.449,-20.412],[-63.459,-20.415],[-63.467,-20.42],[-63.474,-20.428],[-63.491,-20.452],[-63.497,-20.458],[-63.502,-20.46],[-63.511,-20.463],[-63.521,-20.463],[-63.567,-20.453],[-63.629,-20.452],[-63.652,-20.45],[-63.665,-20.407],[-63.707,-20.004],[-63.709,-20],[-63.722,-19.973],[-63.725,-19.963],[-63.768,-19.271],[-63.765,-19.211],[-63.741,-19.044],[-63.751,-19.028],[-63.813,-19.035],[-63.834,-19.034],[-63.861,-19.026],[-63.873,-19.026],[-63.885,-19.035],[-63.897,-19.056],[-63.906,-19.129],[-63.911,-19.143],[-63.918,-19.154],[-63.927,-19.163],[-63.94,-19.169],[-63.955,-19.173],[-63.973,-19.174],[-63.992,-19.173],[-64.007,-19.169],[-64.016,-19.161],[-64.021,-19.15],[-64.023,-19.138],[-64.065,-19],[-64.071,-18.992],[-64.077,-18.99],[-64.084,-18.989],[-64.092,-18.987],[-64.103,-18.976],[-64.111,-18.965],[-64.12,-18.955],[-64.136,-18.951],[-64.165,-18.949],[-64.18,-18.946],[-64.192,-18.939],[-64.199,-18.929],[-64.202,-18.915],[-64.203,-18.901],[-64.206,-18.888],[-64.221,-18.866],[-64.24,-18.853],[-64.261,-18.843],[-64.282,-18.826],[-64.289,-18.814],[-64.296,-18.787],[-64.302,-18.774],[-64.316,-18.748],[-64.319,-18.735],[-64.319,-18.719],[-64.317,-18.704],[-64.316,-18.691],[-64.32,-18.679],[-64.33,-18.667],[-64.34,-18.657],[-64.323,-18.627],[-64.297,-18.598],[-64.293,-18.591],[-64.293,-18.585],[-64.3,-18.569],[-64.301,-18.562],[-64.302,-18.552],[-64.299,-18.512],[-64.301,-18.505],[-64.302,-18.5],[-64.305,-18.496],[-64.309,-18.492],[-64.314,-18.489],[-64.336,-18.478],[-64.346,-18.472],[-64.362,-18.455],[-64.377,-18.445],[-64.388,-18.439],[-64.406,-18.433],[-64.41,-18.431],[-64.415,-18.428],[-64.42,-18.421],[-64.427,-18.409],[-64.43,-18.4],[-64.43,-18.393],[-64.429,-18.377],[-64.432,-18.371],[-64.444,-18.361],[-64.446,-18.356],[-64.445,-18.351],[-64.443,-18.344],[-64.441,-18.337],[-64.441,-18.326],[-64.444,-18.32],[-64.449,-18.315],[-64.463,-18.306],[-64.478,-18.28],[-64.488,-18.24],[-64.504,-18.214],[-64.525,-18.188],[-64.538,-18.164],[-64.547,-18.153],[-64.553,-18.145],[-64.567,-18.137],[-64.575,-18.13],[-64.589,-18.115],[-64.608,-18.066],[-64.641,-18.005],[-64.655,-17.986],[-64.7,-17.94],[-64.706,-17.93],[-64.711,-17.911],[-64.704,-17.883],[-64.69,-17.867],[-64.668,-17.849],[-64.585,-17.77],[-64.564,-17.746],[-64.406,-17.52],[-64.402,-17.511],[-64.4,-17.501],[-64.401,-17.478],[-64.401,-17.468],[-64.396,-17.456],[-64.388,-17.449],[-64.351,-17.425],[-64.34,-17.421],[-64.33,-17.42],[-64.31,-17.422],[-64.301,-17.422],[-64.279,-17.416],[-64.271,-17.416],[-64.259,-17.42],[-64.241,-17.417],[-64.225,-17.416],[-64.217,-17.397],[-64.212,-17.379],[-64.216,-17.36],[-64.224,-17.344],[-64.234,-17.319],[-64.238,-17.311],[-64.244,-17.304],[-64.29,-17.268],[-64.376,-17.175],[-64.409,-17.15],[-64.418,-17.145],[-64.445,-17.137],[-64.503,-17.103],[-64.519,-17.092],[-64.582,-17.027],[-64.592,-17.02],[-64.602,-17.016],[-64.624,-17.008],[-64.647,-16.996],[-64.742,-16.898],[-64.756,-16.874],[-64.778,-16.794],[-64.78,-16.775],[-64.782,-16.766],[-64.788,-16.757],[-64.803,-16.739],[-64.808,-16.73],[-64.807,-16.717],[-64.795,-16.699],[-64.79,-16.676],[-64.754,-16.618],[-64.751,-16.611],[-64.754,-16.602],[-64.762,-16.598],[-64.771,-16.595],[-64.778,-16.587],[-64.782,-16.572],[-64.78,-16.556],[-64.773,-16.54],[-64.765,-16.526],[-64.755,-16.516],[-64.732,-16.5],[-64.723,-16.491],[-64.718,-16.463],[-64.717,-16.461],[-64.715,-16.458],[-64.684,-16.388],[-64.682,-16.374],[-64.685,-16.365],[-64.694,-16.352],[-64.696,-16.344],[-64.694,-16.335],[-64.676,-16.306],[-64.7,-16.305],[-64.698,-16.293],[-64.676,-16.265],[-64.674,-16.245],[-64.676,-16.228],[-64.677,-16.21],[-64.669,-16.19],[-64.677,-16.169],[-64.674,-16.151],[-64.666,-16.134],[-64.662,-16.118],[-64.666,-16.103],[-64.685,-16.077],[-64.69,-16.057],[-64.69,-16.022],[-64.688,-16.015],[-64.684,-16.01],[-64.682,-16.003],[-64.682,-15.991],[-64.689,-15.97],[-64.7,-15.951],[-64.714,-15.935],[-64.731,-15.922],[-64.717,-15.913],[-64.704,-15.912],[-64.69,-15.916],[-64.676,-15.922],[-64.675,-15.906],[-64.681,-15.895],[-64.704,-15.875],[-64.676,-15.875],[-64.664,-15.872],[-64.658,-15.85],[-63.341,-15.918],[-63.321,-15.917],[-63.317,-15.914],[-63.327,-15.909],[-63.338,-15.905],[-63.373,-15.896],[-63.385,-15.891],[-63.395,-15.885],[-63.421,-15.857],[-63.43,-15.844],[-63.436,-15.824],[-63.438,-15.809],[-63.439,-15.784],[-63.441,-15.774],[-63.446,-15.765],[-63.467,-15.739],[-63.48,-15.714],[-63.49,-15.701],[-63.499,-15.692],[-63.506,-15.688],[-63.538,-15.674],[-63.549,-15.667],[-63.579,-15.643],[-63.59,-15.638],[-63.601,-15.637],[-63.612,-15.634],[-63.624,-15.627],[-63.67,-15.58],[-63.677,-15.567],[-63.682,-15.518],[-63.688,-15.505],[-63.701,-15.489],[-63.714,-15.481],[-63.739,-15.472],[-63.749,-15.466],[-63.758,-15.456],[-63.863,-15.298],[-63.9,-15.198],[-63.932,-15.149],[-63.939,-15.134],[-63.95,-15.086],[-63.945,-15.062],[-63.939,-15.047],[-63.935,-15.028],[-63.934,-15],[-63.94,-14.948],[-63.94,-14.832],[-63.963,-14.737],[-63.916,-14.716],[-63.57,-14.619],[-63.013,-14.305],[-62.129,-13.809],[-61.594,-13.507],[-61.593,-13.507],[-61.588,-13.508],[-61.561,-13.533],[-61.551,-13.538],[-61.503,-13.548],[-61.459,-13.544],[-61.415,-13.528],[-61.348,-13.494],[-61.332,-13.495],[-61.317,-13.501],[-61.281,-13.507],[-61.26,-13.52],[-61.249,-13.524],[-61.238,-13.524],[-61.215,-13.517],[-61.149,-13.52],[-61.139,-13.514],[-61.134,-13.494],[-61.119,-13.484],[-61.076,-13.478],[-61.072,-13.474],[-61.06,-13.467],[-61.047,-13.465],[-61.041,-13.475],[-61.041,-13.515],[-61.022,-13.535],[-60.978,-13.543],[-60.929,-13.546],[-60.897,-13.553],[-60.878,-13.57],[-60.871,-13.575],[-60.802,-13.604],[-60.726,-13.663],[-60.653,-13.719],[-60.618,-13.737],[-60.595,-13.742],[-60.589,-13.745],[-60.585,-13.749],[-60.58,-13.761],[-60.575,-13.766],[-60.566,-13.77],[-60.491,-13.788],[-60.473,-13.798],[-60.465,-13.817],[-60.463,-13.843],[-60.457,-13.871],[-60.449,-13.897],[-60.439,-13.918],[-60.43,-13.927],[-60.409,-13.945],[-60.407,-13.95],[-60.412,-13.961],[-60.405,-13.967],[-60.396,-13.971],[-60.39,-13.975],[-60.387,-13.983],[-60.388,-13.989],[-60.397,-14.008],[-60.409,-14.055],[-60.419,-14.077],[-60.437,-14.092],[-60.461,-14.099],[-60.468,-14.104],[-60.474,-14.117],[-60.478,-14.14],[-60.479,-14.163],[-60.476,-14.176],[-60.462,-14.198],[-60.462,-14.224],[-60.466,-14.251],[-60.464,-14.278],[-60.454,-14.297],[-60.4,-14.341],[-60.391,-14.357],[-60.377,-14.42],[-60.344,-14.491],[-60.338,-14.533],[-60.369,-14.543],[-60.353,-14.575],[-60.304,-14.608],[-60.292,-14.63],[-60.289,-14.691],[-60.285,-14.773],[-60.281,-14.855],[-60.277,-14.937],[-60.273,-15.019],[-60.27,-15.083],[-60.275,-15.095],[-60.389,-15.096],[-60.582,-15.099],[-60.529,-15.144],[-60.46,-15.224],[-60.352,-15.35],[-60.26,-15.456],[-60.246,-15.478],[-60.238,-15.503],[-60.225,-15.651],[-60.207,-15.853],[-60.194,-16.001],[-60.187,-16.109],[-60.18,-16.222],[-60.161,-16.265],[-60.13,-16.273],[-60.06,-16.275],[-59.87,-16.282],[-59.68,-16.289],[-59.489,-16.295],[-59.299,-16.302],[-59.108,-16.309],[-58.918,-16.315],[-58.727,-16.322],[-58.537,-16.329],[-58.465,-16.331],[-58.442,-16.328],[-58.422,-16.318],[-58.414,-16.309],[-58.4,-16.284],[-58.393,-16.279],[-58.35,-16.28],[-58.34,-16.289],[-58.335,-16.387],[-58.339,-16.4],[-58.362,-16.419],[-58.364,-16.437],[-58.343,-16.473],[-58.356,-16.51],[-58.456,-16.619],[-58.473,-16.65],[-58.48,-16.684],[-58.477,-16.727],[-58.456,-16.802],[-58.453,-16.841],[-58.455,-16.848],[-58.464,-16.866],[-58.467,-16.876],[-58.466,-16.887],[-58.456,-16.937],[-58.439,-16.967],[-58.432,-16.985],[-58.427,-17.055],[-58.422,-17.071],[-58.411,-17.088],[-58.406,-17.11],[-58.405,-17.2],[-58.399,-17.237],[-58.381,-17.267],[-58.344,-17.287],[-58.312,-17.291],[-58.302,-17.294],[-58.292,-17.3],[-58.274,-17.314],[-58.265,-17.32],[-58.256,-17.323],[-58.24,-17.325],[-58.232,-17.33],[-58.22,-17.344],[-58.204,-17.377],[-58.188,-17.389],[-58.175,-17.392],[-58.163,-17.393],[-58.152,-17.396],[-58.139,-17.405],[-58.112,-17.434],[-58.101,-17.441],[-58.066,-17.456],[-58.054,-17.462],[-58.01,-17.497],[-57.981,-17.509],[-57.944,-17.518],[-57.906,-17.52],[-57.877,-17.512],[-57.854,-17.509],[-57.837,-17.511],[-57.814,-17.52],[-57.801,-17.533],[-57.791,-17.556],[-57.788,-17.581],[-57.79,-17.604],[-57.788,-17.62],[-57.788,-17.659],[-57.786,-17.678],[-57.778,-17.696],[-57.768,-17.709],[-57.755,-17.721],[-57.74,-17.73],[-57.724,-17.737],[-57.733,-17.768],[-57.729,-17.779],[-57.711,-17.801],[-57.697,-17.825],[-57.699,-17.843],[-57.73,-17.846],[-57.637,-18.001],[-57.585,-18.123],[-57.551,-18.184],[-57.511,-18.206],[-57.491,-18.206],[-57.475,-18.208],[-57.466,-18.218],[-57.467,-18.24],[-57.536,-18.24],[-57.554,-18.245],[-57.567,-18.256],[-57.583,-18.306],[-57.63,-18.448],[-57.677,-18.591],[-57.724,-18.734],[-57.771,-18.876],[-57.782,-18.91],[-57.742,-18.914],[-57.732,-18.922],[-57.728,-18.942],[-57.722,-19.001],[-57.716,-19.045],[-57.772,-19.049],[-57.789,-19.059],[-57.812,-19.105],[-57.843,-19.167],[-57.912,-19.303],[-57.98,-19.439],[-58.011,-19.501],[-58.024,-19.526],[-58.05,-19.58],[-58.077,-19.635],[-58.09,-19.659],[-58.125,-19.73],[-58.117,-19.758],[-58.041,-19.823],[-57.96,-19.893],[-57.86,-19.98]]]}},{"type":"Feature","id":"BO-T","properties":{"id":"BO-T","countryCode":"BO","isoSubdivision":"BO-T","name":"Tarija","name_en":"Tarija","name_ko":"타리하","type":"Department","labelLongitude":-63.8,"labelLatitude":-21.504,"minZoom":6.6},"geometry":{"type":"Polygon","coordinates":[[[-62.65,-22.234],[-62.659,-22.232],[-62.662,-22.225],[-62.663,-22.216],[-62.667,-22.207],[-62.679,-22.195],[-62.722,-22.166],[-62.769,-22.145],[-62.783,-22.131],[-62.791,-22.113],[-62.791,-22.082],[-62.798,-22.069],[-62.795,-22.061],[-62.795,-22.051],[-62.801,-22.013],[-62.804,-22.004],[-62.819,-22.001],[-62.862,-21.993],[-63.01,-22.001],[-63.325,-21.999],[-63.639,-21.997],[-63.678,-22.004],[-63.694,-22.012],[-63.74,-22.051],[-63.752,-22.046],[-63.793,-22.012],[-63.813,-22.003],[-63.906,-21.997],[-63.933,-22.002],[-63.948,-22.008],[-63.951,-22.011],[-63.951,-22.017],[-63.961,-22.039],[-63.965,-22.059],[-63.968,-22.067],[-63.976,-22.074],[-63.983,-22.077],[-63.99,-22.079],[-63.996,-22.083],[-64.004,-22.099],[-64.02,-22.155],[-64.051,-22.229],[-64.059,-22.24],[-64.079,-22.251],[-64.086,-22.258],[-64.161,-22.438],[-64.185,-22.471],[-64.236,-22.517],[-64.251,-22.541],[-64.294,-22.691],[-64.295,-22.763],[-64.303,-22.782],[-64.327,-22.859],[-64.325,-22.872],[-64.344,-22.864],[-64.348,-22.817],[-64.36,-22.803],[-64.352,-22.779],[-64.356,-22.752],[-64.369,-22.73],[-64.391,-22.721],[-64.402,-22.712],[-64.428,-22.659],[-64.438,-22.652],[-64.447,-22.649],[-64.454,-22.643],[-64.456,-22.628],[-64.455,-22.617],[-64.45,-22.597],[-64.449,-22.587],[-64.446,-22.576],[-64.437,-22.567],[-64.43,-22.557],[-64.428,-22.542],[-64.484,-22.491],[-64.498,-22.473],[-64.504,-22.45],[-64.508,-22.444],[-64.526,-22.433],[-64.531,-22.426],[-64.531,-22.416],[-64.523,-22.396],[-64.525,-22.385],[-64.538,-22.374],[-64.559,-22.361],[-64.572,-22.343],[-64.562,-22.32],[-64.549,-22.305],[-64.542,-22.292],[-64.543,-22.275],[-64.552,-22.255],[-64.56,-22.243],[-64.587,-22.213],[-64.596,-22.207],[-64.616,-22.202],[-64.639,-22.192],[-64.658,-22.178],[-64.679,-22.175],[-64.687,-22.173],[-64.695,-22.174],[-64.714,-22.182],[-64.723,-22.183],[-64.762,-22.174],[-64.832,-22.138],[-65.02,-22.097],[-65.19,-22.098],[-65.173,-22.098],[-65.174,-22.095],[-65.201,-21.977],[-65.211,-21.946],[-65.215,-21.943],[-65.223,-21.936],[-65.235,-21.92],[-65.26,-21.874],[-65.276,-21.851],[-65.283,-21.843],[-65.294,-21.834],[-65.3,-21.827],[-65.305,-21.819],[-65.31,-21.815],[-65.315,-21.811],[-65.319,-21.808],[-65.329,-21.803],[-65.32,-21.757],[-65.313,-21.742],[-65.304,-21.733],[-65.298,-21.726],[-65.295,-21.717],[-65.292,-21.688],[-65.289,-21.678],[-65.286,-21.672],[-65.282,-21.669],[-65.269,-21.654],[-65.255,-21.632],[-65.238,-21.589],[-65.236,-21.577],[-65.234,-21.568],[-65.235,-21.535],[-65.231,-21.478],[-65.203,-21.277],[-65.205,-21.257],[-65.205,-21.217],[-65.204,-21.207],[-65.187,-21.151],[-65.174,-20.968],[-65.172,-20.962],[-65.168,-20.956],[-65.162,-20.948],[-65.157,-20.946],[-65.151,-20.946],[-65.146,-20.948],[-65.138,-20.954],[-65.133,-20.957],[-65.116,-20.962],[-65.11,-20.962],[-65.104,-20.962],[-65.09,-20.957],[-65.084,-20.955],[-65.078,-20.955],[-65.074,-20.957],[-65.066,-20.964],[-65.035,-21],[-65.034,-21],[-65.031,-21.001],[-65.027,-21.001],[-65.02,-20.999],[-65.013,-21],[-65.012,-21],[-65.006,-21.007],[-65.003,-21.01],[-64.999,-21.011],[-64.994,-21.01],[-64.985,-21.007],[-64.978,-21.005],[-64.973,-21.006],[-64.969,-21.009],[-64.961,-21.015],[-64.957,-21.018],[-64.952,-21.02],[-64.946,-21.02],[-64.933,-21.019],[-64.927,-21.02],[-64.922,-21.022],[-64.918,-21.025],[-64.915,-21.029],[-64.913,-21.034],[-64.912,-21.039],[-64.91,-21.044],[-64.906,-21.047],[-64.894,-21.051],[-64.889,-21.053],[-64.885,-21.056],[-64.881,-21.059],[-64.878,-21.063],[-64.876,-21.067],[-64.873,-21.071],[-64.869,-21.074],[-64.865,-21.077],[-64.85,-21.084],[-64.846,-21.087],[-64.842,-21.091],[-64.839,-21.094],[-64.835,-21.097],[-64.83,-21.098],[-64.817,-21.092],[-64.799,-21.087],[-64.782,-21.08],[-64.775,-21.074],[-64.771,-21.067],[-64.769,-21.055],[-64.767,-21.05],[-64.759,-21.036],[-64.758,-21.031],[-64.758,-21.025],[-64.758,-21.013],[-64.756,-21],[-64.75,-20.986],[-64.736,-20.964],[-64.727,-20.949],[-64.717,-20.936],[-64.71,-20.931],[-64.703,-20.929],[-64.697,-20.93],[-64.692,-20.932],[-64.679,-20.939],[-64.673,-20.94],[-64.667,-20.942],[-64.655,-20.942],[-64.649,-20.942],[-64.644,-20.944],[-64.641,-20.947],[-64.638,-20.952],[-64.633,-20.967],[-64.63,-20.971],[-64.626,-20.974],[-64.607,-20.984],[-64.603,-20.987],[-64.596,-20.994],[-64.592,-21],[-64.573,-21.021],[-64.57,-21.025],[-64.546,-21.076],[-64.543,-21.081],[-64.54,-21.084],[-64.536,-21.087],[-64.531,-21.09],[-64.524,-21.091],[-64.515,-21.091],[-64.484,-21.083],[-64.465,-21.081],[-64.458,-21.081],[-64.446,-21.083],[-64.441,-21.085],[-64.432,-21.091],[-64.396,-21.12],[-64.359,-21.135],[-64.341,-21.138],[-64.28,-21.132],[-64.268,-21.133],[-64.241,-21.141],[-64.232,-21.142],[-64.226,-21.141],[-64.221,-21.138],[-64.216,-21.135],[-64.21,-21.129],[-64.206,-21.125],[-64.203,-21.12],[-64.201,-21.116],[-64.199,-21.11],[-64.198,-21.104],[-64.197,-21.084],[-64.197,-21.079],[-64.202,-21.064],[-64.202,-21.059],[-64.197,-21.05],[-64.196,-21.046],[-64.195,-21.041],[-64.193,-21.034],[-64.186,-21.026],[-64.183,-21.019],[-64.181,-21.013],[-64.181,-21.008],[-64.187,-20.948],[-64.186,-20.924],[-64.184,-20.914],[-64.183,-20.909],[-64.175,-20.891],[-64.169,-20.895],[-64.156,-20.908],[-64.143,-20.916],[-64.131,-20.915],[-64.116,-20.91],[-64.094,-20.91],[-64.074,-20.914],[-64.066,-20.921],[-64.062,-20.939],[-64.054,-20.945],[-64.025,-20.946],[-64.019,-20.944],[-64.008,-20.942],[-64,-20.944],[-64.008,-20.956],[-64.01,-20.966],[-64.003,-20.976],[-63.983,-20.994],[-63.983,-20.997],[-63.962,-20.997],[-63.869,-20.999],[-62.272,-21],[-62.272,-21.001],[-62.276,-21.067],[-62.308,-21.169],[-62.34,-21.273],[-62.375,-21.384],[-62.412,-21.501],[-62.446,-21.607],[-62.493,-21.752],[-62.529,-21.865],[-62.573,-22.001],[-62.599,-22.09],[-62.628,-22.185],[-62.65,-22.234]]]}}]}
