{"type":"FeatureCollection","features":[{"type":"Feature","id":"BS-AK","properties":{"id":"BS-AK","countryCode":"BS","isoSubdivision":"BS-AK","name":"Acklins","name_en":"Acklins","name_ko":"아클린스섬","type":"District","labelLongitude":-74.002,"labelLatitude":22.375,"minZoom":8},"geometry":{"type":"MultiPolygon","coordinates":[[[[-73.469,22.588],[-73.475,22.586],[-73.517,22.598],[-73.536,22.603],[-73.556,22.606],[-73.559,22.612],[-73.541,22.614],[-73.524,22.616],[-73.501,22.611],[-73.478,22.601],[-73.469,22.588]]],[[[-73.996,22.658],[-74.002,22.664],[-74.016,22.685],[-73.983,22.676],[-73.975,22.672],[-73.972,22.683],[-73.965,22.691],[-73.956,22.695],[-73.947,22.692],[-73.941,22.696],[-73.939,22.698],[-73.934,22.698],[-73.934,22.706],[-73.942,22.708],[-73.946,22.71],[-73.949,22.714],[-73.955,22.72],[-73.903,22.72],[-73.878,22.723],[-73.852,22.733],[-73.851,22.729],[-73.85,22.726],[-73.849,22.723],[-73.845,22.72],[-73.868,22.681],[-73.88,22.672],[-73.88,22.682],[-73.884,22.69],[-73.89,22.695],[-73.9,22.698],[-73.896,22.685],[-73.888,22.672],[-73.877,22.665],[-73.865,22.672],[-73.859,22.657],[-73.849,22.582],[-73.844,22.567],[-73.831,22.541],[-73.848,22.538],[-73.856,22.521],[-73.859,22.499],[-73.865,22.48],[-73.875,22.468],[-73.89,22.455],[-73.905,22.444],[-73.917,22.439],[-73.928,22.43],[-73.962,22.37],[-74.014,22.33],[-74.023,22.326],[-74.034,22.325],[-74.094,22.302],[-74.119,22.297],[-74.135,22.284],[-74.16,22.247],[-74.168,22.238],[-74.194,22.217],[-74.204,22.212],[-74.227,22.209],[-74.245,22.2],[-74.277,22.172],[-74.278,22.181],[-74.277,22.216],[-74.272,22.226],[-74.262,22.229],[-74.223,22.226],[-74.214,22.229],[-74.184,22.254],[-74.183,22.26],[-74.194,22.268],[-74.194,22.274],[-74.174,22.286],[-74.167,22.288],[-74.173,22.29],[-74.177,22.292],[-74.18,22.295],[-74.181,22.302],[-74.161,22.309],[-74.132,22.326],[-74.109,22.329],[-74.103,22.332],[-74.092,22.347],[-74.079,22.355],[-74.08,22.368],[-74.084,22.382],[-74.084,22.391],[-74.065,22.398],[-74.038,22.4],[-74.013,22.406],[-74.003,22.422],[-73.998,22.446],[-73.987,22.458],[-73.969,22.462],[-73.947,22.466],[-73.908,22.479],[-73.88,22.503],[-73.871,22.535],[-73.886,22.576],[-73.913,22.594],[-73.985,22.596],[-74.016,22.61],[-74.031,22.624],[-74.03,22.627],[-74.017,22.645],[-74.011,22.651],[-74.004,22.655],[-73.996,22.658]]],[[[-73.618,22.601],[-73.606,22.609],[-73.594,22.602],[-73.608,22.577],[-73.625,22.574],[-73.618,22.601]]]]}},{"type":"Feature","id":"BS-BI","properties":{"id":"BS-BI","countryCode":"BS","isoSubdivision":"BS-BI","name":"Bimini","name_en":"Bimini","name_ko":"비미니","type":"District","labelLongitude":-79.281,"labelLatitude":25.707,"minZoom":8},"geometry":{"type":"MultiPolygon","coordinates":[[[[-79.514,23.496],[-79.518,23.494],[-79.537,23.506],[-79.538,23.51],[-79.514,23.496]]],[[[-79.563,23.547],[-79.553,23.534],[-79.555,23.533],[-79.594,23.575],[-79.589,23.571],[-79.563,23.547]]],[[[-79.269,25.539],[-79.267,25.538],[-79.262,25.528],[-79.264,25.529],[-79.269,25.539]]],[[[-79.289,25.559],[-79.288,25.563],[-79.279,25.552],[-79.28,25.548],[-79.289,25.559]]],[[[-79.25,25.775],[-79.246,25.764],[-79.243,25.743],[-79.246,25.735],[-79.248,25.739],[-79.255,25.736],[-79.267,25.732],[-79.269,25.742],[-79.262,25.757],[-79.266,25.762],[-79.279,25.75],[-79.286,25.742],[-79.292,25.734],[-79.294,25.721],[-79.283,25.713],[-79.268,25.707],[-79.258,25.699],[-79.262,25.694],[-79.289,25.698],[-79.301,25.698],[-79.304,25.702],[-79.301,25.717],[-79.294,25.736],[-79.28,25.757],[-79.261,25.772],[-79.25,25.775]]]]}},{"type":"Feature","id":"BS-BP","properties":{"id":"BS-BP","countryCode":"BS","isoSubdivision":"BS-BP","name":"Black Point","name_en":"Black Point","name_ko":"블랙포인트","type":"District","labelLongitude":-76.362,"labelLatitude":24.072,"minZoom":8},"geometry":{"type":"MultiPolygon","coordinates":[[[[-76.325,23.974],[-76.34,23.988],[-76.359,24.024],[-76.375,24.047],[-76.387,24.076],[-76.398,24.093],[-76.401,24.103],[-76.401,24.117],[-76.377,24.101],[-76.319,23.98],[-76.325,23.974]]],[[[-76.463,24.214],[-76.482,24.214],[-76.493,24.219],[-76.535,24.268],[-76.545,24.283],[-76.545,24.296],[-76.53,24.287],[-76.52,24.275],[-76.513,24.261],[-76.504,24.248],[-76.492,24.239],[-76.481,24.234],[-76.472,24.228],[-76.463,24.214]]],[[[-76.774,24.539],[-76.773,24.532],[-76.773,24.519],[-76.779,24.514],[-76.789,24.519],[-76.795,24.531],[-76.792,24.549],[-76.785,24.553],[-76.777,24.544],[-76.774,24.539]]]]}},{"type":"Feature","id":"BS-BY","properties":{"id":"BS-BY","countryCode":"BS","isoSubdivision":"BS-BY","name":"Berry Islands","name_en":"Berry Islands","name_ko":"베리 제도","type":"District","labelLongitude":-77.853,"labelLatitude":25.759,"minZoom":8},"geometry":{"type":"MultiPolygon","coordinates":[[[[-77.819,25.708],[-77.831,25.709],[-77.844,25.722],[-77.86,25.749],[-77.88,25.769],[-77.887,25.781],[-77.881,25.79],[-77.868,25.787],[-77.858,25.777],[-77.821,25.717],[-77.819,25.708]]],[[[-77.864,25.408],[-77.88,25.408],[-77.888,25.409],[-77.907,25.409],[-77.906,25.411],[-77.9,25.415],[-77.892,25.419],[-77.886,25.419],[-77.875,25.418],[-77.859,25.419],[-77.847,25.426],[-77.84,25.435],[-77.837,25.435],[-77.842,25.423],[-77.852,25.413],[-77.864,25.408]]]]}},{"type":"Feature","id":"BS-CE","properties":{"id":"BS-CE","countryCode":"BS","isoSubdivision":"BS-CE","name":"Central Eleuthera","name_en":"Central Eleuthera","name_ko":"센트럴일루서라","type":"District","labelLongitude":-76.176,"labelLatitude":25.159,"minZoom":8},"geometry":{"type":"Polygon","coordinates":[[[-76.314,25.3],[-76.284,25.262],[-76.224,25.208],[-76.161,25.166],[-76.131,25.148],[-76.118,25.134],[-76.113,25.115],[-76.121,25.03],[-76.126,25.014],[-76.127,25.005],[-76.131,24.995],[-76.14,24.988],[-76.149,24.985],[-76.154,24.981],[-76.17,24.989],[-76.159,24.998],[-76.154,25.005],[-76.147,25.062],[-76.147,25.084],[-76.165,25.13],[-76.196,25.154],[-76.232,25.171],[-76.264,25.194],[-76.333,25.285],[-76.314,25.3]]]}},{"type":"Feature","id":"BS-CI","properties":{"id":"BS-CI","countryCode":"BS","isoSubdivision":"BS-CI","name":"Cat Island","name_en":"Cat Island","name_ko":"캣섬","type":"District","labelLongitude":-75.389,"labelLatitude":24.258,"minZoom":8},"geometry":{"type":"Polygon","coordinates":[[[-75.315,24.217],[-75.307,24.203],[-75.29,24.145],[-75.336,24.159],[-75.356,24.16],[-75.38,24.158],[-75.425,24.15],[-75.441,24.142],[-75.458,24.128],[-75.483,24.126],[-75.51,24.142],[-75.521,24.163],[-75.5,24.173],[-75.485,24.176],[-75.464,24.186],[-75.444,24.199],[-75.434,24.214],[-75.415,24.213],[-75.406,24.24],[-75.41,24.273],[-75.431,24.289],[-75.46,24.295],[-75.481,24.309],[-75.534,24.389],[-75.542,24.417],[-75.561,24.443],[-75.565,24.457],[-75.572,24.489],[-75.588,24.513],[-75.614,24.527],[-75.647,24.529],[-75.643,24.539],[-75.643,24.552],[-75.644,24.564],[-75.647,24.576],[-75.653,24.588],[-75.658,24.593],[-75.665,24.596],[-75.709,24.631],[-75.741,24.646],[-75.75,24.652],[-75.757,24.66],[-75.758,24.668],[-75.753,24.676],[-75.732,24.699],[-75.724,24.702],[-75.709,24.7],[-75.702,24.696],[-75.675,24.672],[-75.649,24.663],[-75.637,24.657],[-75.626,24.645],[-75.619,24.581],[-75.613,24.562],[-75.603,24.552],[-75.587,24.539],[-75.572,24.523],[-75.56,24.491],[-75.532,24.445],[-75.476,24.371],[-75.458,24.357],[-75.419,24.338],[-75.4,24.323],[-75.376,24.276],[-75.37,24.268],[-75.359,24.261],[-75.315,24.217]]]}},{"type":"Feature","id":"BS-CK","properties":{"id":"BS-CK","countryCode":"BS","isoSubdivision":"BS-CK","name":"Crooked Island","name_en":"Crooked Island","name_ko":"크루커드섬","type":"District","labelLongitude":-74.24,"labelLatitude":22.747,"minZoom":8},"geometry":{"type":"MultiPolygon","coordinates":[[[[-74.284,22.672],[-74.289,22.644],[-74.318,22.602],[-74.355,22.563],[-74.386,22.541],[-74.377,22.584],[-74.348,22.613],[-74.312,22.638],[-74.284,22.672]]],[[[-74.287,22.733],[-74.352,22.823],[-74.348,22.826],[-74.347,22.829],[-74.346,22.833],[-74.345,22.836],[-74.334,22.837],[-74.317,22.842],[-74.31,22.843],[-74.298,22.84],[-74.27,22.823],[-74.26,22.82],[-74.238,22.818],[-74.229,22.816],[-74.201,22.795],[-74.197,22.786],[-74.196,22.769],[-74.194,22.761],[-74.19,22.76],[-74.178,22.762],[-74.174,22.761],[-74.172,22.758],[-74.167,22.747],[-74.148,22.741],[-74.112,22.738],[-74.091,22.733],[-74.098,22.747],[-74.076,22.742],[-74.016,22.72],[-74.091,22.658],[-74.094,22.666],[-74.095,22.668],[-74.105,22.672],[-74.104,22.688],[-74.122,22.685],[-74.148,22.678],[-74.222,22.696],[-74.233,22.704],[-74.249,22.72],[-74.254,22.708],[-74.266,22.699],[-74.278,22.693],[-74.284,22.695],[-74.278,22.717],[-74.278,22.728],[-74.287,22.733]]],[[[-73.666,23.09],[-73.755,23.073],[-73.797,23.074],[-73.817,23.104],[-73.742,23.097],[-73.686,23.102],[-73.666,23.097],[-73.666,23.09]]]]}},{"type":"Feature","id":"BS-CO","properties":{"id":"BS-CO","countryCode":"BS","isoSubdivision":"BS-CO","name":"Central Abaco","name_en":"Central Abaco","name_ko":"센트럴아바코","type":"District","labelLongitude":-77.118,"labelLatitude":26.422,"minZoom":8},"geometry":{"type":"MultiPolygon","coordinates":[[[[-77.231,26.285],[-77.233,26.298],[-77.25,26.313],[-77.219,26.355],[-77.22,26.365],[-77.229,26.377],[-77.23,26.447],[-77.215,26.448],[-77.205,26.453],[-77.196,26.463],[-77.189,26.475],[-77.188,26.48],[-77.189,26.499],[-77.186,26.506],[-77.18,26.51],[-77.173,26.513],[-77.168,26.516],[-77.158,26.531],[-77.154,26.549],[-77.161,26.564],[-77.196,26.573],[-77.22,26.582],[-77.312,26.595],[-77.33,26.605],[-77.341,26.622],[-77.353,26.646],[-77.348,26.652],[-77.347,26.66],[-77.35,26.669],[-77.361,26.682],[-77.367,26.693],[-77.37,26.698],[-77.375,26.7],[-77.328,26.709],[-77.307,26.696],[-77.284,26.69],[-77.251,26.688],[-77.259,26.677],[-77.273,26.673],[-77.305,26.674],[-77.291,26.647],[-77.27,26.625],[-77.244,26.611],[-77.183,26.6],[-77.155,26.588],[-77.107,26.557],[-77.071,26.539],[-77.059,26.529],[-77.05,26.516],[-77.042,26.498],[-77.042,26.482],[-77.055,26.475],[-77.059,26.468],[-77.059,26.423],[-77.055,26.407],[-77.046,26.396],[-77.033,26.39],[-77.017,26.386],[-77.03,26.363],[-77.032,26.355],[-77.231,26.285]]],[[[-77.244,26.478],[-77.238,26.474],[-77.236,26.47],[-77.237,26.469],[-77.238,26.47],[-77.242,26.471],[-77.243,26.469],[-77.241,26.467],[-77.24,26.467],[-77.243,26.466],[-77.244,26.454],[-77.241,26.443],[-77.247,26.439],[-77.251,26.438],[-77.255,26.438],[-77.263,26.442],[-77.267,26.453],[-77.272,26.461],[-77.278,26.466],[-77.277,26.47],[-77.272,26.469],[-77.268,26.473],[-77.262,26.478],[-77.254,26.48],[-77.244,26.478]]]]}},{"type":"Feature","id":"BS-CS","properties":{"id":"BS-CS","countryCode":"BS","isoSubdivision":"BS-CS","name":"Central Andros","name_en":"Central Andros","name_ko":"센트럴안드로스","type":"District","labelLongitude":-77.935,"labelLatitude":24.476,"minZoom":8},"geometry":{"type":"MultiPolygon","coordinates":[[[[-77.881,24.186],[-77.894,24.178],[-77.945,24.154],[-77.963,24.152],[-77.969,24.16],[-77.974,24.173],[-77.976,24.187],[-77.973,24.196],[-77.964,24.197],[-77.952,24.194],[-77.941,24.194],[-77.936,24.203],[-77.926,24.206],[-77.871,24.241],[-77.866,24.243],[-77.85,24.251],[-77.84,24.255],[-77.799,24.255],[-77.802,24.244],[-77.808,24.239],[-77.826,24.235],[-77.834,24.235],[-77.839,24.238],[-77.844,24.24],[-77.854,24.235],[-77.861,24.225],[-77.87,24.198],[-77.881,24.186]]],[[[-77.922,24.262],[-77.936,24.262],[-77.943,24.253],[-77.942,24.24],[-77.936,24.227],[-77.95,24.231],[-77.976,24.227],[-77.99,24.227],[-78.001,24.231],[-78.013,24.24],[-78.017,24.248],[-78.005,24.255],[-77.979,24.259],[-77.953,24.27],[-77.932,24.276],[-77.922,24.262]]],[[[-77.768,24.327],[-77.787,24.315],[-77.8,24.317],[-77.804,24.327],[-77.799,24.337],[-77.777,24.347],[-77.758,24.359],[-77.739,24.367],[-77.719,24.372],[-77.703,24.371],[-77.696,24.367],[-77.688,24.361],[-77.682,24.353],[-77.683,24.344],[-77.69,24.338],[-77.701,24.341],[-77.711,24.347],[-77.72,24.351],[-77.738,24.35],[-77.748,24.346],[-77.768,24.327]]],[[[-77.742,24.635],[-77.748,24.621],[-77.754,24.602],[-77.745,24.578],[-77.724,24.535],[-77.719,24.5],[-77.728,24.474],[-77.751,24.458],[-77.789,24.453],[-77.804,24.449],[-77.815,24.439],[-77.823,24.427],[-77.833,24.419],[-77.864,24.415],[-77.872,24.407],[-77.86,24.385],[-77.872,24.374],[-77.909,24.351],[-77.927,24.346],[-77.961,24.346],[-77.973,24.341],[-78.013,24.314],[-78.018,24.306],[-78.016,24.297],[-78.012,24.289],[-78.012,24.282],[-78.018,24.275],[-78.027,24.273],[-78.037,24.276],[-78.046,24.282],[-78.052,24.289],[-78.063,24.316],[-78.07,24.35],[-78.08,24.379],[-78.103,24.392],[-78.134,24.404],[-78.141,24.433],[-78.134,24.502],[-78.1,24.548],[-78.072,24.597],[-78.03,24.618],[-77.942,24.639],[-77.834,24.649],[-77.742,24.635]]],[[[-77.869,24.347],[-77.84,24.35],[-77.833,24.35],[-77.837,24.342],[-77.849,24.328],[-77.867,24.319],[-77.884,24.327],[-77.884,24.341],[-77.869,24.347]]]]}},{"type":"Feature","id":"BS-EG","properties":{"id":"BS-EG","countryCode":"BS","isoSubdivision":"BS-EG","name":"East Grand Bahama","name_en":"East Grand Bahama","name_ko":"이스트그랜드바하마","type":"District","labelLongitude":-78.215,"labelLatitude":26.66,"minZoom":8},"geometry":{"type":"MultiPolygon","coordinates":[[[[-78.474,26.713],[-78.438,26.7],[-78.417,26.705],[-78.371,26.695],[-78.32,26.687],[-78.287,26.685],[-78.274,26.704],[-78.253,26.713],[-78.222,26.7],[-78.203,26.697],[-78.167,26.71],[-78.119,26.704],[-78.087,26.713],[-78.055,26.726],[-78.035,26.729],[-77.972,26.73],[-77.956,26.735],[-77.947,26.747],[-77.94,26.759],[-77.931,26.77],[-77.915,26.776],[-77.913,26.758],[-77.918,26.737],[-77.921,26.717],[-77.903,26.682],[-77.902,26.662],[-77.911,26.646],[-77.929,26.639],[-77.936,26.642],[-77.953,26.655],[-77.963,26.66],[-77.975,26.662],[-78.041,26.658],[-78.1,26.646],[-78.238,26.621],[-78.293,26.621],[-78.411,26.594],[-78.446,26.661],[-78.474,26.713]]],[[[-77.854,26.601],[-77.848,26.606],[-77.838,26.614],[-77.835,26.611],[-77.844,26.601],[-77.847,26.595],[-77.847,26.591],[-77.852,26.583],[-77.856,26.573],[-77.862,26.564],[-77.868,26.564],[-77.871,26.567],[-77.873,26.571],[-77.887,26.586],[-77.891,26.594],[-77.893,26.603],[-77.888,26.607],[-77.858,26.612],[-77.853,26.607],[-77.862,26.597],[-77.864,26.594],[-77.857,26.598],[-77.854,26.601]]]]}},{"type":"Feature","id":"BS-EX","properties":{"id":"BS-EX","countryCode":"BS","isoSubdivision":"BS-EX","name":"Exuma","name_en":"Exuma","name_ko":"엑수마","type":"District","labelLongitude":-75.907,"labelLatitude":23.586,"minZoom":8},"geometry":{"type":"MultiPolygon","coordinates":[[[[-75.654,23.459],[-75.62,23.457],[-75.577,23.446],[-75.54,23.428],[-75.524,23.405],[-75.56,23.416],[-75.602,23.423],[-75.637,23.435],[-75.654,23.459]]],[[[-75.798,23.539],[-75.783,23.508],[-75.745,23.483],[-75.661,23.453],[-75.675,23.439],[-75.698,23.444],[-75.743,23.467],[-75.794,23.471],[-75.813,23.48],[-75.804,23.5],[-75.823,23.512],[-75.842,23.529],[-75.859,23.538],[-75.873,23.528],[-75.908,23.562],[-75.945,23.588],[-75.988,23.601],[-76.037,23.597],[-76.037,23.603],[-76.008,23.612],[-76.003,23.614],[-76.005,23.623],[-76.012,23.632],[-76.011,23.638],[-76.021,23.644],[-76.029,23.656],[-76.031,23.669],[-76.024,23.679],[-76.011,23.677],[-76.003,23.68],[-75.996,23.685],[-75.99,23.686],[-75.982,23.683],[-75.977,23.677],[-75.968,23.665],[-75.957,23.655],[-75.945,23.649],[-75.929,23.646],[-75.908,23.645],[-75.911,23.641],[-75.913,23.638],[-75.916,23.635],[-75.922,23.631],[-75.856,23.567],[-75.809,23.542],[-75.798,23.539]]]]}},{"type":"Feature","id":"BS-FP","properties":{"id":"BS-FP","countryCode":"BS","isoSubdivision":"BS-FP","name":"Freeport","name_en":"Freeport","name_ko":"프리포트","type":"District","labelLongitude":-78.625,"labelLatitude":26.534,"minZoom":8},"geometry":{"type":"Polygon","coordinates":[[[-78.598,26.531],[-78.608,26.526],[-78.629,26.516],[-78.646,26.505],[-78.657,26.521],[-78.636,26.546],[-78.613,26.546],[-78.598,26.531]]]}},{"type":"Feature","id":"BS-HI","properties":{"id":"BS-HI","countryCode":"BS","isoSubdivision":"BS-HI","name":"Harbour Island","name_en":"Harbour Island","name_ko":"하버섬","type":"District","labelLongitude":-76.764,"labelLatitude":25.544,"minZoom":8},"geometry":{"type":"Polygon","coordinates":[[[-76.77,25.551],[-76.758,25.549],[-76.746,25.545],[-76.75,25.54],[-76.761,25.54],[-76.787,25.542],[-76.781,25.548],[-76.77,25.551]]]}},{"type":"Feature","id":"BS-IN","properties":{"id":"BS-IN","countryCode":"BS","isoSubdivision":"BS-IN","name":"Inagua","name_en":"Inagua","name_ko":"이나과섬","type":"District","labelLongitude":-73.361,"labelLatitude":21.06,"minZoom":8},"geometry":{"type":"MultiPolygon","coordinates":[[[[-73,21.452],[-73.034,21.436],[-73.044,21.426],[-73.053,21.425],[-73.055,21.435],[-73.052,21.448],[-73.059,21.467],[-73.072,21.486],[-73.076,21.507],[-73.066,21.514],[-73.043,21.521],[-73.024,21.532],[-73.007,21.552],[-72.992,21.562],[-72.982,21.557],[-72.97,21.542],[-72.959,21.533],[-72.94,21.523],[-72.92,21.515],[-72.91,21.505],[-72.915,21.485],[-72.933,21.473],[-72.971,21.469],[-72.988,21.454],[-73,21.452]]],[[[-73.647,21.062],[-73.645,21.081],[-73.657,21.094],[-73.668,21.105],[-73.668,21.115],[-73.633,21.1],[-73.613,21.107],[-73.596,21.113],[-73.584,21.121],[-73.553,21.13],[-73.546,21.15],[-73.524,21.168],[-73.515,21.187],[-73.493,21.182],[-73.473,21.193],[-73.444,21.193],[-73.433,21.193],[-73.423,21.198],[-73.413,21.205],[-73.398,21.225],[-73.39,21.233],[-73.386,21.229],[-73.38,21.208],[-73.364,21.19],[-73.344,21.165],[-73.318,21.154],[-73.255,21.135],[-73.233,21.148],[-73.211,21.158],[-73.161,21.17],[-73.138,21.198],[-73.117,21.237],[-73.068,21.31],[-73.053,21.329],[-73.034,21.34],[-73.012,21.332],[-73.005,21.314],[-73.006,21.291],[-73.026,21.185],[-73.034,21.157],[-73.098,21.081],[-73.13,20.994],[-73.151,20.982],[-73.226,20.952],[-73.269,20.959],[-73.282,20.955],[-73.291,20.951],[-73.31,20.938],[-73.317,20.938],[-73.317,20.945],[-73.311,20.951],[-73.325,20.961],[-73.347,20.964],[-73.399,20.936],[-73.433,20.938],[-73.493,20.924],[-73.537,20.941],[-73.601,20.947],[-73.615,20.945],[-73.631,20.937],[-73.636,20.929],[-73.641,20.92],[-73.645,20.912],[-73.652,20.914],[-73.663,20.921],[-73.676,20.935],[-73.679,20.946],[-73.681,20.963],[-73.682,20.986],[-73.7,21.014],[-73.703,21.02],[-73.7,21.027],[-73.67,21.03],[-73.653,21.04],[-73.647,21.062]]]]}},{"type":"Feature","id":"BS-LI","properties":{"id":"BS-LI","countryCode":"BS","isoSubdivision":"BS-LI","name":"Long Island","name_en":"Long Island","name_ko":"롱섬","type":"District","labelLongitude":-74.913,"labelLatitude":23.037,"minZoom":8},"geometry":{"type":"Polygon","coordinates":[[[-74.859,22.98],[-74.847,22.97],[-74.838,22.944],[-74.833,22.914],[-74.832,22.875],[-74.834,22.864],[-74.84,22.86],[-74.852,22.864],[-74.858,22.871],[-74.865,22.905],[-74.869,22.902],[-74.879,22.898],[-74.885,22.924],[-74.914,22.971],[-74.924,23.012],[-74.934,23.026],[-74.968,23.064],[-74.978,23.073],[-74.991,23.079],[-75.105,23.1],[-75.13,23.114],[-75.143,23.124],[-75.214,23.165],[-75.23,23.171],[-75.227,23.181],[-75.222,23.19],[-75.216,23.198],[-75.208,23.206],[-75.202,23.206],[-75.192,23.192],[-75.164,23.179],[-75.153,23.165],[-75.179,23.169],[-75.187,23.171],[-75.181,23.16],[-75.17,23.15],[-75.158,23.144],[-75.146,23.145],[-75.134,23.137],[-75.115,23.122],[-75.106,23.117],[-75.095,23.115],[-75.079,23.114],[-75.068,23.117],[-75.075,23.127],[-75.132,23.186],[-75.14,23.203],[-75.136,23.23],[-75.127,23.249],[-75.118,23.265],[-75.113,23.281],[-75.114,23.305],[-75.12,23.332],[-75.132,23.356],[-75.146,23.371],[-75.15,23.366],[-75.161,23.357],[-75.159,23.381],[-75.197,23.41],[-75.195,23.432],[-75.208,23.435],[-75.221,23.44],[-75.227,23.447],[-75.222,23.459],[-75.243,23.474],[-75.25,23.49],[-75.256,23.535],[-75.277,23.583],[-75.286,23.588],[-75.293,23.585],[-75.3,23.58],[-75.312,23.577],[-75.305,23.625],[-75.31,23.639],[-75.331,23.624],[-75.322,23.637],[-75.318,23.642],[-75.312,23.645],[-75.324,23.649],[-75.332,23.642],[-75.34,23.631],[-75.353,23.624],[-75.353,23.631],[-75.342,23.641],[-75.335,23.653],[-75.33,23.668],[-75.331,23.686],[-75.325,23.685],[-75.32,23.682],[-75.316,23.677],[-75.312,23.672],[-75.253,23.583],[-75.239,23.575],[-75.221,23.556],[-75.205,23.533],[-75.195,23.514],[-75.183,23.446],[-75.171,23.429],[-75.153,23.411],[-75.094,23.305],[-75.096,23.295],[-75.088,23.286],[-75.085,23.264],[-75.085,23.22],[-75.077,23.172],[-75.06,23.142],[-75.032,23.123],[-74.946,23.094],[-74.91,23.067],[-74.845,23],[-74.849,22.995],[-74.855,22.985],[-74.859,22.98]]]}},{"type":"Feature","id":"BS-MC","properties":{"id":"BS-MC","countryCode":"BS","isoSubdivision":"BS-MC","name":"Mangrove Cay","name_en":"Mangrove Cay","name_ko":"맹그로브케이","type":"District","labelLongitude":-77.802,"labelLatitude":24.081,"minZoom":8},"geometry":{"type":"Polygon","coordinates":[[[-77.823,23.98],[-77.837,23.985],[-77.838,23.996],[-77.833,24.01],[-77.833,24.022],[-77.845,24.033],[-77.859,24.041],[-77.867,24.048],[-77.86,24.056],[-77.86,24.063],[-77.88,24.074],[-77.942,24.097],[-77.936,24.104],[-77.929,24.111],[-77.915,24.103],[-77.909,24.105],[-77.908,24.113],[-77.909,24.117],[-77.908,24.127],[-77.911,24.131],[-77.911,24.136],[-77.902,24.145],[-77.892,24.15],[-77.865,24.158],[-77.854,24.166],[-77.85,24.174],[-77.843,24.199],[-77.84,24.207],[-77.805,24.209],[-77.792,24.214],[-77.782,24.222],[-77.779,24.228],[-77.777,24.236],[-77.771,24.248],[-77.756,24.259],[-77.714,24.275],[-77.703,24.289],[-77.675,24.303],[-77.666,24.289],[-77.659,24.274],[-77.65,24.26],[-77.638,24.255],[-77.631,24.249],[-77.641,24.237],[-77.702,24.19],[-77.727,24.178],[-77.758,24.173],[-77.758,24.166],[-77.74,24.164],[-77.733,24.157],[-77.737,24.149],[-77.755,24.145],[-77.759,24.141],[-77.748,24.132],[-77.724,24.117],[-77.708,24.124],[-77.702,24.113],[-77.705,24.095],[-77.721,24.066],[-77.725,24.053],[-77.73,24.043],[-77.744,24.035],[-77.782,24.008],[-77.823,23.98]]]}},{"type":"Feature","id":"BS-MG","properties":{"id":"BS-MG","countryCode":"BS","isoSubdivision":"BS-MG","name":"Mayaguana","name_en":"Mayaguana","name_ko":"마야구아나","type":"District","labelLongitude":-73.029,"labelLatitude":22.385,"minZoom":8},"geometry":{"type":"Polygon","coordinates":[[[-73.139,22.363],[-73.156,22.368],[-73.166,22.374],[-73.164,22.384],[-73.145,22.397],[-73.151,22.404],[-73.152,22.409],[-73.145,22.419],[-73.141,22.432],[-73.142,22.442],[-73.142,22.451],[-73.132,22.46],[-73.115,22.439],[-73.106,22.433],[-73.091,22.432],[-73.091,22.434],[-73.085,22.438],[-73.077,22.443],[-73.07,22.445],[-73.063,22.445],[-73.048,22.44],[-73.04,22.439],[-73.015,22.43],[-72.964,22.398],[-72.94,22.397],[-72.945,22.402],[-72.954,22.419],[-72.92,22.403],[-72.904,22.399],[-72.893,22.404],[-72.877,22.393],[-72.862,22.387],[-72.844,22.384],[-72.82,22.384],[-72.814,22.381],[-72.806,22.374],[-72.793,22.36],[-72.783,22.353],[-72.764,22.353],[-72.755,22.35],[-72.746,22.331],[-72.751,22.311],[-72.764,22.295],[-72.779,22.288],[-72.797,22.294],[-72.844,22.336],[-72.864,22.35],[-72.88,22.358],[-72.898,22.362],[-72.923,22.363],[-72.934,22.362],[-72.949,22.357],[-72.957,22.356],[-72.969,22.358],[-72.975,22.363],[-72.98,22.368],[-72.988,22.37],[-73.01,22.366],[-73.05,22.347],[-73.074,22.342],[-73.084,22.344],[-73.091,22.349],[-73.096,22.354],[-73.101,22.356],[-73.139,22.363]]]}},{"type":"Feature","id":"BS-MI","properties":{"id":"BS-MI","countryCode":"BS","isoSubdivision":"BS-MI","name":"Moore's Island","name_en":"Moore's Island","name_ko":"무어스아일랜드","type":"District","labelLongitude":-77.553,"labelLatitude":26.297,"minZoom":8},"geometry":{"type":"Polygon","coordinates":[[[-77.538,26.307],[-77.542,26.299],[-77.573,26.269],[-77.567,26.291],[-77.572,26.305],[-77.579,26.318],[-77.58,26.338],[-77.57,26.333],[-77.544,26.312],[-77.538,26.307]]]}},{"type":"Feature","id":"BS-NE","properties":{"id":"BS-NE","countryCode":"BS","isoSubdivision":"BS-NE","name":"North Eleuthera","name_en":"North Eleuthera","name_ko":"노스일루서라","type":"District","labelLongitude":-76.59,"labelLatitude":25.438,"minZoom":8},"geometry":{"type":"Polygon","coordinates":[[[-76.333,25.285],[-76.346,25.304],[-76.372,25.322],[-76.41,25.335],[-76.49,25.351],[-76.531,25.37],[-76.591,25.423],[-76.631,25.433],[-76.652,25.435],[-76.694,25.445],[-76.713,25.447],[-76.734,25.442],[-76.769,25.424],[-76.784,25.426],[-76.76,25.45],[-76.746,25.489],[-76.73,25.564],[-76.737,25.564],[-76.702,25.564],[-76.687,25.562],[-76.675,25.557],[-76.686,25.541],[-76.691,25.526],[-76.691,25.509],[-76.689,25.488],[-76.673,25.507],[-76.662,25.497],[-76.653,25.478],[-76.644,25.467],[-76.625,25.462],[-76.498,25.373],[-76.461,25.355],[-76.415,25.344],[-76.368,25.343],[-76.352,25.339],[-76.336,25.327],[-76.314,25.3],[-76.333,25.285]]]}},{"type":"Feature","id":"BS-NO","properties":{"id":"BS-NO","countryCode":"BS","isoSubdivision":"BS-NO","name":"North Abaco","name_en":"North Abaco","name_ko":"노스아바코","type":"District","labelLongitude":-77.635,"labelLatitude":26.887,"minZoom":8},"geometry":{"type":"Polygon","coordinates":[[[-77.375,26.7],[-77.38,26.696],[-77.385,26.69],[-77.391,26.688],[-77.411,26.689],[-77.427,26.695],[-77.434,26.706],[-77.428,26.721],[-77.445,26.755],[-77.49,26.823],[-77.517,26.852],[-77.534,26.863],[-77.556,26.871],[-77.578,26.871],[-77.597,26.862],[-77.614,26.857],[-77.638,26.86],[-77.697,26.877],[-77.715,26.879],[-77.755,26.879],[-77.766,26.883],[-77.795,26.9],[-77.812,26.907],[-77.831,26.909],[-77.91,26.904],[-77.941,26.894],[-77.963,26.893],[-77.96,26.897],[-77.957,26.898],[-77.949,26.9],[-77.913,26.921],[-77.868,26.928],[-77.774,26.927],[-77.682,26.908],[-77.63,26.904],[-77.607,26.92],[-77.554,26.898],[-77.511,26.87],[-77.328,26.709],[-77.375,26.7]]]}},{"type":"Feature","id":"BS-NS","properties":{"id":"BS-NS","countryCode":"BS","isoSubdivision":"BS-NS","name":"North Andros","name_en":"North Andros","name_ko":"노스안드로스","type":"District","labelLongitude":-77.998,"labelLatitude":24.828,"minZoom":8},"geometry":{"type":"Polygon","coordinates":[[[-78.134,24.502],[-78.152,24.489],[-78.165,24.475],[-78.18,24.465],[-78.206,24.461],[-78.226,24.465],[-78.352,24.53],[-78.411,24.581],[-78.431,24.602],[-78.443,24.624],[-78.43,24.628],[-78.409,24.636],[-78.39,24.647],[-78.381,24.656],[-78.378,24.669],[-78.371,24.668],[-78.362,24.661],[-78.354,24.659],[-78.343,24.665],[-78.335,24.673],[-78.333,24.682],[-78.341,24.693],[-78.327,24.711],[-78.311,24.71],[-78.298,24.697],[-78.292,24.676],[-78.293,24.659],[-78.297,24.644],[-78.303,24.63],[-78.313,24.618],[-78.33,24.606],[-78.333,24.604],[-78.331,24.594],[-78.326,24.585],[-78.319,24.582],[-78.292,24.597],[-78.277,24.601],[-78.269,24.609],[-78.272,24.631],[-78.252,24.623],[-78.252,24.605],[-78.257,24.584],[-78.254,24.566],[-78.238,24.557],[-78.228,24.569],[-78.226,24.592],[-78.231,24.611],[-78.221,24.607],[-78.211,24.601],[-78.202,24.599],[-78.197,24.604],[-78.197,24.618],[-78.204,24.628],[-78.215,24.636],[-78.223,24.645],[-78.225,24.651],[-78.222,24.666],[-78.223,24.672],[-78.229,24.68],[-78.245,24.693],[-78.251,24.7],[-78.255,24.714],[-78.258,24.73],[-78.264,24.739],[-78.278,24.734],[-78.268,24.726],[-78.264,24.711],[-78.265,24.672],[-78.274,24.683],[-78.281,24.699],[-78.288,24.714],[-78.302,24.721],[-78.304,24.728],[-78.301,24.745],[-78.292,24.775],[-78.277,24.79],[-78.255,24.806],[-78.24,24.826],[-78.244,24.851],[-78.234,24.857],[-78.208,24.862],[-78.203,24.868],[-78.2,24.88],[-78.186,24.905],[-78.183,24.919],[-78.174,24.92],[-78.177,24.927],[-78.186,24.938],[-78.19,24.947],[-78.188,24.955],[-78.182,24.968],[-78.175,24.982],[-78.166,24.988],[-78.158,25],[-78.16,25.028],[-78.169,25.073],[-78.18,25.105],[-78.201,25.146],[-78.214,25.185],[-78.203,25.207],[-78.186,25.206],[-78.15,25.2],[-78.134,25.194],[-78.122,25.183],[-78.115,25.172],[-78.107,25.163],[-78.09,25.159],[-78.075,25.165],[-78.06,25.176],[-78.045,25.183],[-78.028,25.176],[-78.015,25.168],[-78.001,25.161],[-77.988,25.152],[-77.977,25.138],[-77.992,25.123],[-77.994,25.105],[-77.986,25.089],[-77.97,25.077],[-77.983,25.038],[-77.987,25.013],[-77.981,25.002],[-77.962,24.999],[-77.947,24.991],[-77.934,24.976],[-77.873,24.839],[-77.829,24.778],[-77.813,24.762],[-77.796,24.755],[-77.784,24.748],[-77.746,24.715],[-77.737,24.7],[-77.736,24.682],[-77.738,24.658],[-77.742,24.635],[-77.834,24.649],[-77.942,24.639],[-78.03,24.618],[-78.072,24.597],[-78.1,24.548],[-78.134,24.502]]]}},{"type":"Feature","id":"BS-RC","properties":{"id":"BS-RC","countryCode":"BS","isoSubdivision":"BS-RC","name":"Rum Cay","name_en":"Rum Cay","name_ko":"럼케이섬","type":"District","labelLongitude":-74.841,"labelLatitude":23.679,"minZoom":8},"geometry":{"type":"MultiPolygon","coordinates":[[[[-74.9,23.706],[-74.85,23.72],[-74.812,23.72],[-74.8,23.715],[-74.777,23.7],[-74.787,23.684],[-74.794,23.671],[-74.804,23.664],[-74.825,23.665],[-74.825,23.659],[-74.819,23.651],[-74.837,23.651],[-74.861,23.658],[-74.873,23.672],[-74.891,23.665],[-74.924,23.664],[-74.942,23.659],[-74.945,23.682],[-74.939,23.694],[-74.923,23.701],[-74.9,23.706]]],[[[-75.109,23.847],[-75.106,23.842],[-75.106,23.831],[-75.111,23.819],[-75.117,23.815],[-75.124,23.831],[-75.117,23.845],[-75.109,23.847]]]]}},{"type":"Feature","id":"BS-RI","properties":{"id":"BS-RI","countryCode":"BS","isoSubdivision":"BS-RI","name":"Ragged Island","name_en":"Ragged Island","name_ko":"래기드섬","type":"District","labelLongitude":-75.741,"labelLatitude":22.23,"minZoom":8},"geometry":{"type":"MultiPolygon","coordinates":[[[[-75.722,22.203],[-75.718,22.196],[-75.715,22.183],[-75.722,22.175],[-75.734,22.175],[-75.743,22.183],[-75.749,22.197],[-75.75,22.205],[-75.745,22.206],[-75.739,22.204],[-75.733,22.2],[-75.734,22.206],[-75.739,22.223],[-75.736,22.225],[-75.731,22.218],[-75.722,22.203]]],[[[-75.746,22.236],[-75.75,22.235],[-75.753,22.237],[-75.752,22.263],[-75.748,22.261],[-75.745,22.245],[-75.746,22.236]]],[[[-75.812,22.372],[-75.808,22.366],[-75.803,22.353],[-75.805,22.348],[-75.813,22.356],[-75.82,22.371],[-75.824,22.386],[-75.82,22.388],[-75.814,22.378],[-75.812,22.372]]]]}},{"type":"Feature","id":"BS-SA","properties":{"id":"BS-SA","countryCode":"BS","isoSubdivision":"BS-SA","name":"South Andros","name_en":"South Andros","name_ko":"사우스안드로스","type":"District","labelLongitude":-77.604,"labelLatitude":23.782,"minZoom":8},"geometry":{"type":"Polygon","coordinates":[[[-77.744,24.035],[-77.725,24.031],[-77.71,24.044],[-77.679,24.102],[-77.658,24.123],[-77.648,24.138],[-77.644,24.158],[-77.643,24.183],[-77.639,24.206],[-77.627,24.221],[-77.608,24.218],[-77.593,24.198],[-77.58,24.173],[-77.569,24.155],[-77.557,24.141],[-77.549,24.126],[-77.546,24.108],[-77.544,24.075],[-77.539,24.054],[-77.538,24.045],[-77.539,24.034],[-77.544,24.015],[-77.545,24.004],[-77.542,23.999],[-77.528,23.98],[-77.525,23.97],[-77.528,23.959],[-77.535,23.951],[-77.542,23.946],[-77.545,23.943],[-77.556,23.938],[-77.578,23.938],[-77.597,23.93],[-77.601,23.905],[-77.566,23.928],[-77.545,23.937],[-77.525,23.933],[-77.517,23.919],[-77.523,23.881],[-77.517,23.864],[-77.535,23.829],[-77.548,23.822],[-77.573,23.829],[-77.569,23.817],[-77.551,23.803],[-77.545,23.788],[-77.547,23.775],[-77.553,23.76],[-77.56,23.748],[-77.566,23.741],[-77.597,23.731],[-77.621,23.74],[-77.643,23.755],[-77.668,23.761],[-77.651,23.742],[-77.651,23.733],[-77.661,23.72],[-77.668,23.72],[-77.685,23.741],[-77.715,23.749],[-77.778,23.747],[-77.744,23.761],[-77.749,23.778],[-77.728,23.778],[-77.675,23.761],[-77.669,23.779],[-77.659,23.792],[-77.645,23.801],[-77.591,23.825],[-77.576,23.836],[-77.576,23.847],[-77.594,23.853],[-77.612,23.844],[-77.629,23.83],[-77.645,23.823],[-77.703,23.788],[-77.699,23.786],[-77.696,23.782],[-77.72,23.785],[-77.744,23.816],[-77.765,23.823],[-77.699,23.845],[-77.666,23.863],[-77.661,23.885],[-77.675,23.871],[-77.695,23.865],[-77.748,23.864],[-77.762,23.862],[-77.774,23.857],[-77.786,23.854],[-77.799,23.857],[-77.807,23.865],[-77.813,23.877],[-77.827,23.944],[-77.829,23.969],[-77.823,23.98],[-77.782,24.008],[-77.744,24.035]]]}},{"type":"Feature","id":"BS-SE","properties":{"id":"BS-SE","countryCode":"BS","isoSubdivision":"BS-SE","name":"South Eleuthera","name_en":"South Eleuthera","name_ko":"사우스일루서라","type":"District","labelLongitude":-76.197,"labelLatitude":24.734,"minZoom":8},"geometry":{"type":"Polygon","coordinates":[[[-76.154,24.981],[-76.158,24.962],[-76.154,24.944],[-76.141,24.919],[-76.137,24.902],[-76.141,24.854],[-76.146,24.834],[-76.17,24.8],[-76.175,24.786],[-76.177,24.716],[-76.174,24.677],[-76.161,24.645],[-76.194,24.658],[-76.212,24.69],[-76.223,24.727],[-76.236,24.755],[-76.253,24.766],[-76.297,24.782],[-76.315,24.793],[-76.336,24.815],[-76.334,24.824],[-76.317,24.825],[-76.219,24.81],[-76.213,24.813],[-76.208,24.819],[-76.204,24.827],[-76.199,24.834],[-76.182,24.849],[-76.178,24.858],[-76.175,24.872],[-76.176,24.895],[-76.184,24.889],[-76.195,24.873],[-76.206,24.864],[-76.212,24.875],[-76.211,24.901],[-76.202,24.947],[-76.197,24.963],[-76.194,24.967],[-76.188,24.974],[-76.17,24.989],[-76.154,24.981]]]}},{"type":"Feature","id":"BS-SO","properties":{"id":"BS-SO","countryCode":"BS","isoSubdivision":"BS-SO","name":"South Abaco","name_en":"South Abaco","name_ko":"사우스아바코","type":"District","labelLongitude":-77.242,"labelLatitude":26.018,"minZoom":8},"geometry":{"type":"Polygon","coordinates":[[[-77.032,26.355],[-77.029,26.344],[-77.024,26.338],[-77.019,26.333],[-77.017,26.328],[-77.016,26.32],[-77.015,26.316],[-77.017,26.312],[-77.025,26.303],[-77.033,26.297],[-77.041,26.294],[-77.059,26.29],[-77.057,26.295],[-77.052,26.31],[-77.084,26.306],[-77.115,26.29],[-77.143,26.268],[-77.165,26.245],[-77.174,26.221],[-77.183,26.144],[-77.182,26.125],[-77.192,26.069],[-77.187,25.988],[-77.191,25.916],[-77.227,25.885],[-77.253,25.898],[-77.276,25.926],[-77.293,25.957],[-77.299,25.978],[-77.315,25.991],[-77.388,26.005],[-77.408,26.03],[-77.392,26.03],[-77.374,26.035],[-77.359,26.046],[-77.348,26.071],[-77.336,26.074],[-77.321,26.075],[-77.309,26.081],[-77.272,26.118],[-77.249,26.136],[-77.223,26.146],[-77.23,26.154],[-77.234,26.162],[-77.236,26.172],[-77.236,26.184],[-77.24,26.191],[-77.249,26.197],[-77.256,26.204],[-77.258,26.215],[-77.252,26.226],[-77.243,26.235],[-77.234,26.244],[-77.23,26.259],[-77.231,26.285],[-77.032,26.355]]]}},{"type":"Feature","id":"BS-SS","properties":{"id":"BS-SS","countryCode":"BS","isoSubdivision":"BS-SS","name":"San Salvador Island","name_en":"San Salvador Island","name_ko":"산살바도르섬","type":"District","labelLongitude":-74.478,"labelLatitude":24.051,"minZoom":8},"geometry":{"type":"Polygon","coordinates":[[[-74.469,24.022],[-74.477,24.01],[-74.491,23.969],[-74.492,23.96],[-74.558,23.954],[-74.558,23.96],[-74.541,23.98],[-74.53,24.011],[-74.525,24.046],[-74.53,24.076],[-74.53,24.1],[-74.519,24.115],[-74.501,24.124],[-74.482,24.131],[-74.476,24.135],[-74.471,24.141],[-74.465,24.144],[-74.458,24.141],[-74.443,24.117],[-74.441,24.114],[-74.439,24.104],[-74.43,24.09],[-74.427,24.083],[-74.428,24.074],[-74.433,24.054],[-74.435,24.045],[-74.475,23.98],[-74.479,23.992],[-74.477,24.002],[-74.469,24.022]]]}},{"type":"Feature","id":"BS-SW","properties":{"id":"BS-SW","countryCode":"BS","isoSubdivision":"BS-SW","name":"Spanish Wells","name_en":"Spanish Wells","name_ko":"스패니시웰스","type":"District","labelLongitude":-76.833,"labelLatitude":25.524,"minZoom":8},"geometry":{"type":"Polygon","coordinates":[[[-76.829,25.532],[-76.818,25.532],[-76.809,25.529],[-76.811,25.524],[-76.829,25.517],[-76.849,25.517],[-76.861,25.508],[-76.872,25.507],[-76.873,25.514],[-76.857,25.524],[-76.845,25.526],[-76.829,25.532]]]}},{"type":"Feature","id":"BS-WG","properties":{"id":"BS-WG","countryCode":"BS","isoSubdivision":"BS-WG","name":"West Grand Bahama","name_en":"West Grand Bahama","name_ko":"웨스트그랜드바하마","type":"District","labelLongitude":-78.908,"labelLatitude":26.639,"minZoom":8},"geometry":{"type":"Polygon","coordinates":[[[-78.411,26.594],[-78.503,26.573],[-78.521,26.57],[-78.54,26.565],[-78.57,26.542],[-78.59,26.536],[-78.598,26.531],[-78.613,26.546],[-78.636,26.546],[-78.657,26.521],[-78.646,26.505],[-78.656,26.498],[-78.677,26.496],[-78.686,26.492],[-78.727,26.495],[-78.767,26.508],[-78.791,26.53],[-78.835,26.554],[-78.94,26.651],[-78.987,26.686],[-78.998,26.701],[-78.987,26.701],[-78.978,26.699],[-78.971,26.695],[-78.964,26.688],[-78.836,26.615],[-78.806,26.578],[-78.786,26.581],[-78.77,26.583],[-78.738,26.571],[-78.714,26.571],[-78.692,26.58],[-78.671,26.593],[-78.658,26.599],[-78.646,26.605],[-78.638,26.61],[-78.634,26.618],[-78.622,26.627],[-78.619,26.64],[-78.604,26.651],[-78.592,26.673],[-78.574,26.684],[-78.576,26.695],[-78.6,26.708],[-78.642,26.715],[-78.635,26.728],[-78.607,26.756],[-78.602,26.768],[-78.594,26.811],[-78.575,26.798],[-78.557,26.779],[-78.544,26.757],[-78.539,26.739],[-78.52,26.729],[-78.474,26.713],[-78.446,26.661],[-78.411,26.594]]]}},{"type":"Feature","id":"BS-X01~","properties":{"id":"BS-X01~","countryCode":"BS","isoSubdivision":"BS-X01~","name":"New Providence","name_en":"New Providence","name_ko":"뉴프로비던스섬","type":"Capital","labelLongitude":-77.436,"labelLatitude":25.015,"minZoom":8},"geometry":{"type":"Polygon","coordinates":[[[-77.48,24.991],[-77.495,24.999],[-77.514,25.001],[-77.533,25.001],[-77.545,25.002],[-77.562,25.019],[-77.551,25.038],[-77.527,25.054],[-77.505,25.063],[-77.49,25.066],[-77.456,25.077],[-77.441,25.079],[-77.398,25.077],[-77.356,25.084],[-77.34,25.084],[-77.326,25.079],[-77.302,25.066],[-77.264,25.058],[-77.275,25.046],[-77.38,25.002],[-77.404,25.002],[-77.436,25.015],[-77.441,25.007],[-77.453,24.995],[-77.467,24.987],[-77.48,24.991]]]}}]}
