{"type":"FeatureCollection","features":[{"type":"Feature","id":"BW-CE","properties":{"id":"BW-CE","countryCode":"BW","isoSubdivision":"BW-CE","name":"Central","name_en":"Central","name_ko":"중부 구","type":"District","labelLongitude":26.614,"labelLatitude":-21.877,"minZoom":6},"geometry":{"type":"Polygon","coordinates":[[[25.967,-19],[25.968,-19.001],[25.964,-19.022],[25.948,-19.059],[25.945,-19.079],[25.949,-19.103],[25.957,-19.122],[25.981,-19.162],[26.011,-19.2],[26.034,-19.244],[26.13,-19.501],[26.155,-19.537],[26.194,-19.56],[26.239,-19.571],[26.293,-19.572],[26.303,-19.577],[26.313,-19.584],[26.321,-19.592],[26.331,-19.605],[26.333,-19.613],[26.326,-19.634],[26.319,-19.646],[26.312,-19.65],[26.312,-19.651],[26.324,-19.659],[26.332,-19.662],[26.363,-19.668],[26.385,-19.679],[26.413,-19.72],[26.432,-19.737],[26.45,-19.743],[26.49,-19.752],[26.509,-19.759],[26.549,-19.784],[26.566,-19.801],[26.575,-19.82],[26.582,-19.842],[26.596,-19.856],[26.614,-19.863],[26.659,-19.876],[26.674,-19.883],[26.677,-19.887],[26.685,-19.895],[26.699,-19.913],[26.714,-19.927],[26.731,-19.936],[26.751,-19.94],[26.774,-19.94],[26.812,-19.946],[26.925,-20.001],[26.961,-20.007],[26.994,-20.007],[27.027,-20.01],[27.06,-20.028],[27.069,-20.037],[27.086,-20.061],[27.097,-20.069],[27.11,-20.073],[27.12,-20.074],[27.13,-20.073],[27.142,-20.073],[27.163,-20.077],[27.184,-20.082],[27.202,-20.093],[27.215,-20.11],[27.266,-20.234],[27.284,-20.351],[27.268,-20.496],[27.272,-20.562],[27.251,-20.619],[27.229,-20.704],[27.215,-20.775],[27.215,-20.845],[27.229,-20.945],[27.272,-21.001],[27.307,-21.065],[27.35,-21.164],[27.385,-21.256],[27.406,-21.348],[27.442,-21.411],[27.491,-21.468],[27.569,-21.503],[27.64,-21.503],[27.725,-21.525],[27.788,-21.518],[27.859,-21.518],[27.916,-21.546],[27.99,-21.552],[28.003,-21.564],[28.017,-21.573],[28.033,-21.578],[28.091,-21.581],[28.166,-21.595],[28.285,-21.597],[28.322,-21.603],[28.362,-21.616],[28.443,-21.656],[28.465,-21.66],[28.481,-21.657],[28.497,-21.652],[28.533,-21.643],[28.543,-21.638],[28.554,-21.637],[28.586,-21.644],[28.616,-21.647],[28.63,-21.651],[28.668,-21.68],[28.714,-21.694],[28.861,-21.757],[28.891,-21.765],[28.952,-21.768],[28.981,-21.775],[28.999,-21.786],[29.039,-21.798],[29.055,-21.81],[29.058,-21.829],[29.045,-21.853],[29.029,-21.877],[29.018,-21.898],[29.014,-21.94],[29.022,-21.983],[29.041,-22.021],[29.071,-22.051],[29.108,-22.069],[29.145,-22.075],[29.239,-22.073],[29.244,-22.076],[29.254,-22.087],[29.26,-22.096],[29.267,-22.116],[29.274,-22.125],[29.35,-22.187],[29.332,-22.193],[29.303,-22.19],[29.248,-22.179],[29.222,-22.182],[29.203,-22.194],[29.187,-22.208],[29.169,-22.214],[29.048,-22.22],[29.039,-22.224],[29.018,-22.25],[29.018,-22.255],[29.003,-22.263],[28.984,-22.282],[28.96,-22.31],[28.968,-22.38],[28.963,-22.392],[28.953,-22.401],[28.93,-22.441],[28.913,-22.454],[28.869,-22.449],[28.847,-22.45],[28.837,-22.463],[28.831,-22.482],[28.817,-22.493],[28.797,-22.498],[28.775,-22.501],[28.731,-22.514],[28.659,-22.552],[28.624,-22.563],[28.597,-22.563],[28.578,-22.56],[28.56,-22.563],[28.538,-22.58],[28.522,-22.585],[28.459,-22.57],[28.377,-22.575],[28.339,-22.585],[28.302,-22.604],[28.287,-22.616],[28.251,-22.656],[28.241,-22.661],[28.216,-22.663],[28.205,-22.666],[28.196,-22.672],[28.165,-22.709],[28.16,-22.718],[28.158,-22.731],[28.16,-22.743],[28.163,-22.751],[28.162,-22.759],[28.155,-22.772],[28.146,-22.78],[28.136,-22.783],[28.126,-22.786],[28.117,-22.789],[28.113,-22.795],[28.108,-22.811],[28.104,-22.817],[28.089,-22.823],[28.066,-22.829],[28.047,-22.837],[28.045,-22.848],[28.054,-22.869],[28.05,-22.891],[28.037,-22.911],[28.022,-22.927],[28.008,-22.935],[27.989,-22.944],[27.968,-22.951],[27.949,-22.954],[27.937,-22.964],[27.938,-22.987],[27.946,-23.029],[27.93,-23.057],[27.896,-23.079],[27.854,-23.096],[27.816,-23.105],[27.822,-23.123],[27.806,-23.128],[27.785,-23.127],[27.774,-23.125],[27.772,-23.133],[27.775,-23.141],[27.779,-23.148],[27.781,-23.153],[27.783,-23.155],[27.787,-23.16],[27.789,-23.164],[27.785,-23.166],[27.783,-23.167],[27.776,-23.172],[27.774,-23.173],[27.759,-23.211],[27.754,-23.221],[27.739,-23.228],[27.726,-23.222],[27.698,-23.193],[27.659,-23.223],[27.647,-23.228],[27.633,-23.223],[27.619,-23.217],[27.608,-23.217],[27.599,-23.245],[27.58,-23.264],[27.576,-23.279],[27.575,-23.285],[27.573,-23.291],[27.57,-23.295],[27.566,-23.297],[27.563,-23.299],[27.565,-23.306],[27.568,-23.314],[27.569,-23.32],[27.564,-23.343],[27.549,-23.361],[27.529,-23.373],[27.507,-23.379],[27.466,-23.38],[27.453,-23.385],[27.443,-23.395],[27.435,-23.407],[27.425,-23.413],[27.411,-23.406],[27.418,-23.391],[27.411,-23.389],[27.396,-23.394],[27.384,-23.4],[27.381,-23.405],[27.371,-23.417],[27.361,-23.422],[27.35,-23.391],[27.336,-23.402],[27.312,-23.437],[27.296,-23.452],[27.278,-23.464],[27.24,-23.481],[27.203,-23.492],[27.191,-23.504],[27.206,-23.523],[27.196,-23.527],[27.187,-23.527],[27.179,-23.524],[27.171,-23.516],[27.169,-23.522],[27.162,-23.53],[27.157,-23.537],[27.149,-23.528],[27.138,-23.523],[27.127,-23.525],[27.123,-23.533],[27.127,-23.545],[27.136,-23.552],[27.141,-23.558],[27.137,-23.57],[27.124,-23.563],[27.113,-23.564],[27.104,-23.572],[27.096,-23.584],[27.103,-23.584],[27.084,-23.596],[27.078,-23.602],[27.075,-23.611],[27.068,-23.607],[27.062,-23.604],[27.063,-23.624],[27.069,-23.642],[27.07,-23.656],[27.055,-23.666],[27.038,-23.666],[27.03,-23.655],[27.024,-23.643],[27.014,-23.639],[27.004,-23.646],[26.987,-23.687],[26.967,-23.719],[26.962,-23.737],[26.965,-23.747],[26.964,-23.747],[26.959,-23.748],[26.94,-23.751],[26.927,-23.761],[26.904,-23.79],[26.901,-23.784],[26.893,-23.774],[26.89,-23.769],[26.882,-23.787],[26.872,-23.803],[26.849,-23.831],[26.845,-23.838],[26.839,-23.853],[26.835,-23.858],[26.828,-23.859],[26.809,-23.857],[26.801,-23.858],[26.776,-23.881],[26.73,-23.934],[26.728,-23.935],[26.725,-23.941],[26.722,-23.945],[26.717,-23.948],[26.02,-23.566],[25.886,-23.39],[25.841,-23.349],[25.753,-23.323],[25.74,-23.317],[25.732,-23.31],[25.439,-22.952],[23.881,-21],[23.879,-20.316],[23.884,-20.297],[23.909,-20.312],[23.922,-20.316],[23.934,-20.316],[23.995,-20.3],[23.998,-20.295],[23.997,-20.289],[23.995,-20.284],[23.996,-20.28],[24.019,-20.254],[24.027,-20.248],[24.036,-20.244],[24.048,-20.241],[24.059,-20.237],[24.076,-20.221],[24.087,-20.216],[24.125,-20.21],[24.138,-20.205],[24.147,-20.2],[24.157,-20.199],[24.172,-20.206],[24.183,-20.215],[24.209,-20.243],[24.228,-20.25],[24.242,-20.243],[24.254,-20.242],[24.281,-20.294],[24.296,-20.309],[24.335,-20.338],[24.362,-20.377],[24.378,-20.394],[24.402,-20.403],[24.422,-20.401],[24.457,-20.39],[24.479,-20.389],[24.493,-20.391],[24.505,-20.392],[25.145,-20.342],[25.156,-20.338],[25.16,-20.329],[25.162,-20.317],[25.17,-20.084],[25.168,-20.073],[25.162,-20.067],[24.997,-20],[24.995,-19.999],[24.992,-19.996],[24.991,-19],[25,-19],[25.967,-19]],[[27.843,-21.996],[27.852,-21.994],[27.86,-21.988],[27.874,-21.984],[27.878,-21.974],[27.879,-21.966],[27.883,-21.961],[27.881,-21.957],[27.872,-21.952],[27.873,-21.942],[27.874,-21.935],[27.87,-21.925],[27.866,-21.921],[27.856,-21.924],[27.851,-21.933],[27.85,-21.94],[27.842,-21.948],[27.842,-21.958],[27.832,-21.962],[27.826,-21.963],[27.819,-21.96],[27.808,-21.965],[27.808,-21.97],[27.81,-21.973],[27.812,-21.978],[27.808,-21.984],[27.808,-21.992],[27.811,-21.997],[27.821,-21.995],[27.829,-21.989],[27.837,-21.99],[27.843,-21.996]],[[26.195,-20.559],[26.144,-20.547],[26.126,-20.545],[26.12,-20.568],[26.147,-20.58],[26.2,-20.594],[26.252,-20.599],[26.256,-20.559],[26.233,-20.552],[26.21,-20.555],[26.195,-20.559]]]}},{"type":"Feature","id":"BW-FR","properties":{"id":"BW-FR","countryCode":"BW","isoSubdivision":"BW-FR","name":"Francistown","name_en":"Francistown","name_ko":"프랜시스타운","type":"City","labelLongitude":27.504,"labelLatitude":-21.168,"minZoom":6},"geometry":{"type":"Polygon","coordinates":[[[27.538,-21.107],[27.546,-21.107],[27.552,-21.115],[27.551,-21.124],[27.54,-21.132],[27.534,-21.146],[27.538,-21.16],[27.544,-21.163],[27.553,-21.167],[27.558,-21.175],[27.556,-21.187],[27.558,-21.199],[27.559,-21.206],[27.556,-21.212],[27.539,-21.216],[27.534,-21.216],[27.507,-21.202],[27.491,-21.199],[27.486,-21.211],[27.463,-21.21],[27.447,-21.206],[27.443,-21.199],[27.443,-21.186],[27.447,-21.176],[27.454,-21.172],[27.46,-21.167],[27.458,-21.159],[27.459,-21.156],[27.469,-21.153],[27.482,-21.144],[27.488,-21.136],[27.495,-21.125],[27.507,-21.122],[27.528,-21.112],[27.538,-21.107]]]}},{"type":"Feature","id":"BW-GA","properties":{"id":"BW-GA","countryCode":"BW","isoSubdivision":"BW-GA","name":"Gaborone","name_en":"Gaborone","name_ko":"가보로네","type":"City","labelLongitude":25.917,"labelLatitude":-24.624,"minZoom":6},"geometry":{"type":"Polygon","coordinates":[[[25.835,-24.623],[25.951,-24.507],[26.033,-24.559],[26.032,-24.582],[25.983,-24.65],[25.983,-24.675],[25.957,-24.707],[25.915,-24.71],[25.892,-24.716],[25.857,-24.708],[25.845,-24.687],[25.84,-24.651],[25.835,-24.623]]]}},{"type":"Feature","id":"BW-GH","properties":{"id":"BW-GH","countryCode":"BW","isoSubdivision":"BW-GH","name":"Ghanzi","name_en":"Ghanzi","name_ko":"간지 구","type":"District","labelLongitude":22.709,"labelLatitude":-22.155,"minZoom":6},"geometry":{"type":"Polygon","coordinates":[[[19.98,-23.309],[19.98,-23.205],[19.98,-23.033],[19.979,-22.861],[19.979,-22.689],[19.979,-22.538],[19.979,-22.388],[19.979,-22.237],[19.978,-22.087],[19.978,-22.001],[20.212,-22.001],[20.447,-22.001],[20.681,-22.001],[20.915,-22.001],[20.972,-22.001],[20.985,-21.964],[20.985,-21.923],[20.984,-21.865],[20.984,-21.808],[20.984,-21.75],[20.984,-21.692],[20.984,-21.635],[20.983,-21.577],[20.983,-21.519],[20.983,-21.462],[20.983,-21.404],[20.983,-21.346],[20.982,-21.289],[20.982,-21.231],[20.982,-21.174],[20.982,-21.116],[20.982,-21.058],[20.981,-21.001],[20.981,-21],[21,-21],[23.881,-21],[25.439,-22.952],[25.242,-23.319],[23.058,-23.311],[19.999,-23.309],[19.98,-23.309]]]}},{"type":"Feature","id":"BW-JW","properties":{"id":"BW-JW","countryCode":"BW","isoSubdivision":"BW-JW","name":"Jwaneng","name_en":"Jwaneng","name_ko":"주아넹","type":"Town","labelLongitude":24.725,"labelLatitude":-24.577,"minZoom":6},"geometry":{"type":"Polygon","coordinates":[[[24.64,-24.461],[24.814,-24.512],[24.821,-24.652],[24.638,-24.66],[24.64,-24.461]]]}},{"type":"Feature","id":"BW-KG","properties":{"id":"BW-KG","countryCode":"BW","isoSubdivision":"BW-KG","name":"Kgalagadi","name_en":"Kgalagadi","name_ko":"크갈라가디 구","type":"District","labelLongitude":22.24,"labelLatitude":-24.836,"minZoom":6},"geometry":{"type":"Polygon","coordinates":[[[20.597,-25.433],[20.594,-25.413],[20.588,-25.404],[20.559,-25.392],[20.542,-25.382],[20.536,-25.371],[20.529,-25.34],[20.525,-25.332],[20.515,-25.319],[20.511,-25.312],[20.51,-25.305],[20.515,-25.299],[20.519,-25.293],[20.516,-25.284],[20.51,-25.278],[20.492,-25.269],[20.485,-25.263],[20.484,-25.257],[20.482,-25.23],[20.462,-25.224],[20.444,-25.213],[20.434,-25.2],[20.443,-25.183],[20.445,-25.168],[20.434,-25.147],[20.407,-25.108],[20.376,-25.046],[20.365,-25.033],[20.236,-24.936],[20.159,-24.894],[20.149,-24.891],[20.128,-24.89],[20.119,-24.887],[20.108,-24.88],[20.081,-24.853],[20.029,-24.815],[20.01,-24.788],[19.993,-24.776],[19.986,-24.769],[19.981,-24.752],[19.981,-24.58],[19.981,-24.408],[19.981,-24.237],[19.981,-24.064],[19.981,-23.892],[19.98,-23.864],[19.98,-23.721],[19.98,-23.549],[19.98,-23.377],[19.98,-23.309],[19.999,-23.309],[23.058,-23.311],[23.043,-23.397],[23.023,-23.414],[22.977,-23.413],[22.967,-23.417],[22.959,-23.425],[22.955,-23.463],[22.957,-23.559],[22.959,-23.566],[22.966,-23.569],[22.976,-23.57],[23.032,-23.57],[23.05,-23.643],[23.053,-23.999],[23.049,-24.823],[23.051,-24.836],[23.056,-24.846],[23.07,-24.849],[23.085,-24.851],[24.044,-24.845],[24.06,-24.847],[24.075,-24.851],[24.091,-24.862],[24.206,-24.972],[24.219,-24.987],[24.23,-25.004],[24.234,-25.026],[24.25,-25.501],[24.283,-25.54],[24.399,-25.646],[24.414,-25.651],[24.46,-25.654],[24.487,-25.673],[24.501,-25.758],[24.457,-25.743],[24.437,-25.745],[24.417,-25.753],[24.389,-25.759],[24.339,-25.752],[24.297,-25.723],[24.228,-25.649],[24.183,-25.626],[24.131,-25.626],[24.027,-25.652],[24.006,-25.655],[24.004,-25.65],[24.01,-25.641],[24.009,-25.633],[23.998,-25.625],[23.988,-25.62],[23.976,-25.618],[23.925,-25.629],[23.906,-25.618],[23.891,-25.599],[23.845,-25.569],[23.807,-25.524],[23.799,-25.519],[23.778,-25.513],[23.769,-25.507],[23.762,-25.498],[23.752,-25.478],[23.743,-25.47],[23.687,-25.454],[23.674,-25.443],[23.667,-25.433],[23.561,-25.357],[23.536,-25.343],[23.507,-25.331],[23.497,-25.324],[23.483,-25.312],[23.468,-25.29],[23.459,-25.282],[23.445,-25.278],[23.432,-25.28],[23.399,-25.291],[23.381,-25.293],[23.366,-25.289],[23.32,-25.273],[23.266,-25.264],[23.216,-25.267],[23.169,-25.28],[23.093,-25.312],[23.084,-25.32],[23.072,-25.326],[23.065,-25.321],[23.061,-25.311],[23.055,-25.303],[23.031,-25.299],[23.007,-25.311],[22.968,-25.347],[22.963,-25.356],[22.96,-25.364],[22.956,-25.372],[22.945,-25.379],[22.931,-25.384],[22.92,-25.39],[22.912,-25.399],[22.904,-25.411],[22.888,-25.45],[22.877,-25.462],[22.851,-25.471],[22.845,-25.481],[22.825,-25.543],[22.817,-25.558],[22.814,-25.567],[22.813,-25.575],[22.819,-25.585],[22.829,-25.596],[22.833,-25.606],[22.824,-25.616],[22.811,-25.625],[22.81,-25.633],[22.813,-25.642],[22.815,-25.653],[22.813,-25.667],[22.81,-25.677],[22.804,-25.687],[22.76,-25.735],[22.746,-25.755],[22.74,-25.777],[22.741,-25.791],[22.745,-25.794],[22.751,-25.796],[22.758,-25.806],[22.764,-25.82],[22.765,-25.827],[22.755,-25.843],[22.74,-25.858],[22.719,-25.874],[22.709,-25.891],[22.722,-25.909],[22.727,-25.922],[22.727,-25.944],[22.724,-25.968],[22.719,-25.984],[22.71,-25.997],[22.701,-26.003],[22.672,-26.013],[22.662,-26.021],[22.662,-26.03],[22.666,-26.04],[22.665,-26.051],[22.623,-26.109],[22.621,-26.112],[22.611,-26.121],[22.592,-26.133],[22.58,-26.147],[22.564,-26.181],[22.545,-26.207],[22.528,-26.214],[22.483,-26.205],[22.451,-26.21],[22.429,-26.227],[22.395,-26.272],[22.343,-26.317],[22.319,-26.329],[22.303,-26.334],[22.257,-26.341],[22.248,-26.347],[22.238,-26.367],[22.197,-26.404],[22.178,-26.44],[22.146,-26.519],[22.108,-26.572],[22.058,-26.618],[21.999,-26.65],[21.936,-26.664],[21.839,-26.665],[21.807,-26.67],[21.781,-26.678],[21.769,-26.689],[21.767,-26.704],[21.776,-26.749],[21.778,-26.768],[21.773,-26.787],[21.762,-26.804],[21.744,-26.82],[21.687,-26.855],[21.665,-26.863],[21.643,-26.863],[21.584,-26.848],[21.499,-26.846],[21.449,-26.826],[21.427,-26.823],[21.381,-26.824],[21.297,-26.844],[21.283,-26.845],[21.255,-26.842],[21.241,-26.842],[21.153,-26.865],[21.122,-26.865],[20.99,-26.839],[20.95,-26.816],[20.908,-26.8],[20.852,-26.807],[20.826,-26.819],[20.779,-26.848],[20.715,-26.875],[20.694,-26.889],[20.691,-26.892],[20.686,-26.882],[20.675,-26.85],[20.666,-26.839],[20.651,-26.83],[20.645,-26.825],[20.639,-26.817],[20.625,-26.789],[20.615,-26.753],[20.609,-26.716],[20.609,-26.686],[20.631,-26.618],[20.632,-26.595],[20.628,-26.581],[20.611,-26.56],[20.605,-26.548],[20.602,-26.522],[20.605,-26.493],[20.618,-26.44],[20.623,-26.428],[20.652,-26.408],[20.666,-26.392],[20.696,-26.342],[20.753,-26.276],[20.776,-26.241],[20.795,-26.202],[20.838,-26.147],[20.841,-26.131],[20.804,-26.071],[20.801,-26.052],[20.803,-25.981],[20.794,-25.894],[20.767,-25.834],[20.767,-25.831],[20.756,-25.819],[20.75,-25.818],[20.74,-25.823],[20.727,-25.827],[20.727,-25.818],[20.738,-25.799],[20.717,-25.733],[20.707,-25.715],[20.697,-25.707],[20.671,-25.695],[20.663,-25.685],[20.663,-25.675],[20.671,-25.653],[20.671,-25.642],[20.663,-25.636],[20.651,-25.635],[20.641,-25.631],[20.638,-25.62],[20.643,-25.613],[20.665,-25.601],[20.671,-25.591],[20.663,-25.565],[20.619,-25.528],[20.62,-25.501],[20.627,-25.485],[20.657,-25.468],[20.644,-25.457],[20.634,-25.458],[20.626,-25.463],[20.617,-25.466],[20.607,-25.462],[20.606,-25.452],[20.611,-25.439],[20.612,-25.431],[20.597,-25.433]]]}},{"type":"Feature","id":"BW-KL","properties":{"id":"BW-KL","countryCode":"BW","isoSubdivision":"BW-KL","name":"Kgatleng","name_en":"Kgatleng","name_ko":"크가틀렝 구","type":"District","labelLongitude":26.426,"labelLatitude":-24.2,"minZoom":6},"geometry":{"type":"Polygon","coordinates":[[[26.965,-23.747],[26.967,-23.755],[26.938,-23.803],[26.945,-23.823],[26.941,-23.85],[26.871,-24.116],[26.869,-24.16],[26.85,-24.248],[26.839,-24.266],[26.823,-24.279],[26.802,-24.29],[26.714,-24.316],[26.693,-24.327],[26.684,-24.341],[26.623,-24.399],[26.558,-24.438],[26.531,-24.459],[26.506,-24.489],[26.477,-24.56],[26.469,-24.571],[26.404,-24.633],[26.382,-24.63],[26.364,-24.628],[26.345,-24.624],[26.326,-24.622],[26.279,-24.628],[26.166,-24.661],[26.157,-24.647],[26.112,-24.608],[26.033,-24.559],[25.951,-24.507],[25.935,-24.498],[25.915,-24.488],[25.904,-24.486],[25.894,-24.479],[25.888,-24.459],[25.886,-24.431],[25.9,-24.374],[25.913,-24.345],[25.926,-24.323],[25.957,-24.177],[26.02,-23.566],[26.717,-23.948],[26.722,-23.945],[26.725,-23.941],[26.728,-23.935],[26.73,-23.934],[26.776,-23.881],[26.801,-23.858],[26.809,-23.857],[26.828,-23.859],[26.835,-23.858],[26.839,-23.853],[26.845,-23.838],[26.849,-23.831],[26.872,-23.803],[26.882,-23.787],[26.89,-23.769],[26.893,-23.774],[26.901,-23.784],[26.904,-23.79],[26.927,-23.761],[26.94,-23.751],[26.959,-23.748],[26.964,-23.747],[26.965,-23.747]]]}},{"type":"Feature","id":"BW-KW","properties":{"id":"BW-KW","countryCode":"BW","isoSubdivision":"BW-KW","name":"Kweneng","name_en":"Kweneng","name_ko":"퀘넹 구","type":"District","labelLongitude":24.488,"labelLatitude":-23.866,"minZoom":6},"geometry":{"type":"Polygon","coordinates":[[[25.242,-23.319],[25.439,-22.952],[25.732,-23.31],[25.74,-23.317],[25.753,-23.323],[25.841,-23.349],[25.886,-23.39],[26.02,-23.566],[25.957,-24.177],[25.926,-24.323],[25.913,-24.345],[25.9,-24.374],[25.886,-24.431],[25.888,-24.459],[25.894,-24.479],[25.904,-24.486],[25.915,-24.488],[25.935,-24.498],[25.951,-24.507],[25.835,-24.623],[25.687,-24.769],[25.603,-24.766],[25.585,-24.762],[25.467,-24.702],[24.814,-24.512],[24.64,-24.461],[23.053,-23.999],[23.05,-23.643],[23.032,-23.57],[22.976,-23.57],[22.966,-23.569],[22.959,-23.566],[22.957,-23.559],[22.955,-23.463],[22.959,-23.425],[22.967,-23.417],[22.977,-23.413],[23.023,-23.414],[23.043,-23.397],[23.058,-23.311],[25.242,-23.319]]]}},{"type":"Feature","id":"BW-LO","properties":{"id":"BW-LO","countryCode":"BW","isoSubdivision":"BW-LO","name":"Lobatse","name_en":"Lobatse","name_ko":"로바체","type":"Town","labelLongitude":25.684,"labelLatitude":-25.214,"minZoom":6},"geometry":{"type":"Polygon","coordinates":[[[25.681,-25.172],[25.686,-25.173],[25.687,-25.183],[25.699,-25.181],[25.701,-25.188],[25.706,-25.193],[25.699,-25.199],[25.7,-25.204],[25.694,-25.209],[25.696,-25.215],[25.705,-25.214],[25.705,-25.224],[25.699,-25.234],[25.687,-25.239],[25.681,-25.235],[25.67,-25.238],[25.659,-25.239],[25.66,-25.236],[25.668,-25.225],[25.671,-25.214],[25.672,-25.199],[25.677,-25.181],[25.681,-25.172]]]}},{"type":"Feature","id":"BW-NE","properties":{"id":"BW-NE","countryCode":"BW","isoSubdivision":"BW-NE","name":"North-East","name_en":"North-East","name_ko":"북동부 구","type":"District","labelLongitude":27.449,"labelLatitude":-20.937,"minZoom":6},"geometry":{"type":"Polygon","coordinates":[[[27.341,-20.473],[27.454,-20.473],[27.534,-20.483],[27.591,-20.473],[27.626,-20.489],[27.666,-20.489],[27.684,-20.496],[27.698,-20.509],[27.706,-20.527],[27.703,-20.566],[27.69,-20.601],[27.682,-20.637],[27.707,-20.717],[27.71,-20.757],[27.694,-20.838],[27.689,-20.849],[27.682,-20.858],[27.676,-20.867],[27.675,-20.88],[27.675,-20.891],[27.673,-20.914],[27.673,-20.924],[27.68,-20.98],[27.679,-21.001],[27.667,-21.054],[27.667,-21.071],[27.675,-21.09],[27.709,-21.134],[27.724,-21.15],[27.794,-21.197],[27.824,-21.232],[27.849,-21.27],[27.885,-21.31],[27.894,-21.324],[27.897,-21.332],[27.896,-21.348],[27.898,-21.355],[27.904,-21.365],[27.921,-21.381],[27.95,-21.438],[27.953,-21.449],[27.95,-21.457],[27.942,-21.469],[27.94,-21.478],[27.943,-21.48],[27.95,-21.482],[27.954,-21.488],[27.949,-21.501],[27.953,-21.51],[27.958,-21.512],[27.964,-21.51],[27.971,-21.514],[27.976,-21.523],[27.985,-21.543],[27.99,-21.552],[27.916,-21.546],[27.859,-21.518],[27.788,-21.518],[27.725,-21.525],[27.64,-21.503],[27.569,-21.503],[27.491,-21.468],[27.442,-21.411],[27.406,-21.348],[27.385,-21.256],[27.35,-21.164],[27.307,-21.065],[27.272,-21.001],[27.229,-20.945],[27.215,-20.845],[27.215,-20.775],[27.229,-20.704],[27.251,-20.619],[27.272,-20.562],[27.268,-20.496],[27.306,-20.477],[27.341,-20.473]],[[27.539,-21.216],[27.556,-21.212],[27.559,-21.206],[27.558,-21.199],[27.556,-21.187],[27.558,-21.175],[27.553,-21.167],[27.544,-21.163],[27.538,-21.16],[27.534,-21.146],[27.54,-21.132],[27.551,-21.124],[27.552,-21.115],[27.546,-21.107],[27.538,-21.107],[27.528,-21.112],[27.507,-21.122],[27.495,-21.125],[27.488,-21.136],[27.482,-21.144],[27.469,-21.153],[27.459,-21.156],[27.458,-21.159],[27.46,-21.167],[27.454,-21.172],[27.447,-21.176],[27.443,-21.186],[27.443,-21.199],[27.447,-21.206],[27.463,-21.21],[27.486,-21.211],[27.491,-21.199],[27.507,-21.202],[27.534,-21.216],[27.539,-21.216]]]}},{"type":"Feature","id":"BW-NW","properties":{"id":"BW-NW","countryCode":"BW","isoSubdivision":"BW-NW","name":"North-West","name_en":"North-West","name_ko":"북서부 구","type":"District","labelLongitude":23.471,"labelLatitude":-19.614,"minZoom":6},"geometry":{"type":"Polygon","coordinates":[[[25.26,-17.794],[25.219,-17.88],[25.219,-17.908],[25.226,-17.932],[25.255,-18.001],[25.296,-18.069],[25.323,-18.097],[25.357,-18.116],[25.388,-18.139],[25.409,-18.176],[25.441,-18.253],[25.473,-18.303],[25.481,-18.323],[25.491,-18.366],[25.496,-18.379],[25.508,-18.399],[25.574,-18.466],[25.608,-18.488],[25.622,-18.501],[25.67,-18.566],[25.698,-18.59],[25.737,-18.609],[25.762,-18.63],[25.773,-18.666],[25.779,-18.739],[25.815,-18.814],[25.941,-18.921],[25.967,-19],[25,-19],[24.991,-19],[24.992,-19.996],[24.995,-19.999],[24.997,-20],[25.162,-20.067],[25.168,-20.073],[25.17,-20.084],[25.162,-20.317],[25.16,-20.329],[25.156,-20.338],[25.145,-20.342],[24.505,-20.392],[24.493,-20.391],[24.479,-20.389],[24.457,-20.39],[24.422,-20.401],[24.402,-20.403],[24.378,-20.394],[24.362,-20.377],[24.335,-20.338],[24.296,-20.309],[24.281,-20.294],[24.254,-20.242],[24.242,-20.243],[24.228,-20.25],[24.209,-20.243],[24.183,-20.215],[24.172,-20.206],[24.157,-20.199],[24.147,-20.2],[24.138,-20.205],[24.125,-20.21],[24.087,-20.216],[24.076,-20.221],[24.059,-20.237],[24.048,-20.241],[24.036,-20.244],[24.027,-20.248],[24.019,-20.254],[23.996,-20.28],[23.995,-20.284],[23.997,-20.289],[23.998,-20.295],[23.995,-20.3],[23.934,-20.316],[23.922,-20.316],[23.909,-20.312],[23.884,-20.297],[23.879,-20.316],[23.881,-21],[21,-21],[20.981,-21],[20.981,-20.876],[20.981,-20.751],[20.98,-20.626],[20.98,-20.501],[20.979,-20.376],[20.979,-20.351],[20.979,-20.251],[20.979,-20.126],[20.978,-20.001],[20.978,-19.876],[20.978,-19.751],[20.977,-19.626],[20.977,-19.501],[20.976,-19.376],[20.976,-19.251],[20.976,-19.172],[20.975,-19.126],[20.975,-19.001],[20.975,-18.96],[20.975,-18.919],[20.975,-18.878],[20.975,-18.838],[20.975,-18.797],[20.975,-18.756],[20.975,-18.715],[20.975,-18.674],[20.975,-18.634],[20.975,-18.593],[20.975,-18.552],[20.975,-18.511],[20.975,-18.47],[20.975,-18.429],[20.975,-18.389],[20.975,-18.348],[20.975,-18.319],[20.993,-18.319],[21.024,-18.317],[21.081,-18.315],[21.137,-18.313],[21.193,-18.311],[21.25,-18.308],[21.297,-18.307],[21.344,-18.305],[21.391,-18.303],[21.438,-18.301],[21.457,-18.3],[21.476,-18.3],[21.493,-18.296],[21.51,-18.293],[21.527,-18.29],[21.544,-18.287],[21.628,-18.271],[21.713,-18.256],[21.797,-18.24],[21.881,-18.224],[21.966,-18.209],[22.05,-18.193],[22.135,-18.177],[22.219,-18.162],[22.303,-18.146],[22.388,-18.13],[22.472,-18.114],[22.556,-18.099],[22.641,-18.083],[22.725,-18.067],[22.81,-18.052],[22.894,-18.036],[22.981,-18.02],[23.1,-18.01],[23.186,-18.003],[23.255,-17.997],[23.293,-17.999],[23.306,-18.005],[23.311,-18.01],[23.313,-18.017],[23.313,-18.03],[23.316,-18.037],[23.323,-18.039],[23.331,-18.04],[23.334,-18.043],[23.333,-18.067],[23.334,-18.074],[23.337,-18.079],[23.348,-18.094],[23.36,-18.119],[23.39,-18.153],[23.396,-18.163],[23.396,-18.169],[23.394,-18.186],[23.396,-18.191],[23.401,-18.194],[23.41,-18.197],[23.419,-18.198],[23.429,-18.189],[23.444,-18.201],[23.459,-18.218],[23.464,-18.226],[23.478,-18.231],[23.491,-18.233],[23.502,-18.237],[23.506,-18.249],[23.511,-18.26],[23.522,-18.268],[23.527,-18.278],[23.519,-18.294],[23.551,-18.328],[23.561,-18.348],[23.547,-18.369],[23.555,-18.383],[23.571,-18.426],[23.579,-18.468],[23.592,-18.478],[23.61,-18.478],[23.645,-18.466],[23.65,-18.463],[23.656,-18.458],[23.68,-18.431],[23.701,-18.428],[23.716,-18.419],[23.81,-18.322],[23.826,-18.317],[23.837,-18.306],[23.855,-18.28],[23.868,-18.269],[23.897,-18.25],[23.913,-18.236],[23.916,-18.201],[23.951,-18.178],[23.957,-18.177],[23.962,-18.178],[23.967,-18.181],[23.971,-18.184],[23.975,-18.177],[23.98,-18.172],[23.992,-18.163],[24.02,-18.152],[24.028,-18.146],[24.057,-18.119],[24.065,-18.115],[24.102,-18.109],[24.135,-18.085],[24.183,-18.029],[24.218,-18.013],[24.238,-18.01],[24.259,-18.013],[24.27,-18.016],[24.287,-18.024],[24.296,-18.026],[24.306,-18.019],[24.334,-17.972],[24.351,-17.956],[24.365,-17.951],[24.399,-17.952],[24.422,-17.956],[24.434,-17.967],[24.451,-17.999],[24.458,-18.006],[24.465,-18.009],[24.47,-18.014],[24.472,-18.03],[24.506,-18.06],[24.518,-18.057],[24.564,-18.053],[24.575,-18.05],[24.578,-18.044],[24.592,-18.028],[24.595,-18.023],[24.599,-18.021],[24.649,-17.963],[24.664,-17.95],[24.698,-17.929],[24.725,-17.896],[24.731,-17.892],[24.738,-17.888],[24.747,-17.884],[24.756,-17.883],[24.765,-17.88],[24.771,-17.866],[24.777,-17.862],[24.797,-17.858],[24.821,-17.839],[24.838,-17.835],[24.857,-17.834],[24.931,-17.811],[24.938,-17.807],[24.945,-17.8],[24.949,-17.793],[24.953,-17.788],[24.964,-17.787],[24.958,-17.801],[24.969,-17.808],[24.975,-17.816],[24.983,-17.82],[24.999,-17.814],[25.007,-17.826],[25.02,-17.824],[25.047,-17.807],[25.057,-17.828],[25.088,-17.827],[25.121,-17.814],[25.154,-17.782],[25.194,-17.782],[25.26,-17.794]]]}},{"type":"Feature","id":"BW-SE","properties":{"id":"BW-SE","countryCode":"BW","isoSubdivision":"BW-SE","name":"South-East","name_en":"South-East","name_ko":"남동부 구","type":"District","labelLongitude":25.745,"labelLatitude":-24.987,"minZoom":6},"geometry":{"type":"Polygon","coordinates":[[[26.166,-24.661],[26.014,-24.705],[25.981,-24.726],[25.966,-24.734],[25.915,-24.732],[25.882,-24.742],[25.874,-24.743],[25.868,-24.748],[25.867,-24.773],[25.877,-24.846],[25.877,-24.886],[25.866,-24.918],[25.837,-24.979],[25.835,-25.016],[25.805,-25.065],[25.783,-25.131],[25.695,-25.31],[25.664,-25.44],[25.653,-25.463],[25.548,-25.424],[25.543,-25.413],[25.542,-25.402],[25.657,-25.038],[25.66,-25.025],[25.66,-25.011],[25.65,-25.007],[25.637,-25.006],[25.61,-25.008],[25.601,-25.007],[25.599,-25.003],[25.599,-25.001],[25.631,-24.913],[25.636,-24.887],[25.635,-24.874],[25.644,-24.865],[25.656,-24.851],[25.668,-24.84],[25.687,-24.769],[25.835,-24.623],[25.84,-24.651],[25.845,-24.687],[25.857,-24.708],[25.892,-24.716],[25.915,-24.71],[25.957,-24.707],[25.983,-24.675],[25.983,-24.65],[26.032,-24.582],[26.033,-24.559],[26.112,-24.608],[26.157,-24.647],[26.166,-24.661]],[[25.687,-25.183],[25.686,-25.173],[25.681,-25.172],[25.677,-25.181],[25.672,-25.199],[25.671,-25.214],[25.668,-25.225],[25.66,-25.236],[25.659,-25.239],[25.67,-25.238],[25.681,-25.235],[25.687,-25.239],[25.699,-25.234],[25.705,-25.224],[25.705,-25.214],[25.696,-25.215],[25.694,-25.209],[25.7,-25.204],[25.699,-25.199],[25.706,-25.193],[25.701,-25.188],[25.699,-25.181],[25.687,-25.183]]]}},{"type":"Feature","id":"BW-SO","properties":{"id":"BW-SO","countryCode":"BW","isoSubdivision":"BW-SO","name":"Southern","name_en":"Southern","name_ko":"남부 구","type":"District","labelLongitude":24.368,"labelLatitude":-25,"minZoom":6},"geometry":{"type":"Polygon","coordinates":[[[25.653,-25.463],[25.609,-25.559],[25.587,-25.62],[25.458,-25.711],[25.386,-25.744],[25.178,-25.763],[25.136,-25.757],[25.09,-25.744],[25.052,-25.738],[25.013,-25.743],[24.968,-25.763],[24.908,-25.804],[24.889,-25.812],[24.829,-25.826],[24.799,-25.829],[24.771,-25.823],[24.738,-25.816],[24.665,-25.823],[24.63,-25.816],[24.577,-25.783],[24.501,-25.758],[24.487,-25.673],[24.46,-25.654],[24.414,-25.651],[24.399,-25.646],[24.283,-25.54],[24.25,-25.501],[24.234,-25.026],[24.23,-25.004],[24.219,-24.987],[24.206,-24.972],[24.091,-24.862],[24.075,-24.851],[24.06,-24.847],[24.044,-24.845],[23.085,-24.851],[23.07,-24.849],[23.056,-24.846],[23.051,-24.836],[23.049,-24.823],[23.053,-23.999],[24.64,-24.461],[24.638,-24.66],[24.821,-24.652],[24.814,-24.512],[25.467,-24.702],[25.585,-24.762],[25.603,-24.766],[25.687,-24.769],[25.668,-24.84],[25.656,-24.851],[25.644,-24.865],[25.635,-24.874],[25.636,-24.887],[25.631,-24.913],[25.599,-25.001],[25.599,-25.003],[25.601,-25.007],[25.61,-25.008],[25.637,-25.006],[25.65,-25.007],[25.66,-25.011],[25.66,-25.025],[25.657,-25.038],[25.542,-25.402],[25.543,-25.413],[25.548,-25.424],[25.653,-25.463]]]}},{"type":"Feature","id":"BW-SP","properties":{"id":"BW-SP","countryCode":"BW","isoSubdivision":"BW-SP","name":"Selebi-Phikwe","name_en":"Selebi-Phikwe","name_ko":"셀레비피퀘","type":"Town","labelLongitude":27.863,"labelLatitude":-21.973,"minZoom":6},"geometry":{"type":"Polygon","coordinates":[[[27.866,-21.921],[27.87,-21.925],[27.874,-21.935],[27.873,-21.942],[27.872,-21.952],[27.881,-21.957],[27.883,-21.961],[27.879,-21.966],[27.878,-21.974],[27.874,-21.984],[27.86,-21.988],[27.852,-21.994],[27.843,-21.996],[27.837,-21.99],[27.829,-21.989],[27.821,-21.995],[27.811,-21.997],[27.808,-21.992],[27.808,-21.984],[27.812,-21.978],[27.81,-21.973],[27.808,-21.97],[27.808,-21.965],[27.819,-21.96],[27.826,-21.963],[27.832,-21.962],[27.842,-21.958],[27.842,-21.948],[27.85,-21.94],[27.851,-21.933],[27.856,-21.924],[27.866,-21.921]]]}},{"type":"Feature","id":"BW-ST","properties":{"id":"BW-ST","countryCode":"BW","isoSubdivision":"BW-ST","name":"Sowa","name_en":"Sowa","name_ko":"소와","type":"Township","labelLongitude":26.192,"labelLatitude":-20.575,"minZoom":6},"geometry":{"type":"Polygon","coordinates":[[[26.126,-20.545],[26.144,-20.547],[26.195,-20.559],[26.21,-20.555],[26.233,-20.552],[26.256,-20.559],[26.252,-20.599],[26.2,-20.594],[26.147,-20.58],[26.12,-20.568],[26.126,-20.545]]]}}]}
