{"type":"FeatureCollection","features":[{"type":"Feature","id":"BZ-BZ","properties":{"id":"BZ-BZ","countryCode":"BZ","isoSubdivision":"BZ-BZ","name":"Belize","name_en":"Belize","name_ko":"벨리즈 구","type":"District","labelLongitude":-88.419,"labelLatitude":17.537,"minZoom":8},"geometry":{"type":"MultiPolygon","coordinates":[[[[-88.167,17.96],[-88.208,17.882],[-88.202,17.856],[-88.214,17.773],[-88.239,17.69],[-88.247,17.674],[-88.273,17.644],[-88.283,17.626],[-88.288,17.604],[-88.283,17.58],[-88.271,17.568],[-88.236,17.551],[-88.228,17.536],[-88.219,17.527],[-88.177,17.52],[-88.167,17.512],[-88.179,17.493],[-88.205,17.493],[-88.231,17.497],[-88.242,17.487],[-88.245,17.472],[-88.286,17.34],[-88.296,17.238],[-88.297,17.217],[-88.301,17.178],[-88.293,17.157],[-88.29,17.138],[-88.289,17.136],[-88.302,17.123],[-88.323,17.115],[-88.328,17.112],[-88.338,17.109],[-88.602,17.104],[-88.58,17.112],[-88.577,17.114],[-88.575,17.116],[-88.573,17.118],[-88.569,17.124],[-88.568,17.129],[-88.566,17.133],[-88.565,17.136],[-88.562,17.137],[-88.56,17.139],[-88.558,17.144],[-88.555,17.155],[-88.553,17.162],[-88.548,17.174],[-88.548,17.183],[-88.549,17.194],[-88.558,17.213],[-88.569,17.229],[-88.57,17.234],[-88.569,17.27],[-88.569,17.271],[-88.579,17.47],[-88.581,17.484],[-88.585,17.49],[-88.593,17.486],[-88.599,17.473],[-88.605,17.463],[-88.629,17.454],[-88.641,17.599],[-88.641,17.617],[-88.628,17.652],[-88.616,17.669],[-88.587,17.682],[-88.577,17.685],[-88.569,17.688],[-88.564,17.693],[-88.563,17.699],[-88.565,17.705],[-88.57,17.718],[-88.57,17.725],[-88.567,17.749],[-88.567,17.754],[-88.57,17.777],[-88.57,17.782],[-88.57,17.787],[-88.564,17.813],[-88.564,17.826],[-88.564,17.832],[-88.568,17.845],[-88.569,17.853],[-88.568,17.863],[-88.565,17.871],[-88.559,17.889],[-88.506,17.918],[-88.284,17.972],[-88.167,17.96]]],[[[-87.838,17.388],[-87.826,17.399],[-87.814,17.381],[-87.797,17.333],[-87.802,17.326],[-87.804,17.316],[-87.804,17.292],[-87.81,17.292],[-87.81,17.303],[-87.81,17.306],[-87.816,17.304],[-87.82,17.301],[-87.822,17.298],[-87.825,17.292],[-87.824,17.353],[-87.827,17.378],[-87.838,17.388]]],[[[-87.828,17.546],[-87.816,17.545],[-87.802,17.542],[-87.789,17.532],[-87.783,17.512],[-87.787,17.497],[-87.808,17.458],[-87.821,17.441],[-87.831,17.424],[-87.846,17.415],[-87.866,17.43],[-87.876,17.413],[-87.889,17.404],[-87.9,17.392],[-87.907,17.367],[-87.913,17.323],[-87.916,17.315],[-87.921,17.305],[-87.926,17.293],[-87.927,17.279],[-87.941,17.292],[-87.937,17.296],[-87.936,17.299],[-87.935,17.302],[-87.934,17.306],[-87.932,17.327],[-87.922,17.362],[-87.917,17.41],[-87.91,17.426],[-87.897,17.438],[-87.879,17.45],[-87.859,17.47],[-87.849,17.471],[-87.834,17.465],[-87.821,17.464],[-87.812,17.472],[-87.804,17.492],[-87.802,17.513],[-87.81,17.526],[-87.821,17.516],[-87.831,17.511],[-87.838,17.512],[-87.838,17.518],[-87.828,17.546]]],[[[-88.077,17.642],[-88.064,17.631],[-88.054,17.606],[-88.044,17.553],[-88.051,17.553],[-88.056,17.563],[-88.064,17.586],[-88.077,17.642]]],[[[-88.16,17.683],[-88.14,17.692],[-88.083,17.729],[-88.071,17.734],[-88.08,17.702],[-88.104,17.682],[-88.135,17.672],[-88.167,17.669],[-88.167,17.674],[-88.166,17.677],[-88.16,17.683]]],[[[-87.913,18.026],[-87.907,18.026],[-87.915,17.983],[-87.935,17.943],[-87.966,17.914],[-88.009,17.902],[-88.009,17.909],[-87.999,17.909],[-87.995,17.909],[-87.959,17.934],[-87.946,17.952],[-87.941,17.978],[-87.957,17.977],[-87.952,18.008],[-87.934,18.07],[-87.932,18.075],[-87.927,18.078],[-87.922,18.083],[-87.92,18.091],[-87.92,18.101],[-87.905,18.153],[-87.895,18.162],[-87.879,18.156],[-87.857,18.17],[-87.847,18.156],[-87.849,18.134],[-87.862,18.122],[-87.87,18.111],[-87.89,18.057],[-87.9,18.039],[-87.907,18.044],[-87.913,18.046],[-87.916,18.036],[-87.92,18.029],[-87.925,18.023],[-87.934,18.019],[-87.934,18.012],[-87.927,17.998],[-87.917,18.011],[-87.915,18.017],[-87.913,18.026]]],[[[-88.096,17.517],[-88.077,17.504],[-88.068,17.491],[-88.07,17.481],[-88.073,17.476],[-88.073,17.47],[-88.077,17.461],[-88.084,17.462],[-88.086,17.47],[-88.087,17.491],[-88.088,17.495],[-88.097,17.494],[-88.105,17.498],[-88.111,17.505],[-88.114,17.51],[-88.117,17.513],[-88.117,17.519],[-88.11,17.523],[-88.096,17.517]]],[[[-87.969,18.091],[-87.963,18.093],[-87.96,18.09],[-87.963,18.08],[-87.971,18.073],[-87.981,18.071],[-87.984,18.078],[-87.977,18.087],[-87.972,18.091],[-87.969,18.091]]],[[[-87.94,18.119],[-87.937,18.115],[-87.936,18.104],[-87.942,18.093],[-87.951,18.088],[-87.954,18.088],[-87.955,18.093],[-87.957,18.097],[-87.955,18.101],[-87.95,18.104],[-87.945,18.108],[-87.943,18.113],[-87.941,18.117],[-87.94,18.119]]],[[[-87.878,18.208],[-87.875,18.206],[-87.874,18.202],[-87.875,18.197],[-87.878,18.187],[-87.888,18.176],[-87.894,18.18],[-87.891,18.197],[-87.887,18.203],[-87.884,18.201],[-87.883,18.203],[-87.885,18.207],[-87.884,18.209],[-87.881,18.208],[-87.878,18.208]]]]}},{"type":"Feature","id":"BZ-CY","properties":{"id":"BZ-CY","countryCode":"BZ","isoSubdivision":"BZ-CY","name":"Cayo","name_en":"Cayo","name_ko":"카요 구","type":"District","labelLongitude":-88.883,"labelLatitude":16.99,"minZoom":8},"geometry":{"type":"Polygon","coordinates":[[[-89.193,16.393],[-89.184,16.496],[-89.166,16.777],[-89.149,17.036],[-89.151,17.321],[-89.121,17.345],[-89.079,17.371],[-89.065,17.376],[-89.054,17.377],[-89.046,17.374],[-89.038,17.372],[-88.922,17.385],[-88.908,17.389],[-88.898,17.396],[-88.892,17.404],[-88.884,17.412],[-88.878,17.414],[-88.863,17.412],[-88.845,17.41],[-88.821,17.411],[-88.811,17.411],[-88.797,17.412],[-88.77,17.411],[-88.747,17.414],[-88.729,17.42],[-88.7,17.439],[-88.683,17.445],[-88.671,17.447],[-88.651,17.456],[-88.643,17.458],[-88.629,17.454],[-88.605,17.463],[-88.599,17.473],[-88.593,17.486],[-88.585,17.49],[-88.581,17.484],[-88.579,17.47],[-88.569,17.271],[-88.569,17.27],[-88.57,17.234],[-88.569,17.229],[-88.558,17.213],[-88.549,17.194],[-88.548,17.183],[-88.548,17.174],[-88.553,17.162],[-88.555,17.155],[-88.558,17.144],[-88.56,17.139],[-88.562,17.137],[-88.565,17.136],[-88.566,17.133],[-88.568,17.129],[-88.569,17.124],[-88.573,17.118],[-88.575,17.116],[-88.577,17.114],[-88.58,17.112],[-88.602,17.104],[-88.606,17.095],[-88.602,17.086],[-88.588,17.064],[-88.574,17.052],[-88.567,17.045],[-88.567,17.037],[-88.572,17.032],[-88.578,17.028],[-88.581,17.024],[-88.591,17.004],[-88.597,16.988],[-88.604,16.976],[-88.61,16.968],[-88.621,16.96],[-88.626,16.955],[-88.633,16.944],[-88.663,16.912],[-88.665,16.907],[-88.665,16.903],[-88.664,16.898],[-88.664,16.893],[-88.666,16.879],[-88.667,16.874],[-88.665,16.861],[-88.666,16.856],[-88.668,16.852],[-88.67,16.849],[-88.674,16.846],[-88.683,16.842],[-88.689,16.837],[-88.691,16.833],[-88.69,16.83],[-88.677,16.821],[-88.673,16.817],[-88.673,16.813],[-88.676,16.811],[-88.681,16.81],[-88.698,16.807],[-88.718,16.8],[-88.723,16.797],[-88.728,16.792],[-88.755,16.752],[-88.761,16.737],[-88.772,16.718],[-88.778,16.698],[-88.778,16.694],[-88.774,16.681],[-88.791,16.68],[-88.799,16.676],[-88.802,16.674],[-88.807,16.668],[-88.818,16.655],[-88.821,16.65],[-88.822,16.646],[-88.817,16.629],[-88.817,16.624],[-88.819,16.614],[-88.84,16.594],[-88.856,16.582],[-88.86,16.58],[-88.868,16.578],[-88.875,16.574],[-88.902,16.554],[-88.911,16.549],[-88.917,16.547],[-88.922,16.548],[-88.928,16.547],[-88.939,16.542],[-88.945,16.538],[-88.949,16.534],[-88.954,16.528],[-88.954,16.525],[-88.952,16.516],[-88.957,16.513],[-88.996,16.499],[-89.001,16.498],[-89.006,16.498],[-89.009,16.5],[-89.016,16.507],[-89.019,16.509],[-89.022,16.511],[-89.027,16.513],[-89.029,16.511],[-89.036,16.504],[-89.056,16.485],[-89.064,16.48],[-89.071,16.477],[-89.087,16.475],[-89.095,16.472],[-89.098,16.472],[-89.112,16.471],[-89.147,16.457],[-89.151,16.454],[-89.156,16.449],[-89.159,16.444],[-89.16,16.442],[-89.16,16.437],[-89.162,16.433],[-89.165,16.429],[-89.172,16.421],[-89.176,16.416],[-89.182,16.409],[-89.193,16.393]]]}},{"type":"Feature","id":"BZ-CZL","properties":{"id":"BZ-CZL","countryCode":"BZ","isoSubdivision":"BZ-CZL","name":"Corozal","name_en":"Corozal","name_ko":"코로살 구","type":"District","labelLongitude":-88.349,"labelLatitude":18.167,"minZoom":8},"geometry":{"type":"Polygon","coordinates":[[[-88.413,18.491],[-88.408,18.489],[-88.398,18.48],[-88.391,18.476],[-88.385,18.477],[-88.379,18.48],[-88.371,18.482],[-88.31,18.482],[-88.304,18.481],[-88.304,18.478],[-88.287,18.463],[-88.306,18.438],[-88.384,18.385],[-88.391,18.371],[-88.38,18.355],[-88.365,18.354],[-88.317,18.375],[-88.323,18.36],[-88.332,18.345],[-88.355,18.317],[-88.361,18.308],[-88.358,18.304],[-88.35,18.304],[-88.341,18.31],[-88.325,18.328],[-88.291,18.351],[-88.276,18.358],[-88.259,18.361],[-88.237,18.358],[-88.208,18.345],[-88.195,18.341],[-88.173,18.344],[-88.143,18.364],[-88.109,18.374],[-88.097,18.375],[-88.092,18.372],[-88.093,18.358],[-88.099,18.348],[-88.119,18.334],[-88.142,18.324],[-88.146,18.32],[-88.146,18.309],[-88.139,18.307],[-88.131,18.31],[-88.123,18.322],[-88.115,18.328],[-88.105,18.332],[-88.095,18.334],[-88.092,18.328],[-88.084,18.21],[-88.092,18.118],[-88.095,18.103],[-88.109,18.079],[-88.112,18.063],[-88.15,17.971],[-88.167,17.96],[-88.284,17.972],[-88.422,18.091],[-88.494,18.186],[-88.54,18.218],[-88.604,18.245],[-88.614,18.247],[-88.613,18.251],[-88.611,18.266],[-88.608,18.283],[-88.598,18.299],[-88.567,18.334],[-88.555,18.352],[-88.551,18.364],[-88.547,18.389],[-88.538,18.413],[-88.533,18.443],[-88.528,18.454],[-88.52,18.462],[-88.489,18.485],[-88.479,18.483],[-88.47,18.479],[-88.46,18.476],[-88.451,18.477],[-88.431,18.484],[-88.42,18.489],[-88.413,18.491]]]}},{"type":"Feature","id":"BZ-OW","properties":{"id":"BZ-OW","countryCode":"BZ","isoSubdivision":"BZ-OW","name":"Orange Walk","name_en":"Orange Walk","name_ko":"오렌지워크 구","type":"District","labelLongitude":-88.855,"labelLatitude":17.712,"minZoom":8},"geometry":{"type":"Polygon","coordinates":[[[-89.151,17.321],[-89.156,17.598],[-89.16,17.814],[-89.161,17.901],[-89.154,17.941],[-89.146,17.951],[-89.133,17.97],[-89.049,17.999],[-89.028,17.992],[-89.012,17.978],[-88.997,17.962],[-88.98,17.949],[-88.968,17.948],[-88.957,17.951],[-88.947,17.948],[-88.933,17.92],[-88.92,17.911],[-88.88,17.888],[-88.871,17.891],[-88.865,17.899],[-88.861,17.921],[-88.856,17.928],[-88.805,17.965],[-88.796,17.976],[-88.782,18.015],[-88.777,18.024],[-88.762,18.036],[-88.748,18.043],[-88.736,18.052],[-88.727,18.067],[-88.723,18.078],[-88.72,18.1],[-88.718,18.11],[-88.693,18.15],[-88.69,18.161],[-88.693,18.175],[-88.697,18.178],[-88.668,18.198],[-88.639,18.212],[-88.627,18.22],[-88.617,18.235],[-88.614,18.247],[-88.604,18.245],[-88.54,18.218],[-88.494,18.186],[-88.422,18.091],[-88.284,17.972],[-88.506,17.918],[-88.559,17.889],[-88.565,17.871],[-88.568,17.863],[-88.569,17.853],[-88.568,17.845],[-88.564,17.832],[-88.564,17.826],[-88.564,17.813],[-88.57,17.787],[-88.57,17.782],[-88.57,17.777],[-88.567,17.754],[-88.567,17.749],[-88.57,17.725],[-88.57,17.718],[-88.565,17.705],[-88.563,17.699],[-88.564,17.693],[-88.569,17.688],[-88.577,17.685],[-88.587,17.682],[-88.616,17.669],[-88.628,17.652],[-88.641,17.617],[-88.641,17.599],[-88.629,17.454],[-88.643,17.458],[-88.651,17.456],[-88.671,17.447],[-88.683,17.445],[-88.7,17.439],[-88.729,17.42],[-88.747,17.414],[-88.77,17.411],[-88.797,17.412],[-88.811,17.411],[-88.821,17.411],[-88.845,17.41],[-88.863,17.412],[-88.878,17.414],[-88.884,17.412],[-88.892,17.404],[-88.898,17.396],[-88.908,17.389],[-88.922,17.385],[-89.038,17.372],[-89.046,17.374],[-89.054,17.377],[-89.065,17.376],[-89.079,17.371],[-89.121,17.345],[-89.151,17.321]]]}},{"type":"Feature","id":"BZ-SC","properties":{"id":"BZ-SC","countryCode":"BZ","isoSubdivision":"BZ-SC","name":"Stann Creek","name_en":"Stann Creek","name_ko":"스탠크리크 구","type":"District","labelLongitude":-88.496,"labelLatitude":16.809,"minZoom":8},"geometry":{"type":"Polygon","coordinates":[[[-88.289,17.136],[-88.289,17.127],[-88.283,17.104],[-88.279,17.091],[-88.27,17.086],[-88.249,17.079],[-88.236,17.064],[-88.228,17.045],[-88.223,17.023],[-88.221,16.991],[-88.215,16.967],[-88.217,16.955],[-88.224,16.953],[-88.232,16.953],[-88.242,16.95],[-88.253,16.94],[-88.267,16.925],[-88.278,16.907],[-88.283,16.891],[-88.279,16.873],[-88.259,16.843],[-88.255,16.826],[-88.254,16.826],[-88.25,16.823],[-88.248,16.819],[-88.249,16.813],[-88.252,16.812],[-88.265,16.814],[-88.27,16.813],[-88.282,16.803],[-88.288,16.797],[-88.29,16.788],[-88.292,16.783],[-88.297,16.779],[-88.302,16.772],[-88.304,16.761],[-88.303,16.749],[-88.298,16.734],[-88.297,16.724],[-88.306,16.653],[-88.312,16.642],[-88.321,16.633],[-88.331,16.621],[-88.343,16.58],[-88.348,16.567],[-88.351,16.55],[-88.345,16.525],[-88.349,16.515],[-88.356,16.506],[-88.363,16.506],[-88.366,16.521],[-88.335,16.635],[-88.318,16.652],[-88.311,16.662],[-88.338,16.649],[-88.365,16.584],[-88.386,16.559],[-88.38,16.558],[-88.366,16.552],[-88.373,16.549],[-88.378,16.547],[-88.384,16.548],[-88.393,16.552],[-88.391,16.543],[-88.389,16.539],[-88.383,16.538],[-88.373,16.538],[-88.373,16.532],[-88.383,16.525],[-88.391,16.515],[-88.393,16.503],[-88.39,16.498],[-88.402,16.502],[-88.404,16.51],[-88.408,16.511],[-88.418,16.512],[-88.439,16.508],[-88.444,16.509],[-88.449,16.51],[-88.459,16.51],[-88.464,16.51],[-88.503,16.512],[-88.506,16.511],[-88.512,16.511],[-88.553,16.517],[-88.559,16.519],[-88.557,16.523],[-88.555,16.526],[-88.553,16.53],[-88.553,16.534],[-88.552,16.537],[-88.551,16.554],[-88.55,16.56],[-88.549,16.563],[-88.55,16.567],[-88.551,16.572],[-88.555,16.58],[-88.558,16.583],[-88.56,16.588],[-88.563,16.592],[-88.565,16.596],[-88.568,16.6],[-88.572,16.605],[-88.584,16.618],[-88.588,16.623],[-88.589,16.628],[-88.585,16.637],[-88.584,16.642],[-88.585,16.646],[-88.587,16.65],[-88.59,16.658],[-88.593,16.663],[-88.598,16.667],[-88.633,16.686],[-88.648,16.689],[-88.67,16.692],[-88.745,16.69],[-88.774,16.681],[-88.778,16.694],[-88.778,16.698],[-88.772,16.718],[-88.761,16.737],[-88.755,16.752],[-88.728,16.792],[-88.723,16.797],[-88.718,16.8],[-88.698,16.807],[-88.681,16.81],[-88.676,16.811],[-88.673,16.813],[-88.673,16.817],[-88.677,16.821],[-88.69,16.83],[-88.691,16.833],[-88.689,16.837],[-88.683,16.842],[-88.674,16.846],[-88.67,16.849],[-88.668,16.852],[-88.666,16.856],[-88.665,16.861],[-88.667,16.874],[-88.666,16.879],[-88.664,16.893],[-88.664,16.898],[-88.665,16.903],[-88.665,16.907],[-88.663,16.912],[-88.633,16.944],[-88.626,16.955],[-88.621,16.96],[-88.61,16.968],[-88.604,16.976],[-88.597,16.988],[-88.591,17.004],[-88.581,17.024],[-88.578,17.028],[-88.572,17.032],[-88.567,17.037],[-88.567,17.045],[-88.574,17.052],[-88.588,17.064],[-88.602,17.086],[-88.606,17.095],[-88.602,17.104],[-88.338,17.109],[-88.328,17.112],[-88.323,17.115],[-88.302,17.123],[-88.289,17.136]]]}},{"type":"Feature","id":"BZ-TOL","properties":{"id":"BZ-TOL","countryCode":"BZ","isoSubdivision":"BZ-TOL","name":"Toledo","name_en":"Toledo","name_ko":"털리도 구","type":"District","labelLongitude":-88.812,"labelLatitude":16.376,"minZoom":8},"geometry":{"type":"Polygon","coordinates":[[[-89.228,15.881],[-89.237,15.894],[-89.236,15.906],[-89.234,15.955],[-89.209,16.186],[-89.193,16.393],[-89.182,16.409],[-89.176,16.416],[-89.172,16.421],[-89.165,16.429],[-89.162,16.433],[-89.16,16.437],[-89.16,16.442],[-89.159,16.444],[-89.156,16.449],[-89.151,16.454],[-89.147,16.457],[-89.112,16.471],[-89.098,16.472],[-89.095,16.472],[-89.087,16.475],[-89.071,16.477],[-89.064,16.48],[-89.056,16.485],[-89.036,16.504],[-89.029,16.511],[-89.027,16.513],[-89.022,16.511],[-89.019,16.509],[-89.016,16.507],[-89.009,16.5],[-89.006,16.498],[-89.001,16.498],[-88.996,16.499],[-88.957,16.513],[-88.952,16.516],[-88.954,16.525],[-88.954,16.528],[-88.949,16.534],[-88.945,16.538],[-88.939,16.542],[-88.928,16.547],[-88.922,16.548],[-88.917,16.547],[-88.911,16.549],[-88.902,16.554],[-88.875,16.574],[-88.868,16.578],[-88.86,16.58],[-88.856,16.582],[-88.84,16.594],[-88.819,16.614],[-88.817,16.624],[-88.817,16.629],[-88.822,16.646],[-88.821,16.65],[-88.818,16.655],[-88.807,16.668],[-88.802,16.674],[-88.799,16.676],[-88.791,16.68],[-88.774,16.681],[-88.745,16.69],[-88.67,16.692],[-88.648,16.689],[-88.633,16.686],[-88.598,16.667],[-88.593,16.663],[-88.59,16.658],[-88.587,16.65],[-88.585,16.646],[-88.584,16.642],[-88.585,16.637],[-88.589,16.628],[-88.588,16.623],[-88.584,16.618],[-88.572,16.605],[-88.568,16.6],[-88.565,16.596],[-88.563,16.592],[-88.56,16.588],[-88.558,16.583],[-88.555,16.58],[-88.551,16.572],[-88.55,16.567],[-88.549,16.563],[-88.55,16.56],[-88.551,16.554],[-88.552,16.537],[-88.553,16.534],[-88.553,16.53],[-88.555,16.526],[-88.557,16.523],[-88.559,16.519],[-88.553,16.517],[-88.512,16.511],[-88.506,16.511],[-88.503,16.512],[-88.464,16.51],[-88.459,16.51],[-88.449,16.51],[-88.444,16.509],[-88.439,16.508],[-88.418,16.512],[-88.408,16.511],[-88.404,16.51],[-88.402,16.502],[-88.39,16.498],[-88.386,16.49],[-88.405,16.477],[-88.426,16.437],[-88.444,16.429],[-88.446,16.423],[-88.448,16.4],[-88.448,16.395],[-88.454,16.391],[-88.459,16.391],[-88.462,16.393],[-88.462,16.395],[-88.468,16.391],[-88.471,16.389],[-88.472,16.386],[-88.476,16.381],[-88.489,16.351],[-88.493,16.346],[-88.5,16.342],[-88.527,16.309],[-88.53,16.304],[-88.534,16.29],[-88.537,16.286],[-88.537,16.283],[-88.536,16.274],[-88.537,16.271],[-88.539,16.271],[-88.548,16.272],[-88.55,16.271],[-88.555,16.269],[-88.567,16.266],[-88.571,16.264],[-88.573,16.26],[-88.578,16.244],[-88.578,16.286],[-88.585,16.286],[-88.592,16.264],[-88.606,16.261],[-88.62,16.269],[-88.626,16.282],[-88.63,16.288],[-88.638,16.288],[-88.647,16.287],[-88.65,16.286],[-88.651,16.282],[-88.651,16.264],[-88.654,16.258],[-88.661,16.255],[-88.695,16.251],[-88.701,16.247],[-88.705,16.242],[-88.713,16.238],[-88.726,16.237],[-88.74,16.23],[-88.744,16.215],[-88.742,16.176],[-88.746,16.155],[-88.755,16.14],[-88.769,16.13],[-88.787,16.127],[-88.792,16.125],[-88.798,16.118],[-88.803,16.111],[-88.807,16.093],[-88.813,16.088],[-88.822,16.085],[-88.831,16.079],[-88.843,16.07],[-88.847,16.065],[-88.852,16.059],[-88.854,16.048],[-88.854,16.037],[-88.856,16.028],[-88.882,16.021],[-88.9,16.011],[-88.916,15.998],[-88.928,15.984],[-88.931,15.959],[-88.91,15.917],[-88.914,15.894],[-88.952,15.88],[-89.04,15.902],[-89.072,15.902],[-89.101,15.897],[-89.177,15.9],[-89.196,15.893],[-89.205,15.892],[-89.217,15.889],[-89.226,15.884],[-89.228,15.881]]]}}]}
