{"type":"FeatureCollection","features":[{"type":"Feature","id":"NE:IOA-1928","properties":{"id":"NE:IOA-1928","countryCode":"CC","isoSubdivision":null,"name":"Cocos","name_en":"Cocos","name_ko":"코코스 제도","type":"Province","labelLongitude":96.905,"labelLatitude":-12.191,"minZoom":3},"geometry":{"type":"MultiPolygon","coordinates":[[[[96.863,-12.182],[96.869,-12.188],[96.845,-12.198],[96.831,-12.18],[96.823,-12.151],[96.822,-12.127],[96.828,-12.127],[96.828,-12.136],[96.83,-12.144],[96.835,-12.161],[96.831,-12.171],[96.836,-12.182],[96.848,-12.187],[96.863,-12.182]]],[[[96.902,-12.2],[96.892,-12.196],[96.89,-12.193],[96.889,-12.187],[96.9,-12.187],[96.909,-12.182],[96.915,-12.174],[96.916,-12.162],[96.921,-12.174],[96.92,-12.185],[96.914,-12.195],[96.902,-12.2]]]]}}]}
