{"type":"FeatureCollection","features":[{"type":"Feature","id":"CG-11","properties":{"id":"CG-11","countryCode":"CG","isoSubdivision":"CG-11","name":"Bouenza","name_en":"Bouenza","name_ko":"부엔자","type":"Region","labelLongitude":13.491,"labelLatitude":-4.363,"minZoom":6.7},"geometry":{"type":"Polygon","coordinates":[[[13.876,-4.492],[13.867,-4.489],[13.856,-4.48],[13.842,-4.453],[13.833,-4.441],[13.81,-4.427],[13.79,-4.425],[13.727,-4.447],[13.715,-4.453],[13.711,-4.464],[13.722,-4.561],[13.718,-4.58],[13.703,-4.621],[13.699,-4.643],[13.712,-4.686],[13.706,-4.694],[13.698,-4.694],[13.69,-4.691],[13.682,-4.695],[13.678,-4.706],[13.681,-4.725],[13.675,-4.732],[13.667,-4.733],[13.644,-4.726],[13.634,-4.726],[13.613,-4.739],[13.591,-4.779],[13.58,-4.783],[13.579,-4.779],[13.574,-4.75],[13.572,-4.742],[13.569,-4.735],[13.563,-4.727],[13.552,-4.719],[13.535,-4.708],[13.496,-4.689],[13.424,-4.639],[13.416,-4.637],[13.4,-4.634],[13.393,-4.629],[13.387,-4.622],[13.383,-4.611],[13.381,-4.593],[13.379,-4.586],[13.374,-4.577],[13.363,-4.567],[13.352,-4.553],[13.343,-4.536],[13.333,-4.523],[13.327,-4.509],[13.319,-4.491],[13.276,-4.431],[13.255,-4.412],[13.24,-4.404],[13.223,-4.403],[13.208,-4.397],[13.2,-4.396],[13.193,-4.395],[13.185,-4.393],[13.17,-4.387],[13.163,-4.386],[13.148,-4.388],[13.141,-4.387],[13.133,-4.383],[13.127,-4.379],[13.119,-4.377],[13.112,-4.378],[13.104,-4.379],[13.096,-4.38],[13.08,-4.377],[13.064,-4.378],[13.055,-4.374],[13.045,-4.366],[13.029,-4.347],[13.018,-4.34],[13.01,-4.335],[13.003,-4.335],[12.999,-4.333],[12.989,-4.32],[12.918,-4.18],[12.883,-4.129],[12.864,-4.093],[12.852,-4.076],[12.83,-4.054],[12.785,-4.02],[12.778,-4.013],[12.725,-3.952],[12.689,-3.89],[12.666,-3.86],[12.659,-3.853],[12.643,-3.842],[12.613,-3.823],[12.607,-3.817],[12.605,-3.809],[12.611,-3.795],[12.616,-3.786],[12.623,-3.778],[12.629,-3.773],[12.636,-3.77],[12.642,-3.766],[12.645,-3.759],[12.633,-3.731],[12.631,-3.724],[12.63,-3.707],[12.638,-3.691],[12.64,-3.682],[12.628,-3.656],[12.617,-3.605],[12.617,-3.587],[12.618,-3.576],[12.62,-3.569],[12.622,-3.562],[12.631,-3.55],[12.657,-3.528],[12.66,-3.533],[12.672,-3.531],[12.692,-3.522],[12.701,-3.519],[12.724,-3.525],[12.718,-3.55],[12.739,-3.56],[12.779,-3.558],[12.796,-3.562],[12.808,-3.581],[12.794,-3.588],[12.809,-3.593],[12.812,-3.602],[12.812,-3.614],[12.814,-3.629],[12.818,-3.632],[12.831,-3.634],[12.836,-3.635],[12.838,-3.641],[12.839,-3.652],[12.842,-3.657],[12.85,-3.666],[12.854,-3.673],[12.87,-3.719],[12.877,-3.728],[12.89,-3.732],[12.883,-3.751],[12.88,-3.756],[12.875,-3.763],[12.879,-3.768],[12.89,-3.773],[12.89,-3.811],[12.9,-3.832],[12.931,-3.856],[12.943,-3.86],[12.945,-3.863],[12.954,-3.868],[12.978,-3.875],[12.985,-3.882],[12.989,-3.889],[12.992,-3.895],[12.997,-3.899],[13.001,-3.901],[13.006,-3.902],[13.011,-3.905],[13.015,-3.911],[13.019,-3.917],[13.023,-3.923],[13.03,-3.928],[13.04,-3.929],[13.051,-3.928],[13.07,-3.925],[13.122,-3.92],[13.129,-3.92],[13.137,-3.921],[13.162,-3.93],[13.174,-3.928],[13.218,-3.913],[13.233,-3.911],[13.245,-3.912],[13.267,-3.926],[13.274,-3.93],[13.283,-3.93],[13.308,-3.926],[13.327,-3.93],[13.334,-3.931],[13.34,-3.926],[13.347,-3.928],[13.351,-3.933],[13.356,-3.94],[13.359,-3.948],[13.357,-3.955],[13.354,-3.963],[13.353,-3.97],[13.354,-3.978],[13.37,-4.026],[13.375,-4.033],[13.381,-4.039],[13.388,-4.043],[13.395,-4.044],[13.411,-4.046],[13.443,-4.052],[13.454,-4.052],[13.471,-4.048],[13.486,-4.043],[13.498,-4.038],[13.502,-4.035],[13.508,-4.029],[13.513,-4.021],[13.521,-3.983],[13.521,-3.976],[13.521,-3.96],[13.521,-3.953],[13.526,-3.944],[13.534,-3.934],[13.56,-3.907],[13.567,-3.894],[13.568,-3.886],[13.568,-3.877],[13.569,-3.87],[13.572,-3.863],[13.582,-3.854],[13.59,-3.845],[13.598,-3.832],[13.6,-3.826],[13.6,-3.822],[13.592,-3.819],[13.588,-3.816],[13.588,-3.812],[13.591,-3.8],[13.591,-3.798],[13.589,-3.797],[13.586,-3.796],[13.581,-3.797],[13.576,-3.796],[13.571,-3.794],[13.569,-3.789],[13.568,-3.772],[13.568,-3.77],[13.569,-3.768],[13.572,-3.766],[13.577,-3.764],[13.59,-3.761],[13.598,-3.761],[13.604,-3.762],[13.609,-3.765],[13.614,-3.766],[13.62,-3.766],[13.627,-3.763],[13.644,-3.753],[13.648,-3.749],[13.648,-3.738],[13.65,-3.734],[13.658,-3.732],[13.666,-3.731],[13.673,-3.731],[13.688,-3.736],[13.693,-3.736],[13.703,-3.735],[13.708,-3.736],[13.713,-3.736],[13.717,-3.733],[13.719,-3.724],[13.718,-3.711],[13.719,-3.705],[13.725,-3.697],[13.731,-3.69],[13.745,-3.68],[13.754,-3.676],[13.765,-3.672],[13.769,-3.668],[13.772,-3.663],[13.777,-3.65],[13.777,-3.642],[13.777,-3.635],[13.776,-3.631],[13.776,-3.626],[13.778,-3.621],[13.78,-3.616],[13.784,-3.611],[13.789,-3.607],[13.798,-3.604],[13.805,-3.602],[13.822,-3.59],[13.86,-3.538],[13.896,-3.559],[13.905,-3.561],[13.934,-3.563],[13.946,-3.567],[13.961,-3.574],[13.972,-3.577],[13.981,-3.578],[14.023,-3.575],[14.032,-3.572],[14.04,-3.569],[14.096,-3.5],[14.104,-3.494],[14.124,-3.481],[14.13,-3.475],[14.137,-3.461],[14.144,-3.456],[14.15,-3.458],[14.162,-3.47],[14.169,-3.474],[14.207,-3.49],[14.229,-3.494],[14.243,-3.5],[14.249,-3.508],[14.257,-3.515],[14.262,-3.522],[14.271,-3.539],[14.278,-3.549],[14.283,-3.557],[14.285,-3.564],[14.284,-3.579],[14.289,-3.602],[14.293,-3.61],[14.3,-3.62],[14.305,-3.627],[14.307,-3.632],[14.303,-3.634],[14.278,-3.647],[14.271,-3.649],[14.263,-3.652],[14.249,-3.669],[14.239,-3.676],[14.225,-3.678],[14.215,-3.675],[14.211,-3.675],[14.213,-3.691],[14.239,-3.739],[14.261,-3.764],[14.294,-3.818],[14.294,-3.836],[14.297,-3.852],[14.306,-3.864],[14.325,-3.869],[14.344,-3.879],[14.355,-3.902],[14.365,-3.93],[14.377,-3.951],[14.365,-3.955],[14.357,-3.962],[14.343,-3.979],[14.327,-4.002],[14.322,-4.007],[14.281,-4.007],[14.248,-3.987],[14.239,-3.986],[14.235,-3.991],[14.23,-4.011],[14.226,-4.02],[14.22,-4.027],[14.169,-4.062],[14.156,-4.075],[14.144,-4.095],[14.162,-4.135],[14.161,-4.151],[14.144,-4.163],[14.151,-4.17],[14.135,-4.177],[14.102,-4.186],[14.089,-4.191],[14.078,-4.199],[14.048,-4.232],[14.026,-4.249],[13.99,-4.267],[13.975,-4.27],[13.969,-4.274],[13.964,-4.28],[13.962,-4.284],[13.953,-4.313],[13.948,-4.381],[13.946,-4.391],[13.934,-4.414],[13.931,-4.422],[13.927,-4.436],[13.923,-4.444],[13.913,-4.461],[13.905,-4.489],[13.905,-4.49],[13.904,-4.49],[13.876,-4.492]]]}},{"type":"Feature","id":"CG-12","properties":{"id":"CG-12","countryCode":"CG","isoSubdivision":"CG-12","name":"Pool","name_en":"Pool","name_ko":"풀","type":"Region","labelLongitude":15.044,"labelLatitude":-3.711,"minZoom":6.7},"geometry":{"type":"Polygon","coordinates":[[[16.184,-2.94],[16.188,-2.976],[16.184,-3.026],[16.19,-3.082],[16.186,-3.136],[16.19,-3.153],[16.199,-3.172],[16.199,-3.195],[16.193,-3.238],[16.199,-3.259],[16.21,-3.271],[16.222,-3.279],[16.227,-3.29],[16.226,-3.313],[16.221,-3.332],[16.208,-3.362],[16.158,-3.447],[16.138,-3.501],[16.116,-3.544],[16.053,-3.62],[16.013,-3.702],[16.005,-3.725],[15.991,-3.739],[15.974,-3.786],[15.958,-3.815],[15.937,-3.79],[15.921,-3.77],[15.905,-3.746],[15.901,-3.71],[15.885,-3.667],[15.861,-3.619],[15.83,-3.567],[15.803,-3.534],[15.748,-3.514],[15.712,-3.498],[15.676,-3.506],[15.648,-3.534],[15.628,-3.57],[15.604,-3.622],[15.58,-3.645],[15.554,-3.639],[15.522,-3.607],[15.486,-3.563],[15.458,-3.536],[15.434,-3.508],[15.391,-3.492],[15.335,-3.476],[15.303,-3.452],[15.275,-3.448],[15.255,-3.484],[15.247,-3.548],[15.243,-3.615],[15.235,-3.679],[15.215,-3.739],[15.178,-3.779],[15.122,-3.81],[15.094,-3.862],[15.094,-3.914],[15.114,-3.978],[15.118,-4.029],[15.102,-4.105],[15.07,-4.157],[15.046,-4.217],[15.026,-4.264],[14.983,-4.32],[14.956,-4.364],[14.992,-4.4],[15.02,-4.432],[15.044,-4.48],[15.076,-4.52],[15.023,-4.547],[15.015,-4.558],[15.008,-4.571],[14.931,-4.647],[14.849,-4.784],[14.841,-4.8],[14.831,-4.815],[14.815,-4.828],[14.768,-4.848],[14.702,-4.89],[14.673,-4.9],[14.634,-4.904],[14.623,-4.899],[14.592,-4.881],[14.58,-4.876],[14.575,-4.874],[14.567,-4.861],[14.562,-4.856],[14.554,-4.855],[14.532,-4.856],[14.528,-4.852],[14.52,-4.841],[14.501,-4.841],[14.482,-4.846],[14.47,-4.852],[14.449,-4.874],[14.437,-4.88],[14.418,-4.883],[14.401,-4.886],[14.396,-4.856],[14.413,-4.778],[14.409,-4.768],[14.404,-4.759],[14.4,-4.749],[14.399,-4.738],[14.402,-4.728],[14.409,-4.711],[14.411,-4.701],[14.407,-4.676],[14.396,-4.66],[14.381,-4.646],[14.366,-4.627],[14.358,-4.589],[14.35,-4.567],[14.351,-4.559],[14.359,-4.545],[14.375,-4.53],[14.413,-4.515],[14.425,-4.502],[14.436,-4.487],[14.452,-4.468],[14.467,-4.448],[14.47,-4.429],[14.463,-4.423],[14.429,-4.4],[14.409,-4.378],[14.393,-4.353],[14.386,-4.338],[14.386,-4.333],[14.389,-4.328],[14.393,-4.313],[14.395,-4.3],[14.395,-4.29],[14.393,-4.282],[14.387,-4.277],[14.369,-4.278],[14.325,-4.302],[14.28,-4.313],[14.26,-4.327],[14.222,-4.36],[14.185,-4.377],[14.146,-4.39],[14.058,-4.401],[14.021,-4.415],[13.992,-4.455],[13.99,-4.458],[13.988,-4.46],[13.972,-4.472],[13.955,-4.492],[13.945,-4.498],[13.935,-4.498],[13.905,-4.49],[13.905,-4.489],[13.913,-4.461],[13.923,-4.444],[13.927,-4.436],[13.931,-4.422],[13.934,-4.414],[13.946,-4.391],[13.948,-4.381],[13.953,-4.313],[13.962,-4.284],[13.964,-4.28],[13.969,-4.274],[13.975,-4.27],[13.99,-4.267],[14.026,-4.249],[14.048,-4.232],[14.078,-4.199],[14.089,-4.191],[14.102,-4.186],[14.135,-4.177],[14.151,-4.17],[14.144,-4.163],[14.161,-4.151],[14.162,-4.135],[14.144,-4.095],[14.156,-4.075],[14.169,-4.062],[14.22,-4.027],[14.226,-4.02],[14.23,-4.011],[14.235,-3.991],[14.239,-3.986],[14.248,-3.987],[14.281,-4.007],[14.322,-4.007],[14.327,-4.002],[14.343,-3.979],[14.357,-3.962],[14.365,-3.955],[14.377,-3.951],[14.365,-3.93],[14.355,-3.902],[14.344,-3.879],[14.325,-3.869],[14.306,-3.864],[14.297,-3.852],[14.294,-3.836],[14.294,-3.818],[14.261,-3.764],[14.239,-3.739],[14.213,-3.691],[14.211,-3.675],[14.215,-3.675],[14.225,-3.678],[14.239,-3.676],[14.249,-3.669],[14.263,-3.652],[14.271,-3.649],[14.278,-3.647],[14.303,-3.634],[14.307,-3.632],[14.305,-3.627],[14.3,-3.62],[14.293,-3.61],[14.289,-3.602],[14.284,-3.579],[14.285,-3.564],[14.283,-3.557],[14.278,-3.549],[14.271,-3.539],[14.262,-3.522],[14.257,-3.515],[14.249,-3.508],[14.243,-3.5],[14.229,-3.494],[14.207,-3.49],[14.169,-3.474],[14.162,-3.47],[14.15,-3.458],[14.144,-3.456],[14.137,-3.461],[14.13,-3.475],[14.124,-3.481],[14.104,-3.494],[14.096,-3.5],[14.04,-3.569],[14.032,-3.572],[14.023,-3.575],[13.981,-3.578],[13.972,-3.577],[13.961,-3.574],[13.946,-3.567],[13.934,-3.563],[13.905,-3.561],[13.896,-3.559],[13.86,-3.538],[13.872,-3.531],[13.875,-3.528],[13.877,-3.524],[13.878,-3.515],[13.877,-3.504],[13.877,-3.501],[13.878,-3.499],[13.889,-3.489],[13.896,-3.481],[13.907,-3.46],[13.912,-3.448],[13.919,-3.434],[13.921,-3.427],[13.92,-3.423],[13.92,-3.421],[13.92,-3.419],[13.921,-3.416],[13.924,-3.411],[13.946,-3.391],[13.961,-3.38],[13.968,-3.377],[13.97,-3.375],[14.007,-3.334],[14.012,-3.328],[14.018,-3.315],[14.022,-3.309],[14.027,-3.304],[14.043,-3.294],[14.045,-3.291],[14.052,-3.273],[14.055,-3.269],[14.06,-3.265],[14.069,-3.259],[14.082,-3.253],[14.085,-3.25],[14.086,-3.244],[14.084,-3.239],[14.085,-3.235],[14.086,-3.233],[14.092,-3.229],[14.097,-3.224],[14.102,-3.217],[14.11,-3.196],[14.114,-3.191],[14.124,-3.185],[14.127,-3.182],[14.127,-3.178],[14.127,-3.171],[14.128,-3.157],[14.131,-3.147],[14.146,-3.113],[14.162,-3.054],[14.165,-3.046],[14.169,-3.039],[14.188,-3.024],[14.261,-2.981],[14.285,-3.014],[14.306,-3.023],[14.337,-3.021],[14.35,-3.023],[14.372,-3.036],[14.38,-3.038],[14.386,-3.038],[14.397,-3.036],[14.431,-3.035],[14.437,-3.036],[14.442,-3.039],[14.446,-3.042],[14.449,-3.046],[14.456,-3.053],[14.468,-3.061],[14.496,-3.076],[14.511,-3.08],[14.52,-3.081],[14.524,-3.077],[14.536,-3.057],[14.551,-3.042],[14.557,-3.034],[14.572,-3.008],[14.575,-3.004],[14.578,-3.002],[14.596,-2.991],[14.62,-2.967],[14.627,-2.961],[14.644,-2.95],[14.646,-2.948],[14.649,-2.945],[14.653,-2.932],[14.655,-2.929],[14.656,-2.927],[14.66,-2.923],[14.687,-2.904],[14.716,-2.877],[14.722,-2.869],[14.724,-2.866],[14.736,-2.856],[14.771,-2.836],[14.779,-2.829],[14.79,-2.821],[14.791,-2.82],[14.792,-2.819],[14.793,-2.817],[14.796,-2.811],[14.799,-2.798],[14.8,-2.794],[14.799,-2.776],[14.8,-2.77],[14.804,-2.765],[14.811,-2.76],[14.835,-2.746],[14.844,-2.739],[14.874,-2.721],[14.885,-2.718],[14.893,-2.717],[14.897,-2.721],[14.9,-2.725],[14.907,-2.738],[14.913,-2.746],[14.915,-2.751],[14.916,-2.756],[14.914,-2.773],[14.916,-2.778],[14.919,-2.781],[14.926,-2.788],[14.929,-2.791],[14.931,-2.796],[14.932,-2.802],[14.933,-2.808],[14.933,-2.834],[14.94,-2.866],[14.941,-2.871],[14.941,-2.874],[14.938,-2.883],[14.938,-2.889],[14.939,-2.894],[14.945,-2.899],[14.954,-2.901],[14.974,-2.903],[14.992,-2.902],[15.012,-2.896],[15.035,-2.887],[15.042,-2.886],[15.106,-2.892],[15.115,-2.894],[15.119,-2.897],[15.122,-2.901],[15.127,-2.91],[15.138,-2.919],[15.14,-2.924],[15.142,-2.929],[15.146,-2.958],[15.152,-2.974],[15.155,-2.978],[15.159,-2.981],[15.163,-2.984],[15.169,-2.986],[15.185,-2.988],[15.19,-2.991],[15.194,-2.994],[15.196,-2.997],[15.197,-2.999],[15.198,-3.001],[15.2,-3.003],[15.203,-3.005],[15.216,-3.008],[15.219,-3.01],[15.223,-3.012],[15.243,-3.02],[15.282,-3.026],[15.292,-3.026],[15.31,-3.022],[15.33,-3.019],[15.34,-3.019],[15.349,-3.02],[15.385,-3.03],[15.394,-3.031],[15.402,-3.031],[15.474,-3.006],[15.486,-3.001],[15.511,-2.984],[15.517,-2.981],[15.525,-2.976],[15.539,-2.962],[15.547,-2.956],[15.551,-2.954],[15.555,-2.951],[15.565,-2.94],[15.572,-2.935],[15.586,-2.927],[15.596,-2.923],[15.618,-2.917],[15.626,-2.913],[15.629,-2.912],[15.634,-2.906],[15.638,-2.905],[15.644,-2.903],[15.656,-2.9],[15.663,-2.898],[15.668,-2.894],[15.669,-2.888],[15.674,-2.879],[15.677,-2.875],[15.68,-2.871],[15.689,-2.866],[15.7,-2.857],[15.716,-2.849],[15.725,-2.846],[15.79,-2.832],[15.796,-2.834],[15.806,-2.839],[15.81,-2.838],[15.817,-2.829],[15.823,-2.825],[15.828,-2.826],[15.833,-2.83],[15.849,-2.835],[15.861,-2.841],[15.873,-2.843],[15.901,-2.855],[15.913,-2.862],[15.924,-2.871],[15.928,-2.874],[15.933,-2.876],[15.939,-2.877],[15.944,-2.879],[15.948,-2.882],[15.954,-2.89],[15.957,-2.893],[15.961,-2.897],[15.963,-2.901],[15.968,-2.917],[15.971,-2.92],[15.976,-2.923],[15.981,-2.925],[15.985,-2.927],[15.989,-2.931],[15.991,-2.935],[15.997,-2.939],[16.005,-2.942],[16.021,-2.945],[16.034,-2.946],[16.036,-2.945],[16.039,-2.944],[16.042,-2.941],[16.048,-2.938],[16.058,-2.934],[16.076,-2.93],[16.087,-2.929],[16.096,-2.929],[16.122,-2.931],[16.144,-2.936],[16.183,-2.94],[16.184,-2.94]]]}},{"type":"Feature","id":"CG-13","properties":{"id":"CG-13","countryCode":"CG","isoSubdivision":"CG-13","name":"Sangha","name_en":"Sangha","name_ko":"상가","type":"Region","labelLongitude":15.747,"labelLatitude":1.127,"minZoom":6.7},"geometry":{"type":"Polygon","coordinates":[[[13.164,1.538],[13.146,1.563],[13.13,1.592],[13.147,1.612],[13.15,1.636],[13.144,1.682],[13.148,1.703],[13.155,1.722],[13.158,1.739],[13.15,1.756],[13.163,1.764],[13.173,1.777],[13.181,1.792],[13.191,1.829],[13.192,1.845],[13.188,1.857],[13.183,1.864],[13.175,1.882],[13.162,1.9],[13.166,1.904],[13.178,1.908],[13.185,1.923],[13.192,1.935],[13.198,1.943],[13.205,1.949],[13.21,1.956],[13.212,1.966],[13.207,1.985],[13.207,1.994],[13.216,1.997],[13.221,2.001],[13.239,2.021],[13.245,2.025],[13.281,2.045],[13.291,2.069],[13.295,2.101],[13.295,2.161],[13.467,2.16],[13.62,2.158],[13.662,2.158],[13.824,2.156],[14.003,2.155],[14.162,2.153],[14.267,2.152],[14.276,2.154],[14.32,2.171],[14.384,2.162],[14.399,2.153],[14.419,2.135],[14.433,2.132],[14.439,2.134],[14.459,2.147],[14.538,2.163],[14.547,2.167],[14.55,2.175],[14.548,2.184],[14.548,2.194],[14.557,2.202],[14.562,2.209],[14.588,2.202],[14.621,2.165],[14.645,2.154],[14.636,2.138],[14.646,2.133],[14.672,2.134],[14.686,2.126],[14.706,2.106],[14.72,2.1],[14.714,2.124],[14.721,2.128],[14.748,2.113],[14.733,2.102],[14.727,2.1],[14.737,2.096],[14.748,2.097],[14.756,2.1],[14.761,2.1],[14.763,2.093],[14.762,2.07],[14.765,2.065],[14.826,2.072],[14.841,2.076],[14.848,2.085],[14.85,2.097],[14.85,2.11],[14.857,2.116],[14.871,2.102],[14.885,2.082],[14.888,2.072],[14.907,2.059],[14.897,2.031],[14.892,2.006],[14.932,2.003],[14.954,2.006],[14.963,2.01],[14.971,2.034],[14.981,2.033],[15.028,1.995],[15.044,1.991],[15.063,1.997],[15.075,1.979],[15.092,1.984],[15.108,2.001],[15.118,2.017],[15.124,2.017],[15.139,2.012],[15.152,2.041],[15.184,2.029],[15.197,2.035],[15.213,2.04],[15.234,2.031],[15.239,2.025],[15.244,2.01],[15.248,2.003],[15.254,2],[15.288,1.988],[15.295,1.982],[15.301,1.974],[15.303,1.966],[15.302,1.953],[15.3,1.948],[15.302,1.944],[15.309,1.935],[15.314,1.934],[15.338,1.924],[15.337,1.921],[15.349,1.923],[15.368,1.933],[15.388,1.94],[15.439,1.97],[15.483,1.976],[15.527,1.968],[15.612,1.943],[15.707,1.932],[15.711,1.927],[15.722,1.922],[15.734,1.917],[15.757,1.913],[15.765,1.909],[15.803,1.86],[15.815,1.853],[15.842,1.844],[15.866,1.828],[15.876,1.824],[15.882,1.817],[15.885,1.802],[15.89,1.793],[15.902,1.794],[15.915,1.799],[15.926,1.805],[15.929,1.789],[15.944,1.782],[15.963,1.777],[15.98,1.771],[15.991,1.776],[16.003,1.776],[16.014,1.771],[16.022,1.764],[16.026,1.752],[16.025,1.742],[16.022,1.733],[16.022,1.723],[16.03,1.705],[16.07,1.655],[16.115,1.719],[16.124,1.722],[16.145,1.714],[16.156,1.719],[16.159,1.735],[16.135,1.845],[16.101,1.933],[16.083,1.963],[16.075,1.971],[16.069,1.974],[16.065,1.979],[16.064,2.016],[16.066,2.025],[16.082,2.047],[16.082,2.056],[16.078,2.063],[16.077,2.072],[16.076,2.073],[16.076,2.075],[16.076,2.08],[16.077,2.086],[16.08,2.09],[16.084,2.092],[16.088,2.092],[16.09,2.093],[16.092,2.107],[16.09,2.116],[16.086,2.125],[16.083,2.138],[16.086,2.149],[16.098,2.172],[16.104,2.194],[16.12,2.203],[16.141,2.2],[16.159,2.182],[16.199,2.212],[16.208,2.223],[16.202,2.232],[16.197,2.236],[16.248,2.346],[16.294,2.442],[16.326,2.51],[16.371,2.607],[16.414,2.697],[16.427,2.726],[16.441,2.72],[16.468,2.708],[16.481,2.69],[16.487,2.675],[16.489,2.666],[16.487,2.657],[16.483,2.649],[16.482,2.638],[16.485,2.62],[16.491,2.612],[16.496,2.606],[16.501,2.604],[16.508,2.6],[16.516,2.593],[16.552,2.553],[16.557,2.543],[16.559,2.535],[16.56,2.508],[16.563,2.503],[16.565,2.5],[16.568,2.499],[16.573,2.499],[16.579,2.5],[16.603,2.509],[16.611,2.511],[16.62,2.512],[16.654,2.499],[16.672,2.49],[16.679,2.483],[16.685,2.475],[16.734,2.388],[16.739,2.374],[16.741,2.362],[16.74,2.338],[16.743,2.307],[16.734,2.242],[16.737,2.195],[16.748,2.164],[16.757,2.149],[16.761,2.129],[16.76,2.122],[16.757,2.116],[16.751,2.111],[16.738,2.105],[16.732,2.1],[16.728,2.093],[16.725,2.085],[16.723,2.069],[16.722,2.053],[16.729,1.991],[16.736,1.968],[16.739,1.926],[16.736,1.906],[16.736,1.898],[16.737,1.889],[16.75,1.839],[16.757,1.819],[16.758,1.806],[16.756,1.796],[16.718,1.691],[16.708,1.673],[16.706,1.662],[16.709,1.652],[16.719,1.627],[16.731,1.543],[16.732,1.534],[16.73,1.526],[16.725,1.518],[16.708,1.498],[16.704,1.492],[16.701,1.484],[16.699,1.474],[16.702,1.467],[16.716,1.454],[16.718,1.447],[16.718,1.438],[16.716,1.428],[16.715,1.413],[16.717,1.399],[16.739,1.339],[16.746,1.323],[16.752,1.316],[16.759,1.309],[16.766,1.3],[16.774,1.288],[16.796,1.2],[16.798,1.182],[16.797,1.168],[16.791,1.16],[16.787,1.148],[16.783,1.134],[16.783,1.081],[16.782,1.074],[16.778,1.066],[16.773,1.059],[16.767,1.053],[16.752,1.045],[16.729,1.033],[16.721,1.028],[16.713,1.021],[16.701,1.007],[16.696,1],[16.693,0.987],[16.694,0.887],[16.699,0.859],[16.706,0.843],[16.716,0.826],[17.05,0.394],[16.341,0.042],[16.338,0.045],[16.335,0.049],[16.333,0.054],[16.331,0.058],[16.33,0.063],[16.329,0.067],[16.328,0.069],[16.326,0.071],[16.321,0.071],[16.291,0.069],[16.285,0.07],[16.282,0.073],[16.278,0.077],[16.271,0.089],[16.267,0.093],[16.263,0.095],[16.249,0.102],[16.245,0.104],[16.241,0.107],[16.233,0.114],[16.228,0.117],[16.218,0.119],[16.213,0.118],[16.207,0.116],[16.188,0.107],[16.18,0.105],[16.173,0.105],[16.167,0.106],[16.148,0.115],[16.142,0.117],[16.133,0.119],[16.13,0.121],[16.128,0.124],[16.13,0.147],[16.13,0.155],[16.128,0.165],[16.126,0.17],[16.124,0.173],[16.121,0.175],[16.114,0.179],[16.11,0.182],[16.107,0.185],[16.105,0.19],[16.104,0.194],[16.104,0.197],[16.105,0.252],[16.104,0.257],[16.086,0.294],[16.08,0.302],[16.069,0.311],[16.055,0.324],[16.05,0.326],[16.046,0.329],[16.004,0.341],[15.98,0.346],[15.973,0.349],[15.969,0.351],[15.965,0.354],[15.963,0.358],[15.96,0.363],[15.959,0.369],[15.959,0.387],[15.957,0.392],[15.954,0.396],[15.95,0.399],[15.941,0.404],[15.921,0.411],[15.917,0.414],[15.908,0.419],[15.904,0.422],[15.898,0.429],[15.894,0.432],[15.889,0.434],[15.885,0.437],[15.882,0.44],[15.875,0.443],[15.842,0.449],[15.818,0.45],[15.793,0.455],[15.788,0.456],[15.785,0.455],[15.776,0.45],[15.77,0.448],[15.76,0.445],[15.754,0.445],[15.749,0.448],[15.747,0.452],[15.744,0.457],[15.741,0.462],[15.734,0.465],[15.726,0.466],[15.715,0.466],[15.71,0.465],[15.706,0.463],[15.699,0.459],[15.697,0.458],[15.666,0.456],[15.662,0.455],[15.654,0.45],[15.649,0.448],[15.643,0.446],[15.635,0.445],[15.628,0.443],[15.624,0.441],[15.618,0.436],[15.616,0.434],[15.611,0.432],[15.599,0.431],[15.595,0.43],[15.591,0.428],[15.589,0.427],[15.587,0.426],[15.585,0.423],[15.581,0.414],[15.577,0.399],[15.575,0.394],[15.572,0.389],[15.569,0.386],[15.557,0.378],[15.553,0.375],[15.54,0.358],[15.533,0.355],[15.527,0.354],[15.521,0.355],[15.517,0.356],[15.508,0.363],[15.501,0.366],[15.491,0.368],[15.481,0.367],[15.475,0.367],[15.47,0.367],[15.466,0.369],[15.462,0.372],[15.458,0.374],[15.453,0.376],[15.44,0.379],[15.429,0.381],[15.422,0.382],[15.407,0.387],[15.395,0.39],[15.388,0.389],[15.382,0.386],[15.376,0.383],[15.368,0.379],[15.361,0.378],[15.354,0.378],[15.336,0.38],[15.305,0.389],[15.301,0.388],[15.293,0.384],[15.289,0.386],[15.286,0.389],[15.286,0.394],[15.288,0.403],[15.288,0.406],[15.287,0.41],[15.285,0.411],[15.283,0.414],[15.279,0.414],[15.277,0.412],[15.274,0.409],[15.269,0.406],[15.267,0.408],[15.265,0.413],[15.265,0.419],[15.264,0.425],[15.262,0.43],[15.258,0.433],[15.252,0.436],[15.22,0.445],[15.212,0.444],[15.207,0.447],[15.204,0.45],[15.204,0.455],[15.205,0.461],[15.195,0.467],[15.18,0.473],[15.174,0.476],[15.172,0.481],[15.171,0.485],[15.169,0.49],[15.163,0.494],[15.159,0.498],[15.154,0.5],[15.102,0.518],[15.096,0.523],[15.092,0.527],[15.09,0.532],[15.088,0.537],[15.085,0.561],[15.085,0.574],[15.085,0.584],[15.086,0.586],[15.087,0.589],[15.088,0.592],[15.101,0.612],[15.103,0.617],[15.103,0.623],[15.102,0.629],[15.089,0.67],[15.086,0.687],[15.085,0.76],[15.094,0.813],[15.094,0.821],[15.092,0.83],[15.078,0.851],[15.076,0.856],[15.073,0.866],[15.07,0.883],[15.07,0.888],[15.071,0.892],[15.073,0.895],[15.08,0.899],[15.083,0.902],[15.088,0.911],[15.09,0.913],[15.094,0.915],[15.098,0.916],[15.101,0.919],[15.103,0.921],[15.107,0.928],[15.11,0.932],[15.113,0.935],[15.118,0.937],[15.128,0.94],[15.14,0.942],[15.145,0.944],[15.149,0.947],[15.152,0.951],[15.153,0.955],[15.154,0.96],[15.154,0.963],[15.152,0.972],[15.139,1],[15.138,1.001],[15.133,1.005],[15.125,1.009],[15.096,1.021],[15.09,1.025],[15.086,1.029],[15.075,1.043],[15.068,1.046],[15.06,1.047],[15.028,1.045],[15.002,1.047],[14.976,1.052],[14.95,1.06],[14.912,1.086],[14.856,1.114],[14.845,1.121],[14.836,1.129],[14.825,1.149],[14.817,1.158],[14.795,1.174],[14.783,1.179],[14.773,1.182],[14.765,1.183],[14.757,1.182],[14.749,1.18],[14.695,1.188],[14.587,1.22],[14.565,1.23],[14.535,1.251],[14.531,1.257],[14.528,1.265],[14.52,1.328],[14.515,1.344],[14.513,1.352],[14.512,1.368],[14.51,1.377],[14.505,1.386],[14.5,1.39],[14.494,1.391],[14.446,1.382],[14.435,1.383],[14.417,1.386],[14.411,1.386],[14.405,1.385],[14.396,1.382],[14.378,1.378],[14.366,1.377],[14.321,1.381],[14.315,1.381],[14.309,1.38],[14.271,1.371],[14.252,1.368],[14.236,1.363],[14.22,1.355],[14.218,1.361],[14.207,1.363],[14.199,1.368],[14.193,1.375],[14.184,1.381],[14.144,1.392],[14.124,1.394],[14.106,1.389],[14.071,1.375],[14.05,1.376],[14.034,1.388],[14.019,1.402],[14.001,1.413],[13.984,1.417],[13.795,1.434],[13.781,1.431],[13.78,1.426],[13.77,1.4],[13.758,1.377],[13.755,1.374],[13.744,1.37],[13.741,1.371],[13.729,1.377],[13.724,1.378],[13.718,1.375],[13.706,1.366],[13.699,1.363],[13.681,1.359],[13.671,1.359],[13.662,1.359],[13.642,1.357],[13.628,1.348],[13.615,1.337],[13.579,1.323],[13.556,1.293],[13.543,1.283],[13.51,1.277],[13.48,1.277],[13.449,1.283],[13.414,1.296],[13.399,1.297],[13.377,1.294],[13.357,1.289],[13.349,1.282],[13.343,1.264],[13.326,1.259],[13.308,1.257],[13.289,1.234],[13.271,1.226],[13.25,1.222],[13.216,1.224],[13.195,1.221],[13.185,1.223],[13.182,1.236],[13.172,1.243],[13.16,1.248],[13.15,1.257],[13.169,1.259],[13.177,1.271],[13.18,1.285],[13.188,1.291],[13.202,1.293],[13.219,1.299],[13.234,1.309],[13.243,1.329],[13.249,1.332],[13.251,1.338],[13.243,1.35],[13.24,1.357],[13.239,1.364],[13.24,1.372],[13.238,1.42],[13.239,1.428],[13.223,1.438],[13.205,1.486],[13.185,1.497],[13.191,1.511],[13.19,1.525],[13.183,1.537],[13.171,1.545],[13.164,1.538]]]}},{"type":"Feature","id":"CG-14","properties":{"id":"CG-14","countryCode":"CG","isoSubdivision":"CG-14","name":"Plateaux","name_en":"Plateaux","name_ko":"플라토","type":"Region","labelLongitude":15.378,"labelLatitude":-2.042,"minZoom":6.7},"geometry":{"type":"Polygon","coordinates":[[[16.656,-1.59],[16.636,-1.621],[16.629,-1.637],[16.624,-1.654],[16.622,-1.665],[16.623,-1.699],[16.617,-1.729],[16.604,-1.754],[16.525,-1.859],[16.523,-1.862],[16.517,-1.874],[16.514,-1.887],[16.508,-1.89],[16.49,-1.904],[16.475,-1.91],[16.47,-1.913],[16.461,-1.921],[16.446,-1.941],[16.383,-2.002],[16.34,-2.034],[16.284,-2.088],[16.256,-2.107],[16.231,-2.129],[16.207,-2.161],[16.195,-2.182],[16.187,-2.205],[16.189,-2.228],[16.19,-2.235],[16.19,-2.242],[16.177,-2.287],[16.175,-2.303],[16.178,-2.318],[16.187,-2.332],[16.19,-2.337],[16.192,-2.347],[16.192,-2.395],[16.226,-2.635],[16.205,-2.783],[16.181,-2.854],[16.178,-2.868],[16.177,-2.882],[16.184,-2.94],[16.183,-2.94],[16.144,-2.936],[16.122,-2.931],[16.096,-2.929],[16.087,-2.929],[16.076,-2.93],[16.058,-2.934],[16.048,-2.938],[16.042,-2.941],[16.039,-2.944],[16.036,-2.945],[16.034,-2.946],[16.021,-2.945],[16.005,-2.942],[15.997,-2.939],[15.991,-2.935],[15.989,-2.931],[15.985,-2.927],[15.981,-2.925],[15.976,-2.923],[15.971,-2.92],[15.968,-2.917],[15.963,-2.901],[15.961,-2.897],[15.957,-2.893],[15.954,-2.89],[15.948,-2.882],[15.944,-2.879],[15.939,-2.877],[15.933,-2.876],[15.928,-2.874],[15.924,-2.871],[15.913,-2.862],[15.901,-2.855],[15.873,-2.843],[15.861,-2.841],[15.849,-2.835],[15.833,-2.83],[15.828,-2.826],[15.823,-2.825],[15.817,-2.829],[15.81,-2.838],[15.806,-2.839],[15.796,-2.834],[15.79,-2.832],[15.725,-2.846],[15.716,-2.849],[15.7,-2.857],[15.689,-2.866],[15.68,-2.871],[15.677,-2.875],[15.674,-2.879],[15.669,-2.888],[15.668,-2.894],[15.663,-2.898],[15.656,-2.9],[15.644,-2.903],[15.638,-2.905],[15.634,-2.906],[15.629,-2.912],[15.626,-2.913],[15.618,-2.917],[15.596,-2.923],[15.586,-2.927],[15.572,-2.935],[15.565,-2.94],[15.555,-2.951],[15.551,-2.954],[15.547,-2.956],[15.539,-2.962],[15.525,-2.976],[15.517,-2.981],[15.511,-2.984],[15.486,-3.001],[15.474,-3.006],[15.402,-3.031],[15.394,-3.031],[15.385,-3.03],[15.349,-3.02],[15.34,-3.019],[15.33,-3.019],[15.31,-3.022],[15.292,-3.026],[15.282,-3.026],[15.243,-3.02],[15.223,-3.012],[15.219,-3.01],[15.216,-3.008],[15.203,-3.005],[15.2,-3.003],[15.198,-3.001],[15.197,-2.999],[15.196,-2.997],[15.194,-2.994],[15.19,-2.991],[15.185,-2.988],[15.169,-2.986],[15.163,-2.984],[15.159,-2.981],[15.155,-2.978],[15.152,-2.974],[15.146,-2.958],[15.142,-2.929],[15.14,-2.924],[15.138,-2.919],[15.127,-2.91],[15.122,-2.901],[15.119,-2.897],[15.115,-2.894],[15.106,-2.892],[15.042,-2.886],[15.035,-2.887],[15.012,-2.896],[14.992,-2.902],[14.974,-2.903],[14.954,-2.901],[14.945,-2.899],[14.939,-2.894],[14.938,-2.889],[14.938,-2.883],[14.941,-2.874],[14.941,-2.871],[14.94,-2.866],[14.933,-2.834],[14.933,-2.808],[14.932,-2.802],[14.931,-2.796],[14.929,-2.791],[14.926,-2.788],[14.919,-2.781],[14.916,-2.778],[14.914,-2.773],[14.916,-2.756],[14.915,-2.751],[14.913,-2.746],[14.907,-2.738],[14.9,-2.725],[14.897,-2.721],[14.893,-2.717],[14.885,-2.718],[14.874,-2.721],[14.844,-2.739],[14.835,-2.746],[14.811,-2.76],[14.804,-2.765],[14.8,-2.77],[14.799,-2.776],[14.8,-2.794],[14.799,-2.798],[14.796,-2.811],[14.793,-2.817],[14.792,-2.819],[14.791,-2.82],[14.79,-2.821],[14.779,-2.829],[14.771,-2.836],[14.736,-2.856],[14.724,-2.866],[14.722,-2.869],[14.716,-2.877],[14.687,-2.904],[14.66,-2.923],[14.656,-2.927],[14.655,-2.929],[14.653,-2.932],[14.649,-2.945],[14.646,-2.948],[14.644,-2.95],[14.627,-2.961],[14.62,-2.967],[14.596,-2.991],[14.578,-3.002],[14.575,-3.004],[14.572,-3.008],[14.557,-3.034],[14.551,-3.042],[14.536,-3.057],[14.524,-3.077],[14.52,-3.081],[14.511,-3.08],[14.496,-3.076],[14.468,-3.061],[14.456,-3.053],[14.449,-3.046],[14.446,-3.042],[14.442,-3.039],[14.437,-3.036],[14.431,-3.035],[14.397,-3.036],[14.386,-3.038],[14.38,-3.038],[14.372,-3.036],[14.35,-3.023],[14.337,-3.021],[14.306,-3.023],[14.285,-3.014],[14.261,-2.981],[14.266,-2.971],[14.267,-2.967],[14.271,-2.961],[14.277,-2.955],[14.289,-2.946],[14.293,-2.942],[14.295,-2.938],[14.297,-2.933],[14.299,-2.922],[14.303,-2.916],[14.308,-2.91],[14.314,-2.905],[14.329,-2.897],[14.335,-2.893],[14.341,-2.886],[14.343,-2.876],[14.339,-2.862],[14.307,-2.773],[14.305,-2.758],[14.303,-2.752],[14.299,-2.752],[14.29,-2.762],[14.285,-2.764],[14.281,-2.76],[14.282,-2.751],[14.285,-2.741],[14.299,-2.718],[14.302,-2.71],[14.301,-2.702],[14.298,-2.696],[14.285,-2.693],[14.275,-2.694],[14.266,-2.694],[14.258,-2.69],[14.249,-2.685],[14.24,-2.684],[14.232,-2.685],[14.215,-2.695],[14.206,-2.696],[14.198,-2.693],[14.187,-2.687],[14.179,-2.684],[14.171,-2.683],[14.155,-2.683],[14.147,-2.681],[14.141,-2.675],[14.137,-2.669],[14.135,-2.662],[14.139,-2.655],[14.152,-2.645],[14.165,-2.633],[14.18,-2.624],[14.186,-2.618],[14.189,-2.611],[14.187,-2.603],[14.177,-2.596],[14.17,-2.597],[14.164,-2.601],[14.16,-2.605],[14.154,-2.605],[14.147,-2.601],[14.132,-2.591],[14.126,-2.585],[14.124,-2.578],[14.13,-2.572],[14.143,-2.569],[14.148,-2.566],[14.151,-2.564],[14.154,-2.559],[14.153,-2.555],[14.149,-2.547],[14.121,-2.52],[14.111,-2.493],[14.101,-2.478],[14.107,-2.46],[14.115,-2.451],[14.125,-2.444],[14.132,-2.435],[14.131,-2.409],[14.136,-2.399],[14.144,-2.39],[14.163,-2.374],[14.172,-2.368],[14.182,-2.363],[14.23,-2.352],[14.234,-2.355],[14.227,-2.323],[14.151,-2.259],[14.148,-2.225],[14.162,-2.214],[14.196,-2.202],[14.209,-2.187],[14.209,-2.18],[14.203,-2.162],[14.204,-2.152],[14.21,-2.147],[14.227,-2.141],[14.234,-2.134],[14.238,-2.12],[14.244,-2.068],[14.251,-2.048],[14.252,-2.038],[14.247,-2.029],[14.239,-2.023],[14.233,-2.018],[14.233,-2.012],[14.238,-2.003],[14.238,-1.991],[14.24,-1.982],[14.245,-1.975],[14.252,-1.968],[14.369,-1.922],[14.371,-1.929],[14.375,-1.982],[14.381,-2.002],[14.388,-2.015],[14.396,-2.02],[14.411,-2.024],[14.427,-2.026],[14.435,-2.026],[14.443,-2.025],[14.48,-2.017],[14.488,-2.014],[14.495,-2.008],[14.499,-2.004],[14.502,-2],[14.509,-1.984],[14.515,-1.977],[14.522,-1.972],[14.533,-1.97],[14.55,-1.962],[14.565,-1.951],[14.588,-1.931],[14.627,-1.876],[14.631,-1.869],[14.642,-1.839],[14.647,-1.831],[14.667,-1.809],[14.679,-1.79],[14.687,-1.779],[14.715,-1.752],[14.722,-1.743],[14.735,-1.721],[14.738,-1.713],[14.741,-1.69],[14.75,-1.678],[14.763,-1.662],[14.811,-1.622],[14.824,-1.614],[14.874,-1.592],[14.882,-1.59],[14.89,-1.589],[14.929,-1.592],[14.941,-1.589],[14.969,-1.578],[14.984,-1.569],[15.022,-1.533],[15.091,-1.445],[15.143,-1.282],[15.163,-1.239],[15.229,-1.153],[15.249,-1.136],[15.299,-1.114],[15.321,-1.099],[15.329,-1.091],[15.34,-1.072],[15.349,-1.064],[15.353,-1.063],[15.363,-1.066],[15.368,-1.065],[15.384,-1.051],[15.399,-1.034],[15.427,-0.991],[15.443,-0.978],[15.478,-0.967],[15.492,-0.959],[15.499,-0.957],[15.503,-0.958],[15.513,-0.963],[15.519,-0.964],[15.535,-0.958],[15.564,-0.944],[15.58,-0.938],[15.599,-0.937],[15.653,-0.951],[15.692,-0.954],[15.709,-0.959],[15.723,-0.971],[15.728,-0.991],[15.728,-1.015],[15.732,-1.038],[15.748,-1.057],[15.766,-1.064],[15.812,-1.075],[15.834,-1.084],[15.84,-1.091],[15.844,-1.097],[15.849,-1.103],[15.895,-1.116],[15.903,-1.12],[15.917,-1.141],[15.925,-1.151],[15.933,-1.151],[15.944,-1.145],[15.947,-1.155],[15.948,-1.178],[15.966,-1.187],[16.03,-1.193],[16.062,-1.205],[16.093,-1.221],[16.204,-1.29],[16.21,-1.296],[16.217,-1.3],[16.256,-1.305],[16.262,-1.309],[16.27,-1.317],[16.274,-1.324],[16.29,-1.357],[16.311,-1.385],[16.343,-1.474],[16.368,-1.496],[16.41,-1.498],[16.404,-1.515],[16.418,-1.524],[16.435,-1.529],[16.439,-1.535],[16.441,-1.542],[16.463,-1.546],[16.489,-1.545],[16.505,-1.54],[16.524,-1.529],[16.544,-1.527],[16.564,-1.532],[16.594,-1.544],[16.597,-1.542],[16.598,-1.544],[16.603,-1.555],[16.602,-1.569],[16.597,-1.584],[16.601,-1.593],[16.623,-1.59],[16.655,-1.59],[16.656,-1.59]]]}},{"type":"Feature","id":"CG-15","properties":{"id":"CG-15","countryCode":"CG","isoSubdivision":"CG-15","name":"Cuvette-Ouest","name_en":"Cuvette-Ouest","name_ko":"퀴베트우에스트","type":"Region","labelLongitude":14.558,"labelLatitude":0.035,"minZoom":6.7},"geometry":{"type":"Polygon","coordinates":[[[14.182,0.54],[14.232,0.543],[14.245,0.548],[14.251,0.552],[14.255,0.557],[14.329,0.621],[14.335,0.643],[14.338,0.694],[14.367,0.736],[14.413,0.775],[14.448,0.816],[14.441,0.863],[14.438,0.875],[14.445,0.883],[14.457,0.89],[14.466,0.9],[14.468,0.913],[14.46,0.921],[14.437,0.933],[14.418,0.951],[14.401,0.97],[14.387,0.992],[14.376,1.016],[14.36,1.067],[14.346,1.087],[14.298,1.109],[14.283,1.13],[14.275,1.156],[14.276,1.231],[14.273,1.257],[14.258,1.32],[14.252,1.331],[14.241,1.339],[14.23,1.344],[14.221,1.349],[14.22,1.355],[14.236,1.363],[14.252,1.368],[14.271,1.371],[14.309,1.38],[14.315,1.381],[14.321,1.381],[14.366,1.377],[14.378,1.378],[14.396,1.382],[14.405,1.385],[14.411,1.386],[14.417,1.386],[14.435,1.383],[14.446,1.382],[14.494,1.391],[14.5,1.39],[14.505,1.386],[14.51,1.377],[14.512,1.368],[14.513,1.352],[14.515,1.344],[14.52,1.328],[14.528,1.265],[14.531,1.257],[14.535,1.251],[14.565,1.23],[14.587,1.22],[14.695,1.188],[14.749,1.18],[14.757,1.182],[14.765,1.183],[14.773,1.182],[14.783,1.179],[14.795,1.174],[14.817,1.158],[14.825,1.149],[14.836,1.129],[14.845,1.121],[14.856,1.114],[14.912,1.086],[14.95,1.06],[14.976,1.052],[15.002,1.047],[15.028,1.045],[15.06,1.047],[15.068,1.046],[15.075,1.043],[15.086,1.029],[15.09,1.025],[15.096,1.021],[15.125,1.009],[15.133,1.005],[15.138,1.001],[15.139,1],[15.152,0.972],[15.154,0.963],[15.154,0.96],[15.153,0.955],[15.152,0.951],[15.149,0.947],[15.145,0.944],[15.14,0.942],[15.128,0.94],[15.118,0.937],[15.113,0.935],[15.11,0.932],[15.107,0.928],[15.103,0.921],[15.101,0.919],[15.098,0.916],[15.094,0.915],[15.09,0.913],[15.088,0.911],[15.083,0.902],[15.08,0.899],[15.073,0.895],[15.071,0.892],[15.07,0.888],[15.07,0.883],[15.073,0.866],[15.076,0.856],[15.078,0.851],[15.092,0.83],[15.094,0.821],[15.094,0.813],[15.085,0.76],[15.086,0.687],[15.089,0.67],[15.102,0.629],[15.103,0.623],[15.103,0.617],[15.101,0.612],[15.088,0.592],[15.087,0.589],[15.086,0.586],[15.085,0.584],[15.085,0.574],[15.085,0.561],[15.088,0.537],[15.09,0.532],[15.092,0.527],[15.096,0.523],[15.102,0.518],[15.154,0.5],[15.159,0.498],[15.163,0.494],[15.169,0.49],[15.171,0.485],[15.172,0.481],[15.174,0.476],[15.18,0.473],[15.195,0.467],[15.205,0.461],[15.204,0.455],[15.204,0.45],[15.207,0.447],[15.212,0.444],[15.22,0.445],[15.252,0.436],[15.258,0.433],[15.262,0.43],[15.264,0.425],[15.265,0.419],[15.265,0.413],[15.267,0.408],[15.269,0.406],[15.274,0.409],[15.277,0.412],[15.279,0.414],[15.283,0.414],[15.285,0.411],[15.262,0.377],[15.237,0.355],[15.207,0.339],[15.168,0.322],[15.134,0.301],[15.163,0.244],[15.228,0.197],[15.243,0.129],[15.193,0.075],[15.118,0.051],[15.042,0.036],[15.023,0.037],[15.004,0.04],[14.966,0.033],[14.93,0.037],[14.898,0.033],[14.888,-0.004],[14.897,-0.043],[14.897,-0.059],[14.896,-0.075],[14.902,-0.098],[14.929,-0.155],[14.938,-0.194],[14.95,-0.226],[14.982,-0.241],[15.055,-0.25],[15.089,-0.261],[15.104,-0.295],[15.15,-0.473],[15.143,-0.508],[15.129,-0.543],[15.109,-0.576],[15.053,-0.633],[15.01,-0.688],[15.167,-0.825],[15.185,-0.858],[15.164,-0.892],[15.146,-0.935],[15.047,-1.047],[14.992,-1.094],[14.917,-1.111],[14.73,-1.119],[14.688,-1.109],[14.664,-1.12],[14.64,-1.143],[14.569,-1.163],[14.439,-1.186],[14.435,-1.182],[14.428,-1.169],[14.428,-1.161],[14.434,-1.144],[14.434,-1.135],[14.431,-1.123],[14.42,-1.102],[14.392,-1.023],[14.392,-1.009],[14.403,-0.988],[14.408,-0.944],[14.413,-0.922],[14.428,-0.897],[14.446,-0.878],[14.457,-0.856],[14.453,-0.826],[14.446,-0.8],[14.446,-0.776],[14.452,-0.751],[14.492,-0.663],[14.499,-0.631],[14.49,-0.601],[14.467,-0.553],[14.454,-0.54],[14.414,-0.512],[14.392,-0.482],[14.359,-0.461],[14.321,-0.444],[14.293,-0.436],[14.276,-0.439],[14.26,-0.446],[14.245,-0.452],[14.229,-0.448],[14.21,-0.44],[14.193,-0.44],[14.177,-0.446],[14.16,-0.455],[14.158,-0.418],[14.151,-0.376],[14.138,-0.336],[14.121,-0.302],[14.095,-0.277],[14.059,-0.259],[14.019,-0.253],[13.982,-0.262],[13.975,-0.253],[13.967,-0.246],[13.957,-0.242],[13.922,-0.238],[13.914,-0.241],[13.91,-0.247],[13.907,-0.254],[13.903,-0.259],[13.89,-0.264],[13.883,-0.265],[13.877,-0.26],[13.831,-0.205],[13.832,-0.177],[13.843,-0.152],[13.888,-0.092],[13.9,-0.076],[13.911,-0.066],[13.921,-0.053],[13.92,-0.042],[13.915,-0.031],[13.913,-0.017],[13.917,-0.007],[13.931,0.012],[13.933,0.022],[13.925,0.034],[13.913,0.037],[13.901,0.037],[13.895,0.044],[13.891,0.116],[13.886,0.14],[13.876,0.171],[13.871,0.196],[13.876,0.22],[13.91,0.271],[13.945,0.35],[13.967,0.373],[14.04,0.414],[14.059,0.435],[14.063,0.456],[14.057,0.476],[14.046,0.497],[14.076,0.539],[14.125,0.546],[14.182,0.54]]]}},{"type":"Feature","id":"CG-16","properties":{"id":"CG-16","countryCode":"CG","isoSubdivision":"CG-16","name":"Pointe-Noire","name_en":"Pointe-Noire","name_ko":"푸앵트 누아르","type":"Region","labelLongitude":11.859,"labelLatitude":-4.805,"minZoom":6.7},"geometry":{"type":"Polygon","coordinates":[[[11.886,-4.855],[11.831,-4.797],[11.82,-4.785],[11.819,-4.779],[11.824,-4.772],[11.83,-4.774],[11.843,-4.789],[11.848,-4.786],[11.853,-4.774],[11.85,-4.753],[11.842,-4.742],[11.898,-4.742],[11.898,-4.855],[11.886,-4.855]]]}},{"type":"Feature","id":"CG-2","properties":{"id":"CG-2","countryCode":"CG","isoSubdivision":"CG-2","name":"Lékoumou","name_en":"Lékoumou","name_ko":"레쿠무","type":"Region","labelLongitude":13.473,"labelLatitude":-3.238,"minZoom":6.7},"geometry":{"type":"Polygon","coordinates":[[[13.743,-2.097],[13.746,-2.098],[13.757,-2.106],[13.771,-2.119],[13.783,-2.138],[13.791,-2.159],[13.801,-2.2],[13.823,-2.247],[13.836,-2.265],[13.854,-2.284],[13.861,-2.294],[13.864,-2.321],[13.872,-2.329],[13.882,-2.334],[13.893,-2.341],[13.906,-2.36],[13.902,-2.366],[13.89,-2.374],[13.876,-2.404],[13.855,-2.414],[13.848,-2.423],[13.847,-2.462],[13.846,-2.467],[13.862,-2.481],[13.885,-2.488],[13.909,-2.49],[13.93,-2.485],[13.948,-2.475],[13.957,-2.471],[13.967,-2.471],[13.976,-2.477],[13.979,-2.496],[13.986,-2.501],[13.993,-2.502],[14.039,-2.487],[14.046,-2.486],[14.056,-2.487],[14.071,-2.496],[14.081,-2.5],[14.09,-2.499],[14.096,-2.491],[14.101,-2.478],[14.111,-2.493],[14.121,-2.52],[14.149,-2.547],[14.153,-2.555],[14.154,-2.559],[14.151,-2.564],[14.148,-2.566],[14.143,-2.569],[14.13,-2.572],[14.124,-2.578],[14.126,-2.585],[14.132,-2.591],[14.147,-2.601],[14.154,-2.605],[14.16,-2.605],[14.164,-2.601],[14.17,-2.597],[14.177,-2.596],[14.187,-2.603],[14.189,-2.611],[14.186,-2.618],[14.18,-2.624],[14.165,-2.633],[14.152,-2.645],[14.139,-2.655],[14.135,-2.662],[14.137,-2.669],[14.141,-2.675],[14.147,-2.681],[14.155,-2.683],[14.171,-2.683],[14.179,-2.684],[14.187,-2.687],[14.198,-2.693],[14.206,-2.696],[14.215,-2.695],[14.232,-2.685],[14.24,-2.684],[14.249,-2.685],[14.258,-2.69],[14.266,-2.694],[14.275,-2.694],[14.285,-2.693],[14.298,-2.696],[14.301,-2.702],[14.302,-2.71],[14.299,-2.718],[14.285,-2.741],[14.282,-2.751],[14.281,-2.76],[14.285,-2.764],[14.29,-2.762],[14.299,-2.752],[14.303,-2.752],[14.305,-2.758],[14.307,-2.773],[14.339,-2.862],[14.343,-2.876],[14.341,-2.886],[14.335,-2.893],[14.329,-2.897],[14.314,-2.905],[14.308,-2.91],[14.303,-2.916],[14.299,-2.922],[14.297,-2.933],[14.295,-2.938],[14.293,-2.942],[14.289,-2.946],[14.277,-2.955],[14.271,-2.961],[14.267,-2.967],[14.266,-2.971],[14.261,-2.981],[14.188,-3.024],[14.169,-3.039],[14.165,-3.046],[14.162,-3.054],[14.146,-3.113],[14.131,-3.147],[14.128,-3.157],[14.127,-3.171],[14.127,-3.178],[14.127,-3.182],[14.124,-3.185],[14.114,-3.191],[14.11,-3.196],[14.102,-3.217],[14.097,-3.224],[14.092,-3.229],[14.086,-3.233],[14.085,-3.235],[14.084,-3.239],[14.086,-3.244],[14.085,-3.25],[14.082,-3.253],[14.069,-3.259],[14.06,-3.265],[14.055,-3.269],[14.052,-3.273],[14.045,-3.291],[14.043,-3.294],[14.027,-3.304],[14.022,-3.309],[14.018,-3.315],[14.012,-3.328],[14.007,-3.334],[13.97,-3.375],[13.968,-3.377],[13.961,-3.38],[13.946,-3.391],[13.924,-3.411],[13.921,-3.416],[13.92,-3.419],[13.92,-3.421],[13.92,-3.423],[13.921,-3.427],[13.919,-3.434],[13.912,-3.448],[13.907,-3.46],[13.896,-3.481],[13.889,-3.489],[13.878,-3.499],[13.877,-3.501],[13.877,-3.504],[13.878,-3.515],[13.877,-3.524],[13.875,-3.528],[13.872,-3.531],[13.86,-3.538],[13.822,-3.59],[13.805,-3.602],[13.798,-3.604],[13.789,-3.607],[13.784,-3.611],[13.78,-3.616],[13.778,-3.621],[13.776,-3.626],[13.776,-3.631],[13.777,-3.635],[13.777,-3.642],[13.777,-3.65],[13.772,-3.663],[13.769,-3.668],[13.765,-3.672],[13.754,-3.676],[13.745,-3.68],[13.731,-3.69],[13.725,-3.697],[13.719,-3.705],[13.718,-3.711],[13.719,-3.724],[13.717,-3.733],[13.713,-3.736],[13.708,-3.736],[13.703,-3.735],[13.693,-3.736],[13.688,-3.736],[13.673,-3.731],[13.666,-3.731],[13.658,-3.732],[13.65,-3.734],[13.648,-3.738],[13.648,-3.749],[13.644,-3.753],[13.627,-3.763],[13.62,-3.766],[13.614,-3.766],[13.609,-3.765],[13.604,-3.762],[13.598,-3.761],[13.59,-3.761],[13.577,-3.764],[13.572,-3.766],[13.569,-3.768],[13.568,-3.77],[13.568,-3.772],[13.569,-3.789],[13.571,-3.794],[13.576,-3.796],[13.581,-3.797],[13.586,-3.796],[13.589,-3.797],[13.591,-3.798],[13.591,-3.8],[13.588,-3.812],[13.588,-3.816],[13.592,-3.819],[13.6,-3.822],[13.6,-3.826],[13.598,-3.832],[13.59,-3.845],[13.582,-3.854],[13.572,-3.863],[13.569,-3.87],[13.568,-3.877],[13.568,-3.886],[13.567,-3.894],[13.56,-3.907],[13.534,-3.934],[13.526,-3.944],[13.521,-3.953],[13.521,-3.96],[13.521,-3.976],[13.521,-3.983],[13.513,-4.021],[13.508,-4.029],[13.502,-4.035],[13.498,-4.038],[13.486,-4.043],[13.471,-4.048],[13.454,-4.052],[13.443,-4.052],[13.411,-4.046],[13.395,-4.044],[13.388,-4.043],[13.381,-4.039],[13.375,-4.033],[13.37,-4.026],[13.354,-3.978],[13.353,-3.97],[13.354,-3.963],[13.357,-3.955],[13.359,-3.948],[13.356,-3.94],[13.351,-3.933],[13.347,-3.928],[13.34,-3.926],[13.334,-3.931],[13.327,-3.93],[13.308,-3.926],[13.283,-3.93],[13.274,-3.93],[13.267,-3.926],[13.245,-3.912],[13.233,-3.911],[13.218,-3.913],[13.174,-3.928],[13.162,-3.93],[13.137,-3.921],[13.129,-3.92],[13.122,-3.92],[13.07,-3.925],[13.051,-3.928],[13.04,-3.929],[13.03,-3.928],[13.023,-3.923],[13.019,-3.917],[13.015,-3.911],[13.011,-3.905],[13.006,-3.902],[13.001,-3.901],[12.997,-3.899],[12.992,-3.895],[12.989,-3.889],[12.985,-3.882],[12.978,-3.875],[12.954,-3.868],[12.945,-3.863],[12.943,-3.86],[12.931,-3.856],[12.9,-3.832],[12.89,-3.811],[12.89,-3.773],[12.879,-3.768],[12.875,-3.763],[12.88,-3.756],[12.883,-3.751],[12.89,-3.732],[12.877,-3.728],[12.87,-3.719],[12.854,-3.673],[12.85,-3.666],[12.842,-3.657],[12.839,-3.652],[12.838,-3.641],[12.836,-3.635],[12.831,-3.634],[12.818,-3.632],[12.814,-3.629],[12.812,-3.614],[12.812,-3.602],[12.809,-3.593],[12.794,-3.588],[12.808,-3.581],[12.796,-3.562],[12.779,-3.558],[12.739,-3.56],[12.718,-3.55],[12.724,-3.525],[12.701,-3.519],[12.692,-3.522],[12.672,-3.531],[12.66,-3.533],[12.657,-3.528],[12.657,-3.495],[12.652,-3.491],[12.643,-3.492],[12.634,-3.491],[12.629,-3.482],[12.629,-3.471],[12.626,-3.463],[12.619,-3.459],[12.608,-3.458],[12.608,-3.451],[12.615,-3.438],[12.603,-3.426],[12.604,-3.416],[12.608,-3.413],[12.611,-3.41],[12.617,-3.408],[12.62,-3.407],[12.64,-3.407],[12.645,-3.406],[12.649,-3.404],[12.651,-3.401],[12.653,-3.398],[12.66,-3.381],[12.67,-3.338],[12.672,-3.334],[12.674,-3.33],[12.678,-3.325],[12.681,-3.323],[12.685,-3.321],[12.698,-3.315],[12.713,-3.305],[12.719,-3.302],[12.724,-3.3],[12.731,-3.299],[12.744,-3.299],[12.774,-3.304],[12.78,-3.304],[12.786,-3.303],[12.791,-3.301],[12.809,-3.293],[12.811,-3.292],[12.822,-3.291],[12.828,-3.291],[12.834,-3.291],[12.839,-3.293],[12.851,-3.301],[12.856,-3.303],[12.864,-3.301],[12.872,-3.297],[12.886,-3.288],[12.894,-3.285],[12.9,-3.286],[12.907,-3.293],[12.911,-3.295],[12.918,-3.294],[12.922,-3.29],[12.923,-3.285],[12.922,-3.258],[12.923,-3.251],[12.927,-3.249],[12.933,-3.25],[12.947,-3.253],[12.954,-3.254],[12.962,-3.252],[12.985,-3.243],[12.992,-3.241],[12.999,-3.241],[13.015,-3.233],[13.024,-3.221],[13.034,-3.214],[13.061,-3.199],[13.096,-3.164],[13.104,-3.151],[13.108,-3.14],[13.105,-3.081],[13.116,-3.035],[13.128,-3.002],[13.129,-2.997],[13.13,-2.989],[13.126,-2.981],[13.121,-2.973],[13.114,-2.966],[13.069,-2.928],[13.061,-2.926],[13.047,-2.925],[13.025,-2.919],[13.019,-2.915],[13.015,-2.909],[13.012,-2.902],[13.008,-2.887],[13.001,-2.874],[12.999,-2.869],[12.999,-2.86],[13.001,-2.856],[13.006,-2.852],[13.02,-2.847],[13.028,-2.843],[13.041,-2.831],[13.049,-2.827],[13.065,-2.825],[13.073,-2.821],[13.076,-2.815],[13.075,-2.808],[13.054,-2.761],[13.049,-2.745],[13.038,-2.603],[13.042,-2.432],[13.051,-2.386],[13.051,-2.377],[13.048,-2.37],[13.042,-2.366],[13.035,-2.366],[13.027,-2.369],[13.02,-2.373],[13.013,-2.375],[13.008,-2.373],[13.001,-2.368],[12.994,-2.36],[13.012,-2.342],[13.025,-2.338],[13.05,-2.343],[13.114,-2.372],[13.135,-2.377],[13.146,-2.375],[13.165,-2.364],[13.177,-2.362],[13.187,-2.364],[13.361,-2.429],[13.379,-2.431],[13.398,-2.426],[13.42,-2.43],[13.425,-2.43],[13.439,-2.425],[13.445,-2.427],[13.454,-2.439],[13.459,-2.441],[13.469,-2.435],[13.474,-2.427],[13.477,-2.418],[13.482,-2.408],[13.492,-2.398],[13.525,-2.376],[13.533,-2.368],[13.548,-2.349],[13.558,-2.34],[13.569,-2.334],[13.593,-2.327],[13.603,-2.32],[13.608,-2.311],[13.611,-2.29],[13.617,-2.28],[13.694,-2.206],[13.702,-2.195],[13.705,-2.184],[13.707,-2.165],[13.709,-2.154],[13.72,-2.134],[13.741,-2.102],[13.743,-2.097]]]}},{"type":"Feature","id":"CG-5","properties":{"id":"CG-5","countryCode":"CG","isoSubdivision":"CG-5","name":"Kouilou","name_en":"Kouilou","name_ko":"쿠일루","type":"Region","labelLongitude":11.955,"labelLatitude":-4.368,"minZoom":6.7},"geometry":{"type":"Polygon","coordinates":[[[12.783,-4.4],[12.775,-4.396],[12.762,-4.391],[12.738,-4.405],[12.727,-4.428],[12.718,-4.452],[12.705,-4.468],[12.687,-4.478],[12.671,-4.491],[12.657,-4.507],[12.635,-4.548],[12.624,-4.559],[12.608,-4.565],[12.497,-4.585],[12.429,-4.608],[12.414,-4.609],[12.387,-4.605],[12.378,-4.619],[12.379,-4.662],[12.374,-4.683],[12.332,-4.766],[12.322,-4.778],[12.308,-4.784],[12.274,-4.787],[12.259,-4.791],[12.244,-4.796],[12.235,-4.804],[12.223,-4.781],[12.213,-4.769],[12.204,-4.763],[12.192,-4.763],[12.188,-4.768],[12.157,-4.871],[12.131,-4.913],[12.018,-5.009],[12.01,-5.02],[11.994,-5.006],[11.98,-4.989],[11.958,-4.952],[11.92,-4.906],[11.896,-4.883],[11.886,-4.855],[11.898,-4.855],[11.898,-4.742],[11.842,-4.742],[11.824,-4.719],[11.782,-4.68],[11.777,-4.668],[11.778,-4.658],[11.801,-4.658],[11.82,-4.637],[11.825,-4.615],[11.806,-4.577],[11.693,-4.463],[11.589,-4.375],[11.498,-4.294],[11.451,-4.265],[11.401,-4.221],[11.382,-4.191],[11.378,-4.185],[11.365,-4.163],[11.362,-4.153],[11.363,-4.131],[11.362,-4.12],[11.358,-4.112],[11.27,-4.042],[11.172,-3.977],[11.139,-3.953],[11.114,-3.937],[11.13,-3.908],[11.196,-3.729],[11.213,-3.697],[11.239,-3.675],[11.273,-3.653],[11.302,-3.628],[11.335,-3.609],[11.376,-3.6],[11.414,-3.588],[11.436,-3.559],[11.455,-3.528],[11.483,-3.509],[11.533,-3.517],[11.57,-3.545],[11.649,-3.673],[11.666,-3.691],[11.688,-3.699],[11.742,-3.692],[11.762,-3.694],[11.82,-3.71],[11.838,-3.711],[11.841,-3.71],[11.861,-3.741],[11.868,-3.746],[11.877,-3.751],[11.899,-3.755],[11.928,-3.769],[12.062,-3.867],[12.097,-3.881],[12.106,-3.884],[12.139,-3.886],[12.169,-3.896],[12.186,-3.908],[12.202,-3.915],[12.208,-3.92],[12.209,-3.924],[12.209,-3.936],[12.21,-3.942],[12.213,-3.947],[12.218,-3.95],[12.239,-3.954],[12.269,-3.964],[12.296,-3.969],[12.32,-3.977],[12.339,-3.978],[12.352,-3.981],[12.374,-3.989],[12.384,-3.995],[12.39,-3.999],[12.391,-4.001],[12.391,-4.005],[12.389,-4.011],[12.39,-4.018],[12.393,-4.024],[12.399,-4.028],[12.433,-4.036],[12.443,-4.042],[12.452,-4.05],[12.536,-4.145],[12.546,-4.162],[12.552,-4.171],[12.554,-4.179],[12.555,-4.185],[12.546,-4.233],[12.545,-4.24],[12.546,-4.248],[12.548,-4.256],[12.555,-4.273],[12.591,-4.32],[12.6,-4.327],[12.608,-4.331],[12.616,-4.332],[12.623,-4.333],[12.687,-4.33],[12.696,-4.331],[12.706,-4.334],[12.721,-4.34],[12.732,-4.347],[12.751,-4.362],[12.779,-4.389],[12.783,-4.4]]]}},{"type":"Feature","id":"CG-7","properties":{"id":"CG-7","countryCode":"CG","isoSubdivision":"CG-7","name":"Likouala","name_en":"Likouala","name_ko":"리쿠알라","type":"Region","labelLongitude":17.534,"labelLatitude":1.455,"minZoom":6.7},"geometry":{"type":"Polygon","coordinates":[[[18.626,3.477],[18.635,3.449],[18.642,3.324],[18.631,3.179],[18.622,3.157],[18.62,3.145],[18.613,3.128],[18.597,3.115],[18.562,3.097],[18.541,3.083],[18.528,3.065],[18.495,2.966],[18.48,2.941],[18.476,2.931],[18.472,2.909],[18.467,2.899],[18.449,2.873],[18.425,2.822],[18.422,2.809],[18.418,2.782],[18.393,2.714],[18.317,2.584],[18.314,2.576],[18.304,2.573],[18.246,2.519],[18.233,2.503],[18.225,2.486],[18.214,2.428],[18.208,2.408],[18.199,2.389],[18.188,2.371],[18.174,2.336],[18.164,2.321],[18.147,2.316],[18.143,2.306],[18.119,2.277],[18.111,2.265],[18.072,2.16],[18.072,2.145],[18.078,2.115],[18.081,2.084],[18.076,1.988],[18.082,1.942],[18.082,1.927],[18.078,1.909],[18.068,1.876],[18.066,1.859],[18.074,1.572],[18.071,1.551],[18.012,1.422],[18.007,1.402],[18.002,1.366],[17.967,1.254],[17.963,1.191],[17.956,1.172],[17.915,1.102],[17.892,1.077],[17.873,1.04],[17.867,1.017],[17.878,0.947],[17.878,0.868],[17.908,0.74],[17.908,0.713],[17.893,0.636],[17.893,0.608],[17.899,0.583],[17.918,0.535],[17.933,0.527],[17.944,0.511],[17.95,0.491],[17.952,0.474],[17.945,0.377],[17.94,0.361],[17.854,0.241],[17.775,0.026],[17.757,-0.009],[17.716,-0.196],[17.714,-0.221],[17.716,-0.246],[17.741,-0.346],[17.75,-0.523],[17.742,-0.533],[17.728,-0.553],[17.664,-0.613],[17.659,-0.62],[17.654,-0.628],[17.652,-0.642],[17.651,-0.646],[17.648,-0.65],[17.636,-0.659],[17.623,-0.673],[17.602,-0.689],[17.546,-0.756],[17.545,-0.756],[17.542,-0.754],[17.531,-0.75],[17.281,-0.746],[17.262,-0.743],[17.252,-0.739],[17.242,-0.729],[17.24,-0.71],[17.238,-0.704],[17.234,-0.702],[17.228,-0.696],[17.219,-0.691],[17.212,-0.691],[17.208,-0.688],[17.203,-0.652],[17.204,-0.64],[17.215,-0.621],[17.214,-0.608],[17.201,-0.566],[17.201,-0.56],[17.221,-0.514],[17.225,-0.492],[17.217,-0.473],[17.202,-0.459],[17.182,-0.445],[17.163,-0.443],[17.152,-0.464],[17.139,-0.441],[17.147,-0.414],[17.18,-0.367],[17.162,-0.352],[17.142,-0.347],[17.135,-0.339],[17.171,-0.297],[17.17,-0.289],[17.155,-0.285],[17.152,-0.28],[17.153,-0.202],[17.16,-0.188],[17.176,-0.183],[17.187,-0.173],[17.185,-0.151],[17.172,-0.114],[17.168,-0.095],[17.166,-0.028],[17.162,-0.008],[17.147,0.039],[17.146,0.058],[17.151,0.07],[17.161,0.077],[17.172,0.082],[17.183,0.089],[17.191,0.1],[17.192,0.108],[17.189,0.118],[17.184,0.142],[17.173,0.165],[17.172,0.174],[17.178,0.185],[17.185,0.185],[17.193,0.183],[17.2,0.188],[17.203,0.198],[17.204,0.207],[17.203,0.21],[17.177,0.257],[17.106,0.359],[17.091,0.375],[17.05,0.394],[16.716,0.826],[16.706,0.843],[16.699,0.859],[16.694,0.887],[16.693,0.987],[16.696,1],[16.701,1.007],[16.713,1.021],[16.721,1.028],[16.729,1.033],[16.752,1.045],[16.767,1.053],[16.773,1.059],[16.778,1.066],[16.782,1.074],[16.783,1.081],[16.783,1.134],[16.787,1.148],[16.791,1.16],[16.797,1.168],[16.798,1.182],[16.796,1.2],[16.774,1.288],[16.766,1.3],[16.759,1.309],[16.752,1.316],[16.746,1.323],[16.739,1.339],[16.717,1.399],[16.715,1.413],[16.716,1.428],[16.718,1.438],[16.718,1.447],[16.716,1.454],[16.702,1.467],[16.699,1.474],[16.701,1.484],[16.704,1.492],[16.708,1.498],[16.725,1.518],[16.73,1.526],[16.732,1.534],[16.731,1.543],[16.719,1.627],[16.709,1.652],[16.706,1.662],[16.708,1.673],[16.718,1.691],[16.756,1.796],[16.758,1.806],[16.757,1.819],[16.75,1.839],[16.737,1.889],[16.736,1.898],[16.736,1.906],[16.739,1.926],[16.736,1.968],[16.729,1.991],[16.722,2.053],[16.723,2.069],[16.725,2.085],[16.728,2.093],[16.732,2.1],[16.738,2.105],[16.751,2.111],[16.757,2.116],[16.76,2.122],[16.761,2.129],[16.757,2.149],[16.748,2.164],[16.737,2.195],[16.734,2.242],[16.743,2.307],[16.74,2.338],[16.741,2.362],[16.739,2.374],[16.734,2.388],[16.685,2.475],[16.679,2.483],[16.672,2.49],[16.654,2.499],[16.62,2.512],[16.611,2.511],[16.603,2.509],[16.579,2.5],[16.573,2.499],[16.568,2.499],[16.565,2.5],[16.563,2.503],[16.56,2.508],[16.559,2.535],[16.557,2.543],[16.552,2.553],[16.516,2.593],[16.508,2.6],[16.501,2.604],[16.496,2.606],[16.491,2.612],[16.485,2.62],[16.482,2.638],[16.483,2.649],[16.487,2.657],[16.489,2.666],[16.487,2.675],[16.481,2.69],[16.468,2.708],[16.441,2.72],[16.427,2.726],[16.451,2.776],[16.479,2.836],[16.484,2.86],[16.475,2.878],[16.461,2.895],[16.448,2.913],[16.446,2.958],[16.484,3.032],[16.491,3.068],[16.483,3.09],[16.473,3.111],[16.465,3.132],[16.465,3.157],[16.477,3.179],[16.511,3.227],[16.517,3.249],[16.518,3.273],[16.543,3.336],[16.552,3.42],[16.568,3.464],[16.599,3.502],[16.639,3.529],[16.686,3.542],[16.709,3.544],[16.73,3.542],[16.812,3.522],[16.833,3.523],[16.853,3.533],[16.855,3.541],[16.852,3.552],[16.853,3.56],[16.868,3.562],[16.877,3.559],[16.896,3.552],[16.905,3.551],[16.932,3.554],[16.942,3.553],[16.953,3.547],[16.961,3.538],[16.969,3.533],[16.982,3.538],[16.99,3.539],[17.003,3.538],[17.009,3.538],[17.018,3.542],[17.029,3.552],[17.036,3.556],[17.052,3.564],[17.061,3.566],[17.088,3.564],[17.102,3.567],[17.129,3.577],[17.143,3.581],[17.183,3.58],[17.197,3.582],[17.214,3.589],[17.223,3.599],[17.231,3.609],[17.245,3.621],[17.259,3.626],[17.272,3.625],[17.298,3.616],[17.334,3.619],[17.356,3.638],[17.376,3.663],[17.414,3.683],[17.427,3.69],[17.443,3.701],[17.459,3.708],[17.482,3.705],[17.486,3.7],[17.49,3.687],[17.495,3.683],[17.509,3.682],[17.513,3.679],[17.55,3.648],[17.587,3.632],[17.627,3.626],[17.709,3.626],[17.715,3.628],[17.726,3.632],[17.733,3.632],[17.74,3.629],[17.75,3.618],[17.756,3.615],[17.765,3.614],[17.784,3.618],[17.793,3.618],[17.808,3.609],[17.821,3.594],[17.831,3.576],[17.835,3.556],[17.842,3.54],[17.856,3.537],[17.875,3.543],[17.914,3.561],[17.919,3.566],[17.925,3.563],[17.96,3.541],[17.969,3.538],[17.982,3.539],[18.013,3.554],[18.047,3.563],[18.082,3.563],[18.116,3.552],[18.134,3.535],[18.147,3.495],[18.16,3.48],[18.182,3.477],[18.203,3.487],[18.22,3.504],[18.232,3.521],[18.235,3.531],[18.243,3.561],[18.249,3.575],[18.256,3.577],[18.265,3.575],[18.276,3.574],[18.356,3.581],[18.362,3.58],[18.373,3.575],[18.38,3.574],[18.384,3.578],[18.388,3.592],[18.392,3.596],[18.404,3.597],[18.421,3.596],[18.43,3.6],[18.448,3.618],[18.459,3.631],[18.472,3.632],[18.497,3.611],[18.513,3.592],[18.554,3.526],[18.57,3.49],[18.582,3.477],[18.626,3.477]]]}},{"type":"Feature","id":"CG-8","properties":{"id":"CG-8","countryCode":"CG","isoSubdivision":"CG-8","name":"Cuvette","name_en":"Cuvette","name_ko":"퀴베트","type":"Region","labelLongitude":15.955,"labelLatitude":-0.393,"minZoom":6.7},"geometry":{"type":"Polygon","coordinates":[[[17.546,-0.756],[17.411,-0.918],[17.385,-0.942],[17.365,-0.967],[17.357,-0.974],[17.33,-0.987],[17.328,-0.992],[17.308,-1.015],[17.298,-1.021],[17.245,-1.036],[17.195,-1.043],[17.175,-1.048],[17.109,-1.076],[17.06,-1.089],[17.029,-1.094],[17.023,-1.097],[17.012,-1.104],[17.006,-1.107],[17.003,-1.113],[16.98,-1.14],[16.94,-1.175],[16.909,-1.211],[16.863,-1.249],[16.84,-1.263],[16.833,-1.269],[16.829,-1.276],[16.818,-1.304],[16.795,-1.345],[16.779,-1.382],[16.763,-1.406],[16.726,-1.48],[16.693,-1.523],[16.67,-1.569],[16.656,-1.59],[16.655,-1.59],[16.623,-1.59],[16.601,-1.593],[16.597,-1.584],[16.602,-1.569],[16.603,-1.555],[16.598,-1.544],[16.597,-1.542],[16.594,-1.544],[16.564,-1.532],[16.544,-1.527],[16.524,-1.529],[16.505,-1.54],[16.489,-1.545],[16.463,-1.546],[16.441,-1.542],[16.439,-1.535],[16.435,-1.529],[16.418,-1.524],[16.404,-1.515],[16.41,-1.498],[16.368,-1.496],[16.343,-1.474],[16.311,-1.385],[16.29,-1.357],[16.274,-1.324],[16.27,-1.317],[16.262,-1.309],[16.256,-1.305],[16.217,-1.3],[16.21,-1.296],[16.204,-1.29],[16.093,-1.221],[16.062,-1.205],[16.03,-1.193],[15.966,-1.187],[15.948,-1.178],[15.947,-1.155],[15.944,-1.145],[15.933,-1.151],[15.925,-1.151],[15.917,-1.141],[15.903,-1.12],[15.895,-1.116],[15.849,-1.103],[15.844,-1.097],[15.84,-1.091],[15.834,-1.084],[15.812,-1.075],[15.766,-1.064],[15.748,-1.057],[15.732,-1.038],[15.728,-1.015],[15.728,-0.991],[15.723,-0.971],[15.709,-0.959],[15.692,-0.954],[15.653,-0.951],[15.599,-0.937],[15.58,-0.938],[15.564,-0.944],[15.535,-0.958],[15.519,-0.964],[15.513,-0.963],[15.503,-0.958],[15.499,-0.957],[15.492,-0.959],[15.478,-0.967],[15.443,-0.978],[15.427,-0.991],[15.399,-1.034],[15.384,-1.051],[15.368,-1.065],[15.363,-1.066],[15.353,-1.063],[15.349,-1.064],[15.34,-1.072],[15.329,-1.091],[15.321,-1.099],[15.299,-1.114],[15.249,-1.136],[15.229,-1.153],[15.163,-1.239],[15.143,-1.282],[15.091,-1.445],[15.022,-1.533],[14.984,-1.569],[14.969,-1.578],[14.941,-1.589],[14.929,-1.592],[14.89,-1.589],[14.882,-1.59],[14.874,-1.592],[14.824,-1.614],[14.811,-1.622],[14.763,-1.662],[14.75,-1.678],[14.741,-1.69],[14.738,-1.713],[14.735,-1.721],[14.722,-1.743],[14.715,-1.752],[14.687,-1.779],[14.679,-1.79],[14.667,-1.809],[14.647,-1.831],[14.642,-1.839],[14.631,-1.869],[14.627,-1.876],[14.588,-1.931],[14.565,-1.951],[14.55,-1.962],[14.533,-1.97],[14.522,-1.972],[14.515,-1.977],[14.509,-1.984],[14.502,-2],[14.499,-2.004],[14.495,-2.008],[14.488,-2.014],[14.48,-2.017],[14.443,-2.025],[14.435,-2.026],[14.427,-2.026],[14.411,-2.024],[14.396,-2.02],[14.388,-2.015],[14.381,-2.002],[14.375,-1.982],[14.371,-1.929],[14.369,-1.922],[14.371,-1.921],[14.397,-1.907],[14.405,-1.893],[14.397,-1.849],[14.397,-1.841],[14.404,-1.815],[14.407,-1.736],[14.413,-1.714],[14.425,-1.701],[14.449,-1.686],[14.441,-1.68],[14.42,-1.676],[14.403,-1.671],[14.391,-1.63],[14.371,-1.619],[14.365,-1.612],[14.374,-1.604],[14.394,-1.597],[14.404,-1.592],[14.413,-1.585],[14.42,-1.575],[14.424,-1.564],[14.43,-1.555],[14.463,-1.549],[14.463,-1.534],[14.452,-1.516],[14.438,-1.503],[14.451,-1.474],[14.453,-1.45],[14.456,-1.44],[14.468,-1.429],[14.481,-1.421],[14.488,-1.409],[14.482,-1.389],[14.447,-1.365],[14.432,-1.35],[14.426,-1.331],[14.429,-1.32],[14.436,-1.313],[14.444,-1.306],[14.452,-1.298],[14.457,-1.288],[14.461,-1.278],[14.465,-1.256],[14.466,-1.224],[14.464,-1.215],[14.456,-1.202],[14.439,-1.186],[14.569,-1.163],[14.64,-1.143],[14.664,-1.12],[14.688,-1.109],[14.73,-1.119],[14.917,-1.111],[14.992,-1.094],[15.047,-1.047],[15.146,-0.935],[15.164,-0.892],[15.185,-0.858],[15.167,-0.825],[15.01,-0.688],[15.053,-0.633],[15.109,-0.576],[15.129,-0.543],[15.143,-0.508],[15.15,-0.473],[15.104,-0.295],[15.089,-0.261],[15.055,-0.25],[14.982,-0.241],[14.95,-0.226],[14.938,-0.194],[14.929,-0.155],[14.902,-0.098],[14.896,-0.075],[14.897,-0.059],[14.897,-0.043],[14.888,-0.004],[14.898,0.033],[14.93,0.037],[14.966,0.033],[15.004,0.04],[15.023,0.037],[15.042,0.036],[15.118,0.051],[15.193,0.075],[15.243,0.129],[15.228,0.197],[15.163,0.244],[15.134,0.301],[15.168,0.322],[15.207,0.339],[15.237,0.355],[15.262,0.377],[15.285,0.411],[15.287,0.41],[15.288,0.406],[15.288,0.403],[15.286,0.394],[15.286,0.389],[15.289,0.386],[15.293,0.384],[15.301,0.388],[15.305,0.389],[15.336,0.38],[15.354,0.378],[15.361,0.378],[15.368,0.379],[15.376,0.383],[15.382,0.386],[15.388,0.389],[15.395,0.39],[15.407,0.387],[15.422,0.382],[15.429,0.381],[15.44,0.379],[15.453,0.376],[15.458,0.374],[15.462,0.372],[15.466,0.369],[15.47,0.367],[15.475,0.367],[15.481,0.367],[15.491,0.368],[15.501,0.366],[15.508,0.363],[15.517,0.356],[15.521,0.355],[15.527,0.354],[15.533,0.355],[15.54,0.358],[15.553,0.375],[15.557,0.378],[15.569,0.386],[15.572,0.389],[15.575,0.394],[15.577,0.399],[15.581,0.414],[15.585,0.423],[15.587,0.426],[15.589,0.427],[15.591,0.428],[15.595,0.43],[15.599,0.431],[15.611,0.432],[15.616,0.434],[15.618,0.436],[15.624,0.441],[15.628,0.443],[15.635,0.445],[15.643,0.446],[15.649,0.448],[15.654,0.45],[15.662,0.455],[15.666,0.456],[15.697,0.458],[15.699,0.459],[15.706,0.463],[15.71,0.465],[15.715,0.466],[15.726,0.466],[15.734,0.465],[15.741,0.462],[15.744,0.457],[15.747,0.452],[15.749,0.448],[15.754,0.445],[15.76,0.445],[15.77,0.448],[15.776,0.45],[15.785,0.455],[15.788,0.456],[15.793,0.455],[15.818,0.45],[15.842,0.449],[15.875,0.443],[15.882,0.44],[15.885,0.437],[15.889,0.434],[15.894,0.432],[15.898,0.429],[15.904,0.422],[15.908,0.419],[15.917,0.414],[15.921,0.411],[15.941,0.404],[15.95,0.399],[15.954,0.396],[15.957,0.392],[15.959,0.387],[15.959,0.369],[15.96,0.363],[15.963,0.358],[15.965,0.354],[15.969,0.351],[15.973,0.349],[15.98,0.346],[16.004,0.341],[16.046,0.329],[16.05,0.326],[16.055,0.324],[16.069,0.311],[16.08,0.302],[16.086,0.294],[16.104,0.257],[16.105,0.252],[16.104,0.197],[16.104,0.194],[16.105,0.19],[16.107,0.185],[16.11,0.182],[16.114,0.179],[16.121,0.175],[16.124,0.173],[16.126,0.17],[16.128,0.165],[16.13,0.155],[16.13,0.147],[16.128,0.124],[16.13,0.121],[16.133,0.119],[16.142,0.117],[16.148,0.115],[16.167,0.106],[16.173,0.105],[16.18,0.105],[16.188,0.107],[16.207,0.116],[16.213,0.118],[16.218,0.119],[16.228,0.117],[16.233,0.114],[16.241,0.107],[16.245,0.104],[16.249,0.102],[16.263,0.095],[16.267,0.093],[16.271,0.089],[16.278,0.077],[16.282,0.073],[16.285,0.07],[16.291,0.069],[16.321,0.071],[16.326,0.071],[16.328,0.069],[16.329,0.067],[16.33,0.063],[16.331,0.058],[16.333,0.054],[16.335,0.049],[16.338,0.045],[16.341,0.042],[17.05,0.394],[17.091,0.375],[17.106,0.359],[17.177,0.257],[17.203,0.21],[17.204,0.207],[17.203,0.198],[17.2,0.188],[17.193,0.183],[17.185,0.185],[17.178,0.185],[17.172,0.174],[17.173,0.165],[17.184,0.142],[17.189,0.118],[17.192,0.108],[17.191,0.1],[17.183,0.089],[17.172,0.082],[17.161,0.077],[17.151,0.07],[17.146,0.058],[17.147,0.039],[17.162,-0.008],[17.166,-0.028],[17.168,-0.095],[17.172,-0.114],[17.185,-0.151],[17.187,-0.173],[17.176,-0.183],[17.16,-0.188],[17.153,-0.202],[17.152,-0.28],[17.155,-0.285],[17.17,-0.289],[17.171,-0.297],[17.135,-0.339],[17.142,-0.347],[17.162,-0.352],[17.18,-0.367],[17.147,-0.414],[17.139,-0.441],[17.152,-0.464],[17.163,-0.443],[17.182,-0.445],[17.202,-0.459],[17.217,-0.473],[17.225,-0.492],[17.221,-0.514],[17.201,-0.56],[17.201,-0.566],[17.214,-0.608],[17.215,-0.621],[17.204,-0.64],[17.203,-0.652],[17.208,-0.688],[17.212,-0.691],[17.219,-0.691],[17.228,-0.696],[17.234,-0.702],[17.238,-0.704],[17.24,-0.71],[17.242,-0.729],[17.252,-0.739],[17.262,-0.743],[17.281,-0.746],[17.531,-0.75],[17.542,-0.754],[17.545,-0.756],[17.546,-0.756]]]}},{"type":"Feature","id":"CG-9","properties":{"id":"CG-9","countryCode":"CG","isoSubdivision":"CG-9","name":"Niari","name_en":"Niari","name_ko":"니아리","type":"Region","labelLongitude":12.365,"labelLatitude":-2.979,"minZoom":6.7},"geometry":{"type":"Polygon","coordinates":[[[13.393,-4.885],[13.371,-4.842],[13.364,-4.807],[13.359,-4.795],[13.349,-4.786],[13.335,-4.778],[13.274,-4.756],[13.256,-4.744],[13.209,-4.703],[13.182,-4.686],[13.172,-4.676],[13.16,-4.643],[13.142,-4.617],[13.134,-4.602],[13.112,-4.577],[13.088,-4.58],[13.072,-4.602],[13.074,-4.635],[13.027,-4.612],[12.962,-4.534],[12.922,-4.502],[12.902,-4.48],[12.884,-4.432],[12.87,-4.412],[12.854,-4.403],[12.842,-4.404],[12.83,-4.41],[12.815,-4.413],[12.801,-4.41],[12.783,-4.4],[12.779,-4.389],[12.751,-4.362],[12.732,-4.347],[12.721,-4.34],[12.706,-4.334],[12.696,-4.331],[12.687,-4.33],[12.623,-4.333],[12.616,-4.332],[12.608,-4.331],[12.6,-4.327],[12.591,-4.32],[12.555,-4.273],[12.548,-4.256],[12.546,-4.248],[12.545,-4.24],[12.546,-4.233],[12.555,-4.185],[12.554,-4.179],[12.552,-4.171],[12.546,-4.162],[12.536,-4.145],[12.452,-4.05],[12.443,-4.042],[12.433,-4.036],[12.399,-4.028],[12.393,-4.024],[12.39,-4.018],[12.389,-4.011],[12.391,-4.005],[12.391,-4.001],[12.39,-3.999],[12.384,-3.995],[12.374,-3.989],[12.352,-3.981],[12.339,-3.978],[12.32,-3.977],[12.296,-3.969],[12.269,-3.964],[12.239,-3.954],[12.218,-3.95],[12.213,-3.947],[12.21,-3.942],[12.209,-3.936],[12.209,-3.924],[12.208,-3.92],[12.202,-3.915],[12.186,-3.908],[12.169,-3.896],[12.139,-3.886],[12.106,-3.884],[12.097,-3.881],[12.062,-3.867],[11.928,-3.769],[11.899,-3.755],[11.877,-3.751],[11.868,-3.746],[11.861,-3.741],[11.841,-3.71],[11.858,-3.703],[11.88,-3.687],[11.898,-3.666],[11.906,-3.644],[11.898,-3.622],[11.879,-3.612],[11.856,-3.604],[11.835,-3.592],[11.825,-3.571],[11.828,-3.548],[11.885,-3.413],[11.898,-3.389],[11.941,-3.357],[11.955,-3.335],[11.944,-3.303],[11.906,-3.285],[11.858,-3.272],[11.822,-3.255],[11.782,-3.222],[11.761,-3.209],[11.704,-3.185],[11.696,-3.18],[11.688,-3.171],[11.686,-3.167],[11.687,-3.162],[11.688,-3.092],[11.693,-3.075],[11.706,-3.05],[11.717,-3.044],[11.731,-3.045],[11.754,-3.042],[11.778,-3.027],[11.778,-3.006],[11.764,-2.983],[11.688,-2.902],[11.653,-2.852],[11.637,-2.833],[11.617,-2.827],[11.588,-2.835],[11.548,-2.864],[11.531,-2.867],[11.526,-2.843],[11.536,-2.805],[11.537,-2.798],[11.61,-2.679],[11.62,-2.654],[11.624,-2.633],[11.624,-2.612],[11.619,-2.586],[11.61,-2.564],[11.584,-2.524],[11.577,-2.503],[11.576,-2.485],[11.583,-2.43],[11.58,-2.408],[11.558,-2.349],[11.566,-2.33],[11.568,-2.329],[11.605,-2.33],[11.656,-2.346],[11.67,-2.353],[11.676,-2.36],[11.68,-2.369],[11.688,-2.378],[11.721,-2.404],[11.74,-2.414],[11.756,-2.415],[11.773,-2.405],[11.807,-2.374],[11.829,-2.365],[11.865,-2.358],[11.907,-2.345],[11.938,-2.329],[11.949,-2.335],[11.967,-2.349],[12.001,-2.391],[12.031,-2.412],[12.062,-2.415],[12.459,-2.33],[12.448,-2.308],[12.455,-2.276],[12.469,-2.241],[12.475,-2.212],[12.468,-2.171],[12.47,-2.156],[12.477,-2.141],[12.495,-2.113],[12.5,-2.096],[12.461,-2.078],[12.44,-2.046],[12.431,-2.005],[12.423,-1.898],[12.427,-1.884],[12.438,-1.887],[12.45,-1.899],[12.469,-1.919],[12.487,-1.925],[12.499,-1.918],[12.504,-1.908],[12.505,-1.897],[12.506,-1.888],[12.512,-1.875],[12.517,-1.869],[12.523,-1.863],[12.572,-1.83],[12.583,-1.827],[12.632,-1.825],[12.675,-1.843],[12.741,-1.891],[12.745,-1.894],[12.788,-1.908],[12.805,-1.919],[12.816,-1.943],[12.838,-2.016],[12.847,-2.037],[12.853,-2.045],[12.869,-2.06],[12.873,-2.066],[12.877,-2.089],[12.875,-2.089],[12.875,-2.094],[12.874,-2.1],[12.876,-2.105],[12.895,-2.11],[12.894,-2.116],[12.891,-2.122],[12.889,-2.127],[12.884,-2.134],[12.883,-2.141],[12.885,-2.147],[12.898,-2.16],[12.902,-2.167],[12.903,-2.178],[12.907,-2.195],[12.921,-2.195],[12.946,-2.182],[12.954,-2.191],[12.973,-2.222],[12.982,-2.233],[12.988,-2.26],[12.99,-2.268],[12.997,-2.276],[13.003,-2.275],[13.008,-2.277],[13.011,-2.288],[13.002,-2.297],[12.997,-2.305],[12.995,-2.315],[12.994,-2.324],[12.991,-2.332],[12.987,-2.341],[12.982,-2.348],[12.971,-2.357],[12.966,-2.366],[12.969,-2.372],[12.982,-2.372],[12.994,-2.36],[13.001,-2.368],[13.008,-2.373],[13.013,-2.375],[13.02,-2.373],[13.027,-2.369],[13.035,-2.366],[13.042,-2.366],[13.048,-2.37],[13.051,-2.377],[13.051,-2.386],[13.042,-2.432],[13.038,-2.603],[13.049,-2.745],[13.054,-2.761],[13.075,-2.808],[13.076,-2.815],[13.073,-2.821],[13.065,-2.825],[13.049,-2.827],[13.041,-2.831],[13.028,-2.843],[13.02,-2.847],[13.006,-2.852],[13.001,-2.856],[12.999,-2.86],[12.999,-2.869],[13.001,-2.874],[13.008,-2.887],[13.012,-2.902],[13.015,-2.909],[13.019,-2.915],[13.025,-2.919],[13.047,-2.925],[13.061,-2.926],[13.069,-2.928],[13.114,-2.966],[13.121,-2.973],[13.126,-2.981],[13.13,-2.989],[13.129,-2.997],[13.128,-3.002],[13.116,-3.035],[13.105,-3.081],[13.108,-3.14],[13.104,-3.151],[13.096,-3.164],[13.061,-3.199],[13.034,-3.214],[13.024,-3.221],[13.015,-3.233],[12.999,-3.241],[12.992,-3.241],[12.985,-3.243],[12.962,-3.252],[12.954,-3.254],[12.947,-3.253],[12.933,-3.25],[12.927,-3.249],[12.923,-3.251],[12.922,-3.258],[12.923,-3.285],[12.922,-3.29],[12.918,-3.294],[12.911,-3.295],[12.907,-3.293],[12.9,-3.286],[12.894,-3.285],[12.886,-3.288],[12.872,-3.297],[12.864,-3.301],[12.856,-3.303],[12.851,-3.301],[12.839,-3.293],[12.834,-3.291],[12.828,-3.291],[12.822,-3.291],[12.811,-3.292],[12.809,-3.293],[12.791,-3.301],[12.786,-3.303],[12.78,-3.304],[12.774,-3.304],[12.744,-3.299],[12.731,-3.299],[12.724,-3.3],[12.719,-3.302],[12.713,-3.305],[12.698,-3.315],[12.685,-3.321],[12.681,-3.323],[12.678,-3.325],[12.674,-3.33],[12.672,-3.334],[12.67,-3.338],[12.66,-3.381],[12.653,-3.398],[12.651,-3.401],[12.649,-3.404],[12.645,-3.406],[12.64,-3.407],[12.62,-3.407],[12.617,-3.408],[12.611,-3.41],[12.608,-3.413],[12.604,-3.416],[12.603,-3.426],[12.615,-3.438],[12.608,-3.451],[12.608,-3.458],[12.619,-3.459],[12.626,-3.463],[12.629,-3.471],[12.629,-3.482],[12.634,-3.491],[12.643,-3.492],[12.652,-3.491],[12.657,-3.495],[12.657,-3.528],[12.631,-3.55],[12.622,-3.562],[12.62,-3.569],[12.618,-3.576],[12.617,-3.587],[12.617,-3.605],[12.628,-3.656],[12.64,-3.682],[12.638,-3.691],[12.63,-3.707],[12.631,-3.724],[12.633,-3.731],[12.645,-3.759],[12.642,-3.766],[12.636,-3.77],[12.629,-3.773],[12.623,-3.778],[12.616,-3.786],[12.611,-3.795],[12.605,-3.809],[12.607,-3.817],[12.613,-3.823],[12.643,-3.842],[12.659,-3.853],[12.666,-3.86],[12.689,-3.89],[12.725,-3.952],[12.778,-4.013],[12.785,-4.02],[12.83,-4.054],[12.852,-4.076],[12.864,-4.093],[12.883,-4.129],[12.918,-4.18],[12.989,-4.32],[12.999,-4.333],[13.003,-4.335],[13.01,-4.335],[13.018,-4.34],[13.029,-4.347],[13.045,-4.366],[13.055,-4.374],[13.064,-4.378],[13.08,-4.377],[13.096,-4.38],[13.104,-4.379],[13.112,-4.378],[13.119,-4.377],[13.127,-4.379],[13.133,-4.383],[13.141,-4.387],[13.148,-4.388],[13.163,-4.386],[13.17,-4.387],[13.185,-4.393],[13.193,-4.395],[13.2,-4.396],[13.208,-4.397],[13.223,-4.403],[13.24,-4.404],[13.255,-4.412],[13.276,-4.431],[13.319,-4.491],[13.327,-4.509],[13.333,-4.523],[13.343,-4.536],[13.352,-4.553],[13.363,-4.567],[13.374,-4.577],[13.379,-4.586],[13.381,-4.593],[13.383,-4.611],[13.387,-4.622],[13.393,-4.629],[13.4,-4.634],[13.416,-4.637],[13.424,-4.639],[13.496,-4.689],[13.535,-4.708],[13.552,-4.719],[13.563,-4.727],[13.569,-4.735],[13.572,-4.742],[13.574,-4.75],[13.579,-4.779],[13.58,-4.783],[13.571,-4.786],[13.559,-4.78],[13.539,-4.76],[13.526,-4.754],[13.515,-4.756],[13.482,-4.775],[13.492,-4.784],[13.496,-4.792],[13.494,-4.8],[13.482,-4.806],[13.431,-4.843],[13.403,-4.877],[13.393,-4.885]]]}},{"type":"Feature","id":"CG-BZV","properties":{"id":"CG-BZV","countryCode":"CG","isoSubdivision":"CG-BZV","name":"Brazzaville","name_en":"Brazzaville","name_ko":"브라자빌","type":"Region","labelLongitude":15.332,"labelLatitude":-4.069,"minZoom":6.7},"geometry":{"type":"Polygon","coordinates":[[[15.958,-3.815],[15.943,-3.841],[15.936,-3.848],[15.93,-3.859],[15.912,-3.917],[15.888,-3.941],[15.883,-3.945],[15.844,-3.966],[15.8,-3.979],[15.755,-3.986],[15.711,-3.992],[15.567,-4.038],[15.549,-4.046],[15.534,-4.058],[15.521,-4.077],[15.49,-4.175],[15.485,-4.184],[15.463,-4.207],[15.459,-4.214],[15.45,-4.217],[15.425,-4.23],[15.387,-4.244],[15.275,-4.3],[15.256,-4.313],[15.228,-4.325],[15.204,-4.339],[15.193,-4.359],[15.188,-4.372],[15.151,-4.425],[15.098,-4.5],[15.076,-4.52],[15.044,-4.48],[15.02,-4.432],[14.992,-4.4],[14.956,-4.364],[14.983,-4.32],[15.026,-4.264],[15.046,-4.217],[15.07,-4.157],[15.102,-4.105],[15.118,-4.029],[15.114,-3.978],[15.094,-3.914],[15.094,-3.862],[15.122,-3.81],[15.178,-3.779],[15.215,-3.739],[15.235,-3.679],[15.243,-3.615],[15.247,-3.548],[15.255,-3.484],[15.275,-3.448],[15.303,-3.452],[15.335,-3.476],[15.391,-3.492],[15.434,-3.508],[15.458,-3.536],[15.486,-3.563],[15.522,-3.607],[15.554,-3.639],[15.58,-3.645],[15.604,-3.622],[15.628,-3.57],[15.648,-3.534],[15.676,-3.506],[15.712,-3.498],[15.748,-3.514],[15.803,-3.534],[15.83,-3.567],[15.861,-3.619],[15.885,-3.667],[15.901,-3.71],[15.905,-3.746],[15.921,-3.77],[15.937,-3.79],[15.958,-3.815]]]}}]}
