{"type":"FeatureCollection","features":[{"type":"Feature","id":"CH-AG","properties":{"id":"CH-AG","countryCode":"CH","isoSubdivision":"CH-AG","name":"Aargau","name_en":"Aargau","name_ko":"아르가우","type":"Canton","labelLongitude":8.2,"labelLatitude":47.418,"minZoom":8.7},"geometry":{"type":"Polygon","coordinates":[[[8.251,47.622],[8.277,47.617],[8.289,47.616],[8.294,47.611],[8.299,47.602],[8.306,47.592],[8.316,47.588],[8.354,47.581],[8.418,47.581],[8.421,47.581],[8.419,47.575],[8.396,47.55],[8.375,47.535],[8.358,47.517],[8.353,47.498],[8.353,47.488],[8.358,47.474],[8.38,47.442],[8.387,47.426],[8.401,47.414],[8.404,47.41],[8.399,47.402],[8.373,47.384],[8.371,47.378],[8.374,47.376],[8.38,47.373],[8.399,47.366],[8.404,47.363],[8.403,47.356],[8.401,47.345],[8.401,47.342],[8.402,47.339],[8.404,47.335],[8.416,47.326],[8.446,47.333],[8.443,47.323],[8.434,47.312],[8.415,47.296],[8.398,47.289],[8.391,47.287],[8.388,47.287],[8.385,47.287],[8.382,47.286],[8.385,47.278],[8.407,47.246],[8.394,47.228],[8.394,47.226],[8.393,47.22],[8.398,47.177],[8.406,47.142],[8.405,47.142],[8.377,47.143],[8.364,47.147],[8.359,47.151],[8.351,47.157],[8.34,47.168],[8.337,47.173],[8.303,47.238],[8.296,47.25],[8.292,47.258],[8.289,47.268],[8.283,47.274],[8.277,47.278],[8.261,47.282],[8.244,47.281],[8.227,47.268],[8.222,47.26],[8.2,47.232],[8.184,47.224],[8.175,47.223],[8.168,47.225],[8.163,47.227],[8.159,47.23],[8.157,47.232],[8.156,47.235],[8.155,47.237],[8.155,47.238],[8.156,47.239],[8.163,47.241],[8.16,47.243],[8.151,47.245],[8.124,47.246],[8.104,47.251],[8.089,47.261],[8.02,47.243],[7.998,47.273],[7.983,47.277],[7.961,47.277],[7.957,47.277],[7.956,47.275],[7.955,47.273],[7.955,47.265],[7.956,47.256],[7.956,47.253],[7.955,47.251],[7.954,47.25],[7.953,47.249],[7.949,47.247],[7.923,47.24],[7.9,47.24],[7.839,47.232],[7.826,47.247],[7.825,47.249],[7.823,47.269],[7.83,47.275],[7.855,47.308],[7.857,47.311],[7.902,47.338],[7.909,47.337],[7.918,47.335],[7.982,47.328],[7.989,47.331],[7.997,47.334],[8.01,47.356],[8.022,47.368],[8.029,47.379],[8.028,47.398],[8.015,47.401],[8.006,47.404],[7.997,47.41],[7.992,47.415],[7.988,47.428],[7.981,47.431],[7.98,47.44],[7.981,47.442],[7.981,47.445],[7.979,47.449],[7.97,47.456],[7.955,47.458],[7.942,47.463],[7.941,47.465],[7.94,47.469],[7.94,47.484],[7.91,47.486],[7.9,47.49],[7.897,47.498],[7.868,47.528],[7.863,47.535],[7.857,47.538],[7.849,47.545],[7.835,47.548],[7.829,47.547],[7.826,47.546],[7.825,47.542],[7.825,47.536],[7.824,47.532],[7.821,47.53],[7.796,47.514],[7.783,47.513],[7.78,47.516],[7.778,47.522],[7.777,47.528],[7.778,47.533],[7.774,47.535],[7.772,47.536],[7.767,47.537],[7.731,47.549],[7.727,47.55],[7.767,47.556],[7.786,47.563],[7.801,47.576],[7.82,47.595],[7.834,47.59],[7.898,47.588],[7.904,47.584],[7.908,47.574],[7.909,47.565],[7.912,47.561],[8.042,47.561],[8.087,47.567],[8.097,47.572],[8.101,47.576],[8.105,47.581],[8.114,47.588],[8.122,47.592],[8.144,47.6],[8.162,47.604],[8.169,47.609],[8.174,47.614],[8.179,47.616],[8.233,47.622],[8.251,47.622]]]}},{"type":"Feature","id":"CH-AI","properties":{"id":"CH-AI","countryCode":"CH","isoSubdivision":"CH-AI","name":"Appenzell Innerrhoden","name_en":"Appenzell Innerrhoden","name_ko":"아펜첼이너로덴","type":"Canton","labelLongitude":9.395,"labelLatitude":47.309,"minZoom":8.7},"geometry":{"type":"MultiPolygon","coordinates":[[[[9.608,47.45],[9.585,47.434],[9.583,47.432],[9.581,47.424],[9.55,47.435],[9.548,47.437],[9.548,47.441],[9.567,47.44],[9.582,47.443],[9.608,47.45]]],[[[9.488,47.353],[9.471,47.296],[9.452,47.272],[9.438,47.261],[9.423,47.254],[9.404,47.247],[9.376,47.24],[9.369,47.24],[9.36,47.241],[9.353,47.244],[9.345,47.247],[9.332,47.253],[9.326,47.264],[9.325,47.268],[9.321,47.276],[9.319,47.279],[9.316,47.282],[9.308,47.289],[9.305,47.295],[9.303,47.304],[9.306,47.327],[9.309,47.333],[9.324,47.341],[9.332,47.348],[9.337,47.355],[9.343,47.364],[9.344,47.376],[9.343,47.384],[9.35,47.388],[9.456,47.354],[9.488,47.353]]],[[[9.54,47.397],[9.526,47.402],[9.514,47.401],[9.487,47.394],[9.49,47.405],[9.5,47.409],[9.512,47.413],[9.514,47.415],[9.513,47.417],[9.51,47.418],[9.508,47.419],[9.509,47.42],[9.51,47.422],[9.51,47.424],[9.511,47.426],[9.514,47.427],[9.518,47.429],[9.521,47.431],[9.524,47.433],[9.528,47.434],[9.534,47.43],[9.539,47.427],[9.543,47.423],[9.544,47.419],[9.544,47.415],[9.538,47.411],[9.54,47.397]]]]}},{"type":"Feature","id":"CH-AR","properties":{"id":"CH-AR","countryCode":"CH","isoSubdivision":"CH-AR","name":"Appenzell Ausserrhoden","name_en":"Appenzell Ausserrhoden","name_ko":"아펜첼아우서로덴","type":"Canton","labelLongitude":9.397,"labelLatitude":47.391,"minZoom":8.7},"geometry":{"type":"Polygon","coordinates":[[[9.487,47.394],[9.481,47.368],[9.488,47.353],[9.456,47.354],[9.35,47.388],[9.343,47.384],[9.344,47.376],[9.343,47.364],[9.337,47.355],[9.332,47.348],[9.324,47.341],[9.309,47.333],[9.306,47.327],[9.303,47.304],[9.305,47.295],[9.308,47.289],[9.316,47.282],[9.319,47.279],[9.321,47.276],[9.325,47.268],[9.326,47.264],[9.332,47.253],[9.315,47.25],[9.311,47.25],[9.308,47.25],[9.298,47.256],[9.267,47.267],[9.217,47.272],[9.208,47.273],[9.204,47.275],[9.197,47.281],[9.208,47.29],[9.201,47.313],[9.202,47.319],[9.204,47.323],[9.21,47.328],[9.214,47.331],[9.218,47.337],[9.217,47.34],[9.213,47.342],[9.209,47.342],[9.199,47.34],[9.186,47.358],[9.188,47.36],[9.2,47.368],[9.208,47.377],[9.217,47.391],[9.223,47.397],[9.226,47.4],[9.235,47.399],[9.271,47.403],[9.278,47.403],[9.294,47.399],[9.339,47.405],[9.375,47.41],[9.397,47.409],[9.409,47.412],[9.415,47.416],[9.417,47.422],[9.42,47.428],[9.426,47.434],[9.437,47.436],[9.446,47.438],[9.496,47.453],[9.517,47.466],[9.522,47.468],[9.526,47.468],[9.529,47.467],[9.531,47.467],[9.539,47.465],[9.542,47.464],[9.549,47.46],[9.552,47.459],[9.568,47.455],[9.608,47.45],[9.582,47.443],[9.567,47.44],[9.548,47.441],[9.548,47.437],[9.55,47.435],[9.581,47.424],[9.583,47.415],[9.54,47.397],[9.538,47.411],[9.544,47.415],[9.544,47.419],[9.543,47.423],[9.539,47.427],[9.534,47.43],[9.528,47.434],[9.524,47.433],[9.521,47.431],[9.518,47.429],[9.514,47.427],[9.511,47.426],[9.51,47.424],[9.51,47.422],[9.509,47.42],[9.508,47.419],[9.51,47.418],[9.513,47.417],[9.514,47.415],[9.512,47.413],[9.5,47.409],[9.49,47.405],[9.487,47.394]]]}},{"type":"Feature","id":"CH-BE","properties":{"id":"CH-BE","countryCode":"CH","isoSubdivision":"CH-BE","name":"Bern","name_en":"Bern","name_ko":"베른","type":"Canton","labelLongitude":7.65,"labelLatitude":46.799,"minZoom":8.7},"geometry":{"type":"MultiPolygon","coordinates":[[[[7.554,47.344],[7.562,47.343],[7.565,47.341],[7.567,47.338],[7.569,47.334],[7.57,47.329],[7.569,47.324],[7.567,47.321],[7.559,47.321],[7.54,47.322],[7.537,47.324],[7.536,47.327],[7.538,47.334],[7.554,47.344]]],[[[8.446,46.769],[8.438,46.755],[8.437,46.751],[8.438,46.741],[8.441,46.735],[8.446,46.727],[8.448,46.723],[8.448,46.718],[8.45,46.714],[8.451,46.71],[8.451,46.705],[8.449,46.699],[8.448,46.695],[8.445,46.691],[8.437,46.69],[8.429,46.69],[8.413,46.693],[8.406,46.692],[8.402,46.689],[8.402,46.677],[8.406,46.669],[8.409,46.656],[8.399,46.655],[8.38,46.638],[8.374,46.63],[8.37,46.622],[8.364,46.606],[8.358,46.584],[8.354,46.579],[8.349,46.573],[8.339,46.566],[8.323,46.559],[8.312,46.553],[8.266,46.535],[8.242,46.529],[8.19,46.522],[8.184,46.522],[8.179,46.523],[8.176,46.525],[8.175,46.528],[8.175,46.53],[8.175,46.532],[8.173,46.533],[8.147,46.535],[8.123,46.542],[8.114,46.547],[8.029,46.558],[8.003,46.557],[7.97,46.544],[7.967,46.541],[7.965,46.54],[7.965,46.539],[7.967,46.536],[7.969,46.533],[7.971,46.53],[7.973,46.527],[7.973,46.524],[7.969,46.519],[7.966,46.516],[7.939,46.504],[7.902,46.486],[7.881,46.48],[7.872,46.479],[7.857,46.479],[7.845,46.481],[7.723,46.42],[7.711,46.419],[7.645,46.441],[7.624,46.443],[7.62,46.442],[7.617,46.44],[7.615,46.437],[7.614,46.433],[7.612,46.431],[7.601,46.425],[7.598,46.423],[7.564,46.416],[7.541,46.406],[7.547,46.4],[7.56,46.395],[7.545,46.386],[7.51,46.376],[7.501,46.374],[7.495,46.374],[7.489,46.375],[7.486,46.376],[7.462,46.381],[7.419,46.381],[7.404,46.379],[7.402,46.378],[7.4,46.376],[7.39,46.368],[7.367,46.357],[7.33,46.349],[7.324,46.351],[7.318,46.352],[7.317,46.354],[7.317,46.357],[7.318,46.362],[7.317,46.369],[7.314,46.372],[7.308,46.372],[7.276,46.364],[7.273,46.363],[7.271,46.361],[7.271,46.358],[7.27,46.355],[7.263,46.346],[7.228,46.331],[7.227,46.352],[7.229,46.355],[7.234,46.361],[7.233,46.364],[7.231,46.367],[7.225,46.369],[7.21,46.379],[7.2,46.385],[7.212,46.409],[7.212,46.414],[7.21,46.422],[7.206,46.429],[7.203,46.437],[7.206,46.441],[7.222,46.447],[7.232,46.456],[7.235,46.463],[7.236,46.469],[7.233,46.482],[7.234,46.486],[7.237,46.49],[7.242,46.495],[7.25,46.505],[7.253,46.513],[7.254,46.521],[7.254,46.527],[7.254,46.534],[7.254,46.539],[7.252,46.542],[7.249,46.545],[7.247,46.547],[7.243,46.556],[7.283,46.581],[7.301,46.582],[7.31,46.582],[7.315,46.583],[7.319,46.588],[7.321,46.596],[7.323,46.61],[7.32,46.64],[7.331,46.648],[7.335,46.651],[7.349,46.648],[7.358,46.646],[7.366,46.646],[7.374,46.652],[7.378,46.656],[7.376,46.659],[7.38,46.684],[7.383,46.691],[7.381,46.693],[7.377,46.695],[7.373,46.696],[7.37,46.697],[7.368,46.699],[7.365,46.701],[7.362,46.702],[7.358,46.701],[7.354,46.702],[7.351,46.704],[7.347,46.709],[7.338,46.714],[7.333,46.716],[7.316,46.721],[7.313,46.723],[7.31,46.726],[7.307,46.734],[7.304,46.748],[7.305,46.774],[7.307,46.79],[7.319,46.823],[7.32,46.838],[7.317,46.848],[7.314,46.853],[7.315,46.856],[7.322,46.86],[7.328,46.859],[7.33,46.859],[7.329,46.856],[7.331,46.855],[7.334,46.853],[7.34,46.853],[7.346,46.855],[7.356,46.861],[7.36,46.869],[7.356,46.891],[7.276,46.896],[7.224,46.906],[7.214,46.905],[7.209,46.905],[7.206,46.906],[7.205,46.909],[7.212,46.919],[7.215,46.925],[7.216,46.93],[7.214,46.94],[7.213,46.947],[7.212,46.951],[7.21,46.955],[7.204,46.961],[7.204,46.964],[7.206,46.966],[7.219,46.97],[7.224,46.973],[7.234,46.982],[7.236,46.986],[7.23,46.992],[7.229,46.998],[7.229,46.999],[7.228,47],[7.225,47.002],[7.216,47.004],[7.193,46.997],[7.143,46.984],[7.062,46.978],[7.021,46.99],[7.031,47.008],[7.035,47.015],[7.041,47.031],[7.044,47.036],[7.048,47.039],[7.07,47.046],[7.074,47.047],[7.08,47.051],[7.083,47.052],[7.087,47.053],[7.09,47.055],[7.091,47.057],[7.092,47.059],[7.092,47.06],[7.092,47.063],[7.092,47.066],[7.091,47.074],[7.09,47.076],[7.089,47.078],[7.088,47.08],[7.088,47.081],[7.089,47.082],[7.09,47.083],[7.093,47.084],[7.094,47.085],[7.094,47.087],[7.09,47.091],[7.083,47.096],[7.054,47.107],[7.04,47.11],[7.039,47.123],[7.032,47.122],[6.88,47.09],[6.877,47.09],[6.877,47.096],[6.879,47.103],[6.88,47.104],[6.884,47.107],[6.885,47.108],[6.886,47.11],[6.89,47.122],[6.891,47.129],[6.89,47.133],[6.888,47.138],[6.882,47.147],[6.87,47.157],[6.85,47.165],[6.877,47.164],[6.886,47.159],[6.89,47.156],[6.894,47.154],[6.902,47.156],[6.913,47.16],[6.949,47.179],[6.96,47.184],[6.983,47.183],[6.994,47.184],[7.004,47.192],[7.014,47.196],[7.03,47.202],[7.04,47.209],[7.047,47.216],[7.052,47.223],[7.059,47.23],[7.061,47.232],[7.062,47.234],[7.064,47.24],[7.068,47.242],[7.074,47.243],[7.106,47.241],[7.155,47.248],[7.16,47.251],[7.158,47.255],[7.156,47.262],[7.156,47.265],[7.156,47.268],[7.158,47.271],[7.168,47.276],[7.172,47.279],[7.174,47.283],[7.172,47.287],[7.175,47.297],[7.259,47.285],[7.278,47.286],[7.294,47.288],[7.319,47.295],[7.331,47.3],[7.338,47.304],[7.343,47.307],[7.347,47.309],[7.355,47.311],[7.361,47.315],[7.365,47.319],[7.367,47.323],[7.369,47.325],[7.372,47.324],[7.375,47.319],[7.377,47.315],[7.387,47.313],[7.497,47.307],[7.556,47.318],[7.549,47.303],[7.543,47.298],[7.533,47.294],[7.501,47.286],[7.494,47.284],[7.485,47.279],[7.474,47.27],[7.465,47.265],[7.442,47.259],[7.421,47.247],[7.424,47.239],[7.349,47.217],[7.346,47.212],[7.351,47.204],[7.355,47.2],[7.358,47.194],[7.361,47.192],[7.366,47.19],[7.377,47.187],[7.381,47.184],[7.384,47.181],[7.391,47.17],[7.391,47.167],[7.391,47.165],[7.39,47.162],[7.393,47.161],[7.399,47.16],[7.409,47.162],[7.417,47.165],[7.425,47.171],[7.434,47.177],[7.439,47.181],[7.448,47.183],[7.455,47.187],[7.46,47.189],[7.476,47.191],[7.478,47.178],[7.48,47.173],[7.483,47.171],[7.488,47.168],[7.491,47.165],[7.488,47.159],[7.477,47.154],[7.47,47.153],[7.464,47.154],[7.459,47.156],[7.455,47.156],[7.444,47.15],[7.438,47.143],[7.436,47.139],[7.438,47.129],[7.438,47.124],[7.43,47.121],[7.412,47.118],[7.408,47.118],[7.397,47.119],[7.391,47.119],[7.38,47.121],[7.376,47.12],[7.375,47.116],[7.376,47.112],[7.379,47.109],[7.382,47.105],[7.388,47.096],[7.394,47.093],[7.398,47.092],[7.426,47.097],[7.435,47.098],[7.437,47.098],[7.438,47.089],[7.446,47.075],[7.465,47.08],[7.471,47.082],[7.475,47.086],[7.475,47.091],[7.474,47.096],[7.469,47.105],[7.469,47.109],[7.472,47.112],[7.499,47.121],[7.513,47.13],[7.539,47.156],[7.553,47.165],[7.565,47.166],[7.591,47.154],[7.637,47.153],[7.643,47.153],[7.654,47.16],[7.66,47.167],[7.669,47.17],[7.673,47.172],[7.675,47.176],[7.677,47.179],[7.675,47.185],[7.67,47.193],[7.656,47.21],[7.64,47.226],[7.621,47.232],[7.603,47.247],[7.602,47.255],[7.599,47.262],[7.598,47.266],[7.583,47.278],[7.65,47.283],[7.686,47.294],[7.72,47.267],[7.732,47.262],[7.759,47.261],[7.779,47.266],[7.788,47.263],[7.823,47.269],[7.825,47.249],[7.826,47.247],[7.839,47.232],[7.865,47.191],[7.87,47.185],[7.875,47.177],[7.878,47.169],[7.878,47.159],[7.887,47.128],[7.879,47.118],[7.876,47.112],[7.874,47.101],[7.874,47.082],[7.871,47.061],[7.871,47.055],[7.873,47.048],[7.882,47.04],[7.889,47.032],[7.894,47.028],[7.898,47.011],[7.924,47.01],[7.931,47.006],[7.952,47.003],[7.946,46.98],[7.943,46.975],[7.94,46.966],[7.937,46.963],[7.934,46.96],[7.932,46.958],[7.931,46.951],[7.93,46.948],[7.928,46.946],[7.923,46.943],[7.921,46.942],[7.919,46.938],[7.916,46.934],[7.911,46.932],[7.906,46.931],[7.898,46.932],[7.896,46.932],[7.888,46.929],[7.879,46.926],[7.876,46.924],[7.874,46.92],[7.874,46.914],[7.876,46.902],[7.875,46.895],[7.872,46.889],[7.863,46.883],[7.861,46.878],[7.87,46.858],[7.871,46.85],[7.886,46.839],[7.952,46.802],[7.964,46.79],[7.977,46.779],[7.983,46.778],[7.991,46.779],[8.006,46.784],[8.023,46.789],[8.044,46.788],[8.075,46.787],[8.095,46.784],[8.128,46.769],[8.139,46.764],[8.151,46.76],[8.158,46.759],[8.163,46.76],[8.187,46.766],[8.199,46.768],[8.251,46.763],[8.27,46.759],[8.28,46.759],[8.291,46.762],[8.324,46.778],[8.368,46.789],[8.392,46.775],[8.401,46.77],[8.408,46.772],[8.421,46.774],[8.426,46.774],[8.446,46.769]],[[7.231,46.933],[7.234,46.934],[7.236,46.936],[7.238,46.938],[7.237,46.941],[7.223,46.938],[7.226,46.933],[7.229,46.934],[7.231,46.933]]]]}},{"type":"Feature","id":"CH-BL","properties":{"id":"CH-BL","countryCode":"CH","isoSubdivision":"CH-BL","name":"Basel-Landschaft","name_en":"Basel-Landschaft","name_ko":"바젤란트","type":"Canton","labelLongitude":7.727,"labelLatitude":47.506,"minZoom":8.7},"geometry":{"type":"MultiPolygon","coordinates":[[[[7.683,47.544],[7.727,47.55],[7.731,47.549],[7.767,47.537],[7.772,47.536],[7.774,47.535],[7.778,47.533],[7.777,47.528],[7.778,47.522],[7.78,47.516],[7.783,47.513],[7.796,47.514],[7.821,47.53],[7.824,47.532],[7.825,47.536],[7.825,47.542],[7.826,47.546],[7.829,47.547],[7.835,47.548],[7.849,47.545],[7.857,47.538],[7.863,47.535],[7.868,47.528],[7.897,47.498],[7.9,47.49],[7.91,47.486],[7.94,47.484],[7.94,47.469],[7.941,47.465],[7.942,47.463],[7.955,47.458],[7.95,47.447],[7.945,47.441],[7.945,47.438],[7.947,47.435],[7.95,47.431],[7.953,47.427],[7.954,47.422],[7.948,47.417],[7.929,47.408],[7.908,47.404],[7.895,47.403],[7.887,47.404],[7.882,47.402],[7.876,47.392],[7.873,47.387],[7.871,47.385],[7.846,47.377],[7.839,47.373],[7.818,47.369],[7.805,47.364],[7.79,47.345],[7.786,47.339],[7.765,47.343],[7.759,47.345],[7.752,47.348],[7.745,47.354],[7.735,47.359],[7.714,47.366],[7.689,47.37],[7.654,47.368],[7.649,47.37],[7.645,47.372],[7.64,47.385],[7.638,47.391],[7.637,47.398],[7.638,47.406],[7.647,47.408],[7.671,47.413],[7.675,47.414],[7.684,47.422],[7.687,47.43],[7.687,47.443],[7.688,47.446],[7.69,47.448],[7.693,47.45],[7.697,47.452],[7.701,47.454],[7.704,47.457],[7.709,47.463],[7.713,47.467],[7.71,47.471],[7.707,47.474],[7.664,47.492],[7.656,47.492],[7.656,47.488],[7.654,47.485],[7.65,47.483],[7.623,47.485],[7.615,47.484],[7.608,47.473],[7.623,47.468],[7.626,47.464],[7.627,47.462],[7.615,47.44],[7.603,47.431],[7.58,47.43],[7.575,47.428],[7.574,47.423],[7.575,47.419],[7.577,47.415],[7.576,47.413],[7.571,47.412],[7.542,47.411],[7.538,47.41],[7.535,47.407],[7.532,47.402],[7.528,47.398],[7.524,47.393],[7.516,47.39],[7.507,47.389],[7.491,47.39],[7.473,47.397],[7.466,47.398],[7.453,47.396],[7.437,47.379],[7.426,47.379],[7.423,47.381],[7.42,47.383],[7.418,47.391],[7.411,47.398],[7.384,47.413],[7.44,47.415],[7.455,47.421],[7.456,47.425],[7.455,47.428],[7.446,47.439],[7.444,47.441],[7.441,47.441],[7.435,47.441],[7.432,47.442],[7.429,47.443],[7.427,47.444],[7.426,47.445],[7.421,47.451],[7.426,47.456],[7.429,47.465],[7.428,47.471],[7.423,47.475],[7.419,47.478],[7.414,47.484],[7.414,47.49],[7.426,47.493],[7.441,47.489],[7.446,47.487],[7.447,47.465],[7.451,47.457],[7.452,47.455],[7.454,47.452],[7.47,47.452],[7.534,47.461],[7.533,47.487],[7.532,47.49],[7.529,47.494],[7.521,47.495],[7.502,47.5],[7.486,47.499],[7.485,47.501],[7.478,47.508],[7.476,47.512],[7.477,47.515],[7.483,47.517],[7.493,47.515],[7.501,47.517],[7.505,47.523],[7.505,47.533],[7.502,47.533],[7.485,47.542],[7.483,47.542],[7.521,47.563],[7.526,47.561],[7.557,47.547],[7.566,47.545],[7.576,47.544],[7.579,47.541],[7.589,47.535],[7.606,47.543],[7.612,47.544],[7.617,47.543],[7.623,47.538],[7.63,47.534],[7.64,47.53],[7.647,47.535],[7.647,47.551],[7.661,47.546],[7.683,47.544]]],[[[7.379,47.431],[7.388,47.433],[7.384,47.413],[7.342,47.427],[7.339,47.429],[7.337,47.432],[7.379,47.431]]]]}},{"type":"Feature","id":"CH-BS","properties":{"id":"CH-BS","countryCode":"CH","isoSubdivision":"CH-BS","name":"Basel-Stadt","name_en":"Basel-Stadt","name_ko":"바젤슈타트","type":"Canton","labelLongitude":7.59,"labelLatitude":47.561,"minZoom":8.7},"geometry":{"type":"Polygon","coordinates":[[[7.66,47.597],[7.647,47.572],[7.636,47.565],[7.612,47.565],[7.61,47.565],[7.647,47.551],[7.647,47.535],[7.64,47.53],[7.63,47.534],[7.623,47.538],[7.617,47.543],[7.612,47.544],[7.606,47.543],[7.589,47.535],[7.579,47.541],[7.576,47.544],[7.566,47.545],[7.557,47.547],[7.526,47.561],[7.521,47.563],[7.526,47.566],[7.55,47.575],[7.585,47.584],[7.586,47.585],[7.637,47.595],[7.66,47.597]]]}},{"type":"Feature","id":"CH-FR","properties":{"id":"CH-FR","countryCode":"CH","isoSubdivision":"CH-FR","name":"Fribourg","name_en":"Fribourg","name_ko":"프리부르","type":"Canton","labelLongitude":6.852,"labelLatitude":46.841,"minZoom":8.7},"geometry":{"type":"MultiPolygon","coordinates":[[[[7.216,47.004],[7.225,47.002],[7.228,47],[7.229,46.999],[7.229,46.998],[7.23,46.992],[7.236,46.986],[7.234,46.982],[7.224,46.973],[7.219,46.97],[7.206,46.966],[7.204,46.964],[7.204,46.961],[7.21,46.955],[7.212,46.951],[7.213,46.947],[7.214,46.94],[7.216,46.93],[7.215,46.925],[7.212,46.919],[7.205,46.909],[7.206,46.906],[7.209,46.905],[7.214,46.905],[7.224,46.906],[7.276,46.896],[7.356,46.891],[7.36,46.869],[7.356,46.861],[7.346,46.855],[7.34,46.853],[7.334,46.853],[7.331,46.855],[7.329,46.856],[7.33,46.859],[7.328,46.859],[7.322,46.86],[7.315,46.856],[7.314,46.853],[7.317,46.848],[7.32,46.838],[7.319,46.823],[7.307,46.79],[7.305,46.774],[7.304,46.748],[7.307,46.734],[7.31,46.726],[7.313,46.723],[7.316,46.721],[7.333,46.716],[7.338,46.714],[7.347,46.709],[7.351,46.704],[7.354,46.702],[7.358,46.701],[7.362,46.702],[7.365,46.701],[7.368,46.699],[7.37,46.697],[7.373,46.696],[7.377,46.695],[7.381,46.693],[7.383,46.691],[7.38,46.684],[7.376,46.659],[7.378,46.656],[7.374,46.652],[7.366,46.646],[7.358,46.646],[7.349,46.648],[7.335,46.651],[7.331,46.648],[7.32,46.64],[7.323,46.61],[7.321,46.596],[7.319,46.588],[7.315,46.583],[7.31,46.582],[7.301,46.582],[7.283,46.581],[7.243,46.556],[7.213,46.54],[7.155,46.528],[7.145,46.522],[7.138,46.515],[7.122,46.502],[7.112,46.496],[7.103,46.492],[7.074,46.49],[7.066,46.488],[7.06,46.485],[7.042,46.475],[7.033,46.467],[7.029,46.464],[7.028,46.461],[7.024,46.452],[7,46.445],[6.999,46.446],[6.996,46.447],[6.994,46.451],[6.991,46.455],[6.987,46.459],[6.986,46.464],[6.985,46.468],[6.981,46.479],[6.975,46.49],[6.919,46.519],[6.906,46.523],[6.895,46.523],[6.88,46.512],[6.873,46.508],[6.864,46.505],[6.85,46.504],[6.842,46.505],[6.838,46.506],[6.827,46.517],[6.82,46.531],[6.828,46.543],[6.831,46.543],[6.844,46.544],[6.852,46.543],[6.854,46.542],[6.867,46.537],[6.87,46.539],[6.873,46.542],[6.898,46.561],[6.903,46.567],[6.905,46.569],[6.903,46.57],[6.899,46.57],[6.892,46.568],[6.887,46.569],[6.88,46.572],[6.869,46.58],[6.864,46.582],[6.86,46.583],[6.849,46.581],[6.834,46.58],[6.826,46.584],[6.82,46.584],[6.816,46.583],[6.807,46.581],[6.806,46.582],[6.806,46.585],[6.807,46.59],[6.807,46.594],[6.806,46.596],[6.806,46.599],[6.807,46.6],[6.809,46.601],[6.81,46.603],[6.809,46.608],[6.808,46.614],[6.806,46.625],[6.806,46.636],[6.807,46.641],[6.809,46.651],[6.821,46.652],[6.837,46.66],[6.849,46.662],[6.864,46.662],[6.87,46.663],[6.872,46.664],[6.872,46.665],[6.87,46.667],[6.871,46.669],[6.876,46.679],[6.911,46.714],[6.94,46.741],[6.944,46.749],[6.943,46.75],[6.93,46.752],[6.926,46.753],[6.923,46.755],[6.92,46.759],[6.921,46.761],[6.934,46.763],[6.938,46.765],[6.942,46.768],[6.969,46.795],[6.968,46.809],[6.973,46.819],[6.977,46.823],[6.981,46.826],[6.987,46.829],[6.997,46.837],[7.001,46.841],[7.001,46.844],[7,46.845],[6.999,46.846],[6.994,46.844],[6.991,46.846],[6.988,46.85],[6.985,46.859],[6.985,46.863],[6.987,46.868],[6.99,46.872],[6.989,46.876],[6.987,46.879],[6.985,46.881],[6.982,46.882],[6.98,46.882],[6.976,46.881],[6.973,46.88],[6.971,46.879],[6.971,46.877],[6.971,46.875],[6.97,46.873],[6.969,46.873],[6.966,46.873],[6.964,46.874],[6.947,46.89],[6.942,46.894],[6.938,46.896],[6.907,46.925],[6.946,46.947],[7.009,46.887],[7.014,46.88],[7.025,46.876],[7.039,46.862],[7.04,46.855],[7.041,46.852],[7.059,46.859],[7.068,46.866],[7.07,46.869],[7.073,46.873],[7.075,46.878],[7.077,46.887],[7.081,46.892],[7.084,46.895],[7.088,46.895],[7.09,46.895],[7.093,46.892],[7.095,46.892],[7.097,46.892],[7.105,46.898],[7.107,46.901],[7.106,46.903],[7.1,46.905],[7.097,46.906],[7.094,46.908],[7.073,46.937],[7.069,46.945],[7.062,46.978],[7.143,46.984],[7.193,46.997],[7.216,47.004]]],[[[7.237,46.941],[7.238,46.938],[7.236,46.936],[7.234,46.934],[7.231,46.933],[7.229,46.934],[7.226,46.933],[7.223,46.938],[7.237,46.941]]],[[[6.875,46.907],[6.917,46.879],[6.921,46.875],[6.924,46.872],[6.922,46.872],[6.92,46.874],[6.918,46.875],[6.916,46.875],[6.909,46.873],[6.906,46.872],[6.903,46.87],[6.901,46.867],[6.902,46.866],[6.906,46.867],[6.91,46.866],[6.916,46.864],[6.927,46.858],[6.93,46.855],[6.93,46.852],[6.924,46.845],[6.919,46.839],[6.917,46.836],[6.916,46.832],[6.915,46.829],[6.911,46.808],[6.913,46.806],[6.915,46.805],[6.922,46.807],[6.928,46.806],[6.93,46.805],[6.93,46.803],[6.926,46.798],[6.919,46.786],[6.915,46.784],[6.913,46.783],[6.905,46.781],[6.9,46.781],[6.886,46.781],[6.882,46.782],[6.877,46.783],[6.872,46.786],[6.868,46.787],[6.861,46.786],[6.856,46.786],[6.849,46.784],[6.844,46.781],[6.836,46.78],[6.832,46.78],[6.828,46.781],[6.817,46.785],[6.813,46.785],[6.809,46.786],[6.806,46.786],[6.793,46.79],[6.792,46.791],[6.793,46.794],[6.796,46.796],[6.797,46.798],[6.798,46.8],[6.796,46.802],[6.795,46.803],[6.791,46.803],[6.788,46.803],[6.786,46.804],[6.775,46.812],[6.771,46.819],[6.766,46.845],[6.875,46.907]]],[[[6.787,46.752],[6.793,46.748],[6.793,46.74],[6.792,46.733],[6.784,46.726],[6.779,46.723],[6.773,46.719],[6.768,46.721],[6.765,46.727],[6.76,46.73],[6.756,46.735],[6.759,46.74],[6.765,46.74],[6.772,46.746],[6.78,46.752],[6.787,46.752]]],[[[6.86,46.773],[6.865,46.769],[6.869,46.764],[6.875,46.763],[6.884,46.759],[6.889,46.752],[6.885,46.744],[6.878,46.735],[6.87,46.73],[6.863,46.727],[6.854,46.73],[6.846,46.732],[6.834,46.736],[6.826,46.735],[6.815,46.727],[6.807,46.726],[6.8,46.726],[6.798,46.73],[6.801,46.733],[6.807,46.736],[6.814,46.739],[6.825,46.742],[6.829,46.749],[6.838,46.757],[6.844,46.76],[6.85,46.767],[6.855,46.771],[6.86,46.773]]]]}},{"type":"Feature","id":"CH-GE","properties":{"id":"CH-GE","countryCode":"CH","isoSubdivision":"CH-GE","name":"Geneva","name_en":"Geneva","name_ko":"제네바","type":"Canton","labelLongitude":6.118,"labelLatitude":46.237,"minZoom":8.7},"geometry":{"type":"Polygon","coordinates":[[[6.062,46.241],[6.068,46.242],[6.09,46.246],[6.094,46.253],[6.093,46.262],[6.094,46.273],[6.101,46.301],[6.104,46.309],[6.119,46.332],[6.128,46.326],[6.174,46.3],[6.217,46.31],[6.218,46.305],[6.227,46.288],[6.228,46.284],[6.238,46.268],[6.242,46.264],[6.252,46.26],[6.269,46.265],[6.276,46.263],[6.281,46.24],[6.255,46.221],[6.191,46.192],[6.14,46.15],[6.108,46.139],[6.074,46.149],[6.028,46.148],[5.983,46.14],[5.959,46.13],[5.972,46.152],[5.98,46.162],[5.983,46.171],[5.965,46.186],[5.955,46.2],[5.959,46.212],[5.983,46.223],[6.043,46.243],[6.045,46.243],[6.046,46.244],[6.048,46.243],[6.056,46.242],[6.062,46.241]]]}},{"type":"Feature","id":"CH-GL","properties":{"id":"CH-GL","countryCode":"CH","isoSubdivision":"CH-GL","name":"Glarus","name_en":"Glarus","name_ko":"글라루스","type":"Canton","labelLongitude":9.057,"labelLatitude":47.01,"minZoom":8.7},"geometry":{"type":"Polygon","coordinates":[[[8.93,46.922],[8.952,46.93],[8.956,46.942],[8.96,46.955],[8.959,46.961],[8.955,46.966],[8.939,46.973],[8.934,46.977],[8.93,46.982],[8.929,46.985],[8.932,46.988],[8.932,46.99],[8.904,47.018],[8.89,47.026],[8.895,47.038],[8.906,47.043],[8.931,47.051],[8.94,47.058],[8.947,47.066],[8.957,47.08],[8.958,47.087],[8.956,47.101],[8.961,47.106],[8.963,47.11],[8.966,47.121],[8.966,47.127],[8.985,47.169],[9.001,47.175],[9.007,47.175],[9.059,47.142],[9.075,47.136],[9.18,47.122],[9.175,47.075],[9.169,47.061],[9.135,47.044],[9.132,47.042],[9.133,47.04],[9.151,47.033],[9.158,47.031],[9.176,47.033],[9.188,47.036],[9.195,47.038],[9.202,47.039],[9.21,47.034],[9.219,47.027],[9.232,47.008],[9.236,46.999],[9.238,46.992],[9.233,46.964],[9.232,46.961],[9.23,46.958],[9.231,46.954],[9.234,46.945],[9.242,46.933],[9.243,46.93],[9.241,46.92],[9.213,46.903],[9.196,46.887],[9.191,46.885],[9.183,46.882],[9.164,46.882],[9.149,46.88],[9.115,46.864],[9.105,46.862],[9.097,46.864],[9.092,46.868],[9.085,46.872],[9.075,46.874],[9.059,46.875],[9.049,46.874],[9.042,46.872],[9.04,46.869],[9.039,46.866],[9.039,46.858],[9.038,46.855],[9.035,46.852],[9.033,46.847],[9.03,46.843],[9.025,46.835],[9.017,46.829],[9.003,46.82],[8.98,46.812],[8.925,46.801],[8.916,46.8],[8.912,46.802],[8.91,46.809],[8.908,46.812],[8.903,46.812],[8.893,46.815],[8.872,46.815],[8.871,46.835],[8.87,46.84],[8.872,46.846],[8.898,46.859],[8.902,46.863],[8.905,46.864],[8.908,46.864],[8.911,46.864],[8.916,46.865],[8.937,46.871],[8.944,46.875],[8.948,46.88],[8.949,46.891],[8.948,46.896],[8.946,46.903],[8.944,46.906],[8.93,46.922]]]}},{"type":"Feature","id":"CH-GR","properties":{"id":"CH-GR","countryCode":"CH","isoSubdivision":"CH-GR","name":"Grisons","name_en":"Grisons","name_ko":"그라우뷘덴","type":"Canton","labelLongitude":9.56,"labelLatitude":46.673,"minZoom":8.7},"geometry":{"type":"Polygon","coordinates":[[[9.225,46.231],[9.216,46.221],[9.204,46.214],[9.192,46.21],[9.181,46.204],[9.176,46.194],[9.171,46.183],[9.164,46.173],[9.163,46.173],[9.14,46.185],[9.132,46.191],[9.111,46.208],[9.094,46.216],[9.088,46.221],[9.08,46.23],[9.076,46.235],[9.075,46.24],[9.077,46.253],[9.077,46.258],[9.077,46.262],[9.066,46.276],[9.058,46.29],[9.057,46.295],[9.057,46.299],[9.065,46.306],[9.069,46.312],[9.071,46.317],[9.069,46.323],[9.068,46.33],[9.07,46.337],[9.086,46.357],[9.089,46.364],[9.088,46.394],[9.092,46.402],[9.095,46.412],[9.098,46.416],[9.097,46.42],[9.092,46.427],[9.088,46.434],[9.087,46.442],[9.089,46.453],[9.089,46.461],[9.089,46.467],[9.077,46.482],[9.062,46.481],[9.058,46.48],[9.056,46.479],[9.049,46.481],[9.038,46.492],[9.027,46.504],[9.024,46.509],[9.021,46.514],[9.015,46.533],[9.016,46.537],[9.018,46.541],[9.019,46.546],[9.021,46.558],[9.023,46.564],[9.026,46.571],[9.029,46.577],[9.036,46.587],[9.038,46.591],[9.038,46.594],[9.035,46.596],[9.022,46.605],[9.011,46.608],[9.004,46.611],[8.999,46.613],[8.965,46.615],[8.96,46.62],[8.957,46.625],[8.956,46.631],[8.953,46.632],[8.947,46.632],[8.939,46.627],[8.93,46.625],[8.922,46.623],[8.915,46.62],[8.908,46.613],[8.906,46.608],[8.907,46.604],[8.909,46.601],[8.91,46.597],[8.908,46.594],[8.898,46.589],[8.847,46.575],[8.788,46.568],[8.711,46.573],[8.678,46.584],[8.681,46.597],[8.679,46.605],[8.673,46.617],[8.671,46.621],[8.667,46.623],[8.662,46.624],[8.659,46.626],[8.656,46.629],[8.654,46.633],[8.653,46.639],[8.654,46.644],[8.661,46.66],[8.668,46.671],[8.67,46.677],[8.67,46.68],[8.669,46.683],[8.669,46.686],[8.673,46.691],[8.679,46.695],[8.696,46.7],[8.706,46.701],[8.716,46.705],[8.739,46.726],[8.749,46.733],[8.766,46.737],[8.781,46.734],[8.785,46.733],[8.8,46.736],[8.804,46.737],[8.807,46.741],[8.806,46.75],[8.807,46.751],[8.808,46.753],[8.816,46.763],[8.825,46.771],[8.826,46.779],[8.826,46.791],[8.828,46.793],[8.836,46.795],[8.843,46.796],[8.85,46.801],[8.861,46.806],[8.872,46.815],[8.893,46.815],[8.903,46.812],[8.908,46.812],[8.91,46.809],[8.912,46.802],[8.916,46.8],[8.925,46.801],[8.98,46.812],[9.003,46.82],[9.017,46.829],[9.025,46.835],[9.03,46.843],[9.033,46.847],[9.035,46.852],[9.038,46.855],[9.039,46.858],[9.039,46.866],[9.04,46.869],[9.042,46.872],[9.049,46.874],[9.059,46.875],[9.075,46.874],[9.085,46.872],[9.092,46.868],[9.097,46.864],[9.105,46.862],[9.115,46.864],[9.149,46.88],[9.164,46.882],[9.183,46.882],[9.191,46.885],[9.196,46.887],[9.213,46.903],[9.241,46.92],[9.257,46.908],[9.26,46.907],[9.266,46.907],[9.27,46.909],[9.404,46.895],[9.424,46.888],[9.435,46.882],[9.443,46.882],[9.446,46.883],[9.449,46.891],[9.461,46.894],[9.474,46.91],[9.477,46.915],[9.478,46.92],[9.478,46.925],[9.481,46.937],[9.486,46.945],[9.493,46.953],[9.498,46.957],[9.507,46.962],[9.51,46.967],[9.514,46.976],[9.518,46.98],[9.524,46.982],[9.532,46.983],[9.526,46.991],[9.496,47.027],[9.485,47.043],[9.477,47.06],[9.477,47.064],[9.5,47.059],[9.533,47.056],[9.561,47.052],[9.581,47.057],[9.6,47.053],[9.652,47.058],[9.669,47.056],[9.858,47.015],[9.856,47.004],[9.861,47.002],[9.867,47.002],[9.871,46.999],[9.871,46.993],[9.866,46.983],[9.864,46.96],[9.861,46.949],[9.862,46.94],[9.875,46.927],[9.9,46.914],[10.007,46.891],[10.046,46.866],[10.068,46.857],[10.111,46.847],[10.125,46.847],[10.132,46.847],[10.158,46.852],[10.201,46.867],[10.212,46.877],[10.214,46.885],[10.215,46.893],[10.22,46.906],[10.235,46.923],[10.251,46.925],[10.271,46.922],[10.296,46.923],[10.296,46.941],[10.314,46.964],[10.339,46.984],[10.368,46.996],[10.373,46.996],[10.379,46.996],[10.384,46.993],[10.395,46.985],[10.416,46.962],[10.45,46.944],[10.458,46.937],[10.464,46.92],[10.451,46.886],[10.454,46.864],[10.449,46.832],[10.445,46.823],[10.439,46.817],[10.417,46.799],[10.419,46.784],[10.426,46.769],[10.429,46.756],[10.417,46.743],[10.4,46.736],[10.396,46.726],[10.397,46.715],[10.394,46.701],[10.385,46.689],[10.374,46.682],[10.369,46.672],[10.378,46.653],[10.396,46.639],[10.438,46.636],[10.459,46.624],[10.467,46.604],[10.466,46.578],[10.458,46.554],[10.452,46.547],[10.444,46.538],[10.426,46.535],[10.354,46.548],[10.319,46.546],[10.307,46.547],[10.295,46.551],[10.289,46.556],[10.284,46.561],[10.276,46.566],[10.235,46.575],[10.23,46.586],[10.236,46.607],[10.234,46.618],[10.218,46.627],[10.192,46.627],[10.097,46.608],[10.088,46.604],[10.083,46.597],[10.071,46.564],[10.063,46.557],[10.041,46.542],[10.033,46.533],[10.031,46.526],[10.031,46.504],[10.027,46.493],[10.028,46.484],[10.03,46.477],[10.035,46.471],[10.044,46.467],[10.026,46.446],[10.042,46.433],[10.071,46.425],[10.116,46.419],[10.133,46.414],[10.141,46.403],[10.133,46.381],[10.126,46.374],[10.105,46.361],[10.097,46.352],[10.092,46.338],[10.092,46.329],[10.096,46.321],[10.105,46.309],[10.146,46.28],[10.159,46.262],[10.146,46.243],[10.118,46.231],[10.076,46.22],[10.043,46.22],[10.042,46.243],[10.032,46.26],[9.992,46.284],[9.978,46.298],[9.971,46.32],[9.971,46.34],[9.964,46.356],[9.939,46.367],[9.918,46.371],[9.899,46.372],[9.855,46.367],[9.789,46.343],[9.768,46.339],[9.755,46.341],[9.731,46.351],[9.72,46.351],[9.709,46.342],[9.707,46.331],[9.709,46.32],[9.708,46.312],[9.693,46.297],[9.674,46.292],[9.56,46.293],[9.536,46.299],[9.515,46.309],[9.503,46.321],[9.483,46.357],[9.474,46.362],[9.452,46.37],[9.444,46.375],[9.442,46.381],[9.444,46.396],[9.438,46.492],[9.435,46.498],[9.427,46.497],[9.411,46.489],[9.404,46.483],[9.4,46.475],[9.395,46.469],[9.385,46.466],[9.377,46.469],[9.352,46.485],[9.351,46.498],[9.331,46.502],[9.282,46.497],[9.263,46.485],[9.246,46.461],[9.238,46.437],[9.248,46.423],[9.261,46.417],[9.263,46.407],[9.26,46.394],[9.26,46.38],[9.274,46.344],[9.275,46.331],[9.269,46.309],[9.24,46.267],[9.225,46.231]]]}},{"type":"Feature","id":"CH-JU","properties":{"id":"CH-JU","countryCode":"CH","isoSubdivision":"CH-JU","name":"Jura","name_en":"Jura","name_ko":"쥐라","type":"Canton","labelLongitude":7.198,"labelLatitude":47.364,"minZoom":8.7},"geometry":{"type":"Polygon","coordinates":[[[7.01,47.499],[7.019,47.498],[7.028,47.493],[7.054,47.49],[7.104,47.496],[7.127,47.493],[7.14,47.488],[7.142,47.488],[7.154,47.486],[7.181,47.488],[7.163,47.46],[7.168,47.444],[7.19,47.435],[7.219,47.428],[7.224,47.426],[7.226,47.423],[7.23,47.419],[7.238,47.417],[7.245,47.418],[7.283,47.429],[7.309,47.433],[7.337,47.432],[7.339,47.429],[7.342,47.427],[7.384,47.413],[7.411,47.398],[7.418,47.391],[7.42,47.383],[7.423,47.381],[7.426,47.379],[7.437,47.379],[7.486,47.371],[7.505,47.37],[7.512,47.37],[7.521,47.368],[7.529,47.364],[7.538,47.353],[7.554,47.344],[7.538,47.334],[7.536,47.327],[7.537,47.324],[7.54,47.322],[7.559,47.321],[7.556,47.318],[7.497,47.307],[7.387,47.313],[7.377,47.315],[7.375,47.319],[7.372,47.324],[7.369,47.325],[7.367,47.323],[7.365,47.319],[7.361,47.315],[7.355,47.311],[7.347,47.309],[7.343,47.307],[7.338,47.304],[7.331,47.3],[7.319,47.295],[7.294,47.288],[7.278,47.286],[7.259,47.285],[7.175,47.297],[7.172,47.287],[7.174,47.283],[7.172,47.279],[7.168,47.276],[7.158,47.271],[7.156,47.268],[7.156,47.265],[7.156,47.262],[7.158,47.255],[7.16,47.251],[7.155,47.248],[7.106,47.241],[7.074,47.243],[7.068,47.242],[7.064,47.24],[7.062,47.234],[7.061,47.232],[7.059,47.23],[7.052,47.223],[7.047,47.216],[7.04,47.209],[7.03,47.202],[7.014,47.196],[7.004,47.192],[6.994,47.184],[6.983,47.183],[6.96,47.184],[6.949,47.179],[6.913,47.16],[6.902,47.156],[6.894,47.154],[6.89,47.156],[6.886,47.159],[6.877,47.164],[6.85,47.165],[6.838,47.168],[6.84,47.17],[6.859,47.191],[6.888,47.211],[6.956,47.245],[6.952,47.27],[6.959,47.291],[6.977,47.304],[6.987,47.305],[6.992,47.306],[7.006,47.319],[7.017,47.324],[7.027,47.325],[7.037,47.33],[7.044,47.34],[7.034,47.351],[7.019,47.36],[7.004,47.368],[6.986,47.362],[6.867,47.354],[6.872,47.367],[6.884,47.383],[6.899,47.396],[6.925,47.406],[6.926,47.425],[6.939,47.427],[6.952,47.429],[6.969,47.435],[6.983,47.444],[6.991,47.452],[6.986,47.464],[6.976,47.478],[6.973,47.489],[6.992,47.493],[7.001,47.498],[7.01,47.499]]]}},{"type":"Feature","id":"CH-LU","properties":{"id":"CH-LU","countryCode":"CH","isoSubdivision":"CH-LU","name":"Lucerne","name_en":"Lucerne","name_ko":"루체른","type":"Canton","labelLongitude":8.172,"labelLatitude":47.096,"minZoom":8.7},"geometry":{"type":"Polygon","coordinates":[[[8.406,47.142],[8.418,47.129],[8.426,47.127],[8.431,47.126],[8.435,47.125],[8.437,47.124],[8.442,47.113],[8.412,47.101],[8.406,47.097],[8.403,47.093],[8.402,47.09],[8.402,47.084],[8.4,47.081],[8.397,47.077],[8.388,47.071],[8.386,47.068],[8.388,47.062],[8.393,47.057],[8.404,47.053],[8.42,47.058],[8.46,47.051],[8.498,47.027],[8.502,47.023],[8.505,47.018],[8.501,47.01],[8.498,47.005],[8.465,46.993],[8.46,47],[8.446,47.009],[8.432,47.011],[8.423,47.005],[8.422,47.001],[8.412,46.999],[8.379,46.999],[8.378,47],[8.377,47.001],[8.377,47.003],[8.366,47.008],[8.351,47.002],[8.329,46.997],[8.317,46.999],[8.305,46.999],[8.292,46.998],[8.268,46.998],[8.251,46.995],[8.232,46.991],[8.226,46.988],[8.223,46.983],[8.222,46.979],[8.227,46.972],[8.172,46.968],[8.155,46.96],[8.153,46.958],[8.156,46.949],[8.157,46.944],[8.156,46.939],[8.136,46.926],[8.112,46.905],[8.107,46.904],[8.105,46.905],[8.104,46.908],[8.102,46.909],[8.099,46.909],[8.093,46.909],[8.088,46.908],[8.084,46.905],[8.077,46.898],[8.073,46.893],[8.07,46.886],[8.066,46.872],[8.049,46.845],[8.047,46.839],[8.05,46.829],[8.055,46.822],[8.06,46.806],[8.044,46.788],[8.023,46.789],[8.006,46.784],[7.991,46.779],[7.983,46.778],[7.977,46.779],[7.964,46.79],[7.952,46.802],[7.886,46.839],[7.871,46.85],[7.87,46.858],[7.861,46.878],[7.863,46.883],[7.872,46.889],[7.875,46.895],[7.876,46.902],[7.874,46.914],[7.874,46.92],[7.876,46.924],[7.879,46.926],[7.888,46.929],[7.896,46.932],[7.898,46.932],[7.906,46.931],[7.911,46.932],[7.916,46.934],[7.919,46.938],[7.921,46.942],[7.923,46.943],[7.928,46.946],[7.93,46.948],[7.931,46.951],[7.932,46.958],[7.934,46.96],[7.937,46.963],[7.94,46.966],[7.943,46.975],[7.946,46.98],[7.952,47.003],[7.931,47.006],[7.924,47.01],[7.898,47.011],[7.894,47.028],[7.889,47.032],[7.882,47.04],[7.873,47.048],[7.871,47.055],[7.871,47.061],[7.874,47.082],[7.874,47.101],[7.876,47.112],[7.879,47.118],[7.887,47.128],[7.878,47.159],[7.878,47.169],[7.875,47.177],[7.87,47.185],[7.865,47.191],[7.839,47.232],[7.9,47.24],[7.923,47.24],[7.949,47.247],[7.953,47.249],[7.954,47.25],[7.955,47.251],[7.956,47.253],[7.956,47.256],[7.955,47.265],[7.955,47.273],[7.956,47.275],[7.957,47.277],[7.961,47.277],[7.983,47.277],[7.998,47.273],[8.02,47.243],[8.089,47.261],[8.104,47.251],[8.124,47.246],[8.151,47.245],[8.16,47.243],[8.163,47.241],[8.156,47.239],[8.155,47.238],[8.155,47.237],[8.156,47.235],[8.157,47.232],[8.159,47.23],[8.163,47.227],[8.168,47.225],[8.175,47.223],[8.184,47.224],[8.2,47.232],[8.222,47.26],[8.227,47.268],[8.244,47.281],[8.261,47.282],[8.277,47.278],[8.283,47.274],[8.289,47.268],[8.292,47.258],[8.296,47.25],[8.303,47.238],[8.337,47.173],[8.34,47.168],[8.351,47.157],[8.359,47.151],[8.364,47.147],[8.377,47.143],[8.405,47.142],[8.406,47.142]]]}},{"type":"Feature","id":"CH-NE","properties":{"id":"CH-NE","countryCode":"CH","isoSubdivision":"CH-NE","name":"Neuchâtel","name_en":"Neuchâtel","name_ko":"뇌샤텔","type":"Canton","labelLongitude":6.761,"labelLatitude":46.989,"minZoom":8.7},"geometry":{"type":"Polygon","coordinates":[[[6.443,46.851],[6.447,46.858],[6.448,46.872],[6.445,46.883],[6.432,46.9],[6.428,46.909],[6.443,46.944],[6.491,46.963],[6.599,46.987],[6.665,47.021],[6.688,47.044],[6.676,47.062],[6.69,47.078],[6.699,47.085],[6.724,47.091],[6.728,47.097],[6.732,47.099],[6.746,47.104],[6.745,47.121],[6.775,47.128],[6.838,47.168],[6.85,47.165],[6.87,47.157],[6.882,47.147],[6.888,47.138],[6.89,47.133],[6.891,47.129],[6.89,47.122],[6.886,47.11],[6.885,47.108],[6.884,47.107],[6.88,47.104],[6.879,47.103],[6.877,47.096],[6.877,47.09],[6.88,47.09],[7.032,47.122],[7.039,47.123],[7.04,47.11],[7.054,47.107],[7.083,47.096],[7.09,47.091],[7.094,47.087],[7.094,47.085],[7.093,47.084],[7.09,47.083],[7.089,47.082],[7.088,47.081],[7.088,47.08],[7.089,47.078],[7.09,47.076],[7.091,47.074],[7.092,47.066],[7.092,47.063],[7.092,47.06],[7.092,47.059],[7.091,47.057],[7.09,47.055],[7.087,47.053],[7.083,47.052],[7.08,47.051],[7.074,47.047],[7.07,47.046],[7.048,47.039],[7.044,47.036],[7.041,47.031],[7.035,47.015],[7.031,47.008],[7.021,46.99],[6.946,46.947],[6.907,46.925],[6.875,46.907],[6.766,46.845],[6.749,46.87],[6.748,46.875],[6.746,46.881],[6.746,46.891],[6.746,46.896],[6.743,46.901],[6.735,46.906],[6.729,46.911],[6.726,46.917],[6.729,46.927],[6.726,46.939],[6.667,46.915],[6.64,46.899],[6.625,46.892],[6.594,46.885],[6.546,46.868],[6.532,46.86],[6.522,46.857],[6.513,46.855],[6.462,46.854],[6.443,46.851]]]}},{"type":"Feature","id":"CH-NW","properties":{"id":"CH-NW","countryCode":"CH","isoSubdivision":"CH-NW","name":"Nidwalden","name_en":"Nidwalden","name_ko":"니트발덴","type":"Canton","labelLongitude":8.403,"labelLatitude":46.934,"minZoom":8.7},"geometry":{"type":"Polygon","coordinates":[[[8.465,46.993],[8.49,46.982],[8.562,46.988],[8.563,46.982],[8.562,46.977],[8.548,46.947],[8.545,46.943],[8.541,46.94],[8.529,46.933],[8.478,46.915],[8.462,46.907],[8.459,46.905],[8.459,46.901],[8.466,46.894],[8.469,46.889],[8.47,46.883],[8.468,46.876],[8.473,46.856],[8.424,46.854],[8.414,46.86],[8.41,46.866],[8.405,46.868],[8.401,46.867],[8.382,46.859],[8.378,46.858],[8.376,46.858],[8.376,46.859],[8.377,46.862],[8.377,46.864],[8.377,46.868],[8.372,46.873],[8.368,46.874],[8.364,46.872],[8.36,46.867],[8.361,46.864],[8.364,46.859],[8.366,46.847],[8.367,46.843],[8.373,46.83],[8.373,46.827],[8.373,46.823],[8.373,46.821],[8.375,46.819],[8.383,46.816],[8.384,46.814],[8.385,46.809],[8.386,46.808],[8.386,46.807],[8.388,46.805],[8.391,46.803],[8.395,46.798],[8.398,46.795],[8.402,46.793],[8.418,46.789],[8.421,46.787],[8.422,46.783],[8.42,46.781],[8.392,46.775],[8.368,46.789],[8.347,46.798],[8.327,46.818],[8.324,46.841],[8.326,46.851],[8.327,46.871],[8.332,46.882],[8.333,46.887],[8.333,46.914],[8.331,46.918],[8.326,46.921],[8.303,46.928],[8.297,46.932],[8.292,46.937],[8.293,46.943],[8.296,46.947],[8.299,46.95],[8.302,46.953],[8.304,46.958],[8.306,46.962],[8.308,46.967],[8.305,46.97],[8.302,46.971],[8.264,46.979],[8.26,46.979],[8.255,46.978],[8.25,46.976],[8.244,46.974],[8.227,46.972],[8.222,46.979],[8.223,46.983],[8.226,46.988],[8.232,46.991],[8.251,46.995],[8.268,46.998],[8.292,46.998],[8.305,46.999],[8.317,46.999],[8.329,46.997],[8.351,47.002],[8.366,47.008],[8.377,47.003],[8.377,47.001],[8.378,47],[8.379,46.999],[8.412,46.999],[8.422,47.001],[8.423,47.005],[8.432,47.011],[8.446,47.009],[8.46,47],[8.465,46.993]]]}},{"type":"Feature","id":"CH-OW","properties":{"id":"CH-OW","countryCode":"CH","isoSubdivision":"CH-OW","name":"Obwalden","name_en":"Obwalden","name_ko":"옵발덴","type":"Canton","labelLongitude":8.206,"labelLatitude":46.869,"minZoom":8.7},"geometry":{"type":"MultiPolygon","coordinates":[[[[8.368,46.789],[8.324,46.778],[8.291,46.762],[8.28,46.759],[8.27,46.759],[8.251,46.763],[8.199,46.768],[8.187,46.766],[8.163,46.76],[8.158,46.759],[8.151,46.76],[8.139,46.764],[8.128,46.769],[8.095,46.784],[8.075,46.787],[8.044,46.788],[8.06,46.806],[8.055,46.822],[8.05,46.829],[8.047,46.839],[8.049,46.845],[8.066,46.872],[8.07,46.886],[8.073,46.893],[8.077,46.898],[8.084,46.905],[8.088,46.908],[8.093,46.909],[8.099,46.909],[8.102,46.909],[8.104,46.908],[8.105,46.905],[8.107,46.904],[8.112,46.905],[8.136,46.926],[8.156,46.939],[8.157,46.944],[8.156,46.949],[8.153,46.958],[8.155,46.96],[8.172,46.968],[8.227,46.972],[8.244,46.974],[8.25,46.976],[8.255,46.978],[8.26,46.979],[8.264,46.979],[8.302,46.971],[8.305,46.97],[8.308,46.967],[8.306,46.962],[8.304,46.958],[8.302,46.953],[8.299,46.95],[8.296,46.947],[8.293,46.943],[8.292,46.937],[8.297,46.932],[8.303,46.928],[8.326,46.921],[8.331,46.918],[8.333,46.914],[8.333,46.887],[8.332,46.882],[8.327,46.871],[8.326,46.851],[8.324,46.841],[8.327,46.818],[8.347,46.798],[8.368,46.789]]],[[[8.401,46.77],[8.392,46.775],[8.42,46.781],[8.422,46.783],[8.421,46.787],[8.418,46.789],[8.402,46.793],[8.398,46.795],[8.395,46.798],[8.391,46.803],[8.388,46.805],[8.386,46.807],[8.386,46.808],[8.385,46.809],[8.384,46.814],[8.383,46.816],[8.375,46.819],[8.373,46.821],[8.373,46.823],[8.373,46.827],[8.373,46.83],[8.367,46.843],[8.366,46.847],[8.364,46.859],[8.361,46.864],[8.36,46.867],[8.364,46.872],[8.368,46.874],[8.372,46.873],[8.377,46.868],[8.377,46.864],[8.377,46.862],[8.376,46.859],[8.376,46.858],[8.378,46.858],[8.382,46.859],[8.401,46.867],[8.405,46.868],[8.41,46.866],[8.414,46.86],[8.424,46.854],[8.473,46.856],[8.483,46.856],[8.487,46.855],[8.495,46.853],[8.498,46.852],[8.499,46.849],[8.5,46.848],[8.499,46.845],[8.496,46.842],[8.488,46.837],[8.483,46.83],[8.477,46.817],[8.475,46.81],[8.471,46.804],[8.473,46.8],[8.475,46.798],[8.478,46.797],[8.479,46.794],[8.48,46.791],[8.482,46.786],[8.481,46.781],[8.479,46.776],[8.446,46.769],[8.426,46.774],[8.421,46.774],[8.408,46.772],[8.401,46.77]]]]}},{"type":"Feature","id":"CH-SG","properties":{"id":"CH-SG","countryCode":"CH","isoSubdivision":"CH-SG","name":"St. Gallen","name_en":"St. Gallen","name_ko":"장크트갈렌","type":"Canton","labelLongitude":9.213,"labelLatitude":47.152,"minZoom":8.7},"geometry":{"type":"Polygon","coordinates":[[[9.553,47.517],[9.555,47.511],[9.585,47.481],[9.622,47.469],[9.65,47.452],[9.65,47.41],[9.64,47.395],[9.601,47.361],[9.596,47.352],[9.591,47.335],[9.587,47.328],[9.553,47.3],[9.521,47.263],[9.505,47.244],[9.497,47.229],[9.487,47.21],[9.486,47.197],[9.485,47.176],[9.493,47.16],[9.496,47.156],[9.503,47.145],[9.512,47.129],[9.512,47.108],[9.503,47.095],[9.488,47.084],[9.476,47.073],[9.477,47.064],[9.477,47.06],[9.485,47.043],[9.496,47.027],[9.526,46.991],[9.532,46.983],[9.524,46.982],[9.518,46.98],[9.514,46.976],[9.51,46.967],[9.507,46.962],[9.498,46.957],[9.493,46.953],[9.486,46.945],[9.481,46.937],[9.478,46.925],[9.478,46.92],[9.477,46.915],[9.474,46.91],[9.461,46.894],[9.449,46.891],[9.446,46.883],[9.443,46.882],[9.435,46.882],[9.424,46.888],[9.404,46.895],[9.27,46.909],[9.266,46.907],[9.26,46.907],[9.257,46.908],[9.241,46.92],[9.243,46.93],[9.242,46.933],[9.234,46.945],[9.231,46.954],[9.23,46.958],[9.232,46.961],[9.233,46.964],[9.238,46.992],[9.236,46.999],[9.232,47.008],[9.219,47.027],[9.21,47.034],[9.202,47.039],[9.195,47.038],[9.188,47.036],[9.176,47.033],[9.158,47.031],[9.151,47.033],[9.133,47.04],[9.132,47.042],[9.135,47.044],[9.169,47.061],[9.175,47.075],[9.18,47.122],[9.075,47.136],[9.059,47.142],[9.007,47.175],[9.001,47.175],[8.985,47.169],[8.958,47.187],[8.952,47.196],[8.952,47.198],[8.953,47.204],[8.955,47.214],[8.924,47.22],[8.83,47.214],[8.775,47.221],[8.789,47.244],[8.808,47.254],[8.849,47.25],[8.862,47.25],[8.921,47.269],[8.93,47.275],[8.935,47.28],[8.934,47.288],[8.94,47.294],[8.947,47.301],[8.96,47.308],[8.966,47.313],[8.969,47.317],[8.966,47.325],[8.96,47.346],[8.937,47.376],[8.932,47.38],[8.942,47.38],[8.951,47.388],[8.964,47.405],[8.974,47.413],[8.985,47.43],[8.989,47.433],[8.994,47.435],[8.997,47.434],[9.001,47.434],[9.005,47.434],[9.009,47.436],[9.014,47.437],[9.02,47.438],[9.027,47.439],[9.03,47.44],[9.032,47.443],[9.033,47.446],[9.031,47.457],[9.031,47.46],[9.003,47.474],[9.001,47.477],[9,47.482],[9.004,47.486],[9.01,47.488],[9.015,47.489],[9.019,47.49],[9.028,47.496],[9.031,47.496],[9.039,47.494],[9.045,47.494],[9.062,47.496],[9.066,47.496],[9.068,47.494],[9.07,47.491],[9.073,47.49],[9.076,47.489],[9.084,47.49],[9.088,47.49],[9.101,47.488],[9.113,47.488],[9.13,47.49],[9.138,47.493],[9.142,47.497],[9.151,47.508],[9.166,47.496],[9.199,47.485],[9.238,47.479],[9.256,47.477],[9.26,47.48],[9.269,47.483],[9.275,47.483],[9.283,47.482],[9.29,47.483],[9.295,47.486],[9.299,47.49],[9.301,47.493],[9.305,47.501],[9.3,47.516],[9.297,47.516],[9.292,47.516],[9.287,47.515],[9.281,47.514],[9.27,47.515],[9.266,47.517],[9.266,47.519],[9.268,47.521],[9.27,47.521],[9.272,47.52],[9.274,47.52],[9.276,47.521],[9.279,47.524],[9.283,47.526],[9.289,47.528],[9.295,47.528],[9.303,47.529],[9.306,47.529],[9.311,47.533],[9.316,47.534],[9.321,47.535],[9.335,47.535],[9.344,47.525],[9.344,47.521],[9.344,47.518],[9.341,47.512],[9.343,47.508],[9.365,47.488],[9.374,47.483],[9.38,47.481],[9.387,47.491],[9.438,47.517],[9.448,47.512],[9.444,47.503],[9.445,47.502],[9.446,47.5],[9.456,47.497],[9.46,47.496],[9.464,47.497],[9.473,47.499],[9.553,47.517]],[[9.488,47.353],[9.481,47.368],[9.487,47.394],[9.514,47.401],[9.526,47.402],[9.54,47.397],[9.583,47.415],[9.581,47.424],[9.583,47.432],[9.585,47.434],[9.608,47.45],[9.568,47.455],[9.552,47.459],[9.549,47.46],[9.542,47.464],[9.539,47.465],[9.531,47.467],[9.529,47.467],[9.526,47.468],[9.522,47.468],[9.517,47.466],[9.496,47.453],[9.446,47.438],[9.437,47.436],[9.426,47.434],[9.42,47.428],[9.417,47.422],[9.415,47.416],[9.409,47.412],[9.397,47.409],[9.375,47.41],[9.339,47.405],[9.294,47.399],[9.278,47.403],[9.271,47.403],[9.235,47.399],[9.226,47.4],[9.223,47.397],[9.217,47.391],[9.208,47.377],[9.2,47.368],[9.188,47.36],[9.186,47.358],[9.199,47.34],[9.209,47.342],[9.213,47.342],[9.217,47.34],[9.218,47.337],[9.214,47.331],[9.21,47.328],[9.204,47.323],[9.202,47.319],[9.201,47.313],[9.208,47.29],[9.197,47.281],[9.204,47.275],[9.208,47.273],[9.217,47.272],[9.267,47.267],[9.298,47.256],[9.308,47.25],[9.311,47.25],[9.315,47.25],[9.332,47.253],[9.345,47.247],[9.353,47.244],[9.36,47.241],[9.369,47.24],[9.376,47.24],[9.404,47.247],[9.423,47.254],[9.438,47.261],[9.452,47.272],[9.471,47.296],[9.488,47.353]]]}},{"type":"Feature","id":"CH-SH","properties":{"id":"CH-SH","countryCode":"CH","isoSubdivision":"CH-SH","name":"Schaffhausen","name_en":"Schaffhausen","name_ko":"샤프하우젠","type":"Canton","labelLongitude":8.623,"labelLatitude":47.721,"minZoom":8.7},"geometry":{"type":"MultiPolygon","coordinates":[[[[8.558,47.801],[8.583,47.8],[8.602,47.795],[8.603,47.787],[8.604,47.774],[8.608,47.762],[8.617,47.757],[8.63,47.763],[8.635,47.785],[8.644,47.791],[8.657,47.788],[8.667,47.778],[8.674,47.767],[8.682,47.759],[8.692,47.757],[8.703,47.759],[8.713,47.757],[8.72,47.747],[8.717,47.744],[8.704,47.73],[8.7,47.723],[8.705,47.715],[8.713,47.709],[8.715,47.701],[8.717,47.695],[8.77,47.695],[8.762,47.701],[8.771,47.721],[8.798,47.72],[8.83,47.707],[8.856,47.691],[8.838,47.688],[8.838,47.681],[8.852,47.671],[8.822,47.682],[8.81,47.679],[8.801,47.682],[8.8,47.682],[8.789,47.663],[8.786,47.661],[8.782,47.657],[8.778,47.655],[8.773,47.655],[8.769,47.655],[8.766,47.654],[8.764,47.653],[8.759,47.65],[8.755,47.648],[8.749,47.646],[8.708,47.647],[8.699,47.649],[8.692,47.652],[8.686,47.659],[8.682,47.664],[8.68,47.68],[8.683,47.696],[8.64,47.696],[8.632,47.691],[8.625,47.682],[8.608,47.671],[8.594,47.658],[8.582,47.661],[8.568,47.663],[8.52,47.657],[8.505,47.652],[8.491,47.646],[8.476,47.64],[8.458,47.64],[8.438,47.648],[8.412,47.661],[8.407,47.662],[8.391,47.665],[8.398,47.676],[8.395,47.685],[8.391,47.692],[8.392,47.7],[8.402,47.707],[8.427,47.716],[8.438,47.723],[8.445,47.743],[8.45,47.75],[8.464,47.764],[8.472,47.767],[8.483,47.767],[8.537,47.774],[8.552,47.779],[8.542,47.795],[8.558,47.801]]],[[[8.561,47.589],[8.574,47.592],[8.576,47.595],[8.577,47.592],[8.564,47.569],[8.556,47.561],[8.553,47.561],[8.549,47.561],[8.546,47.564],[8.543,47.567],[8.54,47.569],[8.534,47.574],[8.529,47.575],[8.53,47.583],[8.552,47.597],[8.561,47.589]]]]}},{"type":"Feature","id":"CH-SO","properties":{"id":"CH-SO","countryCode":"CH","isoSubdivision":"CH-SO","name":"Solothurn","name_en":"Solothurn","name_ko":"졸로투른","type":"Canton","labelLongitude":7.42,"labelLatitude":47.433,"minZoom":8.7},"geometry":{"type":"MultiPolygon","coordinates":[[[[7.467,47.482],[7.483,47.491],[7.484,47.493],[7.486,47.496],[7.486,47.498],[7.486,47.499],[7.502,47.5],[7.521,47.495],[7.529,47.494],[7.532,47.49],[7.533,47.487],[7.534,47.461],[7.47,47.452],[7.454,47.452],[7.452,47.455],[7.451,47.457],[7.447,47.465],[7.446,47.487],[7.455,47.483],[7.467,47.482]]],[[[7.388,47.433],[7.406,47.438],[7.421,47.451],[7.426,47.445],[7.427,47.444],[7.429,47.443],[7.432,47.442],[7.435,47.441],[7.441,47.441],[7.444,47.441],[7.446,47.439],[7.455,47.428],[7.456,47.425],[7.455,47.421],[7.44,47.415],[7.384,47.413],[7.388,47.433]]],[[[7.559,47.321],[7.567,47.321],[7.569,47.324],[7.57,47.329],[7.569,47.334],[7.567,47.338],[7.565,47.341],[7.562,47.343],[7.554,47.344],[7.538,47.353],[7.529,47.364],[7.521,47.368],[7.512,47.37],[7.505,47.37],[7.486,47.371],[7.437,47.379],[7.453,47.396],[7.466,47.398],[7.473,47.397],[7.491,47.39],[7.507,47.389],[7.516,47.39],[7.524,47.393],[7.528,47.398],[7.532,47.402],[7.535,47.407],[7.538,47.41],[7.542,47.411],[7.571,47.412],[7.576,47.413],[7.577,47.415],[7.575,47.419],[7.574,47.423],[7.575,47.428],[7.58,47.43],[7.603,47.431],[7.615,47.44],[7.627,47.462],[7.626,47.464],[7.623,47.468],[7.608,47.473],[7.615,47.484],[7.623,47.485],[7.65,47.483],[7.654,47.485],[7.656,47.488],[7.656,47.492],[7.664,47.492],[7.707,47.474],[7.71,47.471],[7.713,47.467],[7.709,47.463],[7.704,47.457],[7.701,47.454],[7.697,47.452],[7.693,47.45],[7.69,47.448],[7.688,47.446],[7.687,47.443],[7.687,47.43],[7.684,47.422],[7.675,47.414],[7.671,47.413],[7.647,47.408],[7.638,47.406],[7.637,47.398],[7.638,47.391],[7.64,47.385],[7.645,47.372],[7.649,47.37],[7.654,47.368],[7.689,47.37],[7.714,47.366],[7.735,47.359],[7.745,47.354],[7.752,47.348],[7.759,47.345],[7.765,47.343],[7.786,47.339],[7.79,47.345],[7.805,47.364],[7.818,47.369],[7.839,47.373],[7.846,47.377],[7.871,47.385],[7.873,47.387],[7.876,47.392],[7.882,47.402],[7.887,47.404],[7.895,47.403],[7.908,47.404],[7.929,47.408],[7.948,47.417],[7.954,47.422],[7.953,47.427],[7.95,47.431],[7.947,47.435],[7.945,47.438],[7.945,47.441],[7.95,47.447],[7.955,47.458],[7.97,47.456],[7.979,47.449],[7.981,47.445],[7.981,47.442],[7.98,47.44],[7.981,47.431],[7.988,47.428],[7.992,47.415],[7.997,47.41],[8.006,47.404],[8.015,47.401],[8.028,47.398],[8.029,47.379],[8.022,47.368],[8.01,47.356],[7.997,47.334],[7.989,47.331],[7.982,47.328],[7.918,47.335],[7.909,47.337],[7.902,47.338],[7.857,47.311],[7.855,47.308],[7.83,47.275],[7.823,47.269],[7.788,47.263],[7.779,47.266],[7.759,47.261],[7.732,47.262],[7.72,47.267],[7.686,47.294],[7.65,47.283],[7.583,47.278],[7.598,47.266],[7.599,47.262],[7.602,47.255],[7.603,47.247],[7.621,47.232],[7.64,47.226],[7.656,47.21],[7.67,47.193],[7.675,47.185],[7.677,47.179],[7.675,47.176],[7.673,47.172],[7.669,47.17],[7.66,47.167],[7.654,47.16],[7.643,47.153],[7.637,47.153],[7.591,47.154],[7.565,47.166],[7.553,47.165],[7.539,47.156],[7.513,47.13],[7.499,47.121],[7.472,47.112],[7.469,47.109],[7.469,47.105],[7.474,47.096],[7.475,47.091],[7.475,47.086],[7.471,47.082],[7.465,47.08],[7.446,47.075],[7.438,47.089],[7.437,47.098],[7.435,47.098],[7.426,47.097],[7.398,47.092],[7.394,47.093],[7.388,47.096],[7.382,47.105],[7.379,47.109],[7.376,47.112],[7.375,47.116],[7.376,47.12],[7.38,47.121],[7.391,47.119],[7.397,47.119],[7.408,47.118],[7.412,47.118],[7.43,47.121],[7.438,47.124],[7.438,47.129],[7.436,47.139],[7.438,47.143],[7.444,47.15],[7.455,47.156],[7.459,47.156],[7.464,47.154],[7.47,47.153],[7.477,47.154],[7.488,47.159],[7.491,47.165],[7.488,47.168],[7.483,47.171],[7.48,47.173],[7.478,47.178],[7.476,47.191],[7.46,47.189],[7.455,47.187],[7.448,47.183],[7.439,47.181],[7.434,47.177],[7.425,47.171],[7.417,47.165],[7.409,47.162],[7.399,47.16],[7.393,47.161],[7.39,47.162],[7.391,47.165],[7.391,47.167],[7.391,47.17],[7.384,47.181],[7.381,47.184],[7.377,47.187],[7.366,47.19],[7.361,47.192],[7.358,47.194],[7.355,47.2],[7.351,47.204],[7.346,47.212],[7.349,47.217],[7.424,47.239],[7.421,47.247],[7.442,47.259],[7.465,47.265],[7.474,47.27],[7.485,47.279],[7.494,47.284],[7.501,47.286],[7.533,47.294],[7.543,47.298],[7.549,47.303],[7.556,47.318],[7.559,47.321]]]]}},{"type":"Feature","id":"CH-SZ","properties":{"id":"CH-SZ","countryCode":"CH","isoSubdivision":"CH-SZ","name":"Schwyz","name_en":"Schwyz","name_ko":"슈비츠","type":"Canton","labelLongitude":8.686,"labelLatitude":47.046,"minZoom":8.7},"geometry":{"type":"Polygon","coordinates":[[[8.66,46.946],[8.652,46.947],[8.631,46.952],[8.622,46.954],[8.617,46.955],[8.609,46.96],[8.605,46.969],[8.601,46.983],[8.6,46.986],[8.595,46.988],[8.591,46.989],[8.562,46.988],[8.49,46.982],[8.465,46.993],[8.498,47.005],[8.501,47.01],[8.505,47.018],[8.502,47.023],[8.498,47.027],[8.46,47.051],[8.42,47.058],[8.404,47.053],[8.393,47.057],[8.388,47.062],[8.386,47.068],[8.388,47.071],[8.397,47.077],[8.4,47.081],[8.402,47.084],[8.402,47.09],[8.403,47.093],[8.406,47.097],[8.412,47.101],[8.442,47.113],[8.453,47.119],[8.463,47.122],[8.47,47.12],[8.48,47.12],[8.498,47.093],[8.549,47.096],[8.555,47.095],[8.559,47.093],[8.567,47.087],[8.576,47.087],[8.588,47.089],[8.611,47.095],[8.624,47.096],[8.638,47.1],[8.649,47.106],[8.677,47.129],[8.684,47.144],[8.702,47.157],[8.683,47.165],[8.682,47.171],[8.676,47.176],[8.675,47.178],[8.675,47.181],[8.676,47.184],[8.677,47.187],[8.683,47.191],[8.693,47.198],[8.732,47.215],[8.775,47.221],[8.83,47.214],[8.924,47.22],[8.955,47.214],[8.953,47.204],[8.952,47.198],[8.952,47.196],[8.958,47.187],[8.985,47.169],[8.966,47.127],[8.966,47.121],[8.963,47.11],[8.961,47.106],[8.956,47.101],[8.958,47.087],[8.957,47.08],[8.947,47.066],[8.94,47.058],[8.931,47.051],[8.906,47.043],[8.895,47.038],[8.89,47.026],[8.904,47.018],[8.932,46.99],[8.932,46.988],[8.929,46.985],[8.93,46.982],[8.934,46.977],[8.939,46.973],[8.955,46.966],[8.959,46.961],[8.96,46.955],[8.956,46.942],[8.952,46.93],[8.93,46.922],[8.885,46.905],[8.881,46.904],[8.856,46.896],[8.849,46.891],[8.845,46.89],[8.841,46.892],[8.839,46.898],[8.838,46.909],[8.835,46.912],[8.829,46.912],[8.823,46.917],[8.82,46.92],[8.82,46.925],[8.82,46.929],[8.818,46.933],[8.811,46.935],[8.782,46.935],[8.773,46.936],[8.766,46.939],[8.761,46.941],[8.754,46.94],[8.742,46.936],[8.735,46.934],[8.725,46.931],[8.715,46.925],[8.708,46.923],[8.702,46.924],[8.695,46.932],[8.69,46.943],[8.687,46.946],[8.682,46.947],[8.66,46.946]]]}},{"type":"Feature","id":"CH-TG","properties":{"id":"CH-TG","countryCode":"CH","isoSubdivision":"CH-TG","name":"Thurgau","name_en":"Thurgau","name_ko":"투르가우","type":"Canton","labelLongitude":9.146,"labelLatitude":47.586,"minZoom":8.7},"geometry":{"type":"Polygon","coordinates":[[[8.852,47.671],[8.853,47.671],[8.882,47.656],[8.906,47.652],[8.945,47.654],[8.982,47.662],[8.998,47.674],[9.017,47.679],[9.128,47.67],[9.183,47.67],[9.197,47.656],[9.234,47.656],[9.273,47.65],[9.547,47.535],[9.553,47.517],[9.473,47.499],[9.464,47.497],[9.46,47.496],[9.456,47.497],[9.446,47.5],[9.445,47.502],[9.444,47.503],[9.448,47.512],[9.438,47.517],[9.387,47.491],[9.38,47.481],[9.374,47.483],[9.365,47.488],[9.343,47.508],[9.341,47.512],[9.344,47.518],[9.344,47.521],[9.344,47.525],[9.335,47.535],[9.321,47.535],[9.316,47.534],[9.311,47.533],[9.306,47.529],[9.303,47.529],[9.295,47.528],[9.289,47.528],[9.283,47.526],[9.279,47.524],[9.276,47.521],[9.274,47.52],[9.272,47.52],[9.27,47.521],[9.268,47.521],[9.266,47.519],[9.266,47.517],[9.27,47.515],[9.281,47.514],[9.287,47.515],[9.292,47.516],[9.297,47.516],[9.3,47.516],[9.305,47.501],[9.301,47.493],[9.299,47.49],[9.295,47.486],[9.29,47.483],[9.283,47.482],[9.275,47.483],[9.269,47.483],[9.26,47.48],[9.256,47.477],[9.238,47.479],[9.199,47.485],[9.166,47.496],[9.151,47.508],[9.142,47.497],[9.138,47.493],[9.13,47.49],[9.113,47.488],[9.101,47.488],[9.088,47.49],[9.084,47.49],[9.076,47.489],[9.073,47.49],[9.07,47.491],[9.068,47.494],[9.066,47.496],[9.062,47.496],[9.045,47.494],[9.039,47.494],[9.031,47.496],[9.028,47.496],[9.019,47.49],[9.015,47.489],[9.01,47.488],[9.004,47.486],[9,47.482],[9.001,47.477],[9.003,47.474],[9.031,47.46],[9.031,47.457],[9.033,47.446],[9.032,47.443],[9.03,47.44],[9.027,47.439],[9.02,47.438],[9.014,47.437],[9.009,47.436],[9.005,47.434],[9.001,47.434],[8.997,47.434],[8.994,47.435],[8.989,47.433],[8.985,47.43],[8.974,47.413],[8.964,47.405],[8.951,47.388],[8.942,47.38],[8.932,47.38],[8.893,47.409],[8.9,47.416],[8.902,47.419],[8.904,47.423],[8.906,47.43],[8.911,47.435],[8.911,47.436],[8.903,47.439],[8.893,47.446],[8.889,47.467],[8.879,47.471],[8.877,47.474],[8.874,47.48],[8.875,47.483],[8.875,47.485],[8.877,47.486],[8.882,47.488],[8.884,47.49],[8.886,47.492],[8.886,47.494],[8.886,47.495],[8.885,47.497],[8.884,47.498],[8.885,47.501],[8.891,47.522],[8.891,47.525],[8.888,47.528],[8.881,47.532],[8.852,47.54],[8.842,47.544],[8.836,47.549],[8.832,47.558],[8.837,47.564],[8.839,47.566],[8.833,47.572],[8.828,47.576],[8.764,47.597],[8.752,47.6],[8.743,47.607],[8.739,47.611],[8.739,47.613],[8.741,47.615],[8.747,47.618],[8.754,47.62],[8.762,47.619],[8.776,47.614],[8.781,47.61],[8.786,47.608],[8.79,47.608],[8.793,47.608],[8.8,47.615],[8.808,47.622],[8.816,47.632],[8.82,47.636],[8.822,47.641],[8.82,47.645],[8.809,47.654],[8.805,47.667],[8.789,47.663],[8.8,47.682],[8.801,47.682],[8.81,47.679],[8.822,47.682],[8.852,47.671]]]}},{"type":"Feature","id":"CH-TI","properties":{"id":"CH-TI","countryCode":"CH","isoSubdivision":"CH-TI","name":"Ticino","name_en":"Ticino","name_ko":"티치노","type":"Canton","labelLongitude":8.79,"labelLatitude":46.36,"minZoom":8.7},"geometry":{"type":"Polygon","coordinates":[[[8.729,46.108],[8.724,46.11],[8.718,46.108],[8.702,46.098],[8.695,46.095],[8.677,46.096],[8.631,46.115],[8.612,46.119],[8.602,46.123],[8.539,46.188],[8.51,46.208],[8.483,46.218],[8.457,46.225],[8.438,46.235],[8.427,46.251],[8.423,46.276],[8.427,46.302],[8.443,46.353],[8.446,46.382],[8.446,46.412],[8.442,46.435],[8.428,46.449],[8.399,46.452],[8.386,46.45],[8.386,46.451],[8.386,46.455],[8.385,46.462],[8.387,46.469],[8.391,46.476],[8.396,46.482],[8.397,46.485],[8.397,46.487],[8.395,46.488],[8.396,46.491],[8.399,46.493],[8.408,46.495],[8.431,46.497],[8.448,46.505],[8.477,46.532],[8.51,46.551],[8.512,46.556],[8.516,46.563],[8.524,46.579],[8.526,46.581],[8.53,46.583],[8.537,46.585],[8.549,46.585],[8.636,46.571],[8.678,46.584],[8.711,46.573],[8.788,46.568],[8.847,46.575],[8.898,46.589],[8.908,46.594],[8.91,46.597],[8.909,46.601],[8.907,46.604],[8.906,46.608],[8.908,46.613],[8.915,46.62],[8.922,46.623],[8.93,46.625],[8.939,46.627],[8.947,46.632],[8.953,46.632],[8.956,46.631],[8.957,46.625],[8.96,46.62],[8.965,46.615],[8.999,46.613],[9.004,46.611],[9.011,46.608],[9.022,46.605],[9.035,46.596],[9.038,46.594],[9.038,46.591],[9.036,46.587],[9.029,46.577],[9.026,46.571],[9.023,46.564],[9.021,46.558],[9.019,46.546],[9.018,46.541],[9.016,46.537],[9.015,46.533],[9.021,46.514],[9.024,46.509],[9.027,46.504],[9.038,46.492],[9.049,46.481],[9.056,46.479],[9.058,46.48],[9.062,46.481],[9.077,46.482],[9.089,46.467],[9.089,46.461],[9.089,46.453],[9.087,46.442],[9.088,46.434],[9.092,46.427],[9.097,46.42],[9.098,46.416],[9.095,46.412],[9.092,46.402],[9.088,46.394],[9.089,46.364],[9.086,46.357],[9.07,46.337],[9.068,46.33],[9.069,46.323],[9.071,46.317],[9.069,46.312],[9.065,46.306],[9.057,46.299],[9.057,46.295],[9.058,46.29],[9.066,46.276],[9.077,46.262],[9.077,46.258],[9.077,46.253],[9.075,46.24],[9.076,46.235],[9.08,46.23],[9.088,46.221],[9.094,46.216],[9.111,46.208],[9.132,46.191],[9.14,46.185],[9.163,46.173],[9.164,46.173],[9.163,46.172],[9.091,46.138],[9.072,46.119],[9.068,46.106],[9.07,46.083],[9.067,46.071],[9.059,46.062],[9.05,46.058],[9.028,46.053],[9.002,46.039],[8.998,46.028],[9.016,45.993],[8.983,45.972],[8.981,45.969],[8.98,45.967],[8.981,45.964],[8.983,45.962],[8.993,45.954],[9.002,45.936],[9.011,45.927],[9.021,45.923],[9.042,45.92],[9.052,45.916],[9.063,45.899],[9.059,45.882],[9.034,45.848],[9.002,45.821],[8.972,45.825],[8.94,45.835],[8.909,45.828],[8.9,45.826],[8.904,45.842],[8.91,45.854],[8.914,45.866],[8.912,45.883],[8.907,45.896],[8.898,45.91],[8.881,45.931],[8.871,45.947],[8.864,45.953],[8.858,45.957],[8.8,45.979],[8.785,45.982],[8.768,45.983],[8.77,45.986],[8.773,45.991],[8.791,46.019],[8.82,46.043],[8.834,46.066],[8.809,46.09],[8.794,46.093],[8.763,46.093],[8.747,46.094],[8.739,46.098],[8.732,46.107],[8.729,46.108]]]}},{"type":"Feature","id":"CH-UR","properties":{"id":"CH-UR","countryCode":"CH","isoSubdivision":"CH-UR","name":"Uri","name_en":"Uri","name_ko":"우리","type":"Canton","labelLongitude":8.633,"labelLatitude":46.809,"minZoom":8.7},"geometry":{"type":"Polygon","coordinates":[[[8.591,46.989],[8.595,46.988],[8.6,46.986],[8.601,46.983],[8.605,46.969],[8.609,46.96],[8.617,46.955],[8.622,46.954],[8.631,46.952],[8.652,46.947],[8.66,46.946],[8.682,46.947],[8.687,46.946],[8.69,46.943],[8.695,46.932],[8.702,46.924],[8.708,46.923],[8.715,46.925],[8.725,46.931],[8.735,46.934],[8.742,46.936],[8.754,46.94],[8.761,46.941],[8.766,46.939],[8.773,46.936],[8.782,46.935],[8.811,46.935],[8.818,46.933],[8.82,46.929],[8.82,46.925],[8.82,46.92],[8.823,46.917],[8.829,46.912],[8.835,46.912],[8.838,46.909],[8.839,46.898],[8.841,46.892],[8.845,46.89],[8.849,46.891],[8.856,46.896],[8.881,46.904],[8.885,46.905],[8.93,46.922],[8.944,46.906],[8.946,46.903],[8.948,46.896],[8.949,46.891],[8.948,46.88],[8.944,46.875],[8.937,46.871],[8.916,46.865],[8.911,46.864],[8.908,46.864],[8.905,46.864],[8.902,46.863],[8.898,46.859],[8.872,46.846],[8.87,46.84],[8.871,46.835],[8.872,46.815],[8.861,46.806],[8.85,46.801],[8.843,46.796],[8.836,46.795],[8.828,46.793],[8.826,46.791],[8.826,46.779],[8.825,46.771],[8.816,46.763],[8.808,46.753],[8.807,46.751],[8.806,46.75],[8.807,46.741],[8.804,46.737],[8.8,46.736],[8.785,46.733],[8.781,46.734],[8.766,46.737],[8.749,46.733],[8.739,46.726],[8.716,46.705],[8.706,46.701],[8.696,46.7],[8.679,46.695],[8.673,46.691],[8.669,46.686],[8.669,46.683],[8.67,46.68],[8.67,46.677],[8.668,46.671],[8.661,46.66],[8.654,46.644],[8.653,46.639],[8.654,46.633],[8.656,46.629],[8.659,46.626],[8.662,46.624],[8.667,46.623],[8.671,46.621],[8.673,46.617],[8.679,46.605],[8.681,46.597],[8.678,46.584],[8.636,46.571],[8.549,46.585],[8.537,46.585],[8.53,46.583],[8.526,46.581],[8.524,46.579],[8.516,46.563],[8.512,46.556],[8.51,46.551],[8.477,46.532],[8.437,46.547],[8.422,46.563],[8.412,46.581],[8.409,46.587],[8.408,46.593],[8.409,46.598],[8.416,46.614],[8.419,46.625],[8.421,46.637],[8.422,46.646],[8.42,46.65],[8.418,46.653],[8.409,46.656],[8.406,46.669],[8.402,46.677],[8.402,46.689],[8.406,46.692],[8.413,46.693],[8.429,46.69],[8.437,46.69],[8.445,46.691],[8.448,46.695],[8.449,46.699],[8.451,46.705],[8.451,46.71],[8.45,46.714],[8.448,46.718],[8.448,46.723],[8.446,46.727],[8.441,46.735],[8.438,46.741],[8.437,46.751],[8.438,46.755],[8.446,46.769],[8.479,46.776],[8.481,46.781],[8.482,46.786],[8.48,46.791],[8.479,46.794],[8.478,46.797],[8.475,46.798],[8.473,46.8],[8.471,46.804],[8.475,46.81],[8.477,46.817],[8.483,46.83],[8.488,46.837],[8.496,46.842],[8.499,46.845],[8.5,46.848],[8.499,46.849],[8.498,46.852],[8.495,46.853],[8.487,46.855],[8.483,46.856],[8.473,46.856],[8.468,46.876],[8.47,46.883],[8.469,46.889],[8.466,46.894],[8.459,46.901],[8.459,46.905],[8.462,46.907],[8.478,46.915],[8.529,46.933],[8.541,46.94],[8.545,46.943],[8.548,46.947],[8.562,46.977],[8.563,46.982],[8.562,46.988],[8.591,46.989]]]}},{"type":"Feature","id":"CH-VD","properties":{"id":"CH-VD","countryCode":"CH","isoSubdivision":"CH-VD","name":"Vaud","name_en":"Vaud","name_ko":"보","type":"Canton","labelLongitude":6.512,"labelLatitude":46.62,"minZoom":8.7},"geometry":{"type":"MultiPolygon","coordinates":[[[[6.119,46.332],[6.136,46.359],[6.135,46.37],[6.123,46.386],[6.108,46.396],[6.059,46.417],[6.054,46.419],[6.066,46.427],[6.068,46.434],[6.066,46.44],[6.066,46.448],[6.065,46.451],[6.062,46.455],[6.06,46.46],[6.06,46.465],[6.064,46.471],[6.076,46.48],[6.11,46.521],[6.146,46.552],[6.138,46.558],[6.122,46.57],[6.118,46.583],[6.132,46.596],[6.266,46.68],[6.338,46.707],[6.348,46.713],[6.374,46.734],[6.407,46.746],[6.418,46.751],[6.429,46.761],[6.433,46.769],[6.433,46.786],[6.425,46.792],[6.42,46.797],[6.417,46.802],[6.419,46.807],[6.434,46.84],[6.441,46.848],[6.443,46.851],[6.462,46.854],[6.513,46.855],[6.522,46.857],[6.532,46.86],[6.546,46.868],[6.594,46.885],[6.625,46.892],[6.64,46.899],[6.667,46.915],[6.726,46.939],[6.729,46.927],[6.726,46.917],[6.729,46.911],[6.735,46.906],[6.743,46.901],[6.746,46.896],[6.746,46.891],[6.746,46.881],[6.748,46.875],[6.749,46.87],[6.766,46.845],[6.771,46.819],[6.775,46.812],[6.786,46.804],[6.788,46.803],[6.791,46.803],[6.795,46.803],[6.796,46.802],[6.798,46.8],[6.797,46.798],[6.796,46.796],[6.793,46.794],[6.792,46.791],[6.793,46.79],[6.806,46.786],[6.809,46.786],[6.813,46.785],[6.817,46.785],[6.828,46.781],[6.832,46.78],[6.836,46.78],[6.844,46.781],[6.849,46.784],[6.856,46.786],[6.861,46.786],[6.868,46.787],[6.872,46.786],[6.877,46.783],[6.882,46.782],[6.886,46.781],[6.9,46.781],[6.905,46.781],[6.913,46.783],[6.915,46.784],[6.919,46.786],[6.926,46.798],[6.93,46.803],[6.93,46.805],[6.928,46.806],[6.922,46.807],[6.915,46.805],[6.913,46.806],[6.911,46.808],[6.915,46.829],[6.916,46.832],[6.917,46.836],[6.919,46.839],[6.924,46.845],[6.93,46.852],[6.93,46.855],[6.927,46.858],[6.916,46.864],[6.91,46.866],[6.906,46.867],[6.902,46.866],[6.901,46.867],[6.903,46.87],[6.906,46.872],[6.909,46.873],[6.916,46.875],[6.918,46.875],[6.92,46.874],[6.922,46.872],[6.924,46.872],[6.921,46.875],[6.917,46.879],[6.875,46.907],[6.907,46.925],[6.938,46.896],[6.942,46.894],[6.947,46.89],[6.964,46.874],[6.966,46.873],[6.969,46.873],[6.97,46.873],[6.971,46.875],[6.971,46.877],[6.971,46.879],[6.973,46.88],[6.976,46.881],[6.98,46.882],[6.982,46.882],[6.985,46.881],[6.987,46.879],[6.989,46.876],[6.99,46.872],[6.987,46.868],[6.985,46.863],[6.985,46.859],[6.988,46.85],[6.991,46.846],[6.994,46.844],[6.999,46.846],[7,46.845],[7.001,46.844],[7.001,46.841],[6.997,46.837],[6.987,46.829],[6.981,46.826],[6.977,46.823],[6.973,46.819],[6.968,46.809],[6.969,46.795],[6.942,46.768],[6.938,46.765],[6.934,46.763],[6.921,46.761],[6.92,46.759],[6.923,46.755],[6.926,46.753],[6.93,46.752],[6.943,46.75],[6.944,46.749],[6.94,46.741],[6.911,46.714],[6.876,46.679],[6.871,46.669],[6.87,46.667],[6.872,46.665],[6.872,46.664],[6.87,46.663],[6.864,46.662],[6.849,46.662],[6.837,46.66],[6.821,46.652],[6.809,46.651],[6.807,46.641],[6.806,46.636],[6.806,46.625],[6.808,46.614],[6.809,46.608],[6.81,46.603],[6.809,46.601],[6.807,46.6],[6.806,46.599],[6.806,46.596],[6.807,46.594],[6.807,46.59],[6.806,46.585],[6.806,46.582],[6.807,46.581],[6.816,46.583],[6.82,46.584],[6.826,46.584],[6.834,46.58],[6.849,46.581],[6.86,46.583],[6.864,46.582],[6.869,46.58],[6.88,46.572],[6.887,46.569],[6.892,46.568],[6.899,46.57],[6.903,46.57],[6.905,46.569],[6.903,46.567],[6.898,46.561],[6.873,46.542],[6.87,46.539],[6.867,46.537],[6.854,46.542],[6.852,46.543],[6.844,46.544],[6.831,46.543],[6.828,46.543],[6.82,46.531],[6.827,46.517],[6.838,46.506],[6.842,46.505],[6.85,46.504],[6.864,46.505],[6.873,46.508],[6.88,46.512],[6.895,46.523],[6.906,46.523],[6.919,46.519],[6.975,46.49],[6.981,46.479],[6.985,46.468],[6.986,46.464],[6.987,46.459],[6.991,46.455],[6.994,46.451],[6.996,46.447],[6.999,46.446],[7,46.445],[7.024,46.452],[7.028,46.461],[7.029,46.464],[7.033,46.467],[7.042,46.475],[7.06,46.485],[7.066,46.488],[7.074,46.49],[7.103,46.492],[7.112,46.496],[7.122,46.502],[7.138,46.515],[7.145,46.522],[7.155,46.528],[7.213,46.54],[7.243,46.556],[7.247,46.547],[7.249,46.545],[7.252,46.542],[7.254,46.539],[7.254,46.534],[7.254,46.527],[7.254,46.521],[7.253,46.513],[7.25,46.505],[7.242,46.495],[7.237,46.49],[7.234,46.486],[7.233,46.482],[7.236,46.469],[7.235,46.463],[7.232,46.456],[7.222,46.447],[7.206,46.441],[7.203,46.437],[7.206,46.429],[7.21,46.422],[7.212,46.414],[7.212,46.409],[7.2,46.385],[7.21,46.379],[7.225,46.369],[7.231,46.367],[7.233,46.364],[7.234,46.361],[7.229,46.355],[7.227,46.352],[7.228,46.331],[7.216,46.322],[7.198,46.309],[7.198,46.306],[7.2,46.292],[7.196,46.285],[7.184,46.271],[7.17,46.257],[7.151,46.244],[7.14,46.24],[7.116,46.22],[7.083,46.205],[7.045,46.19],[7.033,46.2],[7.026,46.21],[7.004,46.231],[6.94,46.308],[6.935,46.317],[6.931,46.334],[6.92,46.34],[6.907,46.342],[6.894,46.348],[6.891,46.356],[6.892,46.363],[6.894,46.37],[6.894,46.375],[6.888,46.383],[6.873,46.395],[6.867,46.403],[6.855,46.398],[6.807,46.404],[6.788,46.405],[6.787,46.414],[6.778,46.424],[6.763,46.429],[6.614,46.456],[6.547,46.457],[6.483,46.449],[6.398,46.408],[6.365,46.402],[6.332,46.401],[6.302,46.394],[6.269,46.375],[6.241,46.349],[6.219,46.329],[6.214,46.315],[6.217,46.31],[6.174,46.3],[6.128,46.326],[6.119,46.332]],[[6.773,46.719],[6.779,46.723],[6.784,46.726],[6.792,46.733],[6.793,46.74],[6.793,46.748],[6.787,46.752],[6.78,46.752],[6.772,46.746],[6.765,46.74],[6.759,46.74],[6.756,46.735],[6.76,46.73],[6.765,46.727],[6.768,46.721],[6.773,46.719]],[[6.863,46.727],[6.87,46.73],[6.878,46.735],[6.885,46.744],[6.889,46.752],[6.884,46.759],[6.875,46.763],[6.869,46.764],[6.865,46.769],[6.86,46.773],[6.855,46.771],[6.85,46.767],[6.844,46.76],[6.838,46.757],[6.829,46.749],[6.825,46.742],[6.814,46.739],[6.807,46.736],[6.801,46.733],[6.798,46.73],[6.8,46.726],[6.807,46.726],[6.815,46.727],[6.826,46.735],[6.834,46.736],[6.846,46.732],[6.854,46.73],[6.863,46.727]]],[[[7.021,46.99],[7.062,46.978],[7.069,46.945],[7.073,46.937],[7.094,46.908],[7.097,46.906],[7.1,46.905],[7.106,46.903],[7.107,46.901],[7.105,46.898],[7.097,46.892],[7.095,46.892],[7.093,46.892],[7.09,46.895],[7.088,46.895],[7.084,46.895],[7.081,46.892],[7.077,46.887],[7.075,46.878],[7.073,46.873],[7.07,46.869],[7.068,46.866],[7.059,46.859],[7.041,46.852],[7.04,46.855],[7.039,46.862],[7.025,46.876],[7.014,46.88],[7.009,46.887],[6.946,46.947],[7.021,46.99]]]]}},{"type":"Feature","id":"CH-VS","properties":{"id":"CH-VS","countryCode":"CH","isoSubdivision":"CH-VS","name":"Valais","name_en":"Valais","name_ko":"발레","type":"Canton","labelLongitude":7.613,"labelLatitude":46.202,"minZoom":8.7},"geometry":{"type":"Polygon","coordinates":[[[7.85,45.94],[7.848,45.938],[7.845,45.928],[7.846,45.923],[7.844,45.919],[7.831,45.914],[7.825,45.915],[7.808,45.918],[7.78,45.918],[7.732,45.93],[7.722,45.93],[7.715,45.927],[7.706,45.926],[7.694,45.929],[7.693,45.931],[7.674,45.95],[7.659,45.96],[7.643,45.966],[7.541,45.984],[7.524,45.978],[7.515,45.967],[7.504,45.957],[7.483,45.955],[7.453,45.946],[7.394,45.916],[7.362,45.908],[7.287,45.913],[7.274,45.91],[7.245,45.898],[7.184,45.88],[7.154,45.877],[7.121,45.876],[7.09,45.881],[7.067,45.89],[7.022,45.925],[7.015,45.933],[7.01,45.943],[7.003,45.962],[6.991,45.982],[6.988,45.993],[6.983,45.995],[6.915,46.049],[6.892,46.056],[6.884,46.053],[6.877,46.048],[6.869,46.044],[6.86,46.045],[6.851,46.05],[6.85,46.053],[6.852,46.057],[6.852,46.065],[6.853,46.066],[6.853,46.076],[6.851,46.086],[6.849,46.085],[6.853,46.09],[6.861,46.097],[6.868,46.105],[6.869,46.112],[6.854,46.123],[6.774,46.135],[6.766,46.152],[6.775,46.186],[6.792,46.222],[6.828,46.269],[6.805,46.297],[6.769,46.323],[6.75,46.346],[6.756,46.357],[6.782,46.378],[6.789,46.395],[6.788,46.405],[6.807,46.404],[6.855,46.398],[6.867,46.403],[6.873,46.395],[6.888,46.383],[6.894,46.375],[6.894,46.37],[6.892,46.363],[6.891,46.356],[6.894,46.348],[6.907,46.342],[6.92,46.34],[6.931,46.334],[6.935,46.317],[6.94,46.308],[7.004,46.231],[7.026,46.21],[7.033,46.2],[7.045,46.19],[7.083,46.205],[7.116,46.22],[7.14,46.24],[7.151,46.244],[7.17,46.257],[7.184,46.271],[7.196,46.285],[7.2,46.292],[7.198,46.306],[7.198,46.309],[7.216,46.322],[7.228,46.331],[7.263,46.346],[7.27,46.355],[7.271,46.358],[7.271,46.361],[7.273,46.363],[7.276,46.364],[7.308,46.372],[7.314,46.372],[7.317,46.369],[7.318,46.362],[7.317,46.357],[7.317,46.354],[7.318,46.352],[7.324,46.351],[7.33,46.349],[7.367,46.357],[7.39,46.368],[7.4,46.376],[7.402,46.378],[7.404,46.379],[7.419,46.381],[7.462,46.381],[7.486,46.376],[7.489,46.375],[7.495,46.374],[7.501,46.374],[7.51,46.376],[7.545,46.386],[7.56,46.395],[7.547,46.4],[7.541,46.406],[7.564,46.416],[7.598,46.423],[7.601,46.425],[7.612,46.431],[7.614,46.433],[7.615,46.437],[7.617,46.44],[7.62,46.442],[7.624,46.443],[7.645,46.441],[7.711,46.419],[7.723,46.42],[7.845,46.481],[7.857,46.479],[7.872,46.479],[7.881,46.48],[7.902,46.486],[7.939,46.504],[7.966,46.516],[7.969,46.519],[7.973,46.524],[7.973,46.527],[7.971,46.53],[7.969,46.533],[7.967,46.536],[7.965,46.539],[7.965,46.54],[7.967,46.541],[7.97,46.544],[8.003,46.557],[8.029,46.558],[8.114,46.547],[8.123,46.542],[8.147,46.535],[8.173,46.533],[8.175,46.532],[8.175,46.53],[8.175,46.528],[8.176,46.525],[8.179,46.523],[8.184,46.522],[8.19,46.522],[8.242,46.529],[8.266,46.535],[8.312,46.553],[8.323,46.559],[8.339,46.566],[8.349,46.573],[8.354,46.579],[8.358,46.584],[8.364,46.606],[8.37,46.622],[8.374,46.63],[8.38,46.638],[8.399,46.655],[8.409,46.656],[8.418,46.653],[8.42,46.65],[8.422,46.646],[8.421,46.637],[8.419,46.625],[8.416,46.614],[8.409,46.598],[8.408,46.593],[8.409,46.587],[8.412,46.581],[8.422,46.563],[8.437,46.547],[8.477,46.532],[8.448,46.505],[8.431,46.497],[8.408,46.495],[8.399,46.493],[8.396,46.491],[8.395,46.488],[8.397,46.487],[8.397,46.485],[8.396,46.482],[8.391,46.476],[8.387,46.469],[8.385,46.462],[8.386,46.455],[8.386,46.451],[8.386,46.45],[8.343,46.444],[8.316,46.434],[8.295,46.418],[8.287,46.405],[8.29,46.401],[8.297,46.398],[8.297,46.388],[8.291,46.378],[8.282,46.37],[8.27,46.364],[8.242,46.354],[8.193,46.309],[8.172,46.299],[8.128,46.292],[8.107,46.286],[8.087,46.272],[8.077,46.262],[8.073,46.254],[8.077,46.25],[8.1,46.236],[8.13,46.196],[8.132,46.159],[8.111,46.127],[8.067,46.101],[8.056,46.098],[8.035,46.097],[8.025,46.091],[8.018,46.081],[8.016,46.069],[8.016,46.058],[8.011,46.03],[8.009,46.028],[7.999,46.013],[7.998,46.011],[7.986,45.999],[7.979,45.995],[7.969,45.993],[7.898,45.982],[7.884,45.974],[7.873,45.959],[7.87,45.94],[7.85,45.94]]]}},{"type":"Feature","id":"CH-ZG","properties":{"id":"CH-ZG","countryCode":"CH","isoSubdivision":"CH-ZG","name":"Zug","name_en":"Zug","name_ko":"추크","type":"Canton","labelLongitude":8.547,"labelLatitude":47.158,"minZoom":8.7},"geometry":{"type":"Polygon","coordinates":[[[8.442,47.113],[8.437,47.124],[8.435,47.125],[8.431,47.126],[8.426,47.127],[8.418,47.129],[8.406,47.142],[8.398,47.177],[8.393,47.22],[8.394,47.226],[8.394,47.228],[8.407,47.246],[8.412,47.235],[8.413,47.231],[8.416,47.227],[8.423,47.224],[8.462,47.215],[8.474,47.213],[8.485,47.214],[8.503,47.218],[8.532,47.222],[8.571,47.217],[8.589,47.204],[8.606,47.194],[8.618,47.184],[8.62,47.18],[8.624,47.176],[8.632,47.172],[8.661,47.163],[8.683,47.165],[8.702,47.157],[8.684,47.144],[8.677,47.129],[8.649,47.106],[8.638,47.1],[8.624,47.096],[8.611,47.095],[8.588,47.089],[8.576,47.087],[8.567,47.087],[8.559,47.093],[8.555,47.095],[8.549,47.096],[8.498,47.093],[8.48,47.12],[8.47,47.12],[8.463,47.122],[8.453,47.119],[8.442,47.113]]]}},{"type":"Feature","id":"CH-ZH","properties":{"id":"CH-ZH","countryCode":"CH","isoSubdivision":"CH-ZH","name":"Zürich","name_en":"Zürich","name_ko":"취리히","type":"Canton","labelLongitude":8.661,"labelLatitude":47.43,"minZoom":8.7},"geometry":{"type":"Polygon","coordinates":[[[8.602,47.633],[8.607,47.656],[8.598,47.657],[8.594,47.658],[8.608,47.671],[8.625,47.682],[8.632,47.691],[8.64,47.696],[8.683,47.696],[8.68,47.68],[8.682,47.664],[8.686,47.659],[8.692,47.652],[8.699,47.649],[8.708,47.647],[8.749,47.646],[8.755,47.648],[8.759,47.65],[8.764,47.653],[8.766,47.654],[8.769,47.655],[8.773,47.655],[8.778,47.655],[8.782,47.657],[8.786,47.661],[8.789,47.663],[8.805,47.667],[8.809,47.654],[8.82,47.645],[8.822,47.641],[8.82,47.636],[8.816,47.632],[8.808,47.622],[8.8,47.615],[8.793,47.608],[8.79,47.608],[8.786,47.608],[8.781,47.61],[8.776,47.614],[8.762,47.619],[8.754,47.62],[8.747,47.618],[8.741,47.615],[8.739,47.613],[8.739,47.611],[8.743,47.607],[8.752,47.6],[8.764,47.597],[8.828,47.576],[8.833,47.572],[8.839,47.566],[8.837,47.564],[8.832,47.558],[8.836,47.549],[8.842,47.544],[8.852,47.54],[8.881,47.532],[8.888,47.528],[8.891,47.525],[8.891,47.522],[8.885,47.501],[8.884,47.498],[8.885,47.497],[8.886,47.495],[8.886,47.494],[8.886,47.492],[8.884,47.49],[8.882,47.488],[8.877,47.486],[8.875,47.485],[8.875,47.483],[8.874,47.48],[8.877,47.474],[8.879,47.471],[8.889,47.467],[8.893,47.446],[8.903,47.439],[8.911,47.436],[8.911,47.435],[8.906,47.43],[8.904,47.423],[8.902,47.419],[8.9,47.416],[8.893,47.409],[8.932,47.38],[8.937,47.376],[8.96,47.346],[8.966,47.325],[8.969,47.317],[8.966,47.313],[8.96,47.308],[8.947,47.301],[8.94,47.294],[8.934,47.288],[8.935,47.28],[8.93,47.275],[8.921,47.269],[8.862,47.25],[8.849,47.25],[8.808,47.254],[8.789,47.244],[8.775,47.221],[8.732,47.215],[8.693,47.198],[8.683,47.191],[8.677,47.187],[8.676,47.184],[8.675,47.181],[8.675,47.178],[8.676,47.176],[8.682,47.171],[8.683,47.165],[8.661,47.163],[8.632,47.172],[8.624,47.176],[8.62,47.18],[8.618,47.184],[8.606,47.194],[8.589,47.204],[8.571,47.217],[8.532,47.222],[8.503,47.218],[8.485,47.214],[8.474,47.213],[8.462,47.215],[8.423,47.224],[8.416,47.227],[8.413,47.231],[8.412,47.235],[8.407,47.246],[8.385,47.278],[8.382,47.286],[8.385,47.287],[8.388,47.287],[8.391,47.287],[8.398,47.289],[8.415,47.296],[8.434,47.312],[8.443,47.323],[8.446,47.333],[8.416,47.326],[8.404,47.335],[8.402,47.339],[8.401,47.342],[8.401,47.345],[8.403,47.356],[8.404,47.363],[8.399,47.366],[8.38,47.373],[8.374,47.376],[8.371,47.378],[8.373,47.384],[8.399,47.402],[8.404,47.41],[8.401,47.414],[8.387,47.426],[8.38,47.442],[8.358,47.474],[8.353,47.488],[8.353,47.498],[8.358,47.517],[8.375,47.535],[8.396,47.55],[8.419,47.575],[8.421,47.581],[8.449,47.584],[8.45,47.589],[8.462,47.606],[8.492,47.62],[8.522,47.622],[8.538,47.612],[8.55,47.599],[8.552,47.597],[8.53,47.583],[8.529,47.575],[8.534,47.574],[8.54,47.569],[8.543,47.567],[8.546,47.564],[8.549,47.561],[8.553,47.561],[8.556,47.561],[8.564,47.569],[8.577,47.592],[8.576,47.595],[8.581,47.6],[8.582,47.608],[8.581,47.615],[8.583,47.622],[8.582,47.625],[8.58,47.629],[8.578,47.633],[8.58,47.639],[8.584,47.641],[8.589,47.642],[8.594,47.643],[8.594,47.641],[8.595,47.635],[8.602,47.633]]]}}]}
