{"type":"FeatureCollection","features":[{"type":"Feature","id":"CK-X01~","properties":{"id":"CK-X01~","countryCode":"CK","isoSubdivision":"CK-X01~","name":"Atiu","name_en":"Atiu","name_ko":"아티우","type":"Principal subdivision","labelLongitude":-158.089,"labelLatitude":-20.023,"minZoom":11},"geometry":{"type":"MultiPolygon","coordinates":[[[[-158.078,-19.994],[-158.082,-20.013],[-158.097,-20.02],[-158.115,-20.016],[-158.13,-20.001],[-158.135,-19.976],[-158.12,-19.973],[-158.097,-19.982],[-158.078,-19.994]]],[[[-158.268,-19.833],[-158.281,-19.822],[-158.276,-19.823],[-158.273,-19.826],[-158.268,-19.833]]],[[[-158.288,-19.811],[-158.294,-19.817],[-158.297,-19.817],[-158.296,-19.815],[-158.288,-19.811]]]]}},{"type":"Feature","id":"CK-X02~","properties":{"id":"CK-X02~","countryCode":"CK","isoSubdivision":"CK-X02~","name":"Aitutaki","name_en":"Aitutaki","name_ko":"아이투타키","type":"Principal subdivision","labelLongitude":-158.892,"labelLatitude":-19.271,"minZoom":11},"geometry":{"type":"Polygon","coordinates":[[[-158.925,-19.269],[-158.937,-19.264],[-158.95,-19.254],[-158.956,-19.245],[-158.946,-19.242],[-158.941,-19.247],[-158.938,-19.257],[-158.932,-19.264],[-158.918,-19.261],[-158.919,-19.264],[-158.92,-19.266],[-158.925,-19.269]]]}},{"type":"Feature","id":"CK-X03~","properties":{"id":"CK-X03~","countryCode":"CK","isoSubdivision":"CK-X03~","name":"Mangaia","name_en":"Mangaia","name_ko":"망가이아","type":"Principal subdivision","labelLongitude":-157.909,"labelLatitude":-21.937,"minZoom":11},"geometry":{"type":"Polygon","coordinates":[[[-157.935,-21.878],[-157.921,-21.882],[-157.91,-21.892],[-157.89,-21.915],[-157.887,-21.926],[-157.899,-21.934],[-157.915,-21.938],[-157.928,-21.939],[-157.942,-21.937],[-157.953,-21.932],[-157.961,-21.924],[-157.969,-21.912],[-157.964,-21.9],[-157.955,-21.889],[-157.944,-21.88],[-157.935,-21.878]]]}},{"type":"Feature","id":"CK-X04~","properties":{"id":"CK-X04~","countryCode":"CK","isoSubdivision":"CK-X04~","name":"Rarotonga","name_en":"Rarotonga","name_ko":"라로통가","type":"Principal subdivision","labelLongitude":-159.789,"labelLatitude":-21.209,"minZoom":11},"geometry":{"type":"Polygon","coordinates":[[[-159.798,-21.186],[-159.778,-21.187],[-159.758,-21.192],[-159.743,-21.202],[-159.736,-21.217],[-159.736,-21.237],[-159.738,-21.246],[-159.743,-21.254],[-159.771,-21.25],[-159.774,-21.251],[-159.793,-21.242],[-159.833,-21.245],[-159.846,-21.234],[-159.839,-21.226],[-159.833,-21.208],[-159.831,-21.196],[-159.823,-21.189],[-159.798,-21.186]]]}},{"type":"Feature","id":"CK-X05~","properties":{"id":"CK-X05~","countryCode":"CK","isoSubdivision":"CK-X05~","name":"Mitiaro","name_en":"Mitiaro","name_ko":"미티아로","type":"Principal subdivision","labelLongitude":-157.707,"labelLatitude":-19.839,"minZoom":11},"geometry":{"type":"Polygon","coordinates":[[[-157.708,-19.767],[-157.71,-19.788],[-157.707,-19.816],[-157.708,-19.841],[-157.722,-19.856],[-157.722,-19.842],[-157.727,-19.832],[-157.734,-19.826],[-157.74,-19.818],[-157.742,-19.805],[-157.738,-19.797],[-157.716,-19.773],[-157.708,-19.767]]]}},{"type":"Feature","id":"CK-X06~","properties":{"id":"CK-X06~","countryCode":"CK","isoSubdivision":"CK-X06~","name":"Mauke","name_en":"Mauke","name_ko":"마우케","type":"Principal subdivision","labelLongitude":-157.312,"labelLatitude":-20.185,"minZoom":11},"geometry":{"type":"Polygon","coordinates":[[[-157.313,-20.155],[-157.318,-20.172],[-157.329,-20.179],[-157.34,-20.176],[-157.349,-20.161],[-157.349,-20.143],[-157.339,-20.137],[-157.324,-20.142],[-157.313,-20.155]]]}},{"type":"Feature","id":"CK-X07~","properties":{"id":"CK-X07~","countryCode":"CK","isoSubdivision":"CK-X07~","name":"Palmerston Island","name_en":"Palmerston Island","name_ko":"파머스턴","type":"Principal subdivision","labelLongitude":-159.771,"labelLatitude":-18.897,"minZoom":11},"geometry":{"type":"Polygon","coordinates":[[[-159.785,-18.831],[-159.773,-18.829],[-159.762,-18.837],[-159.761,-18.845],[-159.765,-18.842],[-159.767,-18.835],[-159.77,-18.834],[-159.779,-18.853],[-159.78,-18.856],[-159.776,-18.878],[-159.783,-18.888],[-159.794,-18.887],[-159.801,-18.878],[-159.802,-18.866],[-159.798,-18.847],[-159.794,-18.84],[-159.785,-18.831]]]}},{"type":"Feature","id":"CK-X08~","properties":{"id":"CK-X08~","countryCode":"CK","isoSubdivision":"CK-X08~","name":"Pukapuka","name_en":"Pukapuka","name_ko":"푸카푸카","type":"Principal subdivision","labelLongitude":-165.802,"labelLatitude":-10.916,"minZoom":11},"geometry":{"type":"Polygon","coordinates":[[[-165.825,-10.882],[-165.816,-10.88],[-165.812,-10.88],[-165.808,-10.881],[-165.814,-10.889],[-165.819,-10.892],[-165.822,-10.889],[-165.825,-10.882]]]}},{"type":"Feature","id":"CK-X09~","properties":{"id":"CK-X09~","countryCode":"CK","isoSubdivision":"CK-X09~","name":"Rakahanga","name_en":"Rakahanga","name_ko":"라카한가","type":"Principal subdivision","labelLongitude":-161.065,"labelLatitude":-10.064,"minZoom":11},"geometry":{"type":"Polygon","coordinates":[[[-161.088,-10.035],[-161.07,-10.027],[-161.076,-10.036],[-161.087,-10.045],[-161.088,-10.035]]]}},{"type":"Feature","id":"CK-X10~","properties":{"id":"CK-X10~","countryCode":"CK","isoSubdivision":"CK-X10~","name":"Manihiki","name_en":"Manihiki","name_ko":"마니히키","type":"Principal subdivision","labelLongitude":-160.963,"labelLatitude":-10.41,"minZoom":11},"geometry":{"type":"Polygon","coordinates":[[[-160.986,-10.382],[-160.994,-10.375],[-160.996,-10.372],[-160.98,-10.381],[-160.938,-10.423],[-160.986,-10.382]]]}},{"type":"Feature","id":"CK-X11~","properties":{"id":"CK-X11~","countryCode":"CK","isoSubdivision":"CK-X11~","name":"Penrhyn Atoll","name_en":"Penrhyn Atoll","name_ko":"펜린","type":"Principal subdivision","labelLongitude":-157.956,"labelLatitude":-8.996,"minZoom":11},"geometry":{"type":"Polygon","coordinates":[[[-157.941,-8.981],[-157.962,-8.981],[-157.979,-8.976],[-157.997,-8.965],[-158.008,-8.953],[-158.003,-8.947],[-157.941,-8.975],[-157.941,-8.981]]]}}]}
