{"type":"FeatureCollection","features":[{"type":"Feature","id":"CM-AD","properties":{"id":"CM-AD","countryCode":"CM","isoSubdivision":"CM-AD","name":"Adamawa","name_en":"Adamawa","name_ko":"아다마와","type":"Province","labelLongitude":13.217,"labelLatitude":6.805,"minZoom":6.7},"geometry":{"type":"Polygon","coordinates":[[[11.904,7.454],[11.966,7.514],[11.993,7.554],[12.009,7.565],[12.021,7.576],[12.025,7.597],[12.011,7.655],[12.009,7.676],[12.012,7.698],[12.019,7.719],[12.055,7.784],[12.154,7.921],[12.192,7.961],[12.198,7.975],[12.195,7.992],[12.188,8.016],[12.183,8.055],[12.183,8.093],[12.188,8.118],[12.229,8.175],[12.234,8.188],[12.246,8.177],[12.288,8.12],[12.479,7.948],[12.502,7.935],[12.524,7.929],[12.549,7.925],[12.587,7.924],[12.601,7.922],[12.616,7.918],[12.625,7.907],[12.646,7.874],[12.649,7.863],[12.648,7.853],[12.643,7.843],[12.636,7.835],[12.633,7.824],[12.636,7.802],[12.637,7.771],[12.644,7.755],[12.654,7.744],[12.666,7.738],[12.69,7.728],[12.703,7.725],[12.713,7.724],[12.738,7.711],[12.755,7.696],[12.836,7.673],[12.996,7.649],[13.01,7.645],[13.096,7.6],[13.111,7.596],[13.125,7.595],[13.148,7.599],[13.171,7.606],[13.199,7.61],[13.252,7.608],[13.259,7.619],[13.262,7.659],[13.264,7.672],[13.267,7.68],[13.277,7.691],[13.284,7.702],[13.295,7.708],[13.365,7.693],[13.393,7.673],[13.403,7.66],[13.419,7.645],[13.436,7.636],[13.459,7.627],[13.511,7.592],[13.525,7.59],[13.535,7.594],[13.548,7.608],[13.558,7.615],[13.593,7.628],[13.604,7.633],[13.629,7.647],[13.642,7.653],[13.66,7.657],[13.675,7.656],[13.699,7.647],[13.711,7.646],[13.723,7.647],[13.837,7.674],[13.859,7.675],[13.872,7.673],[13.884,7.661],[13.885,7.617],[13.893,7.608],[13.903,7.599],[13.93,7.592],[14.104,7.574],[14.113,7.569],[14.121,7.561],[14.129,7.525],[14.133,7.514],[14.139,7.506],[14.144,7.5],[14.186,7.468],[14.196,7.457],[14.202,7.449],[14.204,7.433],[14.224,7.4],[14.277,7.344],[14.295,7.33],[14.307,7.323],[14.322,7.311],[14.337,7.278],[14.34,7.224],[14.338,7.211],[14.335,7.198],[14.337,7.183],[14.345,7.173],[14.356,7.167],[14.368,7.165],[14.393,7.164],[14.465,7.171],[14.479,7.169],[14.492,7.165],[14.508,7.155],[14.52,7.142],[14.529,7.126],[14.535,7.113],[14.56,7.077],[14.621,7.065],[14.636,7.042],[14.644,7.036],[14.657,7.028],[14.669,7.025],[14.681,7.024],[14.692,7.026],[14.704,7.029],[14.716,7.034],[14.728,7.04],[14.802,7.085],[15.011,7.176],[15.026,7.181],[15.043,7.183],[15.058,7.183],[15.081,7.186],[15.097,7.191],[15.111,7.2],[15.173,7.254],[15.195,7.267],[15.211,7.272],[15.224,7.274],[15.236,7.271],[15.244,7.268],[15.246,7.267],[15.247,7.267],[15.224,7.248],[15.205,7.2],[15.191,7.177],[15.187,7.166],[15.185,7.157],[15.19,7.099],[15.188,7.089],[15.179,7.078],[15.156,7.068],[15.147,7.062],[15.136,7.045],[15.129,7.026],[15.113,6.965],[15.08,6.878],[15.059,6.836],[15.042,6.791],[15.035,6.777],[15.022,6.767],[14.962,6.737],[14.946,6.726],[14.932,6.71],[14.922,6.686],[14.807,6.428],[14.782,6.394],[14.78,6.382],[14.784,6.359],[14.785,6.348],[14.782,6.337],[14.772,6.318],[14.735,6.27],[14.719,6.258],[14.576,6.19],[14.535,6.19],[14.526,6.174],[14.511,6.155],[14.482,6.127],[14.467,6.123],[14.444,6.1],[14.431,6.088],[14.432,6.085],[14.433,6.079],[14.432,6.079],[14.43,6.08],[14.409,6.09],[14.392,6.112],[14.383,6.115],[14.373,6.113],[14.366,6.107],[14.362,6.101],[14.357,6.093],[14.351,6.085],[14.338,6.08],[14.287,6.077],[14.192,6.053],[14.139,6.046],[14.057,6.035],[14.04,6.038],[13.99,6.056],[13.973,6.057],[13.958,6.054],[13.854,6.015],[13.762,6.003],[13.368,6],[12.883,6],[12.626,6],[12.523,6.002],[12.499,6.012],[12.496,6.019],[12.488,6.028],[12.471,6.047],[12.467,6.053],[12.464,6.061],[12.462,6.071],[12.457,6.082],[12.45,6.093],[12.44,6.103],[12.312,6.196],[12.295,6.202],[12.275,6.206],[12.238,6.206],[12.217,6.202],[12.201,6.195],[12.177,6.181],[12.166,6.175],[12.155,6.171],[12.143,6.169],[12.121,6.168],[12.095,6.17],[12.078,6.175],[12.065,6.179],[12.041,6.192],[12.019,6.208],[11.986,6.244],[11.981,6.251],[11.975,6.259],[11.948,6.257],[11.938,6.253],[11.937,6.249],[11.938,6.235],[11.938,6.232],[11.929,6.229],[11.925,6.232],[11.922,6.237],[11.914,6.239],[11.905,6.235],[11.892,6.216],[11.88,6.212],[11.866,6.21],[11.859,6.206],[11.855,6.201],[11.849,6.198],[11.829,6.195],[11.809,6.195],[11.789,6.193],[11.77,6.181],[11.751,6.164],[11.712,6.139],[11.663,6.095],[11.64,6.083],[11.633,6.078],[11.616,6.07],[11.39,6.019],[11.354,6.002],[11.334,5.996],[11.318,6.002],[11.308,6.001],[11.292,5.993],[11.297,6.013],[11.313,6.054],[11.312,6.071],[11.307,6.093],[11.29,6.136],[11.285,6.158],[11.283,6.176],[11.285,6.198],[11.288,6.21],[11.298,6.233],[11.299,6.243],[11.296,6.254],[11.281,6.265],[11.267,6.272],[11.188,6.291],[11.197,6.314],[11.207,6.357],[11.209,6.385],[11.202,6.437],[11.232,6.44],[11.237,6.438],[11.248,6.431],[11.256,6.43],[11.262,6.433],[11.272,6.442],[11.276,6.444],[11.287,6.443],[11.309,6.438],[11.319,6.437],[11.344,6.443],[11.37,6.456],[11.389,6.474],[11.396,6.497],[11.402,6.538],[11.417,6.572],[11.443,6.593],[11.483,6.597],[11.51,6.612],[11.533,6.645],[11.562,6.712],[11.569,6.739],[11.571,6.766],[11.567,6.784],[11.545,6.809],[11.538,6.824],[11.544,6.851],[11.562,6.876],[11.623,6.932],[11.681,6.969],[11.685,6.974],[11.688,6.987],[11.692,6.992],[11.697,6.993],[11.707,6.992],[11.719,6.994],[11.734,6.995],[11.741,6.998],[11.747,7.005],[11.749,7.015],[11.752,7.024],[11.766,7.034],[11.809,7.072],[11.82,7.079],[11.834,7.083],[11.845,7.082],[11.854,7.078],[11.863,7.075],[11.872,7.079],[11.881,7.102],[11.869,7.127],[11.83,7.169],[11.78,7.241],[11.766,7.253],[11.742,7.257],[11.737,7.263],[11.745,7.272],[11.762,7.286],[11.783,7.305],[11.845,7.396],[11.904,7.454]]]}},{"type":"Feature","id":"CM-CE","properties":{"id":"CM-CE","countryCode":"CM","isoSubdivision":"CM-CE","name":"Centre","name_en":"Centre","name_ko":"중앙","type":"Province","labelLongitude":11.738,"labelLatitude":4.733,"minZoom":6.7},"geometry":{"type":"Polygon","coordinates":[[[11.975,6.259],[11.981,6.251],[11.986,6.244],[12.019,6.208],[12.041,6.192],[12.065,6.179],[12.078,6.175],[12.095,6.17],[12.121,6.168],[12.143,6.169],[12.155,6.171],[12.166,6.175],[12.177,6.181],[12.201,6.195],[12.217,6.202],[12.238,6.206],[12.275,6.206],[12.295,6.202],[12.312,6.196],[12.44,6.103],[12.45,6.093],[12.457,6.082],[12.462,6.071],[12.464,6.061],[12.467,6.053],[12.471,6.047],[12.488,6.028],[12.496,6.019],[12.499,6.012],[12.523,6.002],[12.626,6],[12.883,6],[12.88,5.988],[12.878,5.971],[12.882,5.95],[12.883,5.939],[12.876,5.907],[12.877,5.902],[12.88,5.893],[12.886,5.882],[12.912,5.852],[12.937,5.815],[12.944,5.8],[12.958,5.754],[12.964,5.744],[12.97,5.733],[12.996,5.703],[13,5.698],[13.004,5.69],[13.007,5.675],[13.021,5.637],[13.041,5.604],[13.051,5.58],[13.068,5.557],[13.07,5.541],[13.065,5.515],[13.021,5.409],[12.974,5.328],[12.967,5.32],[12.955,5.313],[12.938,5.31],[12.875,5.312],[12.824,5.299],[12.835,5.282],[12.903,5.229],[13.015,5.112],[13.028,5.093],[13.047,5.059],[13.053,5.039],[13.054,5.023],[13.049,5.001],[13.047,4.995],[13.046,4.986],[13.048,4.977],[13.061,4.969],[13.112,4.95],[13.124,4.947],[13.136,4.945],[13.159,4.945],[13.172,4.939],[13.187,4.923],[13.223,4.85],[13.238,4.813],[13.21,4.588],[13.201,4.573],[13.192,4.568],[13.182,4.567],[13.16,4.574],[13.148,4.576],[13.137,4.574],[13.114,4.566],[13.102,4.563],[13.09,4.564],[13.066,4.571],[13.054,4.572],[13.028,4.569],[13.014,4.569],[13.003,4.57],[12.995,4.572],[12.986,4.576],[12.978,4.578],[12.971,4.578],[12.96,4.577],[12.949,4.572],[12.902,4.544],[12.889,4.53],[12.877,4.51],[12.862,4.469],[12.846,4.402],[12.833,4.377],[12.8,4.35],[12.811,4.317],[12.812,4.306],[12.812,4.294],[12.805,4.252],[12.769,4.137],[12.769,4.121],[12.78,4.102],[12.791,4.086],[12.795,4.077],[12.796,4.067],[12.792,4.056],[12.784,4.046],[12.765,4.036],[12.754,4.034],[12.739,4.027],[12.733,4.023],[12.726,4.018],[12.706,3.999],[12.698,3.988],[12.697,3.984],[12.696,3.983],[12.674,3.966],[12.67,3.962],[12.668,3.958],[12.667,3.957],[12.665,3.955],[12.662,3.953],[12.657,3.952],[12.635,3.953],[12.575,3.929],[12.568,3.927],[12.561,3.924],[12.556,3.919],[12.55,3.908],[12.542,3.895],[12.524,3.887],[12.518,3.887],[12.515,3.885],[12.509,3.88],[12.504,3.869],[12.503,3.857],[12.505,3.844],[12.519,3.817],[12.539,3.797],[12.599,3.771],[12.607,3.764],[12.612,3.751],[12.609,3.733],[12.611,3.675],[12.609,3.65],[12.599,3.619],[12.569,3.558],[12.554,3.575],[12.533,3.601],[12.509,3.648],[12.503,3.657],[12.497,3.661],[12.489,3.666],[12.479,3.665],[12.466,3.659],[12.411,3.6],[12.304,3.515],[12.27,3.478],[12.257,3.457],[12.223,3.33],[12.203,3.317],[12.155,3.303],[12.138,3.301],[12.126,3.305],[12.124,3.316],[12.127,3.323],[12.129,3.326],[12.134,3.338],[12.133,3.346],[12.118,3.356],[12.005,3.41],[11.983,3.426],[11.97,3.432],[11.935,3.44],[11.918,3.453],[11.899,3.462],[11.867,3.4],[11.859,3.39],[11.814,3.366],[11.794,3.352],[11.782,3.345],[11.76,3.339],[11.75,3.329],[11.717,3.272],[11.709,3.244],[11.695,3.207],[11.684,3.199],[11.609,3.163],[11.561,3.148],[11.538,3.145],[11.382,3.147],[11.34,3.137],[11.324,3.136],[11.282,3.144],[11.255,3.141],[11.217,3.134],[11.175,3.178],[11.163,3.188],[11.158,3.197],[11.153,3.226],[11.148,3.237],[11.139,3.243],[11.129,3.246],[11.118,3.254],[11.107,3.269],[11.09,3.344],[11.08,3.37],[11.05,3.406],[11.037,3.416],[11.026,3.416],[10.995,3.411],[10.983,3.41],[10.974,3.416],[10.96,3.421],[10.937,3.426],[10.89,3.419],[10.848,3.416],[10.843,3.421],[10.839,3.444],[10.833,3.465],[10.828,3.473],[10.82,3.479],[10.802,3.481],[10.78,3.481],[10.715,3.467],[10.689,3.46],[10.374,3.367],[10.296,3.355],[10.289,3.358],[10.239,3.522],[10.248,3.554],[10.254,3.549],[10.258,3.547],[10.263,3.545],[10.268,3.544],[10.271,3.544],[10.275,3.545],[10.278,3.546],[10.284,3.548],[10.29,3.551],[10.315,3.573],[10.324,3.579],[10.328,3.582],[10.33,3.585],[10.334,3.589],[10.338,3.637],[10.343,3.653],[10.364,3.709],[10.371,3.755],[10.374,3.767],[10.386,3.792],[10.409,3.814],[10.464,3.841],[10.477,3.829],[10.485,3.821],[10.494,3.813],[10.501,3.809],[10.51,3.805],[10.544,3.797],[10.557,3.788],[10.569,3.777],[10.586,3.753],[10.595,3.745],[10.606,3.741],[10.616,3.744],[10.627,3.752],[10.635,3.763],[10.643,3.775],[10.653,3.806],[10.65,3.832],[10.661,3.871],[10.661,3.879],[10.659,3.893],[10.654,3.919],[10.653,3.932],[10.659,3.95],[10.67,3.97],[10.693,4.008],[10.702,4.029],[10.713,4.047],[10.721,4.06],[10.73,4.062],[10.743,4.072],[10.749,4.074],[10.76,4.076],[10.767,4.079],[10.772,4.083],[10.779,4.087],[10.79,4.088],[10.814,4.087],[10.833,4.092],[10.869,4.111],[10.915,4.12],[10.954,4.139],[10.971,4.135],[10.984,4.148],[10.996,4.155],[11.05,4.169],[11.058,4.172],[11.067,4.177],[11.097,4.198],[11.121,4.219],[11.112,4.232],[11.108,4.238],[11.004,4.332],[10.955,4.415],[10.922,4.499],[10.928,4.592],[10.924,4.621],[10.915,4.626],[10.906,4.627],[10.896,4.625],[10.877,4.617],[10.869,4.614],[10.858,4.616],[10.847,4.62],[10.834,4.622],[10.822,4.621],[10.811,4.616],[10.801,4.606],[10.797,4.591],[10.786,4.54],[10.774,4.514],[10.744,4.485],[10.728,4.492],[10.721,4.5],[10.718,4.512],[10.715,4.519],[10.707,4.523],[10.697,4.514],[10.69,4.506],[10.687,4.5],[10.674,4.489],[10.658,4.482],[10.618,4.444],[10.603,4.438],[10.591,4.434],[10.55,4.44],[10.538,4.448],[10.53,4.455],[10.519,4.462],[10.509,4.468],[10.502,4.469],[10.492,4.47],[10.484,4.471],[10.474,4.476],[10.454,4.492],[10.444,4.494],[10.433,4.493],[10.421,4.49],[10.41,4.49],[10.402,4.494],[10.397,4.498],[10.395,4.502],[10.394,4.508],[10.393,4.518],[10.397,4.533],[10.404,4.552],[10.443,4.615],[10.487,4.66],[10.494,4.671],[10.498,4.681],[10.502,4.698],[10.503,4.71],[10.501,4.723],[10.497,4.737],[10.486,4.752],[10.463,4.747],[10.43,4.732],[10.381,4.702],[10.371,4.705],[10.364,4.711],[10.371,4.764],[10.38,4.783],[10.389,4.791],[10.429,4.812],[10.463,4.839],[10.484,4.864],[10.504,4.908],[10.578,4.895],[10.592,4.896],[10.608,4.899],[10.745,4.965],[10.755,4.972],[10.765,4.981],[10.771,4.99],[10.774,4.997],[10.775,5],[10.776,5.002],[10.78,5.006],[10.787,5.013],[10.797,5.016],[10.812,5.011],[10.824,5.003],[10.866,4.962],[10.879,4.959],[10.901,4.956],[10.925,4.956],[10.936,4.961],[10.946,4.969],[10.957,4.996],[10.959,5.004],[10.98,5.059],[10.99,5.093],[10.994,5.117],[10.997,5.13],[11.003,5.144],[11.018,5.162],[11.035,5.175],[11.061,5.188],[11.082,5.195],[11.077,5.207],[11.075,5.215],[11.074,5.226],[11.075,5.235],[11.082,5.263],[11.082,5.27],[11.079,5.292],[11.079,5.304],[11.081,5.312],[11.086,5.32],[11.098,5.331],[11.106,5.335],[11.113,5.337],[11.119,5.338],[11.125,5.339],[11.129,5.341],[11.134,5.347],[11.16,5.388],[11.162,5.389],[11.176,5.395],[11.18,5.398],[11.183,5.403],[11.187,5.414],[11.19,5.42],[11.191,5.426],[11.191,5.431],[11.177,5.45],[11.19,5.468],[11.193,5.471],[11.197,5.478],[11.201,5.486],[11.21,5.514],[11.212,5.531],[11.21,5.567],[11.208,5.578],[11.206,5.583],[11.196,5.6],[11.194,5.604],[11.194,5.611],[11.19,5.622],[11.198,5.638],[11.211,5.654],[11.219,5.67],[11.211,5.684],[11.233,5.696],[11.242,5.704],[11.249,5.723],[11.257,5.726],[11.266,5.728],[11.273,5.732],[11.278,5.74],[11.297,5.778],[11.311,5.784],[11.314,5.79],[11.31,5.804],[11.301,5.806],[11.29,5.804],[11.28,5.807],[11.274,5.819],[11.275,5.829],[11.278,5.839],[11.28,5.852],[11.278,5.865],[11.274,5.872],[11.269,5.877],[11.266,5.883],[11.264,5.894],[11.264,5.914],[11.259,5.924],[11.274,5.933],[11.28,5.949],[11.278,5.964],[11.266,5.971],[11.275,5.981],[11.292,5.993],[11.308,6.001],[11.318,6.002],[11.334,5.996],[11.354,6.002],[11.39,6.019],[11.616,6.07],[11.633,6.078],[11.64,6.083],[11.663,6.095],[11.712,6.139],[11.751,6.164],[11.77,6.181],[11.789,6.193],[11.809,6.195],[11.829,6.195],[11.849,6.198],[11.855,6.201],[11.859,6.206],[11.866,6.21],[11.88,6.212],[11.892,6.216],[11.905,6.235],[11.914,6.239],[11.922,6.237],[11.925,6.232],[11.929,6.229],[11.938,6.232],[11.938,6.235],[11.937,6.249],[11.938,6.253],[11.948,6.257],[11.975,6.259]]]}},{"type":"Feature","id":"CM-EN","properties":{"id":"CM-EN","countryCode":"CM","isoSubdivision":"CM-EN","name":"Far North","name_en":"Far North","name_ko":"최북부","type":"Province","labelLongitude":14.537,"labelLatitude":10.723,"minZoom":6.7},"geometry":{"type":"Polygon","coordinates":[[[14.481,13.001],[14.482,12.999],[14.496,12.984],[14.505,12.969],[14.508,12.952],[14.506,12.932],[14.491,12.886],[14.49,12.874],[14.5,12.859],[14.531,12.836],[14.549,12.818],[14.549,12.78],[14.551,12.772],[14.555,12.767],[14.561,12.766],[14.569,12.769],[14.569,12.76],[14.571,12.75],[14.575,12.745],[14.585,12.746],[14.604,12.761],[14.611,12.762],[14.618,12.759],[14.62,12.754],[14.621,12.748],[14.624,12.742],[14.642,12.731],[14.648,12.725],[14.664,12.716],[14.694,12.724],[14.71,12.718],[14.717,12.702],[14.702,12.669],[14.714,12.653],[14.729,12.677],[14.734,12.68],[14.743,12.677],[14.752,12.669],[14.759,12.659],[14.761,12.649],[14.769,12.633],[14.786,12.631],[14.819,12.639],[14.831,12.618],[14.864,12.495],[14.86,12.49],[14.852,12.475],[14.85,12.468],[14.85,12.457],[14.851,12.455],[14.855,12.455],[14.864,12.447],[14.862,12.452],[14.866,12.453],[14.872,12.45],[14.877,12.447],[14.879,12.443],[14.877,12.432],[14.877,12.427],[14.891,12.403],[14.908,12.327],[14.906,12.318],[14.905,12.249],[14.905,12.248],[14.903,12.236],[14.898,12.219],[14.898,12.207],[14.901,12.2],[14.906,12.196],[14.91,12.19],[14.912,12.18],[14.907,12.173],[14.9,12.172],[14.895,12.167],[14.898,12.153],[14.903,12.146],[14.929,12.129],[14.951,12.103],[14.965,12.092],[14.977,12.094],[14.994,12.107],[15.012,12.109],[15.03,12.101],[15.049,12.085],[15.045,12.078],[15.041,12.068],[15.041,12.056],[15.046,12.046],[15.053,12.038],[15.054,12.032],[15.051,12.024],[15.049,12.012],[15.06,11.997],[15.077,11.983],[15.081,11.972],[15.053,11.967],[15.048,11.963],[15.051,11.953],[15.056,11.942],[15.059,11.937],[15.063,11.927],[15.057,11.918],[15.047,11.91],[15.042,11.902],[15.044,11.877],[15.051,11.862],[15.063,11.853],[15.08,11.851],[15.086,11.84],[15.111,11.783],[15.105,11.773],[15.089,11.758],[15.084,11.748],[15.085,11.744],[15.096,11.734],[15.097,11.728],[15.093,11.723],[15.086,11.722],[15.08,11.723],[15.076,11.721],[15.068,11.7],[15.067,11.681],[15.069,11.661],[15.085,11.616],[15.096,11.598],[15.124,11.563],[15.136,11.531],[15.122,11.503],[15.076,11.453],[15.067,11.436],[15.061,11.416],[15.054,11.364],[15.049,11.349],[15.049,11.337],[15.053,11.33],[15.058,11.325],[15.062,11.32],[15.063,11.31],[15.056,11.293],[15.033,11.26],[15.028,11.244],[15.021,11.183],[15.029,11.08],[15.035,10.995],[15.062,10.931],[15.073,10.916],[15.079,10.898],[15.076,10.873],[15.063,10.831],[15.066,10.793],[15.142,10.647],[15.15,10.623],[15.148,10.607],[15.138,10.59],[15.132,10.565],[15.132,10.541],[15.138,10.522],[15.144,10.516],[15.154,10.512],[15.165,10.509],[15.176,10.508],[15.187,10.506],[15.193,10.501],[15.198,10.496],[15.218,10.487],[15.227,10.47],[15.241,10.433],[15.256,10.417],[15.269,10.406],[15.278,10.394],[15.282,10.375],[15.284,10.349],[15.291,10.329],[15.301,10.312],[15.439,10.185],[15.476,10.133],[15.491,10.124],[15.49,10.12],[15.536,10.081],[15.603,10.041],[15.638,10.03],[15.681,9.991],[15.664,9.986],[15.439,9.932],[15.383,9.93],[15.215,9.984],[15.155,9.987],[15.11,9.982],[15.101,9.979],[15.089,9.972],[15.072,9.956],[15.061,9.949],[15.033,9.943],[15.002,9.945],[14.944,9.959],[14.898,9.96],[14.773,9.922],[14.732,9.924],[14.44,9.995],[14.196,9.979],[14.195,9.982],[14.204,10.043],[14.194,10.059],[14.101,10.086],[14.085,10.085],[14.056,10.093],[14.035,10.12],[14.003,10.142],[13.999,10.146],[13.974,10.183],[13.96,10.192],[13.928,10.202],[13.874,10.213],[13.854,10.214],[13.812,10.21],[13.773,10.214],[13.71,10.227],[13.695,10.225],[13.68,10.221],[13.664,10.207],[13.655,10.195],[13.65,10.183],[13.65,10.173],[13.654,10.162],[13.67,10.14],[13.674,10.129],[13.669,10.119],[13.657,10.112],[13.593,10.091],[13.57,10.08],[13.555,10.075],[13.535,10.078],[13.498,10.078],[13.45,10.063],[13.437,10.063],[13.425,10.069],[13.416,10.077],[13.396,10.11],[13.393,10.117],[13.402,10.122],[13.423,10.138],[13.435,10.153],[13.451,10.187],[13.453,10.201],[13.451,10.212],[13.445,10.232],[13.445,10.245],[13.467,10.308],[13.501,10.496],[13.539,10.621],[13.566,10.679],[13.744,10.93],[13.75,10.942],[13.757,10.958],[13.75,10.996],[13.755,11.017],[13.766,11.034],[13.782,11.048],[13.82,11.069],[13.832,11.085],[13.849,11.125],[13.873,11.167],[13.906,11.208],[13.944,11.246],[13.982,11.276],[14.013,11.276],[14.053,11.265],[14.123,11.236],[14.143,11.233],[14.165,11.238],[14.187,11.249],[14.205,11.262],[14.232,11.29],[14.244,11.295],[14.271,11.299],[14.279,11.302],[14.368,11.383],[14.387,11.393],[14.446,11.412],[14.467,11.424],[14.504,11.456],[14.525,11.469],[14.577,11.487],[14.594,11.496],[14.606,11.515],[14.616,11.539],[14.624,11.563],[14.628,11.584],[14.627,11.61],[14.621,11.63],[14.61,11.647],[14.594,11.663],[14.589,11.67],[14.585,11.677],[14.581,11.683],[14.574,11.688],[14.556,11.688],[14.552,11.689],[14.543,11.701],[14.542,11.71],[14.547,11.719],[14.583,11.766],[14.591,11.783],[14.612,11.885],[14.623,11.917],[14.627,11.95],[14.627,11.957],[14.625,11.968],[14.606,12.011],[14.604,12.03],[14.622,12.042],[14.62,12.052],[14.637,12.124],[14.643,12.136],[14.648,12.142],[14.651,12.148],[14.67,12.167],[14.668,12.178],[14.663,12.188],[14.652,12.194],[14.643,12.191],[14.629,12.183],[14.616,12.179],[14.611,12.184],[14.604,12.204],[14.588,12.217],[14.568,12.228],[14.548,12.242],[14.558,12.247],[14.562,12.248],[14.562,12.256],[14.551,12.26],[14.522,12.282],[14.514,12.289],[14.512,12.299],[14.518,12.313],[14.514,12.324],[14.487,12.338],[14.423,12.353],[14.218,12.359],[14.202,12.363],[14.189,12.37],[14.18,12.386],[14.179,12.397],[14.185,12.428],[14.185,12.447],[14.18,12.464],[14.179,12.468],[14.177,12.546],[14.121,12.812],[14.065,13.078],[14.418,13.081],[14.435,13.07],[14.481,13.001]]]}},{"type":"Feature","id":"CM-ES","properties":{"id":"CM-ES","countryCode":"CM","isoSubdivision":"CM-ES","name":"East","name_en":"East","name_ko":"동부","type":"Province","labelLongitude":14.167,"labelLatitude":3.784,"minZoom":6.7},"geometry":{"type":"Polygon","coordinates":[[[16.197,2.236],[16.202,2.232],[16.208,2.223],[16.199,2.212],[16.159,2.182],[16.141,2.2],[16.12,2.203],[16.104,2.194],[16.098,2.172],[16.086,2.149],[16.083,2.138],[16.086,2.125],[16.09,2.116],[16.092,2.107],[16.09,2.093],[16.088,2.092],[16.084,2.092],[16.08,2.09],[16.077,2.086],[16.076,2.08],[16.076,2.075],[16.076,2.073],[16.077,2.072],[16.078,2.063],[16.082,2.056],[16.082,2.047],[16.066,2.025],[16.064,2.016],[16.065,1.979],[16.069,1.974],[16.075,1.971],[16.083,1.963],[16.101,1.933],[16.135,1.845],[16.159,1.735],[16.156,1.719],[16.145,1.714],[16.124,1.722],[16.115,1.719],[16.07,1.655],[16.03,1.705],[16.022,1.723],[16.022,1.733],[16.025,1.742],[16.026,1.752],[16.022,1.764],[16.014,1.771],[16.003,1.776],[15.991,1.776],[15.98,1.771],[15.963,1.777],[15.944,1.782],[15.929,1.789],[15.926,1.805],[15.915,1.799],[15.902,1.794],[15.89,1.793],[15.885,1.802],[15.882,1.817],[15.876,1.824],[15.866,1.828],[15.842,1.844],[15.815,1.853],[15.803,1.86],[15.765,1.909],[15.757,1.913],[15.734,1.917],[15.722,1.922],[15.711,1.927],[15.707,1.932],[15.612,1.943],[15.527,1.968],[15.483,1.976],[15.439,1.97],[15.388,1.94],[15.368,1.933],[15.349,1.923],[15.337,1.921],[15.338,1.924],[15.314,1.934],[15.309,1.935],[15.302,1.944],[15.3,1.948],[15.302,1.953],[15.303,1.966],[15.301,1.974],[15.295,1.982],[15.288,1.988],[15.254,2],[15.248,2.003],[15.244,2.01],[15.239,2.025],[15.234,2.031],[15.213,2.04],[15.197,2.035],[15.184,2.029],[15.152,2.041],[15.139,2.012],[15.124,2.017],[15.118,2.017],[15.108,2.001],[15.092,1.984],[15.075,1.979],[15.063,1.997],[15.044,1.991],[15.028,1.995],[14.981,2.033],[14.971,2.034],[14.963,2.01],[14.954,2.006],[14.932,2.003],[14.892,2.006],[14.897,2.031],[14.907,2.059],[14.888,2.072],[14.885,2.082],[14.871,2.102],[14.857,2.116],[14.85,2.11],[14.85,2.097],[14.848,2.085],[14.841,2.076],[14.826,2.072],[14.765,2.065],[14.762,2.07],[14.763,2.093],[14.761,2.1],[14.756,2.1],[14.748,2.097],[14.737,2.096],[14.727,2.1],[14.733,2.102],[14.748,2.113],[14.721,2.128],[14.714,2.124],[14.72,2.1],[14.706,2.106],[14.686,2.126],[14.672,2.134],[14.646,2.133],[14.636,2.138],[14.645,2.154],[14.621,2.165],[14.588,2.202],[14.562,2.209],[14.557,2.202],[14.548,2.194],[14.548,2.184],[14.55,2.175],[14.547,2.167],[14.538,2.163],[14.459,2.147],[14.439,2.134],[14.433,2.132],[14.419,2.135],[14.399,2.153],[14.384,2.162],[14.32,2.171],[14.276,2.154],[14.267,2.152],[14.162,2.153],[14.003,2.155],[13.824,2.156],[13.662,2.158],[13.662,2.161],[13.63,2.845],[13.621,2.906],[13.61,2.902],[13.597,2.898],[13.586,2.891],[13.548,2.861],[13.532,2.855],[13.531,2.849],[13.541,2.833],[13.528,2.836],[13.514,2.842],[13.504,2.843],[13.5,2.83],[13.507,2.802],[13.505,2.79],[13.49,2.786],[13.432,2.786],[13.421,2.79],[13.383,2.812],[13.381,2.817],[13.374,2.825],[13.367,2.827],[13.363,2.816],[13.36,2.813],[13.353,2.812],[13.339,2.812],[13.33,2.817],[13.311,2.84],[13.302,2.844],[13.292,2.851],[13.283,2.852],[13.273,2.84],[13.275,2.832],[13.286,2.802],[13.294,2.792],[13.281,2.791],[13.27,2.793],[13.262,2.799],[13.257,2.824],[13.25,2.831],[13.226,2.84],[13.228,2.855],[13.218,2.868],[13.203,2.872],[13.191,2.861],[13.183,2.865],[13.178,2.866],[13.173,2.865],[13.164,2.861],[13.152,2.869],[13.136,2.871],[13.122,2.868],[13.116,2.857],[13.113,2.849],[13.106,2.846],[13.099,2.848],[13.093,2.867],[13.087,2.866],[13.08,2.86],[13.075,2.853],[13.061,2.859],[13.016,2.872],[13.003,2.871],[12.997,2.871],[12.98,2.889],[12.972,2.895],[12.971,2.892],[12.952,2.874],[12.938,2.884],[12.923,2.887],[12.89,2.888],[12.876,2.892],[12.859,2.9],[12.835,2.903],[12.831,2.906],[12.828,2.91],[12.821,2.915],[12.802,2.923],[12.797,2.926],[12.767,2.969],[12.764,2.981],[12.761,3.094],[12.752,3.143],[12.736,3.188],[12.699,3.252],[12.673,3.284],[12.603,3.35],[12.571,3.391],[12.559,3.411],[12.555,3.421],[12.553,3.43],[12.551,3.438],[12.569,3.558],[12.599,3.619],[12.609,3.65],[12.611,3.675],[12.609,3.733],[12.612,3.751],[12.607,3.764],[12.599,3.771],[12.539,3.797],[12.519,3.817],[12.505,3.844],[12.503,3.857],[12.504,3.869],[12.509,3.88],[12.515,3.885],[12.518,3.887],[12.524,3.887],[12.542,3.895],[12.55,3.908],[12.556,3.919],[12.561,3.924],[12.568,3.927],[12.575,3.929],[12.635,3.953],[12.657,3.952],[12.662,3.953],[12.665,3.955],[12.667,3.957],[12.668,3.958],[12.67,3.962],[12.674,3.966],[12.696,3.983],[12.697,3.984],[12.698,3.988],[12.706,3.999],[12.726,4.018],[12.733,4.023],[12.739,4.027],[12.754,4.034],[12.765,4.036],[12.784,4.046],[12.792,4.056],[12.796,4.067],[12.795,4.077],[12.791,4.086],[12.78,4.102],[12.769,4.121],[12.769,4.137],[12.805,4.252],[12.812,4.294],[12.812,4.306],[12.811,4.317],[12.8,4.35],[12.833,4.377],[12.846,4.402],[12.862,4.469],[12.877,4.51],[12.889,4.53],[12.902,4.544],[12.949,4.572],[12.96,4.577],[12.971,4.578],[12.978,4.578],[12.986,4.576],[12.995,4.572],[13.003,4.57],[13.014,4.569],[13.028,4.569],[13.054,4.572],[13.066,4.571],[13.09,4.564],[13.102,4.563],[13.114,4.566],[13.137,4.574],[13.148,4.576],[13.16,4.574],[13.182,4.567],[13.192,4.568],[13.201,4.573],[13.21,4.588],[13.238,4.813],[13.223,4.85],[13.187,4.923],[13.172,4.939],[13.159,4.945],[13.136,4.945],[13.124,4.947],[13.112,4.95],[13.061,4.969],[13.048,4.977],[13.046,4.986],[13.047,4.995],[13.049,5.001],[13.054,5.023],[13.053,5.039],[13.047,5.059],[13.028,5.093],[13.015,5.112],[12.903,5.229],[12.835,5.282],[12.824,5.299],[12.875,5.312],[12.938,5.31],[12.955,5.313],[12.967,5.32],[12.974,5.328],[13.021,5.409],[13.065,5.515],[13.07,5.541],[13.068,5.557],[13.051,5.58],[13.041,5.604],[13.021,5.637],[13.007,5.675],[13.004,5.69],[13,5.698],[12.996,5.703],[12.97,5.733],[12.964,5.744],[12.958,5.754],[12.944,5.8],[12.937,5.815],[12.912,5.852],[12.886,5.882],[12.88,5.893],[12.877,5.902],[12.876,5.907],[12.883,5.939],[12.882,5.95],[12.878,5.971],[12.88,5.988],[12.883,6],[13.368,6],[13.762,6.003],[13.854,6.015],[13.958,6.054],[13.973,6.057],[13.99,6.056],[14.04,6.038],[14.057,6.035],[14.139,6.046],[14.192,6.053],[14.287,6.077],[14.338,6.08],[14.351,6.085],[14.357,6.093],[14.362,6.101],[14.366,6.107],[14.373,6.113],[14.383,6.115],[14.392,6.112],[14.409,6.09],[14.43,6.08],[14.432,6.079],[14.433,6.079],[14.434,6.074],[14.429,6.064],[14.426,6.06],[14.423,6.051],[14.418,6.047],[14.413,6.047],[14.402,6.055],[14.398,6.054],[14.39,6.046],[14.387,6.039],[14.389,6.031],[14.398,6.019],[14.406,6.011],[14.418,5.997],[14.432,5.985],[14.447,5.97],[14.454,5.954],[14.458,5.936],[14.466,5.921],[14.482,5.91],[14.499,5.91],[14.531,5.906],[14.545,5.908],[14.572,5.924],[14.585,5.923],[14.598,5.903],[14.603,5.883],[14.617,5.865],[14.624,5.758],[14.631,5.738],[14.624,5.724],[14.611,5.669],[14.593,5.624],[14.59,5.608],[14.591,5.591],[14.597,5.577],[14.611,5.554],[14.617,5.538],[14.619,5.525],[14.617,5.495],[14.614,5.485],[14.6,5.457],[14.596,5.44],[14.597,5.411],[14.593,5.4],[14.58,5.395],[14.579,5.388],[14.571,5.371],[14.561,5.355],[14.556,5.351],[14.554,5.338],[14.548,5.321],[14.54,5.304],[14.528,5.293],[14.52,5.291],[14.524,5.28],[14.54,5.262],[14.56,5.249],[14.604,5.234],[14.624,5.224],[14.64,5.208],[14.652,5.188],[14.659,5.165],[14.663,5.142],[14.663,5.091],[14.667,5.053],[14.66,5.016],[14.66,5.011],[14.659,4.997],[14.663,4.986],[14.67,4.977],[14.674,4.968],[14.672,4.941],[14.676,4.931],[14.682,4.921],[14.687,4.909],[14.701,4.814],[14.701,4.804],[14.696,4.78],[14.692,4.769],[14.691,4.762],[14.697,4.745],[14.704,4.669],[14.717,4.622],[14.744,4.58],[14.78,4.545],[14.938,4.436],[14.982,4.42],[14.994,4.413],[15.001,4.403],[15.007,4.378],[15.014,4.364],[15.049,4.322],[15.064,4.293],[15.073,4.266],[15.083,4.206],[15.084,4.149],[15.091,4.122],[15.103,4.112],[15.118,4.114],[15.133,4.109],[15.139,4.095],[15.143,4.08],[15.148,4.074],[15.162,4.074],[15.178,4.071],[15.19,4.063],[15.192,4.052],[15.172,4.044],[15.15,4.039],[15.111,4.02],[15.092,4.016],[15.075,4.018],[15.043,4.026],[15.026,4.026],[15.085,3.886],[15.171,3.759],[15.253,3.673],[15.262,3.663],[15.33,3.591],[15.414,3.502],[15.518,3.392],[15.617,3.287],[15.711,3.187],[15.786,3.108],[15.793,3.103],[15.801,3.101],[15.814,3.099],[15.818,3.1],[15.829,3.107],[15.834,3.109],[15.84,3.107],[15.851,3.1],[15.855,3.099],[15.898,3.104],[15.914,3.098],[15.933,3.082],[15.95,3.061],[15.958,3.042],[15.972,2.991],[15.974,2.986],[15.978,2.981],[15.982,2.977],[15.995,2.981],[16.006,2.984],[16.016,2.983],[16.026,2.979],[16.034,2.971],[16.055,2.94],[16.07,2.907],[16.082,2.886],[16.092,2.863],[16.095,2.837],[16.087,2.813],[16.06,2.786],[16.056,2.76],[16.06,2.726],[16.059,2.712],[16.063,2.703],[16.073,2.703],[16.086,2.705],[16.099,2.704],[16.11,2.701],[16.101,2.688],[16.094,2.673],[16.09,2.662],[16.093,2.641],[16.109,2.607],[16.112,2.586],[16.107,2.567],[16.091,2.533],[16.09,2.51],[16.094,2.498],[16.107,2.474],[16.112,2.456],[16.112,2.419],[16.113,2.41],[16.121,2.39],[16.133,2.365],[16.152,2.343],[16.159,2.333],[16.163,2.324],[16.165,2.315],[16.166,2.295],[16.169,2.29],[16.183,2.281],[16.187,2.278],[16.187,2.269],[16.181,2.257],[16.18,2.247],[16.193,2.24],[16.197,2.236]]]}},{"type":"Feature","id":"CM-LT","properties":{"id":"CM-LT","countryCode":"CM","isoSubdivision":"CM-LT","name":"Littoral","name_en":"Littoral","name_ko":"리토랄","type":"Province","labelLongitude":10.093,"labelLatitude":4.194,"minZoom":6.7},"geometry":{"type":"MultiPolygon","coordinates":[[[[9.453,4.077],[9.457,4.071],[9.465,4.068],[9.474,4.066],[9.484,4.06],[9.485,4.055],[9.496,4.031],[9.507,4.019],[9.524,4.006],[9.532,3.989],[9.519,3.97],[9.504,3.976],[9.497,3.978],[9.49,3.981],[9.477,3.991],[9.464,4.012],[9.458,4.016],[9.454,4.019],[9.451,4.023],[9.45,4.032],[9.438,4.03],[9.429,4.027],[9.424,4.019],[9.422,4.008],[9.449,3.992],[9.457,3.984],[9.459,3.972],[9.456,3.964],[9.452,3.954],[9.45,3.94],[9.453,3.932],[9.469,3.923],[9.477,3.916],[9.464,3.91],[9.448,3.906],[9.412,3.902],[9.393,3.904],[9.359,3.914],[9.344,3.916],[9.332,3.922],[9.365,3.952],[9.383,3.963],[9.392,3.966],[9.395,3.968],[9.397,3.973],[9.399,3.983],[9.41,4.008],[9.45,4.073],[9.453,4.077]]],[[[9.929,3.269],[9.929,3.272],[9.914,3.27],[9.903,3.273],[9.895,3.278],[9.888,3.285],[9.882,3.294],[9.855,3.344],[9.781,3.437],[9.739,3.473],[9.642,3.539],[9.664,3.544],[9.689,3.556],[9.771,3.619],[9.793,3.627],[9.82,3.628],[9.788,3.637],[9.76,3.626],[9.734,3.609],[9.707,3.601],[9.638,3.594],[9.626,3.6],[9.621,3.613],[9.626,3.626],[9.642,3.635],[9.613,3.705],[9.565,3.771],[9.552,3.796],[9.546,3.82],[9.571,3.795],[9.577,3.792],[9.582,3.788],[9.59,3.766],[9.594,3.758],[9.607,3.752],[9.624,3.75],[9.663,3.751],[9.653,3.756],[9.621,3.765],[9.611,3.771],[9.607,3.775],[9.604,3.78],[9.597,3.789],[9.589,3.81],[9.592,3.835],[9.604,3.859],[9.621,3.875],[9.659,3.841],[9.68,3.836],[9.69,3.861],[9.723,3.844],[9.736,3.834],[9.744,3.82],[9.75,3.83],[9.75,3.841],[9.746,3.851],[9.738,3.861],[9.741,3.861],[9.752,3.861],[9.705,3.878],[9.683,3.89],[9.676,3.909],[9.689,3.922],[9.715,3.931],[9.743,3.936],[9.764,3.936],[9.764,3.941],[9.763,3.944],[9.758,3.95],[9.761,3.951],[9.763,3.951],[9.764,3.952],[9.764,3.957],[9.665,3.94],[9.635,3.943],[9.619,3.96],[9.624,3.986],[9.64,4.009],[9.659,4.019],[9.676,4.034],[9.719,4.1],[9.748,4.114],[9.752,4.12],[9.757,4.13],[9.755,4.136],[9.738,4.129],[9.719,4.115],[9.711,4.106],[9.703,4.094],[9.697,4.094],[9.697,4.114],[9.679,4.101],[9.646,4.051],[9.628,4.032],[9.607,4.021],[9.579,4.013],[9.559,4.017],[9.56,4.039],[9.546,4.026],[9.527,4.036],[9.509,4.054],[9.499,4.077],[9.504,4.101],[9.503,4.102],[9.509,4.104],[9.517,4.108],[9.525,4.116],[9.536,4.136],[9.543,4.146],[9.556,4.157],[9.562,4.165],[9.561,4.176],[9.553,4.199],[9.545,4.209],[9.531,4.219],[9.461,4.231],[9.439,4.243],[9.441,4.269],[9.447,4.298],[9.516,4.407],[9.522,4.429],[9.513,4.456],[9.511,4.471],[9.515,4.528],[9.522,4.556],[9.554,4.612],[9.57,4.635],[9.578,4.641],[9.601,4.642],[9.614,4.639],[9.622,4.639],[9.632,4.643],[9.639,4.651],[9.645,4.685],[9.673,4.726],[9.7,4.747],[9.71,4.77],[9.711,4.796],[9.712,4.808],[9.716,4.823],[9.727,4.839],[9.759,4.869],[9.777,4.893],[9.788,4.902],[9.794,4.912],[9.796,4.924],[9.774,4.947],[9.767,4.961],[9.77,4.975],[9.778,5],[9.791,5.03],[9.808,5.051],[9.843,5.058],[9.853,5.07],[9.85,5.088],[9.831,5.131],[9.817,5.154],[9.779,5.201],[9.763,5.241],[9.754,5.279],[9.754,5.289],[9.758,5.297],[9.767,5.299],[9.777,5.299],[9.789,5.301],[9.801,5.308],[9.837,5.349],[9.87,5.357],[9.863,5.284],[9.879,5.262],[9.89,5.261],[9.9,5.264],[9.91,5.272],[9.92,5.278],[9.931,5.28],[9.944,5.274],[9.977,5.251],[9.984,5.242],[9.987,5.235],[9.99,5.219],[10.004,5.193],[10.005,5.151],[9.995,5.128],[9.996,5.124],[9.998,5.119],[10.005,5.106],[10.011,5.087],[10.016,5.078],[10.02,5.072],[10.058,5.052],[10.062,5.046],[10.065,5.038],[10.069,5.012],[10.072,5.001],[10.073,4.999],[10.078,4.993],[10.087,4.986],[10.091,4.983],[10.105,4.969],[10.112,4.937],[10.12,4.927],[10.125,4.926],[10.128,4.926],[10.131,4.926],[10.138,4.927],[10.141,4.928],[10.151,4.929],[10.177,4.982],[10.184,4.991],[10.189,4.999],[10.226,5.024],[10.239,5.036],[10.246,5.05],[10.251,5.063],[10.26,5.08],[10.27,5.082],[10.282,5.08],[10.292,5.076],[10.303,5.074],[10.314,5.076],[10.336,5.083],[10.347,5.086],[10.374,5.089],[10.387,5.073],[10.396,5.038],[10.407,5.021],[10.416,5.003],[10.433,4.955],[10.445,4.944],[10.467,4.935],[10.476,4.924],[10.485,4.916],[10.504,4.908],[10.484,4.864],[10.463,4.839],[10.429,4.812],[10.389,4.791],[10.38,4.783],[10.371,4.764],[10.364,4.711],[10.371,4.705],[10.381,4.702],[10.43,4.732],[10.463,4.747],[10.486,4.752],[10.497,4.737],[10.501,4.723],[10.503,4.71],[10.502,4.698],[10.498,4.681],[10.494,4.671],[10.487,4.66],[10.443,4.615],[10.404,4.552],[10.397,4.533],[10.393,4.518],[10.394,4.508],[10.395,4.502],[10.397,4.498],[10.402,4.494],[10.41,4.49],[10.421,4.49],[10.433,4.493],[10.444,4.494],[10.454,4.492],[10.474,4.476],[10.484,4.471],[10.492,4.47],[10.502,4.469],[10.509,4.468],[10.519,4.462],[10.53,4.455],[10.538,4.448],[10.55,4.44],[10.591,4.434],[10.603,4.438],[10.618,4.444],[10.658,4.482],[10.674,4.489],[10.687,4.5],[10.69,4.506],[10.697,4.514],[10.707,4.523],[10.715,4.519],[10.718,4.512],[10.721,4.5],[10.728,4.492],[10.744,4.485],[10.774,4.514],[10.786,4.54],[10.797,4.591],[10.801,4.606],[10.811,4.616],[10.822,4.621],[10.834,4.622],[10.847,4.62],[10.858,4.616],[10.869,4.614],[10.877,4.617],[10.896,4.625],[10.906,4.627],[10.915,4.626],[10.924,4.621],[10.928,4.592],[10.922,4.499],[10.955,4.415],[11.004,4.332],[11.108,4.238],[11.112,4.232],[11.121,4.219],[11.097,4.198],[11.067,4.177],[11.058,4.172],[11.05,4.169],[10.996,4.155],[10.984,4.148],[10.971,4.135],[10.954,4.139],[10.915,4.12],[10.869,4.111],[10.833,4.092],[10.814,4.087],[10.79,4.088],[10.779,4.087],[10.772,4.083],[10.767,4.079],[10.76,4.076],[10.749,4.074],[10.743,4.072],[10.73,4.062],[10.721,4.06],[10.713,4.047],[10.702,4.029],[10.693,4.008],[10.67,3.97],[10.659,3.95],[10.653,3.932],[10.654,3.919],[10.659,3.893],[10.661,3.879],[10.661,3.871],[10.65,3.832],[10.653,3.806],[10.643,3.775],[10.635,3.763],[10.627,3.752],[10.616,3.744],[10.606,3.741],[10.595,3.745],[10.586,3.753],[10.569,3.777],[10.557,3.788],[10.544,3.797],[10.51,3.805],[10.501,3.809],[10.494,3.813],[10.485,3.821],[10.477,3.829],[10.464,3.841],[10.409,3.814],[10.386,3.792],[10.374,3.767],[10.371,3.755],[10.364,3.709],[10.343,3.653],[10.338,3.637],[10.334,3.589],[10.33,3.585],[10.328,3.582],[10.324,3.579],[10.315,3.573],[10.29,3.551],[10.284,3.548],[10.278,3.546],[10.275,3.545],[10.271,3.544],[10.268,3.544],[10.263,3.545],[10.258,3.547],[10.254,3.549],[10.248,3.554],[10.24,3.574],[10.224,3.587],[10.205,3.598],[10.191,3.604],[10.188,3.603],[10.186,3.601],[10.18,3.595],[10.177,3.593],[10.175,3.592],[10.171,3.59],[10.148,3.587],[10.142,3.585],[10.135,3.583],[10.131,3.581],[10.129,3.578],[10.123,3.572],[10.117,3.565],[10.113,3.559],[10.11,3.552],[10.095,3.531],[10.088,3.523],[10.071,3.509],[10.067,3.505],[10.065,3.502],[10.061,3.485],[10.061,3.464],[10.061,3.452],[10.065,3.438],[10.066,3.435],[10.065,3.431],[10.063,3.428],[10.061,3.424],[10.052,3.414],[10.05,3.412],[10.05,3.407],[10.051,3.397],[10.051,3.392],[10.05,3.389],[10.049,3.386],[10.025,3.344],[10.021,3.339],[10.015,3.334],[9.989,3.318],[9.978,3.309],[9.968,3.299],[9.959,3.287],[9.953,3.281],[9.947,3.276],[9.93,3.269],[9.929,3.269]]]]}},{"type":"Feature","id":"CM-NO","properties":{"id":"CM-NO","countryCode":"CM","isoSubdivision":"CM-NO","name":"North","name_en":"North","name_ko":"북부","type":"Province","labelLongitude":13.891,"labelLatitude":8.91,"minZoom":6.7},"geometry":{"type":"Polygon","coordinates":[[[14.196,9.979],[14.182,9.978],[14.174,9.975],[14.171,9.968],[14.171,9.958],[14.168,9.948],[14.12,9.852],[14.088,9.81],[14.007,9.739],[13.946,9.653],[13.948,9.638],[14.036,9.569],[14.321,9.243],[14.331,9.2],[14.35,9.168],[14.572,8.991],[14.794,8.814],[14.81,8.809],[14.819,8.812],[14.828,8.813],[14.837,8.813],[14.846,8.811],[14.86,8.803],[14.899,8.774],[14.908,8.765],[14.913,8.752],[14.92,8.748],[14.927,8.745],[14.934,8.739],[14.94,8.73],[14.949,8.704],[14.951,8.692],[14.951,8.683],[14.955,8.676],[14.969,8.672],[15.006,8.667],[15.031,8.659],[15.052,8.644],[15.069,8.624],[15.111,8.555],[15.169,8.499],[15.184,8.479],[15.211,8.422],[15.345,8.136],[15.407,7.922],[15.441,7.839],[15.488,7.805],[15.509,7.804],[15.541,7.797],[15.563,7.792],[15.562,7.69],[15.549,7.631],[15.522,7.576],[15.481,7.523],[15.473,7.509],[15.419,7.437],[15.416,7.421],[15.435,7.403],[15.433,7.39],[15.428,7.389],[15.41,7.388],[15.403,7.386],[15.397,7.381],[15.389,7.364],[15.385,7.358],[15.338,7.322],[15.261,7.279],[15.247,7.267],[15.246,7.267],[15.244,7.268],[15.236,7.271],[15.224,7.274],[15.211,7.272],[15.195,7.267],[15.173,7.254],[15.111,7.2],[15.097,7.191],[15.081,7.186],[15.058,7.183],[15.043,7.183],[15.026,7.181],[15.011,7.176],[14.802,7.085],[14.728,7.04],[14.716,7.034],[14.704,7.029],[14.692,7.026],[14.681,7.024],[14.669,7.025],[14.657,7.028],[14.644,7.036],[14.636,7.042],[14.621,7.065],[14.56,7.077],[14.535,7.113],[14.529,7.126],[14.52,7.142],[14.508,7.155],[14.492,7.165],[14.479,7.169],[14.465,7.171],[14.393,7.164],[14.368,7.165],[14.356,7.167],[14.345,7.173],[14.337,7.183],[14.335,7.198],[14.338,7.211],[14.34,7.224],[14.337,7.278],[14.322,7.311],[14.307,7.323],[14.295,7.33],[14.277,7.344],[14.224,7.4],[14.204,7.433],[14.202,7.449],[14.196,7.457],[14.186,7.468],[14.144,7.5],[14.139,7.506],[14.133,7.514],[14.129,7.525],[14.121,7.561],[14.113,7.569],[14.104,7.574],[13.93,7.592],[13.903,7.599],[13.893,7.608],[13.885,7.617],[13.884,7.661],[13.872,7.673],[13.859,7.675],[13.837,7.674],[13.723,7.647],[13.711,7.646],[13.699,7.647],[13.675,7.656],[13.66,7.657],[13.642,7.653],[13.629,7.647],[13.604,7.633],[13.593,7.628],[13.558,7.615],[13.548,7.608],[13.535,7.594],[13.525,7.59],[13.511,7.592],[13.459,7.627],[13.436,7.636],[13.419,7.645],[13.403,7.66],[13.393,7.673],[13.365,7.693],[13.295,7.708],[13.284,7.702],[13.277,7.691],[13.267,7.68],[13.264,7.672],[13.262,7.659],[13.259,7.619],[13.252,7.608],[13.199,7.61],[13.171,7.606],[13.148,7.599],[13.125,7.595],[13.111,7.596],[13.096,7.6],[13.01,7.645],[12.996,7.649],[12.836,7.673],[12.755,7.696],[12.738,7.711],[12.713,7.724],[12.703,7.725],[12.69,7.728],[12.666,7.738],[12.654,7.744],[12.644,7.755],[12.637,7.771],[12.636,7.802],[12.633,7.824],[12.636,7.835],[12.643,7.843],[12.648,7.853],[12.649,7.863],[12.646,7.874],[12.625,7.907],[12.616,7.918],[12.601,7.922],[12.587,7.924],[12.549,7.925],[12.524,7.929],[12.502,7.935],[12.479,7.948],[12.288,8.12],[12.246,8.177],[12.234,8.188],[12.237,8.197],[12.238,8.217],[12.222,8.298],[12.219,8.343],[12.227,8.386],[12.25,8.419],[12.272,8.428],[12.31,8.421],[12.331,8.424],[12.343,8.433],[12.351,8.444],[12.358,8.456],[12.365,8.467],[12.395,8.487],[12.404,8.497],[12.403,8.524],[12.4,8.538],[12.377,8.595],[12.369,8.61],[12.396,8.601],[12.411,8.598],[12.424,8.6],[12.44,8.607],[12.452,8.615],[12.464,8.621],[12.483,8.623],[12.496,8.62],[12.528,8.605],[12.543,8.602],[12.558,8.606],[12.66,8.659],[12.678,8.679],[12.693,8.711],[12.702,8.739],[12.709,8.751],[12.72,8.756],[12.734,8.756],[12.747,8.754],[12.76,8.753],[12.773,8.759],[12.795,8.789],[12.806,8.832],[12.828,9.02],[12.821,9.056],[12.822,9.097],[12.842,9.144],[12.888,9.227],[12.895,9.244],[12.898,9.262],[12.899,9.302],[12.891,9.332],[12.882,9.352],[12.853,9.357],[12.848,9.36],[12.855,9.378],[12.862,9.383],[12.921,9.41],[12.929,9.416],[12.94,9.427],[12.969,9.464],[12.982,9.475],[13.052,9.505],[13.13,9.517],[13.195,9.542],[13.223,9.613],[13.228,9.678],[13.241,9.745],[13.251,9.769],[13.26,9.786],[13.263,9.802],[13.252,9.824],[13.223,9.854],[13.213,9.87],[13.211,9.893],[13.219,9.913],[13.242,9.95],[13.246,9.973],[13.242,9.993],[13.23,10.025],[13.23,10.045],[13.248,10.079],[13.281,10.092],[13.36,10.101],[13.378,10.109],[13.393,10.117],[13.396,10.11],[13.416,10.077],[13.425,10.069],[13.437,10.063],[13.45,10.063],[13.498,10.078],[13.535,10.078],[13.555,10.075],[13.57,10.08],[13.593,10.091],[13.657,10.112],[13.669,10.119],[13.674,10.129],[13.67,10.14],[13.654,10.162],[13.65,10.173],[13.65,10.183],[13.655,10.195],[13.664,10.207],[13.68,10.221],[13.695,10.225],[13.71,10.227],[13.773,10.214],[13.812,10.21],[13.854,10.214],[13.874,10.213],[13.928,10.202],[13.96,10.192],[13.974,10.183],[13.999,10.146],[14.003,10.142],[14.035,10.12],[14.056,10.093],[14.085,10.085],[14.101,10.086],[14.194,10.059],[14.204,10.043],[14.195,9.982],[14.196,9.979]]]}},{"type":"Feature","id":"CM-NW","properties":{"id":"CM-NW","countryCode":"CM","isoSubdivision":"CM-NW","name":"Northwest","name_en":"Northwest","name_ko":"북서부","type":"Province","labelLongitude":10.4,"labelLatitude":6.345,"minZoom":6.7},"geometry":{"type":"Polygon","coordinates":[[[9.694,6.534],[9.77,6.774],[9.789,6.795],[9.812,6.793],[9.832,6.784],[9.851,6.778],[9.875,6.788],[10.119,6.994],[10.143,7.008],[10.157,7.005],[10.165,6.989],[10.179,6.915],[10.19,6.895],[10.211,6.879],[10.238,6.871],[10.496,6.875],[10.497,6.897],[10.501,6.913],[10.509,6.926],[10.521,6.943],[10.528,6.947],[10.533,6.949],[10.537,6.952],[10.543,7.029],[10.552,7.066],[10.564,7.103],[10.579,7.131],[10.597,7.107],[10.603,7.058],[10.621,7.044],[10.647,7.035],[10.717,6.998],[10.799,6.967],[10.832,6.945],[10.848,6.905],[10.857,6.86],[10.877,6.816],[10.909,6.784],[11.003,6.767],[11.037,6.741],[11.056,6.7],[11.059,6.653],[11.057,6.613],[11.061,6.574],[11.077,6.497],[11.097,6.449],[11.114,6.434],[11.14,6.43],[11.202,6.437],[11.209,6.385],[11.207,6.357],[11.197,6.314],[11.188,6.291],[11.149,6.253],[11.137,6.246],[11.117,6.238],[11.104,6.236],[11.091,6.236],[11.011,6.244],[11.004,6.221],[11.01,6.174],[10.996,6.11],[10.989,6.095],[10.979,6.084],[10.968,6.074],[10.922,6.049],[10.877,6.034],[10.855,6.031],[10.838,6.007],[10.794,6.018],[10.724,6.031],[10.71,6.029],[10.693,6.024],[10.687,6.016],[10.683,6.006],[10.644,5.912],[10.602,5.845],[10.594,5.84],[10.571,5.832],[10.518,5.836],[10.5,5.836],[10.324,5.803],[10.308,5.743],[10.299,5.732],[10.288,5.723],[10.278,5.726],[10.271,5.734],[10.265,5.744],[10.259,5.755],[10.25,5.763],[10.239,5.767],[10.191,5.78],[10.176,5.782],[10.165,5.78],[10.157,5.776],[10.096,5.728],[10.065,5.739],[10.015,5.75],[9.976,5.763],[9.92,5.733],[9.857,5.762],[9.798,5.78],[9.769,5.795],[9.756,5.808],[9.747,5.82],[9.739,5.837],[9.734,5.844],[9.724,5.848],[9.698,5.843],[9.675,5.849],[9.65,5.883],[9.639,5.894],[9.628,5.9],[9.617,5.905],[9.609,5.914],[9.605,5.927],[9.616,5.977],[9.606,5.991],[9.599,5.997],[9.598,5.999],[9.597,6],[9.596,6.001],[9.595,6.003],[9.592,6.01],[9.596,6.023],[9.61,6.039],[9.707,6.1],[9.731,6.129],[9.752,6.135],[9.761,6.131],[9.772,6.129],[9.783,6.133],[9.79,6.144],[9.796,6.161],[9.795,6.193],[9.801,6.215],[9.806,6.266],[9.757,6.421],[9.747,6.441],[9.734,6.483],[9.709,6.521],[9.694,6.534]]]}},{"type":"Feature","id":"CM-OU","properties":{"id":"CM-OU","countryCode":"CM","isoSubdivision":"CM-OU","name":"West","name_en":"West","name_ko":"서부","type":"Province","labelLongitude":10.589,"labelLatitude":5.367,"minZoom":6.7},"geometry":{"type":"Polygon","coordinates":[[[11.091,6.236],[11.104,6.236],[11.117,6.238],[11.137,6.246],[11.149,6.253],[11.188,6.291],[11.267,6.272],[11.281,6.265],[11.296,6.254],[11.299,6.243],[11.298,6.233],[11.288,6.21],[11.285,6.198],[11.283,6.176],[11.285,6.158],[11.29,6.136],[11.307,6.093],[11.312,6.071],[11.313,6.054],[11.297,6.013],[11.292,5.993],[11.275,5.981],[11.266,5.971],[11.278,5.964],[11.28,5.949],[11.274,5.933],[11.259,5.924],[11.264,5.914],[11.264,5.894],[11.266,5.883],[11.269,5.877],[11.274,5.872],[11.278,5.865],[11.28,5.852],[11.278,5.839],[11.275,5.829],[11.274,5.819],[11.28,5.807],[11.29,5.804],[11.301,5.806],[11.31,5.804],[11.314,5.79],[11.311,5.784],[11.297,5.778],[11.278,5.74],[11.273,5.732],[11.266,5.728],[11.257,5.726],[11.249,5.723],[11.242,5.704],[11.233,5.696],[11.211,5.684],[11.219,5.67],[11.211,5.654],[11.198,5.638],[11.19,5.622],[11.194,5.611],[11.194,5.604],[11.196,5.6],[11.206,5.583],[11.208,5.578],[11.21,5.567],[11.212,5.531],[11.21,5.514],[11.201,5.486],[11.197,5.478],[11.193,5.471],[11.19,5.468],[11.177,5.45],[11.191,5.431],[11.191,5.426],[11.19,5.42],[11.187,5.414],[11.183,5.403],[11.18,5.398],[11.176,5.395],[11.162,5.389],[11.16,5.388],[11.134,5.347],[11.129,5.341],[11.125,5.339],[11.119,5.338],[11.113,5.337],[11.106,5.335],[11.098,5.331],[11.086,5.32],[11.081,5.312],[11.079,5.304],[11.079,5.292],[11.082,5.27],[11.082,5.263],[11.075,5.235],[11.074,5.226],[11.075,5.215],[11.077,5.207],[11.082,5.195],[11.061,5.188],[11.035,5.175],[11.018,5.162],[11.003,5.144],[10.997,5.13],[10.994,5.117],[10.99,5.093],[10.98,5.059],[10.959,5.004],[10.957,4.996],[10.946,4.969],[10.936,4.961],[10.925,4.956],[10.901,4.956],[10.879,4.959],[10.866,4.962],[10.824,5.003],[10.812,5.011],[10.797,5.016],[10.787,5.013],[10.78,5.006],[10.776,5.002],[10.775,5],[10.774,4.997],[10.771,4.99],[10.765,4.981],[10.755,4.972],[10.745,4.965],[10.608,4.899],[10.592,4.896],[10.578,4.895],[10.504,4.908],[10.485,4.916],[10.476,4.924],[10.467,4.935],[10.445,4.944],[10.433,4.955],[10.416,5.003],[10.407,5.021],[10.396,5.038],[10.387,5.073],[10.374,5.089],[10.347,5.086],[10.336,5.083],[10.314,5.076],[10.303,5.074],[10.292,5.076],[10.282,5.08],[10.27,5.082],[10.26,5.08],[10.251,5.063],[10.246,5.05],[10.239,5.036],[10.226,5.024],[10.189,4.999],[10.184,4.991],[10.177,4.982],[10.151,4.929],[10.141,4.928],[10.138,4.927],[10.131,4.926],[10.128,4.926],[10.125,4.926],[10.12,4.927],[10.112,4.937],[10.105,4.969],[10.091,4.983],[10.087,4.986],[10.078,4.993],[10.073,4.999],[10.072,5.001],[10.069,5.012],[10.065,5.038],[10.062,5.046],[10.058,5.052],[10.02,5.072],[10.016,5.078],[10.011,5.087],[10.005,5.106],[9.998,5.119],[9.996,5.124],[9.995,5.128],[10.005,5.151],[10.004,5.193],[9.99,5.219],[9.987,5.235],[9.984,5.242],[9.977,5.251],[9.944,5.274],[9.931,5.28],[9.92,5.278],[9.91,5.272],[9.9,5.264],[9.89,5.261],[9.879,5.262],[9.863,5.284],[9.87,5.357],[9.908,5.386],[9.95,5.489],[9.955,5.507],[9.96,5.551],[9.969,5.567],[9.985,5.586],[10.063,5.654],[10.108,5.671],[10.112,5.682],[10.113,5.689],[10.096,5.728],[10.157,5.776],[10.165,5.78],[10.176,5.782],[10.191,5.78],[10.239,5.767],[10.25,5.763],[10.259,5.755],[10.265,5.744],[10.271,5.734],[10.278,5.726],[10.288,5.723],[10.299,5.732],[10.308,5.743],[10.324,5.803],[10.5,5.836],[10.518,5.836],[10.571,5.832],[10.594,5.84],[10.602,5.845],[10.644,5.912],[10.683,6.006],[10.687,6.016],[10.693,6.024],[10.71,6.029],[10.724,6.031],[10.794,6.018],[10.838,6.007],[10.855,6.031],[10.877,6.034],[10.922,6.049],[10.968,6.074],[10.979,6.084],[10.989,6.095],[10.996,6.11],[11.01,6.174],[11.004,6.221],[11.011,6.244],[11.091,6.236]]]}},{"type":"Feature","id":"CM-SU","properties":{"id":"CM-SU","countryCode":"CM","isoSubdivision":"CM-SU","name":"South","name_en":"South","name_ko":"남부","type":"Province","labelLongitude":11.731,"labelLatitude":2.793,"minZoom":6.7},"geometry":{"type":"Polygon","coordinates":[[[11.768,2.28],[11.753,2.282],[11.701,2.299],[11.681,2.315],[11.671,2.321],[11.657,2.322],[11.645,2.32],[11.619,2.31],[11.352,2.301],[11.35,2.291],[11.354,2.278],[11.356,2.265],[11.35,2.251],[11.342,2.241],[11.336,2.229],[11.334,2.213],[11.334,2.2],[11.332,2.188],[11.328,2.176],[11.322,2.166],[11.023,2.166],[10.724,2.166],[10.425,2.166],[10.41,2.166],[10.19,2.166],[10.126,2.166],[9.991,2.166],[9.971,2.169],[9.907,2.2],[9.89,2.205],[9.872,2.211],[9.847,2.229],[9.824,2.249],[9.811,2.265],[9.809,2.285],[9.812,2.306],[9.811,2.325],[9.8,2.342],[9.812,2.354],[9.812,2.36],[9.819,2.377],[9.823,2.563],[9.853,2.697],[9.87,2.738],[9.874,2.755],[9.878,2.881],[9.888,2.927],[9.903,2.968],[9.922,2.997],[9.943,3.023],[9.956,3.05],[9.958,3.082],[9.92,3.228],[9.902,3.252],[9.902,3.258],[9.912,3.258],[9.918,3.259],[9.929,3.265],[9.929,3.269],[9.93,3.269],[9.947,3.276],[9.953,3.281],[9.959,3.287],[9.968,3.299],[9.978,3.309],[9.989,3.318],[10.015,3.334],[10.021,3.339],[10.025,3.344],[10.049,3.386],[10.05,3.389],[10.051,3.392],[10.051,3.397],[10.05,3.407],[10.05,3.412],[10.052,3.414],[10.061,3.424],[10.063,3.428],[10.065,3.431],[10.066,3.435],[10.065,3.438],[10.061,3.452],[10.061,3.464],[10.061,3.485],[10.065,3.502],[10.067,3.505],[10.071,3.509],[10.088,3.523],[10.095,3.531],[10.11,3.552],[10.113,3.559],[10.117,3.565],[10.123,3.572],[10.129,3.578],[10.131,3.581],[10.135,3.583],[10.142,3.585],[10.148,3.587],[10.171,3.59],[10.175,3.592],[10.177,3.593],[10.18,3.595],[10.186,3.601],[10.188,3.603],[10.191,3.604],[10.205,3.598],[10.224,3.587],[10.24,3.574],[10.248,3.554],[10.239,3.522],[10.289,3.358],[10.296,3.355],[10.374,3.367],[10.689,3.46],[10.715,3.467],[10.78,3.481],[10.802,3.481],[10.82,3.479],[10.828,3.473],[10.833,3.465],[10.839,3.444],[10.843,3.421],[10.848,3.416],[10.89,3.419],[10.937,3.426],[10.96,3.421],[10.974,3.416],[10.983,3.41],[10.995,3.411],[11.026,3.416],[11.037,3.416],[11.05,3.406],[11.08,3.37],[11.09,3.344],[11.107,3.269],[11.118,3.254],[11.129,3.246],[11.139,3.243],[11.148,3.237],[11.153,3.226],[11.158,3.197],[11.163,3.188],[11.175,3.178],[11.217,3.134],[11.255,3.141],[11.282,3.144],[11.324,3.136],[11.34,3.137],[11.382,3.147],[11.538,3.145],[11.561,3.148],[11.609,3.163],[11.684,3.199],[11.695,3.207],[11.709,3.244],[11.717,3.272],[11.75,3.329],[11.76,3.339],[11.782,3.345],[11.794,3.352],[11.814,3.366],[11.859,3.39],[11.867,3.4],[11.899,3.462],[11.918,3.453],[11.935,3.44],[11.97,3.432],[11.983,3.426],[12.005,3.41],[12.118,3.356],[12.133,3.346],[12.134,3.338],[12.129,3.326],[12.127,3.323],[12.124,3.316],[12.126,3.305],[12.138,3.301],[12.155,3.303],[12.203,3.317],[12.223,3.33],[12.257,3.457],[12.27,3.478],[12.304,3.515],[12.411,3.6],[12.466,3.659],[12.479,3.665],[12.489,3.666],[12.497,3.661],[12.503,3.657],[12.509,3.648],[12.533,3.601],[12.554,3.575],[12.569,3.558],[12.551,3.438],[12.553,3.43],[12.555,3.421],[12.559,3.411],[12.571,3.391],[12.603,3.35],[12.673,3.284],[12.699,3.252],[12.736,3.188],[12.752,3.143],[12.761,3.094],[12.764,2.981],[12.767,2.969],[12.797,2.926],[12.802,2.923],[12.821,2.915],[12.828,2.91],[12.831,2.906],[12.835,2.903],[12.859,2.9],[12.876,2.892],[12.89,2.888],[12.923,2.887],[12.938,2.884],[12.952,2.874],[12.971,2.892],[12.972,2.895],[12.98,2.889],[12.997,2.871],[13.003,2.871],[13.016,2.872],[13.061,2.859],[13.075,2.853],[13.08,2.86],[13.087,2.866],[13.093,2.867],[13.099,2.848],[13.106,2.846],[13.113,2.849],[13.116,2.857],[13.122,2.868],[13.136,2.871],[13.152,2.869],[13.164,2.861],[13.173,2.865],[13.178,2.866],[13.183,2.865],[13.191,2.861],[13.203,2.872],[13.218,2.868],[13.228,2.855],[13.226,2.84],[13.25,2.831],[13.257,2.824],[13.262,2.799],[13.27,2.793],[13.281,2.791],[13.294,2.792],[13.286,2.802],[13.275,2.832],[13.273,2.84],[13.283,2.852],[13.292,2.851],[13.302,2.844],[13.311,2.84],[13.33,2.817],[13.339,2.812],[13.353,2.812],[13.36,2.813],[13.363,2.816],[13.367,2.827],[13.374,2.825],[13.381,2.817],[13.383,2.812],[13.421,2.79],[13.432,2.786],[13.49,2.786],[13.505,2.79],[13.507,2.802],[13.5,2.83],[13.504,2.843],[13.514,2.842],[13.528,2.836],[13.541,2.833],[13.531,2.849],[13.532,2.855],[13.548,2.861],[13.586,2.891],[13.597,2.898],[13.61,2.902],[13.621,2.906],[13.63,2.845],[13.662,2.161],[13.662,2.158],[13.62,2.158],[13.467,2.16],[13.295,2.161],[13.294,2.186],[13.298,2.216],[13.294,2.231],[13.285,2.242],[13.27,2.256],[13.254,2.267],[13.243,2.271],[13.236,2.27],[13.222,2.264],[13.212,2.264],[13.206,2.267],[13.192,2.278],[13.164,2.283],[13.133,2.285],[13.125,2.281],[13.113,2.273],[13.093,2.253],[13.084,2.25],[13.041,2.244],[13.013,2.256],[12.997,2.26],[12.983,2.253],[12.972,2.25],[12.955,2.253],[12.925,2.264],[12.915,2.255],[12.903,2.25],[12.89,2.251],[12.876,2.257],[12.868,2.245],[12.848,2.249],[12.825,2.259],[12.808,2.264],[12.796,2.259],[12.784,2.25],[12.77,2.241],[12.75,2.237],[12.615,2.257],[12.591,2.266],[12.575,2.278],[12.551,2.272],[12.534,2.278],[12.478,2.296],[12.44,2.299],[12.385,2.286],[12.367,2.29],[12.334,2.31],[12.322,2.314],[12.312,2.313],[12.291,2.302],[12.281,2.299],[12.261,2.296],[12.223,2.283],[12.203,2.28],[12.159,2.281],[12.119,2.288],[12.101,2.288],[12.042,2.284],[11.966,2.289],[11.89,2.282],[11.802,2.285],[11.768,2.28]]]}},{"type":"Feature","id":"CM-SW","properties":{"id":"CM-SW","countryCode":"CM","isoSubdivision":"CM-SW","name":"Southwest","name_en":"Southwest","name_ko":"남서부","type":"Province","labelLongitude":9.245,"labelLatitude":5.128,"minZoom":6.7},"geometry":{"type":"Polygon","coordinates":[[[9.645,6.521],[9.681,6.521],[9.693,6.531],[9.694,6.534],[9.709,6.521],[9.734,6.483],[9.747,6.441],[9.757,6.421],[9.806,6.266],[9.801,6.215],[9.795,6.193],[9.796,6.161],[9.79,6.144],[9.783,6.133],[9.772,6.129],[9.761,6.131],[9.752,6.135],[9.731,6.129],[9.707,6.1],[9.61,6.039],[9.596,6.023],[9.592,6.01],[9.595,6.003],[9.596,6.001],[9.597,6],[9.598,5.999],[9.599,5.997],[9.606,5.991],[9.616,5.977],[9.605,5.927],[9.609,5.914],[9.617,5.905],[9.628,5.9],[9.639,5.894],[9.65,5.883],[9.675,5.849],[9.698,5.843],[9.724,5.848],[9.734,5.844],[9.739,5.837],[9.747,5.82],[9.756,5.808],[9.769,5.795],[9.798,5.78],[9.857,5.762],[9.92,5.733],[9.976,5.763],[10.015,5.75],[10.065,5.739],[10.096,5.728],[10.113,5.689],[10.112,5.682],[10.108,5.671],[10.063,5.654],[9.985,5.586],[9.969,5.567],[9.96,5.551],[9.955,5.507],[9.95,5.489],[9.908,5.386],[9.87,5.357],[9.837,5.349],[9.801,5.308],[9.789,5.301],[9.777,5.299],[9.767,5.299],[9.758,5.297],[9.754,5.289],[9.754,5.279],[9.763,5.241],[9.779,5.201],[9.817,5.154],[9.831,5.131],[9.85,5.088],[9.853,5.07],[9.843,5.058],[9.808,5.051],[9.791,5.03],[9.778,5],[9.77,4.975],[9.767,4.961],[9.774,4.947],[9.796,4.924],[9.794,4.912],[9.788,4.902],[9.777,4.893],[9.759,4.869],[9.727,4.839],[9.716,4.823],[9.712,4.808],[9.711,4.796],[9.71,4.77],[9.7,4.747],[9.673,4.726],[9.645,4.685],[9.639,4.651],[9.632,4.643],[9.622,4.639],[9.614,4.639],[9.601,4.642],[9.578,4.641],[9.57,4.635],[9.554,4.612],[9.522,4.556],[9.515,4.528],[9.511,4.471],[9.513,4.456],[9.522,4.429],[9.516,4.407],[9.447,4.298],[9.441,4.269],[9.439,4.243],[9.461,4.231],[9.531,4.219],[9.545,4.209],[9.553,4.199],[9.561,4.176],[9.562,4.165],[9.556,4.157],[9.543,4.146],[9.536,4.136],[9.525,4.116],[9.517,4.108],[9.509,4.104],[9.503,4.102],[9.49,4.116],[9.479,4.111],[9.45,4.08],[9.453,4.077],[9.45,4.073],[9.41,4.008],[9.399,3.983],[9.397,3.973],[9.395,3.968],[9.392,3.966],[9.383,3.963],[9.365,3.952],[9.332,3.922],[9.314,3.931],[9.303,3.965],[9.308,4.002],[9.326,4.026],[9.326,4.032],[9.301,4.026],[9.29,4.01],[9.284,3.992],[9.25,3.961],[9.221,3.966],[9.211,3.964],[9.211,3.983],[9.213,3.997],[9.211,4.008],[9.196,4.019],[9.185,4.021],[9.167,4.021],[9.149,4.019],[9.139,4.015],[9.123,4.018],[9.07,4.051],[8.983,4.092],[8.971,4.101],[8.969,4.129],[8.988,4.189],[8.991,4.217],[8.96,4.246],[8.936,4.28],[8.919,4.318],[8.895,4.461],[8.9,4.485],[8.926,4.53],[8.936,4.553],[8.914,4.529],[8.901,4.522],[8.895,4.536],[8.897,4.548],[8.902,4.56],[8.904,4.573],[8.902,4.587],[8.894,4.595],[8.872,4.602],[8.864,4.619],[8.856,4.63],[8.847,4.64],[8.84,4.643],[8.836,4.63],[8.867,4.583],[8.874,4.56],[8.868,4.545],[8.859,4.541],[8.851,4.547],[8.847,4.563],[8.799,4.601],[8.798,4.588],[8.799,4.578],[8.804,4.57],[8.813,4.566],[8.8,4.542],[8.795,4.539],[8.788,4.541],[8.769,4.553],[8.764,4.557],[8.757,4.565],[8.741,4.571],[8.724,4.58],[8.717,4.598],[8.706,4.635],[8.661,4.699],[8.655,4.738],[8.639,4.713],[8.645,4.684],[8.66,4.654],[8.686,4.561],[8.695,4.553],[8.706,4.548],[8.717,4.539],[8.723,4.513],[8.702,4.501],[8.577,4.492],[8.565,4.497],[8.57,4.51],[8.583,4.523],[8.594,4.533],[8.582,4.538],[8.571,4.539],[8.563,4.533],[8.556,4.512],[8.548,4.508],[8.537,4.509],[8.526,4.512],[8.51,4.527],[8.505,4.551],[8.51,4.569],[8.526,4.566],[8.531,4.579],[8.552,4.615],[8.538,4.605],[8.526,4.604],[8.516,4.613],[8.511,4.629],[8.514,4.642],[8.521,4.656],[8.539,4.676],[8.568,4.696],[8.573,4.704],[8.574,4.716],[8.57,4.728],[8.568,4.74],[8.573,4.753],[8.58,4.745],[8.577,4.785],[8.578,4.805],[8.59,4.813],[8.594,4.815],[8.595,4.815],[8.612,4.832],[8.608,4.846],[8.605,4.86],[8.602,4.881],[8.611,4.897],[8.638,4.917],[8.644,4.935],[8.684,4.997],[8.699,5.018],[8.708,5.038],[8.723,5.081],[8.729,5.095],[8.748,5.124],[8.758,5.135],[8.769,5.14],[8.781,5.142],[8.792,5.147],[8.799,5.16],[8.826,5.295],[8.825,5.306],[8.816,5.33],[8.815,5.343],[8.822,5.368],[8.843,5.41],[8.85,5.432],[8.849,5.453],[8.846,5.473],[8.844,5.492],[8.85,5.514],[8.865,5.533],[8.884,5.551],[8.899,5.571],[8.904,5.595],[8.894,5.622],[8.875,5.641],[8.853,5.659],[8.832,5.678],[8.819,5.703],[8.827,5.718],[8.845,5.731],[8.862,5.752],[8.867,5.777],[8.858,5.795],[8.847,5.811],[8.845,5.831],[8.856,5.847],[8.891,5.871],[8.905,5.888],[8.922,5.904],[8.943,5.901],[8.965,5.894],[8.983,5.896],[8.986,5.909],[8.988,5.937],[8.994,5.944],[9.01,5.952],[9.022,5.966],[9.044,5.997],[9.136,6.093],[9.273,6.203],[9.299,6.238],[9.327,6.299],[9.341,6.314],[9.355,6.322],[9.367,6.323],[9.379,6.322],[9.395,6.323],[9.423,6.339],[9.453,6.398],[9.483,6.416],[9.489,6.418],[9.529,6.433],[9.549,6.443],[9.565,6.459],[9.588,6.503],[9.603,6.515],[9.633,6.521],[9.645,6.521]]]}}]}
