{"type":"FeatureCollection","features":[{"type":"Feature","id":"CR-A","properties":{"id":"CR-A","countryCode":"CR","isoSubdivision":"CR-A","name":"Alajuela","name_en":"Alajuela","name_ko":"알라후엘라","type":"Province","labelLongitude":-84.799,"labelLatitude":10.753,"minZoom":7.7},"geometry":{"type":"Polygon","coordinates":[[[-84.355,10.995],[-84.346,10.99],[-84.344,10.982],[-84.344,10.972],[-84.342,10.96],[-84.337,10.953],[-84.324,10.936],[-84.321,10.929],[-84.311,10.919],[-84.264,10.902],[-84.254,10.895],[-84.245,10.885],[-84.226,10.875],[-84.208,10.861],[-84.205,10.837],[-84.219,10.83],[-84.223,10.827],[-84.227,10.819],[-84.225,10.814],[-84.221,10.809],[-84.219,10.806],[-84.197,10.789],[-84.192,10.782],[-84.18,10.79],[-84.165,10.789],[-84.158,10.788],[-84.158,10.784],[-84.161,10.571],[-84.163,10.41],[-84.164,10.296],[-84.166,10.158],[-84.177,10.007],[-84.178,10.004],[-84.196,9.985],[-84.201,9.977],[-84.202,9.974],[-84.202,9.971],[-84.202,9.966],[-84.2,9.957],[-84.215,9.941],[-84.242,9.933],[-84.309,9.914],[-84.327,9.912],[-84.332,9.913],[-84.344,9.915],[-84.349,9.916],[-84.353,9.917],[-84.373,9.92],[-84.392,9.926],[-84.417,9.921],[-84.461,9.917],[-84.492,9.904],[-84.5,9.899],[-84.501,9.897],[-84.502,9.895],[-84.514,9.884],[-84.531,9.875],[-84.538,9.87],[-84.541,9.866],[-84.54,9.864],[-84.541,9.861],[-84.559,9.838],[-84.561,9.834],[-84.562,9.827],[-84.564,9.825],[-84.571,9.825],[-84.593,9.853],[-84.602,9.86],[-84.614,9.862],[-84.627,9.863],[-84.643,9.868],[-84.664,9.876],[-84.671,9.881],[-84.674,9.884],[-84.673,9.89],[-84.673,9.896],[-84.673,9.898],[-84.671,9.9],[-84.669,9.902],[-84.662,9.905],[-84.644,9.934],[-84.636,9.941],[-84.625,9.945],[-84.576,9.976],[-84.56,9.983],[-84.555,9.985],[-84.552,9.988],[-84.551,9.99],[-84.55,9.998],[-84.563,10.018],[-84.57,10.022],[-84.572,10.021],[-84.58,10.015],[-84.588,10.013],[-84.591,10.013],[-84.594,10.013],[-84.594,10.015],[-84.596,10.018],[-84.596,10.02],[-84.603,10.03],[-84.619,10.049],[-84.627,10.062],[-84.643,10.082],[-84.649,10.091],[-84.66,10.114],[-84.665,10.13],[-84.661,10.155],[-84.662,10.159],[-84.663,10.164],[-84.668,10.174],[-84.669,10.178],[-84.669,10.182],[-84.663,10.204],[-84.66,10.212],[-84.65,10.231],[-84.648,10.236],[-84.649,10.24],[-84.65,10.241],[-84.656,10.246],[-84.661,10.252],[-84.666,10.267],[-84.684,10.279],[-84.692,10.28],[-84.694,10.279],[-84.696,10.278],[-84.703,10.274],[-84.717,10.27],[-84.736,10.267],[-84.744,10.266],[-84.75,10.267],[-84.756,10.271],[-84.758,10.272],[-84.764,10.28],[-84.787,10.315],[-84.771,10.345],[-84.769,10.355],[-84.771,10.36],[-84.773,10.362],[-84.775,10.369],[-84.779,10.387],[-84.764,10.442],[-84.786,10.485],[-84.793,10.497],[-84.85,10.54],[-84.868,10.549],[-84.923,10.563],[-84.937,10.569],[-84.948,10.581],[-84.975,10.604],[-84.978,10.608],[-84.984,10.616],[-84.987,10.623],[-84.991,10.65],[-85.003,10.67],[-85.017,10.693],[-85.023,10.699],[-85.029,10.703],[-85.043,10.709],[-85.054,10.712],[-85.107,10.725],[-85.123,10.73],[-85.129,10.734],[-85.136,10.741],[-85.166,10.761],[-85.174,10.765],[-85.18,10.768],[-85.186,10.768],[-85.193,10.768],[-85.205,10.766],[-85.227,10.761],[-85.253,10.759],[-85.283,10.76],[-85.307,10.808],[-85.316,10.821],[-85.32,10.824],[-85.323,10.825],[-85.325,10.827],[-85.328,10.827],[-85.35,10.83],[-85.356,10.832],[-85.381,10.846],[-85.392,10.855],[-85.438,10.907],[-85.439,10.909],[-85.441,10.913],[-85.441,10.915],[-85.441,10.918],[-85.437,10.922],[-85.403,10.925],[-85.394,10.928],[-85.391,10.933],[-85.389,10.937],[-85.31,10.99],[-85.263,11.043],[-85.259,11.046],[-85.256,11.047],[-85.252,11.047],[-85.246,11.049],[-85.239,11.051],[-85.236,11.053],[-85.093,11.001],[-84.931,10.942],[-84.908,10.939],[-84.885,10.948],[-84.782,11.015],[-84.708,11.063],[-84.676,11.07],[-84.659,11.063],[-84.621,11.036],[-84.603,11.033],[-84.582,11.034],[-84.559,11.027],[-84.509,11.006],[-84.503,11.004],[-84.498,11.002],[-84.493,10.999],[-84.489,10.996],[-84.466,10.968],[-84.458,10.961],[-84.449,10.956],[-84.438,10.952],[-84.427,10.951],[-84.418,10.955],[-84.364,10.99],[-84.355,10.995]]]}},{"type":"Feature","id":"CR-C","properties":{"id":"CR-C","countryCode":"CR","isoSubdivision":"CR-C","name":"Cartago","name_en":"Cartago","name_ko":"카르타고","type":"Province","labelLongitude":-83.699,"labelLatitude":9.784,"minZoom":7.7},"geometry":{"type":"Polygon","coordinates":[[[-83.912,9.944],[-83.908,9.945],[-83.905,9.946],[-83.893,9.959],[-83.881,9.961],[-83.875,9.963],[-83.871,9.966],[-83.868,9.97],[-83.866,9.978],[-83.87,10],[-83.872,10.026],[-83.875,10.035],[-83.879,10.04],[-83.899,10.063],[-83.901,10.064],[-83.905,10.067],[-83.914,10.073],[-83.923,10.08],[-83.926,10.085],[-83.929,10.089],[-83.943,10.136],[-83.817,10.08],[-83.774,10.06],[-83.713,10.032],[-83.615,9.987],[-83.589,9.977],[-83.445,9.976],[-83.339,9.974],[-83.319,9.97],[-83.321,9.966],[-83.334,9.948],[-83.342,9.932],[-83.345,9.914],[-83.343,9.892],[-83.332,9.856],[-83.329,9.838],[-83.336,9.821],[-83.379,9.768],[-83.409,9.732],[-83.417,9.72],[-83.439,9.663],[-83.497,9.595],[-83.511,9.566],[-83.514,9.536],[-83.512,9.526],[-83.51,9.514],[-83.504,9.501],[-83.502,9.498],[-83.499,9.494],[-83.497,9.491],[-83.49,9.478],[-83.487,9.468],[-83.592,9.531],[-83.595,9.532],[-83.605,9.536],[-83.613,9.544],[-83.639,9.57],[-83.651,9.566],[-83.655,9.562],[-83.66,9.553],[-83.661,9.551],[-83.663,9.549],[-83.665,9.548],[-83.667,9.547],[-83.67,9.546],[-83.672,9.545],[-83.675,9.545],[-83.679,9.545],[-83.69,9.546],[-83.693,9.545],[-83.698,9.543],[-83.712,9.537],[-83.714,9.537],[-83.716,9.538],[-83.718,9.552],[-83.721,9.562],[-83.722,9.565],[-83.725,9.567],[-83.729,9.57],[-83.744,9.575],[-83.749,9.578],[-83.752,9.58],[-83.763,9.596],[-83.782,9.594],[-83.787,9.593],[-83.809,9.598],[-83.812,9.599],[-83.815,9.601],[-83.818,9.605],[-83.823,9.613],[-83.828,9.621],[-83.829,9.625],[-83.83,9.628],[-83.837,9.642],[-83.845,9.655],[-83.846,9.656],[-83.849,9.658],[-83.853,9.66],[-83.861,9.661],[-83.865,9.66],[-83.868,9.659],[-83.87,9.657],[-83.873,9.656],[-83.878,9.658],[-83.898,9.668],[-83.911,9.672],[-83.913,9.673],[-83.919,9.678],[-83.941,9.706],[-83.95,9.721],[-83.95,9.723],[-83.951,9.725],[-83.956,9.73],[-83.976,9.736],[-83.982,9.748],[-83.984,9.753],[-83.986,9.758],[-83.988,9.768],[-83.996,9.769],[-84.033,9.761],[-84.039,9.762],[-84.045,9.763],[-84.048,9.763],[-84.056,9.76],[-84.068,9.756],[-84.071,9.755],[-84.074,9.756],[-84.076,9.757],[-84.078,9.759],[-84.079,9.761],[-84.079,9.764],[-84.079,9.767],[-84.079,9.771],[-84.076,9.778],[-84.069,9.789],[-84.051,9.804],[-84.039,9.813],[-84.031,9.821],[-84.003,9.867],[-84.023,9.875],[-84.026,9.878],[-84.028,9.879],[-84.026,9.887],[-84,9.93],[-83.954,9.946],[-83.953,9.947],[-83.927,9.947],[-83.918,9.946],[-83.915,9.945],[-83.912,9.944]]]}},{"type":"Feature","id":"CR-G","properties":{"id":"CR-G","countryCode":"CR","isoSubdivision":"CR-G","name":"Guanacaste","name_en":"Guanacaste","name_ko":"과나카스테","type":"Province","labelLongitude":-85.355,"labelLatitude":10.333,"minZoom":7.7},"geometry":{"type":"Polygon","coordinates":[[[-85.598,11.21],[-85.569,11.195],[-85.541,11.17],[-85.509,11.152],[-85.407,11.115],[-85.272,11.066],[-85.236,11.053],[-85.239,11.051],[-85.246,11.049],[-85.252,11.047],[-85.256,11.047],[-85.259,11.046],[-85.263,11.043],[-85.31,10.99],[-85.389,10.937],[-85.391,10.933],[-85.394,10.928],[-85.403,10.925],[-85.437,10.922],[-85.441,10.918],[-85.441,10.915],[-85.441,10.913],[-85.439,10.909],[-85.438,10.907],[-85.392,10.855],[-85.381,10.846],[-85.356,10.832],[-85.35,10.83],[-85.328,10.827],[-85.325,10.827],[-85.323,10.825],[-85.32,10.824],[-85.316,10.821],[-85.307,10.808],[-85.283,10.76],[-85.253,10.759],[-85.227,10.761],[-85.205,10.766],[-85.193,10.768],[-85.186,10.768],[-85.18,10.768],[-85.174,10.765],[-85.166,10.761],[-85.136,10.741],[-85.129,10.734],[-85.123,10.73],[-85.107,10.725],[-85.054,10.712],[-85.043,10.709],[-85.029,10.703],[-85.023,10.699],[-85.017,10.693],[-85.003,10.67],[-84.991,10.65],[-84.987,10.623],[-84.984,10.616],[-84.978,10.608],[-84.975,10.604],[-84.948,10.581],[-84.937,10.569],[-84.923,10.563],[-84.868,10.549],[-84.85,10.54],[-84.793,10.497],[-84.786,10.485],[-84.764,10.442],[-84.779,10.387],[-84.775,10.369],[-84.773,10.362],[-84.771,10.36],[-84.769,10.355],[-84.771,10.345],[-84.787,10.315],[-84.802,10.328],[-84.807,10.33],[-84.812,10.332],[-84.817,10.332],[-84.825,10.332],[-84.829,10.331],[-84.833,10.33],[-84.838,10.326],[-84.847,10.317],[-84.851,10.313],[-84.86,10.309],[-84.866,10.305],[-84.87,10.3],[-84.873,10.296],[-84.875,10.293],[-84.875,10.29],[-84.875,10.287],[-84.875,10.284],[-84.874,10.282],[-84.872,10.28],[-84.865,10.273],[-84.864,10.272],[-84.863,10.269],[-84.862,10.266],[-84.863,10.264],[-84.868,10.25],[-84.87,10.231],[-84.871,10.228],[-84.877,10.216],[-84.878,10.212],[-84.878,10.209],[-84.877,10.207],[-84.876,10.205],[-84.875,10.203],[-84.872,10.199],[-84.87,10.196],[-84.87,10.192],[-84.87,10.185],[-84.872,10.182],[-84.874,10.179],[-84.893,10.171],[-84.897,10.168],[-84.915,10.152],[-84.92,10.147],[-84.923,10.142],[-84.924,10.136],[-84.924,10.133],[-84.923,10.127],[-84.919,10.117],[-84.918,10.113],[-84.92,10.111],[-84.922,10.111],[-84.925,10.112],[-84.928,10.112],[-84.937,10.117],[-84.945,10.123],[-84.948,10.127],[-84.961,10.142],[-84.968,10.149],[-84.97,10.15],[-84.979,10.155],[-84.984,10.157],[-84.987,10.157],[-84.99,10.158],[-84.994,10.157],[-84.999,10.155],[-85.001,10.155],[-85.004,10.155],[-85.006,10.156],[-85.009,10.157],[-85.011,10.158],[-85.014,10.161],[-85.017,10.162],[-85.019,10.163],[-85.022,10.163],[-85.028,10.162],[-85.034,10.161],[-85.037,10.161],[-85.04,10.162],[-85.048,10.162],[-85.068,10.156],[-85.069,10.156],[-85.073,10.159],[-85.077,10.161],[-85.09,10.172],[-85.108,10.167],[-85.176,10.166],[-85.193,10.17],[-85.209,10.181],[-85.235,10.207],[-85.235,10.213],[-85.229,10.232],[-85.246,10.253],[-85.289,10.282],[-85.283,10.262],[-85.254,10.241],[-85.248,10.217],[-85.245,10.17],[-85.239,10.143],[-85.227,10.125],[-85.24,10.116],[-85.238,10.102],[-85.226,10.089],[-85.196,10.079],[-85.185,10.067],[-85.172,10.042],[-85.166,10.042],[-85.158,10.045],[-85.154,10.043],[-85.153,10.036],[-85.161,10.035],[-85.17,10.036],[-85.179,10.039],[-85.186,10.042],[-85.186,10.036],[-85.167,10.019],[-85.178,9.987],[-85.183,9.979],[-85.205,9.974],[-85.21,9.971],[-85.236,9.957],[-85.241,9.955],[-85.243,9.956],[-85.245,9.958],[-85.246,9.96],[-85.248,9.961],[-85.255,9.961],[-85.265,9.958],[-85.29,9.946],[-85.299,9.937],[-85.303,9.93],[-85.302,9.924],[-85.298,9.919],[-85.294,9.916],[-85.29,9.914],[-85.286,9.913],[-85.277,9.914],[-85.273,9.915],[-85.27,9.914],[-85.261,9.913],[-85.259,9.912],[-85.255,9.909],[-85.252,9.908],[-85.249,9.908],[-85.24,9.908],[-85.234,9.906],[-85.228,9.903],[-85.22,9.9],[-85.217,9.899],[-85.216,9.897],[-85.211,9.891],[-85.206,9.886],[-85.203,9.882],[-85.202,9.88],[-85.201,9.878],[-85.199,9.873],[-85.198,9.867],[-85.196,9.862],[-85.195,9.859],[-85.193,9.858],[-85.19,9.857],[-85.176,9.854],[-85.174,9.852],[-85.173,9.849],[-85.176,9.843],[-85.18,9.833],[-85.19,9.795],[-85.191,9.788],[-85.189,9.784],[-85.186,9.781],[-85.186,9.779],[-85.187,9.777],[-85.193,9.772],[-85.195,9.769],[-85.197,9.765],[-85.2,9.756],[-85.202,9.752],[-85.204,9.75],[-85.207,9.748],[-85.21,9.745],[-85.216,9.732],[-85.219,9.731],[-85.221,9.73],[-85.227,9.728],[-85.229,9.725],[-85.235,9.737],[-85.239,9.742],[-85.248,9.748],[-85.273,9.758],[-85.275,9.766],[-85.275,9.775],[-85.276,9.782],[-85.299,9.808],[-85.332,9.827],[-85.44,9.865],[-85.45,9.862],[-85.464,9.853],[-85.47,9.85],[-85.48,9.852],[-85.494,9.862],[-85.505,9.865],[-85.511,9.865],[-85.513,9.867],[-85.515,9.87],[-85.518,9.874],[-85.525,9.877],[-85.531,9.876],[-85.535,9.873],[-85.536,9.871],[-85.592,9.889],[-85.619,9.893],[-85.626,9.897],[-85.631,9.902],[-85.639,9.905],[-85.65,9.905],[-85.657,9.901],[-85.664,9.9],[-85.673,9.912],[-85.666,9.93],[-85.676,9.956],[-85.779,10.08],[-85.785,10.091],[-85.793,10.118],[-85.805,10.137],[-85.844,10.231],[-85.848,10.259],[-85.852,10.277],[-85.858,10.289],[-85.844,10.302],[-85.838,10.312],[-85.84,10.32],[-85.862,10.347],[-85.875,10.355],[-85.868,10.365],[-85.85,10.378],[-85.839,10.395],[-85.83,10.412],[-85.813,10.405],[-85.804,10.416],[-85.797,10.431],[-85.776,10.447],[-85.784,10.465],[-85.799,10.484],[-85.809,10.495],[-85.803,10.499],[-85.8,10.5],[-85.796,10.501],[-85.796,10.508],[-85.809,10.508],[-85.809,10.515],[-85.798,10.517],[-85.791,10.524],[-85.782,10.543],[-85.775,10.543],[-85.761,10.532],[-85.742,10.54],[-85.722,10.551],[-85.706,10.549],[-85.7,10.549],[-85.701,10.562],[-85.698,10.569],[-85.692,10.572],[-85.687,10.576],[-85.678,10.592],[-85.674,10.591],[-85.662,10.59],[-85.632,10.621],[-85.634,10.629],[-85.639,10.636],[-85.652,10.645],[-85.693,10.604],[-85.694,10.607],[-85.694,10.61],[-85.695,10.612],[-85.7,10.611],[-85.7,10.617],[-85.688,10.63],[-85.681,10.635],[-85.673,10.638],[-85.68,10.645],[-85.68,10.644],[-85.682,10.642],[-85.684,10.64],[-85.687,10.638],[-85.684,10.646],[-85.684,10.649],[-85.673,10.652],[-85.673,10.658],[-85.68,10.658],[-85.68,10.666],[-85.663,10.679],[-85.66,10.713],[-85.665,10.779],[-85.68,10.796],[-85.713,10.811],[-85.746,10.816],[-85.762,10.806],[-85.767,10.806],[-85.795,10.829],[-85.803,10.837],[-85.798,10.836],[-85.792,10.838],[-85.79,10.844],[-85.796,10.851],[-85.803,10.852],[-85.822,10.851],[-85.83,10.851],[-85.86,10.862],[-85.883,10.875],[-85.909,10.886],[-85.946,10.891],[-85.946,10.899],[-85.924,10.904],[-85.881,10.923],[-85.858,10.926],[-85.861,10.932],[-85.864,10.936],[-85.869,10.938],[-85.878,10.94],[-85.878,10.946],[-85.829,10.949],[-85.816,10.946],[-85.811,10.939],[-85.812,10.93],[-85.815,10.922],[-85.813,10.919],[-85.809,10.917],[-85.796,10.905],[-85.789,10.905],[-85.782,10.913],[-85.782,10.919],[-85.793,10.93],[-85.782,10.937],[-85.761,10.941],[-85.741,10.94],[-85.734,10.936],[-85.725,10.928],[-85.717,10.926],[-85.711,10.928],[-85.708,10.934],[-85.709,10.941],[-85.714,10.946],[-85.714,10.954],[-85.699,10.959],[-85.695,10.97],[-85.698,10.983],[-85.706,10.995],[-85.714,11],[-85.73,11.007],[-85.738,11.012],[-85.746,11.021],[-85.746,11.023],[-85.741,11.024],[-85.734,11.029],[-85.719,11.043],[-85.71,11.038],[-85.7,11.029],[-85.68,11.029],[-85.668,11.04],[-85.67,11.054],[-85.681,11.068],[-85.693,11.077],[-85.702,11.081],[-85.678,11.12],[-85.659,11.159],[-85.631,11.196],[-85.598,11.21]]]}},{"type":"Feature","id":"CR-H","properties":{"id":"CR-H","countryCode":"CR","isoSubdivision":"CR-H","name":"Heredia","name_en":"Heredia","name_ko":"에레디아","type":"Province","labelLongitude":-83.953,"labelLatitude":10.463,"minZoom":7.7},"geometry":{"type":"Polygon","coordinates":[[[-83.86,10.722],[-83.856,10.724],[-83.835,10.748],[-83.769,10.772],[-83.764,10.774],[-83.761,10.771],[-83.749,10.768],[-83.746,10.767],[-83.744,10.766],[-83.742,10.764],[-83.737,10.759],[-83.733,10.755],[-83.73,10.75],[-83.729,10.747],[-83.729,10.743],[-83.732,10.723],[-83.732,10.718],[-83.731,10.715],[-83.728,10.711],[-83.725,10.707],[-83.721,10.704],[-83.712,10.699],[-83.708,10.696],[-83.706,10.693],[-83.704,10.69],[-83.704,10.688],[-83.705,10.687],[-83.709,10.689],[-83.713,10.689],[-83.717,10.689],[-83.727,10.686],[-83.756,10.684],[-83.762,10.683],[-83.773,10.679],[-83.79,10.668],[-83.8,10.658],[-83.804,10.655],[-83.813,10.65],[-83.822,10.644],[-83.825,10.641],[-83.827,10.639],[-83.829,10.633],[-83.83,10.624],[-83.831,10.594],[-83.831,10.584],[-83.836,10.541],[-83.836,10.536],[-83.835,10.533],[-83.834,10.531],[-83.831,10.527],[-83.829,10.525],[-83.828,10.523],[-83.828,10.52],[-83.828,10.517],[-83.829,10.509],[-83.828,10.505],[-83.828,10.502],[-83.824,10.492],[-83.823,10.49],[-83.823,10.485],[-83.829,10.464],[-83.838,10.45],[-83.842,10.446],[-83.844,10.444],[-83.846,10.443],[-83.849,10.443],[-83.852,10.442],[-83.854,10.441],[-83.856,10.439],[-83.864,10.424],[-83.867,10.42],[-83.87,10.412],[-83.871,10.408],[-83.872,10.402],[-83.869,10.388],[-83.868,10.384],[-83.855,10.359],[-83.852,10.348],[-83.85,10.343],[-83.847,10.339],[-83.844,10.335],[-83.843,10.333],[-83.843,10.328],[-83.844,10.321],[-83.847,10.307],[-83.848,10.295],[-83.847,10.292],[-83.848,10.287],[-83.851,10.279],[-83.863,10.254],[-83.866,10.249],[-83.914,10.199],[-83.951,10.195],[-83.97,10.17],[-83.976,10.164],[-83.981,10.163],[-84.003,10.161],[-84.022,10.157],[-84.066,10.153],[-84.071,10.152],[-84.071,10.147],[-84.067,10.139],[-84.044,10.105],[-84.031,10.091],[-84.028,10.083],[-84.027,10.059],[-84.019,10.05],[-84.014,10.046],[-84.01,10.042],[-84.009,10.035],[-84.016,10.015],[-84.028,9.982],[-84.047,9.971],[-84.074,9.962],[-84.084,9.96],[-84.11,9.962],[-84.115,9.962],[-84.151,9.946],[-84.163,9.95],[-84.182,9.96],[-84.2,9.957],[-84.202,9.966],[-84.202,9.971],[-84.202,9.974],[-84.201,9.977],[-84.196,9.985],[-84.178,10.004],[-84.177,10.007],[-84.166,10.158],[-84.164,10.296],[-84.163,10.41],[-84.161,10.571],[-84.158,10.784],[-84.158,10.788],[-84.149,10.787],[-84.137,10.789],[-84.118,10.771],[-84.107,10.767],[-84.095,10.776],[-84.089,10.776],[-84.076,10.764],[-84.052,10.78],[-84.035,10.776],[-84.023,10.787],[-84.009,10.789],[-83.998,10.782],[-83.994,10.765],[-83.933,10.718],[-83.927,10.715],[-83.917,10.713],[-83.907,10.715],[-83.894,10.725],[-83.887,10.727],[-83.86,10.722]]]}},{"type":"Feature","id":"CR-L","properties":{"id":"CR-L","countryCode":"CR","isoSubdivision":"CR-L","name":"Limón","name_en":"Limón","name_ko":"리몬","type":"Province","labelLongitude":-83.149,"labelLatitude":9.702,"minZoom":7.7},"geometry":{"type":"Polygon","coordinates":[[[-82.72,9.541],[-82.729,9.545],[-82.771,9.58],[-82.829,9.603],[-82.847,9.601],[-82.866,9.585],[-82.877,9.569],[-82.879,9.56],[-82.867,9.539],[-82.86,9.511],[-82.856,9.505],[-82.849,9.503],[-82.845,9.501],[-82.846,9.493],[-82.861,9.484],[-82.915,9.477],[-82.933,9.47],[-82.942,9.456],[-82.944,9.437],[-82.943,9.354],[-82.942,9.234],[-82.94,9.071],[-82.95,9.079],[-82.953,9.081],[-82.969,9.086],[-82.986,9.103],[-82.991,9.11],[-82.997,9.128],[-83.002,9.136],[-83.007,9.138],[-83.013,9.141],[-83.047,9.151],[-83.05,9.153],[-83.053,9.155],[-83.056,9.16],[-83.057,9.164],[-83.068,9.218],[-83.072,9.227],[-83.074,9.232],[-83.076,9.234],[-83.078,9.235],[-83.08,9.237],[-83.115,9.257],[-83.119,9.26],[-83.127,9.267],[-83.166,9.317],[-83.17,9.318],[-83.177,9.319],[-83.198,9.317],[-83.212,9.315],[-83.215,9.315],[-83.221,9.316],[-83.228,9.318],[-83.243,9.326],[-83.253,9.332],[-83.258,9.335],[-83.276,9.341],[-83.281,9.343],[-83.284,9.344],[-83.286,9.345],[-83.304,9.361],[-83.309,9.364],[-83.313,9.367],[-83.317,9.367],[-83.321,9.366],[-83.328,9.362],[-83.332,9.36],[-83.335,9.357],[-83.346,9.341],[-83.348,9.339],[-83.352,9.338],[-83.371,9.336],[-83.377,9.335],[-83.38,9.333],[-83.384,9.329],[-83.386,9.328],[-83.388,9.327],[-83.39,9.326],[-83.392,9.327],[-83.395,9.335],[-83.396,9.338],[-83.396,9.341],[-83.4,9.344],[-83.403,9.346],[-83.429,9.354],[-83.442,9.362],[-83.445,9.366],[-83.454,9.377],[-83.487,9.468],[-83.49,9.478],[-83.497,9.491],[-83.499,9.494],[-83.502,9.498],[-83.504,9.501],[-83.51,9.514],[-83.512,9.526],[-83.514,9.536],[-83.511,9.566],[-83.497,9.595],[-83.439,9.663],[-83.417,9.72],[-83.409,9.732],[-83.379,9.768],[-83.336,9.821],[-83.329,9.838],[-83.332,9.856],[-83.343,9.892],[-83.345,9.914],[-83.342,9.932],[-83.334,9.948],[-83.321,9.966],[-83.319,9.97],[-83.339,9.974],[-83.445,9.976],[-83.589,9.977],[-83.615,9.987],[-83.713,10.032],[-83.774,10.06],[-83.817,10.08],[-83.943,10.136],[-83.929,10.181],[-83.923,10.19],[-83.914,10.199],[-83.866,10.249],[-83.863,10.254],[-83.851,10.279],[-83.848,10.287],[-83.847,10.292],[-83.848,10.295],[-83.847,10.307],[-83.844,10.321],[-83.843,10.328],[-83.843,10.333],[-83.844,10.335],[-83.847,10.339],[-83.85,10.343],[-83.852,10.348],[-83.855,10.359],[-83.868,10.384],[-83.869,10.388],[-83.872,10.402],[-83.871,10.408],[-83.87,10.412],[-83.867,10.42],[-83.864,10.424],[-83.856,10.439],[-83.854,10.441],[-83.852,10.442],[-83.849,10.443],[-83.846,10.443],[-83.844,10.444],[-83.842,10.446],[-83.838,10.45],[-83.829,10.464],[-83.823,10.485],[-83.823,10.49],[-83.824,10.492],[-83.828,10.502],[-83.828,10.505],[-83.829,10.509],[-83.828,10.517],[-83.828,10.52],[-83.828,10.523],[-83.829,10.525],[-83.831,10.527],[-83.834,10.531],[-83.835,10.533],[-83.836,10.536],[-83.836,10.541],[-83.831,10.584],[-83.831,10.594],[-83.83,10.624],[-83.829,10.633],[-83.827,10.639],[-83.825,10.641],[-83.822,10.644],[-83.813,10.65],[-83.804,10.655],[-83.8,10.658],[-83.79,10.668],[-83.773,10.679],[-83.762,10.683],[-83.756,10.684],[-83.727,10.686],[-83.717,10.689],[-83.713,10.689],[-83.709,10.689],[-83.705,10.687],[-83.704,10.688],[-83.704,10.69],[-83.706,10.693],[-83.708,10.696],[-83.712,10.699],[-83.721,10.704],[-83.725,10.707],[-83.728,10.711],[-83.731,10.715],[-83.732,10.718],[-83.732,10.723],[-83.729,10.743],[-83.729,10.747],[-83.73,10.75],[-83.733,10.755],[-83.737,10.759],[-83.742,10.764],[-83.744,10.766],[-83.746,10.767],[-83.749,10.768],[-83.761,10.771],[-83.764,10.774],[-83.698,10.789],[-83.663,10.807],[-83.66,10.834],[-83.669,10.87],[-83.67,10.892],[-83.68,10.897],[-83.677,10.91],[-83.679,10.916],[-83.681,10.917],[-83.689,10.935],[-83.696,10.937],[-83.687,10.938],[-83.682,10.935],[-83.678,10.936],[-83.673,10.933],[-83.673,10.931],[-83.676,10.929],[-83.676,10.926],[-83.671,10.926],[-83.666,10.931],[-83.665,10.935],[-83.661,10.934],[-83.644,10.926],[-83.624,10.903],[-83.599,10.857],[-83.581,10.807],[-83.583,10.776],[-83.598,10.794],[-83.624,10.858],[-83.607,10.778],[-83.609,10.746],[-83.638,10.721],[-83.622,10.724],[-83.612,10.731],[-83.602,10.74],[-83.589,10.748],[-83.594,10.743],[-83.595,10.737],[-83.593,10.729],[-83.589,10.721],[-83.585,10.733],[-83.581,10.756],[-83.575,10.768],[-83.527,10.636],[-83.466,10.495],[-83.395,10.376],[-83.204,10.129],[-83.188,10.118],[-83.125,10.041],[-83.085,10.002],[-83.062,10.015],[-83.052,10.01],[-83.026,10.005],[-83.021,9.997],[-83.02,9.979],[-83.017,9.963],[-83.009,9.949],[-82.996,9.936],[-82.95,9.868],[-82.935,9.857],[-82.877,9.78],[-82.834,9.739],[-82.808,9.747],[-82.802,9.732],[-82.797,9.691],[-82.788,9.673],[-82.772,9.661],[-82.705,9.638],[-82.681,9.635],[-82.658,9.636],[-82.636,9.635],[-82.616,9.624],[-82.591,9.587],[-82.575,9.577],[-82.574,9.576],[-82.563,9.539],[-82.571,9.538],[-82.586,9.546],[-82.601,9.549],[-82.608,9.538],[-82.612,9.499],[-82.619,9.487],[-82.632,9.485],[-82.651,9.488],[-82.668,9.493],[-82.678,9.498],[-82.689,9.509],[-82.701,9.534],[-82.712,9.545],[-82.72,9.541]]]}},{"type":"Feature","id":"CR-P","properties":{"id":"CR-P","countryCode":"CR","isoSubdivision":"CR-P","name":"Puntarenas","name_en":"Puntarenas","name_ko":"푼타레나스","type":"Province","labelLongitude":-83.229,"labelLatitude":8.934,"minZoom":7.7},"geometry":{"type":"MultiPolygon","coordinates":[[[[-82.94,9.071],[-82.939,9.06],[-82.909,9.072],[-82.9,9.072],[-82.893,9.067],[-82.89,9.059],[-82.887,9.051],[-82.882,9.045],[-82.877,9.042],[-82.854,9.032],[-82.808,8.998],[-82.763,8.983],[-82.749,8.974],[-82.723,8.931],[-82.719,8.922],[-82.72,8.92],[-82.734,8.898],[-82.764,8.88],[-82.867,8.838],[-82.879,8.83],[-82.888,8.817],[-82.884,8.812],[-82.876,8.808],[-82.876,8.794],[-82.885,8.783],[-82.915,8.765],[-82.923,8.756],[-82.924,8.741],[-82.919,8.727],[-82.91,8.714],[-82.879,8.679],[-82.862,8.656],[-82.85,8.63],[-82.842,8.599],[-82.836,8.53],[-82.839,8.495],[-82.848,8.465],[-82.87,8.438],[-82.897,8.425],[-82.925,8.417],[-82.954,8.402],[-82.998,8.36],[-83.043,8.335],[-83.052,8.328],[-83.053,8.315],[-83.044,8.305],[-83.016,8.289],[-83.011,8.283],[-83.001,8.269],[-82.996,8.265],[-82.989,8.264],[-82.977,8.269],[-82.968,8.268],[-82.951,8.259],[-82.944,8.249],[-82.939,8.217],[-82.886,8.102],[-82.891,8.058],[-82.898,8.035],[-82.911,8.045],[-82.91,8.061],[-82.902,8.077],[-82.898,8.093],[-82.9,8.105],[-82.968,8.221],[-82.993,8.246],[-83.117,8.336],[-83.151,8.369],[-83.121,8.405],[-83.116,8.408],[-83.11,8.418],[-83.1,8.431],[-83.093,8.447],[-83.099,8.463],[-83.132,8.503],[-83.137,8.515],[-83.138,8.529],[-83.131,8.534],[-83.118,8.538],[-83.102,8.548],[-83.114,8.552],[-83.143,8.55],[-83.158,8.555],[-83.165,8.564],[-83.185,8.603],[-83.182,8.608],[-83.18,8.611],[-83.178,8.617],[-83.171,8.617],[-83.162,8.601],[-83.159,8.593],[-83.158,8.579],[-83.153,8.577],[-83.124,8.589],[-83.124,8.596],[-83.137,8.602],[-83.152,8.613],[-83.164,8.626],[-83.171,8.637],[-83.178,8.637],[-83.186,8.625],[-83.204,8.624],[-83.225,8.627],[-83.24,8.624],[-83.248,8.637],[-83.259,8.651],[-83.273,8.658],[-83.287,8.651],[-83.319,8.67],[-83.328,8.685],[-83.322,8.706],[-83.329,8.706],[-83.336,8.706],[-83.332,8.722],[-83.346,8.73],[-83.367,8.734],[-83.384,8.74],[-83.39,8.728],[-83.395,8.729],[-83.401,8.734],[-83.412,8.734],[-83.416,8.728],[-83.418,8.721],[-83.422,8.715],[-83.435,8.713],[-83.468,8.717],[-83.482,8.713],[-83.487,8.693],[-83.479,8.698],[-83.479,8.699],[-83.473,8.699],[-83.438,8.646],[-83.433,8.631],[-83.413,8.598],[-83.405,8.589],[-83.392,8.582],[-83.354,8.571],[-83.339,8.569],[-83.325,8.561],[-83.312,8.545],[-83.3,8.534],[-83.287,8.542],[-83.287,8.517],[-83.289,8.507],[-83.295,8.5],[-83.295,8.493],[-83.28,8.473],[-83.274,8.438],[-83.276,8.402],[-83.287,8.377],[-83.31,8.376],[-83.346,8.388],[-83.381,8.404],[-83.397,8.418],[-83.391,8.418],[-83.387,8.414],[-83.383,8.413],[-83.369,8.411],[-83.389,8.42],[-83.396,8.425],[-83.405,8.432],[-83.405,8.418],[-83.462,8.443],[-83.483,8.446],[-83.544,8.438],[-83.561,8.438],[-83.576,8.445],[-83.589,8.459],[-83.613,8.49],[-83.7,8.57],[-83.706,8.579],[-83.71,8.581],[-83.731,8.589],[-83.737,8.593],[-83.74,8.624],[-83.709,8.67],[-83.702,8.678],[-83.687,8.688],[-83.676,8.692],[-83.671,8.689],[-83.668,8.683],[-83.661,8.69],[-83.637,8.727],[-83.63,8.734],[-83.643,8.75],[-83.627,8.767],[-83.6,8.782],[-83.575,8.788],[-83.575,8.794],[-83.597,8.797],[-83.608,8.796],[-83.615,8.79],[-83.627,8.778],[-83.639,8.772],[-83.643,8.782],[-83.638,8.799],[-83.624,8.816],[-83.599,8.828],[-83.588,8.835],[-83.583,8.847],[-83.589,8.857],[-83.602,8.864],[-83.614,8.873],[-83.616,8.891],[-83.597,8.881],[-83.588,8.878],[-83.575,8.878],[-83.581,8.885],[-83.589,8.891],[-83.603,8.898],[-83.609,8.903],[-83.613,8.908],[-83.618,8.911],[-83.63,8.912],[-83.618,8.919],[-83.62,8.924],[-83.627,8.928],[-83.63,8.932],[-83.626,8.943],[-83.62,8.951],[-83.613,8.958],[-83.603,8.966],[-83.63,9.035],[-83.635,9.044],[-83.651,9.062],[-83.658,9.055],[-83.68,9.084],[-83.701,9.118],[-83.727,9.144],[-83.767,9.151],[-83.765,9.177],[-83.787,9.199],[-83.817,9.215],[-83.84,9.22],[-83.918,9.295],[-83.995,9.33],[-84.007,9.34],[-84.104,9.377],[-84.11,9.377],[-84.116,9.373],[-84.122,9.373],[-84.127,9.377],[-84.13,9.385],[-84.144,9.379],[-84.152,9.385],[-84.162,9.395],[-84.179,9.398],[-84.168,9.416],[-84.182,9.442],[-84.208,9.465],[-84.233,9.473],[-84.233,9.467],[-84.225,9.465],[-84.219,9.463],[-84.205,9.453],[-84.231,9.458],[-84.273,9.482],[-84.299,9.487],[-84.324,9.489],[-84.458,9.526],[-84.484,9.528],[-84.495,9.526],[-84.508,9.522],[-84.522,9.519],[-84.535,9.521],[-84.547,9.531],[-84.551,9.543],[-84.555,9.552],[-84.569,9.555],[-84.567,9.551],[-84.565,9.548],[-84.563,9.541],[-84.579,9.554],[-84.617,9.578],[-84.624,9.593],[-84.627,9.607],[-84.636,9.613],[-84.647,9.618],[-84.658,9.624],[-84.661,9.634],[-84.66,9.645],[-84.663,9.652],[-84.678,9.651],[-84.674,9.662],[-84.676,9.673],[-84.678,9.684],[-84.678,9.693],[-84.672,9.704],[-84.655,9.721],[-84.648,9.738],[-84.641,9.746],[-84.634,9.757],[-84.631,9.771],[-84.635,9.783],[-84.642,9.794],[-84.658,9.809],[-84.698,9.869],[-84.71,9.878],[-84.726,9.884],[-84.724,9.9],[-84.71,9.923],[-84.734,9.943],[-84.739,9.952],[-84.734,9.967],[-84.762,9.976],[-84.851,9.967],[-84.851,9.974],[-84.839,9.979],[-84.823,9.981],[-84.788,9.981],[-84.788,9.987],[-84.82,9.989],[-84.849,9.994],[-84.874,10.003],[-84.898,10.015],[-84.928,10.04],[-84.933,10.045],[-84.939,10.047],[-84.952,10.055],[-84.961,10.065],[-84.956,10.069],[-84.973,10.078],[-85.014,10.116],[-85.036,10.127],[-85.046,10.136],[-85.052,10.138],[-85.057,10.136],[-85.062,10.132],[-85.067,10.131],[-85.076,10.138],[-85.07,10.149],[-85.068,10.156],[-85.069,10.156],[-85.068,10.156],[-85.048,10.162],[-85.04,10.162],[-85.037,10.161],[-85.034,10.161],[-85.028,10.162],[-85.022,10.163],[-85.019,10.163],[-85.017,10.162],[-85.014,10.161],[-85.011,10.158],[-85.009,10.157],[-85.006,10.156],[-85.004,10.155],[-85.001,10.155],[-84.999,10.155],[-84.994,10.157],[-84.99,10.158],[-84.987,10.157],[-84.984,10.157],[-84.979,10.155],[-84.97,10.15],[-84.968,10.149],[-84.961,10.142],[-84.948,10.127],[-84.945,10.123],[-84.937,10.117],[-84.928,10.112],[-84.925,10.112],[-84.922,10.111],[-84.92,10.111],[-84.918,10.113],[-84.919,10.117],[-84.923,10.127],[-84.924,10.133],[-84.924,10.136],[-84.923,10.142],[-84.92,10.147],[-84.915,10.152],[-84.897,10.168],[-84.893,10.171],[-84.874,10.179],[-84.872,10.182],[-84.87,10.185],[-84.87,10.192],[-84.87,10.196],[-84.872,10.199],[-84.875,10.203],[-84.876,10.205],[-84.877,10.207],[-84.878,10.209],[-84.878,10.212],[-84.877,10.216],[-84.871,10.228],[-84.87,10.231],[-84.868,10.25],[-84.863,10.264],[-84.862,10.266],[-84.863,10.269],[-84.864,10.272],[-84.865,10.273],[-84.872,10.28],[-84.874,10.282],[-84.875,10.284],[-84.875,10.287],[-84.875,10.29],[-84.875,10.293],[-84.873,10.296],[-84.87,10.3],[-84.866,10.305],[-84.86,10.309],[-84.851,10.313],[-84.847,10.317],[-84.838,10.326],[-84.833,10.33],[-84.829,10.331],[-84.825,10.332],[-84.817,10.332],[-84.812,10.332],[-84.807,10.33],[-84.802,10.328],[-84.787,10.315],[-84.764,10.28],[-84.758,10.272],[-84.756,10.271],[-84.75,10.267],[-84.744,10.266],[-84.736,10.267],[-84.717,10.27],[-84.703,10.274],[-84.696,10.278],[-84.694,10.279],[-84.692,10.28],[-84.684,10.279],[-84.666,10.267],[-84.661,10.252],[-84.656,10.246],[-84.65,10.241],[-84.649,10.24],[-84.648,10.236],[-84.65,10.231],[-84.66,10.212],[-84.663,10.204],[-84.669,10.182],[-84.669,10.178],[-84.668,10.174],[-84.663,10.164],[-84.662,10.159],[-84.661,10.155],[-84.665,10.13],[-84.66,10.114],[-84.649,10.091],[-84.643,10.082],[-84.627,10.062],[-84.619,10.049],[-84.603,10.03],[-84.596,10.02],[-84.596,10.018],[-84.594,10.015],[-84.594,10.013],[-84.591,10.013],[-84.588,10.013],[-84.58,10.015],[-84.572,10.021],[-84.57,10.022],[-84.563,10.018],[-84.55,9.998],[-84.551,9.99],[-84.552,9.988],[-84.555,9.985],[-84.56,9.983],[-84.576,9.976],[-84.625,9.945],[-84.636,9.941],[-84.644,9.934],[-84.662,9.905],[-84.669,9.902],[-84.671,9.9],[-84.673,9.898],[-84.673,9.896],[-84.673,9.89],[-84.674,9.884],[-84.671,9.881],[-84.664,9.876],[-84.643,9.868],[-84.627,9.863],[-84.614,9.862],[-84.602,9.86],[-84.593,9.853],[-84.571,9.825],[-84.58,9.817],[-84.57,9.813],[-84.563,9.809],[-84.559,9.806],[-84.556,9.803],[-84.554,9.801],[-84.548,9.793],[-84.543,9.784],[-84.542,9.78],[-84.542,9.774],[-84.543,9.766],[-84.545,9.762],[-84.547,9.759],[-84.549,9.758],[-84.551,9.757],[-84.554,9.756],[-84.557,9.756],[-84.576,9.757],[-84.582,9.756],[-84.585,9.755],[-84.587,9.754],[-84.589,9.753],[-84.591,9.751],[-84.591,9.748],[-84.592,9.746],[-84.591,9.743],[-84.584,9.718],[-84.581,9.706],[-84.582,9.686],[-84.582,9.683],[-84.579,9.677],[-84.557,9.639],[-84.556,9.636],[-84.55,9.603],[-84.547,9.596],[-84.543,9.586],[-84.536,9.578],[-84.529,9.571],[-84.526,9.569],[-84.516,9.568],[-84.485,9.573],[-84.478,9.57],[-84.475,9.57],[-84.471,9.57],[-84.456,9.574],[-84.453,9.574],[-84.45,9.574],[-84.447,9.573],[-84.445,9.571],[-84.44,9.566],[-84.438,9.564],[-84.436,9.563],[-84.434,9.562],[-84.431,9.562],[-84.428,9.562],[-84.425,9.564],[-84.422,9.566],[-84.416,9.578],[-84.415,9.58],[-84.412,9.583],[-84.401,9.592],[-84.397,9.595],[-84.395,9.598],[-84.394,9.601],[-84.394,9.607],[-84.397,9.626],[-84.397,9.629],[-84.394,9.631],[-84.389,9.632],[-84.377,9.632],[-84.351,9.637],[-84.308,9.639],[-84.293,9.637],[-84.288,9.633],[-84.284,9.63],[-84.277,9.622],[-84.276,9.62],[-84.265,9.618],[-84.23,9.619],[-84.217,9.614],[-84.202,9.612],[-84.157,9.616],[-84.148,9.615],[-84.146,9.614],[-84.142,9.612],[-84.139,9.607],[-84.137,9.599],[-84.137,9.595],[-84.137,9.591],[-84.139,9.582],[-84.14,9.576],[-84.14,9.573],[-84.138,9.569],[-84.134,9.565],[-84.127,9.558],[-84.119,9.556],[-84.114,9.555],[-84.105,9.556],[-84.092,9.557],[-84.083,9.555],[-84.078,9.553],[-84.076,9.552],[-84.073,9.548],[-84.071,9.543],[-84.069,9.53],[-84.069,9.524],[-84.07,9.52],[-84.073,9.515],[-84.075,9.51],[-84.071,9.504],[-84.049,9.495],[-84.033,9.463],[-84.01,9.441],[-83.945,9.398],[-83.929,9.393],[-83.928,9.396],[-83.926,9.397],[-83.925,9.399],[-83.922,9.4],[-83.92,9.401],[-83.918,9.402],[-83.915,9.403],[-83.912,9.403],[-83.909,9.402],[-83.906,9.4],[-83.902,9.396],[-83.895,9.384],[-83.894,9.38],[-83.89,9.36],[-83.888,9.358],[-83.856,9.325],[-83.85,9.317],[-83.846,9.31],[-83.847,9.3],[-83.847,9.294],[-83.845,9.283],[-83.839,9.263],[-83.834,9.253],[-83.832,9.249],[-83.828,9.245],[-83.821,9.239],[-83.771,9.217],[-83.764,9.215],[-83.761,9.215],[-83.758,9.216],[-83.757,9.218],[-83.755,9.219],[-83.746,9.231],[-83.744,9.233],[-83.742,9.234],[-83.739,9.235],[-83.736,9.236],[-83.733,9.236],[-83.731,9.236],[-83.728,9.236],[-83.725,9.235],[-83.715,9.231],[-83.701,9.217],[-83.679,9.19],[-83.675,9.184],[-83.675,9.181],[-83.674,9.178],[-83.667,9.153],[-83.666,9.15],[-83.663,9.147],[-83.656,9.139],[-83.565,9.08],[-83.563,9.079],[-83.552,9.08],[-83.544,9.081],[-83.541,9.081],[-83.538,9.081],[-83.535,9.08],[-83.531,9.077],[-83.526,9.072],[-83.525,9.07],[-83.52,9.067],[-83.518,9.067],[-83.515,9.066],[-83.512,9.066],[-83.51,9.067],[-83.508,9.068],[-83.506,9.07],[-83.495,9.085],[-83.492,9.088],[-83.488,9.091],[-83.486,9.092],[-83.484,9.093],[-83.482,9.095],[-83.481,9.098],[-83.48,9.103],[-83.483,9.126],[-83.483,9.131],[-83.481,9.136],[-83.473,9.15],[-83.471,9.156],[-83.472,9.168],[-83.473,9.173],[-83.475,9.177],[-83.476,9.179],[-83.477,9.182],[-83.478,9.184],[-83.48,9.186],[-83.482,9.186],[-83.485,9.185],[-83.487,9.185],[-83.49,9.186],[-83.492,9.187],[-83.493,9.189],[-83.495,9.191],[-83.497,9.192],[-83.506,9.194],[-83.508,9.195],[-83.509,9.197],[-83.51,9.2],[-83.5,9.25],[-83.499,9.253],[-83.496,9.258],[-83.468,9.288],[-83.466,9.292],[-83.464,9.298],[-83.457,9.322],[-83.454,9.327],[-83.451,9.331],[-83.429,9.354],[-83.403,9.346],[-83.4,9.344],[-83.396,9.341],[-83.396,9.338],[-83.395,9.335],[-83.392,9.327],[-83.39,9.326],[-83.388,9.327],[-83.386,9.328],[-83.384,9.329],[-83.38,9.333],[-83.377,9.335],[-83.371,9.336],[-83.352,9.338],[-83.348,9.339],[-83.346,9.341],[-83.335,9.357],[-83.332,9.36],[-83.328,9.362],[-83.321,9.366],[-83.317,9.367],[-83.313,9.367],[-83.309,9.364],[-83.304,9.361],[-83.286,9.345],[-83.284,9.344],[-83.281,9.343],[-83.276,9.341],[-83.258,9.335],[-83.253,9.332],[-83.243,9.326],[-83.228,9.318],[-83.221,9.316],[-83.215,9.315],[-83.212,9.315],[-83.198,9.317],[-83.177,9.319],[-83.17,9.318],[-83.166,9.317],[-83.127,9.267],[-83.119,9.26],[-83.115,9.257],[-83.08,9.237],[-83.078,9.235],[-83.076,9.234],[-83.074,9.232],[-83.072,9.227],[-83.068,9.218],[-83.057,9.164],[-83.056,9.16],[-83.053,9.155],[-83.05,9.153],[-83.047,9.151],[-83.013,9.141],[-83.007,9.138],[-83.002,9.136],[-82.997,9.128],[-82.991,9.11],[-82.986,9.103],[-82.969,9.086],[-82.953,9.081],[-82.95,9.079],[-82.94,9.071]]],[[[-85.167,10.019],[-85.145,9.999],[-85.084,9.975],[-85.076,9.971],[-85.069,9.973],[-85.053,9.967],[-85.015,9.945],[-84.997,9.939],[-84.978,9.939],[-84.96,9.946],[-84.948,9.937],[-84.923,9.921],[-84.911,9.912],[-84.911,9.905],[-84.931,9.901],[-84.93,9.886],[-84.918,9.87],[-84.905,9.857],[-84.913,9.854],[-84.921,9.849],[-84.933,9.837],[-84.918,9.83],[-84.901,9.828],[-84.865,9.829],[-84.865,9.823],[-84.879,9.814],[-84.897,9.806],[-84.912,9.796],[-84.919,9.778],[-84.922,9.774],[-84.946,9.761],[-84.95,9.754],[-84.955,9.735],[-84.96,9.727],[-84.991,9.743],[-85.008,9.744],[-85.015,9.731],[-85.01,9.723],[-84.995,9.703],[-84.997,9.699],[-85.03,9.684],[-85.035,9.682],[-85.039,9.677],[-85.063,9.665],[-85.067,9.657],[-85.089,9.589],[-85.098,9.571],[-85.11,9.555],[-85.118,9.555],[-85.146,9.613],[-85.229,9.724],[-85.229,9.725],[-85.227,9.728],[-85.221,9.73],[-85.219,9.731],[-85.216,9.732],[-85.21,9.745],[-85.207,9.748],[-85.204,9.75],[-85.202,9.752],[-85.2,9.756],[-85.197,9.765],[-85.195,9.769],[-85.193,9.772],[-85.187,9.777],[-85.186,9.779],[-85.186,9.781],[-85.189,9.784],[-85.191,9.788],[-85.19,9.795],[-85.18,9.833],[-85.176,9.843],[-85.173,9.849],[-85.174,9.852],[-85.176,9.854],[-85.19,9.857],[-85.193,9.858],[-85.195,9.859],[-85.196,9.862],[-85.198,9.867],[-85.199,9.873],[-85.201,9.878],[-85.202,9.88],[-85.203,9.882],[-85.206,9.886],[-85.211,9.891],[-85.216,9.897],[-85.217,9.899],[-85.22,9.9],[-85.228,9.903],[-85.234,9.906],[-85.24,9.908],[-85.249,9.908],[-85.252,9.908],[-85.255,9.909],[-85.259,9.912],[-85.261,9.913],[-85.27,9.914],[-85.273,9.915],[-85.277,9.914],[-85.286,9.913],[-85.29,9.914],[-85.294,9.916],[-85.298,9.919],[-85.302,9.924],[-85.303,9.93],[-85.299,9.937],[-85.29,9.946],[-85.265,9.958],[-85.255,9.961],[-85.248,9.961],[-85.246,9.96],[-85.245,9.958],[-85.243,9.956],[-85.241,9.955],[-85.236,9.957],[-85.21,9.971],[-85.205,9.974],[-85.183,9.979],[-85.178,9.987],[-85.167,10.019]]],[[[-85.131,10.099],[-85.122,10.096],[-85.116,10.092],[-85.108,10.09],[-85.097,10.09],[-85.097,10.084],[-85.109,10.079],[-85.125,10.076],[-85.142,10.074],[-85.159,10.076],[-85.176,10.083],[-85.185,10.092],[-85.199,10.118],[-85.18,10.124],[-85.172,10.125],[-85.14,10.119],[-85.11,10.11],[-85.11,10.103],[-85.145,10.103],[-85.136,10.098],[-85.131,10.099]]],[[[-87.099,5.516],[-87.118,5.515],[-87.105,5.537],[-87.093,5.547],[-87.079,5.555],[-87.065,5.558],[-87.065,5.548],[-87.066,5.535],[-87.079,5.521],[-87.099,5.516]]],[[[-83.897,8.706],[-83.883,8.713],[-83.869,8.714],[-83.87,8.702],[-83.878,8.699],[-83.891,8.701],[-83.897,8.706]]]]}},{"type":"Feature","id":"CR-SJ","properties":{"id":"CR-SJ","countryCode":"CR","isoSubdivision":"CR-SJ","name":"San José","name_en":"San José","name_ko":"산호세","type":"Province","labelLongitude":-84.01,"labelLatitude":9.604,"minZoom":7.7},"geometry":{"type":"Polygon","coordinates":[[[-84.084,9.96],[-84.074,9.962],[-84.047,9.971],[-84.028,9.982],[-84.016,10.015],[-84.009,10.035],[-84.01,10.042],[-84.014,10.046],[-84.019,10.05],[-84.027,10.059],[-84.028,10.083],[-84.031,10.091],[-84.044,10.105],[-84.067,10.139],[-84.071,10.147],[-84.071,10.152],[-84.066,10.153],[-84.022,10.157],[-84.003,10.161],[-83.981,10.163],[-83.976,10.164],[-83.97,10.17],[-83.951,10.195],[-83.914,10.199],[-83.923,10.19],[-83.929,10.181],[-83.943,10.136],[-83.929,10.089],[-83.926,10.085],[-83.923,10.08],[-83.914,10.073],[-83.905,10.067],[-83.901,10.064],[-83.899,10.063],[-83.879,10.04],[-83.875,10.035],[-83.872,10.026],[-83.87,10],[-83.866,9.978],[-83.868,9.97],[-83.871,9.966],[-83.875,9.963],[-83.881,9.961],[-83.893,9.959],[-83.905,9.946],[-83.908,9.945],[-83.912,9.944],[-83.915,9.945],[-83.918,9.946],[-83.927,9.947],[-83.953,9.947],[-83.954,9.946],[-84,9.93],[-84.026,9.887],[-84.028,9.879],[-84.026,9.878],[-84.023,9.875],[-84.003,9.867],[-84.031,9.821],[-84.039,9.813],[-84.051,9.804],[-84.069,9.789],[-84.076,9.778],[-84.079,9.771],[-84.079,9.767],[-84.079,9.764],[-84.079,9.761],[-84.078,9.759],[-84.076,9.757],[-84.074,9.756],[-84.071,9.755],[-84.068,9.756],[-84.056,9.76],[-84.048,9.763],[-84.045,9.763],[-84.039,9.762],[-84.033,9.761],[-83.996,9.769],[-83.988,9.768],[-83.986,9.758],[-83.984,9.753],[-83.982,9.748],[-83.976,9.736],[-83.956,9.73],[-83.951,9.725],[-83.95,9.723],[-83.95,9.721],[-83.941,9.706],[-83.919,9.678],[-83.913,9.673],[-83.911,9.672],[-83.898,9.668],[-83.878,9.658],[-83.873,9.656],[-83.87,9.657],[-83.868,9.659],[-83.865,9.66],[-83.861,9.661],[-83.853,9.66],[-83.849,9.658],[-83.846,9.656],[-83.845,9.655],[-83.837,9.642],[-83.83,9.628],[-83.829,9.625],[-83.828,9.621],[-83.823,9.613],[-83.818,9.605],[-83.815,9.601],[-83.812,9.599],[-83.809,9.598],[-83.787,9.593],[-83.782,9.594],[-83.763,9.596],[-83.752,9.58],[-83.749,9.578],[-83.744,9.575],[-83.729,9.57],[-83.725,9.567],[-83.722,9.565],[-83.721,9.562],[-83.718,9.552],[-83.716,9.538],[-83.714,9.537],[-83.712,9.537],[-83.698,9.543],[-83.693,9.545],[-83.69,9.546],[-83.679,9.545],[-83.675,9.545],[-83.672,9.545],[-83.67,9.546],[-83.667,9.547],[-83.665,9.548],[-83.663,9.549],[-83.661,9.551],[-83.66,9.553],[-83.655,9.562],[-83.651,9.566],[-83.639,9.57],[-83.613,9.544],[-83.605,9.536],[-83.595,9.532],[-83.592,9.531],[-83.487,9.468],[-83.454,9.377],[-83.445,9.366],[-83.442,9.362],[-83.429,9.354],[-83.451,9.331],[-83.454,9.327],[-83.457,9.322],[-83.464,9.298],[-83.466,9.292],[-83.468,9.288],[-83.496,9.258],[-83.499,9.253],[-83.5,9.25],[-83.51,9.2],[-83.509,9.197],[-83.508,9.195],[-83.506,9.194],[-83.497,9.192],[-83.495,9.191],[-83.493,9.189],[-83.492,9.187],[-83.49,9.186],[-83.487,9.185],[-83.485,9.185],[-83.482,9.186],[-83.48,9.186],[-83.478,9.184],[-83.477,9.182],[-83.476,9.179],[-83.475,9.177],[-83.473,9.173],[-83.472,9.168],[-83.471,9.156],[-83.473,9.15],[-83.481,9.136],[-83.483,9.131],[-83.483,9.126],[-83.48,9.103],[-83.481,9.098],[-83.482,9.095],[-83.484,9.093],[-83.486,9.092],[-83.488,9.091],[-83.492,9.088],[-83.495,9.085],[-83.506,9.07],[-83.508,9.068],[-83.51,9.067],[-83.512,9.066],[-83.515,9.066],[-83.518,9.067],[-83.52,9.067],[-83.525,9.07],[-83.526,9.072],[-83.531,9.077],[-83.535,9.08],[-83.538,9.081],[-83.541,9.081],[-83.544,9.081],[-83.552,9.08],[-83.563,9.079],[-83.565,9.08],[-83.656,9.139],[-83.663,9.147],[-83.666,9.15],[-83.667,9.153],[-83.674,9.178],[-83.675,9.181],[-83.675,9.184],[-83.679,9.19],[-83.701,9.217],[-83.715,9.231],[-83.725,9.235],[-83.728,9.236],[-83.731,9.236],[-83.733,9.236],[-83.736,9.236],[-83.739,9.235],[-83.742,9.234],[-83.744,9.233],[-83.746,9.231],[-83.755,9.219],[-83.757,9.218],[-83.758,9.216],[-83.761,9.215],[-83.764,9.215],[-83.771,9.217],[-83.821,9.239],[-83.828,9.245],[-83.832,9.249],[-83.834,9.253],[-83.839,9.263],[-83.845,9.283],[-83.847,9.294],[-83.847,9.3],[-83.846,9.31],[-83.85,9.317],[-83.856,9.325],[-83.888,9.358],[-83.89,9.36],[-83.894,9.38],[-83.895,9.384],[-83.902,9.396],[-83.906,9.4],[-83.909,9.402],[-83.912,9.403],[-83.915,9.403],[-83.918,9.402],[-83.92,9.401],[-83.922,9.4],[-83.925,9.399],[-83.926,9.397],[-83.928,9.396],[-83.929,9.393],[-83.945,9.398],[-84.01,9.441],[-84.033,9.463],[-84.049,9.495],[-84.071,9.504],[-84.075,9.51],[-84.073,9.515],[-84.07,9.52],[-84.069,9.524],[-84.069,9.53],[-84.071,9.543],[-84.073,9.548],[-84.076,9.552],[-84.078,9.553],[-84.083,9.555],[-84.092,9.557],[-84.105,9.556],[-84.114,9.555],[-84.119,9.556],[-84.127,9.558],[-84.134,9.565],[-84.138,9.569],[-84.14,9.573],[-84.14,9.576],[-84.139,9.582],[-84.137,9.591],[-84.137,9.595],[-84.137,9.599],[-84.139,9.607],[-84.142,9.612],[-84.146,9.614],[-84.148,9.615],[-84.157,9.616],[-84.202,9.612],[-84.217,9.614],[-84.23,9.619],[-84.265,9.618],[-84.276,9.62],[-84.277,9.622],[-84.284,9.63],[-84.288,9.633],[-84.293,9.637],[-84.308,9.639],[-84.351,9.637],[-84.377,9.632],[-84.389,9.632],[-84.394,9.631],[-84.397,9.629],[-84.397,9.626],[-84.394,9.607],[-84.394,9.601],[-84.395,9.598],[-84.397,9.595],[-84.401,9.592],[-84.412,9.583],[-84.415,9.58],[-84.416,9.578],[-84.422,9.566],[-84.425,9.564],[-84.428,9.562],[-84.431,9.562],[-84.434,9.562],[-84.436,9.563],[-84.438,9.564],[-84.44,9.566],[-84.445,9.571],[-84.447,9.573],[-84.45,9.574],[-84.453,9.574],[-84.456,9.574],[-84.471,9.57],[-84.475,9.57],[-84.478,9.57],[-84.485,9.573],[-84.516,9.568],[-84.526,9.569],[-84.529,9.571],[-84.536,9.578],[-84.543,9.586],[-84.547,9.596],[-84.55,9.603],[-84.556,9.636],[-84.557,9.639],[-84.579,9.677],[-84.582,9.683],[-84.582,9.686],[-84.581,9.706],[-84.584,9.718],[-84.591,9.743],[-84.592,9.746],[-84.591,9.748],[-84.591,9.751],[-84.589,9.753],[-84.587,9.754],[-84.585,9.755],[-84.582,9.756],[-84.576,9.757],[-84.557,9.756],[-84.554,9.756],[-84.551,9.757],[-84.549,9.758],[-84.547,9.759],[-84.545,9.762],[-84.543,9.766],[-84.542,9.774],[-84.542,9.78],[-84.543,9.784],[-84.548,9.793],[-84.554,9.801],[-84.556,9.803],[-84.559,9.806],[-84.563,9.809],[-84.57,9.813],[-84.58,9.817],[-84.571,9.825],[-84.564,9.825],[-84.562,9.827],[-84.561,9.834],[-84.559,9.838],[-84.541,9.861],[-84.54,9.864],[-84.541,9.866],[-84.538,9.87],[-84.531,9.875],[-84.514,9.884],[-84.502,9.895],[-84.501,9.897],[-84.5,9.899],[-84.492,9.904],[-84.461,9.917],[-84.417,9.921],[-84.392,9.926],[-84.373,9.92],[-84.353,9.917],[-84.349,9.916],[-84.344,9.915],[-84.332,9.913],[-84.327,9.912],[-84.309,9.914],[-84.242,9.933],[-84.215,9.941],[-84.2,9.957],[-84.182,9.96],[-84.163,9.95],[-84.151,9.946],[-84.115,9.962],[-84.11,9.962],[-84.084,9.96]]]}}]}
