{"type":"FeatureCollection","features":[{"type":"Feature","id":"CU-01","properties":{"id":"CU-01","countryCode":"CU","isoSubdivision":"CU-01","name":"Pinar del Río","name_en":"Pinar del Río","name_ko":"피나르델리오","type":"Province","labelLongitude":-83.674,"labelLatitude":22.495,"minZoom":7.7},"geometry":{"type":"MultiPolygon","coordinates":[[[[-82.825,22.611],[-82.849,22.603],[-82.909,22.556],[-82.921,22.548],[-82.944,22.547],[-82.959,22.542],[-83.026,22.51],[-83.059,22.489],[-83.086,22.463],[-83.143,22.361],[-83.167,22.34],[-83.199,22.336],[-83.232,22.345],[-83.246,22.346],[-83.26,22.342],[-83.261,22.34],[-83.26,22.326],[-83.262,22.322],[-83.266,22.322],[-83.27,22.324],[-83.277,22.321],[-83.282,22.322],[-83.286,22.323],[-83.287,22.319],[-83.287,22.305],[-83.287,22.302],[-83.324,22.28],[-83.336,22.268],[-83.341,22.259],[-83.342,22.255],[-83.341,22.251],[-83.343,22.247],[-83.349,22.232],[-83.354,22.226],[-83.363,22.219],[-83.366,22.222],[-83.368,22.226],[-83.368,22.214],[-83.376,22.207],[-83.381,22.217],[-83.389,22.22],[-83.398,22.219],[-83.399,22.203],[-83.415,22.186],[-83.465,22.182],[-83.517,22.188],[-83.561,22.205],[-83.553,22.213],[-83.555,22.224],[-83.563,22.235],[-83.569,22.247],[-83.575,22.247],[-83.59,22.22],[-83.614,22.196],[-83.644,22.178],[-83.671,22.172],[-83.669,22.175],[-83.667,22.182],[-83.665,22.186],[-83.775,22.171],[-83.781,22.172],[-83.785,22.175],[-83.788,22.182],[-83.789,22.189],[-83.788,22.192],[-83.799,22.189],[-83.811,22.175],[-83.826,22.172],[-83.903,22.176],[-83.925,22.172],[-83.966,22.134],[-83.968,22.126],[-83.975,22.099],[-83.98,22.089],[-83.975,22.082],[-83.973,22.076],[-83.973,22.062],[-83.984,22.071],[-83.995,22.068],[-84.002,22.058],[-84.001,22.041],[-83.993,22.028],[-83.983,22.023],[-83.972,22.026],[-83.959,22.035],[-83.965,22.013],[-83.999,21.989],[-84.007,21.969],[-84.004,21.964],[-83.997,21.959],[-83.993,21.951],[-83.997,21.942],[-84.007,21.933],[-84.018,21.925],[-84.029,21.92],[-84.042,21.918],[-84.06,21.922],[-84.098,21.941],[-84.12,21.945],[-84.142,21.94],[-84.181,21.918],[-84.199,21.911],[-84.209,21.91],[-84.23,21.912],[-84.24,21.911],[-84.251,21.907],[-84.274,21.893],[-84.305,21.885],[-84.423,21.792],[-84.466,21.77],[-84.508,21.767],[-84.521,21.787],[-84.481,21.865],[-84.474,21.905],[-84.496,21.934],[-84.536,21.94],[-84.581,21.934],[-84.66,21.912],[-84.699,21.895],[-84.8,21.832],[-84.84,21.823],[-84.883,21.824],[-84.925,21.836],[-84.939,21.846],[-84.947,21.86],[-84.95,21.877],[-84.946,21.894],[-84.943,21.9],[-84.938,21.908],[-84.931,21.915],[-84.925,21.917],[-84.92,21.915],[-84.917,21.91],[-84.914,21.904],[-84.911,21.899],[-84.904,21.894],[-84.895,21.891],[-84.887,21.89],[-84.878,21.89],[-84.861,21.897],[-84.849,21.908],[-84.848,21.921],[-84.865,21.932],[-84.848,21.941],[-84.832,21.941],[-84.823,21.931],[-84.823,21.911],[-84.741,21.952],[-84.668,21.972],[-84.583,22.008],[-84.529,22.044],[-84.521,22.048],[-84.508,22.049],[-84.496,22.047],[-84.49,22.043],[-84.494,22.035],[-84.463,22.022],[-84.439,22.028],[-84.417,22.041],[-84.387,22.048],[-84.373,22.044],[-84.356,22.034],[-84.342,22.022],[-84.336,22.01],[-84.331,22.005],[-84.304,22.023],[-84.289,22.021],[-84.274,22.076],[-84.286,22.063],[-84.297,22.046],[-84.308,22.037],[-84.322,22.048],[-84.328,22.067],[-84.327,22.082],[-84.33,22.093],[-84.35,22.103],[-84.341,22.124],[-84.336,22.131],[-84.354,22.133],[-84.375,22.139],[-84.393,22.149],[-84.405,22.158],[-84.413,22.172],[-84.42,22.189],[-84.429,22.202],[-84.446,22.205],[-84.436,22.214],[-84.424,22.229],[-84.415,22.247],[-84.411,22.264],[-84.41,22.287],[-84.405,22.309],[-84.391,22.353],[-84.389,22.355],[-84.374,22.381],[-84.369,22.383],[-84.358,22.384],[-84.353,22.387],[-84.349,22.394],[-84.345,22.406],[-84.343,22.411],[-84.321,22.44],[-84.307,22.456],[-84.289,22.466],[-84.289,22.473],[-84.309,22.473],[-84.292,22.486],[-84.249,22.494],[-84.23,22.504],[-84.218,22.519],[-84.206,22.541],[-84.201,22.563],[-84.213,22.576],[-84.213,22.583],[-84.202,22.58],[-84.192,22.576],[-84.178,22.586],[-84.165,22.588],[-84.153,22.582],[-84.145,22.569],[-84.136,22.607],[-84.13,22.617],[-84.121,22.62],[-84.095,22.622],[-84.089,22.627],[-84.089,22.637],[-84.085,22.654],[-84.078,22.666],[-84.065,22.661],[-84.052,22.653],[-84.042,22.658],[-84.032,22.669],[-84.021,22.679],[-84.029,22.69],[-84.039,22.697],[-84.052,22.7],[-84.069,22.698],[-84.064,22.706],[-84.057,22.713],[-84.048,22.718],[-84.038,22.72],[-84.022,22.715],[-84.014,22.703],[-84.007,22.69],[-83.997,22.685],[-83.984,22.687],[-83.972,22.693],[-83.911,22.733],[-83.898,22.72],[-83.888,22.741],[-83.873,22.751],[-83.829,22.754],[-83.813,22.757],[-83.744,22.789],[-83.709,22.801],[-83.693,22.802],[-83.682,22.8],[-83.669,22.795],[-83.658,22.795],[-83.651,22.797],[-83.637,22.805],[-83.63,22.808],[-83.63,22.816],[-83.637,22.813],[-83.644,22.808],[-83.646,22.812],[-83.645,22.814],[-83.646,22.815],[-83.651,22.816],[-83.63,22.828],[-83.608,22.834],[-83.558,22.836],[-83.554,22.842],[-83.541,22.874],[-83.535,22.877],[-83.494,22.877],[-83.496,22.87],[-83.498,22.867],[-83.5,22.864],[-83.481,22.86],[-83.469,22.871],[-83.461,22.886],[-83.453,22.898],[-83.438,22.903],[-83.426,22.899],[-83.414,22.891],[-83.397,22.884],[-83.404,22.874],[-83.393,22.877],[-83.378,22.886],[-83.369,22.894],[-83.363,22.91],[-83.348,22.932],[-83.33,22.951],[-83.312,22.959],[-83.298,22.963],[-83.246,22.994],[-83.226,23.002],[-83.208,23.003],[-83.191,22.997],[-83.178,22.987],[-83.178,22.98],[-83.187,22.974],[-83.191,22.962],[-83.189,22.948],[-83.182,22.935],[-83.169,22.93],[-83.159,22.936],[-83.151,22.946],[-83.143,22.953],[-83.162,22.967],[-83.161,22.98],[-83.146,22.991],[-83.124,23],[-83.082,23.008],[-83.074,23.011],[-83.061,23.02],[-83.055,23.021],[-83.045,23.02],[-83.031,23.011],[-83.021,23.008],[-83.015,23.01],[-83.009,23.016],[-83.002,23.019],[-82.993,23.014],[-82.986,23.004],[-82.993,23.001],[-83.003,22.999],[-83.007,22.994],[-83.003,22.984],[-82.997,22.98],[-82.989,22.984],[-82.98,22.994],[-82.982,22.974],[-82.964,22.973],[-82.944,22.985],[-82.945,22.98],[-82.941,22.943],[-82.941,22.939],[-82.944,22.919],[-82.919,22.874],[-82.915,22.85],[-82.916,22.841],[-82.935,22.82],[-82.94,22.816],[-82.948,22.813],[-82.972,22.811],[-82.977,22.809],[-82.978,22.807],[-82.976,22.805],[-82.974,22.804],[-82.963,22.799],[-82.959,22.796],[-82.954,22.789],[-82.938,22.763],[-82.925,22.748],[-82.922,22.745],[-82.913,22.741],[-82.907,22.737],[-82.901,22.729],[-82.893,22.716],[-82.873,22.674],[-82.869,22.666],[-82.836,22.631],[-82.828,22.62],[-82.825,22.615],[-82.825,22.611]]],[[[-83.553,21.961],[-83.55,21.961],[-83.545,21.961],[-83.551,21.959],[-83.57,21.959],[-83.593,21.96],[-83.608,21.966],[-83.598,21.972],[-83.568,21.966],[-83.553,21.961]]]]}},{"type":"Feature","id":"CU-03","properties":{"id":"CU-03","countryCode":"CU","isoSubdivision":"CU-03","name":"Havana","name_en":"Havana","name_ko":"아바나","type":"Province","labelLongitude":-82.307,"labelLatitude":23.074,"minZoom":7.7},"geometry":{"type":"Polygon","coordinates":[[[-82.539,23.074],[-82.532,23.077],[-82.51,23.083],[-82.504,23.086],[-82.495,23.101],[-82.49,23.104],[-82.477,23.105],[-82.468,23.109],[-82.452,23.117],[-82.422,23.139],[-82.407,23.147],[-82.367,23.153],[-82.321,23.171],[-82.251,23.182],[-82.219,23.194],[-82.15,23.179],[-82.128,23.181],[-82.1,23.188],[-82.097,23.178],[-82.099,23.168],[-82.093,23.159],[-82.076,23.139],[-82.081,23.135],[-82.091,23.135],[-82.093,23.131],[-82.093,23.126],[-82.09,23.117],[-82.091,23.113],[-82.096,23.108],[-82.099,23.105],[-82.1,23.101],[-82.101,23.084],[-82.111,23.068],[-82.146,23.106],[-82.152,23.11],[-82.161,23.114],[-82.165,23.112],[-82.168,23.109],[-82.17,23.106],[-82.171,23.101],[-82.176,23.088],[-82.183,23.083],[-82.189,23.079],[-82.192,23.08],[-82.199,23.089],[-82.205,23.095],[-82.21,23.094],[-82.211,23.093],[-82.211,23.09],[-82.209,23.086],[-82.209,23.081],[-82.21,23.076],[-82.212,23.068],[-82.213,23.061],[-82.211,23.053],[-82.203,23.037],[-82.201,23.032],[-82.202,23.028],[-82.236,22.993],[-82.244,22.98],[-82.25,22.973],[-82.259,22.969],[-82.27,22.969],[-82.28,22.971],[-82.291,22.975],[-82.317,22.973],[-82.356,22.977],[-82.365,22.968],[-82.369,22.961],[-82.382,22.951],[-82.389,22.948],[-82.394,22.949],[-82.405,22.961],[-82.412,22.965],[-82.42,22.963],[-82.436,22.957],[-82.445,22.991],[-82.447,22.993],[-82.451,22.996],[-82.453,22.994],[-82.456,22.994],[-82.492,23.009],[-82.5,23.014],[-82.503,23.018],[-82.502,23.02],[-82.482,23.036],[-82.474,23.048],[-82.475,23.057],[-82.485,23.07],[-82.493,23.072],[-82.5,23.07],[-82.505,23.065],[-82.517,23.06],[-82.534,23.067],[-82.539,23.074]]]}},{"type":"Feature","id":"CU-04","properties":{"id":"CU-04","countryCode":"CU","isoSubdivision":"CU-04","name":"Matanzas","name_en":"Matanzas","name_ko":"마탄사스","type":"Province","labelLongitude":-81.186,"labelLatitude":22.615,"minZoom":7.7},"geometry":{"type":"MultiPolygon","coordinates":[[[[-80.828,23.179],[-80.821,23.179],[-80.811,23.164],[-80.805,23.158],[-80.805,23.153],[-80.814,23.145],[-80.831,23.136],[-80.843,23.137],[-80.853,23.142],[-80.866,23.145],[-80.898,23.142],[-80.922,23.134],[-80.972,23.111],[-80.96,23.122],[-80.9,23.159],[-80.882,23.163],[-80.863,23.162],[-80.841,23.158],[-80.845,23.163],[-80.851,23.174],[-80.855,23.179],[-80.848,23.185],[-80.844,23.178],[-80.828,23.165],[-80.828,23.179]]],[[[-80.492,23.193],[-80.486,23.194],[-80.479,23.196],[-80.473,23.196],[-80.471,23.189],[-80.473,23.182],[-80.479,23.177],[-80.487,23.174],[-80.495,23.168],[-80.505,23.17],[-80.523,23.177],[-80.543,23.182],[-80.56,23.179],[-80.564,23.185],[-80.568,23.185],[-80.581,23.179],[-80.577,23.193],[-80.57,23.201],[-80.56,23.205],[-80.543,23.206],[-80.539,23.204],[-80.531,23.195],[-80.526,23.193],[-80.517,23.192],[-80.492,23.193]]],[[[-81.684,23.157],[-81.658,23.157],[-81.642,23.159],[-81.629,23.165],[-81.618,23.16],[-81.606,23.159],[-81.595,23.159],[-81.581,23.158],[-81.574,23.154],[-81.557,23.141],[-81.536,23.129],[-81.532,23.109],[-81.535,23.086],[-81.54,23.069],[-81.546,23.061],[-81.552,23.057],[-81.553,23.054],[-81.54,23.049],[-81.529,23.047],[-81.518,23.05],[-81.503,23.055],[-81.499,23.06],[-81.493,23.085],[-81.489,23.093],[-81.481,23.1],[-81.473,23.103],[-81.464,23.103],[-81.38,23.116],[-81.369,23.121],[-81.358,23.132],[-81.333,23.138],[-81.286,23.145],[-81.271,23.15],[-81.234,23.166],[-81.21,23.184],[-81.166,23.208],[-81.149,23.212],[-81.131,23.206],[-81.145,23.194],[-81.172,23.184],[-81.218,23.173],[-81.272,23.142],[-81.286,23.131],[-81.286,23.124],[-81.242,23.114],[-81.185,23.052],[-81.149,23.035],[-81.129,23.034],[-81.121,23.039],[-81.114,23.049],[-81.099,23.066],[-81.094,23.074],[-81.083,23.099],[-81.078,23.104],[-81.067,23.105],[-81.046,23.11],[-81.04,23.111],[-80.998,23.104],[-80.991,23.104],[-80.988,23.106],[-80.986,23.102],[-80.985,23.086],[-80.978,23.064],[-80.959,23.059],[-80.937,23.063],[-80.916,23.069],[-80.759,23.097],[-80.735,23.098],[-80.688,23.089],[-80.663,23.09],[-80.642,23.098],[-80.624,23.113],[-80.618,23.132],[-80.636,23.151],[-80.623,23.157],[-80.61,23.158],[-80.597,23.156],[-80.587,23.151],[-80.587,23.145],[-80.596,23.137],[-80.622,23.09],[-80.594,23.07],[-80.593,23.068],[-80.599,23.066],[-80.615,23.037],[-80.618,23.014],[-80.617,23.004],[-80.618,22.987],[-80.623,22.979],[-80.63,22.974],[-80.64,22.971],[-80.646,22.97],[-80.651,22.971],[-80.659,22.977],[-80.663,22.979],[-80.667,22.979],[-80.673,22.979],[-80.677,22.978],[-80.692,22.973],[-80.696,22.973],[-80.721,22.973],[-80.726,22.971],[-80.729,22.966],[-80.732,22.957],[-80.733,22.949],[-80.732,22.938],[-80.728,22.923],[-80.727,22.914],[-80.73,22.9],[-80.735,22.893],[-80.74,22.888],[-80.747,22.884],[-80.748,22.881],[-80.747,22.878],[-80.743,22.876],[-80.739,22.873],[-80.737,22.87],[-80.736,22.864],[-80.734,22.859],[-80.731,22.854],[-80.721,22.844],[-80.714,22.835],[-80.711,22.83],[-80.709,22.826],[-80.704,22.822],[-80.688,22.812],[-80.667,22.796],[-80.651,22.797],[-80.644,22.8],[-80.624,22.813],[-80.605,22.82],[-80.595,22.82],[-80.588,22.817],[-80.585,22.814],[-80.581,22.805],[-80.58,22.802],[-80.575,22.793],[-80.568,22.772],[-80.553,22.748],[-80.55,22.741],[-80.552,22.736],[-80.557,22.733],[-80.566,22.729],[-80.572,22.721],[-80.573,22.716],[-80.571,22.711],[-80.564,22.704],[-80.56,22.697],[-80.558,22.691],[-80.558,22.682],[-80.563,22.635],[-80.562,22.628],[-80.559,22.624],[-80.555,22.619],[-80.55,22.611],[-80.548,22.592],[-80.545,22.581],[-80.54,22.571],[-80.534,22.565],[-80.52,22.542],[-80.54,22.529],[-80.543,22.525],[-80.565,22.487],[-80.572,22.479],[-80.576,22.474],[-80.58,22.474],[-80.588,22.473],[-80.595,22.471],[-80.602,22.469],[-80.624,22.46],[-80.63,22.459],[-80.635,22.46],[-80.645,22.463],[-80.737,22.472],[-80.76,22.47],[-80.768,22.471],[-80.818,22.483],[-80.829,22.483],[-80.837,22.482],[-80.846,22.477],[-80.85,22.474],[-80.862,22.467],[-80.883,22.457],[-80.889,22.454],[-80.901,22.443],[-80.904,22.44],[-80.909,22.436],[-80.921,22.428],[-80.929,22.419],[-80.928,22.417],[-80.925,22.416],[-80.92,22.415],[-80.916,22.413],[-80.915,22.411],[-80.915,22.407],[-80.922,22.391],[-80.925,22.384],[-80.941,22.36],[-80.943,22.355],[-80.942,22.353],[-80.939,22.352],[-80.936,22.353],[-80.931,22.354],[-80.926,22.356],[-80.923,22.357],[-80.92,22.357],[-80.917,22.356],[-80.913,22.354],[-80.912,22.35],[-80.913,22.345],[-80.921,22.334],[-80.924,22.328],[-80.926,22.323],[-80.924,22.319],[-80.921,22.312],[-80.921,22.307],[-80.923,22.299],[-80.928,22.285],[-80.93,22.277],[-80.931,22.269],[-80.93,22.26],[-80.928,22.255],[-80.926,22.252],[-80.924,22.249],[-80.919,22.248],[-80.903,22.25],[-80.899,22.25],[-80.897,22.249],[-80.896,22.247],[-80.896,22.242],[-80.894,22.238],[-80.893,22.23],[-80.897,22.211],[-80.855,22.184],[-80.843,22.173],[-80.832,22.158],[-80.801,22.141],[-80.766,22.127],[-80.752,22.12],[-80.745,22.117],[-80.741,22.117],[-80.738,22.119],[-80.736,22.122],[-80.733,22.125],[-80.729,22.126],[-80.713,22.126],[-80.706,22.128],[-80.696,22.128],[-80.691,22.126],[-80.685,22.12],[-80.68,22.118],[-80.671,22.118],[-80.656,22.122],[-80.636,22.124],[-80.625,22.124],[-80.618,22.121],[-80.611,22.114],[-80.608,22.11],[-80.606,22.105],[-80.605,22.1],[-80.605,22.083],[-80.603,22.071],[-80.601,22.065],[-80.593,22.054],[-80.638,22.053],[-80.761,22.061],[-80.905,22.046],[-80.992,22.054],[-81.012,22.061],[-81.049,22.078],[-81.088,22.086],[-81.104,22.096],[-81.114,22.111],[-81.139,22.162],[-81.143,22.172],[-81.144,22.187],[-81.136,22.23],[-81.141,22.233],[-81.167,22.271],[-81.181,22.279],[-81.194,22.282],[-81.205,22.278],[-81.212,22.268],[-81.212,22.255],[-81.198,22.212],[-81.197,22.091],[-81.205,22.06],[-81.225,22.062],[-81.211,22.083],[-81.215,22.115],[-81.23,22.144],[-81.239,22.151],[-81.267,22.142],[-81.273,22.137],[-81.276,22.129],[-81.275,22.11],[-81.28,22.103],[-81.291,22.098],[-81.299,22.101],[-81.306,22.107],[-81.314,22.11],[-81.322,22.105],[-81.323,22.098],[-81.326,22.092],[-81.338,22.089],[-81.374,22.104],[-81.396,22.171],[-81.434,22.186],[-81.482,22.186],[-81.494,22.189],[-81.513,22.202],[-81.524,22.205],[-81.531,22.202],[-81.546,22.189],[-81.558,22.186],[-81.56,22.185],[-81.562,22.182],[-81.565,22.18],[-81.571,22.178],[-81.574,22.18],[-81.577,22.189],[-81.581,22.192],[-81.623,22.205],[-81.628,22.208],[-81.64,22.213],[-81.651,22.213],[-81.657,22.202],[-81.667,22.198],[-81.689,22.197],[-81.712,22.199],[-81.726,22.205],[-81.732,22.205],[-81.735,22.193],[-81.741,22.19],[-81.76,22.192],[-81.757,22.188],[-81.755,22.185],[-81.753,22.178],[-81.764,22.178],[-81.81,22.184],[-81.824,22.189],[-81.85,22.215],[-81.859,22.229],[-81.862,22.244],[-81.88,22.26],[-82.021,22.313],[-82.036,22.321],[-82.051,22.333],[-82.06,22.337],[-82.08,22.339],[-82.088,22.342],[-82.093,22.348],[-82.105,22.366],[-82.106,22.37],[-82.119,22.37],[-82.138,22.372],[-82.155,22.38],[-82.164,22.397],[-82.158,22.413],[-82.146,22.422],[-82.131,22.428],[-82.119,22.432],[-82.004,22.428],[-81.966,22.437],[-81.939,22.433],[-81.909,22.435],[-81.891,22.439],[-81.864,22.433],[-81.841,22.431],[-81.79,22.438],[-81.75,22.454],[-81.739,22.452],[-81.729,22.457],[-81.709,22.457],[-81.698,22.46],[-81.684,22.464],[-81.67,22.476],[-81.661,22.484],[-81.652,22.488],[-81.653,22.509],[-81.649,22.518],[-81.651,22.534],[-81.643,22.562],[-81.643,22.573],[-81.651,22.575],[-81.649,22.577],[-81.648,22.579],[-81.647,22.579],[-81.644,22.581],[-81.639,22.584],[-81.636,22.587],[-81.623,22.606],[-81.615,22.616],[-81.609,22.625],[-81.606,22.632],[-81.604,22.64],[-81.596,22.69],[-81.598,22.705],[-81.614,22.718],[-81.652,22.74],[-81.658,22.749],[-81.658,22.765],[-81.647,22.79],[-81.647,22.796],[-81.651,22.802],[-81.664,22.81],[-81.679,22.824],[-81.695,22.851],[-81.683,22.888],[-81.68,22.917],[-81.679,22.921],[-81.68,22.927],[-81.681,22.931],[-81.692,22.946],[-81.709,22.966],[-81.716,22.973],[-81.724,22.978],[-81.731,22.981],[-81.742,22.982],[-81.746,22.984],[-81.747,22.987],[-81.745,22.995],[-81.743,22.998],[-81.742,23],[-81.741,23.001],[-81.736,23.006],[-81.715,23.018],[-81.706,23.03],[-81.702,23.032],[-81.7,23.035],[-81.7,23.038],[-81.704,23.043],[-81.713,23.05],[-81.714,23.053],[-81.712,23.058],[-81.705,23.067],[-81.699,23.07],[-81.694,23.07],[-81.685,23.065],[-81.682,23.064],[-81.681,23.065],[-81.681,23.071],[-81.683,23.084],[-81.695,23.137],[-81.685,23.149],[-81.684,23.157]]],[[[-81.556,22.066],[-81.549,22.058],[-81.547,22.045],[-81.555,22.044],[-81.565,22.05],[-81.576,22.049],[-81.582,22.051],[-81.586,22.057],[-81.589,22.064],[-81.589,22.073],[-81.583,22.077],[-81.572,22.074],[-81.561,22.069],[-81.556,22.066]]],[[[-80.669,23.212],[-80.666,23.209],[-80.664,23.201],[-80.666,23.194],[-80.671,23.195],[-80.674,23.194],[-80.675,23.187],[-80.68,23.186],[-80.691,23.188],[-80.699,23.184],[-80.701,23.177],[-80.704,23.18],[-80.705,23.193],[-80.695,23.204],[-80.678,23.21],[-80.669,23.212]]],[[[-80.775,23.207],[-80.712,23.2],[-80.711,23.197],[-80.712,23.191],[-80.718,23.189],[-80.725,23.193],[-80.732,23.193],[-80.737,23.187],[-80.741,23.184],[-80.762,23.193],[-80.774,23.197],[-80.781,23.198],[-80.799,23.196],[-80.81,23.197],[-80.838,23.206],[-80.848,23.208],[-80.856,23.218],[-80.861,23.22],[-80.857,23.226],[-80.838,23.224],[-80.81,23.214],[-80.775,23.207]]],[[[-80.879,23.25],[-80.874,23.249],[-80.871,23.24],[-80.879,23.232],[-80.89,23.234],[-80.901,23.237],[-80.913,23.239],[-80.924,23.243],[-80.929,23.25],[-80.934,23.254],[-80.943,23.257],[-80.936,23.263],[-80.913,23.266],[-80.886,23.25],[-80.879,23.25]]]]}},{"type":"Feature","id":"CU-05","properties":{"id":"CU-05","countryCode":"CU","isoSubdivision":"CU-05","name":"Villa Clara","name_en":"Villa Clara","name_ko":"비야클라라","type":"Province","labelLongitude":-79.953,"labelLatitude":22.601,"minZoom":7.7},"geometry":{"type":"MultiPolygon","coordinates":[[[[-79.358,22.638],[-79.366,22.639],[-79.376,22.643],[-79.389,22.651],[-79.404,22.664],[-79.437,22.698],[-79.455,22.692],[-79.474,22.694],[-79.491,22.702],[-79.514,22.718],[-79.52,22.721],[-79.524,22.725],[-79.525,22.736],[-79.529,22.74],[-79.545,22.751],[-79.55,22.754],[-79.558,22.76],[-79.563,22.774],[-79.572,22.788],[-79.591,22.795],[-79.62,22.783],[-79.634,22.784],[-79.635,22.802],[-79.607,22.81],[-79.587,22.811],[-79.57,22.804],[-79.518,22.75],[-79.496,22.733],[-79.45,22.72],[-79.413,22.691],[-79.372,22.677],[-79.352,22.657],[-79.336,22.635],[-79.327,22.617],[-79.349,22.635],[-79.358,22.638]]],[[[-79.895,22.959],[-79.887,22.96],[-79.888,22.946],[-79.899,22.937],[-79.92,22.949],[-79.929,22.946],[-79.94,22.933],[-79.95,22.928],[-79.957,22.953],[-79.943,22.961],[-79.927,22.966],[-79.911,22.966],[-79.895,22.959]]],[[[-80.321,22.987],[-80.272,23.009],[-80.25,23.011],[-80.232,23],[-80.237,22.997],[-80.247,22.989],[-80.252,22.987],[-80.243,22.983],[-80.236,22.977],[-80.233,22.969],[-80.232,22.959],[-80.333,22.975],[-80.348,22.987],[-80.342,22.991],[-80.336,22.993],[-80.329,22.992],[-80.321,22.987]]],[[[-80.197,23.124],[-80.191,23.111],[-80.18,23.1],[-80.166,23.092],[-80.153,23.09],[-80.137,23.089],[-80.131,23.087],[-80.134,23.083],[-80.142,23.076],[-80.162,23.067],[-80.183,23.071],[-80.225,23.09],[-80.223,23.1],[-80.217,23.107],[-80.211,23.114],[-80.204,23.124],[-80.197,23.124]]],[[[-80.593,23.068],[-80.557,23.007],[-80.536,22.994],[-80.52,22.993],[-80.48,22.986],[-80.465,22.98],[-80.455,22.972],[-80.445,22.96],[-80.432,22.95],[-80.413,22.946],[-80.357,22.946],[-80.344,22.942],[-80.329,22.93],[-80.313,22.921],[-80.297,22.916],[-80.28,22.912],[-80.247,22.911],[-80.216,22.917],[-80.156,22.939],[-80.164,22.963],[-80.147,22.963],[-80.094,22.939],[-80.07,22.932],[-80.05,22.935],[-80.046,22.959],[-80.036,22.954],[-80.025,22.947],[-80.016,22.938],[-80.013,22.928],[-79.99,22.891],[-79.988,22.884],[-79.95,22.864],[-79.945,22.863],[-79.927,22.864],[-79.92,22.861],[-79.917,22.856],[-79.916,22.852],[-79.916,22.849],[-79.896,22.855],[-79.863,22.884],[-79.802,22.9],[-79.793,22.898],[-79.793,22.89],[-79.802,22.882],[-79.821,22.87],[-79.844,22.881],[-79.855,22.873],[-79.868,22.836],[-79.857,22.821],[-79.851,22.814],[-79.841,22.808],[-79.831,22.806],[-79.79,22.802],[-79.772,22.797],[-79.713,22.758],[-79.71,22.753],[-79.706,22.749],[-79.7,22.747],[-79.695,22.749],[-79.689,22.754],[-79.684,22.759],[-79.683,22.761],[-79.66,22.764],[-79.652,22.759],[-79.627,22.657],[-79.626,22.657],[-79.611,22.652],[-79.599,22.647],[-79.589,22.638],[-79.577,22.627],[-79.566,22.611],[-79.552,22.58],[-79.543,22.566],[-79.517,22.539],[-79.512,22.535],[-79.497,22.532],[-79.468,22.531],[-79.457,22.528],[-79.43,22.49],[-79.425,22.479],[-79.417,22.472],[-79.417,22.471],[-79.417,22.448],[-79.435,22.416],[-79.424,22.408],[-79.415,22.395],[-79.382,22.333],[-79.353,22.297],[-79.353,22.29],[-79.357,22.277],[-79.359,22.265],[-79.358,22.249],[-79.361,22.231],[-79.387,22.235],[-79.412,22.247],[-79.422,22.249],[-79.434,22.248],[-79.451,22.242],[-79.463,22.237],[-79.481,22.219],[-79.487,22.202],[-79.492,22.189],[-79.499,22.175],[-79.508,22.164],[-79.517,22.157],[-79.528,22.152],[-79.542,22.151],[-79.556,22.156],[-79.565,22.161],[-79.578,22.167],[-79.599,22.161],[-79.64,22.173],[-79.649,22.173],[-79.662,22.172],[-79.677,22.163],[-79.684,22.159],[-79.692,22.159],[-79.703,22.161],[-79.713,22.17],[-79.718,22.177],[-79.722,22.183],[-79.734,22.192],[-79.767,22.193],[-79.778,22.184],[-79.78,22.177],[-79.779,22.167],[-79.773,22.149],[-79.758,22.123],[-79.754,22.112],[-79.75,22.105],[-79.747,22.102],[-79.743,22.101],[-79.738,22.102],[-79.732,22.101],[-79.727,22.099],[-79.724,22.094],[-79.724,22.081],[-79.73,22.062],[-79.746,22.032],[-79.766,22.002],[-79.791,21.982],[-79.821,21.984],[-79.835,21.991],[-79.84,21.994],[-79.847,21.997],[-79.905,22.01],[-79.914,22.009],[-79.925,22.005],[-79.935,21.993],[-79.938,21.985],[-79.94,21.977],[-79.943,21.972],[-79.948,21.969],[-79.963,21.97],[-79.97,21.968],[-79.989,21.954],[-80.024,21.939],[-80.023,21.952],[-80.025,21.954],[-80.045,21.969],[-80.048,21.977],[-80.05,21.987],[-80.049,22.002],[-80.051,22.028],[-80.053,22.037],[-80.059,22.043],[-80.077,22.058],[-80.084,22.07],[-80.089,22.084],[-80.1,22.123],[-80.1,22.132],[-80.1,22.152],[-80.104,22.19],[-80.102,22.199],[-80.099,22.208],[-80.095,22.213],[-80.084,22.246],[-80.109,22.256],[-80.121,22.271],[-80.13,22.286],[-80.136,22.298],[-80.138,22.307],[-80.142,22.329],[-80.143,22.333],[-80.146,22.335],[-80.15,22.335],[-80.155,22.335],[-80.17,22.331],[-80.177,22.33],[-80.184,22.331],[-80.197,22.337],[-80.233,22.37],[-80.239,22.378],[-80.242,22.385],[-80.243,22.395],[-80.224,22.415],[-80.221,22.428],[-80.224,22.432],[-80.227,22.436],[-80.234,22.44],[-80.238,22.447],[-80.239,22.452],[-80.237,22.46],[-80.234,22.468],[-80.237,22.478],[-80.256,22.488],[-80.259,22.494],[-80.27,22.518],[-80.271,22.526],[-80.271,22.532],[-80.268,22.534],[-80.265,22.536],[-80.261,22.537],[-80.258,22.538],[-80.255,22.543],[-80.254,22.551],[-80.254,22.569],[-80.255,22.576],[-80.258,22.579],[-80.26,22.577],[-80.265,22.572],[-80.268,22.57],[-80.274,22.569],[-80.28,22.569],[-80.294,22.57],[-80.3,22.57],[-80.304,22.569],[-80.307,22.565],[-80.31,22.558],[-80.318,22.536],[-80.32,22.533],[-80.323,22.532],[-80.329,22.531],[-80.336,22.532],[-80.342,22.531],[-80.346,22.53],[-80.358,22.523],[-80.364,22.52],[-80.375,22.516],[-80.381,22.516],[-80.385,22.517],[-80.387,22.52],[-80.387,22.522],[-80.387,22.527],[-80.382,22.54],[-80.38,22.549],[-80.379,22.564],[-80.384,22.569],[-80.392,22.571],[-80.417,22.566],[-80.441,22.585],[-80.446,22.586],[-80.455,22.587],[-80.459,22.585],[-80.463,22.581],[-80.466,22.578],[-80.478,22.565],[-80.52,22.542],[-80.534,22.565],[-80.54,22.571],[-80.545,22.581],[-80.548,22.592],[-80.55,22.611],[-80.555,22.619],[-80.559,22.624],[-80.562,22.628],[-80.563,22.635],[-80.558,22.682],[-80.558,22.691],[-80.56,22.697],[-80.564,22.704],[-80.571,22.711],[-80.573,22.716],[-80.572,22.721],[-80.566,22.729],[-80.557,22.733],[-80.552,22.736],[-80.55,22.741],[-80.553,22.748],[-80.568,22.772],[-80.575,22.793],[-80.58,22.802],[-80.581,22.805],[-80.585,22.814],[-80.588,22.817],[-80.595,22.82],[-80.605,22.82],[-80.624,22.813],[-80.644,22.8],[-80.651,22.797],[-80.667,22.796],[-80.688,22.812],[-80.704,22.822],[-80.709,22.826],[-80.711,22.83],[-80.714,22.835],[-80.721,22.844],[-80.731,22.854],[-80.734,22.859],[-80.736,22.864],[-80.737,22.87],[-80.739,22.873],[-80.743,22.876],[-80.747,22.878],[-80.748,22.881],[-80.747,22.884],[-80.74,22.888],[-80.735,22.893],[-80.73,22.9],[-80.727,22.914],[-80.728,22.923],[-80.732,22.938],[-80.733,22.949],[-80.732,22.957],[-80.729,22.966],[-80.726,22.971],[-80.721,22.973],[-80.696,22.973],[-80.692,22.973],[-80.677,22.978],[-80.673,22.979],[-80.667,22.979],[-80.663,22.979],[-80.659,22.977],[-80.651,22.971],[-80.646,22.97],[-80.64,22.971],[-80.63,22.974],[-80.623,22.979],[-80.618,22.987],[-80.617,23.004],[-80.618,23.014],[-80.615,23.037],[-80.599,23.066],[-80.593,23.068]]],[[[-79.68,22.859],[-79.666,22.852],[-79.661,22.845],[-79.67,22.836],[-79.685,22.834],[-79.692,22.84],[-79.692,22.847],[-79.695,22.85],[-79.699,22.852],[-79.705,22.852],[-79.712,22.853],[-79.731,22.866],[-79.74,22.876],[-79.739,22.886],[-79.726,22.889],[-79.728,22.895],[-79.728,22.904],[-79.722,22.907],[-79.715,22.896],[-79.718,22.88],[-79.711,22.878],[-79.692,22.874],[-79.686,22.865],[-79.68,22.859]]],[[[-79.826,22.965],[-79.818,22.954],[-79.817,22.947],[-79.823,22.942],[-79.835,22.939],[-79.842,22.932],[-79.838,22.926],[-79.829,22.925],[-79.827,22.919],[-79.835,22.912],[-79.847,22.91],[-79.858,22.917],[-79.864,22.926],[-79.861,22.932],[-79.855,22.937],[-79.853,22.942],[-79.862,22.943],[-79.871,22.948],[-79.861,22.963],[-79.839,22.968],[-79.826,22.965]]],[[[-80.061,23.05],[-80.058,23.042],[-80.054,23.029],[-80.056,23.027],[-80.062,23.034],[-80.067,23.039],[-80.071,23.039],[-80.077,23.037],[-80.085,23.038],[-80.091,23.043],[-80.095,23.048],[-80.094,23.051],[-80.091,23.05],[-80.089,23.055],[-80.088,23.067],[-80.077,23.07],[-80.065,23.058],[-80.061,23.05]]],[[[-80.245,23.107],[-80.242,23.104],[-80.238,23.098],[-80.239,23.091],[-80.245,23.085],[-80.25,23.085],[-80.257,23.089],[-80.262,23.096],[-80.266,23.104],[-80.274,23.106],[-80.289,23.114],[-80.293,23.116],[-80.295,23.12],[-80.296,23.123],[-80.303,23.126],[-80.306,23.135],[-80.296,23.14],[-80.289,23.142],[-80.281,23.142],[-80.272,23.14],[-80.273,23.134],[-80.266,23.127],[-80.251,23.115],[-80.245,23.107]]],[[[-80.401,23.155],[-80.39,23.154],[-80.376,23.152],[-80.378,23.148],[-80.386,23.146],[-80.394,23.146],[-80.42,23.143],[-80.429,23.136],[-80.444,23.13],[-80.458,23.127],[-80.46,23.129],[-80.462,23.135],[-80.458,23.137],[-80.449,23.136],[-80.451,23.145],[-80.446,23.151],[-80.432,23.153],[-80.424,23.153],[-80.401,23.155]]]]}},{"type":"Feature","id":"CU-06","properties":{"id":"CU-06","countryCode":"CU","isoSubdivision":"CU-06","name":"Cienfuegos","name_en":"Cienfuegos","name_ko":"시엔푸에고스","type":"Province","labelLongitude":-80.483,"labelLatitude":22.325,"minZoom":7.7},"geometry":{"type":"Polygon","coordinates":[[[-80.101,21.825],[-80.105,21.825],[-80.146,21.84],[-80.188,21.848],[-80.218,21.871],[-80.27,21.887],[-80.301,21.912],[-80.41,22.021],[-80.412,22.025],[-80.412,22.03],[-80.413,22.036],[-80.417,22.041],[-80.421,22.042],[-80.433,22.04],[-80.437,22.041],[-80.448,22.05],[-80.451,22.057],[-80.451,22.069],[-80.437,22.066],[-80.419,22.067],[-80.402,22.072],[-80.389,22.082],[-80.404,22.079],[-80.41,22.076],[-80.406,22.085],[-80.4,22.093],[-80.396,22.101],[-80.396,22.11],[-80.404,22.113],[-80.416,22.11],[-80.425,22.11],[-80.424,22.123],[-80.444,22.123],[-80.457,22.13],[-80.458,22.143],[-80.443,22.158],[-80.467,22.172],[-80.477,22.18],[-80.484,22.192],[-80.491,22.182],[-80.504,22.178],[-80.518,22.18],[-80.533,22.186],[-80.538,22.164],[-80.529,22.151],[-80.499,22.131],[-80.484,22.112],[-80.471,22.089],[-80.465,22.065],[-80.471,22.041],[-80.514,22.056],[-80.593,22.054],[-80.601,22.065],[-80.603,22.071],[-80.605,22.083],[-80.605,22.1],[-80.606,22.105],[-80.608,22.11],[-80.611,22.114],[-80.618,22.121],[-80.625,22.124],[-80.636,22.124],[-80.656,22.122],[-80.671,22.118],[-80.68,22.118],[-80.685,22.12],[-80.691,22.126],[-80.696,22.128],[-80.706,22.128],[-80.713,22.126],[-80.729,22.126],[-80.733,22.125],[-80.736,22.122],[-80.738,22.119],[-80.741,22.117],[-80.745,22.117],[-80.752,22.12],[-80.766,22.127],[-80.801,22.141],[-80.832,22.158],[-80.843,22.173],[-80.855,22.184],[-80.897,22.211],[-80.893,22.23],[-80.894,22.238],[-80.896,22.242],[-80.896,22.247],[-80.897,22.249],[-80.899,22.25],[-80.903,22.25],[-80.919,22.248],[-80.924,22.249],[-80.926,22.252],[-80.928,22.255],[-80.93,22.26],[-80.931,22.269],[-80.93,22.277],[-80.928,22.285],[-80.923,22.299],[-80.921,22.307],[-80.921,22.312],[-80.924,22.319],[-80.926,22.323],[-80.924,22.328],[-80.921,22.334],[-80.913,22.345],[-80.912,22.35],[-80.913,22.354],[-80.917,22.356],[-80.92,22.357],[-80.923,22.357],[-80.926,22.356],[-80.931,22.354],[-80.936,22.353],[-80.939,22.352],[-80.942,22.353],[-80.943,22.355],[-80.941,22.36],[-80.925,22.384],[-80.922,22.391],[-80.915,22.407],[-80.915,22.411],[-80.916,22.413],[-80.92,22.415],[-80.925,22.416],[-80.928,22.417],[-80.929,22.419],[-80.921,22.428],[-80.909,22.436],[-80.904,22.44],[-80.901,22.443],[-80.889,22.454],[-80.883,22.457],[-80.862,22.467],[-80.85,22.474],[-80.846,22.477],[-80.837,22.482],[-80.829,22.483],[-80.818,22.483],[-80.768,22.471],[-80.76,22.47],[-80.737,22.472],[-80.645,22.463],[-80.635,22.46],[-80.63,22.459],[-80.624,22.46],[-80.602,22.469],[-80.595,22.471],[-80.588,22.473],[-80.58,22.474],[-80.576,22.474],[-80.572,22.479],[-80.565,22.487],[-80.543,22.525],[-80.54,22.529],[-80.52,22.542],[-80.478,22.565],[-80.466,22.578],[-80.463,22.581],[-80.459,22.585],[-80.455,22.587],[-80.446,22.586],[-80.441,22.585],[-80.417,22.566],[-80.392,22.571],[-80.384,22.569],[-80.379,22.564],[-80.38,22.549],[-80.382,22.54],[-80.387,22.527],[-80.387,22.522],[-80.387,22.52],[-80.385,22.517],[-80.381,22.516],[-80.375,22.516],[-80.364,22.52],[-80.358,22.523],[-80.346,22.53],[-80.342,22.531],[-80.336,22.532],[-80.329,22.531],[-80.323,22.532],[-80.32,22.533],[-80.318,22.536],[-80.31,22.558],[-80.307,22.565],[-80.304,22.569],[-80.3,22.57],[-80.294,22.57],[-80.28,22.569],[-80.274,22.569],[-80.268,22.57],[-80.265,22.572],[-80.26,22.577],[-80.258,22.579],[-80.255,22.576],[-80.254,22.569],[-80.254,22.551],[-80.255,22.543],[-80.258,22.538],[-80.261,22.537],[-80.265,22.536],[-80.268,22.534],[-80.271,22.532],[-80.271,22.526],[-80.27,22.518],[-80.259,22.494],[-80.256,22.488],[-80.237,22.478],[-80.234,22.468],[-80.237,22.46],[-80.239,22.452],[-80.238,22.447],[-80.234,22.44],[-80.227,22.436],[-80.224,22.432],[-80.221,22.428],[-80.224,22.415],[-80.243,22.395],[-80.242,22.385],[-80.239,22.378],[-80.233,22.37],[-80.197,22.337],[-80.184,22.331],[-80.177,22.33],[-80.17,22.331],[-80.155,22.335],[-80.15,22.335],[-80.146,22.335],[-80.143,22.333],[-80.142,22.329],[-80.138,22.307],[-80.136,22.298],[-80.13,22.286],[-80.121,22.271],[-80.109,22.256],[-80.084,22.246],[-80.095,22.213],[-80.099,22.208],[-80.102,22.199],[-80.104,22.19],[-80.1,22.152],[-80.1,22.132],[-80.1,22.123],[-80.089,22.084],[-80.084,22.07],[-80.077,22.058],[-80.059,22.043],[-80.053,22.037],[-80.051,22.028],[-80.049,22.002],[-80.05,21.987],[-80.048,21.977],[-80.045,21.969],[-80.025,21.954],[-80.023,21.952],[-80.024,21.939],[-80.06,21.904],[-80.087,21.883],[-80.094,21.876],[-80.098,21.871],[-80.099,21.866],[-80.101,21.825]]]}},{"type":"Feature","id":"CU-07","properties":{"id":"CU-07","countryCode":"CU","isoSubdivision":"CU-07","name":"Sancti Spíritus","name_en":"Sancti Spíritus","name_ko":"상크티스피리투스","type":"Province","labelLongitude":-79.38,"labelLatitude":21.962,"minZoom":7.7},"geometry":{"type":"MultiPolygon","coordinates":[[[[-78.984,22.638],[-78.99,22.651],[-79.005,22.657],[-79.064,22.66],[-79.075,22.664],[-79.087,22.672],[-79.07,22.674],[-78.977,22.669],[-78.961,22.66],[-78.961,22.649],[-78.984,22.638]]],[[[-79.417,22.472],[-79.342,22.413],[-79.312,22.4],[-79.286,22.404],[-79.276,22.395],[-79.257,22.382],[-79.239,22.376],[-79.231,22.387],[-79.22,22.388],[-79.167,22.378],[-79.149,22.378],[-79.138,22.385],[-79.136,22.391],[-79.133,22.396],[-79.121,22.397],[-79.111,22.395],[-79.095,22.386],[-79.083,22.384],[-79.062,22.387],[-79.024,22.4],[-79.005,22.404],[-78.982,22.405],[-78.927,22.399],[-78.931,22.385],[-78.934,22.354],[-78.942,22.347],[-78.95,22.34],[-78.956,22.328],[-78.966,22.307],[-78.975,22.275],[-78.985,22.257],[-79,22.233],[-79.013,22.211],[-79.022,22.188],[-79.035,22.176],[-79.033,22.149],[-79.048,22.117],[-79.046,22.096],[-79.03,22.083],[-79,22.06],[-78.978,22.05],[-78.965,22.044],[-78.96,22.027],[-78.96,22.003],[-78.975,21.978],[-78.993,21.954],[-78.998,21.942],[-79.013,21.945],[-79.029,21.946],[-79.041,21.939],[-79.046,21.919],[-79.058,21.897],[-79.073,21.871],[-79.083,21.849],[-79.093,21.81],[-79.115,21.766],[-79.122,21.75],[-79.106,21.727],[-79.099,21.711],[-79.103,21.683],[-79.109,21.665],[-79.1,21.654],[-79.073,21.654],[-79.043,21.665],[-79.032,21.679],[-79.032,21.695],[-79.017,21.715],[-78.993,21.705],[-78.971,21.69],[-78.965,21.677],[-78.968,21.651],[-78.965,21.62],[-78.96,21.6],[-78.971,21.596],[-78.977,21.603],[-78.995,21.594],[-79.013,21.59],[-79.056,21.589],[-79.076,21.586],[-79.128,21.562],[-79.169,21.552],[-79.209,21.548],[-79.249,21.552],[-79.33,21.574],[-79.346,21.583],[-79.365,21.599],[-79.379,21.601],[-79.431,21.595],[-79.45,21.596],[-79.472,21.602],[-79.482,21.607],[-79.491,21.616],[-79.506,21.64],[-79.515,21.649],[-79.519,21.64],[-79.522,21.63],[-79.53,21.623],[-79.54,21.622],[-79.55,21.627],[-79.559,21.635],[-79.565,21.638],[-79.608,21.649],[-79.614,21.651],[-79.622,21.658],[-79.628,21.667],[-79.632,21.678],[-79.639,21.688],[-79.652,21.692],[-79.723,21.693],[-79.79,21.712],[-79.816,21.711],[-79.827,21.695],[-79.834,21.678],[-79.851,21.68],[-79.873,21.691],[-79.895,21.699],[-79.895,21.705],[-79.875,21.713],[-79.875,21.719],[-79.89,21.722],[-79.894,21.734],[-79.893,21.748],[-79.895,21.76],[-79.912,21.748],[-79.93,21.743],[-79.949,21.743],[-79.972,21.746],[-79.992,21.753],[-80.004,21.756],[-80.013,21.754],[-80.015,21.747],[-80.009,21.74],[-79.999,21.735],[-79.991,21.733],[-80.003,21.721],[-80.022,21.729],[-80.039,21.747],[-80.046,21.763],[-80.048,21.785],[-80.055,21.804],[-80.067,21.817],[-80.084,21.822],[-80.101,21.825],[-80.099,21.866],[-80.098,21.871],[-80.094,21.876],[-80.087,21.883],[-80.06,21.904],[-80.024,21.939],[-79.989,21.954],[-79.97,21.968],[-79.963,21.97],[-79.948,21.969],[-79.943,21.972],[-79.94,21.977],[-79.938,21.985],[-79.935,21.993],[-79.925,22.005],[-79.914,22.009],[-79.905,22.01],[-79.847,21.997],[-79.84,21.994],[-79.835,21.991],[-79.821,21.984],[-79.791,21.982],[-79.766,22.002],[-79.746,22.032],[-79.73,22.062],[-79.724,22.081],[-79.724,22.094],[-79.727,22.099],[-79.732,22.101],[-79.738,22.102],[-79.743,22.101],[-79.747,22.102],[-79.75,22.105],[-79.754,22.112],[-79.758,22.123],[-79.773,22.149],[-79.779,22.167],[-79.78,22.177],[-79.778,22.184],[-79.767,22.193],[-79.734,22.192],[-79.722,22.183],[-79.718,22.177],[-79.713,22.17],[-79.703,22.161],[-79.692,22.159],[-79.684,22.159],[-79.677,22.163],[-79.662,22.172],[-79.649,22.173],[-79.64,22.173],[-79.599,22.161],[-79.578,22.167],[-79.565,22.161],[-79.556,22.156],[-79.542,22.151],[-79.528,22.152],[-79.517,22.157],[-79.508,22.164],[-79.499,22.175],[-79.492,22.189],[-79.487,22.202],[-79.481,22.219],[-79.463,22.237],[-79.451,22.242],[-79.434,22.248],[-79.422,22.249],[-79.412,22.247],[-79.387,22.235],[-79.361,22.231],[-79.358,22.249],[-79.359,22.265],[-79.357,22.277],[-79.353,22.29],[-79.353,22.297],[-79.382,22.333],[-79.415,22.395],[-79.424,22.408],[-79.435,22.416],[-79.417,22.448],[-79.417,22.471],[-79.417,22.472]]],[[[-79.225,22.64],[-79.216,22.643],[-79.177,22.645],[-79.19,22.635],[-79.206,22.624],[-79.213,22.624],[-79.213,22.631],[-79.216,22.637],[-79.225,22.64]]]]}},{"type":"Feature","id":"CU-08","properties":{"id":"CU-08","countryCode":"CU","isoSubdivision":"CU-08","name":"Ciego de Ávila","name_en":"Ciego de Ávila","name_ko":"시에고데아빌라","type":"Province","labelLongitude":-78.639,"labelLatitude":21.963,"minZoom":7.7},"geometry":{"type":"MultiPolygon","coordinates":[[[[-78.827,20.753],[-78.807,20.757],[-78.786,20.749],[-78.751,20.726],[-78.768,20.712],[-78.792,20.72],[-78.815,20.737],[-78.827,20.753]]],[[[-78.926,20.808],[-78.877,20.809],[-78.859,20.8],[-78.847,20.773],[-78.854,20.773],[-78.871,20.785],[-78.942,20.793],[-78.964,20.814],[-78.952,20.831],[-78.942,20.84],[-78.933,20.839],[-78.928,20.831],[-78.926,20.821],[-78.926,20.808]]],[[[-79.025,20.887],[-79.014,20.882],[-78.99,20.88],[-78.971,20.874],[-78.974,20.859],[-78.983,20.845],[-78.989,20.839],[-78.992,20.845],[-78.995,20.849],[-79.019,20.855],[-79.069,20.886],[-79.08,20.897],[-79.067,20.899],[-79.049,20.898],[-79.032,20.894],[-79.025,20.887]]],[[[-79.074,20.918],[-79.079,20.918],[-79.094,20.918],[-79.091,20.912],[-79.087,20.897],[-79.116,20.911],[-79.135,20.927],[-79.169,20.965],[-79.169,20.972],[-79.152,20.966],[-79.139,20.955],[-79.128,20.942],[-79.115,20.931],[-79.128,20.951],[-79.15,20.977],[-79.175,20.997],[-79.197,21],[-79.197,20.992],[-79.194,20.989],[-79.193,20.987],[-79.192,20.984],[-79.19,20.979],[-79.201,20.982],[-79.211,20.988],[-79.219,20.996],[-79.224,21.006],[-79.182,21.008],[-79.138,20.983],[-79.099,20.947],[-79.074,20.918]]],[[[-79.389,21.123],[-79.357,21.128],[-79.332,21.113],[-79.293,21.075],[-79.308,21.069],[-79.325,21.068],[-79.341,21.073],[-79.354,21.082],[-79.347,21.082],[-79.327,21.082],[-79.331,21.093],[-79.339,21.1],[-79.347,21.101],[-79.354,21.096],[-79.38,21.114],[-79.389,21.123]]],[[[-78.426,22.463],[-78.446,22.455],[-78.473,22.451],[-78.518,22.452],[-78.541,22.458],[-78.568,22.476],[-78.61,22.483],[-78.638,22.492],[-78.656,22.503],[-78.642,22.514],[-78.657,22.53],[-78.677,22.516],[-78.694,22.508],[-78.696,22.541],[-78.693,22.539],[-78.683,22.535],[-78.68,22.554],[-78.671,22.557],[-78.66,22.552],[-78.652,22.552],[-78.641,22.553],[-78.597,22.545],[-78.573,22.53],[-78.544,22.528],[-78.516,22.53],[-78.491,22.528],[-78.466,22.53],[-78.451,22.542],[-78.437,22.555],[-78.419,22.562],[-78.396,22.56],[-78.372,22.554],[-78.352,22.543],[-78.341,22.528],[-78.344,22.53],[-78.354,22.535],[-78.349,22.521],[-78.282,22.457],[-78.278,22.449],[-78.281,22.439],[-78.289,22.439],[-78.298,22.443],[-78.306,22.445],[-78.43,22.419],[-78.43,22.425],[-78.428,22.428],[-78.425,22.43],[-78.423,22.434],[-78.422,22.442],[-78.42,22.446],[-78.413,22.445],[-78.406,22.444],[-78.402,22.445],[-78.401,22.455],[-78.405,22.464],[-78.413,22.469],[-78.426,22.463]]],[[[-78.927,22.399],[-78.829,22.388],[-78.782,22.391],[-78.777,22.381],[-78.758,22.322],[-78.754,22.325],[-78.745,22.329],[-78.735,22.316],[-78.725,22.324],[-78.71,22.356],[-78.723,22.373],[-78.729,22.379],[-78.738,22.384],[-78.738,22.391],[-78.708,22.387],[-78.676,22.357],[-78.567,22.321],[-78.553,22.312],[-78.544,22.299],[-78.524,22.283],[-78.501,22.269],[-78.484,22.26],[-78.46,22.254],[-78.4,22.244],[-78.381,22.247],[-78.382,22.24],[-78.381,22.226],[-78.381,22.219],[-78.371,22.224],[-78.367,22.227],[-78.361,22.217],[-78.351,22.198],[-78.344,22.189],[-78.335,22.183],[-78.317,22.174],[-78.309,22.168],[-78.301,22.164],[-78.292,22.164],[-78.281,22.165],[-78.272,22.164],[-78.237,22.151],[-78.222,22.147],[-78.172,22.144],[-78.164,22.139],[-78.162,22.129],[-78.161,22.118],[-78.156,22.11],[-78.147,22.108],[-78.122,22.108],[-78.125,22.106],[-78.128,22.103],[-78.118,22.093],[-78.105,22.089],[-78.092,22.086],[-78.082,22.083],[-78.083,22.074],[-78.075,22.069],[-78.073,22.065],[-78.071,22.06],[-78.071,22.054],[-78.072,22.048],[-78.075,22.038],[-78.079,22.033],[-78.085,22.029],[-78.098,22.025],[-78.11,22.019],[-78.127,22.005],[-78.152,21.981],[-78.163,21.974],[-78.171,21.97],[-78.184,21.967],[-78.199,21.967],[-78.215,21.962],[-78.221,21.961],[-78.228,21.961],[-78.235,21.958],[-78.24,21.955],[-78.252,21.926],[-78.246,21.908],[-78.242,21.905],[-78.193,21.866],[-78.176,21.85],[-78.156,21.818],[-78.169,21.81],[-78.183,21.803],[-78.186,21.8],[-78.188,21.797],[-78.188,21.793],[-78.184,21.773],[-78.183,21.769],[-78.189,21.767],[-78.228,21.762],[-78.242,21.763],[-78.252,21.767],[-78.267,21.787],[-78.27,21.792],[-78.277,21.798],[-78.28,21.803],[-78.281,21.808],[-78.281,21.814],[-78.282,21.817],[-78.284,21.82],[-78.286,21.821],[-78.291,21.821],[-78.299,21.818],[-78.309,21.812],[-78.324,21.798],[-78.331,21.79],[-78.334,21.785],[-78.331,21.766],[-78.325,21.75],[-78.324,21.744],[-78.324,21.736],[-78.325,21.73],[-78.327,21.726],[-78.329,21.725],[-78.334,21.724],[-78.338,21.722],[-78.344,21.713],[-78.349,21.707],[-78.361,21.69],[-78.359,21.683],[-78.356,21.678],[-78.352,21.676],[-78.35,21.674],[-78.352,21.671],[-78.36,21.67],[-78.378,21.669],[-78.392,21.672],[-78.415,21.673],[-78.421,21.674],[-78.429,21.67],[-78.439,21.645],[-78.451,21.616],[-78.454,21.612],[-78.459,21.606],[-78.463,21.606],[-78.466,21.607],[-78.468,21.61],[-78.47,21.612],[-78.475,21.618],[-78.477,21.62],[-78.48,21.62],[-78.497,21.615],[-78.52,21.606],[-78.531,21.599],[-78.542,21.589],[-78.546,21.585],[-78.553,21.58],[-78.605,21.549],[-78.641,21.534],[-78.642,21.534],[-78.649,21.541],[-78.665,21.551],[-78.681,21.557],[-78.734,21.564],[-78.746,21.568],[-78.751,21.576],[-78.745,21.589],[-78.733,21.583],[-78.721,21.581],[-78.693,21.582],[-78.689,21.586],[-78.694,21.597],[-78.707,21.613],[-78.714,21.619],[-78.724,21.626],[-78.745,21.637],[-78.759,21.641],[-78.767,21.64],[-78.773,21.636],[-78.786,21.63],[-78.832,21.62],[-78.878,21.616],[-78.883,21.614],[-78.889,21.61],[-78.894,21.604],[-78.895,21.599],[-78.899,21.596],[-78.906,21.595],[-78.937,21.596],[-78.949,21.599],[-78.96,21.6],[-78.965,21.62],[-78.968,21.651],[-78.965,21.677],[-78.971,21.69],[-78.993,21.705],[-79.017,21.715],[-79.032,21.695],[-79.032,21.679],[-79.043,21.665],[-79.073,21.654],[-79.1,21.654],[-79.109,21.665],[-79.103,21.683],[-79.099,21.711],[-79.106,21.727],[-79.122,21.75],[-79.115,21.766],[-79.093,21.81],[-79.083,21.849],[-79.073,21.871],[-79.058,21.897],[-79.046,21.919],[-79.041,21.939],[-79.029,21.946],[-79.013,21.945],[-78.998,21.942],[-78.993,21.954],[-78.975,21.978],[-78.96,22.003],[-78.96,22.027],[-78.965,22.044],[-78.978,22.05],[-79,22.06],[-79.03,22.083],[-79.046,22.096],[-79.048,22.117],[-79.033,22.149],[-79.035,22.176],[-79.022,22.188],[-79.013,22.211],[-79,22.233],[-78.985,22.257],[-78.975,22.275],[-78.966,22.307],[-78.956,22.328],[-78.95,22.34],[-78.942,22.347],[-78.934,22.354],[-78.931,22.385],[-78.927,22.399]]],[[[-78.738,22.548],[-78.735,22.551],[-78.728,22.548],[-78.729,22.542],[-78.736,22.531],[-78.739,22.524],[-78.757,22.519],[-78.766,22.519],[-78.768,22.525],[-78.768,22.542],[-78.762,22.544],[-78.748,22.54],[-78.739,22.541],[-78.738,22.548]]]]}},{"type":"Feature","id":"CU-09","properties":{"id":"CU-09","countryCode":"CU","isoSubdivision":"CU-09","name":"Camagüey","name_en":"Camagüey","name_ko":"카마궤이","type":"Province","labelLongitude":-77.93,"labelLatitude":21.368,"minZoom":7.7},"geometry":{"type":"MultiPolygon","coordinates":[[[[-78.333,20.555],[-78.326,20.535],[-78.328,20.521],[-78.339,20.518],[-78.357,20.53],[-78.369,20.537],[-78.384,20.541],[-78.397,20.546],[-78.41,20.574],[-78.428,20.586],[-78.463,20.602],[-78.449,20.613],[-78.434,20.61],[-78.419,20.599],[-78.408,20.589],[-78.393,20.57],[-78.384,20.562],[-78.367,20.555],[-78.364,20.57],[-78.355,20.573],[-78.344,20.567],[-78.333,20.555]]],[[[-78.436,20.726],[-78.449,20.712],[-78.496,20.701],[-78.512,20.691],[-78.528,20.699],[-78.545,20.704],[-78.533,20.713],[-78.498,20.72],[-78.484,20.732],[-78.479,20.73],[-78.478,20.729],[-78.476,20.726],[-78.466,20.731],[-78.456,20.732],[-78.436,20.726]]],[[[-77.634,22.054],[-77.627,22.042],[-77.624,22.03],[-77.627,22.016],[-77.649,21.971],[-77.646,21.961],[-77.634,21.945],[-77.65,21.944],[-77.662,21.94],[-77.683,21.925],[-77.678,21.943],[-77.684,21.951],[-77.695,21.948],[-77.703,21.932],[-77.7,21.929],[-77.696,21.922],[-77.695,21.915],[-77.703,21.911],[-77.709,21.912],[-77.713,21.917],[-77.716,21.923],[-77.728,21.939],[-77.733,21.948],[-77.739,21.957],[-77.752,21.966],[-77.766,21.96],[-77.787,21.964],[-77.809,21.974],[-77.823,21.983],[-77.825,21.992],[-77.821,22.002],[-77.815,22.014],[-77.812,22.024],[-77.817,22.031],[-77.828,22.036],[-77.847,22.041],[-77.842,22.033],[-77.84,22.024],[-77.842,22.015],[-77.847,22.007],[-77.854,22.028],[-77.86,22.028],[-77.87,22.013],[-77.887,22.009],[-77.902,22.015],[-77.909,22.031],[-77.917,22.043],[-77.934,22.056],[-77.947,22.073],[-77.942,22.096],[-77.949,22.103],[-77.93,22.102],[-77.916,22.094],[-77.904,22.083],[-77.888,22.076],[-77.872,22.076],[-77.86,22.081],[-77.851,22.089],[-77.84,22.096],[-77.822,22.101],[-77.809,22.1],[-77.796,22.095],[-77.785,22.089],[-77.781,22.085],[-77.772,22.071],[-77.768,22.069],[-77.759,22.071],[-77.745,22.08],[-77.737,22.082],[-77.726,22.078],[-77.694,22.058],[-77.683,22.054],[-77.67,22.061],[-77.661,22.069],[-77.652,22.07],[-77.634,22.054]]],[[[-77.847,22.26],[-77.84,22.274],[-77.851,22.289],[-77.868,22.302],[-77.881,22.309],[-77.856,22.312],[-77.834,22.296],[-77.818,22.271],[-77.806,22.228],[-77.79,22.211],[-77.772,22.196],[-77.758,22.178],[-77.782,22.178],[-77.807,22.203],[-77.847,22.26]]],[[[-77.997,22.147],[-78.004,22.162],[-78.036,22.183],[-78.046,22.199],[-78.029,22.205],[-78.016,22.217],[-78.008,22.234],[-78.005,22.25],[-78.003,22.286],[-78.007,22.298],[-78.018,22.315],[-78.003,22.313],[-77.987,22.308],[-77.975,22.299],[-77.97,22.285],[-77.976,22.276],[-77.986,22.266],[-77.993,22.253],[-77.987,22.237],[-77.979,22.233],[-77.954,22.237],[-77.942,22.233],[-77.935,22.224],[-77.931,22.214],[-77.923,22.206],[-77.909,22.205],[-77.922,22.212],[-77.918,22.219],[-77.913,22.224],[-77.908,22.229],[-77.902,22.233],[-77.895,22.221],[-77.885,22.215],[-77.875,22.216],[-77.868,22.227],[-77.86,22.21],[-77.87,22.202],[-77.889,22.198],[-77.902,22.192],[-77.891,22.189],[-77.882,22.183],[-77.875,22.177],[-77.868,22.172],[-77.857,22.168],[-77.836,22.164],[-77.826,22.158],[-77.848,22.116],[-77.863,22.099],[-77.874,22.11],[-77.879,22.108],[-77.89,22.105],[-77.895,22.103],[-77.898,22.11],[-77.901,22.114],[-77.909,22.123],[-77.913,22.143],[-77.934,22.15],[-77.951,22.142],[-77.942,22.117],[-77.955,22.122],[-77.99,22.142],[-77.997,22.147]]],[[[-78.197,22.329],[-78.175,22.342],[-78.185,22.358],[-78.205,22.368],[-78.216,22.36],[-78.218,22.35],[-78.222,22.34],[-78.228,22.333],[-78.237,22.336],[-78.244,22.347],[-78.244,22.359],[-78.24,22.367],[-78.231,22.363],[-78.23,22.381],[-78.246,22.401],[-78.27,22.41],[-78.292,22.397],[-78.297,22.402],[-78.302,22.403],[-78.307,22.403],[-78.313,22.404],[-78.299,22.42],[-78.279,22.425],[-78.244,22.425],[-78.212,22.437],[-78.198,22.437],[-78.19,22.425],[-78.17,22.435],[-78.144,22.429],[-78.119,22.414],[-78.1,22.397],[-78.091,22.384],[-78.082,22.37],[-78.076,22.354],[-78.072,22.321],[-78.067,22.31],[-78.046,22.288],[-78.037,22.288],[-78.023,22.283],[-78.011,22.281],[-78.028,22.266],[-78.052,22.272],[-78.1,22.302],[-78.122,22.306],[-78.146,22.306],[-78.172,22.311],[-78.197,22.329]]],[[[-78.082,22.083],[-78.08,22.082],[-78.065,22.087],[-78.056,22.077],[-78.042,22.051],[-78.023,22.034],[-78.018,22.028],[-78.011,22.009],[-77.993,21.98],[-77.985,21.97],[-77.973,21.966],[-77.961,21.958],[-77.915,21.914],[-77.912,21.906],[-77.895,21.877],[-77.888,21.87],[-77.876,21.872],[-77.87,21.882],[-77.866,21.956],[-77.86,21.966],[-77.849,21.971],[-77.822,21.966],[-77.806,21.966],[-77.815,21.956],[-77.847,21.95],[-77.854,21.942],[-77.853,21.924],[-77.849,21.911],[-77.842,21.9],[-77.833,21.89],[-77.822,21.88],[-77.813,21.876],[-77.789,21.877],[-77.778,21.87],[-77.77,21.855],[-77.766,21.837],[-77.765,21.826],[-77.761,21.813],[-77.752,21.805],[-77.738,21.799],[-77.71,21.79],[-77.704,21.789],[-77.69,21.796],[-77.681,21.792],[-77.673,21.785],[-77.665,21.781],[-77.604,21.79],[-77.586,21.788],[-77.57,21.781],[-77.525,21.754],[-77.524,21.768],[-77.517,21.775],[-77.491,21.781],[-77.489,21.771],[-77.483,21.766],[-77.474,21.765],[-77.463,21.767],[-77.465,21.771],[-77.468,21.778],[-77.47,21.781],[-77.456,21.777],[-77.442,21.767],[-77.422,21.746],[-77.436,21.745],[-77.446,21.75],[-77.453,21.751],[-77.456,21.733],[-77.454,21.715],[-77.439,21.684],[-77.436,21.668],[-77.43,21.658],[-77.417,21.654],[-77.387,21.65],[-77.363,21.638],[-77.357,21.637],[-77.347,21.639],[-77.342,21.643],[-77.339,21.648],[-77.337,21.65],[-77.337,21.656],[-77.343,21.668],[-77.352,21.68],[-77.378,21.69],[-77.389,21.704],[-77.401,21.733],[-77.407,21.757],[-77.412,21.763],[-77.419,21.767],[-77.438,21.775],[-77.442,21.778],[-77.444,21.788],[-77.449,21.802],[-77.459,21.809],[-77.477,21.801],[-77.491,21.815],[-77.504,21.804],[-77.519,21.812],[-77.545,21.843],[-77.583,21.873],[-77.594,21.889],[-77.6,21.89],[-77.614,21.884],[-77.606,21.901],[-77.59,21.919],[-77.572,21.931],[-77.556,21.929],[-77.521,21.901],[-77.517,21.893],[-77.511,21.868],[-77.508,21.862],[-77.401,21.79],[-77.381,21.781],[-77.33,21.766],[-77.316,21.757],[-77.302,21.743],[-77.268,21.718],[-77.254,21.713],[-77.195,21.671],[-77.181,21.664],[-77.167,21.66],[-77.152,21.66],[-77.134,21.664],[-77.142,21.646],[-77.136,21.633],[-77.126,21.625],[-77.12,21.616],[-77.124,21.596],[-77.148,21.572],[-77.154,21.555],[-77.163,21.56],[-77.18,21.578],[-77.185,21.582],[-77.25,21.61],[-77.266,21.614],[-77.285,21.616],[-77.284,21.614],[-77.287,21.611],[-77.29,21.607],[-77.292,21.606],[-77.294,21.602],[-77.299,21.604],[-77.305,21.607],[-77.314,21.611],[-77.324,21.62],[-77.333,21.623],[-77.356,21.622],[-77.364,21.612],[-77.361,21.601],[-77.35,21.596],[-77.338,21.593],[-77.33,21.587],[-77.322,21.58],[-77.313,21.575],[-77.303,21.573],[-77.275,21.575],[-77.255,21.567],[-77.25,21.551],[-77.257,21.534],[-77.275,21.527],[-77.278,21.518],[-77.271,21.5],[-77.263,21.483],[-77.258,21.476],[-77.247,21.474],[-77.224,21.478],[-77.208,21.476],[-77.216,21.458],[-77.207,21.461],[-77.182,21.473],[-77.181,21.474],[-77.171,21.479],[-77.162,21.48],[-77.153,21.495],[-77.141,21.548],[-77.115,21.593],[-77.107,21.603],[-77.088,21.606],[-77.07,21.596],[-76.963,21.473],[-76.947,21.459],[-76.945,21.458],[-76.947,21.456],[-76.955,21.448],[-76.971,21.442],[-77,21.422],[-77.012,21.416],[-77.04,21.41],[-77.057,21.409],[-77.081,21.414],[-77.1,21.416],[-77.116,21.371],[-77.125,21.361],[-77.131,21.348],[-77.132,21.339],[-77.127,21.323],[-77.122,21.317],[-77.118,21.314],[-77.08,21.314],[-77.074,21.313],[-77.072,21.309],[-77.073,21.306],[-77.13,21.257],[-77.135,21.245],[-77.136,21.238],[-77.131,21.174],[-77.168,21.117],[-77.174,21.11],[-77.187,21.099],[-77.193,21.097],[-77.223,21.091],[-77.228,21.089],[-77.237,21.084],[-77.249,21.078],[-77.263,21.06],[-77.292,20.995],[-77.3,20.991],[-77.308,20.993],[-77.314,20.996],[-77.324,21.005],[-77.329,21.008],[-77.334,21.009],[-77.34,21.007],[-77.346,21.002],[-77.357,20.981],[-77.367,20.99],[-77.37,20.997],[-77.37,21],[-77.369,21.003],[-77.362,21.013],[-77.362,21.015],[-77.362,21.017],[-77.364,21.02],[-77.369,21.022],[-77.377,21.023],[-77.394,21.024],[-77.411,21.028],[-77.414,21.031],[-77.415,21.033],[-77.414,21.039],[-77.415,21.044],[-77.417,21.048],[-77.426,21.061],[-77.429,21.064],[-77.433,21.069],[-77.434,21.072],[-77.436,21.074],[-77.436,21.076],[-77.438,21.076],[-77.441,21.074],[-77.448,21.066],[-77.462,21.059],[-77.466,21.057],[-77.468,21.054],[-77.468,21.048],[-77.467,21.044],[-77.465,21.036],[-77.465,21.035],[-77.469,21.026],[-77.47,21.019],[-77.473,21.012],[-77.48,21.004],[-77.498,21.001],[-77.511,20.999],[-77.524,21],[-77.527,21],[-77.529,20.997],[-77.532,20.982],[-77.547,20.98],[-77.567,20.975],[-77.577,20.969],[-77.582,20.956],[-77.582,20.943],[-77.584,20.94],[-77.587,20.938],[-77.595,20.939],[-77.6,20.94],[-77.612,20.94],[-77.617,20.941],[-77.621,20.944],[-77.626,20.951],[-77.63,20.957],[-77.635,20.964],[-77.641,20.966],[-77.647,20.965],[-77.655,20.96],[-77.655,20.952],[-77.654,20.946],[-77.653,20.939],[-77.653,20.934],[-77.658,20.917],[-77.659,20.91],[-77.659,20.903],[-77.658,20.897],[-77.666,20.892],[-77.681,20.886],[-77.742,20.875],[-77.766,20.876],[-77.818,20.807],[-77.831,20.726],[-77.841,20.728],[-77.878,20.732],[-77.899,20.727],[-77.914,20.716],[-77.927,20.705],[-77.942,20.698],[-78.007,20.696],[-78.041,20.704],[-78.052,20.726],[-78.059,20.726],[-78.066,20.712],[-78.098,20.748],[-78.11,20.753],[-78.132,20.757],[-78.144,20.768],[-78.162,20.8],[-78.172,20.812],[-78.191,20.828],[-78.211,20.84],[-78.227,20.839],[-78.238,20.833],[-78.241,20.839],[-78.242,20.848],[-78.244,20.855],[-78.256,20.869],[-78.262,20.878],[-78.265,20.887],[-78.272,20.901],[-78.343,20.949],[-78.356,20.953],[-78.391,20.951],[-78.404,20.958],[-78.415,20.973],[-78.43,21],[-78.442,21.011],[-78.479,21.038],[-78.488,21.039],[-78.495,21.048],[-78.501,21.082],[-78.504,21.147],[-78.512,21.175],[-78.528,21.203],[-78.538,21.232],[-78.532,21.26],[-78.523,21.25],[-78.511,21.249],[-78.502,21.256],[-78.498,21.27],[-78.506,21.28],[-78.538,21.29],[-78.545,21.298],[-78.547,21.315],[-78.557,21.347],[-78.559,21.367],[-78.563,21.383],[-78.582,21.414],[-78.586,21.428],[-78.592,21.462],[-78.608,21.494],[-78.628,21.521],[-78.642,21.534],[-78.641,21.534],[-78.605,21.549],[-78.553,21.58],[-78.546,21.585],[-78.542,21.589],[-78.531,21.599],[-78.52,21.606],[-78.497,21.615],[-78.48,21.62],[-78.477,21.62],[-78.475,21.618],[-78.47,21.612],[-78.468,21.61],[-78.466,21.607],[-78.463,21.606],[-78.459,21.606],[-78.454,21.612],[-78.451,21.616],[-78.439,21.645],[-78.429,21.67],[-78.421,21.674],[-78.415,21.673],[-78.392,21.672],[-78.378,21.669],[-78.36,21.67],[-78.352,21.671],[-78.35,21.674],[-78.352,21.676],[-78.356,21.678],[-78.359,21.683],[-78.361,21.69],[-78.349,21.707],[-78.344,21.713],[-78.338,21.722],[-78.334,21.724],[-78.329,21.725],[-78.327,21.726],[-78.325,21.73],[-78.324,21.736],[-78.324,21.744],[-78.325,21.75],[-78.331,21.766],[-78.334,21.785],[-78.331,21.79],[-78.324,21.798],[-78.309,21.812],[-78.299,21.818],[-78.291,21.821],[-78.286,21.821],[-78.284,21.82],[-78.282,21.817],[-78.281,21.814],[-78.281,21.808],[-78.28,21.803],[-78.277,21.798],[-78.27,21.792],[-78.267,21.787],[-78.252,21.767],[-78.242,21.763],[-78.228,21.762],[-78.189,21.767],[-78.183,21.769],[-78.184,21.773],[-78.188,21.793],[-78.188,21.797],[-78.186,21.8],[-78.183,21.803],[-78.169,21.81],[-78.156,21.818],[-78.176,21.85],[-78.193,21.866],[-78.242,21.905],[-78.246,21.908],[-78.252,21.926],[-78.24,21.955],[-78.235,21.958],[-78.228,21.961],[-78.221,21.961],[-78.215,21.962],[-78.199,21.967],[-78.184,21.967],[-78.171,21.97],[-78.163,21.974],[-78.152,21.981],[-78.127,22.005],[-78.11,22.019],[-78.098,22.025],[-78.085,22.029],[-78.079,22.033],[-78.075,22.038],[-78.072,22.048],[-78.071,22.054],[-78.071,22.06],[-78.073,22.065],[-78.075,22.069],[-78.083,22.074],[-78.082,22.083]]],[[[-78.582,20.662],[-78.578,20.658],[-78.578,20.648],[-78.586,20.644],[-78.594,20.643],[-78.601,20.645],[-78.606,20.65],[-78.612,20.654],[-78.613,20.658],[-78.609,20.661],[-78.604,20.658],[-78.58,20.654],[-78.581,20.657],[-78.581,20.659],[-78.582,20.662]]],[[[-78.652,20.665],[-78.644,20.663],[-78.63,20.659],[-78.631,20.653],[-78.646,20.652],[-78.656,20.659],[-78.655,20.664],[-78.652,20.665]]]]}},{"type":"Feature","id":"CU-10","properties":{"id":"CU-10","countryCode":"CU","isoSubdivision":"CU-10","name":"Las Tunas","name_en":"Las Tunas","name_ko":"라스투나스","type":"Province","labelLongitude":-77.072,"labelLatitude":21.03,"minZoom":7.7},"geometry":{"type":"Polygon","coordinates":[[[-76.945,21.458],[-76.93,21.448],[-76.894,21.432],[-76.838,21.421],[-76.825,21.411],[-76.832,21.398],[-76.812,21.398],[-76.818,21.377],[-76.826,21.367],[-76.838,21.363],[-76.873,21.361],[-76.887,21.356],[-76.897,21.346],[-76.901,21.332],[-76.887,21.307],[-76.836,21.332],[-76.839,21.308],[-76.829,21.314],[-76.825,21.324],[-76.823,21.337],[-76.819,21.349],[-76.825,21.349],[-76.811,21.368],[-76.807,21.378],[-76.806,21.39],[-76.744,21.37],[-76.738,21.371],[-76.731,21.375],[-76.726,21.373],[-76.709,21.363],[-76.682,21.357],[-76.671,21.356],[-76.656,21.35],[-76.642,21.336],[-76.637,21.321],[-76.644,21.315],[-76.66,21.312],[-76.716,21.288],[-76.712,21.303],[-76.722,21.311],[-76.731,21.312],[-76.73,21.301],[-76.735,21.286],[-76.721,21.279],[-76.701,21.276],[-76.685,21.27],[-76.67,21.259],[-76.653,21.252],[-76.634,21.248],[-76.613,21.247],[-76.613,21.253],[-76.635,21.26],[-76.641,21.265],[-76.647,21.273],[-76.654,21.288],[-76.654,21.294],[-76.634,21.301],[-76.617,21.302],[-76.593,21.295],[-76.571,21.282],[-76.558,21.267],[-76.552,21.267],[-76.552,21.288],[-76.545,21.288],[-76.548,21.248],[-76.56,21.235],[-76.613,21.232],[-76.613,21.226],[-76.593,21.226],[-76.602,21.22],[-76.606,21.219],[-76.598,21.206],[-76.588,21.206],[-76.577,21.211],[-76.565,21.212],[-76.557,21.205],[-76.547,21.188],[-76.537,21.185],[-76.532,21.187],[-76.526,21.192],[-76.52,21.197],[-76.517,21.202],[-76.515,21.205],[-76.509,21.205],[-76.502,21.205],[-76.497,21.205],[-76.468,21.221],[-76.456,21.226],[-76.472,21.231],[-76.504,21.235],[-76.517,21.239],[-76.529,21.253],[-76.532,21.269],[-76.526,21.282],[-76.507,21.288],[-76.388,21.284],[-76.363,21.277],[-76.349,21.266],[-76.317,21.254],[-76.314,21.252],[-76.314,21.251],[-76.318,21.194],[-76.326,21.178],[-76.331,21.174],[-76.335,21.171],[-76.34,21.164],[-76.34,21.158],[-76.337,21.14],[-76.339,21.134],[-76.344,21.127],[-76.371,21.112],[-76.393,21.103],[-76.437,21.076],[-76.453,21.064],[-76.459,21.061],[-76.484,21.042],[-76.502,21.024],[-76.514,20.996],[-76.517,20.981],[-76.521,20.978],[-76.528,20.978],[-76.533,20.978],[-76.538,20.98],[-76.548,20.98],[-76.561,20.977],[-76.614,20.955],[-76.63,20.952],[-76.637,20.951],[-76.643,20.952],[-76.647,20.953],[-76.653,20.957],[-76.663,20.965],[-76.675,20.97],[-76.687,20.936],[-76.686,20.865],[-76.688,20.852],[-76.691,20.842],[-76.71,20.82],[-76.717,20.806],[-76.72,20.797],[-76.721,20.784],[-76.721,20.776],[-76.719,20.771],[-76.708,20.76],[-76.703,20.752],[-76.699,20.743],[-76.699,20.737],[-76.702,20.732],[-76.712,20.726],[-76.722,20.722],[-76.762,20.707],[-76.766,20.704],[-76.783,20.691],[-76.793,20.695],[-76.812,20.733],[-76.821,20.74],[-76.836,20.743],[-76.859,20.743],[-76.901,20.748],[-76.921,20.748],[-76.929,20.747],[-76.971,20.754],[-76.993,20.746],[-77.008,20.744],[-77.022,20.744],[-77.038,20.739],[-77.047,20.739],[-77.053,20.741],[-77.068,20.751],[-77.104,20.763],[-77.202,20.766],[-77.226,20.772],[-77.228,20.778],[-77.232,20.784],[-77.239,20.784],[-77.246,20.781],[-77.262,20.771],[-77.268,20.768],[-77.272,20.767],[-77.276,20.777],[-77.282,20.783],[-77.285,20.782],[-77.288,20.777],[-77.289,20.766],[-77.291,20.761],[-77.294,20.756],[-77.304,20.745],[-77.307,20.739],[-77.31,20.733],[-77.311,20.731],[-77.313,20.728],[-77.317,20.726],[-77.332,20.719],[-77.337,20.716],[-77.343,20.718],[-77.372,20.716],[-77.403,20.709],[-77.429,20.698],[-77.442,20.684],[-77.452,20.69],[-77.458,20.69],[-77.463,20.687],[-77.47,20.684],[-77.48,20.682],[-77.487,20.679],[-77.493,20.677],[-77.505,20.678],[-77.522,20.68],[-77.573,20.698],[-77.612,20.678],[-77.621,20.678],[-77.635,20.688],[-77.642,20.691],[-77.649,20.693],[-77.679,20.691],[-77.687,20.692],[-77.706,20.697],[-77.713,20.701],[-77.716,20.699],[-77.729,20.698],[-77.778,20.701],[-77.796,20.706],[-77.822,20.723],[-77.831,20.726],[-77.818,20.807],[-77.766,20.876],[-77.742,20.875],[-77.681,20.886],[-77.666,20.892],[-77.658,20.897],[-77.659,20.903],[-77.659,20.91],[-77.658,20.917],[-77.653,20.934],[-77.653,20.939],[-77.654,20.946],[-77.655,20.952],[-77.655,20.96],[-77.647,20.965],[-77.641,20.966],[-77.635,20.964],[-77.63,20.957],[-77.626,20.951],[-77.621,20.944],[-77.617,20.941],[-77.612,20.94],[-77.6,20.94],[-77.595,20.939],[-77.587,20.938],[-77.584,20.94],[-77.582,20.943],[-77.582,20.956],[-77.577,20.969],[-77.567,20.975],[-77.547,20.98],[-77.532,20.982],[-77.529,20.997],[-77.527,21],[-77.524,21],[-77.511,20.999],[-77.498,21.001],[-77.48,21.004],[-77.473,21.012],[-77.47,21.019],[-77.469,21.026],[-77.465,21.035],[-77.465,21.036],[-77.467,21.044],[-77.468,21.048],[-77.468,21.054],[-77.466,21.057],[-77.462,21.059],[-77.448,21.066],[-77.441,21.074],[-77.438,21.076],[-77.436,21.076],[-77.436,21.074],[-77.434,21.072],[-77.433,21.069],[-77.429,21.064],[-77.426,21.061],[-77.417,21.048],[-77.415,21.044],[-77.414,21.039],[-77.415,21.033],[-77.414,21.031],[-77.411,21.028],[-77.394,21.024],[-77.377,21.023],[-77.369,21.022],[-77.364,21.02],[-77.362,21.017],[-77.362,21.015],[-77.362,21.013],[-77.369,21.003],[-77.37,21],[-77.37,20.997],[-77.367,20.99],[-77.357,20.981],[-77.346,21.002],[-77.34,21.007],[-77.334,21.009],[-77.329,21.008],[-77.324,21.005],[-77.314,20.996],[-77.308,20.993],[-77.3,20.991],[-77.292,20.995],[-77.263,21.06],[-77.249,21.078],[-77.237,21.084],[-77.228,21.089],[-77.223,21.091],[-77.193,21.097],[-77.187,21.099],[-77.174,21.11],[-77.168,21.117],[-77.131,21.174],[-77.136,21.238],[-77.135,21.245],[-77.13,21.257],[-77.073,21.306],[-77.072,21.309],[-77.074,21.313],[-77.08,21.314],[-77.118,21.314],[-77.122,21.317],[-77.127,21.323],[-77.132,21.339],[-77.131,21.348],[-77.125,21.361],[-77.116,21.371],[-77.1,21.416],[-77.081,21.414],[-77.057,21.409],[-77.04,21.41],[-77.012,21.416],[-77,21.422],[-76.971,21.442],[-76.955,21.448],[-76.947,21.456],[-76.945,21.458]]]}},{"type":"Feature","id":"CU-11","properties":{"id":"CU-11","countryCode":"CU","isoSubdivision":"CU-11","name":"Holguín","name_en":"Holguín","name_ko":"올긴","type":"Province","labelLongitude":-76.189,"labelLatitude":20.808,"minZoom":7.7},"geometry":{"type":"MultiPolygon","coordinates":[[[[-75.517,20.794],[-75.508,20.787],[-75.494,20.761],[-75.486,20.75],[-75.482,20.738],[-75.501,20.738],[-75.534,20.746],[-75.552,20.749],[-75.568,20.757],[-75.578,20.77],[-75.578,20.787],[-75.529,20.796],[-75.517,20.794]]],[[[-76.314,21.252],[-76.29,21.234],[-76.276,21.225],[-76.17,21.187],[-76.138,21.167],[-76.133,21.144],[-76.13,21.136],[-76.131,21.114],[-76.127,21.102],[-76.117,21.091],[-76.11,21.092],[-76.1,21.102],[-76.084,21.111],[-76.073,21.113],[-76.058,21.11],[-76.048,21.104],[-76.041,21.097],[-76.037,21.087],[-76.037,21.075],[-76.031,21.075],[-76.029,21.08],[-76.026,21.085],[-76.024,21.089],[-76.017,21.074],[-76.008,21.07],[-76.002,21.078],[-76.003,21.096],[-75.995,21.095],[-75.968,21.094],[-75.955,21.096],[-75.949,21.1],[-75.933,21.113],[-75.925,21.116],[-75.912,21.115],[-75.9,21.113],[-75.89,21.108],[-75.882,21.09],[-75.874,21.089],[-75.868,21.093],[-75.873,21.102],[-75.822,21.137],[-75.816,21.136],[-75.801,21.129],[-75.798,21.127],[-75.794,21.119],[-75.784,21.119],[-75.767,21.123],[-75.732,21.123],[-75.704,21.119],[-75.684,21.103],[-75.675,21.069],[-75.636,21.076],[-75.613,21.063],[-75.578,21.013],[-75.599,20.972],[-75.605,20.965],[-75.616,20.957],[-75.62,20.951],[-75.622,20.945],[-75.624,20.93],[-75.626,20.924],[-75.635,20.913],[-75.649,20.899],[-75.665,20.89],[-75.682,20.89],[-75.687,20.9],[-75.69,20.915],[-75.696,20.925],[-75.709,20.918],[-75.717,20.923],[-75.724,20.923],[-75.729,20.921],[-75.736,20.918],[-75.727,20.917],[-75.721,20.914],[-75.718,20.91],[-75.716,20.904],[-75.744,20.902],[-75.743,20.889],[-75.73,20.872],[-75.722,20.855],[-75.716,20.855],[-75.704,20.871],[-75.678,20.878],[-75.648,20.88],[-75.626,20.877],[-75.585,20.857],[-75.578,20.852],[-75.577,20.838],[-75.573,20.828],[-75.565,20.821],[-75.551,20.822],[-75.559,20.798],[-75.573,20.798],[-75.589,20.808],[-75.603,20.814],[-75.61,20.817],[-75.613,20.822],[-75.616,20.83],[-75.62,20.836],[-75.627,20.841],[-75.631,20.843],[-75.685,20.835],[-75.705,20.829],[-75.77,20.836],[-75.765,20.824],[-75.766,20.812],[-75.776,20.787],[-75.776,20.781],[-75.777,20.769],[-75.779,20.757],[-75.784,20.746],[-75.775,20.738],[-75.763,20.716],[-75.725,20.696],[-75.709,20.691],[-75.702,20.701],[-75.691,20.723],[-75.643,20.761],[-75.633,20.781],[-75.617,20.769],[-75.608,20.753],[-75.606,20.736],[-75.613,20.718],[-75.587,20.722],[-75.578,20.718],[-75.582,20.708],[-75.584,20.698],[-75.573,20.691],[-75.551,20.684],[-75.557,20.706],[-75.498,20.693],[-75.482,20.712],[-75.476,20.712],[-75.471,20.706],[-75.465,20.701],[-75.457,20.696],[-75.448,20.691],[-75.441,20.712],[-75.457,20.718],[-75.466,20.719],[-75.476,20.718],[-75.464,20.734],[-75.44,20.741],[-75.414,20.741],[-75.394,20.739],[-75.377,20.732],[-75.356,20.72],[-75.349,20.708],[-75.373,20.704],[-75.364,20.691],[-75.359,20.678],[-75.353,20.678],[-75.351,20.682],[-75.346,20.691],[-75.337,20.67],[-75.313,20.665],[-75.256,20.671],[-75.274,20.682],[-75.312,20.699],[-75.331,20.704],[-75.319,20.717],[-75.294,20.723],[-75.268,20.723],[-75.25,20.718],[-75.256,20.726],[-75.241,20.725],[-75.194,20.716],[-75.182,20.709],[-75.179,20.702],[-75.195,20.698],[-75.195,20.691],[-75.167,20.684],[-75.165,20.686],[-75.165,20.688],[-75.164,20.689],[-75.161,20.691],[-75.149,20.683],[-75.132,20.687],[-75.115,20.687],[-75.106,20.663],[-75.104,20.669],[-75.1,20.678],[-75.099,20.684],[-75.089,20.678],[-75.08,20.674],[-75.072,20.673],[-75.065,20.678],[-75.079,20.691],[-74.998,20.701],[-74.979,20.695],[-74.969,20.69],[-74.959,20.687],[-74.951,20.684],[-74.948,20.674],[-74.941,20.668],[-74.925,20.668],[-74.9,20.671],[-74.884,20.659],[-74.869,20.646],[-74.851,20.635],[-74.772,20.626],[-74.751,20.62],[-74.736,20.609],[-74.746,20.604],[-74.75,20.602],[-74.736,20.579],[-74.735,20.568],[-74.733,20.565],[-74.728,20.564],[-74.722,20.561],[-74.715,20.556],[-74.728,20.55],[-74.738,20.543],[-74.741,20.541],[-74.744,20.54],[-74.752,20.54],[-74.756,20.54],[-74.76,20.538],[-74.767,20.532],[-74.773,20.526],[-74.78,20.516],[-74.785,20.507],[-74.79,20.491],[-74.792,20.472],[-74.783,20.445],[-74.824,20.429],[-74.826,20.427],[-74.829,20.424],[-74.831,20.421],[-74.832,20.417],[-74.833,20.412],[-74.835,20.408],[-74.839,20.407],[-74.845,20.408],[-74.858,20.414],[-74.869,20.421],[-74.88,20.427],[-74.916,20.443],[-74.95,20.466],[-74.96,20.471],[-74.969,20.472],[-74.996,20.468],[-75.001,20.467],[-75.003,20.465],[-74.999,20.457],[-74.998,20.454],[-74.998,20.451],[-75,20.444],[-75.001,20.441],[-75.001,20.44],[-74.999,20.439],[-74.991,20.439],[-74.985,20.434],[-74.982,20.43],[-74.979,20.425],[-74.978,20.422],[-74.977,20.419],[-74.977,20.417],[-74.978,20.413],[-74.982,20.412],[-74.989,20.413],[-75.016,20.431],[-75.048,20.434],[-75.07,20.451],[-75.099,20.479],[-75.105,20.484],[-75.11,20.485],[-75.117,20.483],[-75.14,20.475],[-75.158,20.466],[-75.165,20.465],[-75.169,20.466],[-75.178,20.472],[-75.183,20.473],[-75.19,20.472],[-75.212,20.459],[-75.226,20.448],[-75.228,20.442],[-75.231,20.412],[-75.24,20.397],[-75.255,20.407],[-75.257,20.41],[-75.26,20.413],[-75.264,20.412],[-75.282,20.404],[-75.287,20.403],[-75.291,20.405],[-75.3,20.41],[-75.307,20.416],[-75.308,20.418],[-75.311,20.423],[-75.317,20.428],[-75.326,20.434],[-75.331,20.438],[-75.337,20.44],[-75.345,20.439],[-75.364,20.426],[-75.375,20.423],[-75.401,20.456],[-75.417,20.469],[-75.424,20.477],[-75.425,20.48],[-75.42,20.483],[-75.417,20.486],[-75.414,20.489],[-75.413,20.492],[-75.412,20.496],[-75.41,20.499],[-75.407,20.502],[-75.403,20.504],[-75.397,20.507],[-75.395,20.508],[-75.393,20.513],[-75.39,20.538],[-75.391,20.544],[-75.393,20.548],[-75.402,20.543],[-75.407,20.542],[-75.411,20.541],[-75.423,20.541],[-75.467,20.533],[-75.486,20.538],[-75.502,20.551],[-75.507,20.552],[-75.512,20.551],[-75.515,20.548],[-75.519,20.546],[-75.525,20.544],[-75.529,20.542],[-75.532,20.54],[-75.536,20.536],[-75.555,20.516],[-75.57,20.505],[-75.578,20.501],[-75.583,20.5],[-75.595,20.506],[-75.602,20.508],[-75.609,20.512],[-75.611,20.511],[-75.614,20.507],[-75.616,20.503],[-75.616,20.5],[-75.615,20.497],[-75.61,20.486],[-75.613,20.477],[-75.616,20.47],[-75.659,20.441],[-75.701,20.438],[-75.733,20.442],[-75.744,20.441],[-75.752,20.439],[-75.825,20.408],[-75.856,20.41],[-75.873,20.418],[-75.877,20.422],[-75.878,20.424],[-75.879,20.428],[-75.884,20.444],[-75.9,20.448],[-75.93,20.467],[-75.937,20.473],[-75.941,20.477],[-75.939,20.479],[-75.937,20.482],[-75.934,20.486],[-75.932,20.491],[-75.931,20.498],[-75.933,20.5],[-75.94,20.502],[-75.952,20.501],[-75.97,20.503],[-75.977,20.506],[-75.98,20.51],[-75.976,20.52],[-75.986,20.535],[-76.033,20.568],[-76.047,20.574],[-76.049,20.572],[-76.051,20.566],[-76.049,20.558],[-76.042,20.541],[-76.041,20.535],[-76.043,20.53],[-76.061,20.523],[-76.066,20.52],[-76.079,20.509],[-76.095,20.499],[-76.097,20.496],[-76.096,20.493],[-76.093,20.492],[-76.09,20.489],[-76.088,20.48],[-76.082,20.464],[-76.084,20.442],[-76.091,20.421],[-76.093,20.417],[-76.111,20.401],[-76.115,20.408],[-76.107,20.424],[-76.106,20.428],[-76.107,20.43],[-76.112,20.429],[-76.116,20.428],[-76.121,20.43],[-76.13,20.434],[-76.138,20.437],[-76.146,20.439],[-76.155,20.439],[-76.18,20.438],[-76.204,20.474],[-76.234,20.503],[-76.244,20.509],[-76.253,20.514],[-76.28,20.52],[-76.301,20.529],[-76.313,20.532],[-76.338,20.536],[-76.36,20.545],[-76.373,20.546],[-76.367,20.567],[-76.368,20.572],[-76.371,20.579],[-76.374,20.581],[-76.378,20.582],[-76.381,20.583],[-76.385,20.582],[-76.387,20.58],[-76.39,20.578],[-76.393,20.577],[-76.396,20.576],[-76.405,20.58],[-76.44,20.59],[-76.486,20.616],[-76.504,20.623],[-76.551,20.634],[-76.56,20.638],[-76.564,20.642],[-76.564,20.646],[-76.563,20.661],[-76.563,20.673],[-76.565,20.68],[-76.57,20.696],[-76.581,20.697],[-76.608,20.684],[-76.618,20.682],[-76.628,20.682],[-76.635,20.685],[-76.65,20.688],[-76.658,20.691],[-76.664,20.696],[-76.674,20.711],[-76.677,20.713],[-76.68,20.713],[-76.69,20.708],[-76.7,20.705],[-76.707,20.706],[-76.713,20.71],[-76.717,20.714],[-76.722,20.722],[-76.712,20.726],[-76.702,20.732],[-76.699,20.737],[-76.699,20.743],[-76.703,20.752],[-76.708,20.76],[-76.719,20.771],[-76.721,20.776],[-76.721,20.784],[-76.72,20.797],[-76.717,20.806],[-76.71,20.82],[-76.691,20.842],[-76.688,20.852],[-76.686,20.865],[-76.687,20.936],[-76.675,20.97],[-76.663,20.965],[-76.653,20.957],[-76.647,20.953],[-76.643,20.952],[-76.637,20.951],[-76.63,20.952],[-76.614,20.955],[-76.561,20.977],[-76.548,20.98],[-76.538,20.98],[-76.533,20.978],[-76.528,20.978],[-76.521,20.978],[-76.517,20.981],[-76.514,20.996],[-76.502,21.024],[-76.484,21.042],[-76.459,21.061],[-76.453,21.064],[-76.437,21.076],[-76.393,21.103],[-76.371,21.112],[-76.344,21.127],[-76.339,21.134],[-76.337,21.14],[-76.34,21.158],[-76.34,21.164],[-76.335,21.171],[-76.331,21.174],[-76.326,21.178],[-76.318,21.194],[-76.314,21.251],[-76.314,21.252]]]]}},{"type":"Feature","id":"CU-12","properties":{"id":"CU-12","countryCode":"CU","isoSubdivision":"CU-12","name":"Granma","name_en":"Granma","name_ko":"그란마","type":"Province","labelLongitude":-76.839,"labelLatitude":20.321,"minZoom":7.7},"geometry":{"type":"Polygon","coordinates":[[[-77.035,19.888],[-77.088,19.885],[-77.113,19.889],[-77.163,19.908],[-77.189,19.913],[-77.203,19.903],[-77.21,19.903],[-77.217,19.91],[-77.227,19.911],[-77.237,19.907],[-77.244,19.897],[-77.269,19.905],[-77.298,19.907],[-77.324,19.9],[-77.34,19.882],[-77.313,19.882],[-77.313,19.876],[-77.33,19.875],[-77.359,19.864],[-77.377,19.862],[-77.47,19.86],[-77.533,19.845],[-77.569,19.841],[-77.611,19.845],[-77.673,19.829],[-77.693,19.828],[-77.706,19.83],[-77.72,19.836],[-77.731,19.845],[-77.737,19.856],[-77.736,19.874],[-77.717,19.907],[-77.716,19.917],[-77.709,19.919],[-77.696,19.92],[-77.689,19.923],[-77.682,19.93],[-77.675,19.94],[-77.668,19.944],[-77.671,19.955],[-77.667,19.962],[-77.648,19.979],[-77.626,20.008],[-77.624,20.013],[-77.62,20.02],[-77.573,20.061],[-77.575,20.07],[-77.588,20.082],[-77.586,20.089],[-77.577,20.088],[-77.551,20.08],[-77.541,20.089],[-77.522,20.095],[-77.517,20.098],[-77.515,20.104],[-77.497,20.129],[-77.48,20.141],[-77.437,20.162],[-77.42,20.185],[-77.401,20.198],[-77.301,20.243],[-77.281,20.246],[-77.266,20.253],[-77.251,20.289],[-77.236,20.301],[-77.233,20.301],[-77.23,20.301],[-77.223,20.301],[-77.229,20.289],[-77.223,20.283],[-77.21,20.283],[-77.195,20.287],[-77.182,20.295],[-77.171,20.307],[-77.164,20.322],[-77.162,20.338],[-77.155,20.344],[-77.113,20.368],[-77.11,20.416],[-77.104,20.424],[-77.096,20.43],[-77.082,20.465],[-77.113,20.512],[-77.123,20.521],[-77.15,20.538],[-77.186,20.551],[-77.196,20.552],[-77.189,20.541],[-77.195,20.534],[-77.214,20.546],[-77.229,20.553],[-77.24,20.563],[-77.244,20.585],[-77.24,20.592],[-77.232,20.596],[-77.223,20.599],[-77.216,20.602],[-77.195,20.63],[-77.195,20.637],[-77.232,20.658],[-77.251,20.662],[-77.258,20.643],[-77.278,20.662],[-77.295,20.687],[-77.315,20.709],[-77.337,20.716],[-77.332,20.719],[-77.317,20.726],[-77.313,20.728],[-77.311,20.731],[-77.31,20.733],[-77.307,20.739],[-77.304,20.745],[-77.294,20.756],[-77.291,20.761],[-77.289,20.766],[-77.288,20.777],[-77.285,20.782],[-77.282,20.783],[-77.276,20.777],[-77.272,20.767],[-77.268,20.768],[-77.262,20.771],[-77.246,20.781],[-77.239,20.784],[-77.232,20.784],[-77.228,20.778],[-77.226,20.772],[-77.202,20.766],[-77.104,20.763],[-77.068,20.751],[-77.053,20.741],[-77.047,20.739],[-77.038,20.739],[-77.022,20.744],[-77.008,20.744],[-76.993,20.746],[-76.971,20.754],[-76.929,20.747],[-76.921,20.748],[-76.901,20.748],[-76.859,20.743],[-76.836,20.743],[-76.821,20.74],[-76.812,20.733],[-76.793,20.695],[-76.783,20.691],[-76.766,20.704],[-76.762,20.707],[-76.722,20.722],[-76.717,20.714],[-76.713,20.71],[-76.707,20.706],[-76.7,20.705],[-76.69,20.708],[-76.68,20.713],[-76.677,20.713],[-76.674,20.711],[-76.664,20.696],[-76.658,20.691],[-76.65,20.688],[-76.635,20.685],[-76.628,20.682],[-76.618,20.682],[-76.608,20.684],[-76.581,20.697],[-76.57,20.696],[-76.565,20.68],[-76.563,20.673],[-76.563,20.661],[-76.564,20.646],[-76.564,20.642],[-76.56,20.638],[-76.551,20.634],[-76.504,20.623],[-76.486,20.616],[-76.44,20.59],[-76.405,20.58],[-76.396,20.576],[-76.393,20.577],[-76.39,20.578],[-76.387,20.58],[-76.385,20.582],[-76.381,20.583],[-76.378,20.582],[-76.374,20.581],[-76.371,20.579],[-76.368,20.572],[-76.367,20.567],[-76.373,20.546],[-76.36,20.545],[-76.338,20.536],[-76.313,20.532],[-76.301,20.529],[-76.28,20.52],[-76.253,20.514],[-76.244,20.509],[-76.234,20.503],[-76.204,20.474],[-76.18,20.438],[-76.206,20.404],[-76.22,20.394],[-76.227,20.393],[-76.231,20.398],[-76.236,20.411],[-76.241,20.42],[-76.242,20.426],[-76.242,20.432],[-76.241,20.438],[-76.241,20.444],[-76.243,20.45],[-76.248,20.455],[-76.258,20.461],[-76.266,20.461],[-76.27,20.459],[-76.271,20.455],[-76.267,20.436],[-76.267,20.427],[-76.269,20.418],[-76.272,20.412],[-76.277,20.406],[-76.283,20.4],[-76.287,20.395],[-76.288,20.391],[-76.289,20.382],[-76.29,20.377],[-76.293,20.371],[-76.299,20.369],[-76.308,20.369],[-76.33,20.373],[-76.34,20.373],[-76.356,20.373],[-76.363,20.367],[-76.369,20.357],[-76.39,20.276],[-76.39,20.272],[-76.391,20.269],[-76.389,20.259],[-76.404,20.244],[-76.413,20.235],[-76.42,20.231],[-76.42,20.226],[-76.417,20.219],[-76.412,20.19],[-76.408,20.105],[-76.419,20.087],[-76.447,20.061],[-76.462,20.051],[-76.477,20.044],[-76.489,20.039],[-76.498,20.037],[-76.505,20.037],[-76.529,20.038],[-76.557,20.043],[-76.564,20.039],[-76.564,20.036],[-76.562,20.03],[-76.554,20.01],[-76.556,20.005],[-76.562,20.004],[-76.59,20.01],[-76.599,20.013],[-76.605,20.014],[-76.607,20.013],[-76.61,20.004],[-76.613,20.002],[-76.637,20.002],[-76.655,19.999],[-76.663,19.999],[-76.669,20],[-76.671,20.001],[-76.675,20.002],[-76.691,20.006],[-76.699,20.009],[-76.705,20.013],[-76.714,20.023],[-76.72,20.027],[-76.726,20.027],[-76.745,20.023],[-76.75,20.021],[-76.754,20.018],[-76.756,20.015],[-76.759,20.011],[-76.763,20.011],[-76.766,20.014],[-76.769,20.016],[-76.772,20.018],[-76.774,20.019],[-76.778,20.02],[-76.781,20.021],[-76.785,20.023],[-76.789,20.027],[-76.791,20.029],[-76.801,20.038],[-76.817,20.029],[-76.834,20.012],[-76.843,20.008],[-76.859,20.006],[-76.881,20.005],[-76.895,20.006],[-76.919,20.005],[-76.926,20.003],[-76.931,20.001],[-76.969,19.953],[-76.974,19.95],[-76.981,19.948],[-77.039,19.941],[-77.048,19.939],[-77.048,19.936],[-77.047,19.933],[-77.044,19.928],[-77.035,19.911],[-77.035,19.888]]]}},{"type":"Feature","id":"CU-13","properties":{"id":"CU-13","countryCode":"CU","isoSubdivision":"CU-13","name":"Santiago de Cuba","name_en":"Santiago de Cuba","name_ko":"산티아고데쿠바","type":"Province","labelLongitude":-76.212,"labelLatitude":20.196,"minZoom":7.7},"geometry":{"type":"Polygon","coordinates":[[[-75.382,19.883],[-75.383,19.882],[-75.394,19.883],[-75.428,19.891],[-75.437,19.896],[-75.444,19.897],[-75.447,19.895],[-75.456,19.885],[-75.462,19.882],[-75.489,19.879],[-75.521,19.88],[-75.551,19.885],[-75.572,19.897],[-75.605,19.892],[-75.646,19.913],[-75.687,19.94],[-75.722,19.958],[-75.744,19.96],[-75.815,19.958],[-75.834,19.96],[-75.873,19.97],[-75.894,19.972],[-75.932,19.968],[-75.952,19.962],[-75.965,19.954],[-75.98,19.952],[-76.112,19.982],[-76.202,19.992],[-76.248,19.991],[-76.328,19.97],[-76.366,19.965],[-76.439,19.965],[-76.46,19.962],[-76.502,19.948],[-76.524,19.944],[-76.652,19.951],[-76.781,19.941],[-76.802,19.931],[-76.824,19.932],[-76.846,19.936],[-76.866,19.938],[-76.882,19.931],[-76.914,19.907],[-76.935,19.897],[-76.959,19.891],[-77.035,19.888],[-77.035,19.911],[-77.044,19.928],[-77.047,19.933],[-77.048,19.936],[-77.048,19.939],[-77.039,19.941],[-76.981,19.948],[-76.974,19.95],[-76.969,19.953],[-76.931,20.001],[-76.926,20.003],[-76.919,20.005],[-76.895,20.006],[-76.881,20.005],[-76.859,20.006],[-76.843,20.008],[-76.834,20.012],[-76.817,20.029],[-76.801,20.038],[-76.791,20.029],[-76.789,20.027],[-76.785,20.023],[-76.781,20.021],[-76.778,20.02],[-76.774,20.019],[-76.772,20.018],[-76.769,20.016],[-76.766,20.014],[-76.763,20.011],[-76.759,20.011],[-76.756,20.015],[-76.754,20.018],[-76.75,20.021],[-76.745,20.023],[-76.726,20.027],[-76.72,20.027],[-76.714,20.023],[-76.705,20.013],[-76.699,20.009],[-76.691,20.006],[-76.675,20.002],[-76.671,20.001],[-76.669,20],[-76.663,19.999],[-76.655,19.999],[-76.637,20.002],[-76.613,20.002],[-76.61,20.004],[-76.607,20.013],[-76.605,20.014],[-76.599,20.013],[-76.59,20.01],[-76.562,20.004],[-76.556,20.005],[-76.554,20.01],[-76.562,20.03],[-76.564,20.036],[-76.564,20.039],[-76.557,20.043],[-76.529,20.038],[-76.505,20.037],[-76.498,20.037],[-76.489,20.039],[-76.477,20.044],[-76.462,20.051],[-76.447,20.061],[-76.419,20.087],[-76.408,20.105],[-76.412,20.19],[-76.417,20.219],[-76.42,20.226],[-76.42,20.231],[-76.413,20.235],[-76.404,20.244],[-76.389,20.259],[-76.391,20.269],[-76.39,20.272],[-76.39,20.276],[-76.369,20.357],[-76.363,20.367],[-76.356,20.373],[-76.34,20.373],[-76.33,20.373],[-76.308,20.369],[-76.299,20.369],[-76.293,20.371],[-76.29,20.377],[-76.289,20.382],[-76.288,20.391],[-76.287,20.395],[-76.283,20.4],[-76.277,20.406],[-76.272,20.412],[-76.269,20.418],[-76.267,20.427],[-76.267,20.436],[-76.271,20.455],[-76.27,20.459],[-76.266,20.461],[-76.258,20.461],[-76.248,20.455],[-76.243,20.45],[-76.241,20.444],[-76.241,20.438],[-76.242,20.432],[-76.242,20.426],[-76.241,20.42],[-76.236,20.411],[-76.231,20.398],[-76.227,20.393],[-76.22,20.394],[-76.206,20.404],[-76.18,20.438],[-76.155,20.439],[-76.146,20.439],[-76.138,20.437],[-76.13,20.434],[-76.121,20.43],[-76.116,20.428],[-76.112,20.429],[-76.107,20.43],[-76.106,20.428],[-76.107,20.424],[-76.115,20.408],[-76.111,20.401],[-76.093,20.417],[-76.091,20.421],[-76.084,20.442],[-76.082,20.464],[-76.088,20.48],[-76.09,20.489],[-76.093,20.492],[-76.096,20.493],[-76.097,20.496],[-76.095,20.499],[-76.079,20.509],[-76.066,20.52],[-76.061,20.523],[-76.043,20.53],[-76.041,20.535],[-76.042,20.541],[-76.049,20.558],[-76.051,20.566],[-76.049,20.572],[-76.047,20.574],[-76.033,20.568],[-75.986,20.535],[-75.976,20.52],[-75.98,20.51],[-75.977,20.506],[-75.97,20.503],[-75.952,20.501],[-75.94,20.502],[-75.933,20.5],[-75.931,20.498],[-75.932,20.491],[-75.934,20.486],[-75.937,20.482],[-75.939,20.479],[-75.941,20.477],[-75.937,20.473],[-75.93,20.467],[-75.9,20.448],[-75.884,20.444],[-75.879,20.428],[-75.878,20.424],[-75.877,20.422],[-75.873,20.418],[-75.856,20.41],[-75.825,20.408],[-75.752,20.439],[-75.744,20.441],[-75.733,20.442],[-75.701,20.438],[-75.659,20.441],[-75.616,20.47],[-75.613,20.477],[-75.61,20.486],[-75.615,20.497],[-75.616,20.5],[-75.616,20.503],[-75.614,20.507],[-75.611,20.511],[-75.609,20.512],[-75.602,20.508],[-75.595,20.506],[-75.583,20.5],[-75.578,20.501],[-75.57,20.505],[-75.555,20.516],[-75.536,20.536],[-75.532,20.54],[-75.529,20.542],[-75.525,20.544],[-75.519,20.546],[-75.515,20.548],[-75.512,20.551],[-75.507,20.552],[-75.502,20.551],[-75.486,20.538],[-75.467,20.533],[-75.423,20.541],[-75.411,20.541],[-75.407,20.542],[-75.402,20.543],[-75.393,20.548],[-75.391,20.544],[-75.39,20.538],[-75.393,20.513],[-75.395,20.508],[-75.397,20.507],[-75.403,20.504],[-75.407,20.502],[-75.41,20.499],[-75.412,20.496],[-75.413,20.492],[-75.414,20.489],[-75.417,20.486],[-75.42,20.483],[-75.425,20.48],[-75.424,20.477],[-75.417,20.469],[-75.401,20.456],[-75.375,20.423],[-75.385,20.416],[-75.389,20.407],[-75.394,20.404],[-75.398,20.403],[-75.408,20.406],[-75.411,20.408],[-75.417,20.409],[-75.419,20.408],[-75.421,20.405],[-75.422,20.401],[-75.422,20.396],[-75.423,20.39],[-75.427,20.382],[-75.437,20.367],[-75.449,20.358],[-75.46,20.351],[-75.473,20.347],[-75.477,20.343],[-75.479,20.34],[-75.475,20.331],[-75.465,20.311],[-75.462,20.295],[-75.464,20.262],[-75.465,20.257],[-75.467,20.255],[-75.471,20.252],[-75.473,20.25],[-75.476,20.246],[-75.48,20.238],[-75.482,20.234],[-75.481,20.227],[-75.475,20.203],[-75.47,20.189],[-75.468,20.185],[-75.463,20.171],[-75.462,20.17],[-75.46,20.168],[-75.451,20.161],[-75.451,20.135],[-75.448,20.124],[-75.446,20.121],[-75.443,20.121],[-75.438,20.12],[-75.432,20.117],[-75.43,20.113],[-75.429,20.104],[-75.43,20.098],[-75.433,20.095],[-75.457,20.084],[-75.469,20.07],[-75.473,20.067],[-75.476,20.067],[-75.49,20.062],[-75.488,20.025],[-75.484,20.01],[-75.471,19.989],[-75.464,19.982],[-75.443,19.963],[-75.382,19.883]]]}},{"type":"Feature","id":"CU-14","properties":{"id":"CU-14","countryCode":"CU","isoSubdivision":"CU-14","name":"Guantánamo","name_en":"Guantánamo","name_ko":"관타나모","type":"Province","labelLongitude":-74.811,"labelLatitude":20.236,"minZoom":7.7},"geometry":{"type":"Polygon","coordinates":[[[-75.095,19.897],[-75.095,19.972],[-75.137,19.972],[-75.135,19.976],[-75.13,19.981],[-75.115,19.991],[-75.102,19.993],[-75.09,20.014],[-75.085,20.026],[-75.091,20.035],[-75.092,20.061],[-75.113,20.057],[-75.122,20.044],[-75.129,20.034],[-75.136,20.021],[-75.144,20.026],[-75.154,20.031],[-75.169,20.026],[-75.175,20.014],[-75.177,20.004],[-75.174,19.993],[-75.169,19.992],[-75.162,19.99],[-75.158,19.991],[-75.155,19.995],[-75.153,19.999],[-75.151,19.995],[-75.147,19.984],[-75.159,19.978],[-75.16,19.971],[-75.179,19.971],[-75.229,19.937],[-75.233,19.9],[-75.285,19.888],[-75.382,19.883],[-75.443,19.963],[-75.464,19.982],[-75.471,19.989],[-75.484,20.01],[-75.488,20.025],[-75.49,20.062],[-75.476,20.067],[-75.473,20.067],[-75.469,20.07],[-75.457,20.084],[-75.433,20.095],[-75.43,20.098],[-75.429,20.104],[-75.43,20.113],[-75.432,20.117],[-75.438,20.12],[-75.443,20.121],[-75.446,20.121],[-75.448,20.124],[-75.451,20.135],[-75.451,20.161],[-75.46,20.168],[-75.462,20.17],[-75.463,20.171],[-75.468,20.185],[-75.47,20.189],[-75.475,20.203],[-75.481,20.227],[-75.482,20.234],[-75.48,20.238],[-75.476,20.246],[-75.473,20.25],[-75.471,20.252],[-75.467,20.255],[-75.465,20.257],[-75.464,20.262],[-75.462,20.295],[-75.465,20.311],[-75.475,20.331],[-75.479,20.34],[-75.477,20.343],[-75.473,20.347],[-75.46,20.351],[-75.449,20.358],[-75.437,20.367],[-75.427,20.382],[-75.423,20.39],[-75.422,20.396],[-75.422,20.401],[-75.421,20.405],[-75.419,20.408],[-75.417,20.409],[-75.411,20.408],[-75.408,20.406],[-75.398,20.403],[-75.394,20.404],[-75.389,20.407],[-75.385,20.416],[-75.375,20.423],[-75.364,20.426],[-75.345,20.439],[-75.337,20.44],[-75.331,20.438],[-75.326,20.434],[-75.317,20.428],[-75.311,20.423],[-75.308,20.418],[-75.307,20.416],[-75.3,20.41],[-75.291,20.405],[-75.287,20.403],[-75.282,20.404],[-75.264,20.412],[-75.26,20.413],[-75.257,20.41],[-75.255,20.407],[-75.24,20.397],[-75.231,20.412],[-75.228,20.442],[-75.226,20.448],[-75.212,20.459],[-75.19,20.472],[-75.183,20.473],[-75.178,20.472],[-75.169,20.466],[-75.165,20.465],[-75.158,20.466],[-75.14,20.475],[-75.117,20.483],[-75.11,20.485],[-75.105,20.484],[-75.099,20.479],[-75.07,20.451],[-75.048,20.434],[-75.016,20.431],[-74.989,20.413],[-74.982,20.412],[-74.978,20.413],[-74.977,20.417],[-74.977,20.419],[-74.978,20.422],[-74.979,20.425],[-74.982,20.43],[-74.985,20.434],[-74.991,20.439],[-74.999,20.439],[-75.001,20.44],[-75.001,20.441],[-75,20.444],[-74.998,20.451],[-74.998,20.454],[-74.999,20.457],[-75.003,20.465],[-75.001,20.467],[-74.996,20.468],[-74.969,20.472],[-74.96,20.471],[-74.95,20.466],[-74.916,20.443],[-74.88,20.427],[-74.869,20.421],[-74.858,20.414],[-74.845,20.408],[-74.839,20.407],[-74.835,20.408],[-74.833,20.412],[-74.832,20.417],[-74.831,20.421],[-74.829,20.424],[-74.826,20.427],[-74.824,20.429],[-74.783,20.445],[-74.792,20.472],[-74.79,20.491],[-74.785,20.507],[-74.78,20.516],[-74.773,20.526],[-74.767,20.532],[-74.76,20.538],[-74.756,20.54],[-74.752,20.54],[-74.744,20.54],[-74.741,20.541],[-74.738,20.543],[-74.728,20.55],[-74.715,20.556],[-74.71,20.552],[-74.673,20.541],[-74.67,20.528],[-74.651,20.513],[-74.605,20.486],[-74.597,20.477],[-74.586,20.456],[-74.555,20.414],[-74.547,20.41],[-74.544,20.404],[-74.495,20.355],[-74.486,20.351],[-74.472,20.349],[-74.45,20.343],[-74.423,20.328],[-74.401,20.307],[-74.393,20.287],[-74.386,20.287],[-74.372,20.301],[-74.352,20.3],[-74.33,20.295],[-74.31,20.294],[-74.294,20.301],[-74.276,20.311],[-74.257,20.32],[-74.236,20.321],[-74.224,20.317],[-74.214,20.311],[-74.194,20.294],[-74.16,20.273],[-74.148,20.259],[-74.14,20.242],[-74.135,20.224],[-74.133,20.205],[-74.142,20.183],[-74.163,20.171],[-74.184,20.163],[-74.198,20.149],[-74.218,20.138],[-74.225,20.136],[-74.23,20.13],[-74.236,20.095],[-74.267,20.068],[-74.305,20.069],[-74.347,20.08],[-74.393,20.081],[-74.456,20.069],[-74.498,20.066],[-74.58,20.048],[-74.619,20.055],[-74.65,20.042],[-74.713,20.052],[-74.788,20.039],[-74.813,20.037],[-74.838,20.026],[-74.855,20.013],[-74.871,19.997],[-74.888,19.984],[-74.91,19.979],[-74.934,19.978],[-74.947,19.976],[-74.956,19.968],[-74.962,19.947],[-74.978,19.923],[-75.01,19.912],[-75.046,19.908],[-75.051,19.919],[-75.058,19.923],[-75.064,19.922],[-75.066,19.914],[-75.066,19.905],[-75.092,19.897],[-75.095,19.897]]]}},{"type":"Feature","id":"CU-15","properties":{"id":"CU-15","countryCode":"CU","isoSubdivision":"CU-15","name":"Artemisa","name_en":"Artemisa","name_ko":"아르테미사","type":"Province","labelLongitude":-82.69,"labelLatitude":22.855,"minZoom":7.7},"geometry":{"type":"MultiPolygon","coordinates":[[[[-82.944,22.985],[-82.942,22.986],[-82.932,23.011],[-82.918,23.032],[-82.885,23.033],[-82.849,23.028],[-82.825,23.031],[-82.803,23.039],[-82.713,23.035],[-82.62,23.046],[-82.596,23.055],[-82.576,23.054],[-82.539,23.074],[-82.534,23.067],[-82.517,23.06],[-82.505,23.065],[-82.5,23.07],[-82.493,23.072],[-82.485,23.07],[-82.475,23.057],[-82.474,23.048],[-82.482,23.036],[-82.502,23.02],[-82.503,23.018],[-82.5,23.014],[-82.492,23.009],[-82.456,22.994],[-82.453,22.994],[-82.451,22.996],[-82.447,22.993],[-82.445,22.991],[-82.436,22.957],[-82.437,22.923],[-82.437,22.896],[-82.45,22.872],[-82.458,22.839],[-82.458,22.802],[-82.437,22.763],[-82.417,22.737],[-82.404,22.73],[-82.391,22.722],[-82.388,22.71],[-82.392,22.688],[-82.457,22.68],[-82.51,22.692],[-82.522,22.69],[-82.541,22.681],[-82.551,22.679],[-82.597,22.688],[-82.633,22.68],[-82.738,22.706],[-82.76,22.706],[-82.781,22.696],[-82.791,22.68],[-82.794,22.66],[-82.795,22.641],[-82.801,22.623],[-82.815,22.613],[-82.825,22.611],[-82.825,22.615],[-82.828,22.62],[-82.836,22.631],[-82.869,22.666],[-82.873,22.674],[-82.893,22.716],[-82.901,22.729],[-82.907,22.737],[-82.913,22.741],[-82.922,22.745],[-82.925,22.748],[-82.938,22.763],[-82.954,22.789],[-82.959,22.796],[-82.963,22.799],[-82.974,22.804],[-82.976,22.805],[-82.978,22.807],[-82.977,22.809],[-82.972,22.811],[-82.948,22.813],[-82.94,22.816],[-82.935,22.82],[-82.916,22.841],[-82.915,22.85],[-82.919,22.874],[-82.944,22.919],[-82.941,22.939],[-82.941,22.943],[-82.945,22.98],[-82.944,22.985]]],[[[-82.514,22.625],[-82.511,22.613],[-82.508,22.59],[-82.514,22.572],[-82.519,22.566],[-82.523,22.559],[-82.527,22.563],[-82.525,22.626],[-82.528,22.635],[-82.528,22.64],[-82.525,22.641],[-82.52,22.637],[-82.516,22.629],[-82.514,22.625]]]]}},{"type":"Feature","id":"CU-16","properties":{"id":"CU-16","countryCode":"CU","isoSubdivision":"CU-16","name":"Mayabeque","name_en":"Mayabeque","name_ko":"마야베케","type":"Province","labelLongitude":-82.03,"labelLatitude":22.876,"minZoom":7.7},"geometry":{"type":"Polygon","coordinates":[[[-82.1,23.188],[-82.088,23.19],[-82.065,23.193],[-82.055,23.195],[-82.044,23.199],[-82.033,23.201],[-82.023,23.196],[-81.986,23.171],[-81.956,23.164],[-81.892,23.158],[-81.862,23.151],[-81.84,23.158],[-81.684,23.157],[-81.685,23.149],[-81.695,23.137],[-81.683,23.084],[-81.681,23.071],[-81.681,23.065],[-81.682,23.064],[-81.685,23.065],[-81.694,23.07],[-81.699,23.07],[-81.705,23.067],[-81.712,23.058],[-81.714,23.053],[-81.713,23.05],[-81.704,23.043],[-81.7,23.038],[-81.7,23.035],[-81.702,23.032],[-81.706,23.03],[-81.715,23.018],[-81.736,23.006],[-81.741,23.001],[-81.742,23],[-81.743,22.998],[-81.745,22.995],[-81.747,22.987],[-81.746,22.984],[-81.742,22.982],[-81.731,22.981],[-81.724,22.978],[-81.716,22.973],[-81.709,22.966],[-81.692,22.946],[-81.681,22.931],[-81.68,22.927],[-81.679,22.921],[-81.68,22.917],[-81.683,22.888],[-81.695,22.851],[-81.679,22.824],[-81.664,22.81],[-81.651,22.802],[-81.647,22.796],[-81.647,22.79],[-81.658,22.765],[-81.658,22.749],[-81.652,22.74],[-81.614,22.718],[-81.598,22.705],[-81.596,22.69],[-81.604,22.64],[-81.606,22.632],[-81.609,22.625],[-81.615,22.616],[-81.623,22.606],[-81.636,22.587],[-81.639,22.584],[-81.644,22.581],[-81.647,22.579],[-81.648,22.579],[-81.649,22.577],[-81.651,22.575],[-81.658,22.577],[-81.673,22.578],[-81.7,22.6],[-81.719,22.614],[-81.753,22.638],[-81.788,22.65],[-81.878,22.68],[-81.912,22.679],[-81.993,22.672],[-82.099,22.655],[-82.131,22.668],[-82.199,22.686],[-82.275,22.686],[-82.317,22.681],[-82.339,22.679],[-82.36,22.681],[-82.392,22.688],[-82.388,22.71],[-82.391,22.722],[-82.404,22.73],[-82.417,22.737],[-82.437,22.763],[-82.458,22.802],[-82.458,22.839],[-82.45,22.872],[-82.437,22.896],[-82.437,22.923],[-82.436,22.957],[-82.42,22.963],[-82.412,22.965],[-82.405,22.961],[-82.394,22.949],[-82.389,22.948],[-82.382,22.951],[-82.369,22.961],[-82.365,22.968],[-82.356,22.977],[-82.317,22.973],[-82.291,22.975],[-82.28,22.971],[-82.27,22.969],[-82.259,22.969],[-82.25,22.973],[-82.244,22.98],[-82.236,22.993],[-82.202,23.028],[-82.201,23.032],[-82.203,23.037],[-82.211,23.053],[-82.213,23.061],[-82.212,23.068],[-82.21,23.076],[-82.209,23.081],[-82.209,23.086],[-82.211,23.09],[-82.211,23.093],[-82.21,23.094],[-82.205,23.095],[-82.199,23.089],[-82.192,23.08],[-82.189,23.079],[-82.183,23.083],[-82.176,23.088],[-82.171,23.101],[-82.17,23.106],[-82.168,23.109],[-82.165,23.112],[-82.161,23.114],[-82.152,23.11],[-82.146,23.106],[-82.111,23.068],[-82.101,23.084],[-82.1,23.101],[-82.099,23.105],[-82.096,23.108],[-82.091,23.113],[-82.09,23.117],[-82.093,23.126],[-82.093,23.131],[-82.091,23.135],[-82.081,23.135],[-82.076,23.139],[-82.093,23.159],[-82.099,23.168],[-82.097,23.178],[-82.1,23.188]]]}},{"type":"Feature","id":"CU-99","properties":{"id":"CU-99","countryCode":"CU","isoSubdivision":"CU-99","name":"Isla de la Juventud","name_en":"Isla de la Juventud","name_ko":"후벤투드섬","type":"Special Municipality","labelLongitude":-82.815,"labelLatitude":21.675,"minZoom":7.7},"geometry":{"type":"MultiPolygon","coordinates":[[[[-81.372,21.705],[-81.377,21.703],[-81.418,21.668],[-81.497,21.618],[-81.528,21.606],[-81.561,21.603],[-81.561,21.622],[-81.551,21.628],[-81.524,21.623],[-81.512,21.631],[-81.503,21.646],[-81.494,21.657],[-81.482,21.654],[-81.469,21.648],[-81.454,21.652],[-81.443,21.66],[-81.438,21.668],[-81.432,21.685],[-81.417,21.697],[-81.386,21.716],[-81.378,21.719],[-81.372,21.715],[-81.369,21.709],[-81.372,21.705]]],[[[-82.568,21.637],[-82.575,21.625],[-82.567,21.612],[-82.553,21.601],[-82.541,21.596],[-82.551,21.58],[-82.571,21.56],[-82.595,21.542],[-82.613,21.534],[-82.631,21.531],[-82.759,21.471],[-82.836,21.445],[-82.906,21.437],[-82.918,21.442],[-82.927,21.451],[-82.993,21.452],[-83.002,21.455],[-83.022,21.463],[-83.034,21.466],[-83.069,21.465],[-83.079,21.469],[-83.111,21.51],[-83.124,21.52],[-83.152,21.538],[-83.162,21.549],[-83.171,21.568],[-83.178,21.596],[-83.19,21.62],[-83.192,21.63],[-83.185,21.63],[-83.174,21.62],[-83.124,21.586],[-83.117,21.572],[-83.101,21.56],[-83.082,21.551],[-83.065,21.548],[-83.024,21.548],[-83.021,21.552],[-82.993,21.575],[-82.977,21.585],[-82.969,21.591],[-82.966,21.599],[-82.963,21.598],[-82.958,21.592],[-82.957,21.582],[-82.966,21.568],[-82.959,21.562],[-82.941,21.593],[-82.946,21.605],[-82.976,21.609],[-82.988,21.62],[-83.073,21.761],[-83.086,21.8],[-83.075,21.843],[-83.033,21.874],[-83.027,21.887],[-83.019,21.898],[-82.999,21.911],[-82.976,21.922],[-82.959,21.925],[-82.97,21.93],[-82.981,21.932],[-82.993,21.932],[-83.005,21.938],[-83.005,21.94],[-82.999,21.942],[-82.989,21.948],[-82.859,21.934],[-82.777,21.915],[-82.721,21.9],[-82.704,21.893],[-82.69,21.882],[-82.685,21.866],[-82.688,21.848],[-82.693,21.835],[-82.693,21.824],[-82.678,21.808],[-82.633,21.774],[-82.62,21.774],[-82.61,21.77],[-82.603,21.758],[-82.598,21.746],[-82.593,21.737],[-82.592,21.729],[-82.598,21.717],[-82.609,21.699],[-82.616,21.699],[-82.611,21.69],[-82.61,21.682],[-82.611,21.673],[-82.616,21.664],[-82.594,21.651],[-82.582,21.646],[-82.568,21.644],[-82.568,21.637]]],[[[-81.981,21.648],[-81.974,21.64],[-81.973,21.622],[-81.99,21.609],[-82.029,21.595],[-82.059,21.581],[-82.065,21.58],[-82.07,21.576],[-82.074,21.572],[-82.088,21.568],[-82.11,21.567],[-82.114,21.57],[-82.102,21.574],[-82.082,21.59],[-82.071,21.593],[-82.062,21.598],[-82.055,21.606],[-82.048,21.611],[-82.02,21.621],[-82.008,21.622],[-81.997,21.627],[-81.988,21.635],[-81.984,21.642],[-81.983,21.646],[-81.981,21.648]]],[[[-81.853,21.664],[-81.839,21.666],[-81.838,21.661],[-81.853,21.65],[-81.87,21.639],[-81.901,21.616],[-81.919,21.615],[-81.932,21.628],[-81.936,21.642],[-81.933,21.64],[-81.922,21.629],[-81.906,21.631],[-81.892,21.641],[-81.888,21.647],[-81.892,21.647],[-81.889,21.649],[-81.859,21.662],[-81.853,21.664]]],[[[-82.645,21.955],[-82.608,21.939],[-82.591,21.927],[-82.603,21.922],[-82.63,21.921],[-82.658,21.932],[-82.668,21.949],[-82.645,21.955]]]]}}]}
