{"type":"FeatureCollection","features":[{"type":"Feature","id":"CV-BR","properties":{"id":"CV-BR","countryCode":"CV","isoSubdivision":"CV-BR","name":"Brava","name_en":"Brava","name_ko":"브라바시","type":"Principal subdivision","labelLongitude":-24.72,"labelLatitude":14.851,"minZoom":11},"geometry":{"type":"Polygon","coordinates":[[[-24.704,14.901],[-24.693,14.891],[-24.687,14.876],[-24.684,14.859],[-24.683,14.842],[-24.687,14.827],[-24.695,14.819],[-24.704,14.814],[-24.711,14.804],[-24.718,14.804],[-24.725,14.814],[-24.745,14.827],[-24.752,14.839],[-24.759,14.832],[-24.755,14.841],[-24.753,14.849],[-24.755,14.858],[-24.759,14.867],[-24.745,14.867],[-24.749,14.885],[-24.738,14.892],[-24.719,14.894],[-24.704,14.901]]]}},{"type":"Feature","id":"CV-BV","properties":{"id":"CV-BV","countryCode":"CV","isoSubdivision":"CV-BV","name":"Boa Vista","name_en":"Boa Vista","name_ko":"보아비스타시","type":"Principal subdivision","labelLongitude":-22.807,"labelLatitude":16.102,"minZoom":11},"geometry":{"type":"Polygon","coordinates":[[[-22.682,16.114],[-22.678,16.112],[-22.671,16.102],[-22.667,16.091],[-22.673,16.086],[-22.676,16.082],[-22.677,16.073],[-22.68,16.063],[-22.696,16.053],[-22.751,16.011],[-22.788,15.992],[-22.806,15.986],[-22.864,15.982],[-22.874,15.984],[-22.884,15.989],[-22.898,16],[-22.909,16.004],[-22.946,16.02],[-22.958,16.031],[-22.964,16.052],[-22.963,16.071],[-22.958,16.089],[-22.947,16.102],[-22.933,16.107],[-22.914,16.126],[-22.924,16.213],[-22.916,16.244],[-22.912,16.237],[-22.907,16.231],[-22.895,16.223],[-22.878,16.215],[-22.853,16.207],[-22.829,16.204],[-22.819,16.213],[-22.812,16.228],[-22.794,16.231],[-22.735,16.217],[-22.724,16.213],[-22.714,16.206],[-22.71,16.199],[-22.704,16.18],[-22.7,16.176],[-22.682,16.169],[-22.679,16.152],[-22.682,16.114]]]}},{"type":"Feature","id":"CV-CA","properties":{"id":"CV-CA","countryCode":"CV","isoSubdivision":"CV-CA","name":"Santa Catarina","name_en":"Santa Catarina","name_ko":"산타카타리나시","type":"Principal subdivision","labelLongitude":-23.703,"labelLatitude":15.092,"minZoom":11},"geometry":{"type":"Polygon","coordinates":[[[-23.715,14.968],[-23.731,14.986],[-23.731,15.019],[-23.742,15.026],[-23.758,15.031],[-23.772,15.038],[-23.773,15.042],[-23.78,15.065],[-23.782,15.069],[-23.786,15.072],[-23.79,15.078],[-23.793,15.086],[-23.79,15.094],[-23.776,15.118],[-23.772,15.127],[-23.773,15.14],[-23.786,15.175],[-23.776,15.177],[-23.77,15.184],[-23.755,15.183],[-23.725,15.18],[-23.686,15.184],[-23.687,15.167],[-23.668,15.149],[-23.65,15.137],[-23.648,15.121],[-23.64,15.119],[-23.627,15.131],[-23.621,15.123],[-23.618,15.106],[-23.642,15.087],[-23.648,15.082],[-23.644,15.063],[-23.637,15.049],[-23.629,15.039],[-23.639,15.028],[-23.642,15.014],[-23.649,15.009],[-23.67,15.007],[-23.679,14.994],[-23.698,14.986],[-23.715,14.968]]]}},{"type":"Feature","id":"CV-CF","properties":{"id":"CV-CF","countryCode":"CV","isoSubdivision":"CV-CF","name":"Santa Catarina do Fogo","name_en":"Santa Catarina do Fogo","name_ko":"산타카타리나두포구시","type":"Principal subdivision","labelLongitude":-24.33,"labelLatitude":14.924,"minZoom":11},"geometry":{"type":"Polygon","coordinates":[[[-24.301,14.955],[-24.296,14.93],[-24.297,14.918],[-24.302,14.906],[-24.298,14.895],[-24.321,14.873],[-24.353,14.87],[-24.374,14.886],[-24.383,14.908],[-24.379,14.927],[-24.374,14.945],[-24.338,14.953],[-24.301,14.955]]]}},{"type":"Feature","id":"CV-CR","properties":{"id":"CV-CR","countryCode":"CV","isoSubdivision":"CV-CR","name":"Santa Cruz","name_en":"Santa Cruz","name_ko":"산타크루스시","type":"Principal subdivision","labelLongitude":-23.549,"labelLatitude":15.116,"minZoom":11},"geometry":{"type":"Polygon","coordinates":[[[-23.592,15.17],[-23.584,15.162],[-23.567,15.152],[-23.552,15.154],[-23.549,15.149],[-23.547,15.146],[-23.545,15.143],[-23.539,15.14],[-23.541,15.139],[-23.534,15.133],[-23.527,15.127],[-23.526,15.127],[-23.523,15.127],[-23.514,15.128],[-23.511,15.127],[-23.511,15.124],[-23.512,15.116],[-23.511,15.113],[-23.485,15.064],[-23.491,15.052],[-23.504,15.046],[-23.514,15.053],[-23.526,15.059],[-23.55,15.079],[-23.564,15.075],[-23.58,15.082],[-23.578,15.088],[-23.581,15.098],[-23.607,15.104],[-23.618,15.106],[-23.621,15.123],[-23.627,15.131],[-23.621,15.137],[-23.592,15.17]]]}},{"type":"Feature","id":"CV-MA","properties":{"id":"CV-MA","countryCode":"CV","isoSubdivision":"CV-MA","name":"Maio","name_en":"Maio","name_ko":"마이우시","type":"Principal subdivision","labelLongitude":-23.181,"labelLatitude":15.212,"minZoom":11},"geometry":{"type":"Polygon","coordinates":[[[-23.128,15.312],[-23.122,15.299],[-23.121,15.283],[-23.122,15.256],[-23.11,15.199],[-23.112,15.172],[-23.128,15.147],[-23.133,15.145],[-23.149,15.143],[-23.155,15.14],[-23.159,15.136],[-23.164,15.124],[-23.169,15.12],[-23.183,15.119],[-23.196,15.122],[-23.217,15.134],[-23.241,15.15],[-23.252,15.162],[-23.258,15.175],[-23.255,15.187],[-23.247,15.199],[-23.243,15.211],[-23.251,15.223],[-23.237,15.231],[-23.231,15.244],[-23.235,15.255],[-23.251,15.256],[-23.246,15.271],[-23.224,15.287],[-23.21,15.312],[-23.214,15.314],[-23.215,15.314],[-23.215,15.316],[-23.217,15.319],[-23.203,15.325],[-23.19,15.333],[-23.19,15.329],[-23.19,15.319],[-23.181,15.326],[-23.179,15.328],[-23.176,15.333],[-23.169,15.325],[-23.176,15.319],[-23.162,15.313],[-23.14,15.318],[-23.128,15.312]]]}},{"type":"Feature","id":"CV-MO","properties":{"id":"CV-MO","countryCode":"CV","isoSubdivision":"CV-MO","name":"Mosteiros","name_en":"Mosteiros","name_ko":"모스테이루스시","type":"Principal subdivision","labelLongitude":-24.354,"labelLatitude":15.001,"minZoom":11},"geometry":{"type":"Polygon","coordinates":[[[-24.43,15.025],[-24.403,15.038],[-24.386,15.044],[-24.365,15.045],[-24.343,15.041],[-24.329,15.029],[-24.32,15.013],[-24.307,14.979],[-24.301,14.955],[-24.338,14.953],[-24.374,14.945],[-24.407,14.991],[-24.43,15.025]]]}},{"type":"Feature","id":"CV-PA","properties":{"id":"CV-PA","countryCode":"CV","isoSubdivision":"CV-PA","name":"Paul","name_en":"Paul","name_ko":"파울시","type":"Principal subdivision","labelLongitude":-25.015,"labelLatitude":17.118,"minZoom":11},"geometry":{"type":"Polygon","coordinates":[[[-25.026,17.145],[-25.021,17.14],[-24.997,17.134],[-24.992,17.131],[-24.989,17.126],[-24.975,17.114],[-24.971,17.107],[-24.973,17.097],[-24.979,17.087],[-24.987,17.079],[-25.001,17.088],[-25.028,17.106],[-25.073,17.114],[-25.054,17.127],[-25.038,17.138],[-25.026,17.145]]]}},{"type":"Feature","id":"CV-PN","properties":{"id":"CV-PN","countryCode":"CV","isoSubdivision":"CV-PN","name":"Porto Novo","name_en":"Porto Novo","name_ko":"포르투노부시","type":"Principal subdivision","labelLongitude":-25.226,"labelLatitude":17.017,"minZoom":11},"geometry":{"type":"Polygon","coordinates":[[[-24.987,17.079],[-25.015,17.049],[-25.02,17.049],[-25.024,17.045],[-25.043,17.038],[-25.047,17.035],[-25.056,17.025],[-25.116,16.997],[-25.143,16.97],[-25.163,16.945],[-25.188,16.928],[-25.231,16.923],[-25.269,16.923],[-25.281,16.921],[-25.29,16.917],[-25.299,16.917],[-25.311,16.926],[-25.313,16.938],[-25.314,17.005],[-25.328,17.028],[-25.331,17.031],[-25.348,17.034],[-25.355,17.038],[-25.36,17.055],[-25.356,17.07],[-25.331,17.097],[-25.317,17.106],[-25.302,17.108],[-25.289,17.107],[-25.28,17.107],[-25.27,17.114],[-25.245,17.137],[-25.191,17.108],[-25.158,17.086],[-25.113,17.104],[-25.073,17.114],[-25.028,17.106],[-25.001,17.088],[-24.987,17.079]]]}},{"type":"Feature","id":"CV-PR","properties":{"id":"CV-PR","countryCode":"CV","isoSubdivision":"CV-PR","name":"Praia","name_en":"Praia","name_ko":"프라이아시","type":"Principal subdivision","labelLongitude":-23.516,"labelLatitude":14.953,"minZoom":11},"geometry":{"type":"Polygon","coordinates":[[[-23.471,14.974],[-23.478,14.969],[-23.47,14.962],[-23.48,14.947],[-23.486,14.931],[-23.494,14.919],[-23.508,14.914],[-23.516,14.913],[-23.532,14.909],[-23.539,14.908],[-23.548,14.926],[-23.56,14.942],[-23.564,14.961],[-23.536,14.966],[-23.511,14.983],[-23.491,14.986],[-23.471,14.974]]]}},{"type":"Feature","id":"CV-RB","properties":{"id":"CV-RB","countryCode":"CV","isoSubdivision":"CV-RB","name":"Ribeira Brava","name_en":"Ribeira Brava","name_ko":"히베이라브라바시","type":"Principal subdivision","labelLongitude":-24.287,"labelLatitude":16.62,"minZoom":11},"geometry":{"type":"Polygon","coordinates":[[[-24.376,16.677],[-24.361,16.682],[-24.354,16.681],[-24.341,16.675],[-24.329,16.668],[-24.305,16.648],[-24.293,16.642],[-24.282,16.641],[-24.227,16.65],[-24.217,16.648],[-24.181,16.631],[-24.172,16.629],[-24.09,16.622],[-24.068,16.614],[-24.048,16.599],[-24.037,16.593],[-24.033,16.597],[-24.033,16.562],[-24.044,16.56],[-24.115,16.559],[-24.192,16.592],[-24.233,16.602],[-24.272,16.587],[-24.286,16.571],[-24.315,16.52],[-24.325,16.483],[-24.326,16.513],[-24.32,16.555],[-24.314,16.581],[-24.32,16.613],[-24.338,16.628],[-24.367,16.629],[-24.377,16.643],[-24.367,16.656],[-24.376,16.677]]]}},{"type":"Feature","id":"CV-RG","properties":{"id":"CV-RG","countryCode":"CV","isoSubdivision":"CV-RG","name":"Ribeira Grande","name_en":"Ribeira Grande","name_ko":"히베이라그란드시","type":"Principal subdivision","labelLongitude":-25.12,"labelLatitude":17.142,"minZoom":11},"geometry":{"type":"Polygon","coordinates":[[[-25.245,17.137],[-25.226,17.145],[-25.203,17.159],[-25.18,17.164],[-25.119,17.193],[-25.103,17.197],[-25.091,17.193],[-25.079,17.185],[-25.054,17.186],[-25.04,17.182],[-25.03,17.175],[-25.026,17.168],[-25.026,17.145],[-25.038,17.138],[-25.054,17.127],[-25.073,17.114],[-25.113,17.104],[-25.158,17.086],[-25.191,17.108],[-25.245,17.137]]]}},{"type":"Feature","id":"CV-RS","properties":{"id":"CV-RS","countryCode":"CV","isoSubdivision":"CV-RS","name":"Ribeira Grande de Santiago","name_en":"Ribeira Grande de Santiago","name_ko":"히베이라그란드드산티아구시","type":"Principal subdivision","labelLongitude":-23.64,"labelLatitude":14.977,"minZoom":11},"geometry":{"type":"Polygon","coordinates":[[[-23.539,14.908],[-23.547,14.909],[-23.556,14.913],[-23.563,14.914],[-23.596,14.915],[-23.624,14.918],[-23.65,14.927],[-23.677,14.936],[-23.715,14.968],[-23.698,14.986],[-23.679,14.994],[-23.67,15.007],[-23.649,15.009],[-23.642,15.014],[-23.639,15.028],[-23.629,15.039],[-23.612,15.041],[-23.612,15.025],[-23.596,15.012],[-23.584,14.995],[-23.581,14.968],[-23.564,14.961],[-23.56,14.942],[-23.548,14.926],[-23.539,14.908]]]}},{"type":"Feature","id":"CV-SD","properties":{"id":"CV-SD","countryCode":"CV","isoSubdivision":"CV-SD","name":"São Domingos","name_en":"São Domingos","name_ko":"상도밍구스시","type":"Principal subdivision","labelLongitude":-23.525,"labelLatitude":15.015,"minZoom":11},"geometry":{"type":"Polygon","coordinates":[[[-23.485,15.064],[-23.47,15.038],[-23.467,15.034],[-23.464,15.033],[-23.461,15.031],[-23.457,15.024],[-23.455,15.019],[-23.452,15.015],[-23.448,15.012],[-23.443,15.011],[-23.448,14.996],[-23.455,14.986],[-23.471,14.974],[-23.491,14.986],[-23.511,14.983],[-23.536,14.966],[-23.564,14.961],[-23.581,14.968],[-23.584,14.995],[-23.596,15.012],[-23.576,15.023],[-23.562,15.038],[-23.543,15.054],[-23.526,15.059],[-23.514,15.053],[-23.504,15.046],[-23.491,15.052],[-23.485,15.064]]]}},{"type":"Feature","id":"CV-SF","properties":{"id":"CV-SF","countryCode":"CV","isoSubdivision":"CV-SF","name":"São Filipe","name_en":"São Filipe","name_ko":"상필리프시","type":"Principal subdivision","labelLongitude":-24.44,"labelLatitude":14.924,"minZoom":11},"geometry":{"type":"Polygon","coordinates":[[[-24.298,14.895],[-24.293,14.884],[-24.293,14.873],[-24.3,14.863],[-24.334,14.832],[-24.377,14.816],[-24.415,14.821],[-24.449,14.838],[-24.507,14.885],[-24.52,14.904],[-24.526,14.925],[-24.521,14.945],[-24.507,14.969],[-24.489,14.991],[-24.465,15.008],[-24.43,15.025],[-24.407,14.991],[-24.374,14.945],[-24.379,14.927],[-24.383,14.908],[-24.374,14.886],[-24.353,14.87],[-24.321,14.873],[-24.298,14.895]]]}},{"type":"Feature","id":"CV-SL","properties":{"id":"CV-SL","countryCode":"CV","isoSubdivision":"CV-SL","name":"Sal","name_en":"Sal","name_ko":"살시","type":"Principal subdivision","labelLongitude":-22.936,"labelLatitude":16.725,"minZoom":11},"geometry":{"type":"Polygon","coordinates":[[[-22.929,16.593],[-22.941,16.669],[-22.957,16.699],[-22.978,16.689],[-22.982,16.704],[-22.983,16.723],[-22.98,16.741],[-22.971,16.751],[-22.971,16.758],[-22.983,16.761],[-22.989,16.771],[-22.992,16.784],[-22.991,16.816],[-22.97,16.831],[-22.922,16.86],[-22.917,16.853],[-22.899,16.837],[-22.895,16.829],[-22.896,16.825],[-22.903,16.813],[-22.91,16.803],[-22.908,16.801],[-22.904,16.799],[-22.902,16.795],[-22.905,16.736],[-22.902,16.717],[-22.897,16.71],[-22.884,16.698],[-22.881,16.693],[-22.882,16.682],[-22.887,16.662],[-22.888,16.651],[-22.89,16.646],[-22.899,16.639],[-22.902,16.634],[-22.901,16.629],[-22.899,16.622],[-22.897,16.615],[-22.895,16.614],[-22.902,16.606],[-22.909,16.602],[-22.918,16.599],[-22.929,16.593]]]}},{"type":"Feature","id":"CV-SM","properties":{"id":"CV-SM","countryCode":"CV","isoSubdivision":"CV-SM","name":"São Miguel","name_en":"São Miguel","name_ko":"상미겔시","type":"Principal subdivision","labelLongitude":-23.636,"labelLatitude":15.178,"minZoom":11},"geometry":{"type":"Polygon","coordinates":[[[-23.656,15.23],[-23.639,15.226],[-23.63,15.219],[-23.615,15.195],[-23.592,15.17],[-23.621,15.137],[-23.627,15.131],[-23.64,15.119],[-23.648,15.121],[-23.65,15.137],[-23.668,15.149],[-23.687,15.167],[-23.686,15.184],[-23.67,15.207],[-23.656,15.23]]]}},{"type":"Feature","id":"CV-SO","properties":{"id":"CV-SO","countryCode":"CV","isoSubdivision":"CV-SO","name":"São Lourenço dos Órgãos","name_en":"São Lourenço dos Órgãos","name_ko":"상로렌수두스오르강스시","type":"Principal subdivision","labelLongitude":-23.578,"labelLatitude":15.044,"minZoom":11},"geometry":{"type":"Polygon","coordinates":[[[-23.612,15.041],[-23.605,15.042],[-23.585,15.056],[-23.582,15.074],[-23.58,15.082],[-23.564,15.075],[-23.55,15.079],[-23.526,15.059],[-23.543,15.054],[-23.562,15.038],[-23.576,15.023],[-23.596,15.012],[-23.612,15.025],[-23.612,15.041]]]}},{"type":"Feature","id":"CV-SS","properties":{"id":"CV-SS","countryCode":"CV","isoSubdivision":"CV-SS","name":"São Salvador do Mundo","name_en":"São Salvador do Mundo","name_ko":"상살바도르두문두시","type":"Principal subdivision","labelLongitude":-23.616,"labelLatitude":15.068,"minZoom":11},"geometry":{"type":"Polygon","coordinates":[[[-23.618,15.106],[-23.607,15.104],[-23.581,15.098],[-23.578,15.088],[-23.58,15.082],[-23.582,15.074],[-23.585,15.056],[-23.605,15.042],[-23.612,15.041],[-23.629,15.039],[-23.637,15.049],[-23.644,15.063],[-23.648,15.082],[-23.642,15.087],[-23.618,15.106]]]}},{"type":"Feature","id":"CV-SV","properties":{"id":"CV-SV","countryCode":"CV","isoSubdivision":"CV-SV","name":"São Vicente","name_en":"São Vicente","name_ko":"상비센트시","type":"Principal subdivision","labelLongitude":-24.972,"labelLatitude":16.845,"minZoom":11},"geometry":{"type":"MultiPolygon","coordinates":[[[[-24.92,16.895],[-24.923,16.891],[-24.914,16.881],[-24.9,16.872],[-24.886,16.868],[-24.881,16.862],[-24.876,16.85],[-24.874,16.836],[-24.875,16.826],[-24.891,16.814],[-24.916,16.805],[-24.943,16.8],[-24.968,16.799],[-24.975,16.797],[-24.984,16.787],[-24.988,16.785],[-24.995,16.786],[-25.058,16.81],[-25.068,16.815],[-25.076,16.822],[-25.081,16.832],[-25.094,16.826],[-25.09,16.847],[-25.078,16.865],[-25.064,16.877],[-25.05,16.881],[-25.019,16.882],[-25.006,16.888],[-25.012,16.901],[-24.984,16.916],[-24.978,16.923],[-24.971,16.923],[-24.965,16.909],[-24.955,16.911],[-24.938,16.923],[-24.928,16.918],[-24.919,16.908],[-24.915,16.899],[-24.92,16.895]]],[[[-24.593,16.624],[-24.57,16.62],[-24.575,16.606],[-24.59,16.607],[-24.601,16.61],[-24.604,16.621],[-24.593,16.624]]],[[[-24.773,16.802],[-24.749,16.794],[-24.736,16.779],[-24.726,16.757],[-24.707,16.753],[-24.695,16.76],[-24.684,16.756],[-24.685,16.743],[-24.703,16.736],[-24.723,16.734],[-24.74,16.734],[-24.749,16.743],[-24.755,16.755],[-24.773,16.762],[-24.788,16.775],[-24.788,16.789],[-24.773,16.802]]]]}},{"type":"Feature","id":"CV-TA","properties":{"id":"CV-TA","countryCode":"CV","isoSubdivision":"CV-TA","name":"Tarrafal","name_en":"Tarrafal","name_ko":"타하팔시","type":"Principal subdivision","labelLongitude":-23.717,"labelLatitude":15.236,"minZoom":11},"geometry":{"type":"Polygon","coordinates":[[[-23.77,15.184],[-23.767,15.194],[-23.766,15.206],[-23.764,15.216],[-23.759,15.223],[-23.754,15.228],[-23.752,15.233],[-23.755,15.25],[-23.763,15.27],[-23.774,15.286],[-23.786,15.292],[-23.779,15.294],[-23.758,15.305],[-23.773,15.311],[-23.78,15.312],[-23.752,15.333],[-23.744,15.333],[-23.744,15.325],[-23.742,15.321],[-23.74,15.317],[-23.738,15.312],[-23.719,15.323],[-23.703,15.313],[-23.698,15.296],[-23.711,15.284],[-23.697,15.266],[-23.682,15.255],[-23.649,15.237],[-23.656,15.23],[-23.67,15.207],[-23.686,15.184],[-23.725,15.18],[-23.755,15.183],[-23.77,15.184]]]}},{"type":"Feature","id":"CV-TS","properties":{"id":"CV-TS","countryCode":"CV","isoSubdivision":"CV-TS","name":"Tarrafal de São Nicolau","name_en":"Tarrafal de São Nicolau","name_ko":"타하팔드상니콜라우시","type":"Principal subdivision","labelLongitude":-24.349,"labelLatitude":16.601,"minZoom":11},"geometry":{"type":"Polygon","coordinates":[[[-24.325,16.483],[-24.333,16.495],[-24.347,16.532],[-24.353,16.54],[-24.36,16.547],[-24.366,16.556],[-24.368,16.569],[-24.369,16.58],[-24.371,16.587],[-24.376,16.592],[-24.385,16.593],[-24.408,16.6],[-24.425,16.617],[-24.431,16.639],[-24.423,16.662],[-24.376,16.677],[-24.367,16.656],[-24.377,16.643],[-24.367,16.629],[-24.338,16.628],[-24.32,16.613],[-24.314,16.581],[-24.32,16.555],[-24.326,16.513],[-24.325,16.483]]]}}]}
