{"type":"FeatureCollection","features":[{"type":"Feature","id":"NE:IOA-2652","properties":{"id":"NE:IOA-2652","countryCode":"CX","isoSubdivision":null,"name":"Christmas Island","name_en":"Christmas Island","name_ko":"크리스마스섬","type":"Principal subdivision","labelLongitude":105.648,"labelLatitude":-10.491,"minZoom":3},"geometry":{"type":"Polygon","coordinates":[[[105.704,-10.431],[105.715,-10.437],[105.713,-10.451],[105.711,-10.47],[105.706,-10.494],[105.706,-10.514],[105.698,-10.529],[105.7,-10.553],[105.695,-10.565],[105.679,-10.566],[105.674,-10.549],[105.667,-10.533],[105.664,-10.518],[105.649,-10.513],[105.628,-10.509],[105.605,-10.51],[105.585,-10.516],[105.582,-10.505],[105.592,-10.498],[105.6,-10.481],[105.594,-10.467],[105.594,-10.454],[105.607,-10.458],[105.627,-10.469],[105.655,-10.47],[105.669,-10.456],[105.685,-10.44],[105.704,-10.431]]]}}]}
