{"type":"FeatureCollection","features":[{"type":"Feature","id":"CY-01","properties":{"id":"CY-01","countryCode":"CY","isoSubdivision":"CY-01","name":"Nicosia","name_en":"Nicosia","name_ko":"니코시아구","type":"District","labelLongitude":33.043,"labelLatitude":35.021,"minZoom":8.7},"geometry":{"type":"Polygon","coordinates":[[[33.414,35.199],[33.421,35.194],[33.425,35.182],[33.428,35.168],[33.44,35.149],[33.451,35.132],[33.47,35.104],[33.477,35.095],[33.477,35.077],[33.477,35.057],[33.471,35.039],[33.466,35.014],[33.467,35.005],[33.477,35.003],[33.477,35.009],[33.478,35.019],[33.481,35.032],[33.486,35.039],[33.491,35.05],[33.493,35.048],[33.5,35.044],[33.507,35.044],[33.508,35.039],[33.503,35.031],[33.505,35.026],[33.508,35.015],[33.51,35.012],[33.513,35.009],[33.517,35.007],[33.52,35.003],[33.52,35.001],[33.521,35],[33.511,34.997],[33.509,34.994],[33.507,34.992],[33.506,34.987],[33.496,34.965],[33.492,34.963],[33.488,34.962],[33.483,34.962],[33.479,34.964],[33.476,34.965],[33.472,34.966],[33.466,34.965],[33.45,34.957],[33.445,34.956],[33.44,34.956],[33.436,34.958],[33.428,34.964],[33.425,34.965],[33.421,34.966],[33.416,34.966],[33.414,34.964],[33.414,34.962],[33.414,34.959],[33.414,34.954],[33.412,34.947],[33.405,34.935],[33.4,34.93],[33.396,34.928],[33.392,34.928],[33.373,34.931],[33.366,34.93],[33.354,34.926],[33.347,34.925],[33.342,34.926],[33.337,34.93],[33.333,34.932],[33.329,34.934],[33.32,34.932],[33.295,34.916],[33.275,34.899],[33.264,34.893],[33.257,34.89],[33.253,34.891],[33.252,34.893],[33.252,34.896],[33.252,34.898],[33.25,34.899],[33.244,34.902],[33.241,34.904],[33.237,34.905],[33.217,34.9],[33.212,34.899],[33.208,34.9],[33.203,34.901],[33.2,34.903],[33.195,34.908],[33.192,34.91],[33.187,34.911],[33.18,34.911],[33.169,34.908],[33.16,34.905],[33.142,34.895],[33.138,34.893],[33.136,34.89],[33.134,34.888],[33.131,34.88],[33.093,34.893],[33.087,34.894],[33.079,34.893],[33.073,34.891],[33.062,34.889],[33.056,34.89],[33.053,34.893],[33.052,34.897],[33.047,34.902],[33.039,34.908],[33.003,34.93],[33.001,34.932],[33,34.934],[32.998,34.937],[32.996,34.941],[32.992,34.947],[32.983,34.956],[32.976,34.959],[32.97,34.961],[32.965,34.96],[32.958,34.957],[32.923,34.937],[32.915,34.934],[32.906,34.933],[32.885,34.932],[32.878,34.933],[32.872,34.934],[32.859,34.941],[32.853,34.943],[32.846,34.944],[32.839,34.944],[32.831,34.943],[32.825,34.944],[32.82,34.946],[32.805,34.954],[32.799,34.955],[32.795,34.954],[32.791,34.948],[32.788,34.946],[32.784,34.945],[32.779,34.945],[32.775,34.944],[32.773,34.941],[32.773,34.938],[32.773,34.934],[32.772,34.931],[32.769,34.924],[32.768,34.92],[32.768,34.916],[32.767,34.903],[32.743,34.911],[32.739,34.91],[32.734,34.909],[32.732,34.906],[32.729,34.902],[32.724,34.897],[32.712,34.892],[32.705,34.89],[32.701,34.891],[32.702,34.893],[32.702,34.895],[32.702,34.897],[32.696,34.899],[32.693,34.898],[32.692,34.896],[32.693,34.893],[32.691,34.889],[32.688,34.89],[32.686,34.891],[32.683,34.894],[32.672,34.901],[32.667,34.906],[32.663,34.909],[32.661,34.913],[32.658,34.923],[32.657,34.926],[32.658,34.928],[32.659,34.929],[32.665,34.929],[32.668,34.93],[32.668,34.932],[32.669,34.938],[32.669,34.941],[32.673,34.946],[32.674,34.949],[32.675,34.954],[32.676,34.958],[32.675,34.962],[32.673,34.969],[32.673,34.973],[32.673,34.982],[32.671,34.986],[32.668,34.991],[32.647,35.021],[32.642,35.025],[32.627,35.033],[32.621,35.039],[32.613,35.051],[32.609,35.057],[32.608,35.062],[32.61,35.065],[32.612,35.067],[32.616,35.068],[32.621,35.068],[32.625,35.069],[32.628,35.071],[32.629,35.074],[32.63,35.106],[32.628,35.11],[32.624,35.113],[32.618,35.115],[32.611,35.121],[32.607,35.126],[32.606,35.133],[32.604,35.136],[32.598,35.141],[32.593,35.144],[32.565,35.169],[32.566,35.173],[32.568,35.172],[32.575,35.171],[32.585,35.173],[32.602,35.179],[32.603,35.174],[32.615,35.163],[32.626,35.165],[32.635,35.173],[32.639,35.184],[32.641,35.187],[32.65,35.188],[32.66,35.187],[32.692,35.184],[32.711,35.182],[32.711,35.175],[32.713,35.163],[32.721,35.153],[32.732,35.143],[32.744,35.138],[32.76,35.134],[32.795,35.127],[32.814,35.117],[32.83,35.1],[32.839,35.08],[32.855,35.079],[32.861,35.088],[32.87,35.098],[32.877,35.1],[32.888,35.103],[32.912,35.1],[32.923,35.099],[32.934,35.1],[32.947,35.103],[32.97,35.113],[32.989,35.131],[33.014,35.142],[33.031,35.149],[33.056,35.156],[33.079,35.165],[33.096,35.17],[33.109,35.159],[33.12,35.16],[33.142,35.181],[33.157,35.185],[33.19,35.19],[33.224,35.179],[33.24,35.171],[33.271,35.169],[33.3,35.163],[33.315,35.162],[33.326,35.167],[33.345,35.167],[33.375,35.174],[33.381,35.178],[33.389,35.188],[33.4,35.198],[33.414,35.199]]]}},{"type":"Feature","id":"CY-02","properties":{"id":"CY-02","countryCode":"CY","isoSubdivision":"CY-02","name":"Limassol","name_en":"Limassol","name_ko":"리마솔구","type":"District","labelLongitude":32.967,"labelLatitude":34.776,"minZoom":8.7},"geometry":{"type":"Polygon","coordinates":[[[32.841,34.699],[32.836,34.7],[32.832,34.701],[32.827,34.697],[32.823,34.691],[32.819,34.688],[32.806,34.686],[32.799,34.671],[32.779,34.673],[32.767,34.676],[32.76,34.669],[32.761,34.653],[32.749,34.65],[32.707,34.645],[32.666,34.652],[32.642,34.661],[32.642,34.682],[32.642,34.686],[32.64,34.689],[32.638,34.692],[32.637,34.694],[32.639,34.697],[32.645,34.7],[32.651,34.704],[32.659,34.712],[32.676,34.721],[32.68,34.725],[32.687,34.729],[32.696,34.736],[32.706,34.741],[32.709,34.746],[32.711,34.752],[32.712,34.764],[32.71,34.77],[32.706,34.773],[32.703,34.775],[32.701,34.777],[32.702,34.782],[32.705,34.789],[32.721,34.808],[32.726,34.813],[32.73,34.814],[32.734,34.815],[32.738,34.817],[32.743,34.821],[32.757,34.847],[32.762,34.854],[32.768,34.858],[32.773,34.86],[32.777,34.863],[32.782,34.868],[32.783,34.872],[32.783,34.876],[32.772,34.889],[32.767,34.903],[32.768,34.916],[32.768,34.92],[32.769,34.924],[32.772,34.931],[32.773,34.934],[32.773,34.938],[32.773,34.941],[32.775,34.944],[32.779,34.945],[32.784,34.945],[32.788,34.946],[32.791,34.948],[32.795,34.954],[32.799,34.955],[32.805,34.954],[32.82,34.946],[32.825,34.944],[32.831,34.943],[32.839,34.944],[32.846,34.944],[32.853,34.943],[32.859,34.941],[32.872,34.934],[32.878,34.933],[32.885,34.932],[32.906,34.933],[32.915,34.934],[32.923,34.937],[32.958,34.957],[32.965,34.96],[32.97,34.961],[32.976,34.959],[32.983,34.956],[32.992,34.947],[32.996,34.941],[32.998,34.937],[33,34.934],[33.001,34.932],[33.003,34.93],[33.039,34.908],[33.047,34.902],[33.052,34.897],[33.053,34.893],[33.056,34.89],[33.062,34.889],[33.073,34.891],[33.079,34.893],[33.087,34.894],[33.093,34.893],[33.131,34.88],[33.13,34.861],[33.137,34.856],[33.145,34.853],[33.149,34.852],[33.16,34.852],[33.163,34.852],[33.21,34.838],[33.218,34.834],[33.223,34.831],[33.253,34.802],[33.264,34.789],[33.27,34.777],[33.272,34.773],[33.272,34.769],[33.266,34.736],[33.266,34.733],[33.272,34.709],[33.273,34.707],[33.26,34.701],[33.246,34.698],[33.174,34.705],[33.102,34.698],[33.086,34.695],[33.072,34.687],[33.026,34.651],[33.016,34.634],[32.991,34.634],[32.97,34.632],[32.963,34.625],[32.956,34.629],[32.954,34.643],[32.966,34.652],[32.97,34.646],[32.99,34.646],[32.988,34.673],[32.955,34.677],[32.942,34.667],[32.936,34.658],[32.93,34.662],[32.917,34.667],[32.914,34.66],[32.885,34.667],[32.866,34.679],[32.86,34.688],[32.86,34.701],[32.854,34.699],[32.846,34.699],[32.841,34.699]]]}},{"type":"Feature","id":"CY-03","properties":{"id":"CY-03","countryCode":"CY","isoSubdivision":"CY-03","name":"Larnaca","name_en":"Larnaca","name_ko":"라르나카구","type":"District","labelLongitude":33.868,"labelLatitude":34.973,"minZoom":8.7},"geometry":{"type":"MultiPolygon","coordinates":[[[[33.766,34.99],[33.774,34.989],[33.778,34.985],[33.783,34.985],[33.786,34.985],[33.791,34.982],[33.794,34.978],[33.793,34.978],[33.788,34.977],[33.785,34.976],[33.782,34.976],[33.781,34.976],[33.78,34.979],[33.776,34.98],[33.771,34.98],[33.769,34.984],[33.765,34.986],[33.759,34.989],[33.761,34.99],[33.766,34.99]]],[[[33.746,35.015],[33.752,35.014],[33.752,35.004],[33.747,35.003],[33.743,35.001],[33.74,35.003],[33.739,35.005],[33.74,35.01],[33.741,35.014],[33.746,35.015]]],[[[33.547,35.073],[33.555,35.067],[33.562,35.058],[33.566,35.043],[33.579,35.035],[33.592,35.034],[33.602,35.042],[33.614,35.046],[33.638,35.031],[33.652,35.031],[33.656,35.032],[33.671,35.031],[33.679,35.034],[33.685,35.029],[33.702,35.022],[33.705,35.015],[33.697,35.009],[33.7,35.003],[33.715,34.997],[33.711,34.986],[33.703,34.988],[33.702,34.973],[33.68,34.966],[33.654,34.945],[33.647,34.932],[33.64,34.916],[33.635,34.898],[33.633,34.88],[33.635,34.861],[33.633,34.852],[33.623,34.849],[33.617,34.845],[33.61,34.827],[33.606,34.822],[33.59,34.818],[33.557,34.818],[33.544,34.815],[33.535,34.808],[33.525,34.796],[33.513,34.785],[33.5,34.781],[33.468,34.774],[33.439,34.763],[33.415,34.758],[33.4,34.773],[33.399,34.745],[33.371,34.731],[33.297,34.718],[33.282,34.712],[33.273,34.707],[33.272,34.709],[33.266,34.733],[33.266,34.736],[33.272,34.769],[33.272,34.773],[33.27,34.777],[33.264,34.789],[33.253,34.802],[33.223,34.831],[33.218,34.834],[33.21,34.838],[33.163,34.852],[33.16,34.852],[33.149,34.852],[33.145,34.853],[33.137,34.856],[33.13,34.861],[33.131,34.88],[33.134,34.888],[33.136,34.89],[33.138,34.893],[33.142,34.895],[33.16,34.905],[33.169,34.908],[33.18,34.911],[33.187,34.911],[33.192,34.91],[33.195,34.908],[33.2,34.903],[33.203,34.901],[33.208,34.9],[33.212,34.899],[33.217,34.9],[33.237,34.905],[33.241,34.904],[33.244,34.902],[33.25,34.899],[33.252,34.898],[33.252,34.896],[33.252,34.893],[33.253,34.891],[33.257,34.89],[33.264,34.893],[33.275,34.899],[33.295,34.916],[33.32,34.932],[33.329,34.934],[33.333,34.932],[33.337,34.93],[33.342,34.926],[33.347,34.925],[33.354,34.926],[33.366,34.93],[33.373,34.931],[33.392,34.928],[33.396,34.928],[33.4,34.93],[33.405,34.935],[33.412,34.947],[33.414,34.954],[33.414,34.959],[33.414,34.962],[33.414,34.964],[33.416,34.966],[33.421,34.966],[33.425,34.965],[33.428,34.964],[33.436,34.958],[33.44,34.956],[33.445,34.956],[33.45,34.957],[33.466,34.965],[33.472,34.966],[33.476,34.965],[33.479,34.964],[33.483,34.962],[33.488,34.962],[33.492,34.963],[33.496,34.965],[33.506,34.987],[33.507,34.992],[33.509,34.994],[33.511,34.997],[33.521,35],[33.52,35.001],[33.52,35.003],[33.517,35.007],[33.513,35.009],[33.51,35.012],[33.508,35.015],[33.505,35.026],[33.503,35.031],[33.508,35.039],[33.507,35.044],[33.5,35.044],[33.493,35.048],[33.491,35.05],[33.494,35.057],[33.5,35.061],[33.507,35.061],[33.516,35.06],[33.529,35.056],[33.535,35.057],[33.537,35.067],[33.541,35.073],[33.547,35.073]]],[[[33.846,34.96],[33.838,34.964],[33.85,34.973],[33.859,34.975],[33.859,34.992],[33.84,34.993],[33.829,35.001],[33.839,34.999],[33.845,35],[33.861,35.001],[33.866,35],[33.868,34.998],[33.87,34.993],[33.871,34.984],[33.873,34.981],[33.877,34.977],[33.896,34.962],[33.892,34.958],[33.864,34.963],[33.846,34.96]]]]}},{"type":"Feature","id":"CY-04","properties":{"id":"CY-04","countryCode":"CY","isoSubdivision":"CY-04","name":"Famagusta","name_en":"Famagusta","name_ko":"파마구스타구","type":"District","labelLongitude":33.949,"labelLatitude":35.016,"minZoom":8.7},"geometry":{"type":"Polygon","coordinates":[[[33.907,35.069],[33.913,35.066],[33.925,35.063],[33.941,35.06],[33.963,35.068],[34.009,35.06],[34.012,35.064],[34.022,35.057],[34.036,35.047],[34.051,35.033],[34.062,35.006],[34.073,34.988],[34.087,34.972],[34.099,34.965],[34.085,34.964],[34.059,34.967],[34.035,34.972],[34.023,34.983],[34.012,34.988],[33.957,34.982],[33.91,34.97],[33.9,34.965],[33.896,34.962],[33.877,34.977],[33.873,34.981],[33.871,34.984],[33.87,34.993],[33.868,34.998],[33.866,35],[33.861,35.001],[33.845,35],[33.839,34.999],[33.829,35.001],[33.83,35.023],[33.822,35.03],[33.799,35.039],[33.804,35.05],[33.814,35.056],[33.827,35.061],[33.835,35.057],[33.841,35.051],[33.855,35.053],[33.868,35.06],[33.875,35.068],[33.88,35.073],[33.898,35.061],[33.907,35.069]]]}},{"type":"Feature","id":"CY-05","properties":{"id":"CY-05","countryCode":"CY","isoSubdivision":"CY-05","name":"Paphos","name_en":"Paphos","name_ko":"파포스구","type":"District","labelLongitude":32.528,"labelLatitude":34.931,"minZoom":8.7},"geometry":{"type":"Polygon","coordinates":[[[32.642,34.661],[32.626,34.666],[32.575,34.693],[32.557,34.699],[32.536,34.704],[32.493,34.707],[32.476,34.713],[32.459,34.722],[32.419,34.748],[32.413,34.753],[32.407,34.782],[32.403,34.787],[32.402,34.796],[32.379,34.849],[32.368,34.857],[32.347,34.869],[32.338,34.876],[32.329,34.886],[32.323,34.898],[32.323,34.911],[32.331,34.924],[32.312,34.95],[32.31,34.961],[32.31,34.983],[32.306,35.001],[32.284,35.032],[32.276,35.048],[32.272,35.073],[32.275,35.091],[32.287,35.097],[32.307,35.086],[32.337,35.059],[32.353,35.048],[32.372,35.041],[32.414,35.043],[32.45,35.059],[32.48,35.083],[32.502,35.109],[32.517,35.14],[32.528,35.157],[32.543,35.166],[32.545,35.171],[32.548,35.176],[32.554,35.178],[32.559,35.177],[32.566,35.173],[32.565,35.169],[32.593,35.144],[32.598,35.141],[32.604,35.136],[32.606,35.133],[32.607,35.126],[32.611,35.121],[32.618,35.115],[32.624,35.113],[32.628,35.11],[32.63,35.106],[32.629,35.074],[32.628,35.071],[32.625,35.069],[32.621,35.068],[32.616,35.068],[32.612,35.067],[32.61,35.065],[32.608,35.062],[32.609,35.057],[32.613,35.051],[32.621,35.039],[32.627,35.033],[32.642,35.025],[32.647,35.021],[32.668,34.991],[32.671,34.986],[32.673,34.982],[32.673,34.973],[32.673,34.969],[32.675,34.962],[32.676,34.958],[32.675,34.954],[32.674,34.949],[32.673,34.946],[32.669,34.941],[32.669,34.938],[32.668,34.932],[32.668,34.93],[32.665,34.929],[32.659,34.929],[32.658,34.928],[32.657,34.926],[32.658,34.923],[32.661,34.913],[32.663,34.909],[32.667,34.906],[32.672,34.901],[32.683,34.894],[32.686,34.891],[32.688,34.89],[32.691,34.889],[32.693,34.893],[32.692,34.896],[32.693,34.898],[32.696,34.899],[32.702,34.897],[32.702,34.895],[32.702,34.893],[32.701,34.891],[32.705,34.89],[32.712,34.892],[32.724,34.897],[32.729,34.902],[32.732,34.906],[32.734,34.909],[32.739,34.91],[32.743,34.911],[32.767,34.903],[32.772,34.889],[32.783,34.876],[32.783,34.872],[32.782,34.868],[32.777,34.863],[32.773,34.86],[32.768,34.858],[32.762,34.854],[32.757,34.847],[32.743,34.821],[32.738,34.817],[32.734,34.815],[32.73,34.814],[32.726,34.813],[32.721,34.808],[32.705,34.789],[32.702,34.782],[32.701,34.777],[32.703,34.775],[32.706,34.773],[32.71,34.77],[32.712,34.764],[32.711,34.752],[32.709,34.746],[32.706,34.741],[32.696,34.736],[32.687,34.729],[32.68,34.725],[32.676,34.721],[32.659,34.712],[32.651,34.704],[32.645,34.7],[32.639,34.697],[32.637,34.694],[32.638,34.692],[32.64,34.689],[32.642,34.686],[32.642,34.682],[32.642,34.661]]]}}]}
