{"type":"FeatureCollection","features":[{"type":"Feature","id":"CZ-JC","properties":{"id":"CZ-JC","countryCode":"CZ","isoSubdivision":"CZ-JC","name":"South Bohemian","name_en":"South Bohemian","name_ko":"남보헤미아","type":"Region","labelLongitude":14.56,"labelLatitude":49.073,"minZoom":7.7},"geometry":{"type":"Polygon","coordinates":[[[13.59,48.945],[13.573,48.951],[13.556,48.96],[13.539,48.967],[13.522,48.969],[13.522,48.97],[13.521,48.979],[13.543,49.009],[13.566,49.033],[13.588,49.047],[13.592,49.053],[13.595,49.058],[13.596,49.067],[13.595,49.072],[13.593,49.078],[13.592,49.089],[13.596,49.103],[13.609,49.125],[13.62,49.133],[13.629,49.136],[13.641,49.134],[13.645,49.135],[13.649,49.136],[13.659,49.145],[13.685,49.178],[13.694,49.184],[13.705,49.188],[13.713,49.19],[13.718,49.193],[13.719,49.197],[13.714,49.204],[13.7,49.213],[13.696,49.217],[13.695,49.221],[13.696,49.224],[13.699,49.228],[13.706,49.234],[13.709,49.238],[13.71,49.241],[13.71,49.247],[13.704,49.257],[13.704,49.26],[13.705,49.264],[13.71,49.268],[13.714,49.27],[13.732,49.277],[13.736,49.28],[13.74,49.284],[13.744,49.291],[13.749,49.304],[13.758,49.316],[13.778,49.337],[13.782,49.344],[13.783,49.35],[13.782,49.359],[13.776,49.376],[13.774,49.389],[13.776,49.404],[13.783,49.423],[13.784,49.428],[13.782,49.437],[13.77,49.469],[13.756,49.489],[13.814,49.512],[13.819,49.512],[13.824,49.511],[13.836,49.506],[13.841,49.505],[13.862,49.504],[13.869,49.503],[13.874,49.502],[13.88,49.499],[13.898,49.493],[13.907,49.492],[13.917,49.493],[13.935,49.499],[13.94,49.501],[13.948,49.504],[13.996,49.514],[13.999,49.515],[14.002,49.517],[14.007,49.529],[14.012,49.536],[14.019,49.539],[14.03,49.543],[14.037,49.544],[14.045,49.543],[14.055,49.54],[14.067,49.534],[14.073,49.532],[14.091,49.531],[14.104,49.528],[14.131,49.528],[14.189,49.533],[14.209,49.538],[14.227,49.55],[14.231,49.552],[14.236,49.553],[14.248,49.554],[14.264,49.554],[14.276,49.552],[14.281,49.55],[14.284,49.548],[14.288,49.541],[14.29,49.539],[14.292,49.537],[14.295,49.537],[14.299,49.536],[14.304,49.535],[14.307,49.533],[14.312,49.53],[14.314,49.528],[14.318,49.523],[14.321,49.522],[14.323,49.521],[14.326,49.52],[14.331,49.519],[14.338,49.518],[14.348,49.519],[14.395,49.536],[14.403,49.537],[14.416,49.538],[14.429,49.535],[14.446,49.529],[14.465,49.528],[14.576,49.531],[14.588,49.529],[14.587,49.526],[14.587,49.523],[14.587,49.52],[14.589,49.519],[14.613,49.517],[14.623,49.518],[14.634,49.52],[14.658,49.529],[14.673,49.539],[14.68,49.541],[14.712,49.546],[14.726,49.553],[14.732,49.559],[14.735,49.585],[14.735,49.589],[14.736,49.591],[14.743,49.6],[14.747,49.604],[14.75,49.606],[14.762,49.613],[14.767,49.614],[14.771,49.613],[14.776,49.61],[14.783,49.603],[14.787,49.601],[14.792,49.599],[14.821,49.593],[14.827,49.59],[14.83,49.586],[14.831,49.584],[14.831,49.577],[14.837,49.575],[14.847,49.575],[14.866,49.577],[14.878,49.574],[14.885,49.571],[14.887,49.568],[14.89,49.562],[14.893,49.557],[14.897,49.553],[14.902,49.549],[14.907,49.547],[14.912,49.545],[14.916,49.544],[14.923,49.544],[14.937,49.534],[14.941,49.53],[14.944,49.525],[14.944,49.521],[14.94,49.516],[14.933,49.513],[14.898,49.506],[14.892,49.503],[14.89,49.499],[14.904,49.465],[14.907,49.448],[14.906,49.43],[14.885,49.376],[14.885,49.368],[14.888,49.362],[14.892,49.358],[14.908,49.347],[14.911,49.344],[14.913,49.341],[14.914,49.336],[14.911,49.315],[14.913,49.311],[14.915,49.305],[14.921,49.3],[14.958,49.277],[14.977,49.27],[14.986,49.269],[14.995,49.271],[15.012,49.281],[15.021,49.283],[15.03,49.283],[15.046,49.277],[15.068,49.262],[15.097,49.25],[15.123,49.227],[15.163,49.21],[15.168,49.21],[15.172,49.212],[15.19,49.229],[15.195,49.232],[15.2,49.233],[15.206,49.232],[15.259,49.214],[15.263,49.213],[15.274,49.211],[15.323,49.207],[15.332,49.205],[15.337,49.199],[15.341,49.191],[15.343,49.175],[15.346,49.166],[15.349,49.159],[15.354,49.155],[15.402,49.125],[15.405,49.124],[15.41,49.123],[15.427,49.125],[15.431,49.125],[15.478,49.12],[15.493,49.12],[15.531,49.13],[15.536,49.131],[15.539,49.131],[15.543,49.129],[15.59,49.098],[15.597,49.093],[15.598,49.089],[15.598,49.087],[15.596,49.084],[15.591,49.082],[15.586,49.08],[15.58,49.079],[15.557,49.078],[15.552,49.078],[15.55,49.076],[15.547,49.072],[15.546,49.068],[15.545,49.06],[15.543,49.056],[15.538,49.049],[15.505,49.024],[15.501,49.02],[15.499,49.016],[15.497,49.008],[15.498,49.004],[15.499,49.001],[15.501,49.001],[15.504,49.001],[15.508,49],[15.511,48.997],[15.515,48.991],[15.519,48.986],[15.525,48.983],[15.532,48.982],[15.548,48.981],[15.56,48.98],[15.564,48.978],[15.569,48.975],[15.574,48.97],[15.575,48.966],[15.575,48.962],[15.57,48.952],[15.555,48.926],[15.551,48.918],[15.547,48.912],[15.544,48.903],[15.521,48.908],[15.472,48.937],[15.45,48.945],[15.406,48.955],[15.358,48.971],[15.336,48.975],[15.289,48.975],[15.284,48.978],[15.28,48.983],[15.275,48.987],[15.267,48.987],[15.263,48.983],[15.26,48.969],[15.257,48.964],[15.243,48.953],[15.238,48.951],[15.162,48.937],[15.142,48.937],[15.149,48.952],[15.149,48.965],[15.145,48.979],[15.137,48.993],[15.06,48.997],[15.004,49.01],[14.982,49.008],[14.979,49.006],[14.977,49.003],[14.977,48.998],[14.978,48.993],[14.965,48.972],[14.964,48.943],[14.968,48.913],[14.968,48.885],[14.947,48.822],[14.94,48.81],[14.938,48.803],[14.94,48.797],[14.944,48.789],[14.949,48.782],[14.951,48.78],[14.94,48.763],[14.919,48.762],[14.868,48.776],[14.815,48.78],[14.8,48.777],[14.794,48.767],[14.79,48.755],[14.78,48.743],[14.775,48.724],[14.723,48.693],[14.704,48.673],[14.7,48.646],[14.701,48.616],[14.696,48.59],[14.691,48.587],[14.676,48.576],[14.659,48.577],[14.651,48.583],[14.645,48.593],[14.635,48.602],[14.628,48.603],[14.613,48.6],[14.605,48.6],[14.602,48.605],[14.602,48.611],[14.601,48.618],[14.594,48.621],[14.579,48.62],[14.549,48.611],[14.534,48.609],[14.522,48.611],[14.482,48.624],[14.458,48.643],[14.444,48.637],[14.421,48.597],[14.405,48.586],[14.353,48.571],[14.333,48.561],[14.325,48.559],[14.316,48.558],[14.217,48.581],[14.075,48.592],[14.041,48.601],[14.032,48.606],[14.015,48.62],[14.011,48.626],[14.006,48.64],[14.008,48.642],[14.014,48.644],[14.02,48.653],[14.023,48.655],[14.028,48.654],[14.033,48.655],[14.035,48.661],[14.032,48.667],[14.026,48.67],[14.019,48.672],[14.014,48.675],[14.008,48.683],[13.991,48.7],[13.982,48.706],[13.915,48.731],[13.893,48.743],[13.875,48.752],[13.856,48.759],[13.816,48.766],[13.796,48.78],[13.748,48.843],[13.725,48.867],[13.711,48.872],[13.673,48.876],[13.654,48.882],[13.637,48.893],[13.622,48.909],[13.611,48.927],[13.609,48.946],[13.59,48.945]]]}},{"type":"Feature","id":"CZ-JM","properties":{"id":"CZ-JM","countryCode":"CZ","isoSubdivision":"CZ-JM","name":"South Moravian","name_en":"South Moravian","name_ko":"남모라바","type":"Region","labelLongitude":16.748,"labelLatitude":49.105,"minZoom":7.7},"geometry":{"type":"Polygon","coordinates":[[[15.704,48.855],[15.681,48.858],[15.604,48.887],[15.544,48.903],[15.547,48.912],[15.551,48.918],[15.555,48.926],[15.57,48.952],[15.575,48.962],[15.575,48.966],[15.578,48.971],[15.582,48.974],[15.588,48.975],[15.595,48.974],[15.602,48.971],[15.609,48.967],[15.628,48.947],[15.634,48.945],[15.64,48.946],[15.645,48.949],[15.653,48.957],[15.656,48.961],[15.663,48.967],[15.674,48.972],[15.68,48.974],[15.687,48.974],[15.694,48.972],[15.724,48.955],[15.73,48.954],[15.736,48.954],[15.808,48.998],[15.836,49.006],[15.871,49.004],[15.877,49.006],[15.882,49.01],[15.887,49.024],[15.891,49.029],[15.896,49.032],[15.901,49.033],[15.911,49.033],[15.915,49.032],[15.941,49.053],[15.948,49.056],[15.955,49.056],[15.96,49.051],[15.964,49.045],[15.969,49.041],[15.974,49.038],[15.986,49.036],[16.016,49.037],[16.023,49.038],[16.04,49.047],[16.045,49.048],[16.114,49.04],[16.124,49.043],[16.133,49.047],[16.153,49.068],[16.157,49.07],[16.228,49.085],[16.249,49.102],[16.256,49.112],[16.258,49.117],[16.258,49.122],[16.256,49.126],[16.248,49.139],[16.247,49.143],[16.247,49.148],[16.249,49.153],[16.253,49.158],[16.267,49.169],[16.272,49.175],[16.274,49.18],[16.274,49.185],[16.272,49.189],[16.268,49.193],[16.263,49.195],[16.25,49.2],[16.246,49.203],[16.244,49.208],[16.243,49.214],[16.244,49.226],[16.249,49.239],[16.252,49.243],[16.257,49.246],[16.278,49.252],[16.281,49.254],[16.283,49.257],[16.282,49.261],[16.28,49.264],[16.273,49.273],[16.271,49.276],[16.271,49.281],[16.271,49.287],[16.273,49.294],[16.277,49.301],[16.288,49.312],[16.3,49.32],[16.388,49.355],[16.392,49.36],[16.393,49.366],[16.391,49.373],[16.373,49.411],[16.371,49.418],[16.368,49.464],[16.362,49.477],[16.363,49.482],[16.366,49.485],[16.37,49.487],[16.4,49.491],[16.404,49.494],[16.407,49.499],[16.409,49.504],[16.409,49.511],[16.408,49.517],[16.406,49.522],[16.403,49.527],[16.375,49.545],[16.372,49.549],[16.373,49.555],[16.385,49.575],[16.39,49.586],[16.392,49.597],[16.416,49.596],[16.535,49.603],[16.543,49.608],[16.547,49.612],[16.549,49.619],[16.55,49.627],[16.555,49.632],[16.564,49.634],[16.617,49.634],[16.625,49.633],[16.637,49.629],[16.646,49.628],[16.68,49.63],[16.705,49.628],[16.728,49.623],[16.778,49.606],[16.789,49.608],[16.785,49.596],[16.78,49.588],[16.775,49.584],[16.769,49.583],[16.737,49.588],[16.73,49.587],[16.727,49.583],[16.728,49.577],[16.732,49.57],[16.746,49.555],[16.788,49.527],[16.791,49.524],[16.791,49.522],[16.788,49.519],[16.777,49.516],[16.775,49.512],[16.775,49.506],[16.778,49.499],[16.802,49.458],[16.804,49.452],[16.804,49.447],[16.802,49.442],[16.799,49.437],[16.794,49.432],[16.788,49.428],[16.783,49.423],[16.784,49.419],[16.789,49.414],[16.843,49.386],[16.852,49.386],[16.861,49.389],[16.87,49.393],[16.886,49.405],[16.898,49.417],[16.9,49.422],[16.901,49.428],[16.9,49.435],[16.898,49.441],[16.891,49.453],[16.873,49.473],[16.871,49.476],[16.87,49.481],[16.872,49.493],[16.876,49.499],[16.882,49.502],[16.891,49.504],[16.901,49.503],[16.94,49.493],[16.947,49.489],[16.959,49.476],[16.968,49.461],[16.975,49.437],[16.978,49.432],[16.983,49.427],[17.03,49.398],[17.033,49.394],[17.035,49.39],[17.037,49.384],[17.035,49.365],[17.038,49.359],[17.044,49.355],[17.06,49.349],[17.098,49.341],[17.118,49.328],[17.137,49.31],[17.149,49.292],[17.151,49.285],[17.15,49.279],[17.149,49.274],[17.148,49.272],[17.147,49.27],[17.131,49.251],[17.129,49.244],[17.13,49.236],[17.138,49.216],[17.152,49.198],[17.165,49.186],[17.191,49.176],[17.195,49.173],[17.199,49.169],[17.201,49.164],[17.202,49.158],[17.2,49.153],[17.196,49.149],[17.183,49.143],[17.156,49.136],[17.151,49.133],[17.125,49.109],[17.11,49.1],[17.108,49.095],[17.111,49.091],[17.116,49.086],[17.123,49.082],[17.142,49.077],[17.159,49.077],[17.208,49.088],[17.215,49.088],[17.221,49.085],[17.224,49.08],[17.224,49.073],[17.222,49.042],[17.224,49.037],[17.228,49.033],[17.233,49.03],[17.274,49.017],[17.336,49.009],[17.341,49.007],[17.345,49.003],[17.35,48.992],[17.353,48.978],[17.389,48.968],[17.406,48.959],[17.417,48.948],[17.424,48.945],[17.431,48.945],[17.439,48.946],[17.471,48.957],[17.5,48.954],[17.523,48.948],[17.527,48.946],[17.533,48.939],[17.538,48.929],[17.542,48.919],[17.545,48.914],[17.551,48.911],[17.605,48.901],[17.615,48.896],[17.622,48.89],[17.629,48.882],[17.639,48.864],[17.646,48.842],[17.535,48.813],[17.498,48.817],[17.468,48.838],[17.453,48.843],[17.43,48.838],[17.411,48.83],[17.392,48.822],[17.374,48.82],[17.26,48.858],[17.212,48.866],[17.167,48.86],[17.114,48.834],[17.105,48.825],[17.099,48.806],[17.084,48.794],[17.05,48.774],[17.025,48.746],[16.975,48.65],[16.963,48.636],[16.948,48.623],[16.945,48.604],[16.911,48.631],[16.897,48.697],[16.873,48.719],[16.857,48.72],[16.818,48.711],[16.799,48.709],[16.781,48.714],[16.744,48.73],[16.729,48.733],[16.691,48.732],[16.675,48.734],[16.662,48.74],[16.655,48.752],[16.651,48.766],[16.643,48.778],[16.624,48.783],[16.606,48.785],[16.546,48.796],[16.529,48.804],[16.52,48.806],[16.51,48.805],[16.492,48.8],[16.482,48.799],[16.453,48.802],[16.436,48.795],[16.385,48.737],[16.374,48.73],[16.358,48.727],[16.353,48.728],[16.339,48.736],[16.319,48.734],[16.318,48.733],[16.178,48.747],[16.085,48.743],[16.032,48.758],[15.932,48.806],[15.93,48.811],[15.93,48.818],[15.925,48.823],[15.908,48.82],[15.907,48.83],[15.9,48.835],[15.888,48.835],[15.876,48.833],[15.886,48.842],[15.878,48.842],[15.87,48.844],[15.859,48.849],[15.84,48.85],[15.833,48.852],[15.828,48.857],[15.824,48.869],[15.818,48.872],[15.788,48.872],[15.779,48.871],[15.744,48.858],[15.727,48.855],[15.704,48.855]]]}},{"type":"Feature","id":"CZ-KA","properties":{"id":"CZ-KA","countryCode":"CZ","isoSubdivision":"CZ-KA","name":"Karlovy Vary","name_en":"Karlovy Vary","name_ko":"카를로비바리","type":"Region","labelLongitude":12.729,"labelLatitude":50.16,"minZoom":7.7},"geometry":{"type":"Polygon","coordinates":[[[12.953,50.404],[12.961,50.409],[12.994,50.391],[13.011,50.385],[13.077,50.38],[13.083,50.377],[13.088,50.373],[13.094,50.365],[13.102,50.358],[13.114,50.352],[13.139,50.349],[13.17,50.348],[13.198,50.343],[13.213,50.338],[13.22,50.333],[13.225,50.327],[13.23,50.314],[13.231,50.305],[13.232,50.296],[13.23,50.275],[13.23,50.268],[13.232,50.256],[13.235,50.243],[13.237,50.233],[13.236,50.228],[13.234,50.223],[13.232,50.218],[13.235,50.21],[13.242,50.2],[13.263,50.179],[13.27,50.168],[13.272,50.16],[13.269,50.156],[13.265,50.151],[13.25,50.139],[13.248,50.137],[13.247,50.133],[13.25,50.13],[13.257,50.125],[13.278,50.115],[13.29,50.108],[13.28,50.106],[13.273,50.101],[13.269,50.096],[13.268,50.09],[13.269,50.084],[13.272,50.078],[13.279,50.067],[13.279,50.063],[13.275,50.061],[13.217,50.052],[13.213,50.05],[13.211,50.046],[13.211,50.041],[13.212,50.035],[13.223,50.005],[13.222,50.002],[13.218,49.999],[13.213,49.997],[13.199,49.997],[13.186,50],[13.15,50.026],[13.081,50.035],[13.077,50.035],[13.066,50.03],[13.045,50.015],[12.952,49.983],[12.947,49.98],[12.943,49.975],[12.929,49.932],[12.925,49.929],[12.919,49.928],[12.903,49.93],[12.876,49.939],[12.873,49.939],[12.865,49.938],[12.84,49.926],[12.836,49.925],[12.832,49.926],[12.829,49.927],[12.807,49.942],[12.729,49.943],[12.722,49.94],[12.692,49.918],[12.688,49.916],[12.673,49.914],[12.656,49.915],[12.626,49.922],[12.621,49.922],[12.615,49.921],[12.588,49.903],[12.581,49.9],[12.571,49.899],[12.524,49.905],[12.518,49.912],[12.504,49.916],[12.463,49.931],[12.464,49.942],[12.471,49.956],[12.468,49.97],[12.451,49.981],[12.415,49.983],[12.399,49.993],[12.398,49.993],[12.247,50.045],[12.244,50.051],[12.243,50.06],[12.241,50.071],[12.233,50.081],[12.218,50.089],[12.202,50.095],[12.188,50.103],[12.179,50.118],[12.179,50.133],[12.186,50.156],[12.183,50.171],[12.175,50.183],[12.164,50.194],[12.139,50.211],[12.09,50.231],[12.08,50.243],[12.092,50.255],[12.102,50.259],[12.109,50.264],[12.111,50.277],[12.107,50.291],[12.099,50.3],[12.076,50.315],[12.101,50.314],[12.149,50.312],[12.169,50.303],[12.174,50.294],[12.174,50.277],[12.178,50.269],[12.189,50.262],[12.204,50.26],[12.233,50.259],[12.24,50.257],[12.243,50.253],[12.242,50.248],[12.238,50.243],[12.236,50.243],[12.235,50.242],[12.234,50.242],[12.233,50.241],[12.23,50.239],[12.229,50.237],[12.23,50.235],[12.233,50.232],[12.25,50.221],[12.254,50.217],[12.258,50.211],[12.26,50.205],[12.261,50.2],[12.273,50.172],[12.283,50.162],[12.3,50.161],[12.314,50.167],[12.314,50.176],[12.309,50.187],[12.306,50.199],[12.309,50.217],[12.314,50.226],[12.334,50.243],[12.336,50.259],[12.345,50.266],[12.356,50.271],[12.367,50.279],[12.398,50.315],[12.409,50.322],[12.438,50.333],[12.45,50.339],[12.454,50.341],[12.463,50.34],[12.467,50.342],[12.469,50.346],[12.468,50.349],[12.467,50.353],[12.467,50.355],[12.47,50.359],[12.472,50.364],[12.475,50.369],[12.483,50.374],[12.51,50.389],[12.551,50.396],[12.625,50.4],[12.679,50.394],[12.692,50.395],[12.703,50.402],[12.725,50.423],[12.738,50.432],[12.754,50.435],[12.77,50.436],[12.788,50.434],[12.794,50.436],[12.808,50.442],[12.817,50.443],[12.826,50.441],[12.918,50.405],[12.953,50.404]]]}},{"type":"Feature","id":"CZ-KR","properties":{"id":"CZ-KR","countryCode":"CZ","isoSubdivision":"CZ-KR","name":"Hradec Králové","name_en":"Hradec Králové","name_ko":"흐라데츠크랄로베","type":"Region","labelLongitude":15.884,"labelLatitude":50.372,"minZoom":7.7},"geometry":{"type":"Polygon","coordinates":[[[15.522,50.782],[15.642,50.756],[15.653,50.751],[15.666,50.738],[15.674,50.734],[15.684,50.731],[15.767,50.744],[15.792,50.743],[15.794,50.736],[15.798,50.73],[15.848,50.675],[15.855,50.674],[15.882,50.674],[15.941,50.688],[15.958,50.687],[15.971,50.679],[15.984,50.663],[15.993,50.649],[15.999,50.636],[15.996,50.624],[15.982,50.616],[15.98,50.613],[15.979,50.61],[15.98,50.607],[15.982,50.604],[16.024,50.609],[16.086,50.647],[16.129,50.644],[16.16,50.629],[16.175,50.624],[16.192,50.627],[16.205,50.636],[16.212,50.649],[16.219,50.659],[16.232,50.661],[16.268,50.66],[16.301,50.655],[16.332,50.644],[16.417,50.587],[16.426,50.568],[16.394,50.559],[16.398,50.552],[16.398,50.548],[16.396,50.546],[16.391,50.54],[16.39,50.535],[16.388,50.527],[16.388,50.521],[16.391,50.522],[16.383,50.514],[16.362,50.501],[16.353,50.493],[16.335,50.49],[16.303,50.496],[16.288,50.493],[16.28,50.48],[16.265,50.472],[16.247,50.465],[16.232,50.457],[16.227,50.455],[16.217,50.452],[16.211,50.451],[16.216,50.44],[16.218,50.437],[16.198,50.44],[16.19,50.424],[16.2,50.406],[16.232,50.403],[16.245,50.377],[16.25,50.371],[16.263,50.364],[16.27,50.365],[16.277,50.369],[16.289,50.372],[16.334,50.372],[16.344,50.37],[16.351,50.361],[16.351,50.351],[16.351,50.342],[16.353,50.334],[16.371,50.318],[16.416,50.308],[16.438,50.298],[16.452,50.285],[16.478,50.255],[16.492,50.243],[16.505,50.228],[16.535,50.208],[16.546,50.189],[16.557,50.155],[16.567,50.142],[16.584,50.127],[16.478,50.149],[16.473,50.148],[16.469,50.144],[16.466,50.139],[16.464,50.133],[16.463,50.12],[16.46,50.114],[16.455,50.109],[16.351,50.077],[16.345,50.074],[16.341,50.07],[16.337,50.057],[16.333,50.052],[16.328,50.047],[16.322,50.043],[16.308,50.039],[16.219,50.033],[16.203,50.029],[16.189,50.022],[16.15,50.044],[16.138,50.046],[16.134,50.048],[16.118,50.061],[16.114,50.063],[16.105,50.064],[16.094,50.068],[16.082,50.075],[16.072,50.084],[16.065,50.094],[16.059,50.097],[16.001,50.105],[15.993,50.109],[15.989,50.114],[15.987,50.12],[15.987,50.141],[15.985,50.146],[15.983,50.15],[15.977,50.152],[15.949,50.158],[15.908,50.157],[15.898,50.154],[15.834,50.114],[15.829,50.112],[15.825,50.113],[15.82,50.116],[15.817,50.119],[15.81,50.13],[15.8,50.156],[15.796,50.159],[15.791,50.16],[15.742,50.151],[15.735,50.146],[15.731,50.14],[15.717,50.113],[15.713,50.109],[15.706,50.107],[15.698,50.108],[15.658,50.126],[15.653,50.127],[15.622,50.121],[15.607,50.122],[15.568,50.134],[15.553,50.133],[15.534,50.127],[15.473,50.09],[15.465,50.09],[15.41,50.103],[15.413,50.106],[15.412,50.11],[15.408,50.116],[15.395,50.129],[15.386,50.136],[15.378,50.141],[15.362,50.148],[15.359,50.151],[15.357,50.154],[15.357,50.159],[15.359,50.162],[15.375,50.173],[15.379,50.177],[15.38,50.179],[15.381,50.181],[15.382,50.184],[15.38,50.189],[15.365,50.218],[15.36,50.228],[15.358,50.236],[15.358,50.25],[15.354,50.267],[15.351,50.273],[15.347,50.279],[15.339,50.283],[15.332,50.285],[15.325,50.286],[15.284,50.282],[15.256,50.286],[15.247,50.287],[15.229,50.284],[15.222,50.284],[15.214,50.284],[15.209,50.286],[15.203,50.289],[15.2,50.295],[15.197,50.306],[15.193,50.314],[15.185,50.323],[15.179,50.327],[15.172,50.329],[15.123,50.343],[15.12,50.344],[15.118,50.348],[15.117,50.355],[15.118,50.369],[15.121,50.377],[15.124,50.382],[15.133,50.39],[15.141,50.4],[15.145,50.406],[15.146,50.414],[15.145,50.424],[15.136,50.464],[15.134,50.468],[15.131,50.473],[15.124,50.481],[15.121,50.487],[15.122,50.495],[15.125,50.5],[15.126,50.5],[15.13,50.504],[15.133,50.507],[15.133,50.511],[15.131,50.515],[15.133,50.516],[15.136,50.517],[15.14,50.518],[15.146,50.518],[15.162,50.514],[15.217,50.485],[15.224,50.482],[15.23,50.482],[15.236,50.484],[15.28,50.515],[15.289,50.517],[15.3,50.517],[15.344,50.506],[15.363,50.496],[15.393,50.471],[15.408,50.463],[15.416,50.461],[15.423,50.46],[15.429,50.462],[15.435,50.465],[15.439,50.47],[15.442,50.477],[15.445,50.509],[15.448,50.514],[15.454,50.517],[15.48,50.523],[15.485,50.523],[15.491,50.523],[15.497,50.521],[15.518,50.506],[15.529,50.502],[15.606,50.493],[15.613,50.494],[15.619,50.497],[15.623,50.502],[15.624,50.509],[15.624,50.515],[15.622,50.521],[15.587,50.571],[15.586,50.575],[15.586,50.579],[15.593,50.6],[15.593,50.606],[15.593,50.612],[15.591,50.618],[15.588,50.624],[15.584,50.629],[15.571,50.639],[15.567,50.647],[15.564,50.656],[15.563,50.675],[15.564,50.684],[15.566,50.692],[15.57,50.697],[15.572,50.703],[15.57,50.711],[15.536,50.754],[15.522,50.782]]]}},{"type":"Feature","id":"CZ-LI","properties":{"id":"CZ-LI","countryCode":"CZ","isoSubdivision":"CZ-LI","name":"Liberec","name_en":"Liberec","name_ko":"리베레츠","type":"Region","labelLongitude":14.919,"labelLatitude":50.734,"minZoom":7.7},"geometry":{"type":"Polygon","coordinates":[[[14.608,50.853],[14.613,50.846],[14.648,50.839],[14.662,50.834],[14.7,50.816],[14.738,50.811],[14.759,50.81],[14.775,50.813],[14.785,50.82],[14.795,50.832],[14.81,50.858],[14.832,50.858],[14.868,50.864],[14.982,50.859],[14.984,50.868],[14.983,50.902],[14.982,50.905],[14.981,50.909],[14.982,50.915],[14.985,50.918],[14.995,50.925],[14.998,50.93],[14.997,50.959],[14.981,50.973],[14.965,50.981],[14.961,50.993],[14.966,50.996],[14.971,50.999],[14.976,51],[14.982,51.001],[14.997,51.008],[15.001,51.012],[15.004,51.021],[15.023,51.01],[15.074,51.003],[15.082,50.993],[15.094,50.985],[15.108,50.981],[15.119,50.982],[15.123,50.993],[15.132,51.006],[15.144,51.012],[15.156,51.008],[15.161,50.993],[15.17,50.978],[15.227,50.977],[15.254,50.969],[15.27,50.953],[15.269,50.943],[15.26,50.932],[15.253,50.914],[15.256,50.9],[15.265,50.882],[15.277,50.866],[15.288,50.855],[15.308,50.845],[15.326,50.84],[15.341,50.832],[15.353,50.813],[15.353,50.803],[15.351,50.793],[15.35,50.784],[15.356,50.775],[15.369,50.773],[15.37,50.773],[15.381,50.78],[15.391,50.791],[15.4,50.798],[15.442,50.8],[15.522,50.782],[15.536,50.754],[15.57,50.711],[15.572,50.703],[15.57,50.697],[15.566,50.692],[15.564,50.684],[15.563,50.675],[15.564,50.656],[15.567,50.647],[15.571,50.639],[15.584,50.629],[15.588,50.624],[15.591,50.618],[15.593,50.612],[15.593,50.606],[15.593,50.6],[15.586,50.579],[15.586,50.575],[15.587,50.571],[15.622,50.521],[15.624,50.515],[15.624,50.509],[15.623,50.502],[15.619,50.497],[15.613,50.494],[15.606,50.493],[15.529,50.502],[15.518,50.506],[15.497,50.521],[15.491,50.523],[15.485,50.523],[15.48,50.523],[15.454,50.517],[15.448,50.514],[15.445,50.509],[15.442,50.477],[15.439,50.47],[15.435,50.465],[15.429,50.462],[15.423,50.46],[15.416,50.461],[15.408,50.463],[15.393,50.471],[15.363,50.496],[15.344,50.506],[15.3,50.517],[15.289,50.517],[15.28,50.515],[15.236,50.484],[15.23,50.482],[15.224,50.482],[15.217,50.485],[15.162,50.514],[15.146,50.518],[15.14,50.518],[15.136,50.517],[15.133,50.516],[15.131,50.515],[15.095,50.535],[15.085,50.547],[15.076,50.577],[15.05,50.572],[15.043,50.573],[15.036,50.575],[15.03,50.579],[15.011,50.593],[15.006,50.595],[15,50.596],[14.976,50.595],[14.968,50.598],[14.959,50.603],[14.952,50.603],[14.944,50.602],[14.933,50.599],[14.925,50.599],[14.915,50.602],[14.909,50.602],[14.905,50.6],[14.901,50.598],[14.889,50.586],[14.883,50.581],[14.863,50.57],[14.856,50.565],[14.852,50.561],[14.842,50.548],[14.835,50.542],[14.826,50.538],[14.81,50.532],[14.802,50.528],[14.79,50.521],[14.781,50.517],[14.745,50.506],[14.704,50.488],[14.615,50.474],[14.597,50.473],[14.589,50.473],[14.586,50.475],[14.583,50.477],[14.582,50.48],[14.582,50.483],[14.581,50.486],[14.58,50.488],[14.578,50.491],[14.576,50.494],[14.572,50.495],[14.565,50.496],[14.55,50.495],[14.531,50.497],[14.486,50.496],[14.475,50.494],[14.468,50.517],[14.396,50.555],[14.34,50.667],[14.339,50.673],[14.34,50.677],[14.344,50.681],[14.348,50.684],[14.363,50.69],[14.381,50.72],[14.385,50.724],[14.408,50.737],[14.41,50.74],[14.412,50.745],[14.411,50.755],[14.413,50.76],[14.417,50.765],[14.421,50.769],[14.434,50.776],[14.445,50.817],[14.449,50.822],[14.454,50.823],[14.461,50.821],[14.514,50.787],[14.522,50.786],[14.53,50.787],[14.538,50.79],[14.544,50.795],[14.549,50.802],[14.553,50.809],[14.554,50.825],[14.556,50.83],[14.56,50.833],[14.564,50.835],[14.594,50.837],[14.599,50.839],[14.602,50.841],[14.605,50.845],[14.608,50.85],[14.608,50.853]]]}},{"type":"Feature","id":"CZ-MO","properties":{"id":"CZ-MO","countryCode":"CZ","isoSubdivision":"CZ-MO","name":"Moravian-Silesian","name_en":"Moravian-Silesian","name_ko":"모라바슬레스코","type":"Region","labelLongitude":17.968,"labelLatitude":49.769,"minZoom":7.7},"geometry":{"type":"Polygon","coordinates":[[[17.691,50.315],[17.708,50.311],[17.714,50.308],[17.732,50.292],[17.734,50.289],[17.735,50.287],[17.734,50.284],[17.732,50.281],[17.721,50.262],[17.719,50.253],[17.721,50.243],[17.732,50.236],[17.748,50.218],[17.738,50.202],[17.718,50.191],[17.675,50.175],[17.649,50.168],[17.6,50.167],[17.589,50.163],[17.582,50.153],[17.584,50.146],[17.633,50.106],[17.648,50.102],[17.658,50.103],[17.667,50.106],[17.678,50.108],[17.691,50.105],[17.718,50.097],[17.732,50.095],[17.732,50.094],[17.733,50.093],[17.732,50.092],[17.732,50.091],[17.723,50.086],[17.719,50.081],[17.723,50.075],[17.732,50.069],[17.743,50.061],[17.75,50.05],[17.755,50.037],[17.763,50.025],[17.775,50.015],[17.839,49.974],[17.876,49.969],[17.912,49.976],[17.942,49.993],[17.96,49.996],[18,49.997],[18.032,50.003],[18.037,50.007],[18.036,50.017],[18.029,50.024],[18.02,50.024],[18.012,50.023],[18.007,50.024],[18.002,50.047],[18.019,50.044],[18.033,50.042],[18.092,50.017],[18.085,49.999],[18.098,49.989],[18.162,49.981],[18.177,49.976],[18.209,49.958],[18.221,49.955],[18.244,49.952],[18.256,49.946],[18.26,49.941],[18.267,49.925],[18.273,49.918],[18.292,49.908],[18.307,49.91],[18.335,49.925],[18.334,49.927],[18.332,49.928],[18.331,49.929],[18.329,49.929],[18.369,49.932],[18.407,49.923],[18.482,49.897],[18.505,49.897],[18.544,49.913],[18.559,49.907],[18.565,49.889],[18.563,49.874],[18.567,49.861],[18.594,49.852],[18.566,49.832],[18.567,49.805],[18.584,49.774],[18.608,49.743],[18.618,49.714],[18.624,49.706],[18.637,49.7],[18.668,49.699],[18.682,49.696],[18.695,49.689],[18.715,49.674],[18.728,49.669],[18.742,49.67],[18.758,49.674],[18.773,49.676],[18.788,49.669],[18.793,49.661],[18.799,49.626],[18.804,49.617],[18.816,49.599],[18.82,49.59],[18.835,49.548],[18.837,49.527],[18.833,49.51],[18.792,49.51],[18.774,49.505],[18.733,49.48],[18.705,49.479],[18.676,49.485],[18.643,49.496],[18.636,49.497],[18.629,49.496],[18.6,49.486],[18.556,49.49],[18.536,49.482],[18.53,49.473],[18.528,49.455],[18.523,49.446],[18.515,49.441],[18.482,49.429],[18.439,49.395],[18.417,49.385],[18.388,49.39],[18.387,49.378],[18.376,49.378],[18.37,49.379],[18.365,49.382],[18.36,49.386],[18.356,49.392],[18.348,49.421],[18.345,49.427],[18.341,49.433],[18.335,49.438],[18.318,49.445],[18.311,49.45],[18.29,49.479],[18.285,49.482],[18.268,49.487],[18.192,49.486],[18.185,49.487],[18.155,49.501],[18.146,49.504],[17.99,49.494],[17.981,49.495],[17.974,49.497],[17.969,49.501],[17.965,49.506],[17.961,49.518],[17.958,49.523],[17.954,49.525],[17.95,49.527],[17.906,49.527],[17.891,49.539],[17.879,49.545],[17.85,49.55],[17.848,49.562],[17.844,49.574],[17.84,49.579],[17.829,49.588],[17.803,49.603],[17.771,49.612],[17.764,49.617],[17.734,49.659],[17.728,49.662],[17.723,49.663],[17.717,49.662],[17.698,49.654],[17.692,49.653],[17.685,49.655],[17.68,49.659],[17.677,49.664],[17.676,49.671],[17.681,49.704],[17.68,49.708],[17.675,49.712],[17.652,49.725],[17.623,49.734],[17.587,49.727],[17.561,49.728],[17.525,49.744],[17.519,49.744],[17.514,49.742],[17.49,49.731],[17.44,49.733],[17.425,49.737],[17.348,49.791],[17.341,49.793],[17.334,49.792],[17.306,49.782],[17.299,49.782],[17.213,49.81],[17.209,49.813],[17.207,49.816],[17.204,49.827],[17.202,49.829],[17.198,49.831],[17.154,49.835],[17.141,49.839],[17.137,49.842],[17.134,49.846],[17.134,49.85],[17.138,49.886],[17.14,49.892],[17.143,49.897],[17.172,49.921],[17.174,49.925],[17.173,49.928],[17.171,49.93],[17.143,49.948],[17.139,49.953],[17.137,49.959],[17.136,49.964],[17.137,49.97],[17.14,49.975],[17.144,49.98],[17.203,50.034],[17.206,50.038],[17.208,50.043],[17.207,50.048],[17.196,50.077],[17.197,50.082],[17.199,50.085],[17.209,50.096],[17.212,50.101],[17.214,50.117],[17.217,50.123],[17.222,50.13],[17.235,50.139],[17.316,50.168],[17.339,50.19],[17.344,50.193],[17.35,50.194],[17.356,50.194],[17.37,50.188],[17.377,50.188],[17.384,50.19],[17.39,50.194],[17.396,50.199],[17.4,50.204],[17.403,50.209],[17.404,50.214],[17.388,50.273],[17.41,50.261],[17.419,50.243],[17.424,50.241],[17.43,50.24],[17.435,50.241],[17.44,50.243],[17.469,50.266],[17.517,50.268],[17.606,50.258],[17.63,50.262],[17.647,50.271],[17.676,50.297],[17.682,50.306],[17.685,50.312],[17.691,50.315]]]}},{"type":"Feature","id":"CZ-OL","properties":{"id":"CZ-OL","countryCode":"CZ","isoSubdivision":"CZ-OL","name":"Olomouc","name_en":"Olomouc","name_ko":"올로모우츠","type":"Region","labelLongitude":17.124,"labelLatitude":49.693,"minZoom":7.7},"geometry":{"type":"Polygon","coordinates":[[[16.944,50.42],[16.959,50.415],[16.982,50.416],[17.085,50.398],[17.096,50.394],[17.119,50.381],[17.132,50.377],[17.145,50.377],[17.176,50.381],[17.188,50.378],[17.185,50.376],[17.189,50.365],[17.195,50.352],[17.201,50.343],[17.211,50.336],[17.246,50.322],[17.27,50.318],[17.317,50.319],[17.337,50.313],[17.319,50.308],[17.322,50.304],[17.325,50.301],[17.33,50.298],[17.334,50.296],[17.333,50.283],[17.335,50.27],[17.342,50.26],[17.355,50.253],[17.366,50.272],[17.388,50.273],[17.404,50.214],[17.403,50.209],[17.4,50.204],[17.396,50.199],[17.39,50.194],[17.384,50.19],[17.377,50.188],[17.37,50.188],[17.356,50.194],[17.35,50.194],[17.344,50.193],[17.339,50.19],[17.316,50.168],[17.235,50.139],[17.222,50.13],[17.217,50.123],[17.214,50.117],[17.212,50.101],[17.209,50.096],[17.199,50.085],[17.197,50.082],[17.196,50.077],[17.207,50.048],[17.208,50.043],[17.206,50.038],[17.203,50.034],[17.144,49.98],[17.14,49.975],[17.137,49.97],[17.136,49.964],[17.137,49.959],[17.139,49.953],[17.143,49.948],[17.171,49.93],[17.173,49.928],[17.174,49.925],[17.172,49.921],[17.143,49.897],[17.14,49.892],[17.138,49.886],[17.134,49.85],[17.134,49.846],[17.137,49.842],[17.141,49.839],[17.154,49.835],[17.198,49.831],[17.202,49.829],[17.204,49.827],[17.207,49.816],[17.209,49.813],[17.213,49.81],[17.299,49.782],[17.306,49.782],[17.334,49.792],[17.341,49.793],[17.348,49.791],[17.425,49.737],[17.44,49.733],[17.49,49.731],[17.514,49.742],[17.519,49.744],[17.525,49.744],[17.561,49.728],[17.587,49.727],[17.623,49.734],[17.652,49.725],[17.675,49.712],[17.68,49.708],[17.681,49.704],[17.676,49.671],[17.677,49.664],[17.68,49.659],[17.685,49.655],[17.692,49.653],[17.698,49.654],[17.717,49.662],[17.723,49.663],[17.728,49.662],[17.734,49.659],[17.764,49.617],[17.771,49.612],[17.803,49.603],[17.829,49.588],[17.84,49.579],[17.844,49.574],[17.848,49.562],[17.85,49.55],[17.879,49.545],[17.891,49.539],[17.906,49.527],[17.891,49.501],[17.877,49.499],[17.864,49.5],[17.859,49.501],[17.849,49.509],[17.844,49.511],[17.839,49.512],[17.834,49.512],[17.828,49.511],[17.824,49.508],[17.82,49.504],[17.813,49.491],[17.809,49.487],[17.805,49.485],[17.793,49.48],[17.789,49.478],[17.786,49.475],[17.784,49.47],[17.783,49.465],[17.783,49.456],[17.786,49.445],[17.759,49.437],[17.672,49.449],[17.656,49.449],[17.645,49.448],[17.633,49.445],[17.629,49.443],[17.627,49.44],[17.629,49.436],[17.635,49.426],[17.638,49.419],[17.638,49.415],[17.636,49.411],[17.632,49.408],[17.628,49.405],[17.622,49.403],[17.615,49.403],[17.544,49.404],[17.536,49.402],[17.519,49.398],[17.506,49.393],[17.501,49.39],[17.496,49.387],[17.492,49.381],[17.487,49.374],[17.482,49.369],[17.476,49.365],[17.47,49.364],[17.46,49.365],[17.417,49.378],[17.408,49.379],[17.387,49.387],[17.362,49.4],[17.347,49.404],[17.34,49.405],[17.322,49.406],[17.317,49.39],[17.316,49.373],[17.324,49.356],[17.333,49.349],[17.324,49.337],[17.32,49.334],[17.286,49.313],[17.281,49.308],[17.276,49.303],[17.273,49.301],[17.268,49.299],[17.265,49.299],[17.261,49.3],[17.196,49.299],[17.189,49.297],[17.184,49.294],[17.181,49.288],[17.177,49.27],[17.175,49.265],[17.17,49.262],[17.165,49.261],[17.161,49.261],[17.157,49.263],[17.154,49.266],[17.149,49.271],[17.148,49.272],[17.149,49.274],[17.15,49.279],[17.151,49.285],[17.149,49.292],[17.137,49.31],[17.118,49.328],[17.098,49.341],[17.06,49.349],[17.044,49.355],[17.038,49.359],[17.035,49.365],[17.037,49.384],[17.035,49.39],[17.033,49.394],[17.03,49.398],[16.983,49.427],[16.978,49.432],[16.975,49.437],[16.968,49.461],[16.959,49.476],[16.947,49.489],[16.94,49.493],[16.901,49.503],[16.891,49.504],[16.882,49.502],[16.876,49.499],[16.872,49.493],[16.87,49.481],[16.871,49.476],[16.873,49.473],[16.891,49.453],[16.898,49.441],[16.9,49.435],[16.901,49.428],[16.9,49.422],[16.898,49.417],[16.886,49.405],[16.87,49.393],[16.861,49.389],[16.852,49.386],[16.843,49.386],[16.789,49.414],[16.784,49.419],[16.783,49.423],[16.788,49.428],[16.794,49.432],[16.799,49.437],[16.802,49.442],[16.804,49.447],[16.804,49.452],[16.802,49.458],[16.778,49.499],[16.775,49.506],[16.775,49.512],[16.777,49.516],[16.788,49.519],[16.791,49.522],[16.791,49.524],[16.788,49.527],[16.746,49.555],[16.732,49.57],[16.728,49.577],[16.727,49.583],[16.73,49.587],[16.737,49.588],[16.769,49.583],[16.775,49.584],[16.78,49.588],[16.785,49.596],[16.789,49.608],[16.799,49.615],[16.805,49.63],[16.808,49.65],[16.81,49.657],[16.841,49.678],[16.834,49.712],[16.824,49.721],[16.808,49.725],[16.803,49.729],[16.799,49.735],[16.796,49.751],[16.755,49.806],[16.739,49.821],[16.733,49.829],[16.731,49.837],[16.733,49.845],[16.749,49.867],[16.747,49.891],[16.748,49.918],[16.747,49.925],[16.74,49.944],[16.736,49.966],[16.734,49.971],[16.731,49.975],[16.724,49.983],[16.724,49.988],[16.727,49.993],[16.744,50],[16.748,50.001],[16.754,50.003],[16.774,50.017],[16.805,50.032],[16.809,50.034],[16.812,50.038],[16.814,50.042],[16.813,50.049],[16.812,50.052],[16.805,50.063],[16.807,50.073],[16.832,50.128],[16.87,50.19],[16.881,50.192],[16.89,50.197],[16.907,50.212],[16.919,50.217],[16.928,50.217],[16.946,50.213],[16.955,50.213],[16.958,50.217],[16.958,50.229],[16.96,50.232],[16.975,50.232],[16.981,50.229],[16.986,50.223],[16.996,50.213],[17.008,50.21],[17.015,50.218],[17.013,50.232],[17,50.243],[16.998,50.267],[16.988,50.285],[16.97,50.298],[16.945,50.307],[16.927,50.319],[16.917,50.339],[16.909,50.36],[16.898,50.378],[16.866,50.408],[16.866,50.422],[16.893,50.433],[16.916,50.431],[16.944,50.42]]]}},{"type":"Feature","id":"CZ-PA","properties":{"id":"CZ-PA","countryCode":"CZ","isoSubdivision":"CZ-PA","name":"Pardubice","name_en":"Pardubice","name_ko":"파르두비체","type":"Region","labelLongitude":16.278,"labelLatitude":49.865,"minZoom":7.7},"geometry":{"type":"Polygon","coordinates":[[[16.584,50.127],[16.619,50.107],[16.661,50.093],[16.701,50.095],[16.732,50.122],[16.754,50.132],[16.766,50.143],[16.777,50.157],[16.795,50.174],[16.818,50.187],[16.838,50.189],[16.858,50.188],[16.87,50.19],[16.832,50.128],[16.807,50.073],[16.805,50.063],[16.812,50.052],[16.813,50.049],[16.814,50.042],[16.812,50.038],[16.809,50.034],[16.805,50.032],[16.774,50.017],[16.754,50.003],[16.748,50.001],[16.744,50],[16.727,49.993],[16.724,49.988],[16.724,49.983],[16.731,49.975],[16.734,49.971],[16.736,49.966],[16.74,49.944],[16.747,49.925],[16.748,49.918],[16.747,49.891],[16.749,49.867],[16.733,49.845],[16.731,49.837],[16.733,49.829],[16.739,49.821],[16.755,49.806],[16.796,49.751],[16.799,49.735],[16.803,49.729],[16.808,49.725],[16.824,49.721],[16.834,49.712],[16.841,49.678],[16.81,49.657],[16.808,49.65],[16.805,49.63],[16.799,49.615],[16.789,49.608],[16.778,49.606],[16.728,49.623],[16.705,49.628],[16.68,49.63],[16.646,49.628],[16.637,49.629],[16.625,49.633],[16.617,49.634],[16.564,49.634],[16.555,49.632],[16.55,49.627],[16.549,49.619],[16.547,49.612],[16.543,49.608],[16.535,49.603],[16.416,49.596],[16.392,49.597],[16.372,49.601],[16.331,49.618],[16.296,49.627],[16.286,49.632],[16.279,49.638],[16.272,49.646],[16.263,49.653],[16.25,49.66],[16.213,49.676],[16.183,49.686],[16.163,49.69],[16.137,49.691],[16.116,49.689],[16.105,49.691],[16.097,49.694],[16.094,49.699],[16.091,49.704],[16.084,49.709],[16.073,49.713],[16.05,49.716],[16.035,49.719],[16.021,49.724],[16.007,49.73],[16.001,49.732],[15.995,49.732],[15.99,49.729],[15.988,49.727],[15.983,49.718],[15.98,49.715],[15.975,49.712],[15.964,49.71],[15.959,49.708],[15.944,49.697],[15.934,49.693],[15.925,49.692],[15.914,49.694],[15.9,49.698],[15.891,49.698],[15.884,49.695],[15.859,49.7],[15.843,49.721],[15.829,49.732],[15.813,49.741],[15.787,49.749],[15.783,49.752],[15.781,49.755],[15.779,49.765],[15.775,49.77],[15.77,49.774],[15.756,49.779],[15.729,49.783],[15.683,49.806],[15.666,49.809],[15.59,49.806],[15.584,49.808],[15.573,49.815],[15.548,49.842],[15.528,49.857],[15.485,49.876],[15.486,49.884],[15.49,49.894],[15.495,49.903],[15.498,49.909],[15.499,49.915],[15.499,49.935],[15.5,49.939],[15.501,49.942],[15.504,49.946],[15.506,49.951],[15.505,49.955],[15.495,49.963],[15.488,49.967],[15.481,49.969],[15.468,49.971],[15.46,49.975],[15.423,49.998],[15.416,50.001],[15.382,50.008],[15.359,50.017],[15.352,50.022],[15.34,50.034],[15.345,50.039],[15.364,50.045],[15.384,50.048],[15.393,50.048],[15.395,50.058],[15.395,50.062],[15.395,50.065],[15.391,50.076],[15.39,50.081],[15.39,50.087],[15.391,50.09],[15.393,50.093],[15.41,50.103],[15.465,50.09],[15.473,50.09],[15.534,50.127],[15.553,50.133],[15.568,50.134],[15.607,50.122],[15.622,50.121],[15.653,50.127],[15.658,50.126],[15.698,50.108],[15.706,50.107],[15.713,50.109],[15.717,50.113],[15.731,50.14],[15.735,50.146],[15.742,50.151],[15.791,50.16],[15.796,50.159],[15.8,50.156],[15.81,50.13],[15.817,50.119],[15.82,50.116],[15.825,50.113],[15.829,50.112],[15.834,50.114],[15.898,50.154],[15.908,50.157],[15.949,50.158],[15.977,50.152],[15.983,50.15],[15.985,50.146],[15.987,50.141],[15.987,50.12],[15.989,50.114],[15.993,50.109],[16.001,50.105],[16.059,50.097],[16.065,50.094],[16.072,50.084],[16.082,50.075],[16.094,50.068],[16.105,50.064],[16.114,50.063],[16.118,50.061],[16.134,50.048],[16.138,50.046],[16.15,50.044],[16.189,50.022],[16.203,50.029],[16.219,50.033],[16.308,50.039],[16.322,50.043],[16.328,50.047],[16.333,50.052],[16.337,50.057],[16.341,50.07],[16.345,50.074],[16.351,50.077],[16.455,50.109],[16.46,50.114],[16.463,50.12],[16.464,50.133],[16.466,50.139],[16.469,50.144],[16.473,50.148],[16.478,50.149],[16.584,50.127]]]}},{"type":"Feature","id":"CZ-PL","properties":{"id":"CZ-PL","countryCode":"CZ","isoSubdivision":"CZ-PL","name":"Plzeň-","name_en":"Plzeň-","name_ko":"플젠스키","type":"Region","labelLongitude":13.2,"labelLatitude":49.646,"minZoom":7.7},"geometry":{"type":"Polygon","coordinates":[[[12.483,49.827],[12.49,49.843],[12.513,49.87],[12.521,49.886],[12.524,49.905],[12.571,49.899],[12.581,49.9],[12.588,49.903],[12.615,49.921],[12.621,49.922],[12.626,49.922],[12.656,49.915],[12.673,49.914],[12.688,49.916],[12.692,49.918],[12.722,49.94],[12.729,49.943],[12.807,49.942],[12.829,49.927],[12.832,49.926],[12.836,49.925],[12.84,49.926],[12.865,49.938],[12.873,49.939],[12.876,49.939],[12.903,49.93],[12.919,49.928],[12.925,49.929],[12.929,49.932],[12.943,49.975],[12.947,49.98],[12.952,49.983],[13.045,50.015],[13.066,50.03],[13.077,50.035],[13.081,50.035],[13.15,50.026],[13.186,50],[13.199,49.997],[13.213,49.997],[13.218,49.999],[13.222,50.002],[13.223,50.005],[13.212,50.035],[13.211,50.041],[13.211,50.046],[13.213,50.05],[13.217,50.052],[13.275,50.061],[13.279,50.063],[13.279,50.067],[13.272,50.078],[13.269,50.084],[13.268,50.09],[13.269,50.096],[13.273,50.101],[13.28,50.106],[13.29,50.108],[13.299,50.102],[13.31,50.092],[13.316,50.088],[13.326,50.085],[13.371,50.077],[13.384,50.077],[13.406,50.087],[13.418,50.067],[13.418,50.063],[13.418,50.057],[13.415,50.053],[13.411,50.047],[13.406,50.04],[13.407,50.036],[13.41,50.033],[13.415,50.031],[13.421,50.031],[13.426,50.031],[13.437,50.033],[13.457,50.04],[13.462,50.041],[13.468,50.041],[13.481,50.038],[13.498,50.035],[13.515,50.03],[13.563,50],[13.572,49.996],[13.59,49.995],[13.604,49.995],[13.618,49.998],[13.626,49.998],[13.636,49.997],[13.654,49.994],[13.665,49.991],[13.674,49.987],[13.7,49.969],[13.707,49.965],[13.713,49.963],[13.746,49.956],[13.752,49.954],[13.757,49.95],[13.757,49.946],[13.76,49.941],[13.812,49.924],[13.821,49.918],[13.825,49.913],[13.824,49.91],[13.823,49.905],[13.823,49.901],[13.825,49.896],[13.835,49.875],[13.836,49.87],[13.835,49.867],[13.834,49.865],[13.832,49.864],[13.828,49.863],[13.822,49.862],[13.813,49.862],[13.81,49.861],[13.807,49.86],[13.805,49.856],[13.805,49.852],[13.806,49.843],[13.805,49.839],[13.804,49.835],[13.803,49.832],[13.791,49.812],[13.791,49.809],[13.791,49.805],[13.794,49.799],[13.795,49.795],[13.794,49.79],[13.784,49.768],[13.782,49.763],[13.782,49.757],[13.784,49.754],[13.786,49.753],[13.796,49.751],[13.803,49.748],[13.805,49.744],[13.806,49.741],[13.802,49.737],[13.777,49.719],[13.77,49.714],[13.762,49.712],[13.733,49.707],[13.72,49.704],[13.709,49.699],[13.697,49.692],[13.692,49.687],[13.689,49.682],[13.693,49.678],[13.708,49.669],[13.71,49.666],[13.708,49.663],[13.7,49.66],[13.694,49.656],[13.694,49.655],[13.707,49.65],[13.709,49.647],[13.71,49.645],[13.708,49.642],[13.702,49.639],[13.7,49.636],[13.699,49.633],[13.701,49.625],[13.705,49.621],[13.71,49.619],[13.715,49.618],[13.72,49.617],[13.726,49.613],[13.735,49.607],[13.739,49.602],[13.741,49.596],[13.74,49.571],[13.741,49.561],[13.744,49.555],[13.747,49.551],[13.757,49.543],[13.764,49.536],[13.766,49.529],[13.766,49.523],[13.763,49.514],[13.759,49.505],[13.757,49.502],[13.755,49.499],[13.756,49.489],[13.77,49.469],[13.782,49.437],[13.784,49.428],[13.783,49.423],[13.776,49.404],[13.774,49.389],[13.776,49.376],[13.782,49.359],[13.783,49.35],[13.782,49.344],[13.778,49.337],[13.758,49.316],[13.749,49.304],[13.744,49.291],[13.74,49.284],[13.736,49.28],[13.732,49.277],[13.714,49.27],[13.71,49.268],[13.705,49.264],[13.704,49.26],[13.704,49.257],[13.71,49.247],[13.71,49.241],[13.709,49.238],[13.706,49.234],[13.699,49.228],[13.696,49.224],[13.695,49.221],[13.696,49.217],[13.7,49.213],[13.714,49.204],[13.719,49.197],[13.718,49.193],[13.713,49.19],[13.705,49.188],[13.694,49.184],[13.685,49.178],[13.659,49.145],[13.649,49.136],[13.645,49.135],[13.641,49.134],[13.629,49.136],[13.62,49.133],[13.609,49.125],[13.596,49.103],[13.592,49.089],[13.593,49.078],[13.595,49.072],[13.596,49.067],[13.595,49.058],[13.592,49.053],[13.588,49.047],[13.566,49.033],[13.543,49.009],[13.521,48.979],[13.522,48.97],[13.522,48.969],[13.516,48.97],[13.502,48.966],[13.493,48.955],[13.482,48.938],[13.459,48.945],[13.427,48.96],[13.399,48.978],[13.384,48.993],[13.384,49.021],[13.372,49.039],[13.33,49.067],[13.3,49.094],[13.287,49.101],[13.267,49.106],[13.207,49.107],[13.179,49.118],[13.163,49.135],[13.149,49.155],[13.056,49.238],[13.043,49.243],[13.011,49.268],[13.007,49.277],[13.005,49.287],[13,49.295],[12.982,49.3],[12.954,49.319],[12.94,49.327],[12.923,49.333],[12.885,49.34],[12.871,49.337],[12.875,49.324],[12.857,49.322],[12.798,49.328],[12.778,49.333],[12.762,49.343],[12.729,49.391],[12.709,49.405],[12.663,49.419],[12.644,49.429],[12.632,49.444],[12.627,49.46],[12.624,49.493],[12.623,49.51],[12.616,49.514],[12.605,49.513],[12.594,49.515],[12.583,49.522],[12.575,49.53],[12.569,49.539],[12.562,49.551],[12.558,49.563],[12.554,49.585],[12.547,49.596],[12.536,49.603],[12.512,49.612],[12.502,49.62],[12.503,49.622],[12.507,49.63],[12.499,49.633],[12.497,49.634],[12.505,49.646],[12.505,49.659],[12.496,49.67],[12.483,49.675],[12.449,49.685],[12.434,49.692],[12.42,49.7],[12.399,49.719],[12.389,49.732],[12.384,49.743],[12.395,49.758],[12.437,49.769],[12.453,49.78],[12.456,49.796],[12.456,49.817],[12.462,49.831],[12.483,49.827]]]}},{"type":"Feature","id":"CZ-PR","properties":{"id":"CZ-PR","countryCode":"CZ","isoSubdivision":"CZ-PR","name":"Prague","name_en":"Prague","name_ko":"프라하","type":"Region","labelLongitude":14.449,"labelLatitude":50.065,"minZoom":7.7},"geometry":{"type":"Polygon","coordinates":[[[14.527,50.169],[14.538,50.167],[14.544,50.166],[14.549,50.163],[14.565,50.153],[14.578,50.147],[14.582,50.143],[14.585,50.137],[14.59,50.133],[14.597,50.13],[14.621,50.126],[14.624,50.125],[14.628,50.123],[14.635,50.117],[14.638,50.112],[14.642,50.109],[14.645,50.107],[14.652,50.105],[14.673,50.1],[14.679,50.097],[14.683,50.092],[14.684,50.087],[14.684,50.084],[14.682,50.081],[14.673,50.073],[14.645,50.056],[14.642,50.053],[14.641,50.051],[14.641,50.049],[14.642,50.047],[14.647,50.041],[14.648,50.039],[14.648,50.035],[14.647,50.026],[14.648,50.024],[14.65,50.02],[14.652,50.017],[14.654,50.014],[14.654,50.012],[14.654,50.009],[14.653,50.007],[14.647,50],[14.624,49.996],[14.588,49.995],[14.571,49.996],[14.557,49.999],[14.554,50],[14.552,50],[14.549,50.001],[14.542,50],[14.533,49.998],[14.516,49.99],[14.502,49.981],[14.496,49.979],[14.451,49.97],[14.379,49.962],[14.337,49.951],[14.326,49.952],[14.323,49.953],[14.32,49.954],[14.319,49.955],[14.317,49.957],[14.316,49.963],[14.317,49.969],[14.317,49.972],[14.318,49.979],[14.317,49.983],[14.314,49.987],[14.287,50.007],[14.285,50.009],[14.283,50.012],[14.281,50.015],[14.275,50.027],[14.271,50.034],[14.268,50.036],[14.243,50.056],[14.24,50.059],[14.239,50.062],[14.239,50.064],[14.24,50.067],[14.242,50.069],[14.244,50.073],[14.246,50.076],[14.246,50.078],[14.245,50.08],[14.242,50.082],[14.236,50.085],[14.218,50.092],[14.215,50.095],[14.213,50.096],[14.213,50.098],[14.214,50.099],[14.215,50.101],[14.217,50.103],[14.236,50.11],[14.283,50.121],[14.289,50.121],[14.295,50.121],[14.32,50.114],[14.325,50.114],[14.331,50.115],[14.336,50.117],[14.34,50.12],[14.342,50.122],[14.341,50.125],[14.34,50.129],[14.339,50.133],[14.34,50.136],[14.342,50.139],[14.346,50.141],[14.478,50.165],[14.527,50.169]]]}},{"type":"Feature","id":"CZ-ST","properties":{"id":"CZ-ST","countryCode":"CZ","isoSubdivision":"CZ-ST","name":"Central Bohemian","name_en":"Central Bohemian","name_ko":"중앙보헤미아","type":"Region","labelLongitude":14.456,"labelLatitude":49.75,"minZoom":7.7},"geometry":{"type":"Polygon","coordinates":[[[15.485,49.876],[15.484,49.867],[15.485,49.857],[15.483,49.852],[15.479,49.849],[15.469,49.847],[15.466,49.845],[15.458,49.84],[15.455,49.837],[15.452,49.833],[15.45,49.831],[15.448,49.827],[15.446,49.823],[15.443,49.807],[15.44,49.802],[15.436,49.799],[15.431,49.795],[15.422,49.793],[15.409,49.791],[15.392,49.792],[15.387,49.793],[15.383,49.793],[15.377,49.791],[15.341,49.771],[15.307,49.762],[15.266,49.746],[15.262,49.745],[15.257,49.745],[15.252,49.746],[15.243,49.75],[15.24,49.751],[15.237,49.752],[15.234,49.752],[15.227,49.751],[15.226,49.75],[15.222,49.748],[15.218,49.744],[15.214,49.741],[15.212,49.737],[15.211,49.732],[15.209,49.728],[15.207,49.724],[15.199,49.717],[15.176,49.7],[15.171,49.694],[15.168,49.687],[15.17,49.683],[15.174,49.678],[15.219,49.657],[15.225,49.652],[15.23,49.647],[15.235,49.638],[15.238,49.627],[15.235,49.615],[15.157,49.591],[15.129,49.588],[15.112,49.592],[15.083,49.593],[15.059,49.588],[15.046,49.587],[15.035,49.587],[14.995,49.599],[14.987,49.599],[14.982,49.598],[14.98,49.597],[14.978,49.594],[14.977,49.592],[14.978,49.589],[14.98,49.583],[14.979,49.581],[14.976,49.579],[14.957,49.572],[14.954,49.57],[14.951,49.566],[14.95,49.563],[14.947,49.558],[14.943,49.553],[14.931,49.547],[14.923,49.544],[14.916,49.544],[14.912,49.545],[14.907,49.547],[14.902,49.549],[14.897,49.553],[14.893,49.557],[14.89,49.562],[14.887,49.568],[14.885,49.571],[14.878,49.574],[14.866,49.577],[14.847,49.575],[14.837,49.575],[14.831,49.577],[14.831,49.584],[14.83,49.586],[14.827,49.59],[14.821,49.593],[14.792,49.599],[14.787,49.601],[14.783,49.603],[14.776,49.61],[14.771,49.613],[14.767,49.614],[14.762,49.613],[14.75,49.606],[14.747,49.604],[14.743,49.6],[14.736,49.591],[14.735,49.589],[14.735,49.585],[14.732,49.559],[14.726,49.553],[14.712,49.546],[14.68,49.541],[14.673,49.539],[14.658,49.529],[14.634,49.52],[14.623,49.518],[14.613,49.517],[14.589,49.519],[14.587,49.52],[14.587,49.523],[14.587,49.526],[14.588,49.529],[14.576,49.531],[14.465,49.528],[14.446,49.529],[14.429,49.535],[14.416,49.538],[14.403,49.537],[14.395,49.536],[14.348,49.519],[14.338,49.518],[14.331,49.519],[14.326,49.52],[14.323,49.521],[14.321,49.522],[14.318,49.523],[14.314,49.528],[14.312,49.53],[14.307,49.533],[14.304,49.535],[14.299,49.536],[14.295,49.537],[14.292,49.537],[14.29,49.539],[14.288,49.541],[14.284,49.548],[14.281,49.55],[14.276,49.552],[14.264,49.554],[14.248,49.554],[14.236,49.553],[14.231,49.552],[14.227,49.55],[14.209,49.538],[14.189,49.533],[14.131,49.528],[14.104,49.528],[14.091,49.531],[14.073,49.532],[14.067,49.534],[14.055,49.54],[14.045,49.543],[14.037,49.544],[14.03,49.543],[14.019,49.539],[14.012,49.536],[14.007,49.529],[14.002,49.517],[13.999,49.515],[13.996,49.514],[13.948,49.504],[13.94,49.501],[13.935,49.499],[13.917,49.493],[13.907,49.492],[13.898,49.493],[13.88,49.499],[13.874,49.502],[13.869,49.503],[13.862,49.504],[13.841,49.505],[13.836,49.506],[13.824,49.511],[13.819,49.512],[13.814,49.512],[13.756,49.489],[13.755,49.499],[13.757,49.502],[13.759,49.505],[13.763,49.514],[13.766,49.523],[13.766,49.529],[13.764,49.536],[13.757,49.543],[13.747,49.551],[13.744,49.555],[13.741,49.561],[13.74,49.571],[13.741,49.596],[13.739,49.602],[13.735,49.607],[13.726,49.613],[13.72,49.617],[13.715,49.618],[13.71,49.619],[13.705,49.621],[13.701,49.625],[13.699,49.633],[13.7,49.636],[13.702,49.639],[13.708,49.642],[13.71,49.645],[13.709,49.647],[13.707,49.65],[13.694,49.655],[13.694,49.656],[13.7,49.66],[13.708,49.663],[13.71,49.666],[13.708,49.669],[13.693,49.678],[13.689,49.682],[13.692,49.687],[13.697,49.692],[13.709,49.699],[13.72,49.704],[13.733,49.707],[13.762,49.712],[13.77,49.714],[13.777,49.719],[13.802,49.737],[13.806,49.741],[13.805,49.744],[13.803,49.748],[13.796,49.751],[13.786,49.753],[13.784,49.754],[13.782,49.757],[13.782,49.763],[13.784,49.768],[13.794,49.79],[13.795,49.795],[13.794,49.799],[13.791,49.805],[13.791,49.809],[13.791,49.812],[13.803,49.832],[13.804,49.835],[13.805,49.839],[13.806,49.843],[13.805,49.852],[13.805,49.856],[13.807,49.86],[13.81,49.861],[13.813,49.862],[13.822,49.862],[13.828,49.863],[13.832,49.864],[13.834,49.865],[13.835,49.867],[13.836,49.87],[13.835,49.875],[13.825,49.896],[13.823,49.901],[13.823,49.905],[13.824,49.91],[13.825,49.913],[13.821,49.918],[13.812,49.924],[13.76,49.941],[13.757,49.946],[13.757,49.95],[13.752,49.954],[13.746,49.956],[13.713,49.963],[13.707,49.965],[13.7,49.969],[13.674,49.987],[13.665,49.991],[13.654,49.994],[13.636,49.997],[13.626,49.998],[13.618,49.998],[13.604,49.995],[13.59,49.995],[13.572,49.996],[13.563,50],[13.515,50.03],[13.498,50.035],[13.481,50.038],[13.468,50.041],[13.462,50.041],[13.457,50.04],[13.437,50.033],[13.426,50.031],[13.421,50.031],[13.415,50.031],[13.41,50.033],[13.407,50.036],[13.406,50.04],[13.411,50.047],[13.415,50.053],[13.418,50.057],[13.418,50.063],[13.418,50.067],[13.406,50.087],[13.416,50.097],[13.429,50.101],[13.444,50.104],[13.454,50.107],[13.48,50.123],[13.491,50.129],[13.501,50.136],[13.511,50.151],[13.524,50.165],[13.53,50.169],[13.541,50.173],[13.6,50.189],[13.642,50.207],[13.652,50.213],[13.655,50.215],[13.663,50.218],[13.671,50.219],[13.682,50.219],[13.688,50.218],[13.694,50.216],[13.699,50.215],[13.704,50.215],[13.721,50.218],[13.816,50.25],[13.825,50.251],[13.833,50.248],[13.84,50.245],[13.847,50.243],[13.854,50.244],[13.865,50.25],[13.871,50.254],[13.877,50.259],[13.883,50.264],[13.943,50.287],[13.952,50.29],[13.966,50.289],[13.974,50.29],[13.982,50.292],[13.988,50.298],[13.99,50.301],[13.99,50.305],[13.989,50.311],[13.989,50.315],[13.99,50.321],[13.992,50.325],[13.996,50.329],[14.004,50.332],[14.016,50.334],[14.058,50.335],[14.083,50.331],[14.106,50.326],[14.126,50.324],[14.205,50.333],[14.238,50.325],[14.243,50.326],[14.25,50.328],[14.272,50.34],[14.28,50.343],[14.288,50.345],[14.316,50.346],[14.333,50.345],[14.341,50.347],[14.349,50.349],[14.357,50.357],[14.36,50.362],[14.363,50.366],[14.364,50.368],[14.369,50.373],[14.37,50.375],[14.37,50.379],[14.369,50.383],[14.365,50.39],[14.364,50.393],[14.364,50.396],[14.365,50.403],[14.364,50.407],[14.363,50.41],[14.358,50.419],[14.357,50.423],[14.358,50.427],[14.362,50.429],[14.37,50.428],[14.383,50.424],[14.388,50.424],[14.393,50.423],[14.399,50.425],[14.408,50.428],[14.437,50.444],[14.445,50.446],[14.452,50.449],[14.453,50.451],[14.455,50.454],[14.458,50.462],[14.459,50.47],[14.459,50.476],[14.46,50.48],[14.462,50.484],[14.465,50.488],[14.468,50.491],[14.475,50.494],[14.486,50.496],[14.531,50.497],[14.55,50.495],[14.565,50.496],[14.572,50.495],[14.576,50.494],[14.578,50.491],[14.58,50.488],[14.581,50.486],[14.582,50.483],[14.582,50.48],[14.583,50.477],[14.586,50.475],[14.589,50.473],[14.597,50.473],[14.615,50.474],[14.704,50.488],[14.745,50.506],[14.781,50.517],[14.79,50.521],[14.802,50.528],[14.81,50.532],[14.826,50.538],[14.835,50.542],[14.842,50.548],[14.852,50.561],[14.856,50.565],[14.863,50.57],[14.883,50.581],[14.889,50.586],[14.901,50.598],[14.905,50.6],[14.909,50.602],[14.915,50.602],[14.925,50.599],[14.933,50.599],[14.944,50.602],[14.952,50.603],[14.959,50.603],[14.968,50.598],[14.976,50.595],[15,50.596],[15.006,50.595],[15.011,50.593],[15.03,50.579],[15.036,50.575],[15.043,50.573],[15.05,50.572],[15.076,50.577],[15.085,50.547],[15.095,50.535],[15.131,50.515],[15.133,50.511],[15.133,50.507],[15.13,50.504],[15.126,50.5],[15.125,50.5],[15.122,50.495],[15.121,50.487],[15.124,50.481],[15.131,50.473],[15.134,50.468],[15.136,50.464],[15.145,50.424],[15.146,50.414],[15.145,50.406],[15.141,50.4],[15.133,50.39],[15.124,50.382],[15.121,50.377],[15.118,50.369],[15.117,50.355],[15.118,50.348],[15.12,50.344],[15.123,50.343],[15.172,50.329],[15.179,50.327],[15.185,50.323],[15.193,50.314],[15.197,50.306],[15.2,50.295],[15.203,50.289],[15.209,50.286],[15.214,50.284],[15.222,50.284],[15.229,50.284],[15.247,50.287],[15.256,50.286],[15.284,50.282],[15.325,50.286],[15.332,50.285],[15.339,50.283],[15.347,50.279],[15.351,50.273],[15.354,50.267],[15.358,50.25],[15.358,50.236],[15.36,50.228],[15.365,50.218],[15.38,50.189],[15.382,50.184],[15.381,50.181],[15.38,50.179],[15.379,50.177],[15.375,50.173],[15.359,50.162],[15.357,50.159],[15.357,50.154],[15.359,50.151],[15.362,50.148],[15.378,50.141],[15.386,50.136],[15.395,50.129],[15.408,50.116],[15.412,50.11],[15.413,50.106],[15.41,50.103],[15.393,50.093],[15.391,50.09],[15.39,50.087],[15.39,50.081],[15.391,50.076],[15.395,50.065],[15.395,50.062],[15.395,50.058],[15.393,50.048],[15.384,50.048],[15.364,50.045],[15.345,50.039],[15.34,50.034],[15.352,50.022],[15.359,50.017],[15.382,50.008],[15.416,50.001],[15.423,49.998],[15.46,49.975],[15.468,49.971],[15.481,49.969],[15.488,49.967],[15.495,49.963],[15.505,49.955],[15.506,49.951],[15.504,49.946],[15.501,49.942],[15.5,49.939],[15.499,49.935],[15.499,49.915],[15.498,49.909],[15.495,49.903],[15.49,49.894],[15.486,49.884],[15.485,49.876]],[[14.588,49.995],[14.624,49.996],[14.647,50],[14.653,50.007],[14.654,50.009],[14.654,50.012],[14.654,50.014],[14.652,50.017],[14.65,50.02],[14.648,50.024],[14.647,50.026],[14.648,50.035],[14.648,50.039],[14.647,50.041],[14.642,50.047],[14.641,50.049],[14.641,50.051],[14.642,50.053],[14.645,50.056],[14.673,50.073],[14.682,50.081],[14.684,50.084],[14.684,50.087],[14.683,50.092],[14.679,50.097],[14.673,50.1],[14.652,50.105],[14.645,50.107],[14.642,50.109],[14.638,50.112],[14.635,50.117],[14.628,50.123],[14.624,50.125],[14.621,50.126],[14.597,50.13],[14.59,50.133],[14.585,50.137],[14.582,50.143],[14.578,50.147],[14.565,50.153],[14.549,50.163],[14.544,50.166],[14.538,50.167],[14.527,50.169],[14.478,50.165],[14.346,50.141],[14.342,50.139],[14.34,50.136],[14.339,50.133],[14.34,50.129],[14.341,50.125],[14.342,50.122],[14.34,50.12],[14.336,50.117],[14.331,50.115],[14.325,50.114],[14.32,50.114],[14.295,50.121],[14.289,50.121],[14.283,50.121],[14.236,50.11],[14.217,50.103],[14.215,50.101],[14.214,50.099],[14.213,50.098],[14.213,50.096],[14.215,50.095],[14.218,50.092],[14.236,50.085],[14.242,50.082],[14.245,50.08],[14.246,50.078],[14.246,50.076],[14.244,50.073],[14.242,50.069],[14.24,50.067],[14.239,50.064],[14.239,50.062],[14.24,50.059],[14.243,50.056],[14.268,50.036],[14.271,50.034],[14.275,50.027],[14.281,50.015],[14.283,50.012],[14.285,50.009],[14.287,50.007],[14.314,49.987],[14.317,49.983],[14.318,49.979],[14.317,49.972],[14.317,49.969],[14.316,49.963],[14.317,49.957],[14.319,49.955],[14.32,49.954],[14.323,49.953],[14.326,49.952],[14.337,49.951],[14.379,49.962],[14.451,49.97],[14.496,49.979],[14.502,49.981],[14.516,49.99],[14.533,49.998],[14.542,50],[14.549,50.001],[14.552,50],[14.554,50],[14.557,49.999],[14.571,49.996],[14.588,49.995]]]}},{"type":"Feature","id":"CZ-US","properties":{"id":"CZ-US","countryCode":"CZ","isoSubdivision":"CZ-US","name":"Ústí nad Labem","name_en":"Ústí nad Labem","name_ko":"우스티","type":"Region","labelLongitude":13.842,"labelLatitude":50.5,"minZoom":7.7},"geometry":{"type":"Polygon","coordinates":[[[14.319,51.04],[14.357,51.032],[14.364,51.028],[14.369,51.022],[14.376,51.017],[14.387,51.013],[14.398,51.013],[14.426,51.021],[14.462,51.02],[14.473,51.023],[14.482,51.037],[14.488,51.029],[14.49,51.023],[14.494,51.017],[14.503,51.009],[14.515,51.003],[14.542,50.999],[14.555,50.993],[14.567,50.983],[14.574,50.975],[14.577,50.966],[14.576,50.951],[14.568,50.939],[14.556,50.924],[14.55,50.912],[14.562,50.906],[14.617,50.921],[14.629,50.921],[14.635,50.909],[14.629,50.896],[14.612,50.871],[14.608,50.853],[14.608,50.85],[14.605,50.845],[14.602,50.841],[14.599,50.839],[14.594,50.837],[14.564,50.835],[14.56,50.833],[14.556,50.83],[14.554,50.825],[14.553,50.809],[14.549,50.802],[14.544,50.795],[14.538,50.79],[14.53,50.787],[14.522,50.786],[14.514,50.787],[14.461,50.821],[14.454,50.823],[14.449,50.822],[14.445,50.817],[14.434,50.776],[14.421,50.769],[14.417,50.765],[14.413,50.76],[14.411,50.755],[14.412,50.745],[14.41,50.74],[14.408,50.737],[14.385,50.724],[14.381,50.72],[14.363,50.69],[14.348,50.684],[14.344,50.681],[14.34,50.677],[14.339,50.673],[14.34,50.667],[14.396,50.555],[14.468,50.517],[14.475,50.494],[14.468,50.491],[14.465,50.488],[14.462,50.484],[14.46,50.48],[14.459,50.476],[14.459,50.47],[14.458,50.462],[14.455,50.454],[14.453,50.451],[14.452,50.449],[14.445,50.446],[14.437,50.444],[14.408,50.428],[14.399,50.425],[14.393,50.423],[14.388,50.424],[14.383,50.424],[14.37,50.428],[14.362,50.429],[14.358,50.427],[14.357,50.423],[14.358,50.419],[14.363,50.41],[14.364,50.407],[14.365,50.403],[14.364,50.396],[14.364,50.393],[14.365,50.39],[14.369,50.383],[14.37,50.379],[14.37,50.375],[14.369,50.373],[14.364,50.368],[14.363,50.366],[14.36,50.362],[14.357,50.357],[14.349,50.349],[14.341,50.347],[14.333,50.345],[14.316,50.346],[14.288,50.345],[14.28,50.343],[14.272,50.34],[14.25,50.328],[14.243,50.326],[14.238,50.325],[14.205,50.333],[14.126,50.324],[14.106,50.326],[14.083,50.331],[14.058,50.335],[14.016,50.334],[14.004,50.332],[13.996,50.329],[13.992,50.325],[13.99,50.321],[13.989,50.315],[13.989,50.311],[13.99,50.305],[13.99,50.301],[13.988,50.298],[13.982,50.292],[13.974,50.29],[13.966,50.289],[13.952,50.29],[13.943,50.287],[13.883,50.264],[13.877,50.259],[13.871,50.254],[13.865,50.25],[13.854,50.244],[13.847,50.243],[13.84,50.245],[13.833,50.248],[13.825,50.251],[13.816,50.25],[13.721,50.218],[13.704,50.215],[13.699,50.215],[13.694,50.216],[13.688,50.218],[13.682,50.219],[13.671,50.219],[13.663,50.218],[13.655,50.215],[13.652,50.213],[13.642,50.207],[13.6,50.189],[13.541,50.173],[13.53,50.169],[13.524,50.165],[13.511,50.151],[13.501,50.136],[13.491,50.129],[13.48,50.123],[13.454,50.107],[13.444,50.104],[13.429,50.101],[13.416,50.097],[13.406,50.087],[13.384,50.077],[13.371,50.077],[13.326,50.085],[13.316,50.088],[13.31,50.092],[13.299,50.102],[13.29,50.108],[13.278,50.115],[13.257,50.125],[13.25,50.13],[13.247,50.133],[13.248,50.137],[13.25,50.139],[13.265,50.151],[13.269,50.156],[13.272,50.16],[13.27,50.168],[13.263,50.179],[13.242,50.2],[13.235,50.21],[13.232,50.218],[13.234,50.223],[13.236,50.228],[13.237,50.233],[13.235,50.243],[13.232,50.256],[13.23,50.268],[13.23,50.275],[13.232,50.296],[13.231,50.305],[13.23,50.314],[13.225,50.327],[13.22,50.333],[13.213,50.338],[13.198,50.343],[13.17,50.348],[13.139,50.349],[13.114,50.352],[13.102,50.358],[13.094,50.365],[13.088,50.373],[13.083,50.377],[13.077,50.38],[13.011,50.385],[12.994,50.391],[12.961,50.409],[12.982,50.423],[12.997,50.434],[13.003,50.452],[13.01,50.493],[13.018,50.496],[13.026,50.498],[13.035,50.497],[13.042,50.493],[13.051,50.491],[13.06,50.491],[13.07,50.491],[13.079,50.493],[13.107,50.499],[13.16,50.497],[13.185,50.509],[13.199,50.525],[13.232,50.582],[13.252,50.581],[13.268,50.574],[13.285,50.569],[13.306,50.576],[13.316,50.596],[13.322,50.602],[13.359,50.619],[13.365,50.623],[13.366,50.627],[13.369,50.628],[13.381,50.625],[13.386,50.622],[13.4,50.607],[13.407,50.601],[13.429,50.594],[13.448,50.597],[13.465,50.607],[13.482,50.621],[13.492,50.624],[13.498,50.629],[13.499,50.635],[13.493,50.643],[13.51,50.651],[13.523,50.662],[13.527,50.676],[13.516,50.691],[13.557,50.707],[13.602,50.712],[13.692,50.712],[13.711,50.714],[13.749,50.723],[13.771,50.725],[13.817,50.721],[13.835,50.724],[13.863,50.735],[13.87,50.735],[13.875,50.737],[13.882,50.743],[13.883,50.748],[13.88,50.755],[13.879,50.764],[13.883,50.773],[13.893,50.78],[13.901,50.781],[13.911,50.779],[13.923,50.78],[13.934,50.785],[13.949,50.797],[13.96,50.802],[13.979,50.805],[14.016,50.802],[14.035,50.803],[14.191,50.848],[14.203,50.855],[14.221,50.873],[14.232,50.879],[14.268,50.884],[14.347,50.88],[14.376,50.896],[14.382,50.921],[14.355,50.931],[14.318,50.938],[14.293,50.953],[14.294,50.964],[14.302,50.968],[14.304,50.97],[14.284,50.975],[14.25,50.978],[14.238,50.982],[14.249,50.993],[14.264,51.021],[14.288,51.037],[14.319,51.04]]]}},{"type":"Feature","id":"CZ-VY","properties":{"id":"CZ-VY","countryCode":"CZ","isoSubdivision":"CZ-VY","name":"Vysočina","name_en":"Vysočina","name_ko":"비소치나","type":"Region","labelLongitude":15.772,"labelLatitude":49.409,"minZoom":7.7},"geometry":{"type":"Polygon","coordinates":[[[16.392,49.597],[16.39,49.586],[16.385,49.575],[16.373,49.555],[16.372,49.549],[16.375,49.545],[16.403,49.527],[16.406,49.522],[16.408,49.517],[16.409,49.511],[16.409,49.504],[16.407,49.499],[16.404,49.494],[16.4,49.491],[16.37,49.487],[16.366,49.485],[16.363,49.482],[16.362,49.477],[16.368,49.464],[16.371,49.418],[16.373,49.411],[16.391,49.373],[16.393,49.366],[16.392,49.36],[16.388,49.355],[16.3,49.32],[16.288,49.312],[16.277,49.301],[16.273,49.294],[16.271,49.287],[16.271,49.281],[16.271,49.276],[16.273,49.273],[16.28,49.264],[16.282,49.261],[16.283,49.257],[16.281,49.254],[16.278,49.252],[16.257,49.246],[16.252,49.243],[16.249,49.239],[16.244,49.226],[16.243,49.214],[16.244,49.208],[16.246,49.203],[16.25,49.2],[16.263,49.195],[16.268,49.193],[16.272,49.189],[16.274,49.185],[16.274,49.18],[16.272,49.175],[16.267,49.169],[16.253,49.158],[16.249,49.153],[16.247,49.148],[16.247,49.143],[16.248,49.139],[16.256,49.126],[16.258,49.122],[16.258,49.117],[16.256,49.112],[16.249,49.102],[16.228,49.085],[16.157,49.07],[16.153,49.068],[16.133,49.047],[16.124,49.043],[16.114,49.04],[16.045,49.048],[16.04,49.047],[16.023,49.038],[16.016,49.037],[15.986,49.036],[15.974,49.038],[15.969,49.041],[15.964,49.045],[15.96,49.051],[15.955,49.056],[15.948,49.056],[15.941,49.053],[15.915,49.032],[15.911,49.033],[15.901,49.033],[15.896,49.032],[15.891,49.029],[15.887,49.024],[15.882,49.01],[15.877,49.006],[15.871,49.004],[15.836,49.006],[15.808,48.998],[15.736,48.954],[15.73,48.954],[15.724,48.955],[15.694,48.972],[15.687,48.974],[15.68,48.974],[15.674,48.972],[15.663,48.967],[15.656,48.961],[15.653,48.957],[15.645,48.949],[15.64,48.946],[15.634,48.945],[15.628,48.947],[15.609,48.967],[15.602,48.971],[15.595,48.974],[15.588,48.975],[15.582,48.974],[15.578,48.971],[15.575,48.966],[15.574,48.97],[15.569,48.975],[15.564,48.978],[15.56,48.98],[15.548,48.981],[15.532,48.982],[15.525,48.983],[15.519,48.986],[15.515,48.991],[15.511,48.997],[15.508,49],[15.504,49.001],[15.501,49.001],[15.499,49.001],[15.498,49.004],[15.497,49.008],[15.499,49.016],[15.501,49.02],[15.505,49.024],[15.538,49.049],[15.543,49.056],[15.545,49.06],[15.546,49.068],[15.547,49.072],[15.55,49.076],[15.552,49.078],[15.557,49.078],[15.58,49.079],[15.586,49.08],[15.591,49.082],[15.596,49.084],[15.598,49.087],[15.598,49.089],[15.597,49.093],[15.59,49.098],[15.543,49.129],[15.539,49.131],[15.536,49.131],[15.531,49.13],[15.493,49.12],[15.478,49.12],[15.431,49.125],[15.427,49.125],[15.41,49.123],[15.405,49.124],[15.402,49.125],[15.354,49.155],[15.349,49.159],[15.346,49.166],[15.343,49.175],[15.341,49.191],[15.337,49.199],[15.332,49.205],[15.323,49.207],[15.274,49.211],[15.263,49.213],[15.259,49.214],[15.206,49.232],[15.2,49.233],[15.195,49.232],[15.19,49.229],[15.172,49.212],[15.168,49.21],[15.163,49.21],[15.123,49.227],[15.097,49.25],[15.068,49.262],[15.046,49.277],[15.03,49.283],[15.021,49.283],[15.012,49.281],[14.995,49.271],[14.986,49.269],[14.977,49.27],[14.958,49.277],[14.921,49.3],[14.915,49.305],[14.913,49.311],[14.911,49.315],[14.914,49.336],[14.913,49.341],[14.911,49.344],[14.908,49.347],[14.892,49.358],[14.888,49.362],[14.885,49.368],[14.885,49.376],[14.906,49.43],[14.907,49.448],[14.904,49.465],[14.89,49.499],[14.892,49.503],[14.898,49.506],[14.933,49.513],[14.94,49.516],[14.944,49.521],[14.944,49.525],[14.941,49.53],[14.937,49.534],[14.923,49.544],[14.931,49.547],[14.943,49.553],[14.947,49.558],[14.95,49.563],[14.951,49.566],[14.954,49.57],[14.957,49.572],[14.976,49.579],[14.979,49.581],[14.98,49.583],[14.978,49.589],[14.977,49.592],[14.978,49.594],[14.98,49.597],[14.982,49.598],[14.987,49.599],[14.995,49.599],[15.035,49.587],[15.046,49.587],[15.059,49.588],[15.083,49.593],[15.112,49.592],[15.129,49.588],[15.157,49.591],[15.235,49.615],[15.238,49.627],[15.235,49.638],[15.23,49.647],[15.225,49.652],[15.219,49.657],[15.174,49.678],[15.17,49.683],[15.168,49.687],[15.171,49.694],[15.176,49.7],[15.199,49.717],[15.207,49.724],[15.209,49.728],[15.211,49.732],[15.212,49.737],[15.214,49.741],[15.218,49.744],[15.222,49.748],[15.226,49.75],[15.227,49.751],[15.234,49.752],[15.237,49.752],[15.24,49.751],[15.243,49.75],[15.252,49.746],[15.257,49.745],[15.262,49.745],[15.266,49.746],[15.307,49.762],[15.341,49.771],[15.377,49.791],[15.383,49.793],[15.387,49.793],[15.392,49.792],[15.409,49.791],[15.422,49.793],[15.431,49.795],[15.436,49.799],[15.44,49.802],[15.443,49.807],[15.446,49.823],[15.448,49.827],[15.45,49.831],[15.452,49.833],[15.455,49.837],[15.458,49.84],[15.466,49.845],[15.469,49.847],[15.479,49.849],[15.483,49.852],[15.485,49.857],[15.484,49.867],[15.485,49.876],[15.528,49.857],[15.548,49.842],[15.573,49.815],[15.584,49.808],[15.59,49.806],[15.666,49.809],[15.683,49.806],[15.729,49.783],[15.756,49.779],[15.77,49.774],[15.775,49.77],[15.779,49.765],[15.781,49.755],[15.783,49.752],[15.787,49.749],[15.813,49.741],[15.829,49.732],[15.843,49.721],[15.859,49.7],[15.884,49.695],[15.891,49.698],[15.9,49.698],[15.914,49.694],[15.925,49.692],[15.934,49.693],[15.944,49.697],[15.959,49.708],[15.964,49.71],[15.975,49.712],[15.98,49.715],[15.983,49.718],[15.988,49.727],[15.99,49.729],[15.995,49.732],[16.001,49.732],[16.007,49.73],[16.021,49.724],[16.035,49.719],[16.05,49.716],[16.073,49.713],[16.084,49.709],[16.091,49.704],[16.094,49.699],[16.097,49.694],[16.105,49.691],[16.116,49.689],[16.137,49.691],[16.163,49.69],[16.183,49.686],[16.213,49.676],[16.25,49.66],[16.263,49.653],[16.272,49.646],[16.279,49.638],[16.286,49.632],[16.296,49.627],[16.331,49.618],[16.372,49.601],[16.392,49.597]]]}},{"type":"Feature","id":"CZ-ZL","properties":{"id":"CZ-ZL","countryCode":"CZ","isoSubdivision":"CZ-ZL","name":"Zlín","name_en":"Zlín","name_ko":"즐린스키","type":"Region","labelLongitude":17.775,"labelLatitude":49.184,"minZoom":7.7},"geometry":{"type":"Polygon","coordinates":[[[18.362,49.33],[18.325,49.311],[18.19,49.277],[18.161,49.259],[18.136,49.233],[18.118,49.203],[18.105,49.17],[18.101,49.143],[18.102,49.137],[18.103,49.092],[18.096,49.07],[18.076,49.047],[18.046,49.029],[18.013,49.019],[17.959,49.022],[17.935,49.019],[17.914,49.01],[17.901,48.993],[17.895,48.978],[17.887,48.947],[17.879,48.934],[17.86,48.922],[17.841,48.921],[17.82,48.923],[17.796,48.921],[17.779,48.912],[17.745,48.873],[17.727,48.863],[17.646,48.842],[17.639,48.864],[17.629,48.882],[17.622,48.89],[17.615,48.896],[17.605,48.901],[17.551,48.911],[17.545,48.914],[17.542,48.919],[17.538,48.929],[17.533,48.939],[17.527,48.946],[17.523,48.948],[17.5,48.954],[17.471,48.957],[17.439,48.946],[17.431,48.945],[17.424,48.945],[17.417,48.948],[17.406,48.959],[17.389,48.968],[17.353,48.978],[17.35,48.992],[17.345,49.003],[17.341,49.007],[17.336,49.009],[17.274,49.017],[17.233,49.03],[17.228,49.033],[17.224,49.037],[17.222,49.042],[17.224,49.073],[17.224,49.08],[17.221,49.085],[17.215,49.088],[17.208,49.088],[17.159,49.077],[17.142,49.077],[17.123,49.082],[17.116,49.086],[17.111,49.091],[17.108,49.095],[17.11,49.1],[17.125,49.109],[17.151,49.133],[17.156,49.136],[17.183,49.143],[17.196,49.149],[17.2,49.153],[17.202,49.158],[17.201,49.164],[17.199,49.169],[17.195,49.173],[17.191,49.176],[17.165,49.186],[17.152,49.198],[17.138,49.216],[17.13,49.236],[17.129,49.244],[17.131,49.251],[17.147,49.27],[17.148,49.272],[17.149,49.271],[17.154,49.266],[17.157,49.263],[17.161,49.261],[17.165,49.261],[17.17,49.262],[17.175,49.265],[17.177,49.27],[17.181,49.288],[17.184,49.294],[17.189,49.297],[17.196,49.299],[17.261,49.3],[17.265,49.299],[17.268,49.299],[17.273,49.301],[17.276,49.303],[17.281,49.308],[17.286,49.313],[17.32,49.334],[17.324,49.337],[17.333,49.349],[17.324,49.356],[17.316,49.373],[17.317,49.39],[17.322,49.406],[17.34,49.405],[17.347,49.404],[17.362,49.4],[17.387,49.387],[17.408,49.379],[17.417,49.378],[17.46,49.365],[17.47,49.364],[17.476,49.365],[17.482,49.369],[17.487,49.374],[17.492,49.381],[17.496,49.387],[17.501,49.39],[17.506,49.393],[17.519,49.398],[17.536,49.402],[17.544,49.404],[17.615,49.403],[17.622,49.403],[17.628,49.405],[17.632,49.408],[17.636,49.411],[17.638,49.415],[17.638,49.419],[17.635,49.426],[17.629,49.436],[17.627,49.44],[17.629,49.443],[17.633,49.445],[17.645,49.448],[17.656,49.449],[17.672,49.449],[17.759,49.437],[17.786,49.445],[17.783,49.456],[17.783,49.465],[17.784,49.47],[17.786,49.475],[17.789,49.478],[17.793,49.48],[17.805,49.485],[17.809,49.487],[17.813,49.491],[17.82,49.504],[17.824,49.508],[17.828,49.511],[17.834,49.512],[17.839,49.512],[17.844,49.511],[17.849,49.509],[17.859,49.501],[17.864,49.5],[17.877,49.499],[17.891,49.501],[17.906,49.527],[17.95,49.527],[17.954,49.525],[17.958,49.523],[17.961,49.518],[17.965,49.506],[17.969,49.501],[17.974,49.497],[17.981,49.495],[17.99,49.494],[18.146,49.504],[18.155,49.501],[18.185,49.487],[18.192,49.486],[18.268,49.487],[18.285,49.482],[18.29,49.479],[18.311,49.45],[18.318,49.445],[18.335,49.438],[18.341,49.433],[18.345,49.427],[18.348,49.421],[18.356,49.392],[18.36,49.386],[18.365,49.382],[18.37,49.379],[18.376,49.378],[18.387,49.378],[18.385,49.342],[18.362,49.33]]]}}]}
