{"type":"FeatureCollection","features":[{"type":"Feature","id":"DJ-AR","properties":{"id":"DJ-AR","countryCode":"DJ","isoSubdivision":"DJ-AR","name":"Arta","name_en":"Arta","name_ko":"아르타","type":"Region","labelLongitude":42.803,"labelLatitude":11.446,"minZoom":9},"geometry":{"type":"Polygon","coordinates":[[[43.241,11.488],[43.189,11.408],[43.09,11.466],[43.058,11.479],[42.912,11.45],[42.864,11.363],[42.833,11.339],[42.707,11.265],[42.499,11.301],[42.417,11.421],[42.392,11.5],[42.369,11.612],[42.365,11.654],[42.401,11.612],[42.416,11.6],[42.532,11.547],[42.533,11.524],[42.539,11.503],[42.572,11.49],[42.592,11.472],[42.604,11.468],[42.618,11.47],[42.634,11.485],[42.645,11.488],[42.653,11.486],[42.663,11.482],[42.673,11.48],[42.682,11.485],[42.688,11.497],[42.681,11.505],[42.67,11.51],[42.665,11.516],[42.674,11.532],[42.694,11.546],[42.74,11.563],[42.807,11.571],[42.829,11.577],[42.84,11.584],[42.848,11.593],[42.856,11.596],[42.867,11.588],[42.875,11.584],[42.901,11.584],[42.902,11.582],[42.956,11.525],[43.014,11.519],[43.051,11.519],[43.169,11.541],[43.173,11.542],[43.184,11.527],[43.195,11.518],[43.226,11.502],[43.241,11.488]]]}},{"type":"Feature","id":"DJ-AS","properties":{"id":"DJ-AS","countryCode":"DJ","isoSubdivision":"DJ-AS","name":"Ali Sabieh","name_en":"Ali Sabieh","name_ko":"알리사비에","type":"Region","labelLongitude":42.899,"labelLatitude":11.211,"minZoom":9},"geometry":{"type":"Polygon","coordinates":[[[43.189,11.408],[42.924,10.999],[42.908,11.004],[42.898,10.996],[42.888,10.984],[42.873,10.978],[42.86,10.98],[42.835,10.987],[42.794,10.992],[42.772,10.996],[42.755,11.011],[42.73,11.065],[42.71,11.072],[42.687,11.073],[42.616,11.09],[42.608,11.089],[42.608,11.092],[42.613,11.192],[42.626,11.22],[42.707,11.265],[42.833,11.339],[42.864,11.363],[42.912,11.45],[43.058,11.479],[43.09,11.466],[43.189,11.408]]]}},{"type":"Feature","id":"DJ-DI","properties":{"id":"DJ-DI","countryCode":"DJ","isoSubdivision":"DJ-DI","name":"Dikhil","name_en":"Dikhil","name_ko":"디킬","type":"Region","labelLongitude":42.228,"labelLatitude":11.388,"minZoom":9},"geometry":{"type":"Polygon","coordinates":[[[41.938,10.93],[41.929,10.931],[41.923,10.936],[41.92,10.942],[41.917,10.947],[41.799,10.971],[41.774,10.98],[41.767,10.989],[41.761,10.996],[41.779,11.025],[41.786,11.067],[41.788,11.26],[41.776,11.368],[41.75,11.483],[41.749,11.538],[41.779,11.629],[41.792,11.704],[41.808,11.736],[41.823,11.746],[41.862,11.763],[41.872,11.776],[41.878,11.79],[41.886,11.796],[41.898,11.799],[41.911,11.806],[41.925,11.816],[41.936,11.827],[41.975,11.881],[41.991,11.878],[42.153,11.84],[42.195,11.823],[42.365,11.654],[42.369,11.612],[42.392,11.5],[42.417,11.421],[42.499,11.301],[42.707,11.265],[42.626,11.22],[42.613,11.192],[42.608,11.092],[42.608,11.089],[42.57,11.086],[42.48,11.059],[42.413,11.016],[42.392,11.006],[42.377,11.007],[42.361,11.012],[42.339,11.016],[42.306,11.005],[42.297,11.004],[42.279,11.004],[42.271,11.004],[42.235,10.988],[42.222,10.984],[42.203,10.985],[42.151,10.996],[42.096,10.99],[42.069,10.982],[42.038,10.95],[42.011,10.944],[41.954,10.941],[41.947,10.939],[41.943,10.934],[41.938,10.93]]]}},{"type":"Feature","id":"DJ-DJ","properties":{"id":"DJ-DJ","countryCode":"DJ","isoSubdivision":"DJ-DJ","name":"Djibouti","name_en":"Djibouti","name_ko":"지부티","type":"City","labelLongitude":43.037,"labelLatitude":11.552,"minZoom":9},"geometry":{"type":"Polygon","coordinates":[[[42.901,11.584],[43.041,11.586],[43.062,11.59],[43.082,11.59],[43.103,11.577],[43.123,11.581],[43.134,11.595],[43.141,11.609],[43.152,11.612],[43.158,11.601],[43.172,11.543],[43.173,11.542],[43.169,11.541],[43.051,11.519],[43.014,11.519],[42.956,11.525],[42.902,11.582],[42.901,11.584]]]}},{"type":"Feature","id":"DJ-OB","properties":{"id":"DJ-OB","countryCode":"DJ","isoSubdivision":"DJ-OB","name":"Obock","name_en":"Obock","name_ko":"오보크","type":"Region","labelLongitude":43.046,"labelLatitude":12.284,"minZoom":9},"geometry":{"type":"Polygon","coordinates":[[[42.89,12.615],[42.9,12.616],[43.118,12.708],[43.134,12.697],[43.143,12.68],[43.151,12.66],[43.162,12.643],[43.26,12.533],[43.283,12.497],[43.297,12.482],[43.313,12.478],[43.329,12.489],[43.329,12.454],[43.331,12.437],[43.336,12.42],[43.344,12.406],[43.353,12.395],[43.361,12.383],[43.364,12.365],[43.365,12.327],[43.368,12.307],[43.374,12.293],[43.411,12.242],[43.414,12.225],[43.411,12.167],[43.419,12.091],[43.413,12.059],[43.399,12.03],[43.377,12.005],[43.35,11.988],[43.343,11.986],[43.316,11.981],[43.288,11.967],[43.268,11.964],[43.225,11.963],[43.207,11.958],[43.174,11.935],[43.097,11.845],[43.092,11.841],[43.086,11.839],[43.062,11.862],[43.054,11.875],[43.026,11.935],[43.014,11.953],[42.808,12.178],[42.782,12.185],[42.772,12.189],[42.762,12.195],[42.713,12.236],[42.705,12.245],[42.7,12.252],[42.677,12.299],[42.674,12.307],[42.674,12.314],[42.676,12.322],[42.679,12.328],[42.682,12.333],[42.696,12.344],[42.699,12.364],[42.696,12.38],[42.728,12.389],[42.741,12.408],[42.75,12.417],[42.78,12.423],[42.792,12.429],[42.798,12.456],[42.789,12.487],[42.785,12.517],[42.829,12.558],[42.852,12.612],[42.869,12.626],[42.878,12.625],[42.89,12.615]]]}},{"type":"Feature","id":"DJ-TA","properties":{"id":"DJ-TA","countryCode":"DJ","isoSubdivision":"DJ-TA","name":"Tadjourah","name_en":"Tadjourah","name_ko":"타주라","type":"Region","labelLongitude":42.504,"labelLatitude":11.797,"minZoom":9},"geometry":{"type":"Polygon","coordinates":[[[41.975,11.881],[42.057,11.996],[42.098,12.07],[42.109,12.082],[42.132,12.093],[42.14,12.106],[42.155,12.142],[42.289,12.321],[42.319,12.386],[42.379,12.466],[42.431,12.52],[42.448,12.523],[42.476,12.516],[42.522,12.496],[42.678,12.36],[42.691,12.379],[42.696,12.38],[42.699,12.364],[42.696,12.344],[42.682,12.333],[42.679,12.328],[42.676,12.322],[42.674,12.314],[42.674,12.307],[42.677,12.299],[42.7,12.252],[42.705,12.245],[42.713,12.236],[42.762,12.195],[42.772,12.189],[42.782,12.185],[42.808,12.178],[43.014,11.953],[43.026,11.935],[43.054,11.875],[43.062,11.862],[43.086,11.839],[43.076,11.835],[43.069,11.83],[43.065,11.823],[43.061,11.81],[43.056,11.804],[43.042,11.799],[42.987,11.796],[42.973,11.791],[42.958,11.78],[42.943,11.774],[42.916,11.784],[42.896,11.781],[42.803,11.748],[42.777,11.732],[42.754,11.708],[42.684,11.582],[42.677,11.574],[42.668,11.569],[42.637,11.56],[42.628,11.559],[42.604,11.563],[42.577,11.562],[42.569,11.563],[42.563,11.567],[42.554,11.58],[42.549,11.584],[42.527,11.582],[42.515,11.574],[42.515,11.567],[42.528,11.57],[42.532,11.548],[42.532,11.547],[42.416,11.6],[42.401,11.612],[42.365,11.654],[42.195,11.823],[42.153,11.84],[41.991,11.878],[41.975,11.881]]]}}]}
