{"type":"FeatureCollection","features":[{"type":"Feature","id":"DK-81","properties":{"id":"DK-81","countryCode":"DK","isoSubdivision":"DK-81","name":"North Denmark","name_en":"North Denmark","name_ko":"북윌란 지역","type":"Region","labelLongitude":9.733,"labelLatitude":56.826,"minZoom":7.7},"geometry":{"type":"MultiPolygon","coordinates":[[[[9.326,56.669],[9.326,56.67],[9.306,56.695],[9.296,56.702],[9.291,56.704],[9.271,56.702],[9.231,56.692],[9.221,56.684],[9.199,56.677],[9.178,56.676],[9.169,56.689],[9.18,56.701],[9.226,56.716],[9.237,56.733],[9.243,56.747],[9.24,56.754],[9.216,56.759],[9.205,56.764],[9.197,56.77],[9.19,56.777],[9.184,56.784],[9.179,56.794],[9.175,56.806],[9.176,56.818],[9.181,56.822],[9.204,56.842],[9.207,56.846],[9.211,56.852],[9.211,56.863],[9.206,56.875],[9.2,56.88],[9.188,56.881],[9.179,56.885],[9.163,56.894],[9.181,56.919],[9.2,56.939],[9.22,56.955],[9.251,56.973],[9.258,56.975],[9.266,56.976],[9.275,56.977],[9.28,56.98],[9.285,56.994],[9.289,56.997],[9.437,57.024],[9.47,57.024],[9.587,56.997],[9.587,56.99],[9.574,56.985],[9.573,56.979],[9.581,56.973],[9.594,56.969],[9.608,56.97],[9.618,56.975],[9.654,57.007],[9.671,57.025],[9.689,57.039],[9.728,57.047],[9.761,57.059],[9.809,57.052],[9.916,57.059],[9.857,57.089],[9.827,57.095],[9.806,57.104],[9.796,57.106],[9.788,57.104],[9.752,57.078],[9.733,57.067],[9.712,57.061],[9.693,57.069],[9.675,57.079],[9.656,57.076],[9.621,57.059],[9.581,57.049],[9.494,57.049],[9.265,57.003],[9.245,57.002],[9.226,57.007],[9.115,57.059],[9.121,57.045],[9.113,57.039],[9.08,57.031],[9.055,57.021],[9.043,57.018],[9.026,57.018],[9.032,57.024],[9.014,57.03],[8.997,57.028],[8.98,57.02],[8.963,57.01],[8.947,57.011],[8.926,57],[8.909,56.988],[8.902,56.986],[8.893,57],[8.873,57.005],[8.85,57.003],[8.833,56.997],[8.848,56.988],[8.812,56.97],[8.762,56.955],[8.726,56.961],[8.703,56.958],[8.68,56.953],[8.669,56.945],[8.663,56.926],[8.65,56.914],[8.634,56.905],[8.621,56.894],[8.615,56.866],[8.614,56.863],[8.613,56.855],[8.608,56.85],[8.601,56.846],[8.57,56.818],[8.547,56.817],[8.536,56.815],[8.532,56.809],[8.524,56.805],[8.508,56.801],[8.491,56.794],[8.484,56.781],[8.492,56.747],[8.491,56.731],[8.476,56.722],[8.476,56.716],[8.516,56.718],[8.526,56.716],[8.533,56.704],[8.527,56.695],[8.514,56.69],[8.501,56.689],[8.489,56.691],[8.466,56.7],[8.453,56.702],[8.441,56.7],[8.421,56.691],[8.408,56.689],[8.408,56.681],[8.456,56.689],[8.47,56.686],[8.491,56.677],[8.501,56.675],[8.572,56.692],[8.586,56.689],[8.589,56.681],[8.586,56.662],[8.586,56.654],[8.601,56.641],[8.608,56.631],[8.593,56.616],[8.583,56.609],[8.57,56.606],[8.555,56.605],[8.547,56.602],[8.547,56.597],[8.56,56.593],[8.539,56.593],[8.511,56.607],[8.487,56.625],[8.476,56.637],[8.467,56.652],[8.445,56.664],[8.417,56.672],[8.391,56.675],[8.373,56.68],[8.352,56.693],[8.333,56.708],[8.32,56.722],[8.308,56.758],[8.302,56.764],[8.288,56.766],[8.26,56.777],[8.244,56.777],[8.258,56.741],[8.263,56.719],[8.261,56.705],[8.246,56.704],[8.238,56.725],[8.236,56.771],[8.248,56.812],[8.27,56.843],[8.45,57.004],[8.504,57.035],[8.586,57.106],[8.618,57.123],[8.654,57.123],[8.737,57.106],[8.784,57.105],[8.874,57.116],[8.915,57.127],[8.963,57.157],[8.98,57.161],[9.231,57.141],[9.322,57.147],[9.412,57.165],[9.498,57.197],[9.573,57.243],[9.788,57.459],[9.826,57.49],[9.895,57.532],[9.93,57.567],[9.943,57.572],[9.967,57.591],[10.015,57.597],[10.108,57.593],[10.198,57.601],[10.28,57.621],[10.351,57.649],[10.473,57.717],[10.539,57.744],[10.566,57.749],[10.596,57.751],[10.625,57.748],[10.649,57.737],[10.594,57.726],[10.542,57.699],[10.46,57.631],[10.43,57.571],[10.458,57.525],[10.509,57.484],[10.547,57.435],[10.517,57.391],[10.518,57.339],[10.539,57.237],[10.522,57.222],[10.471,57.201],[10.447,57.185],[10.411,57.144],[10.396,57.117],[10.384,57.074],[10.359,57.026],[10.347,57.01],[10.339,57.003],[10.331,56.999],[10.32,56.998],[10.272,56.998],[10.258,56.996],[10.24,56.993],[10.156,57.024],[10.094,57.06],[10.053,57.07],[10.019,57.088],[9.995,57.093],[9.974,57.086],[9.946,57.061],[9.927,57.059],[9.945,57.057],[9.967,57.072],[9.984,57.079],[10.002,57.084],[10.023,57.079],[10.121,57.022],[10.154,57.013],[10.192,56.994],[10.214,56.99],[10.295,56.989],[10.314,56.983],[10.286,56.964],[10.28,56.956],[10.275,56.942],[10.269,56.915],[10.266,56.908],[10.273,56.891],[10.284,56.84],[10.288,56.8],[10.295,56.779],[10.32,56.736],[10.328,56.73],[10.338,56.724],[10.341,56.717],[10.327,56.709],[10.319,56.708],[10.295,56.714],[10.283,56.716],[10.238,56.716],[10.222,56.712],[10.204,56.702],[10.187,56.712],[10.168,56.72],[10.146,56.722],[10.121,56.716],[10.099,56.706],[10.09,56.704],[10.073,56.702],[10.058,56.698],[10.028,56.684],[9.991,56.677],[9.946,56.658],[9.806,56.647],[9.806,56.64],[9.851,56.636],[10.001,56.661],[10.035,56.673],[10.05,56.675],[10.053,56.677],[10.053,56.682],[10.055,56.687],[10.063,56.689],[10.071,56.687],[10.084,56.682],[10.091,56.681],[10.101,56.683],[10.114,56.687],[10.124,56.692],[10.128,56.699],[10.135,56.712],[10.151,56.714],[10.183,56.709],[10.181,56.705],[10.176,56.695],[10.193,56.694],[10.16,56.673],[10.113,56.651],[10.08,56.625],[10.012,56.602],[9.952,56.598],[9.928,56.594],[9.888,56.581],[9.855,56.559],[9.813,56.555],[9.796,56.557],[9.769,56.566],[9.725,56.559],[9.676,56.59],[9.643,56.58],[9.624,56.584],[9.631,56.606],[9.657,56.622],[9.638,56.633],[9.524,56.634],[9.496,56.651],[9.503,56.675],[9.488,56.684],[9.459,56.685],[9.451,56.675],[9.46,56.661],[9.435,56.639],[9.398,56.65],[9.326,56.669]]],[[[8.826,56.744],[8.813,56.735],[8.771,56.716],[8.766,56.699],[8.686,56.687],[8.658,56.678],[8.648,56.681],[8.622,56.714],[8.611,56.722],[8.586,56.736],[8.562,56.743],[8.556,56.744],[8.525,56.737],[8.515,56.738],[8.518,56.75],[8.523,56.755],[8.53,56.759],[8.539,56.763],[8.549,56.764],[8.553,56.768],[8.552,56.778],[8.548,56.787],[8.545,56.791],[8.573,56.803],[8.644,56.808],[8.669,56.826],[8.656,56.825],[8.644,56.826],[8.632,56.828],[8.621,56.832],[8.627,56.842],[8.647,56.856],[8.655,56.867],[8.652,56.866],[8.65,56.874],[8.648,56.891],[8.652,56.894],[8.659,56.894],[8.668,56.894],[8.675,56.894],[8.704,56.9],[8.762,56.905],[8.792,56.915],[8.814,56.91],[8.834,56.925],[8.867,56.963],[8.89,56.955],[8.905,56.966],[8.916,56.979],[8.929,56.977],[8.923,56.969],[8.911,56.956],[8.908,56.949],[8.91,56.944],[8.92,56.93],[8.923,56.922],[8.92,56.92],[8.908,56.887],[8.9,56.875],[8.895,56.87],[8.888,56.867],[8.888,56.879],[8.883,56.886],[8.875,56.891],[8.867,56.894],[8.844,56.883],[8.84,56.88],[8.836,56.869],[8.839,56.863],[8.844,56.858],[8.847,56.853],[8.855,56.82],[8.864,56.81],[8.881,56.805],[8.875,56.8],[8.868,56.798],[8.861,56.798],[8.853,56.798],[8.861,56.795],[8.867,56.791],[8.854,56.78],[8.839,56.757],[8.826,56.744]]],[[[11.142,57.332],[11.17,57.333],[11.181,57.33],[11.19,57.326],[11.197,57.313],[11.197,57.303],[11.189,57.294],[11.167,57.297],[11.143,57.301],[11.067,57.291],[11.083,57.284],[11.094,57.269],[11.091,57.253],[11.067,57.238],[11.054,57.226],[11.045,57.213],[11.029,57.202],[10.998,57.198],[10.978,57.207],[10.952,57.234],[10.917,57.237],[10.889,57.245],[10.871,57.255],[10.855,57.265],[10.855,57.271],[10.888,57.275],[10.921,57.292],[10.947,57.305],[10.987,57.306],[11.01,57.31],[11.028,57.321],[11.102,57.32],[11.142,57.332]]]]}},{"type":"Feature","id":"DK-82","properties":{"id":"DK-82","countryCode":"DK","isoSubdivision":"DK-82","name":"Central Denmark","name_en":"Central Denmark","name_ko":"중앙윌란 지역","type":"Region","labelLongitude":9.269,"labelLatitude":56.237,"minZoom":7.7},"geometry":{"type":"MultiPolygon","coordinates":[[[[8.176,55.801],[8.136,55.966],[8.131,55.976],[8.128,55.978],[8.127,55.983],[8.128,55.988],[8.131,55.99],[8.137,55.989],[8.139,55.986],[8.141,55.983],[8.144,55.982],[8.151,55.977],[8.175,55.9],[8.193,55.874],[8.196,55.863],[8.194,55.853],[8.184,55.84],[8.182,55.828],[8.185,55.815],[8.194,55.812],[8.239,55.826],[8.286,55.847],[8.309,55.852],[8.348,55.869],[8.388,55.893],[8.393,55.909],[8.387,55.927],[8.373,55.943],[8.357,55.959],[8.32,55.986],[8.32,56.017],[8.308,56.053],[8.282,56.076],[8.248,56.09],[8.171,56.11],[8.15,56.111],[8.141,56.103],[8.142,56.06],[8.14,56.04],[8.134,56.017],[8.137,56],[8.135,55.994],[8.12,55.997],[8.116,56.002],[8.112,56.012],[8.108,56.024],[8.103,56.097],[8.106,56.119],[8.131,56.182],[8.134,56.205],[8.122,56.552],[8.127,56.568],[8.134,56.586],[8.179,56.672],[8.199,56.699],[8.214,56.712],[8.22,56.709],[8.224,56.7],[8.233,56.695],[8.232,56.688],[8.21,56.656],[8.202,56.647],[8.202,56.64],[8.208,56.637],[8.215,56.635],[8.233,56.634],[8.237,56.63],[8.24,56.62],[8.246,56.61],[8.254,56.606],[8.295,56.602],[8.306,56.598],[8.292,56.593],[8.295,56.584],[8.292,56.568],[8.298,56.558],[8.307,56.554],[8.315,56.557],[8.318,56.564],[8.312,56.572],[8.312,56.579],[8.344,56.585],[8.392,56.585],[8.437,56.58],[8.456,56.569],[8.465,56.567],[8.515,56.545],[8.528,56.548],[8.541,56.557],[8.552,56.568],[8.56,56.579],[8.566,56.579],[8.596,56.532],[8.597,56.524],[8.593,56.52],[8.595,56.51],[8.601,56.501],[8.617,56.494],[8.637,56.48],[8.648,56.476],[8.666,56.476],[8.727,56.483],[8.733,56.485],[8.739,56.49],[8.742,56.498],[8.743,56.507],[8.744,56.522],[8.745,56.532],[8.751,56.552],[8.755,56.558],[8.76,56.56],[8.763,56.563],[8.758,56.572],[8.727,56.586],[8.717,56.586],[8.709,56.589],[8.704,56.594],[8.703,56.602],[8.698,56.611],[8.681,56.616],[8.682,56.627],[8.695,56.633],[8.741,56.635],[8.805,56.695],[8.82,56.7],[8.862,56.707],[8.917,56.709],[8.919,56.711],[8.895,56.716],[8.851,56.717],[8.841,56.722],[8.85,56.74],[8.865,56.756],[8.877,56.764],[8.908,56.777],[8.956,56.803],[8.974,56.805],[8.985,56.804],[9.004,56.799],[9.015,56.798],[9.027,56.8],[9.033,56.804],[9.038,56.809],[9.046,56.812],[9.063,56.813],[9.086,56.808],[9.106,56.8],[9.115,56.788],[9.12,56.765],[9.134,56.751],[9.151,56.741],[9.163,56.73],[9.176,56.709],[9.148,56.705],[9.119,56.679],[9.093,56.675],[9.093,56.668],[9.098,56.658],[9.087,56.65],[9.059,56.634],[9.05,56.62],[9.049,56.607],[9.053,56.575],[9.061,56.566],[9.077,56.567],[9.093,56.578],[9.107,56.611],[9.122,56.613],[9.14,56.611],[9.155,56.613],[9.149,56.623],[9.141,56.626],[9.132,56.625],[9.121,56.62],[9.129,56.631],[9.137,56.639],[9.144,56.648],[9.149,56.661],[9.155,56.661],[9.149,56.639],[9.176,56.635],[9.211,56.639],[9.234,56.637],[9.247,56.632],[9.262,56.634],[9.276,56.633],[9.285,56.62],[9.282,56.611],[9.259,56.592],[9.25,56.579],[9.261,56.576],[9.263,56.572],[9.264,56.566],[9.271,56.558],[9.281,56.553],[9.306,56.545],[9.31,56.541],[9.312,56.535],[9.316,56.531],[9.326,56.53],[9.341,56.547],[9.347,56.552],[9.361,56.545],[9.373,56.553],[9.373,56.565],[9.35,56.572],[9.319,56.562],[9.317,56.559],[9.313,56.558],[9.302,56.558],[9.294,56.561],[9.293,56.567],[9.296,56.572],[9.299,56.572],[9.301,56.609],[9.317,56.641],[9.326,56.669],[9.398,56.65],[9.435,56.639],[9.46,56.661],[9.451,56.675],[9.459,56.685],[9.488,56.684],[9.503,56.675],[9.496,56.651],[9.524,56.634],[9.638,56.633],[9.657,56.622],[9.631,56.606],[9.624,56.584],[9.643,56.58],[9.676,56.59],[9.725,56.559],[9.769,56.566],[9.796,56.557],[9.813,56.555],[9.855,56.559],[9.888,56.581],[9.928,56.594],[9.952,56.598],[10.012,56.602],[10.08,56.625],[10.113,56.651],[10.16,56.673],[10.193,56.694],[10.242,56.688],[10.284,56.69],[10.31,56.699],[10.334,56.704],[10.353,56.682],[10.358,56.649],[10.34,56.62],[10.273,56.592],[10.223,56.561],[10.214,56.558],[10.207,56.526],[10.204,56.517],[10.211,56.505],[10.207,56.491],[10.195,56.478],[10.183,56.47],[10.214,56.47],[10.226,56.476],[10.224,56.514],[10.228,56.541],[10.238,56.554],[10.28,56.572],[10.313,56.597],[10.33,56.603],[10.351,56.596],[10.355,56.59],[10.36,56.568],[10.361,56.562],[10.365,56.558],[10.395,56.545],[10.47,56.521],[10.552,56.516],[10.789,56.536],[10.822,56.534],[10.855,56.524],[10.87,56.515],[10.902,56.483],[10.964,56.448],[10.964,56.442],[10.941,56.43],[10.928,56.406],[10.924,56.38],[10.923,56.356],[10.912,56.334],[10.82,56.261],[10.773,56.243],[10.755,56.229],[10.75,56.216],[10.753,56.185],[10.739,56.155],[10.707,56.151],[10.672,56.165],[10.649,56.188],[10.675,56.191],[10.685,56.196],[10.69,56.209],[10.688,56.222],[10.678,56.226],[10.665,56.228],[10.653,56.233],[10.629,56.238],[10.604,56.221],[10.581,56.199],[10.549,56.178],[10.556,56.155],[10.569,56.129],[10.574,56.113],[10.564,56.106],[10.548,56.101],[10.531,56.1],[10.519,56.103],[10.508,56.111],[10.499,56.13],[10.491,56.14],[10.499,56.145],[10.516,56.152],[10.525,56.154],[10.518,56.165],[10.509,56.17],[10.468,56.177],[10.459,56.176],[10.437,56.168],[10.409,56.165],[10.391,56.173],[10.376,56.187],[10.355,56.202],[10.377,56.203],[10.41,56.218],[10.429,56.222],[10.443,56.217],[10.461,56.206],[10.478,56.202],[10.491,56.216],[10.474,56.232],[10.475,56.245],[10.505,56.278],[10.491,56.278],[10.477,56.281],[10.464,56.287],[10.454,56.295],[10.443,56.299],[10.417,56.292],[10.403,56.298],[10.399,56.285],[10.394,56.277],[10.385,56.272],[10.371,56.271],[10.364,56.266],[10.337,56.233],[10.313,56.215],[10.258,56.19],[10.234,56.171],[10.22,56.148],[10.227,56.133],[10.243,56.12],[10.259,56.099],[10.266,56.074],[10.261,56.054],[10.249,56.037],[10.231,56.017],[10.255,56.024],[10.273,56.025],[10.278,56.018],[10.252,55.986],[10.25,55.973],[10.252,55.948],[10.251,55.931],[10.249,55.923],[10.245,55.915],[10.221,55.897],[10.218,55.89],[10.213,55.89],[10.202,55.886],[10.19,55.88],[10.183,55.874],[10.188,55.871],[10.196,55.861],[10.199,55.851],[10.191,55.843],[10.187,55.839],[10.182,55.834],[10.173,55.831],[10.16,55.833],[10.151,55.838],[10.136,55.852],[10.131,55.858],[10.128,55.866],[10.124,55.873],[10.115,55.88],[10.102,55.882],[10.005,55.88],[9.992,55.877],[9.984,55.871],[9.977,55.865],[9.97,55.859],[9.945,55.854],[9.892,55.855],[9.867,55.852],[9.893,55.836],[10.036,55.818],[10.046,55.814],[10.042,55.803],[10.026,55.783],[10.017,55.766],[10.02,55.758],[10.034,55.756],[10.06,55.756],[10.06,55.749],[10.019,55.736],[10.007,55.725],[10.018,55.709],[10.014,55.707],[10.005,55.701],[9.982,55.709],[9.872,55.691],[9.822,55.676],[9.792,55.674],[9.731,55.688],[9.696,55.706],[9.687,55.709],[9.676,55.709],[9.68,55.72],[9.681,55.728],[9.676,55.737],[9.664,55.743],[9.642,55.747],[9.609,55.749],[9.598,55.753],[9.596,55.761],[9.598,55.767],[9.603,55.773],[9.605,55.779],[9.601,55.785],[9.582,55.787],[9.546,55.785],[9.53,55.788],[9.516,55.798],[9.491,55.822],[9.469,55.837],[9.463,55.846],[9.46,55.853],[9.458,55.858],[9.451,55.866],[9.4,55.902],[9.375,55.914],[9.343,55.925],[9.249,55.943],[9.212,55.938],[9.184,55.907],[9.138,55.874],[9.121,55.866],[9.103,55.863],[9.094,55.859],[9.085,55.854],[9.08,55.848],[9.071,55.836],[9.058,55.837],[9.047,55.831],[9.013,55.829],[8.999,55.835],[8.959,55.864],[8.929,55.88],[8.88,55.883],[8.843,55.872],[8.828,55.843],[8.818,55.834],[8.823,55.817],[8.823,55.81],[8.807,55.805],[8.775,55.799],[8.757,55.802],[8.687,55.83],[8.655,55.835],[8.644,55.834],[8.628,55.83],[8.611,55.828],[8.599,55.829],[8.588,55.831],[8.579,55.835],[8.57,55.835],[8.561,55.834],[8.554,55.832],[8.549,55.829],[8.549,55.825],[8.554,55.819],[8.556,55.816],[8.555,55.813],[8.553,55.811],[8.503,55.779],[8.49,55.771],[8.472,55.769],[8.46,55.771],[8.424,55.784],[8.399,55.79],[8.368,55.803],[8.176,55.801]]],[[[10.559,55.866],[10.573,55.879],[10.581,55.895],[10.58,55.912],[10.567,55.928],[10.549,55.936],[10.528,55.941],[10.515,55.951],[10.519,55.976],[10.529,55.989],[10.544,55.998],[10.557,55.996],[10.564,55.954],[10.58,55.937],[10.603,55.925],[10.628,55.921],[10.619,55.911],[10.615,55.9],[10.616,55.89],[10.621,55.88],[10.639,55.866],[10.651,55.87],[10.659,55.881],[10.666,55.887],[10.669,55.88],[10.655,55.865],[10.628,55.846],[10.623,55.828],[10.624,55.794],[10.615,55.777],[10.582,55.76],[10.547,55.765],[10.52,55.789],[10.512,55.825],[10.517,55.846],[10.528,55.854],[10.542,55.858],[10.559,55.866]]],[[[11.512,56.695],[11.51,56.71],[11.521,56.715],[11.606,56.72],[11.649,56.73],[11.649,56.722],[11.645,56.722],[11.642,56.721],[11.636,56.716],[11.618,56.711],[11.604,56.701],[11.593,56.69],[11.581,56.681],[11.564,56.677],[11.544,56.679],[11.525,56.685],[11.512,56.695]]]]}},{"type":"Feature","id":"DK-83","properties":{"id":"DK-83","countryCode":"DK","isoSubdivision":"DK-83","name":"Southern Denmark","name_en":"Southern Denmark","name_ko":"남덴마크 지역","type":"Region","labelLongitude":9.129,"labelLatitude":55.349,"minZoom":7.7},"geometry":{"type":"MultiPolygon","coordinates":[[[[9.317,54.802],[9.244,54.802],[9.226,54.806],[9.219,54.818],[9.216,54.832],[9.212,54.842],[9.195,54.85],[8.983,54.879],[8.904,54.898],[8.824,54.906],[8.801,54.904],[8.733,54.889],[8.696,54.89],[8.661,54.896],[8.669,54.914],[8.661,54.92],[8.675,54.948],[8.666,54.973],[8.65,54.998],[8.641,55.023],[8.645,55.056],[8.657,55.083],[8.671,55.107],[8.682,55.133],[8.576,55.144],[8.564,55.143],[8.56,55.135],[8.557,55.096],[8.551,55.091],[8.541,55.09],[8.529,55.082],[8.515,55.071],[8.499,55.066],[8.484,55.068],[8.47,55.079],[8.459,55.103],[8.46,55.127],[8.466,55.152],[8.47,55.178],[8.489,55.197],[8.531,55.201],[8.573,55.194],[8.594,55.181],[8.58,55.179],[8.57,55.174],[8.552,55.161],[8.555,55.149],[8.615,55.144],[8.669,55.137],[8.689,55.142],[8.687,55.161],[8.669,55.195],[8.656,55.237],[8.648,55.28],[8.65,55.292],[8.659,55.306],[8.661,55.314],[8.66,55.327],[8.648,55.352],[8.639,55.397],[8.632,55.419],[8.618,55.438],[8.593,55.449],[8.557,55.454],[8.49,55.455],[8.442,55.464],[8.401,55.486],[8.31,55.563],[8.311,55.57],[8.332,55.572],[8.332,55.578],[8.313,55.583],[8.29,55.584],[8.268,55.581],[8.25,55.572],[8.239,55.558],[8.242,55.549],[8.272,55.53],[8.262,55.529],[8.256,55.527],[8.244,55.517],[8.267,55.514],[8.294,55.504],[8.317,55.489],[8.326,55.472],[8.313,55.469],[8.194,55.526],[8.169,55.534],[8.111,55.54],[8.095,55.549],[8.094,55.564],[8.15,55.649],[8.169,55.688],[8.182,55.729],[8.183,55.77],[8.176,55.801],[8.368,55.803],[8.399,55.79],[8.424,55.784],[8.46,55.771],[8.472,55.769],[8.49,55.771],[8.503,55.779],[8.553,55.811],[8.555,55.813],[8.556,55.816],[8.554,55.819],[8.549,55.825],[8.549,55.829],[8.554,55.832],[8.561,55.834],[8.57,55.835],[8.579,55.835],[8.588,55.831],[8.599,55.829],[8.611,55.828],[8.628,55.83],[8.644,55.834],[8.655,55.835],[8.687,55.83],[8.757,55.802],[8.775,55.799],[8.807,55.805],[8.823,55.81],[8.823,55.817],[8.818,55.834],[8.828,55.843],[8.843,55.872],[8.88,55.883],[8.929,55.88],[8.959,55.864],[8.999,55.835],[9.013,55.829],[9.047,55.831],[9.058,55.837],[9.071,55.836],[9.08,55.848],[9.085,55.854],[9.094,55.859],[9.103,55.863],[9.121,55.866],[9.138,55.874],[9.184,55.907],[9.212,55.938],[9.249,55.943],[9.343,55.925],[9.375,55.914],[9.4,55.902],[9.451,55.866],[9.458,55.858],[9.46,55.853],[9.463,55.846],[9.469,55.837],[9.491,55.822],[9.516,55.798],[9.53,55.788],[9.546,55.785],[9.582,55.787],[9.601,55.785],[9.605,55.779],[9.603,55.773],[9.598,55.767],[9.596,55.761],[9.598,55.753],[9.609,55.749],[9.642,55.747],[9.664,55.743],[9.676,55.737],[9.681,55.728],[9.68,55.72],[9.676,55.709],[9.583,55.709],[9.56,55.715],[9.556,55.712],[9.555,55.709],[9.553,55.706],[9.553,55.701],[9.574,55.695],[9.646,55.695],[9.659,55.69],[9.71,55.66],[9.721,55.648],[9.728,55.638],[9.738,55.63],[9.758,55.627],[9.854,55.627],[9.837,55.615],[9.785,55.592],[9.758,55.572],[9.744,55.566],[9.721,55.565],[9.712,55.56],[9.711,55.551],[9.71,55.542],[9.707,55.537],[9.644,55.528],[9.621,55.519],[9.607,55.517],[9.595,55.518],[9.573,55.524],[9.56,55.524],[9.562,55.52],[9.566,55.517],[9.552,55.505],[9.515,55.498],[9.498,55.489],[9.516,55.483],[9.534,55.484],[9.584,55.491],[9.593,55.494],[9.602,55.496],[9.66,55.478],[9.664,55.467],[9.66,55.453],[9.649,55.441],[9.635,55.436],[9.601,55.432],[9.587,55.427],[9.592,55.416],[9.604,55.401],[9.608,55.393],[9.605,55.382],[9.599,55.373],[9.601,55.366],[9.621,55.359],[9.633,55.352],[9.645,55.343],[9.648,55.333],[9.635,55.325],[9.635,55.318],[9.645,55.311],[9.682,55.275],[9.694,55.272],[9.706,55.265],[9.71,55.249],[9.707,55.237],[9.699,55.23],[9.693,55.221],[9.69,55.205],[9.684,55.198],[9.672,55.192],[9.656,55.189],[9.642,55.188],[9.583,55.195],[9.57,55.193],[9.562,55.187],[9.555,55.181],[9.546,55.174],[9.522,55.165],[9.507,55.162],[9.494,55.161],[9.486,55.156],[9.486,55.147],[9.495,55.14],[9.512,55.14],[9.512,55.133],[9.482,55.134],[9.469,55.132],[9.457,55.126],[9.467,55.121],[9.479,55.12],[9.508,55.12],[9.521,55.116],[9.536,55.107],[9.56,55.085],[9.534,55.066],[9.517,55.057],[9.498,55.051],[9.452,55.045],[9.434,55.038],[9.443,55.023],[9.455,55.023],[9.512,55.036],[9.537,55.035],[9.546,55.036],[9.553,55.04],[9.56,55.044],[9.569,55.049],[9.58,55.051],[9.602,55.045],[9.642,55.02],[9.663,55.01],[9.718,55.001],[9.731,54.995],[9.739,54.981],[9.761,54.905],[9.763,54.9],[9.762,54.897],[9.752,54.893],[9.737,54.893],[9.723,54.898],[9.711,54.899],[9.703,54.886],[9.716,54.884],[9.728,54.879],[9.738,54.874],[9.744,54.866],[9.748,54.858],[9.75,54.846],[9.746,54.836],[9.731,54.832],[9.72,54.836],[9.705,54.855],[9.697,54.859],[9.655,54.857],[9.642,54.859],[9.623,54.865],[9.625,54.869],[9.633,54.873],[9.635,54.879],[9.617,54.894],[9.61,54.903],[9.618,54.907],[9.644,54.913],[9.639,54.925],[9.615,54.933],[9.587,54.928],[9.581,54.922],[9.568,54.901],[9.557,54.89],[9.551,54.883],[9.546,54.879],[9.538,54.878],[9.522,54.879],[9.515,54.876],[9.498,54.864],[9.456,54.844],[9.443,54.832],[9.436,54.81],[9.438,54.81],[9.437,54.81],[9.422,54.807],[9.405,54.808],[9.385,54.819],[9.367,54.817],[9.356,54.811],[9.342,54.809],[9.332,54.803],[9.317,54.802]]],[[[10.45,54.9],[10.467,54.891],[10.486,54.884],[10.499,54.875],[10.499,54.859],[10.508,54.855],[10.519,54.852],[10.44,54.841],[10.419,54.828],[10.406,54.825],[10.383,54.831],[10.211,54.939],[10.195,54.962],[10.189,54.977],[10.204,54.968],[10.289,54.941],[10.314,54.928],[10.337,54.906],[10.35,54.897],[10.364,54.893],[10.379,54.893],[10.391,54.895],[10.396,54.903],[10.389,54.92],[10.403,54.908],[10.415,54.878],[10.426,54.873],[10.447,54.872],[10.461,54.874],[10.464,54.882],[10.45,54.9]]],[[[10.011,54.976],[10.026,54.96],[10.065,54.891],[10.064,54.881],[10.05,54.879],[10.022,54.879],[10.007,54.875],[9.988,54.866],[9.968,54.86],[9.954,54.863],[9.937,54.871],[9.891,54.879],[9.874,54.886],[9.874,54.893],[9.901,54.901],[9.932,54.893],[9.964,54.88],[9.992,54.873],[9.992,54.879],[9.944,54.904],[9.898,54.913],[9.888,54.914],[9.878,54.911],[9.864,54.903],[9.854,54.9],[9.815,54.901],[9.781,54.917],[9.761,54.943],[9.764,54.976],[9.758,54.976],[9.758,54.982],[9.78,54.973],[9.804,54.957],[9.827,54.945],[9.848,54.948],[9.843,54.952],[9.837,54.959],[9.833,54.965],[9.837,54.968],[9.842,54.97],[9.835,54.975],[9.794,54.992],[9.787,55],[9.799,55.01],[9.799,55.017],[9.721,55.012],[9.707,55.013],[9.697,55.018],[9.685,55.019],[9.674,55.021],[9.669,55.03],[9.672,55.035],[9.691,55.043],[9.697,55.051],[9.678,55.05],[9.662,55.047],[9.646,55.045],[9.628,55.051],[9.628,55.058],[9.717,55.082],[9.752,55.085],[9.793,55.081],[9.853,55.04],[9.885,55.03],[9.929,55.026],[9.961,55.015],[9.987,54.998],[10.011,54.976]]],[[[10.855,55.044],[10.862,55.072],[10.896,55.122],[10.934,55.16],[10.957,55.154],[10.909,55.03],[10.89,54.997],[10.838,54.937],[10.741,54.752],[10.731,54.74],[10.718,54.736],[10.694,54.735],[10.682,54.745],[10.656,54.804],[10.646,54.815],[10.632,54.823],[10.601,54.838],[10.625,54.839],[10.641,54.843],[10.653,54.852],[10.669,54.866],[10.679,54.883],[10.684,54.888],[10.694,54.883],[10.699,54.881],[10.724,54.886],[10.722,54.896],[10.718,54.907],[10.709,54.903],[10.7,54.902],[10.692,54.903],[10.683,54.907],[10.697,54.931],[10.718,54.949],[10.774,54.987],[10.798,54.997],[10.855,55.044]]],[[[8.476,55.345],[8.452,55.34],[8.425,55.356],[8.402,55.38],[8.371,55.427],[8.364,55.449],[8.374,55.463],[8.408,55.468],[8.412,55.439],[8.429,55.434],[8.449,55.436],[8.463,55.427],[8.463,55.416],[8.45,55.393],[8.453,55.383],[8.46,55.372],[8.467,55.354],[8.476,55.345]]],[[[10.666,55.064],[10.621,55.064],[10.605,55.063],[10.586,55.058],[10.569,55.05],[10.556,55.04],[10.538,55.03],[10.517,55.031],[10.478,55.044],[10.411,55.047],[10.389,55.051],[10.379,55.055],[10.371,55.059],[10.363,55.063],[10.351,55.064],[10.326,55.063],[10.313,55.064],[10.234,55.092],[10.205,55.094],[10.198,55.086],[10.197,55.064],[10.182,55.071],[10.158,55.087],[10.142,55.092],[10.121,55.092],[10.084,55.087],[10.066,55.092],[10.143,55.126],[10.156,55.14],[10.139,55.154],[10.126,55.171],[10.113,55.184],[10.094,55.188],[10.079,55.186],[10.068,55.182],[10.056,55.18],[10.039,55.181],[10.017,55.194],[10.004,55.197],[9.992,55.188],[9.994,55.173],[10.029,55.142],[10.026,55.126],[10.021,55.124],[9.986,55.128],[9.983,55.131],[9.984,55.135],[9.984,55.14],[9.987,55.139],[9.99,55.143],[9.989,55.152],[9.974,55.174],[9.972,55.185],[9.974,55.195],[9.981,55.205],[9.98,55.213],[9.964,55.218],[9.924,55.224],[9.911,55.229],[9.9,55.234],[9.895,55.239],[9.893,55.244],[9.884,55.253],[9.882,55.26],[9.884,55.266],[9.893,55.275],[9.895,55.28],[9.893,55.291],[9.884,55.309],[9.882,55.314],[9.885,55.349],[9.875,55.353],[9.859,55.354],[9.83,55.352],[9.817,55.355],[9.802,55.362],[9.778,55.38],[9.795,55.384],[9.814,55.385],[9.83,55.389],[9.84,55.4],[9.785,55.414],[9.794,55.413],[9.82,55.414],[9.809,55.425],[9.791,55.432],[9.751,55.435],[9.737,55.438],[9.703,55.462],[9.703,55.468],[9.73,55.461],[9.758,55.447],[9.786,55.437],[9.812,55.441],[9.713,55.491],[9.676,55.496],[9.684,55.506],[9.694,55.51],[9.705,55.512],[9.718,55.517],[9.755,55.544],[9.809,55.55],[9.827,55.548],[9.831,55.543],[9.831,55.535],[9.84,55.524],[9.888,55.509],[9.94,55.519],[10.039,55.558],[10.169,55.582],[10.213,55.601],[10.237,55.606],[10.264,55.607],[10.272,55.606],[10.273,55.603],[10.279,55.588],[10.28,55.585],[10.294,55.588],[10.297,55.596],[10.294,55.616],[10.308,55.618],[10.338,55.61],[10.407,55.583],[10.423,55.572],[10.435,55.56],[10.444,55.553],[10.454,55.55],[10.472,55.549],[10.489,55.545],[10.519,55.533],[10.502,55.537],[10.487,55.537],[10.475,55.532],[10.471,55.52],[10.474,55.516],[10.489,55.509],[10.491,55.503],[10.486,55.495],[10.478,55.492],[10.468,55.492],[10.457,55.489],[10.42,55.459],[10.436,55.442],[10.472,55.443],[10.491,55.465],[10.502,55.464],[10.567,55.483],[10.605,55.489],[10.609,55.493],[10.607,55.499],[10.602,55.506],[10.598,55.509],[10.589,55.511],[10.579,55.514],[10.571,55.519],[10.567,55.524],[10.57,55.532],[10.582,55.529],[10.596,55.521],[10.601,55.517],[10.614,55.528],[10.611,55.544],[10.601,55.561],[10.594,55.578],[10.599,55.574],[10.615,55.565],[10.615,55.581],[10.608,55.606],[10.609,55.613],[10.628,55.614],[10.657,55.595],[10.704,55.55],[10.706,55.544],[10.707,55.535],[10.709,55.527],[10.714,55.524],[10.717,55.521],[10.738,55.509],[10.744,55.496],[10.742,55.487],[10.733,55.482],[10.704,55.471],[10.657,55.46],[10.588,55.463],[10.571,55.461],[10.559,55.455],[10.554,55.443],[10.563,55.436],[10.579,55.436],[10.594,55.441],[10.59,55.446],[10.589,55.449],[10.596,55.46],[10.616,55.457],[10.683,55.448],[10.698,55.44],[10.797,55.359],[10.803,55.35],[10.828,55.307],[10.834,55.29],[10.827,55.29],[10.815,55.301],[10.797,55.308],[10.78,55.305],[10.773,55.287],[10.779,55.275],[10.805,55.25],[10.813,55.236],[10.815,55.214],[10.813,55.194],[10.806,55.177],[10.791,55.157],[10.788,55.149],[10.787,55.129],[10.783,55.124],[10.759,55.105],[10.749,55.093],[10.743,55.082],[10.734,55.072],[10.718,55.064],[10.706,55.063],[10.666,55.064]]]]}},{"type":"Feature","id":"DK-84","properties":{"id":"DK-84","countryCode":"DK","isoSubdivision":"DK-84","name":"Denmark","name_en":"Denmark","name_ko":"덴마크 수도 지역","type":"Region","labelLongitude":12.32,"labelLatitude":55.849,"minZoom":7.7},"geometry":{"type":"MultiPolygon","coordinates":[[[[15.151,55.133],[15.147,55.128],[15.145,55.125],[15.142,55.122],[15.138,55.12],[15.145,55.105],[15.148,55.096],[15.145,55.087],[15.134,55.075],[15.113,55.055],[15.107,55.045],[15.11,55.036],[15.11,55.03],[15.113,55.018],[15.097,55.008],[15.087,54.999],[15.073,54.992],[15.024,54.999],[14.983,55.001],[14.927,55.014],[14.859,55.038],[14.781,55.051],[14.7,55.089],[14.684,55.101],[14.697,55.123],[14.701,55.165],[14.706,55.226],[14.709,55.236],[14.718,55.247],[14.737,55.267],[14.745,55.282],[14.752,55.299],[14.761,55.309],[14.775,55.304],[14.815,55.27],[14.829,55.262],[14.851,55.248],[14.889,55.233],[14.927,55.216],[14.954,55.219],[14.973,55.216],[14.99,55.196],[15,55.188],[15.013,55.184],[15.085,55.155],[15.132,55.145],[15.151,55.133]]],[[[12.616,55.688],[12.674,55.606],[12.675,55.601],[12.639,55.578],[12.624,55.576],[12.606,55.569],[12.589,55.561],[12.578,55.554],[12.556,55.55],[12.535,55.569],[12.521,55.597],[12.52,55.619],[12.531,55.632],[12.544,55.64],[12.557,55.647],[12.567,55.654],[12.578,55.666],[12.595,55.691],[12.608,55.701],[12.613,55.695],[12.614,55.692],[12.616,55.688]]],[[[11.854,55.732],[11.855,55.733],[11.853,55.74],[11.844,55.753],[11.842,55.756],[11.845,55.768],[11.853,55.782],[11.869,55.805],[11.884,55.814],[11.919,55.819],[11.937,55.825],[11.954,55.854],[11.933,55.886],[11.91,55.915],[11.917,55.935],[11.935,55.934],[11.97,55.913],[11.989,55.907],[11.998,55.903],[11.998,55.893],[11.994,55.882],[11.992,55.874],[11.996,55.861],[12,55.857],[12.005,55.853],[12.012,55.846],[12.031,55.817],[12.049,55.775],[12.052,55.737],[12.026,55.715],[11.99,55.723],[11.973,55.721],[11.925,55.738],[11.909,55.741],[11.908,55.739],[11.906,55.737],[11.894,55.734],[11.856,55.732],[11.854,55.732]]],[[[12.076,55.779],[12.053,55.838],[12.053,55.874],[12.05,55.888],[12.026,55.941],[12.011,55.955],[11.992,55.961],[11.971,55.96],[11.894,55.942],[11.865,55.939],[11.849,55.948],[11.866,55.973],[11.917,55.998],[12.012,56.031],[12.165,56.104],[12.245,56.129],[12.328,56.127],[12.415,56.099],[12.486,56.099],[12.505,56.093],[12.54,56.075],[12.57,56.068],[12.622,56.044],[12.608,56.028],[12.567,55.997],[12.553,55.98],[12.526,55.94],[12.513,55.928],[12.513,55.921],[12.54,55.898],[12.554,55.883],[12.561,55.87],[12.565,55.851],[12.576,55.829],[12.59,55.809],[12.602,55.797],[12.598,55.788],[12.596,55.774],[12.595,55.753],[12.589,55.736],[12.588,55.729],[12.589,55.724],[12.593,55.719],[12.602,55.709],[12.581,55.693],[12.541,55.649],[12.503,55.634],[12.497,55.622],[12.487,55.61],[12.465,55.606],[12.449,55.609],[12.437,55.614],[12.424,55.619],[12.404,55.619],[12.359,55.605],[12.317,55.617],[12.281,55.619],[12.252,55.616],[12.24,55.622],[12.22,55.615],[12.201,55.614],[12.17,55.622],[12.169,55.634],[12.164,55.638],[12.163,55.644],[12.164,55.651],[12.165,55.655],[12.167,55.658],[12.167,55.66],[12.166,55.662],[12.166,55.664],[12.158,55.671],[12.193,55.686],[12.216,55.691],[12.255,55.708],[12.258,55.712],[12.256,55.715],[12.236,55.721],[12.233,55.723],[12.231,55.726],[12.228,55.728],[12.227,55.734],[12.24,55.741],[12.168,55.749],[12.152,55.758],[12.113,55.779],[12.076,55.779]]]]}},{"type":"Feature","id":"DK-85","properties":{"id":"DK-85","countryCode":"DK","isoSubdivision":"DK-85","name":"Zealand","name_en":"Zealand","name_ko":"셸란 지역","type":"Region","labelLongitude":11.748,"labelLatitude":55.442,"minZoom":7.7},"geometry":{"type":"MultiPolygon","coordinates":[[[[11.845,54.732],[11.834,54.725],[11.824,54.722],[11.815,54.719],[11.807,54.708],[11.846,54.698],[11.843,54.676],[11.811,54.655],[11.766,54.647],[11.611,54.666],[11.56,54.66],[11.512,54.647],[11.474,54.626],[11.452,54.628],[11.359,54.661],[11.298,54.692],[11.188,54.732],[11.138,54.739],[11.085,54.753],[11.031,54.761],[11.009,54.772],[10.999,54.787],[11.006,54.804],[11.031,54.812],[11.061,54.809],[11.09,54.811],[11.108,54.832],[11.092,54.835],[11.078,54.841],[11.025,54.879],[11.019,54.886],[11.019,54.903],[11.032,54.919],[11.074,54.948],[11.088,54.944],[11.232,54.961],[11.256,54.955],[11.303,54.932],[11.321,54.928],[11.339,54.919],[11.369,54.881],[11.393,54.873],[11.417,54.869],[11.595,54.811],[11.585,54.829],[11.574,54.839],[11.573,54.848],[11.595,54.859],[11.622,54.859],[11.646,54.865],[11.656,54.866],[11.647,54.877],[11.645,54.89],[11.646,54.902],[11.649,54.914],[11.726,54.873],[11.732,54.859],[11.756,54.841],[11.771,54.834],[11.787,54.832],[11.777,54.826],[11.773,54.825],[11.788,54.807],[11.838,54.783],[11.849,54.773],[11.851,54.757],[11.855,54.749],[11.855,54.744],[11.845,54.732]]],[[[12.417,55.03],[12.505,55.02],[12.538,55.002],[12.554,54.968],[12.552,54.957],[12.543,54.951],[12.526,54.949],[12.503,54.948],[12.385,54.963],[12.348,54.96],[12.314,54.951],[12.28,54.935],[12.227,54.893],[12.208,54.886],[12.179,54.889],[12.115,54.907],[12.115,54.914],[12.129,54.914],[12.125,54.924],[12.129,54.932],[12.138,54.937],[12.149,54.941],[12.144,54.944],[12.135,54.952],[12.129,54.954],[12.151,54.969],[12.164,54.973],[12.177,54.968],[12.184,54.976],[12.177,54.989],[12.193,54.988],[12.217,54.979],[12.232,54.976],[12.242,54.977],[12.275,54.984],[12.287,54.989],[12.282,54.999],[12.281,55.007],[12.286,55.013],[12.294,55.017],[12.294,55.023],[12.262,55.037],[12.253,55.044],[12.248,55.054],[12.251,55.061],[12.262,55.064],[12.28,55.064],[12.302,55.042],[12.335,55.033],[12.417,55.03]]],[[[12.359,55.605],[12.331,55.595],[12.312,55.584],[12.248,55.546],[12.198,55.487],[12.225,55.435],[12.273,55.41],[12.291,55.407],[12.352,55.404],[12.369,55.4],[12.412,55.379],[12.435,55.364],[12.445,55.349],[12.446,55.332],[12.451,55.317],[12.465,55.29],[12.45,55.28],[12.445,55.277],[12.392,55.255],[12.183,55.227],[12.167,55.217],[12.141,55.208],[12.121,55.191],[12.109,55.171],[12.115,55.154],[12.107,55.145],[12.099,55.141],[12.09,55.142],[12.081,55.147],[12.088,55.168],[12.077,55.182],[12.056,55.186],[12.037,55.178],[12.028,55.173],[12.02,55.171],[12.015,55.167],[12.012,55.157],[12.018,55.153],[12.047,55.14],[12.131,55.136],[12.169,55.128],[12.177,55.105],[12.171,55.095],[12.165,55.091],[12.158,55.089],[12.149,55.085],[12.128,55.079],[12.119,55.074],[12.126,55.071],[12.163,55.023],[12.162,55.004],[12.149,54.994],[12.128,54.99],[12.105,54.989],[12.09,54.986],[12.056,54.971],[12.033,54.968],[11.998,54.977],[11.944,55.006],[11.91,55.01],[11.91,55.005],[11.911,55.004],[11.914,55.004],[11.917,55.003],[11.911,55.001],[11.908,54.999],[11.905,54.997],[11.897,54.995],[11.902,54.976],[11.894,54.965],[11.885,54.955],[11.883,54.941],[11.89,54.93],[11.903,54.923],[11.918,54.922],[11.931,54.928],[11.929,54.931],[11.924,54.941],[11.932,54.941],[11.958,54.948],[11.966,54.943],[11.98,54.924],[11.982,54.92],[11.991,54.916],[12.024,54.898],[12.04,54.893],[12.059,54.894],[12.078,54.898],[12.096,54.898],[12.112,54.89],[12.14,54.865],[12.17,54.845],[12.17,54.838],[12.082,54.796],[12.067,54.787],[12.028,54.744],[12.023,54.735],[12.013,54.731],[11.986,54.712],[11.975,54.708],[11.961,54.694],[11.96,54.662],[11.971,54.606],[11.969,54.57],[11.949,54.569],[11.928,54.584],[11.924,54.598],[11.909,54.61],[11.877,54.647],[11.869,54.66],[11.871,54.68],[11.883,54.696],[11.91,54.722],[11.89,54.724],[11.876,54.73],[11.872,54.74],[11.883,54.756],[11.871,54.76],[11.865,54.765],[11.855,54.777],[11.809,54.805],[11.805,54.81],[11.801,54.818],[11.799,54.826],[11.8,54.831],[11.8,54.837],[11.793,54.845],[11.776,54.856],[11.761,54.863],[11.75,54.873],[11.746,54.893],[11.745,54.911],[11.742,54.925],[11.732,54.935],[11.711,54.941],[11.711,54.948],[11.75,54.966],[11.759,54.968],[11.774,54.965],[11.793,54.951],[11.804,54.948],[11.815,54.952],[11.838,54.966],[11.842,54.965],[11.848,54.959],[11.862,54.964],[11.883,54.976],[11.883,54.982],[11.872,54.99],[11.854,55.02],[11.842,55.03],[11.775,55.049],[11.756,55.051],[11.75,55.053],[11.737,55.062],[11.729,55.064],[11.666,55.066],[11.647,55.072],[11.63,55.081],[11.616,55.092],[11.67,55.086],[11.775,55.057],[11.827,55.051],[11.805,55.074],[11.743,55.101],[11.718,55.126],[11.804,55.135],[11.81,55.139],[11.807,55.147],[11.785,55.157],[11.729,55.155],[11.711,55.168],[11.726,55.177],[11.735,55.189],[11.733,55.2],[11.718,55.208],[11.695,55.208],[11.678,55.199],[11.664,55.188],[11.649,55.181],[11.636,55.182],[11.599,55.191],[11.524,55.202],[11.506,55.208],[11.492,55.204],[11.423,55.222],[11.41,55.22],[11.383,55.211],[11.369,55.208],[11.3,55.208],[11.3,55.201],[11.32,55.195],[11.286,55.195],[11.261,55.201],[11.245,55.215],[11.239,55.242],[11.253,55.236],[11.268,55.236],[11.28,55.242],[11.286,55.256],[11.276,55.252],[11.265,55.249],[11.242,55.249],[11.239,55.254],[11.242,55.279],[11.235,55.284],[11.217,55.29],[11.162,55.319],[11.153,55.328],[11.162,55.331],[11.176,55.332],[11.188,55.335],[11.19,55.345],[11.182,55.35],[11.168,55.353],[11.153,55.353],[11.142,55.352],[11.135,55.347],[11.131,55.338],[11.124,55.332],[11.108,55.332],[11.102,55.336],[11.088,55.359],[11.088,55.366],[11.115,55.364],[11.129,55.365],[11.139,55.369],[11.148,55.376],[11.159,55.381],[11.172,55.385],[11.183,55.386],[11.204,55.392],[11.214,55.404],[11.213,55.416],[11.201,55.421],[11.205,55.431],[11.196,55.454],[11.176,55.489],[11.164,55.502],[11.151,55.51],[11.136,55.515],[11.115,55.517],[11.097,55.51],[11.086,55.508],[11.081,55.513],[11.083,55.527],[11.089,55.534],[11.098,55.537],[11.112,55.537],[11.138,55.543],[11.148,55.557],[11.146,55.576],[11.132,55.595],[11.088,55.627],[11.039,55.643],[10.93,55.66],[10.93,55.668],[11.088,55.66],[11.071,55.677],[11.009,55.692],[10.985,55.701],[10.974,55.711],[10.968,55.718],[10.96,55.724],[10.944,55.729],[10.891,55.731],[10.875,55.737],[10.875,55.743],[11.033,55.729],[11.066,55.732],[11.128,55.746],[11.163,55.749],[11.163,55.743],[11.152,55.744],[11.141,55.743],[11.131,55.741],[11.122,55.737],[11.138,55.719],[11.163,55.705],[11.193,55.7],[11.218,55.709],[11.176,55.729],[11.19,55.737],[11.199,55.731],[11.216,55.729],[11.252,55.729],[11.268,55.733],[11.302,55.747],[11.337,55.751],[11.352,55.756],[11.364,55.765],[11.369,55.78],[11.37,55.788],[11.375,55.802],[11.376,55.808],[11.372,55.816],[11.355,55.83],[11.348,55.838],[11.374,55.829],[11.398,55.826],[11.422,55.832],[11.443,55.846],[11.478,55.842],[11.505,55.869],[11.511,55.908],[11.477,55.941],[11.448,55.948],[11.384,55.951],[11.305,55.968],[11.282,55.979],[11.273,55.997],[11.401,55.962],[11.427,55.966],[11.581,55.952],[11.599,55.942],[11.641,55.943],[11.711,55.956],[11.748,55.968],[11.768,55.971],[11.78,55.962],[11.775,55.952],[11.747,55.933],[11.739,55.921],[11.75,55.91],[11.744,55.904],[11.728,55.902],[11.711,55.907],[11.714,55.911],[11.718,55.921],[11.686,55.92],[11.673,55.916],[11.663,55.907],[11.713,55.858],[11.732,55.831],[11.718,55.811],[11.702,55.809],[11.671,55.814],[11.656,55.811],[11.638,55.796],[11.626,55.791],[11.608,55.79],[11.608,55.783],[11.624,55.78],[11.674,55.783],[11.687,55.786],[11.703,55.793],[11.72,55.799],[11.739,55.797],[11.745,55.789],[11.756,55.773],[11.764,55.757],[11.763,55.749],[11.682,55.741],[11.665,55.737],[11.657,55.731],[11.67,55.723],[11.684,55.722],[11.729,55.724],[11.739,55.726],[11.746,55.731],[11.763,55.721],[11.787,55.701],[11.794,55.688],[11.794,55.683],[11.788,55.677],[11.78,55.66],[11.798,55.67],[11.811,55.679],[11.852,55.731],[11.854,55.732],[11.856,55.732],[11.894,55.734],[11.906,55.737],[11.908,55.739],[11.909,55.741],[11.925,55.738],[11.973,55.721],[11.965,55.705],[11.958,55.693],[11.923,55.674],[11.91,55.66],[11.93,55.658],[11.959,55.665],[11.982,55.679],[11.985,55.695],[12.001,55.699],[12.018,55.696],[12.032,55.687],[12.04,55.674],[12.009,55.68],[12.005,55.678],[12.011,55.669],[12.027,55.662],[12.06,55.654],[12.069,55.675],[12.092,55.707],[12.095,55.729],[12.076,55.779],[12.113,55.779],[12.152,55.758],[12.168,55.749],[12.24,55.741],[12.227,55.734],[12.228,55.728],[12.231,55.726],[12.233,55.723],[12.236,55.721],[12.256,55.715],[12.258,55.712],[12.255,55.708],[12.216,55.691],[12.193,55.686],[12.158,55.671],[12.166,55.664],[12.166,55.662],[12.167,55.66],[12.167,55.658],[12.165,55.655],[12.164,55.651],[12.163,55.644],[12.164,55.638],[12.169,55.634],[12.17,55.622],[12.201,55.614],[12.22,55.615],[12.24,55.622],[12.252,55.616],[12.281,55.619],[12.317,55.617],[12.359,55.605]]]]}}]}
