{"type":"FeatureCollection","features":[{"type":"Feature","id":"DM-02","properties":{"id":"DM-02","countryCode":"DM","isoSubdivision":"DM-02","name":"Saint Andrew","name_en":"Saint Andrew","name_ko":"세인트앤드루구","type":"Parish","labelLongitude":-61.359,"labelLatitude":15.538,"minZoom":11},"geometry":{"type":"Polygon","coordinates":[[[-61.449,15.633],[-61.437,15.633],[-61.426,15.628],[-61.414,15.62],[-61.398,15.597],[-61.385,15.588],[-61.37,15.596],[-61.357,15.598],[-61.308,15.579],[-61.306,15.572],[-61.3,15.557],[-61.29,15.541],[-61.284,15.531],[-61.269,15.51],[-61.274,15.503],[-61.276,15.499],[-61.275,15.498],[-61.275,15.478],[-61.275,15.476],[-61.276,15.475],[-61.28,15.472],[-61.281,15.471],[-61.281,15.47],[-61.282,15.47],[-61.284,15.47],[-61.287,15.468],[-61.289,15.466],[-61.29,15.465],[-61.291,15.465],[-61.292,15.465],[-61.293,15.465],[-61.294,15.465],[-61.298,15.462],[-61.317,15.445],[-61.323,15.458],[-61.338,15.47],[-61.344,15.473],[-61.348,15.475],[-61.351,15.475],[-61.354,15.476],[-61.358,15.477],[-61.368,15.482],[-61.369,15.482],[-61.37,15.482],[-61.375,15.48],[-61.379,15.478],[-61.384,15.478],[-61.389,15.48],[-61.393,15.482],[-61.406,15.494],[-61.408,15.503],[-61.41,15.523],[-61.411,15.528],[-61.418,15.533],[-61.419,15.539],[-61.418,15.568],[-61.419,15.578],[-61.42,15.579],[-61.42,15.58],[-61.421,15.58],[-61.422,15.58],[-61.423,15.58],[-61.424,15.58],[-61.426,15.581],[-61.427,15.581],[-61.427,15.582],[-61.427,15.583],[-61.431,15.584],[-61.438,15.591],[-61.44,15.595],[-61.449,15.633]]]}},{"type":"Feature","id":"DM-03","properties":{"id":"DM-03","countryCode":"DM","isoSubdivision":"DM-03","name":"Saint David","name_en":"Saint David","name_ko":"세인트데이비드구","type":"Parish","labelLongitude":-61.292,"labelLatitude":15.396,"minZoom":11},"geometry":{"type":"Polygon","coordinates":[[[-61.269,15.51],[-61.267,15.508],[-61.258,15.473],[-61.256,15.436],[-61.263,15.408],[-61.258,15.406],[-61.254,15.403],[-61.249,15.401],[-61.256,15.365],[-61.254,15.333],[-61.296,15.325],[-61.3,15.324],[-61.308,15.317],[-61.307,15.322],[-61.307,15.324],[-61.307,15.325],[-61.307,15.327],[-61.308,15.329],[-61.308,15.33],[-61.308,15.331],[-61.308,15.332],[-61.311,15.335],[-61.328,15.346],[-61.327,15.388],[-61.335,15.405],[-61.317,15.445],[-61.298,15.462],[-61.294,15.465],[-61.293,15.465],[-61.292,15.465],[-61.291,15.465],[-61.29,15.465],[-61.289,15.466],[-61.287,15.468],[-61.284,15.47],[-61.282,15.47],[-61.281,15.47],[-61.281,15.471],[-61.28,15.472],[-61.276,15.475],[-61.275,15.476],[-61.275,15.478],[-61.275,15.498],[-61.276,15.499],[-61.274,15.503],[-61.269,15.51]]]}},{"type":"Feature","id":"DM-04","properties":{"id":"DM-04","countryCode":"DM","isoSubdivision":"DM-04","name":"Saint George","name_en":"Saint George","name_ko":"세인트조지구","type":"Parish","labelLongitude":-61.349,"labelLatitude":15.3,"minZoom":11},"geometry":{"type":"Polygon","coordinates":[[[-61.373,15.26],[-61.373,15.266],[-61.373,15.271],[-61.378,15.282],[-61.391,15.296],[-61.393,15.308],[-61.394,15.314],[-61.382,15.313],[-61.38,15.313],[-61.379,15.313],[-61.377,15.313],[-61.376,15.313],[-61.375,15.313],[-61.374,15.314],[-61.373,15.315],[-61.372,15.316],[-61.369,15.323],[-61.369,15.324],[-61.369,15.325],[-61.328,15.346],[-61.311,15.335],[-61.308,15.332],[-61.308,15.331],[-61.308,15.33],[-61.308,15.329],[-61.307,15.327],[-61.307,15.325],[-61.307,15.324],[-61.307,15.322],[-61.308,15.317],[-61.305,15.314],[-61.304,15.314],[-61.304,15.312],[-61.317,15.292],[-61.319,15.29],[-61.323,15.287],[-61.333,15.282],[-61.343,15.274],[-61.357,15.254],[-61.373,15.26]]]}},{"type":"Feature","id":"DM-05","properties":{"id":"DM-05","countryCode":"DM","isoSubdivision":"DM-05","name":"Saint John","name_en":"Saint John","name_ko":"세인트존구","type":"Parish","labelLongitude":-61.448,"labelLatitude":15.577,"minZoom":11},"geometry":{"type":"Polygon","coordinates":[[[-61.484,15.53],[-61.485,15.53],[-61.489,15.536],[-61.489,15.545],[-61.484,15.552],[-61.467,15.563],[-61.462,15.573],[-61.469,15.574],[-61.481,15.579],[-61.489,15.579],[-61.481,15.591],[-61.469,15.634],[-61.449,15.633],[-61.44,15.595],[-61.438,15.591],[-61.431,15.584],[-61.427,15.583],[-61.427,15.582],[-61.427,15.581],[-61.426,15.581],[-61.424,15.58],[-61.423,15.58],[-61.422,15.58],[-61.421,15.58],[-61.42,15.58],[-61.42,15.579],[-61.419,15.578],[-61.418,15.568],[-61.419,15.539],[-61.418,15.533],[-61.411,15.528],[-61.41,15.523],[-61.408,15.503],[-61.463,15.532],[-61.464,15.532],[-61.465,15.532],[-61.469,15.532],[-61.47,15.532],[-61.475,15.534],[-61.476,15.534],[-61.477,15.534],[-61.48,15.534],[-61.481,15.533],[-61.484,15.53]]]}},{"type":"Feature","id":"DM-06","properties":{"id":"DM-06","countryCode":"DM","isoSubdivision":"DM-06","name":"Saint Joseph","name_en":"Saint Joseph","name_ko":"세인트조지프구","type":"Parish","labelLongitude":-61.386,"labelLatitude":15.436,"minZoom":11},"geometry":{"type":"Polygon","coordinates":[[[-61.416,15.39],[-61.418,15.406],[-61.421,15.415],[-61.444,15.437],[-61.448,15.445],[-61.45,15.455],[-61.454,15.465],[-61.455,15.466],[-61.439,15.48],[-61.433,15.485],[-61.432,15.487],[-61.431,15.489],[-61.424,15.492],[-61.406,15.494],[-61.393,15.482],[-61.389,15.48],[-61.384,15.478],[-61.379,15.478],[-61.375,15.48],[-61.37,15.482],[-61.369,15.482],[-61.368,15.482],[-61.358,15.477],[-61.354,15.476],[-61.351,15.475],[-61.348,15.475],[-61.344,15.473],[-61.338,15.47],[-61.323,15.458],[-61.317,15.445],[-61.335,15.405],[-61.368,15.39],[-61.371,15.389],[-61.375,15.39],[-61.393,15.394],[-61.405,15.394],[-61.416,15.39]]]}},{"type":"Feature","id":"DM-07","properties":{"id":"DM-07","countryCode":"DM","isoSubdivision":"DM-07","name":"Saint Luke","name_en":"Saint Luke","name_ko":"세인트루크구","type":"Parish","labelLongitude":-61.364,"labelLatitude":15.248,"minZoom":11},"geometry":{"type":"Polygon","coordinates":[[[-61.373,15.237],[-61.373,15.26],[-61.357,15.254],[-61.356,15.244],[-61.373,15.236],[-61.373,15.237]]]}},{"type":"Feature","id":"DM-08","properties":{"id":"DM-08","countryCode":"DM","isoSubdivision":"DM-08","name":"Saint Mark","name_en":"Saint Mark","name_ko":"세인트마크구","type":"Parish","labelLongitude":-61.361,"labelLatitude":15.222,"minZoom":11},"geometry":{"type":"Polygon","coordinates":[[[-61.346,15.212],[-61.351,15.205],[-61.363,15.202],[-61.374,15.205],[-61.376,15.213],[-61.373,15.237],[-61.373,15.236],[-61.356,15.244],[-61.346,15.212]]]}},{"type":"Feature","id":"DM-09","properties":{"id":"DM-09","countryCode":"DM","isoSubdivision":"DM-09","name":"Saint Patrick","name_en":"Saint Patrick","name_ko":"세인트패트릭구","type":"Parish","labelLongitude":-61.305,"labelLatitude":15.277,"minZoom":11},"geometry":{"type":"Polygon","coordinates":[[[-61.254,15.333],[-61.254,15.325],[-61.257,15.285],[-61.277,15.25],[-61.284,15.245],[-61.289,15.244],[-61.293,15.244],[-61.303,15.243],[-61.312,15.245],[-61.318,15.243],[-61.324,15.239],[-61.329,15.226],[-61.343,15.22],[-61.346,15.212],[-61.356,15.244],[-61.357,15.254],[-61.343,15.274],[-61.333,15.282],[-61.323,15.287],[-61.319,15.29],[-61.317,15.292],[-61.304,15.312],[-61.304,15.314],[-61.305,15.314],[-61.308,15.317],[-61.3,15.324],[-61.296,15.325],[-61.254,15.333]]]}},{"type":"Feature","id":"DM-10","properties":{"id":"DM-10","countryCode":"DM","isoSubdivision":"DM-10","name":"Saint Paul","name_en":"Saint Paul","name_ko":"세인트폴구","type":"Parish","labelLongitude":-61.372,"labelLatitude":15.353,"minZoom":11},"geometry":{"type":"Polygon","coordinates":[[[-61.394,15.314],[-61.395,15.333],[-61.4,15.351],[-61.414,15.381],[-61.416,15.388],[-61.416,15.39],[-61.405,15.394],[-61.393,15.394],[-61.375,15.39],[-61.371,15.389],[-61.368,15.39],[-61.335,15.405],[-61.327,15.388],[-61.328,15.346],[-61.369,15.325],[-61.369,15.324],[-61.369,15.323],[-61.372,15.316],[-61.373,15.315],[-61.374,15.314],[-61.375,15.313],[-61.376,15.313],[-61.377,15.313],[-61.379,15.313],[-61.38,15.313],[-61.382,15.313],[-61.394,15.314]]]}},{"type":"Feature","id":"DM-11","properties":{"id":"DM-11","countryCode":"DM","isoSubdivision":"DM-11","name":"Saint Peter","name_en":"Saint Peter","name_ko":"세인트피터구","type":"Parish","labelLongitude":-61.445,"labelLatitude":15.499,"minZoom":11},"geometry":{"type":"Polygon","coordinates":[[[-61.455,15.466],[-61.46,15.473],[-61.466,15.476],[-61.472,15.481],[-61.474,15.493],[-61.475,15.518],[-61.479,15.525],[-61.484,15.53],[-61.481,15.533],[-61.48,15.534],[-61.477,15.534],[-61.476,15.534],[-61.475,15.534],[-61.47,15.532],[-61.469,15.532],[-61.465,15.532],[-61.464,15.532],[-61.463,15.532],[-61.408,15.503],[-61.406,15.494],[-61.424,15.492],[-61.431,15.489],[-61.432,15.487],[-61.433,15.485],[-61.439,15.48],[-61.455,15.466]]]}}]}
