{"type":"FeatureCollection","features":[{"type":"Feature","id":"EH-X01~","properties":{"id":"EH-X01~","countryCode":"EH","isoSubdivision":"EH-X01~","name":"Western Sahara","name_en":"Western Sahara","name_ko":"웨스턴 사하라","type":"Principal subdivision","labelLongitude":-12.892,"labelLatitude":23.813,"minZoom":18},"geometry":{"type":"Polygon","coordinates":[[[-9.083,27.09],[-9.001,27.09],[-8.888,27.104],[-8.794,27.12],[-8.753,27.15],[-8.753,27.19],[-8.773,27.25],[-8.796,27.308],[-8.802,27.36],[-8.788,27.416],[-8.773,27.46],[-8.784,27.53],[-8.813,27.613],[-8.818,27.659],[-8.817,27.661],[-8.753,27.661],[-8.682,27.661],[-8.682,27.567],[-8.682,27.473],[-8.682,27.379],[-8.682,27.285],[-8.682,27.272],[-8.682,27.233],[-8.682,27.172],[-8.682,27.094],[-8.682,27.001],[-8.682,26.897],[-8.682,26.786],[-8.682,26.672],[-8.681,26.557],[-8.681,26.447],[-8.681,26.343],[-8.681,26.25],[-8.681,26.172],[-8.681,26.111],[-8.681,26.072],[-8.681,26.058],[-8.681,26.013],[-8.688,26],[-8.707,25.995],[-8.792,25.995],[-8.893,25.995],[-8.994,25.995],[-9.094,25.995],[-9.195,25.995],[-9.296,25.995],[-9.396,25.995],[-9.497,25.995],[-9.598,25.995],[-9.699,25.995],[-9.799,25.995],[-9.9,25.995],[-10.001,25.995],[-10.102,25.995],[-10.202,25.995],[-10.303,25.995],[-10.404,25.995],[-10.504,25.995],[-10.605,25.995],[-10.706,25.995],[-10.807,25.995],[-10.907,25.995],[-11.008,25.995],[-11.109,25.995],[-11.21,25.995],[-11.31,25.995],[-11.411,25.995],[-11.512,25.995],[-11.612,25.995],[-11.713,25.995],[-11.814,25.995],[-11.915,25.995],[-12.015,25.995],[-12.015,25.919],[-12.015,25.844],[-12.015,25.768],[-12.015,25.692],[-12.015,25.617],[-12.015,25.541],[-12.015,25.466],[-12.015,25.39],[-12.015,25.315],[-12.015,25.239],[-12.015,25.163],[-12.015,25.088],[-12.015,25.012],[-12.015,24.937],[-12.015,24.861],[-12.015,24.785],[-12.015,24.71],[-12.015,24.634],[-12.015,24.559],[-12.015,24.483],[-12.015,24.407],[-12.015,24.332],[-12.015,24.256],[-12.015,24.181],[-12.015,24.105],[-12.015,24.03],[-12.015,23.954],[-12.015,23.878],[-12.015,23.803],[-12.015,23.727],[-12.015,23.651],[-12.015,23.576],[-12.015,23.495],[-12.019,23.461],[-12.033,23.445],[-12.135,23.419],[-12.354,23.322],[-12.39,23.313],[-12.558,23.29],[-12.619,23.271],[-12.682,23.231],[-12.79,23.162],[-12.915,23.082],[-13.015,23.018],[-13.034,22.995],[-13.12,22.884],[-13.152,22.82],[-13.165,22.753],[-13.155,22.689],[-13.106,22.56],[-13.093,22.495],[-13.077,22.245],[-13.06,21.995],[-13.032,21.582],[-13.026,21.495],[-13.015,21.333],[-13.162,21.333],[-13.203,21.333],[-13.32,21.333],[-13.501,21.333],[-13.737,21.333],[-14.015,21.333],[-14.296,21.333],[-14.326,21.333],[-14.659,21.333],[-15.002,21.333],[-15.346,21.333],[-15.678,21.333],[-15.989,21.333],[-16.268,21.333],[-16.503,21.333],[-16.685,21.333],[-16.801,21.333],[-16.843,21.333],[-16.959,21.333],[-16.968,21.325],[-16.986,21.238],[-17.005,21.142],[-17.047,21.027],[-17.054,20.995],[-17.077,20.905],[-17.081,20.875],[-17.057,20.767],[-17.068,20.792],[-17.1,20.838],[-17.105,20.862],[-17.101,20.876],[-17.092,20.9],[-17.09,20.914],[-17.09,20.962],[-17.086,20.979],[-17.068,21.031],[-17.027,21.329],[-17.017,21.365],[-17.015,21.38],[-17.014,21.42],[-16.95,21.43],[-16.73,21.47],[-16.58,21.481],[-16.19,21.481],[-16.04,21.5],[-15.92,21.5],[-15.75,21.49],[-15.61,21.47],[-15.46,21.45],[-15.29,21.45],[-15.15,21.441],[-14.97,21.441],[-14.84,21.45],[-14.75,21.5],[-14.67,21.6],[-14.64,21.68],[-14.61,21.75],[-14.62,21.82],[-14.63,21.86],[-14.58,21.91],[-14.52,21.99],[-14.46,22.04],[-14.44,22.08],[-14.38,22.12],[-14.31,22.191],[-14.27,22.24],[-14.22,22.31],[-14.21,22.37],[-14.19,22.45],[-14.19,22.59],[-14.17,22.76],[-14.14,22.87],[-14.12,22.96],[-14.1,23.1],[-14.04,23.34],[-14.02,23.41],[-13.98,23.52],[-13.93,23.62],[-13.89,23.69],[-13.84,23.75],[-13.77,23.79],[-13.66,23.83],[-13.58,23.87],[-13.48,23.91],[-13.39,23.941],[-13.31,23.981],[-13.28,24.02],[-13.23,24.09],[-13.16,24.22],[-13.12,24.3],[-13.06,24.4],[-12.99,24.47],[-12.947,24.497],[-12.91,24.52],[-12.82,24.57],[-12.71,24.63],[-12.63,24.68],[-12.56,24.731],[-12.5,24.77],[-12.43,24.83],[-12.4,24.88],[-12.36,24.97],[-12.31,25.11],[-12.27,25.26],[-12.23,25.42],[-12.2,25.52],[-12.17,25.64],[-12.13,25.731],[-12.1,25.83],[-12.08,25.87],[-12.08,25.92],[-12.06,25.99],[-12.056,25.995],[-12.056,25.996],[-12.03,26.03],[-11.96,26.05],[-11.88,26.07],[-11.754,26.086],[-11.717,26.104],[-11.698,26.162],[-11.684,26.213],[-11.636,26.295],[-11.583,26.36],[-11.552,26.4],[-11.511,26.47],[-11.47,26.52],[-11.399,26.583],[-11.337,26.633],[-11.316,26.684],[-11.316,26.744],[-11.36,26.793],[-11.392,26.883],[-11.263,26.91],[-11.149,26.941],[-11.046,26.97],[-10.922,27.01],[-10.829,27.01],[-10.757,27.02],[-10.653,27],[-10.55,26.99],[-10.478,26.96],[-10.354,26.9],[-10.25,26.86],[-10.188,26.86],[-10.122,26.88],[-10.066,26.908],[-10.032,26.91],[-9.98,26.89],[-9.899,26.85],[-9.817,26.85],[-9.734,26.86],[-9.672,26.91],[-9.569,26.99],[-9.486,27.05],[-9.412,27.088],[-9.352,27.098],[-9.285,27.098],[-9.207,27.1],[-9.083,27.09]]]}}]}
