{"type":"FeatureCollection","features":[{"type":"Feature","id":"ER-AN","properties":{"id":"ER-AN","countryCode":"ER","isoSubdivision":"ER-AN","name":"Anseba","name_en":"Anseba","name_ko":"안세바","type":"Region","labelLongitude":39.056,"labelLatitude":15.279,"minZoom":8.7},"geometry":{"type":"Polygon","coordinates":[[[38.788,15.156],[38.786,15.557],[38.798,15.566],[38.806,15.567],[38.82,15.564],[38.828,15.56],[38.839,15.551],[38.847,15.551],[38.858,15.553],[38.896,15.566],[38.959,15.576],[38.976,15.532],[39,15.486],[39.091,15.35],[39.15,15.288],[39.198,15.247],[39.285,15.202],[39.326,15.176],[39.315,15.163],[39.307,15.158],[39.295,15.154],[39.284,15.156],[38.788,15.156]]]}},{"type":"Feature","id":"ER-DK","properties":{"id":"ER-DK","countryCode":"ER","isoSubdivision":"ER-DK","name":"Southern Red Sea","name_en":"Southern Red Sea","name_ko":"홍해 남부","type":"Region","labelLongitude":41.739,"labelLatitude":13.571,"minZoom":8.7},"geometry":{"type":"Polygon","coordinates":[[[43.118,12.708],[42.9,12.616],[42.89,12.615],[42.878,12.625],[42.869,12.626],[42.852,12.612],[42.829,12.558],[42.785,12.517],[42.789,12.487],[42.798,12.456],[42.792,12.429],[42.78,12.423],[42.75,12.417],[42.741,12.408],[42.728,12.389],[42.696,12.38],[42.691,12.379],[42.678,12.36],[42.522,12.496],[42.476,12.516],[42.448,12.523],[42.431,12.52],[42.379,12.466],[42.332,12.515],[42.25,12.624],[42.185,12.733],[42.137,12.773],[42.082,12.804],[42.025,12.827],[41.947,12.876],[41.894,12.948],[41.817,13.113],[41.785,13.165],[41.751,13.208],[41.712,13.248],[41.636,13.309],[41.531,13.394],[41.357,13.502],[41.222,13.587],[41.192,13.616],[41.121,13.738],[41.044,13.872],[40.938,13.99],[40.833,14.106],[40.772,14.148],[40.704,14.173],[40.614,14.186],[40.586,14.195],[40.48,14.244],[40.422,14.274],[40.354,14.335],[40.364,14.354],[40.436,14.471],[40.487,14.578],[40.576,14.702],[40.591,14.739],[40.595,14.776],[40.593,14.817],[40.573,14.913],[40.571,14.945],[40.572,14.951],[40.574,14.951],[40.579,14.954],[40.588,14.955],[40.607,14.953],[40.616,14.949],[40.621,14.939],[40.624,14.9],[40.628,14.892],[40.657,14.88],[40.652,14.897],[40.66,14.903],[40.688,14.901],[40.695,14.896],[40.697,14.887],[40.693,14.882],[40.677,14.887],[40.671,14.88],[40.719,14.832],[40.719,14.834],[40.723,14.836],[40.727,14.834],[40.732,14.826],[40.734,14.818],[40.732,14.791],[40.724,14.768],[40.724,14.757],[40.732,14.744],[40.758,14.726],[40.766,14.715],[40.766,14.695],[40.777,14.702],[40.787,14.706],[40.797,14.707],[40.808,14.703],[40.808,14.722],[40.831,14.712],[40.884,14.715],[40.914,14.699],[40.945,14.677],[40.973,14.67],[41.04,14.667],[41.156,14.642],[41.167,14.637],[41.18,14.622],[41.196,14.585],[41.209,14.568],[41.253,14.538],[41.283,14.518],[41.307,14.489],[41.323,14.455],[41.328,14.418],[41.336,14.402],[41.352,14.392],[41.369,14.385],[41.377,14.376],[41.381,14.369],[41.4,14.347],[41.413,14.307],[41.434,14.282],[41.48,14.243],[41.506,14.213],[41.514,14.199],[41.521,14.181],[41.529,14.149],[41.533,14.137],[41.542,14.126],[41.555,14.116],[41.589,14.096],[41.606,14.082],[41.621,14.064],[41.657,13.996],[41.668,13.955],[41.677,13.94],[41.74,13.922],[41.753,13.921],[41.786,13.933],[41.798,13.934],[41.806,13.93],[41.825,13.897],[41.842,13.88],[41.849,13.876],[41.863,13.873],[41.874,13.873],[41.896,13.879],[41.904,13.88],[41.922,13.873],[41.957,13.851],[41.97,13.846],[41.981,13.838],[41.986,13.819],[41.989,13.799],[41.994,13.784],[42.035,13.752],[42.041,13.739],[42.046,13.739],[42.069,13.708],[42.076,13.695],[42.078,13.693],[42.087,13.69],[42.089,13.688],[42.094,13.676],[42.1,13.654],[42.107,13.644],[42.117,13.641],[42.129,13.646],[42.139,13.651],[42.144,13.65],[42.147,13.644],[42.165,13.632],[42.171,13.627],[42.175,13.617],[42.181,13.594],[42.185,13.586],[42.208,13.569],[42.212,13.568],[42.216,13.554],[42.224,13.554],[42.23,13.56],[42.23,13.564],[42.224,13.568],[42.21,13.586],[42.207,13.592],[42.205,13.593],[42.201,13.595],[42.199,13.599],[42.198,13.606],[42.202,13.606],[42.216,13.606],[42.219,13.606],[42.22,13.633],[42.206,13.644],[42.189,13.653],[42.168,13.654],[42.16,13.657],[42.162,13.662],[42.172,13.667],[42.185,13.667],[42.219,13.64],[42.256,13.592],[42.27,13.586],[42.288,13.575],[42.295,13.55],[42.295,13.509],[42.306,13.476],[42.315,13.461],[42.325,13.455],[42.335,13.444],[42.343,13.418],[42.358,13.302],[42.372,13.279],[42.378,13.23],[42.377,13.225],[42.379,13.223],[42.41,13.205],[42.431,13.198],[42.477,13.195],[42.496,13.198],[42.507,13.207],[42.514,13.22],[42.521,13.236],[42.534,13.233],[42.538,13.226],[42.538,13.218],[42.542,13.208],[42.548,13.203],[42.554,13.2],[42.56,13.194],[42.562,13.184],[42.57,13.171],[42.62,13.129],[42.655,13.072],[42.668,13.064],[42.688,13.061],[42.705,13.054],[42.718,13.044],[42.73,13.033],[42.738,13.018],[42.747,12.962],[42.764,12.925],[42.768,12.906],[42.77,12.878],[42.774,12.862],[42.781,12.852],[42.795,12.848],[42.808,12.852],[42.822,12.859],[42.836,12.865],[42.849,12.838],[42.869,12.821],[42.896,12.813],[42.932,12.811],[42.927,12.806],[42.918,12.79],[42.928,12.79],[42.936,12.792],[42.946,12.797],[42.945,12.798],[42.963,12.81],[42.966,12.811],[42.978,12.824],[42.987,12.838],[42.99,12.847],[42.99,12.854],[42.991,12.86],[43.001,12.865],[42.995,12.875],[42.994,12.885],[42.996,12.893],[43.001,12.9],[43.029,12.879],[43.043,12.866],[43.049,12.855],[43.053,12.845],[43.064,12.836],[43.076,12.829],[43.086,12.821],[43.093,12.808],[43.095,12.778],[43.097,12.763],[43.124,12.715],[43.118,12.708]]]}},{"type":"Feature","id":"ER-DU","properties":{"id":"ER-DU","countryCode":"ER","isoSubdivision":"ER-DU","name":"Debub","name_en":"Debub","name_ko":"남부","type":"Region","labelLongitude":40.169,"labelLatitude":15.618,"minZoom":8.7},"geometry":{"type":"MultiPolygon","coordinates":[[[[38.21,17.522],[38.233,17.526],[38.25,17.542],[38.253,17.562],[38.252,17.583],[38.257,17.603],[38.274,17.618],[38.323,17.641],[38.344,17.656],[38.371,17.699],[38.432,17.852],[38.459,17.891],[38.602,18.005],[38.604,17.994],[38.613,17.983],[38.62,17.953],[38.663,17.895],[38.666,17.885],[38.667,17.864],[38.67,17.854],[38.688,17.829],[38.691,17.824],[38.696,17.807],[38.79,17.669],[38.86,17.513],[38.929,17.397],[38.953,17.312],[38.965,17.292],[38.953,17.253],[38.971,17.223],[38.999,17.196],[39.012,17.165],[39.018,17.127],[39.026,17.093],[39.056,17.034],[39.06,17.015],[39.064,16.974],[39.069,16.954],[39.084,16.925],[39.09,16.884],[39.095,16.868],[39.128,16.795],[39.15,16.717],[39.136,16.724],[39.156,16.679],[39.161,16.657],[39.163,16.628],[39.145,16.609],[39.161,16.564],[39.157,16.538],[39.15,16.545],[39.151,16.529],[39.161,16.525],[39.172,16.525],[39.177,16.521],[39.176,16.487],[39.177,16.477],[39.181,16.468],[39.185,16.461],[39.189,16.452],[39.191,16.439],[39.189,16.4],[39.191,16.387],[39.194,16.378],[39.203,16.362],[39.205,16.35],[39.203,16.338],[39.197,16.313],[39.197,16.299],[39.228,16.168],[39.232,16.124],[39.236,16.109],[39.259,16.059],[39.294,15.929],[39.313,15.894],[39.373,15.858],[39.382,15.843],[39.39,15.836],[39.427,15.82],[39.437,15.812],[39.438,15.799],[39.433,15.788],[39.426,15.778],[39.423,15.768],[39.427,15.756],[39.441,15.741],[39.444,15.733],[39.445,15.707],[39.451,15.69],[39.478,15.661],[39.461,15.66],[39.449,15.65],[39.445,15.635],[39.451,15.62],[39.455,15.628],[39.464,15.638],[39.475,15.643],[39.485,15.634],[39.483,15.615],[39.463,15.606],[39.441,15.603],[39.43,15.603],[39.432,15.594],[39.451,15.566],[39.455,15.532],[39.458,15.525],[39.472,15.519],[39.495,15.518],[39.517,15.52],[39.526,15.528],[39.534,15.54],[39.552,15.542],[39.572,15.538],[39.587,15.531],[39.611,15.5],[39.664,15.336],[39.668,15.333],[39.687,15.326],[39.691,15.322],[39.693,15.305],[39.699,15.288],[39.708,15.274],[39.718,15.264],[39.703,15.209],[39.698,15.124],[39.7,15.12],[39.71,15.113],[39.712,15.109],[39.716,15.094],[39.725,15.086],[39.738,15.086],[39.752,15.093],[39.762,15.074],[39.774,15.071],[39.789,15.076],[39.811,15.079],[39.818,15.084],[39.824,15.096],[39.826,15.108],[39.825,15.117],[39.82,15.126],[39.823,15.132],[39.836,15.14],[39.855,15.173],[39.857,15.193],[39.837,15.227],[39.826,15.267],[39.818,15.281],[39.804,15.281],[39.796,15.266],[39.79,15.257],[39.781,15.278],[39.778,15.298],[39.781,15.349],[39.78,15.36],[39.775,15.379],[39.773,15.391],[39.776,15.403],[39.781,15.407],[39.788,15.409],[39.794,15.415],[39.8,15.449],[39.807,15.459],[39.821,15.449],[39.828,15.449],[39.829,15.457],[39.836,15.476],[39.842,15.476],[39.842,15.473],[39.842,15.463],[39.853,15.472],[39.866,15.493],[39.875,15.504],[39.89,15.478],[39.91,15.457],[40.005,15.381],[40.02,15.374],[40.043,15.369],[40.051,15.366],[40.061,15.36],[40.072,15.351],[40.08,15.341],[40.083,15.33],[40.081,15.319],[40.074,15.307],[40.056,15.293],[40.047,15.284],[40.042,15.275],[40.027,15.237],[40.038,15.238],[40.046,15.236],[40.052,15.23],[40.054,15.219],[40.052,15.216],[40.041,15.212],[40.04,15.209],[40.042,15.205],[40.046,15.201],[40.047,15.198],[40.053,15.19],[40.076,15.173],[40.081,15.165],[40.084,15.152],[40.097,15.126],[40.102,15.113],[40.101,15.102],[40.098,15.089],[40.098,15.076],[40.102,15.065],[40.114,15.069],[40.128,15.066],[40.139,15.059],[40.143,15.049],[40.145,15.04],[40.15,15.038],[40.154,15.037],[40.157,15.031],[40.157,15.022],[40.151,15.007],[40.15,15],[40.159,14.982],[40.183,14.971],[40.257,14.945],[40.273,14.938],[40.28,14.932],[40.287,14.913],[40.302,14.917],[40.325,14.936],[40.347,14.944],[40.363,14.964],[40.376,14.987],[40.39,15.003],[40.389,14.987],[40.392,14.974],[40.401,14.966],[40.418,14.969],[40.423,14.978],[40.421,14.989],[40.423,14.999],[40.441,15.003],[40.451,15.004],[40.454,15.004],[40.465,14.997],[40.463,14.994],[40.461,14.987],[40.463,14.98],[40.475,14.977],[40.483,14.974],[40.486,14.968],[40.49,14.963],[40.499,14.962],[40.506,14.965],[40.511,14.971],[40.516,14.977],[40.52,14.983],[40.515,14.991],[40.513,14.999],[40.513,15.017],[40.518,15.013],[40.523,15.002],[40.527,14.997],[40.554,14.99],[40.557,14.982],[40.556,14.973],[40.556,14.964],[40.561,14.955],[40.569,14.951],[40.572,14.951],[40.571,14.945],[40.573,14.913],[40.593,14.817],[40.595,14.776],[40.591,14.739],[40.576,14.702],[40.487,14.578],[40.436,14.471],[40.364,14.354],[40.354,14.335],[40.277,14.405],[40.238,14.427],[40.194,14.445],[40.105,14.466],[40.087,14.466],[40.037,14.452],[40.023,14.451],[40,14.455],[39.98,14.459],[39.962,14.454],[39.931,14.429],[39.911,14.423],[39.892,14.427],[39.877,14.434],[39.824,14.478],[39.797,14.495],[39.767,14.505],[39.735,14.504],[39.723,14.502],[39.668,14.595],[39.379,15.079],[39.358,15.126],[39.326,15.176],[39.285,15.202],[39.198,15.247],[39.15,15.288],[39.091,15.35],[39,15.486],[38.976,15.532],[38.959,15.576],[38.925,15.698],[38.837,15.841],[38.822,15.86],[38.809,15.869],[38.674,15.885],[38.627,15.899],[38.58,15.918],[38.531,15.95],[38.509,15.977],[38.498,16.01],[38.496,16.091],[38.499,16.116],[38.506,16.134],[38.515,16.15],[38.52,16.164],[38.522,16.184],[38.522,16.206],[38.516,16.236],[38.503,16.27],[38.475,16.32],[38.449,16.349],[38.425,16.369],[38.403,16.393],[38.393,16.419],[38.378,16.473],[38.366,16.495],[38.346,16.523],[38.337,16.543],[38.331,16.563],[38.325,16.578],[38.314,16.587],[38.086,16.626],[38.061,16.638],[38.038,16.661],[38.032,16.684],[38.035,16.714],[38.05,16.779],[38.049,16.811],[38.043,16.831],[38.031,16.849],[38.015,16.865],[37.993,16.893],[37.986,16.914],[37.988,16.937],[37.995,16.958],[38.006,17.007],[38.023,17.417],[38.016,17.529],[38.014,17.539],[38.015,17.54],[38.039,17.548],[38.062,17.548],[38.071,17.538],[38.072,17.521],[38.071,17.501],[38.076,17.48],[38.091,17.48],[38.108,17.494],[38.118,17.513],[38.119,17.523],[38.116,17.53],[38.115,17.537],[38.119,17.546],[38.125,17.547],[38.161,17.557],[38.177,17.548],[38.192,17.533],[38.21,17.522]]],[[[40.386,15.641],[40.401,15.641],[40.406,15.638],[40.414,15.598],[40.408,15.58],[40.394,15.572],[40.373,15.583],[40.366,15.584],[40.357,15.586],[40.308,15.575],[40.287,15.573],[40.266,15.58],[40.231,15.596],[40.208,15.6],[40.159,15.59],[40.149,15.591],[40.143,15.592],[40.139,15.596],[40.133,15.603],[40.129,15.608],[40.127,15.61],[40.123,15.614],[40.114,15.598],[40.102,15.589],[40.085,15.588],[40.061,15.592],[40.02,15.608],[40.015,15.609],[40.001,15.611],[39.979,15.607],[39.97,15.618],[39.964,15.626],[39.937,15.702],[39.949,15.702],[39.956,15.7],[39.957,15.696],[39.957,15.695],[39.951,15.688],[39.959,15.684],[39.965,15.678],[39.967,15.674],[39.969,15.67],[39.971,15.661],[39.972,15.661],[39.979,15.661],[39.988,15.665],[40.001,15.66],[40.015,15.652],[40.027,15.647],[40.039,15.648],[40.081,15.661],[40.063,15.693],[40.039,15.719],[40.009,15.737],[39.975,15.743],[39.942,15.736],[39.93,15.74],[39.924,15.757],[39.925,15.777],[39.934,15.788],[39.947,15.79],[39.971,15.775],[39.977,15.771],[39.99,15.77],[39.994,15.778],[39.982,15.795],[39.976,15.812],[39.975,15.815],[39.995,15.825],[40.021,15.827],[40.032,15.826],[40.033,15.826],[40.037,15.838],[40.031,15.854],[40.019,15.868],[40.009,15.874],[39.974,15.872],[39.963,15.877],[39.951,15.894],[39.987,15.891],[40.026,15.883],[40.063,15.869],[40.085,15.854],[40.092,15.85],[40.101,15.836],[40.106,15.829],[40.101,15.814],[40.09,15.803],[40.088,15.792],[40.096,15.785],[40.105,15.784],[40.115,15.788],[40.123,15.792],[40.121,15.796],[40.116,15.803],[40.115,15.809],[40.126,15.812],[40.136,15.806],[40.139,15.793],[40.139,15.792],[40.133,15.711],[40.136,15.696],[40.141,15.684],[40.142,15.681],[40.16,15.652],[40.164,15.644],[40.174,15.644],[40.232,15.627],[40.247,15.655],[40.253,15.661],[40.262,15.663],[40.248,15.668],[40.228,15.674],[40.219,15.685],[40.227,15.696],[40.244,15.702],[40.267,15.704],[40.287,15.702],[40.299,15.7],[40.308,15.697],[40.311,15.695],[40.315,15.693],[40.322,15.688],[40.325,15.681],[40.327,15.672],[40.33,15.664],[40.339,15.661],[40.353,15.658],[40.374,15.644],[40.386,15.641]]],[[[40.095,16.047],[40.081,16.034],[40.077,16.019],[40.084,16.013],[40.092,16.009],[40.099,16.002],[40.11,15.995],[40.115,15.986],[40.097,15.981],[40.067,15.99],[40.043,16.003],[40,16.008],[39.99,16.018],[39.99,16.034],[39.998,16.05],[40.016,16.056],[40.038,16.058],[40.047,16.063],[40.044,16.072],[40.042,16.082],[40.041,16.092],[40.043,16.103],[40.05,16.107],[40.076,16.088],[40.083,16.084],[40.093,16.082],[40.111,16.074],[40.119,16.062],[40.112,16.053],[40.095,16.047]]]]}},{"type":"Feature","id":"ER-GB","properties":{"id":"ER-GB","countryCode":"ER","isoSubdivision":"ER-GB","name":"Gash-Barka","name_en":"Gash-Barka","name_ko":"가시바르카","type":"Region","labelLongitude":37.606,"labelLatitude":15.03,"minZoom":8.7},"geometry":{"type":"Polygon","coordinates":[[[36.526,14.264],[36.504,14.447],[36.489,14.571],[36.474,14.697],[36.462,14.794],[36.455,14.849],[36.435,15.017],[36.424,15.112],[36.425,15.133],[36.433,15.151],[36.507,15.22],[36.525,15.248],[36.576,15.393],[36.595,15.424],[36.628,15.446],[36.614,15.489],[36.617,15.532],[36.671,15.723],[36.683,15.745],[36.733,15.795],[36.76,15.837],[36.808,15.969],[36.853,16.094],[36.886,16.185],[36.902,16.211],[36.944,16.253],[36.954,16.278],[36.952,16.3],[36.933,16.34],[36.928,16.361],[36.93,16.382],[36.933,16.4],[36.934,16.418],[36.927,16.435],[36.955,16.431],[36.975,16.403],[36.983,16.381],[36.989,16.355],[36.996,16.3],[37.003,16.275],[37.009,16.259],[37.016,16.249],[37.024,16.242],[37.033,16.236],[37.041,16.227],[37.049,16.216],[37.063,16.185],[37.07,16.175],[37.084,16.167],[37.107,16.159],[37.2,16.137],[37.251,16.12],[37.314,16.084],[37.352,16.047],[37.382,16.002],[37.401,15.959],[37.417,15.936],[37.437,15.922],[37.472,15.911],[37.502,15.899],[37.521,15.887],[37.528,15.877],[37.53,15.868],[37.529,15.858],[37.536,15.851],[37.551,15.846],[37.624,15.847],[37.694,15.855],[37.722,15.855],[37.75,15.848],[37.786,15.831],[37.814,15.812],[37.835,15.801],[37.858,15.797],[37.892,15.796],[37.919,15.792],[37.952,15.783],[38.009,15.758],[38.107,15.694],[38.125,15.688],[38.15,15.69],[38.172,15.698],[38.227,15.724],[38.252,15.732],[38.279,15.731],[38.312,15.722],[38.359,15.692],[38.392,15.66],[38.419,15.625],[38.446,15.573],[38.468,15.558],[38.501,15.55],[38.684,15.545],[38.786,15.557],[38.788,15.156],[38.721,15.163],[38.689,15.158],[38.649,15.141],[38.562,15.121],[38.473,15.114],[38.458,15.111],[38.444,15.105],[38.425,15.094],[38.387,15.053],[38.365,15.017],[38.35,14.998],[38.337,14.987],[38.299,14.972],[38.277,14.959],[38.259,14.944],[38.25,14.93],[38.235,14.891],[38.216,14.854],[38.213,14.836],[38.215,14.813],[38.221,14.784],[38.253,14.716],[38.258,14.68],[38.246,14.652],[38.24,14.668],[38.229,14.68],[38.214,14.686],[38.19,14.687],[38.133,14.678],[38.115,14.681],[38.007,14.724],[37.998,14.731],[37.993,14.741],[37.992,14.75],[37.99,14.757],[37.98,14.765],[37.969,14.766],[37.964,14.771],[37.962,14.778],[37.958,14.785],[37.958,14.788],[37.958,14.799],[37.958,14.803],[37.954,14.806],[37.944,14.807],[37.94,14.811],[37.921,14.848],[37.909,14.865],[37.891,14.88],[37.851,14.784],[37.786,14.632],[37.721,14.482],[37.659,14.335],[37.601,14.201],[37.565,14.117],[37.554,14.105],[37.536,14.117],[37.525,14.129],[37.521,14.145],[37.519,14.171],[37.517,14.181],[37.509,14.188],[37.499,14.193],[37.488,14.195],[37.475,14.2],[37.469,14.211],[37.464,14.236],[37.457,14.255],[37.453,14.261],[37.412,14.294],[37.398,14.302],[37.395,14.312],[37.395,14.335],[37.394,14.35],[37.39,14.358],[37.375,14.373],[37.337,14.426],[37.318,14.437],[37.294,14.457],[37.28,14.455],[37.258,14.448],[37.184,14.45],[37.15,14.442],[37.121,14.421],[37.106,14.399],[37.098,14.38],[37.094,14.359],[37.094,14.335],[37.091,14.314],[37.083,14.298],[37.073,14.285],[37.06,14.277],[37.052,14.275],[37.034,14.278],[37.026,14.277],[37.012,14.265],[37.006,14.263],[36.995,14.264],[36.987,14.267],[36.979,14.271],[36.971,14.277],[36.953,14.301],[36.947,14.305],[36.914,14.309],[36.849,14.328],[36.816,14.332],[36.748,14.332],[36.738,14.33],[36.722,14.32],[36.714,14.318],[36.669,14.318],[36.649,14.315],[36.618,14.3],[36.604,14.297],[36.583,14.297],[36.566,14.293],[36.553,14.283],[36.546,14.263],[36.526,14.264]]]}},{"type":"Feature","id":"ER-MA","properties":{"id":"ER-MA","countryCode":"ER","isoSubdivision":"ER-MA","name":"Maekel","name_en":"Maekel","name_ko":"중앙","type":"Region","labelLongitude":38.968,"labelLatitude":14.858,"minZoom":8.7},"geometry":{"type":"Polygon","coordinates":[[[38.435,14.416],[38.427,14.417],[38.414,14.426],[38.409,14.435],[38.402,14.457],[38.394,14.464],[38.341,14.493],[38.325,14.505],[38.313,14.519],[38.305,14.537],[38.296,14.575],[38.289,14.588],[38.279,14.595],[38.267,14.602],[38.258,14.61],[38.253,14.62],[38.248,14.648],[38.246,14.652],[38.258,14.68],[38.253,14.716],[38.221,14.784],[38.215,14.813],[38.213,14.836],[38.216,14.854],[38.235,14.891],[38.25,14.93],[38.259,14.944],[38.277,14.959],[38.299,14.972],[38.337,14.987],[38.35,14.998],[38.365,15.017],[38.387,15.053],[38.425,15.094],[38.444,15.105],[38.458,15.111],[38.473,15.114],[38.562,15.121],[38.649,15.141],[38.689,15.158],[38.721,15.163],[38.788,15.156],[39.284,15.156],[39.295,15.154],[39.307,15.158],[39.315,15.163],[39.326,15.176],[39.358,15.126],[39.379,15.079],[39.668,14.595],[39.723,14.502],[39.678,14.494],[39.651,14.497],[39.599,14.512],[39.594,14.515],[39.588,14.52],[39.567,14.544],[39.552,14.557],[39.532,14.568],[39.515,14.568],[39.507,14.548],[39.489,14.524],[39.449,14.505],[39.367,14.483],[39.348,14.482],[39.293,14.49],[39.269,14.486],[39.255,14.474],[39.233,14.44],[39.208,14.44],[39.188,14.477],[39.158,14.56],[39.145,14.582],[39.127,14.602],[39.107,14.62],[39.086,14.633],[39.075,14.637],[39.047,14.644],[39.011,14.648],[39.01,14.651],[38.997,14.639],[38.995,14.622],[38.997,14.604],[38.994,14.585],[38.98,14.567],[38.959,14.555],[38.918,14.536],[38.885,14.506],[38.866,14.494],[38.822,14.489],[38.762,14.465],[38.743,14.461],[38.724,14.459],[38.706,14.461],[38.688,14.467],[38.668,14.468],[38.607,14.436],[38.569,14.427],[38.493,14.418],[38.444,14.419],[38.435,14.416]]]}},{"type":"Feature","id":"ER-SK","properties":{"id":"ER-SK","countryCode":"ER","isoSubdivision":"ER-SK","name":"Northern Red Sea","name_en":"Northern Red Sea","name_ko":"홍해 북부","type":"Region","labelLongitude":37.918,"labelLatitude":16.626,"minZoom":8.7},"geometry":{"type":"Polygon","coordinates":[[[37.872,17.437],[37.896,17.443],[37.916,17.457],[37.947,17.496],[38.014,17.539],[38.016,17.529],[38.023,17.417],[38.006,17.007],[37.995,16.958],[37.988,16.937],[37.986,16.914],[37.993,16.893],[38.015,16.865],[38.031,16.849],[38.043,16.831],[38.049,16.811],[38.05,16.779],[38.035,16.714],[38.032,16.684],[38.038,16.661],[38.061,16.638],[38.086,16.626],[38.314,16.587],[38.325,16.578],[38.331,16.563],[38.337,16.543],[38.346,16.523],[38.366,16.495],[38.378,16.473],[38.393,16.419],[38.403,16.393],[38.425,16.369],[38.449,16.349],[38.475,16.32],[38.503,16.27],[38.516,16.236],[38.522,16.206],[38.522,16.184],[38.52,16.164],[38.515,16.15],[38.506,16.134],[38.499,16.116],[38.496,16.091],[38.498,16.01],[38.509,15.977],[38.531,15.95],[38.58,15.918],[38.627,15.899],[38.674,15.885],[38.809,15.869],[38.822,15.86],[38.837,15.841],[38.925,15.698],[38.959,15.576],[38.896,15.566],[38.858,15.553],[38.847,15.551],[38.839,15.551],[38.828,15.56],[38.82,15.564],[38.806,15.567],[38.798,15.566],[38.786,15.557],[38.684,15.545],[38.501,15.55],[38.468,15.558],[38.446,15.573],[38.419,15.625],[38.392,15.66],[38.359,15.692],[38.312,15.722],[38.279,15.731],[38.252,15.732],[38.227,15.724],[38.172,15.698],[38.15,15.69],[38.125,15.688],[38.107,15.694],[38.009,15.758],[37.952,15.783],[37.919,15.792],[37.892,15.796],[37.858,15.797],[37.835,15.801],[37.814,15.812],[37.786,15.831],[37.75,15.848],[37.722,15.855],[37.694,15.855],[37.624,15.847],[37.551,15.846],[37.536,15.851],[37.529,15.858],[37.53,15.868],[37.528,15.877],[37.521,15.887],[37.502,15.899],[37.472,15.911],[37.437,15.922],[37.417,15.936],[37.401,15.959],[37.382,16.002],[37.352,16.047],[37.314,16.084],[37.251,16.12],[37.2,16.137],[37.107,16.159],[37.084,16.167],[37.07,16.175],[37.063,16.185],[37.049,16.216],[37.041,16.227],[37.033,16.236],[37.024,16.242],[37.016,16.249],[37.009,16.259],[37.003,16.275],[36.996,16.3],[36.989,16.355],[36.983,16.381],[36.975,16.403],[36.955,16.431],[36.927,16.435],[36.926,16.438],[36.912,16.457],[36.896,16.473],[36.883,16.49],[36.877,16.514],[36.877,16.527],[36.89,16.567],[36.893,16.587],[36.891,16.619],[36.892,16.637],[36.901,16.656],[36.917,16.669],[36.95,16.692],[36.96,16.706],[36.985,16.766],[36.989,16.826],[36.991,16.83],[36.998,16.838],[37,16.842],[36.998,16.848],[36.993,16.857],[36.991,16.861],[36.993,16.901],[36.991,16.914],[36.982,16.926],[36.972,16.936],[36.968,16.947],[36.992,16.98],[36.997,17],[36.993,17.019],[36.974,17.045],[36.971,17.054],[36.973,17.062],[36.973,17.063],[36.98,17.07],[37,17.073],[37.016,17.066],[37.031,17.056],[37.049,17.049],[37.075,17.045],[37.085,17.041],[37.124,17.018],[37.134,17.016],[37.188,17.025],[37.203,17.023],[37.233,17.025],[37.281,17.053],[37.31,17.055],[37.403,17.03],[37.46,17.095],[37.468,17.115],[37.473,17.137],[37.495,17.175],[37.501,17.195],[37.506,17.237],[37.505,17.255],[37.494,17.301],[37.496,17.312],[37.507,17.318],[37.639,17.358],[37.68,17.363],[37.72,17.384],[37.764,17.459],[37.799,17.477],[37.819,17.472],[37.849,17.444],[37.872,17.437]]]}}]}
