{"type":"FeatureCollection","features":[{"type":"Feature","id":"FJ-C","properties":{"id":"FJ-C","countryCode":"FJ","isoSubdivision":"FJ-C","name":"Central","name_en":"Central","name_ko":"중부구","type":"Division","labelLongitude":178.132,"labelLatitude":-18.382,"minZoom":8},"geometry":{"type":"MultiPolygon","coordinates":[[[[178.122,-18.369],[178.128,-18.352],[178.139,-18.349],[178.15,-18.358],[178.156,-18.376],[178.153,-18.397],[178.142,-18.412],[178.127,-18.415],[178.109,-18.403],[178.118,-18.402],[178.122,-18.399],[178.121,-18.396],[178.116,-18.39],[178.12,-18.385],[178.121,-18.38],[178.122,-18.375],[178.122,-18.369]]],[[[178.448,-17.55],[178.456,-17.551],[178.466,-17.551],[178.479,-17.553],[178.496,-17.565],[178.523,-17.601],[178.53,-17.608],[178.552,-17.611],[178.573,-17.618],[178.591,-17.631],[178.602,-17.65],[178.603,-17.675],[178.593,-17.693],[178.581,-17.71],[178.574,-17.728],[178.573,-17.738],[178.569,-17.747],[178.568,-17.755],[178.571,-17.763],[178.579,-17.769],[178.598,-17.782],[178.602,-17.787],[178.603,-17.798],[178.6,-17.809],[178.599,-17.819],[178.608,-17.828],[178.621,-17.823],[178.627,-17.827],[178.626,-17.834],[178.616,-17.841],[178.628,-17.846],[178.635,-17.853],[178.636,-17.864],[178.63,-17.876],[178.626,-17.874],[178.616,-17.869],[178.618,-17.874],[178.623,-17.89],[178.591,-17.898],[178.595,-17.926],[178.613,-17.957],[178.626,-17.971],[178.646,-17.973],[178.654,-17.978],[178.66,-17.987],[178.67,-17.999],[178.674,-18.004],[178.675,-18.009],[178.677,-18.011],[178.688,-18.012],[178.694,-18.01],[178.699,-18.004],[178.703,-17.997],[178.705,-17.992],[178.711,-17.992],[178.709,-17.999],[178.701,-18.013],[178.698,-18.019],[178.698,-18.034],[178.698,-18.043],[178.695,-18.057],[178.685,-18.07],[178.673,-18.081],[178.664,-18.088],[178.613,-18.112],[178.589,-18.136],[178.589,-18.115],[178.56,-18.127],[178.548,-18.129],[178.559,-18.113],[178.561,-18.109],[178.555,-18.099],[178.551,-18.098],[178.546,-18.097],[178.537,-18.091],[178.527,-18.09],[178.498,-18.104],[178.486,-18.109],[178.488,-18.129],[178.47,-18.142],[178.448,-18.148],[178.438,-18.147],[178.439,-18.132],[178.44,-18.126],[178.438,-18.123],[178.422,-18.108],[178.413,-18.103],[178.403,-18.101],[178.39,-18.102],[178.393,-18.106],[178.393,-18.107],[178.396,-18.109],[178.391,-18.118],[178.386,-18.124],[178.378,-18.127],[178.369,-18.129],[178.369,-18.127],[178.366,-18.122],[178.361,-18.117],[178.355,-18.115],[178.348,-18.117],[178.336,-18.121],[178.331,-18.122],[178.323,-18.126],[178.317,-18.133],[178.309,-18.14],[178.297,-18.143],[178.284,-18.144],[178.277,-18.146],[178.272,-18.15],[178.266,-18.156],[178.262,-18.163],[178.257,-18.178],[178.252,-18.184],[178.244,-18.189],[178.223,-18.196],[178.214,-18.201],[178.185,-18.234],[178.168,-18.248],[178.15,-18.253],[178.141,-18.253],[178.136,-18.259],[178.113,-18.239],[178.039,-18.265],[178.006,-18.259],[177.991,-18.259],[177.985,-18.257],[177.978,-18.253],[177.972,-18.259],[177.96,-18.266],[177.946,-18.269],[177.934,-18.263],[177.921,-18.261],[177.906,-18.269],[177.894,-18.273],[177.889,-18.256],[177.886,-18.252],[177.878,-18.254],[177.87,-18.259],[177.865,-18.263],[177.859,-18.266],[177.854,-18.263],[177.834,-18.247],[177.831,-18.24],[177.827,-18.234],[177.783,-18.223],[177.791,-18.21],[177.795,-18.197],[177.797,-18.17],[177.8,-18.163],[177.803,-18.156],[177.826,-18.123],[177.826,-18.117],[177.824,-18.113],[177.819,-18.111],[177.795,-18.11],[177.788,-18.109],[177.782,-18.107],[177.779,-18.103],[177.776,-18.096],[177.769,-18.075],[177.768,-18.066],[177.769,-18.058],[177.773,-18.05],[177.787,-18.031],[177.792,-18.022],[177.799,-18.002],[177.806,-17.993],[177.815,-17.985],[177.833,-17.98],[177.846,-17.98],[177.858,-17.981],[177.935,-18],[177.945,-18.001],[177.957,-17.999],[177.98,-17.994],[177.989,-17.99],[177.997,-17.983],[178.008,-17.953],[178.007,-17.946],[178.004,-17.939],[177.998,-17.934],[177.992,-17.928],[177.987,-17.922],[177.986,-17.914],[177.988,-17.906],[177.993,-17.893],[177.991,-17.884],[177.984,-17.876],[177.976,-17.87],[177.971,-17.863],[177.971,-17.856],[177.973,-17.849],[177.977,-17.841],[177.982,-17.834],[177.985,-17.827],[177.987,-17.814],[177.991,-17.808],[178.037,-17.759],[178.059,-17.742],[178.079,-17.732],[178.092,-17.72],[178.098,-17.711],[178.1,-17.702],[178.099,-17.694],[178.095,-17.689],[178.089,-17.687],[178.082,-17.688],[178.073,-17.692],[178.063,-17.698],[178.054,-17.706],[178.025,-17.738],[178.02,-17.742],[178.015,-17.744],[178.011,-17.745],[178.008,-17.743],[178.006,-17.74],[178.005,-17.735],[178.007,-17.679],[178.009,-17.669],[178.014,-17.659],[178.029,-17.639],[178.033,-17.629],[178.034,-17.62],[178.033,-17.611],[178.026,-17.592],[178.024,-17.581],[178.026,-17.573],[178.031,-17.568],[178.042,-17.571],[178.051,-17.578],[178.072,-17.602],[178.098,-17.642],[178.106,-17.65],[178.114,-17.658],[178.124,-17.664],[178.139,-17.668],[178.157,-17.67],[178.213,-17.668],[178.245,-17.661],[178.261,-17.656],[178.272,-17.648],[178.275,-17.642],[178.276,-17.638],[178.276,-17.635],[178.277,-17.629],[178.279,-17.625],[178.283,-17.622],[178.29,-17.623],[178.297,-17.626],[178.322,-17.643],[178.332,-17.647],[178.342,-17.648],[178.361,-17.647],[178.369,-17.648],[178.377,-17.651],[178.385,-17.655],[178.407,-17.664],[178.418,-17.666],[178.427,-17.664],[178.433,-17.657],[178.438,-17.647],[178.447,-17.602],[178.449,-17.558],[178.448,-17.55]]]]}},{"type":"Feature","id":"FJ-E","properties":{"id":"FJ-E","countryCode":"FJ","isoSubdivision":"FJ-E","name":"Eastern","name_en":"Eastern","name_ko":"동부구","type":"Division","labelLongitude":-178.72,"labelLatitude":-20.666,"minZoom":8},"geometry":{"type":"MultiPolygon","coordinates":[[[[-178.589,-19.123],[-178.582,-19.137],[-178.566,-19.151],[-178.548,-19.159],[-178.533,-19.157],[-178.537,-19.177],[-178.556,-19.175],[-178.592,-19.157],[-178.6,-19.148],[-178.597,-19.129],[-178.582,-19.112],[-178.554,-19.109],[-178.56,-19.119],[-178.566,-19.121],[-178.575,-19.121],[-178.589,-19.123]]],[[[-178.972,-18.965],[-178.969,-18.943],[-178.958,-18.928],[-178.944,-18.926],[-178.931,-18.944],[-178.931,-18.971],[-178.944,-18.987],[-178.962,-18.987],[-178.972,-18.965]]],[[[-179.863,-18.966],[-179.863,-18.965],[-179.85,-18.923],[-179.813,-18.927],[-179.787,-18.955],[-179.808,-18.986],[-179.817,-18.952],[-179.838,-18.949],[-179.855,-18.963],[-179.853,-18.983],[-179.844,-19.002],[-179.858,-19.006],[-179.872,-18.994],[-179.863,-18.966]]],[[[-178.767,-18.191],[-178.749,-18.203],[-178.746,-18.222],[-178.752,-18.238],[-178.763,-18.246],[-178.797,-18.246],[-178.807,-18.244],[-178.814,-18.239],[-178.82,-18.234],[-178.825,-18.232],[-178.845,-18.217],[-178.825,-18.189],[-178.79,-18.172],[-178.767,-18.191]]],[[[-179.05,-17.956],[-179.032,-17.966],[-179.028,-17.99],[-179.028,-18.003],[-179.046,-18.008],[-179.059,-18.001],[-179.069,-17.989],[-179.079,-17.967],[-179.06,-17.953],[-179.05,-17.956]]],[[[-178.293,-17.883],[-178.281,-17.889],[-178.263,-17.901],[-178.246,-17.918],[-178.239,-17.934],[-178.249,-17.953],[-178.271,-17.962],[-178.298,-17.963],[-178.321,-17.958],[-178.352,-17.946],[-178.358,-17.914],[-178.338,-17.886],[-178.293,-17.883]]],[[[-178.965,-17.177],[-178.933,-17.192],[-178.917,-17.201],[-178.911,-17.215],[-178.926,-17.247],[-178.927,-17.253],[-178.946,-17.259],[-178.966,-17.275],[-178.981,-17.295],[-178.986,-17.314],[-179.001,-17.303],[-178.998,-17.283],[-178.985,-17.264],[-178.972,-17.253],[-178.976,-17.24],[-178.971,-17.234],[-178.963,-17.23],[-178.958,-17.225],[-178.958,-17.211],[-178.96,-17.205],[-178.972,-17.197],[-178.982,-17.193],[-179.004,-17.189],[-179.013,-17.184],[-179.017,-17.177],[-179.019,-17.157],[-179.02,-17.149],[-179.006,-17.155],[-178.997,-17.166],[-178.985,-17.176],[-178.965,-17.177]]],[[[179.778,-19.123],[179.789,-19.13],[179.794,-19.148],[179.798,-19.168],[179.802,-19.184],[179.772,-19.191],[179.76,-19.192],[179.746,-19.19],[179.742,-19.186],[179.74,-19.177],[179.747,-19.174],[179.749,-19.173],[179.75,-19.171],[179.753,-19.164],[179.758,-19.166],[179.769,-19.169],[179.774,-19.171],[179.768,-19.155],[179.758,-19.14],[179.757,-19.128],[179.778,-19.123]]],[[[178.43,-18.955],[178.438,-18.955],[178.475,-18.961],[178.486,-18.965],[178.493,-18.978],[178.498,-18.997],[178.497,-19.013],[178.476,-19.023],[178.461,-19.033],[178.454,-19.027],[178.444,-19.024],[178.424,-19.02],[178.429,-19.029],[178.429,-19.037],[178.425,-19.043],[178.417,-19.048],[178.405,-19.045],[178.383,-19.043],[178.358,-19.044],[178.341,-19.048],[178.344,-19.041],[178.346,-19.027],[178.348,-19.02],[178.339,-19.025],[178.333,-19.026],[178.327,-19.024],[178.32,-19.02],[178.325,-19.016],[178.33,-19.01],[178.334,-19.007],[178.307,-18.997],[178.282,-19.007],[178.239,-19.041],[178.223,-19.045],[178.207,-19.045],[178.195,-19.047],[178.19,-19.058],[178.19,-19.079],[178.189,-19.084],[178.184,-19.069],[178.174,-19.076],[178.171,-19.087],[178.173,-19.098],[178.18,-19.102],[178.195,-19.106],[178.199,-19.114],[178.198,-19.139],[178.195,-19.147],[178.188,-19.153],[178.179,-19.157],[178.17,-19.157],[178.162,-19.151],[178.16,-19.142],[178.163,-19.116],[178.148,-19.128],[178.143,-19.13],[178.129,-19.13],[178.119,-19.14],[178.114,-19.148],[178.107,-19.155],[178.092,-19.157],[178.076,-19.155],[178.05,-19.145],[178.037,-19.143],[178.015,-19.156],[178.004,-19.157],[177.999,-19.143],[177.992,-19.143],[177.984,-19.147],[177.974,-19.145],[177.963,-19.138],[177.951,-19.13],[177.981,-19.101],[178,-19.095],[178.019,-19.102],[178.03,-19.094],[178.033,-19.072],[178.041,-19.061],[178.052,-19.057],[178.063,-19.056],[178.119,-19.07],[178.129,-19.069],[178.135,-19.061],[178.136,-19.052],[178.139,-19.042],[178.15,-19.034],[178.163,-19.044],[178.172,-19.035],[178.176,-19.017],[178.176,-18.999],[178.191,-18.977],[178.226,-18.964],[178.266,-18.962],[178.294,-18.973],[178.302,-18.944],[178.309,-18.94],[178.324,-18.939],[178.329,-18.936],[178.332,-18.932],[178.337,-18.927],[178.345,-18.925],[178.355,-18.927],[178.363,-18.93],[178.372,-18.93],[178.383,-18.925],[178.39,-18.938],[178.423,-18.94],[178.43,-18.955]]],[[[178.527,-18.877],[178.535,-18.885],[178.538,-18.892],[178.538,-18.9],[178.534,-18.911],[178.521,-18.906],[178.514,-18.916],[178.508,-18.926],[178.499,-18.925],[178.472,-18.907],[178.474,-18.895],[178.483,-18.88],[178.486,-18.873],[178.496,-18.863],[178.516,-18.857],[178.532,-18.86],[178.527,-18.877]]],[[[179.943,-18.556],[179.948,-18.564],[179.952,-18.569],[179.945,-18.581],[179.921,-18.586],[179.91,-18.596],[179.892,-18.61],[179.899,-18.617],[179.913,-18.611],[179.917,-18.612],[179.921,-18.623],[179.902,-18.638],[179.901,-18.659],[179.883,-18.663],[179.872,-18.646],[179.872,-18.629],[179.861,-18.621],[179.853,-18.611],[179.833,-18.6],[179.831,-18.589],[179.85,-18.581],[179.888,-18.567],[179.928,-18.558],[179.943,-18.556]]],[[[179.345,-17.999],[179.361,-18.026],[179.363,-18.08],[179.35,-18.119],[179.321,-18.102],[179.311,-18.09],[179.303,-18.062],[179.297,-18.05],[179.278,-18.028],[179.272,-18.016],[179.267,-17.999],[179.263,-18.01],[179.266,-18.03],[179.263,-18.037],[179.254,-18.039],[179.25,-18.032],[179.245,-18.004],[179.246,-17.975],[179.244,-17.97],[179.235,-17.955],[179.233,-17.945],[179.243,-17.951],[179.25,-17.951],[179.272,-17.935],[179.278,-17.934],[179.284,-17.936],[179.297,-17.938],[179.313,-17.947],[179.337,-17.989],[179.345,-17.999]]],[[[179.431,-17.794],[179.431,-17.799],[179.429,-17.801],[179.424,-17.807],[179.427,-17.814],[179.431,-17.823],[179.432,-17.833],[179.431,-17.841],[179.423,-17.851],[179.417,-17.845],[179.41,-17.828],[179.403,-17.819],[179.395,-17.806],[179.392,-17.793],[179.397,-17.78],[179.414,-17.789],[179.431,-17.794]]],[[[178.726,-17.725],[178.742,-17.75],[178.763,-17.762],[178.78,-17.766],[178.777,-17.773],[178.776,-17.776],[178.773,-17.78],[178.766,-17.773],[178.759,-17.778],[178.753,-17.776],[178.748,-17.77],[178.735,-17.768],[178.719,-17.73],[178.713,-17.711],[178.726,-17.725]]],[[[178.776,-17.629],[178.783,-17.623],[178.798,-17.619],[178.817,-17.629],[178.826,-17.652],[178.83,-17.666],[178.832,-17.679],[178.836,-17.693],[178.833,-17.708],[178.829,-17.719],[178.823,-17.729],[178.798,-17.736],[178.785,-17.74],[178.768,-17.747],[178.758,-17.73],[178.753,-17.713],[178.739,-17.673],[178.751,-17.643],[178.776,-17.629]]],[[[179.005,-17.621],[178.997,-17.608],[178.999,-17.597],[179.007,-17.593],[179.02,-17.601],[179.026,-17.611],[179.038,-17.642],[179.041,-17.656],[179.033,-17.656],[179.029,-17.644],[179.023,-17.635],[179.016,-17.628],[179.005,-17.621]]],[[[179.452,-17.29],[179.45,-17.316],[179.443,-17.339],[179.433,-17.358],[179.418,-17.376],[179.391,-17.396],[179.383,-17.391],[179.383,-17.331],[179.381,-17.315],[179.376,-17.301],[179.369,-17.287],[179.372,-17.273],[179.371,-17.26],[179.379,-17.249],[179.42,-17.244],[179.429,-17.241],[179.438,-17.242],[179.448,-17.249],[179.448,-17.255],[179.452,-17.29]]],[[[-178.719,-20.671],[-178.727,-20.665],[-178.731,-20.658],[-178.73,-20.65],[-178.725,-20.642],[-178.724,-20.651],[-178.721,-20.659],[-178.715,-20.666],[-178.708,-20.671],[-178.711,-20.672],[-178.719,-20.671]]],[[[-178.227,-19.84],[-178.231,-19.835],[-178.229,-19.829],[-178.224,-19.822],[-178.216,-19.815],[-178.218,-19.822],[-178.22,-19.828],[-178.227,-19.84]]],[[[-178.42,-19.167],[-178.401,-19.133],[-178.393,-19.128],[-178.389,-19.146],[-178.392,-19.166],[-178.4,-19.171],[-178.409,-19.172],[-178.419,-19.179],[-178.422,-19.176],[-178.422,-19.174],[-178.42,-19.167]]],[[[-178.9,-18.877],[-178.907,-18.882],[-178.915,-18.884],[-178.923,-18.884],[-178.931,-18.882],[-178.92,-18.873],[-178.907,-18.864],[-178.894,-18.858],[-178.88,-18.854],[-178.884,-18.861],[-178.889,-18.867],[-178.894,-18.872],[-178.9,-18.877]]],[[[-178.507,-18.665],[-178.516,-18.65],[-178.511,-18.638],[-178.499,-18.634],[-178.488,-18.641],[-178.486,-18.652],[-178.49,-18.661],[-178.498,-18.666],[-178.507,-18.665]]],[[[-179.323,-17.77],[-179.336,-17.758],[-179.334,-17.74],[-179.32,-17.725],[-179.298,-17.723],[-179.28,-17.739],[-179.281,-17.76],[-179.296,-17.774],[-179.323,-17.77]]],[[[-179.157,-17.471],[-179.173,-17.458],[-179.175,-17.44],[-179.166,-17.426],[-179.146,-17.424],[-179.135,-17.435],[-179.131,-17.454],[-179.137,-17.469],[-179.157,-17.471]]],[[[-179.157,-17.273],[-179.157,-17.254],[-179.146,-17.248],[-179.134,-17.252],[-179.128,-17.265],[-179.131,-17.277],[-179.139,-17.283],[-179.149,-17.282],[-179.157,-17.273]]]]}},{"type":"Feature","id":"FJ-N","properties":{"id":"FJ-N","countryCode":"FJ","isoSubdivision":"FJ-N","name":"Northern","name_en":"Northern","name_ko":"북부구","type":"Division","labelLongitude":178.308,"labelLatitude":-16.811,"minZoom":8},"geometry":{"type":"MultiPolygon","coordinates":[[[[178.334,-16.793],[178.33,-16.814],[178.336,-16.825],[178.334,-16.829],[178.307,-16.828],[178.29,-16.834],[178.283,-16.822],[178.28,-16.787],[178.286,-16.787],[178.295,-16.792],[178.306,-16.794],[178.334,-16.793]]],[[[-180,-16.787],[-179.99,-16.771],[-179.916,-16.695],[-179.898,-16.684],[-179.877,-16.678],[-179.864,-16.681],[-179.856,-16.693],[-179.847,-16.721],[-179.843,-16.738],[-179.842,-16.749],[-179.83,-16.756],[-179.821,-16.763],[-179.816,-16.772],[-179.821,-16.78],[-179.857,-16.814],[-179.867,-16.832],[-179.869,-16.841],[-179.872,-16.864],[-179.875,-16.865],[-179.881,-16.865],[-179.89,-16.868],[-179.951,-16.906],[-179.983,-16.932],[-180,-16.964],[-180,-16.787]]],[[[179.917,-16.656],[179.883,-16.656],[179.9,-16.65],[179.907,-16.65],[179.911,-16.646],[179.91,-16.632],[179.914,-16.629],[179.923,-16.628],[179.935,-16.625],[179.945,-16.619],[179.952,-16.608],[179.953,-16.628],[179.947,-16.644],[179.936,-16.654],[179.917,-16.656]]],[[[178.588,-16.573],[178.597,-16.578],[178.605,-16.58],[178.614,-16.578],[178.623,-16.573],[178.616,-16.584],[178.606,-16.592],[178.592,-16.596],[178.574,-16.594],[178.567,-16.592],[178.564,-16.591],[178.56,-16.587],[178.588,-16.573]]],[[[-180,-16.49],[-179.991,-16.476],[-179.965,-16.457],[-179.959,-16.447],[-179.951,-16.443],[-179.912,-16.432],[-179.898,-16.43],[-179.898,-16.436],[-179.907,-16.438],[-179.911,-16.441],[-179.91,-16.445],[-179.904,-16.45],[-179.904,-16.458],[-179.91,-16.46],[-179.914,-16.462],[-179.92,-16.463],[-179.928,-16.464],[-179.933,-16.468],[-179.937,-16.477],[-179.937,-16.487],[-179.928,-16.491],[-179.922,-16.497],[-179.935,-16.511],[-179.952,-16.523],[-180,-16.541],[-180,-16.49]]],[[[179.362,-16.327],[179.377,-16.329],[179.39,-16.334],[179.377,-16.339],[179.361,-16.341],[179.344,-16.339],[179.328,-16.334],[179.328,-16.327],[179.362,-16.327]]],[[[-180,-16.149],[-179.988,-16.138],[-179.973,-16.131],[-179.939,-16.121],[-179.948,-16.142],[-179.962,-16.155],[-179.979,-16.163],[-180,-16.17],[-180,-16.149]]],[[[180,-16.963],[179.999,-16.965],[179.992,-16.975],[179.981,-16.984],[179.967,-16.993],[179.954,-16.999],[179.941,-17.002],[179.929,-17.002],[179.917,-16.999],[179.912,-16.983],[179.894,-16.967],[179.89,-16.954],[179.895,-16.939],[179.907,-16.927],[179.931,-16.909],[179.967,-16.858],[179.973,-16.845],[179.978,-16.828],[179.999,-16.787],[180,-16.785],[180,-16.963]]],[[[180,-16.541],[179.999,-16.541],[179.993,-16.543],[179.987,-16.542],[179.985,-16.538],[179.984,-16.53],[179.987,-16.518],[179.999,-16.491],[180,-16.49],[180,-16.517],[180,-16.541]]],[[[180,-16.169],[179.999,-16.17],[179.938,-16.224],[179.93,-16.227],[179.912,-16.228],[179.904,-16.231],[179.896,-16.239],[179.886,-16.254],[179.88,-16.262],[179.865,-16.275],[179.858,-16.283],[179.859,-16.286],[179.851,-16.291],[179.838,-16.314],[179.798,-16.37],[179.781,-16.381],[179.781,-16.403],[179.763,-16.433],[179.738,-16.459],[179.716,-16.471],[179.694,-16.477],[179.598,-16.54],[179.592,-16.545],[179.588,-16.553],[179.582,-16.567],[179.581,-16.579],[179.581,-16.595],[179.579,-16.611],[179.571,-16.626],[179.56,-16.635],[179.534,-16.65],[179.524,-16.659],[179.519,-16.665],[179.507,-16.684],[179.501,-16.687],[179.484,-16.693],[179.479,-16.697],[179.489,-16.708],[179.492,-16.725],[179.489,-16.744],[179.479,-16.759],[179.486,-16.766],[179.502,-16.755],[179.52,-16.75],[179.537,-16.753],[179.548,-16.766],[179.563,-16.755],[179.585,-16.729],[179.599,-16.725],[179.61,-16.723],[179.622,-16.718],[179.633,-16.71],[179.637,-16.701],[179.641,-16.687],[179.651,-16.682],[179.662,-16.68],[179.671,-16.677],[179.673,-16.673],[179.676,-16.659],[179.678,-16.656],[179.682,-16.654],[179.695,-16.651],[179.698,-16.65],[179.706,-16.638],[179.716,-16.613],[179.723,-16.604],[179.732,-16.599],[179.742,-16.596],[179.75,-16.592],[179.753,-16.584],[179.757,-16.577],[179.765,-16.572],[179.781,-16.567],[179.814,-16.546],[179.833,-16.53],[179.842,-16.515],[179.851,-16.509],[179.904,-16.484],[179.909,-16.479],[179.913,-16.472],[179.917,-16.467],[179.924,-16.464],[179.939,-16.463],[179.942,-16.467],[179.942,-16.476],[179.953,-16.5],[179.949,-16.509],[179.942,-16.517],[179.936,-16.525],[179.924,-16.553],[179.89,-16.615],[179.889,-16.619],[179.891,-16.631],[179.89,-16.636],[179.886,-16.637],[179.874,-16.635],[179.87,-16.636],[179.849,-16.662],[179.875,-16.664],[179.892,-16.676],[179.901,-16.695],[179.904,-16.718],[179.917,-16.717],[179.936,-16.72],[179.95,-16.73],[179.952,-16.746],[179.942,-16.753],[179.927,-16.75],[179.896,-16.738],[179.9,-16.744],[179.907,-16.76],[179.911,-16.766],[179.896,-16.762],[179.89,-16.759],[179.876,-16.769],[179.864,-16.765],[179.858,-16.752],[179.862,-16.738],[179.826,-16.737],[179.812,-16.731],[179.802,-16.718],[179.781,-16.725],[179.759,-16.724],[179.74,-16.719],[179.726,-16.718],[179.716,-16.722],[179.7,-16.735],[179.688,-16.738],[179.676,-16.738],[179.666,-16.741],[179.66,-16.747],[179.657,-16.759],[179.652,-16.749],[179.651,-16.746],[179.644,-16.746],[179.633,-16.766],[179.597,-16.789],[179.582,-16.807],[179.565,-16.792],[179.545,-16.791],[179.503,-16.8],[179.471,-16.801],[179.454,-16.805],[179.438,-16.814],[179.404,-16.802],[179.376,-16.801],[179.297,-16.807],[179.298,-16.804],[179.308,-16.797],[179.314,-16.783],[179.323,-16.771],[179.341,-16.765],[179.355,-16.758],[179.349,-16.746],[179.351,-16.731],[179.34,-16.724],[179.308,-16.718],[179.283,-16.699],[179.266,-16.69],[179.259,-16.694],[179.248,-16.694],[179.172,-16.723],[179.153,-16.734],[179.123,-16.759],[179.129,-16.776],[179.123,-16.79],[179.11,-16.8],[179.096,-16.807],[179.065,-16.799],[179.044,-16.824],[179.02,-16.895],[179.045,-16.88],[179.057,-16.878],[179.075,-16.882],[179.066,-16.893],[179.037,-16.913],[179.027,-16.923],[179.02,-16.923],[179.007,-16.918],[178.967,-16.906],[178.954,-16.899],[178.95,-16.891],[178.949,-16.883],[178.945,-16.878],[178.926,-16.873],[178.92,-16.867],[178.917,-16.858],[178.917,-16.848],[178.91,-16.848],[178.91,-16.868],[178.895,-16.859],[178.884,-16.858],[178.874,-16.861],[178.862,-16.868],[178.821,-16.903],[178.817,-16.912],[178.807,-16.95],[178.799,-16.957],[178.79,-16.962],[178.788,-16.968],[178.801,-16.978],[178.765,-17.001],[178.763,-17.005],[178.734,-17.007],[178.721,-17.006],[178.705,-16.999],[178.692,-16.986],[178.681,-16.958],[178.673,-16.926],[178.67,-16.899],[178.66,-16.879],[178.641,-16.861],[178.627,-16.838],[178.636,-16.807],[178.615,-16.8],[178.606,-16.793],[178.602,-16.78],[178.541,-16.809],[178.512,-16.814],[178.486,-16.793],[178.49,-16.791],[178.49,-16.79],[178.492,-16.787],[178.481,-16.777],[178.479,-16.766],[178.484,-16.76],[178.492,-16.766],[178.499,-16.766],[178.497,-16.747],[178.507,-16.73],[178.54,-16.704],[178.54,-16.725],[178.549,-16.716],[178.553,-16.705],[178.557,-16.698],[178.568,-16.704],[178.573,-16.689],[178.586,-16.665],[178.589,-16.65],[178.567,-16.66],[178.553,-16.659],[178.543,-16.648],[178.534,-16.629],[178.572,-16.615],[178.582,-16.615],[178.589,-16.619],[178.601,-16.636],[178.608,-16.642],[178.619,-16.645],[178.65,-16.65],[178.681,-16.668],[178.691,-16.67],[178.704,-16.667],[178.709,-16.663],[178.711,-16.657],[178.718,-16.65],[178.773,-16.603],[178.788,-16.597],[178.798,-16.607],[178.801,-16.636],[178.814,-16.63],[178.817,-16.623],[178.814,-16.598],[178.818,-16.587],[178.849,-16.546],[178.85,-16.551],[178.855,-16.56],[178.855,-16.567],[178.863,-16.562],[178.868,-16.557],[178.87,-16.55],[178.869,-16.54],[178.876,-16.54],[178.886,-16.552],[178.898,-16.543],[178.909,-16.527],[178.92,-16.518],[178.931,-16.513],[178.928,-16.5],[178.92,-16.484],[178.917,-16.471],[178.921,-16.473],[178.933,-16.476],[178.937,-16.478],[178.943,-16.46],[178.952,-16.46],[178.961,-16.466],[178.965,-16.471],[178.98,-16.468],[179.008,-16.46],[179.054,-16.454],[179.107,-16.436],[179.137,-16.43],[179.167,-16.431],[179.178,-16.43],[179.18,-16.426],[179.188,-16.412],[179.191,-16.408],[179.199,-16.405],[179.216,-16.402],[179.222,-16.399],[179.24,-16.398],[179.27,-16.406],[179.298,-16.409],[179.314,-16.396],[179.329,-16.408],[179.338,-16.404],[179.346,-16.394],[179.359,-16.388],[179.366,-16.391],[179.372,-16.405],[179.38,-16.408],[179.388,-16.407],[179.392,-16.406],[179.396,-16.406],[179.404,-16.408],[179.402,-16.393],[179.396,-16.379],[179.386,-16.367],[179.376,-16.361],[179.386,-16.351],[179.398,-16.348],[179.409,-16.349],[179.418,-16.354],[179.423,-16.337],[179.431,-16.319],[179.443,-16.31],[179.458,-16.32],[179.465,-16.303],[179.467,-16.287],[179.471,-16.274],[179.486,-16.265],[179.522,-16.268],[179.536,-16.262],[179.52,-16.245],[179.533,-16.245],[179.542,-16.251],[179.549,-16.261],[179.554,-16.273],[179.563,-16.237],[179.568,-16.224],[179.573,-16.236],[179.582,-16.242],[179.593,-16.246],[179.603,-16.252],[179.612,-16.243],[179.619,-16.243],[179.625,-16.248],[179.63,-16.259],[179.63,-16.243],[179.634,-16.238],[179.64,-16.238],[179.647,-16.239],[179.653,-16.235],[179.656,-16.228],[179.657,-16.221],[179.656,-16.217],[179.663,-16.218],[179.667,-16.221],[179.671,-16.223],[179.674,-16.224],[179.694,-16.226],[179.702,-16.223],[179.705,-16.214],[179.71,-16.208],[179.735,-16.198],[179.764,-16.181],[179.771,-16.197],[179.773,-16.219],[179.781,-16.231],[179.793,-16.226],[179.814,-16.208],[179.829,-16.204],[179.84,-16.208],[179.841,-16.213],[179.837,-16.219],[179.829,-16.224],[179.84,-16.228],[179.851,-16.228],[179.856,-16.231],[179.868,-16.216],[179.903,-16.189],[179.911,-16.18],[179.983,-16.149],[179.999,-16.149],[180,-16.149],[180,-16.169]]]]}},{"type":"Feature","id":"FJ-R","properties":{"id":"FJ-R","countryCode":"FJ","isoSubdivision":"FJ-R","name":"Rotuma","name_en":"Rotuma","name_ko":"로투마섬","type":"Division","labelLongitude":177.067,"labelLatitude":-12.496,"minZoom":8},"geometry":{"type":"Polygon","coordinates":[[[177.125,-12.486],[177.129,-12.502],[177.114,-12.511],[177.091,-12.516],[177.073,-12.517],[177.06,-12.512],[177.044,-12.508],[177.027,-12.507],[177.011,-12.509],[177.007,-12.495],[177.006,-12.49],[177.021,-12.494],[177.033,-12.491],[177.06,-12.475],[177.075,-12.481],[177.111,-12.481],[177.125,-12.486]]]}},{"type":"Feature","id":"FJ-W","properties":{"id":"FJ-W","countryCode":"FJ","isoSubdivision":"FJ-W","name":"Western","name_en":"Western","name_ko":"서부구","type":"Division","labelLongitude":174.61,"labelLatitude":-21.688,"minZoom":8},"geometry":{"type":"MultiPolygon","coordinates":[[[[177.649,-18.493],[177.654,-18.504],[177.656,-18.517],[177.656,-18.541],[177.663,-18.588],[177.649,-18.579],[177.636,-18.563],[177.627,-18.544],[177.622,-18.527],[177.619,-18.512],[177.621,-18.504],[177.635,-18.486],[177.638,-18.49],[177.642,-18.491],[177.645,-18.492],[177.649,-18.493]]],[[[177.783,-18.223],[177.699,-18.201],[177.673,-18.198],[177.645,-18.191],[177.592,-18.167],[177.568,-18.17],[177.537,-18.157],[177.525,-18.155],[177.474,-18.158],[177.465,-18.156],[177.454,-18.152],[177.448,-18.146],[177.443,-18.14],[177.437,-18.136],[177.367,-18.119],[177.336,-18.106],[177.314,-18.074],[177.307,-18.081],[177.302,-18.071],[177.302,-18.051],[177.3,-18.04],[177.297,-18.034],[177.292,-18.029],[177.288,-18.022],[177.286,-18.009],[177.281,-18.004],[177.263,-17.994],[177.262,-17.989],[177.266,-17.979],[177.262,-17.971],[177.255,-17.963],[177.252,-17.952],[177.255,-17.945],[177.268,-17.927],[177.272,-17.917],[177.271,-17.904],[177.267,-17.896],[177.262,-17.889],[177.259,-17.879],[177.266,-17.86],[177.282,-17.852],[177.327,-17.849],[177.354,-17.839],[177.362,-17.835],[177.371,-17.823],[177.373,-17.815],[177.371,-17.808],[177.369,-17.797],[177.369,-17.763],[177.37,-17.75],[177.374,-17.747],[177.381,-17.75],[177.416,-17.76],[177.424,-17.759],[177.434,-17.75],[177.435,-17.743],[177.432,-17.737],[177.43,-17.728],[177.429,-17.717],[177.424,-17.698],[177.424,-17.688],[177.421,-17.678],[177.413,-17.674],[177.404,-17.671],[177.396,-17.663],[177.389,-17.641],[177.402,-17.631],[177.42,-17.622],[177.43,-17.605],[177.434,-17.598],[177.457,-17.593],[177.465,-17.588],[177.469,-17.576],[177.467,-17.565],[177.467,-17.555],[177.478,-17.546],[177.49,-17.559],[177.5,-17.556],[177.504,-17.545],[177.499,-17.533],[177.506,-17.518],[177.515,-17.505],[177.524,-17.501],[177.533,-17.512],[177.54,-17.512],[177.581,-17.478],[177.622,-17.455],[177.625,-17.451],[177.628,-17.448],[177.629,-17.444],[177.631,-17.439],[177.639,-17.437],[177.645,-17.438],[177.653,-17.441],[177.656,-17.443],[177.653,-17.444],[177.647,-17.452],[177.65,-17.469],[177.657,-17.488],[177.663,-17.498],[177.669,-17.492],[177.663,-17.48],[177.659,-17.468],[177.659,-17.457],[177.663,-17.444],[177.671,-17.438],[177.704,-17.42],[177.71,-17.418],[177.749,-17.43],[177.754,-17.425],[177.756,-17.413],[177.761,-17.402],[177.765,-17.397],[177.774,-17.393],[177.78,-17.388],[177.787,-17.385],[177.808,-17.381],[177.812,-17.376],[177.814,-17.371],[177.825,-17.367],[177.83,-17.364],[177.833,-17.366],[177.834,-17.379],[177.834,-17.39],[177.831,-17.4],[177.827,-17.409],[177.82,-17.417],[177.836,-17.421],[177.85,-17.413],[177.862,-17.4],[177.876,-17.389],[177.897,-17.403],[177.927,-17.406],[177.956,-17.403],[177.978,-17.397],[178.007,-17.383],[178.019,-17.375],[178.03,-17.365],[178.042,-17.357],[178.066,-17.356],[178.081,-17.348],[178.114,-17.353],[178.151,-17.347],[178.181,-17.329],[178.19,-17.301],[178.212,-17.308],[178.239,-17.32],[178.263,-17.336],[178.273,-17.352],[178.276,-17.364],[178.286,-17.384],[178.286,-17.397],[178.28,-17.407],[178.254,-17.432],[178.245,-17.444],[178.256,-17.45],[178.258,-17.457],[178.254,-17.466],[178.245,-17.471],[178.259,-17.469],[178.286,-17.438],[178.304,-17.43],[178.327,-17.433],[178.348,-17.44],[178.365,-17.453],[178.376,-17.471],[178.377,-17.48],[178.374,-17.491],[178.376,-17.498],[178.379,-17.5],[178.397,-17.515],[178.4,-17.519],[178.404,-17.522],[178.445,-17.55],[178.448,-17.55],[178.449,-17.558],[178.447,-17.602],[178.438,-17.647],[178.433,-17.657],[178.427,-17.664],[178.418,-17.666],[178.407,-17.664],[178.385,-17.655],[178.377,-17.651],[178.369,-17.648],[178.361,-17.647],[178.342,-17.648],[178.332,-17.647],[178.322,-17.643],[178.297,-17.626],[178.29,-17.623],[178.283,-17.622],[178.279,-17.625],[178.277,-17.629],[178.276,-17.635],[178.276,-17.638],[178.275,-17.642],[178.272,-17.648],[178.261,-17.656],[178.245,-17.661],[178.213,-17.668],[178.157,-17.67],[178.139,-17.668],[178.124,-17.664],[178.114,-17.658],[178.106,-17.65],[178.098,-17.642],[178.072,-17.602],[178.051,-17.578],[178.042,-17.571],[178.031,-17.568],[178.026,-17.573],[178.024,-17.581],[178.026,-17.592],[178.033,-17.611],[178.034,-17.62],[178.033,-17.629],[178.029,-17.639],[178.014,-17.659],[178.009,-17.669],[178.007,-17.679],[178.005,-17.735],[178.006,-17.74],[178.008,-17.743],[178.011,-17.745],[178.015,-17.744],[178.02,-17.742],[178.025,-17.738],[178.054,-17.706],[178.063,-17.698],[178.073,-17.692],[178.082,-17.688],[178.089,-17.687],[178.095,-17.689],[178.099,-17.694],[178.1,-17.702],[178.098,-17.711],[178.092,-17.72],[178.079,-17.732],[178.059,-17.742],[178.037,-17.759],[177.991,-17.808],[177.987,-17.814],[177.985,-17.827],[177.982,-17.834],[177.977,-17.841],[177.973,-17.849],[177.971,-17.856],[177.971,-17.863],[177.976,-17.87],[177.984,-17.876],[177.991,-17.884],[177.993,-17.893],[177.988,-17.906],[177.986,-17.914],[177.987,-17.922],[177.992,-17.928],[177.998,-17.934],[178.004,-17.939],[178.007,-17.946],[178.008,-17.953],[177.997,-17.983],[177.989,-17.99],[177.98,-17.994],[177.957,-17.999],[177.945,-18.001],[177.935,-18],[177.858,-17.981],[177.846,-17.98],[177.833,-17.98],[177.815,-17.985],[177.806,-17.993],[177.799,-18.002],[177.792,-18.022],[177.787,-18.031],[177.773,-18.05],[177.769,-18.058],[177.768,-18.066],[177.769,-18.075],[177.776,-18.096],[177.779,-18.103],[177.782,-18.107],[177.788,-18.109],[177.795,-18.11],[177.819,-18.111],[177.824,-18.113],[177.826,-18.117],[177.826,-18.123],[177.803,-18.156],[177.8,-18.163],[177.797,-18.17],[177.795,-18.197],[177.791,-18.21],[177.783,-18.223]]],[[[177.094,-17.245],[177.12,-17.255],[177.133,-17.254],[177.149,-17.245],[177.163,-17.266],[177.156,-17.267],[177.153,-17.271],[177.152,-17.275],[177.138,-17.295],[177.125,-17.307],[177.112,-17.31],[177.101,-17.301],[177.099,-17.284],[177.104,-17.27],[177.105,-17.26],[177.094,-17.253],[177.094,-17.245]]],[[[177.272,-17.081],[177.276,-17.074],[177.286,-17.047],[177.292,-17.059],[177.293,-17.072],[177.288,-17.085],[177.28,-17.094],[177.272,-17.113],[177.242,-17.133],[177.238,-17.149],[177.234,-17.146],[177.23,-17.144],[177.227,-17.141],[177.224,-17.135],[177.215,-17.141],[177.208,-17.148],[177.204,-17.157],[177.204,-17.17],[177.176,-17.163],[177.176,-17.156],[177.187,-17.156],[177.19,-17.156],[177.186,-17.146],[177.184,-17.133],[177.186,-17.12],[177.194,-17.115],[177.202,-17.111],[177.206,-17.101],[177.208,-17.09],[177.211,-17.081],[177.218,-17.074],[177.241,-17.057],[177.249,-17.053],[177.25,-17.058],[177.261,-17.076],[177.266,-17.081],[177.272,-17.081]]],[[[177.444,-16.868],[177.413,-16.891],[177.404,-16.903],[177.417,-16.909],[177.413,-16.917],[177.408,-16.924],[177.403,-16.931],[177.395,-16.937],[177.393,-16.931],[177.386,-16.922],[177.373,-16.903],[177.379,-16.894],[177.403,-16.882],[177.396,-16.866],[177.408,-16.861],[177.428,-16.863],[177.444,-16.868]]],[[[177.561,-16.677],[177.58,-16.678],[177.591,-16.686],[177.594,-16.7],[177.587,-16.718],[177.58,-16.728],[177.564,-16.74],[177.561,-16.749],[177.556,-16.754],[177.493,-16.803],[177.479,-16.817],[177.471,-16.834],[177.461,-16.83],[177.458,-16.828],[177.453,-16.833],[177.446,-16.839],[177.437,-16.84],[177.43,-16.834],[177.43,-16.828],[177.436,-16.804],[177.437,-16.793],[177.444,-16.793],[177.457,-16.806],[177.475,-16.797],[177.513,-16.759],[177.559,-16.721],[177.573,-16.699],[177.561,-16.677]]],[[[174.616,-21.711],[174.597,-21.698],[174.589,-21.682],[174.594,-21.669],[174.614,-21.668],[174.627,-21.677],[174.631,-21.69],[174.628,-21.703],[174.616,-21.711]]]]}}]}
