{"type":"FeatureCollection","features":[{"type":"Feature","id":"FK-X01~","properties":{"id":"FK-X01~","countryCode":"FK","isoSubdivision":"FK-X01~","name":"Falkland Islands","name_en":"Falkland Islands","name_ko":"포클랜드 아일랜즈","type":"Principal subdivision","labelLongitude":-59.194,"labelLatitude":-51.859,"minZoom":18},"geometry":{"type":"MultiPolygon","coordinates":[[[[-59.694,-52.208],[-59.677,-52.216],[-59.679,-52.229],[-59.693,-52.242],[-59.711,-52.248],[-59.72,-52.25],[-59.73,-52.253],[-59.739,-52.259],[-59.747,-52.274],[-59.756,-52.274],[-59.764,-52.266],[-59.765,-52.254],[-59.765,-52.253],[-59.766,-52.251],[-59.768,-52.25],[-59.77,-52.248],[-59.759,-52.241],[-59.75,-52.228],[-59.745,-52.212],[-59.748,-52.194],[-59.761,-52.181],[-59.777,-52.174],[-59.791,-52.167],[-59.797,-52.15],[-59.792,-52.131],[-59.782,-52.139],[-59.766,-52.166],[-59.717,-52.163],[-59.695,-52.166],[-59.68,-52.179],[-59.685,-52.184],[-59.689,-52.191],[-59.692,-52.199],[-59.694,-52.208]]],[[[-61.194,-51.817],[-61.205,-51.819],[-61.235,-51.831],[-61.235,-51.837],[-61.226,-51.841],[-61.216,-51.842],[-61.205,-51.841],[-61.194,-51.837],[-61.218,-51.862],[-61.252,-51.862],[-61.289,-51.846],[-61.318,-51.824],[-61.313,-51.821],[-61.308,-51.819],[-61.298,-51.817],[-61.289,-51.82],[-61.267,-51.824],[-61.251,-51.834],[-61.246,-51.83],[-61.242,-51.817],[-61.239,-51.812],[-61.237,-51.805],[-61.233,-51.799],[-61.222,-51.797],[-61.214,-51.798],[-61.206,-51.802],[-61.2,-51.809],[-61.194,-51.817]]],[[[-60.948,-51.947],[-60.976,-51.953],[-60.997,-51.953],[-61.044,-51.941],[-61.04,-51.931],[-61.037,-51.927],[-61.051,-51.927],[-61.058,-51.92],[-61.061,-51.912],[-61.065,-51.906],[-61.075,-51.904],[-61.096,-51.903],[-61.106,-51.9],[-61.109,-51.897],[-61.112,-51.895],[-61.115,-51.893],[-61.12,-51.893],[-61.112,-51.871],[-61.119,-51.857],[-61.134,-51.848],[-61.153,-51.845],[-61.136,-51.832],[-61.122,-51.826],[-61.106,-51.824],[-61.065,-51.825],[-61.059,-51.824],[-61.047,-51.807],[-61.028,-51.789],[-61.017,-51.781],[-61.002,-51.777],[-60.998,-51.776],[-60.987,-51.776],[-60.982,-51.777],[-60.975,-51.78],[-60.972,-51.784],[-60.971,-51.787],[-60.969,-51.79],[-60.948,-51.796],[-60.94,-51.803],[-60.944,-51.814],[-60.963,-51.824],[-61.012,-51.842],[-61.03,-51.859],[-61.033,-51.867],[-61.027,-51.869],[-60.955,-51.854],[-60.925,-51.837],[-60.905,-51.83],[-60.889,-51.819],[-60.879,-51.797],[-60.884,-51.788],[-60.893,-51.785],[-60.898,-51.781],[-60.887,-51.769],[-60.874,-51.762],[-60.863,-51.761],[-60.855,-51.767],[-60.852,-51.78],[-60.854,-51.789],[-60.859,-51.799],[-60.864,-51.808],[-60.869,-51.814],[-60.875,-51.823],[-60.877,-51.848],[-60.879,-51.859],[-60.886,-51.87],[-60.907,-51.9],[-60.866,-51.9],[-60.874,-51.909],[-60.881,-51.927],[-60.887,-51.934],[-60.901,-51.941],[-60.948,-51.947]]],[[[-61.27,-51.68],[-61.249,-51.68],[-61.213,-51.691],[-61.194,-51.694],[-61.211,-51.7],[-61.25,-51.698],[-61.267,-51.704],[-61.274,-51.714],[-61.277,-51.726],[-61.277,-51.756],[-61.29,-51.753],[-61.302,-51.748],[-61.312,-51.74],[-61.318,-51.728],[-61.312,-51.708],[-61.304,-51.695],[-61.292,-51.686],[-61.27,-51.68]]],[[[-59.632,-51.741],[-59.66,-51.762],[-59.726,-51.799],[-59.831,-51.895],[-59.851,-51.921],[-59.861,-51.936],[-59.872,-51.949],[-59.887,-51.958],[-59.931,-51.965],[-59.995,-51.995],[-60.003,-51.965],[-60.006,-51.961],[-60.031,-51.959],[-60.044,-51.956],[-60.05,-51.951],[-60.054,-51.94],[-60.064,-51.941],[-60.075,-51.946],[-60.081,-51.951],[-60.083,-51.962],[-60.071,-51.982],[-60.074,-51.991],[-60.094,-51.999],[-60.18,-51.995],[-60.204,-52.003],[-60.215,-52.004],[-60.221,-51.995],[-60.218,-51.989],[-60.2,-51.977],[-60.194,-51.968],[-60.26,-51.985],[-60.276,-51.995],[-60.287,-52.013],[-60.281,-52.028],[-60.269,-52.045],[-60.263,-52.067],[-60.268,-52.082],[-60.28,-52.094],[-60.36,-52.154],[-60.372,-52.16],[-60.394,-52.159],[-60.425,-52.145],[-60.447,-52.146],[-60.443,-52.147],[-60.442,-52.153],[-60.443,-52.159],[-60.444,-52.163],[-60.451,-52.166],[-60.458,-52.162],[-60.465,-52.156],[-60.481,-52.149],[-60.5,-52.13],[-60.506,-52.126],[-60.518,-52.123],[-60.537,-52.112],[-60.55,-52.112],[-60.557,-52.116],[-60.558,-52.123],[-60.555,-52.129],[-60.528,-52.138],[-60.513,-52.152],[-60.502,-52.169],[-60.496,-52.187],[-60.537,-52.217],[-60.593,-52.237],[-60.647,-52.233],[-60.681,-52.194],[-60.668,-52.195],[-60.659,-52.197],[-60.65,-52.198],[-60.639,-52.194],[-60.658,-52.185],[-60.683,-52.168],[-60.704,-52.148],[-60.715,-52.132],[-60.707,-52.129],[-60.694,-52.12],[-60.689,-52.109],[-60.704,-52.104],[-60.805,-52.102],[-60.818,-52.104],[-60.826,-52.112],[-60.82,-52.116],[-60.807,-52.118],[-60.794,-52.119],[-60.774,-52.125],[-60.751,-52.14],[-60.732,-52.158],[-60.722,-52.174],[-60.78,-52.174],[-60.797,-52.172],[-60.805,-52.167],[-60.81,-52.16],[-60.855,-52.122],[-60.867,-52.115],[-60.88,-52.114],[-60.894,-52.114],[-60.907,-52.112],[-60.925,-52.101],[-60.958,-52.073],[-60.976,-52.064],[-61.022,-52.058],[-61.037,-52.047],[-61.03,-52.023],[-61.02,-52.012],[-60.995,-52.016],[-60.941,-52.03],[-60.897,-52.032],[-60.887,-52.036],[-60.882,-52.046],[-60.883,-52.057],[-60.878,-52.065],[-60.859,-52.064],[-60.873,-52.03],[-60.805,-52.024],[-60.742,-52.009],[-60.742,-52.002],[-60.774,-51.991],[-60.801,-51.988],[-60.824,-51.98],[-60.845,-51.955],[-60.758,-51.954],[-60.713,-51.961],[-60.694,-51.982],[-60.688,-51.982],[-60.684,-51.975],[-60.68,-51.97],[-60.667,-51.961],[-60.665,-51.971],[-60.66,-51.98],[-60.652,-51.984],[-60.643,-51.979],[-60.632,-51.972],[-60.623,-51.971],[-60.612,-51.974],[-60.584,-51.977],[-60.574,-51.98],[-60.557,-51.988],[-60.541,-52],[-60.532,-52],[-60.523,-51.988],[-60.537,-51.982],[-60.537,-51.975],[-60.511,-51.976],[-60.483,-51.972],[-60.456,-51.965],[-60.434,-51.955],[-60.408,-51.925],[-60.403,-51.921],[-60.4,-51.917],[-60.406,-51.909],[-60.417,-51.904],[-60.431,-51.91],[-60.467,-51.93],[-60.515,-51.942],[-60.564,-51.941],[-60.606,-51.927],[-60.526,-51.93],[-60.506,-51.924],[-60.499,-51.921],[-60.479,-51.915],[-60.475,-51.91],[-60.472,-51.901],[-60.464,-51.892],[-60.455,-51.884],[-60.447,-51.879],[-60.457,-51.867],[-60.456,-51.859],[-60.45,-51.853],[-60.447,-51.845],[-60.449,-51.835],[-60.454,-51.814],[-60.455,-51.8],[-60.444,-51.783],[-60.42,-51.77],[-60.393,-51.765],[-60.372,-51.769],[-60.38,-51.778],[-60.388,-51.785],[-60.406,-51.797],[-60.376,-51.792],[-60.363,-51.792],[-60.358,-51.8],[-60.361,-51.809],[-60.38,-51.837],[-60.368,-51.842],[-60.339,-51.859],[-60.337,-51.842],[-60.329,-51.83],[-60.316,-51.823],[-60.297,-51.824],[-60.309,-51.81],[-60.313,-51.798],[-60.311,-51.766],[-60.307,-51.756],[-60.298,-51.75],[-60.286,-51.748],[-60.276,-51.749],[-60.269,-51.753],[-60.262,-51.769],[-60.256,-51.777],[-60.249,-51.776],[-60.24,-51.771],[-60.232,-51.77],[-60.229,-51.78],[-60.225,-51.782],[-60.215,-51.778],[-60.184,-51.761],[-60.181,-51.743],[-60.182,-51.722],[-60.18,-51.707],[-60.207,-51.701],[-60.232,-51.705],[-60.256,-51.711],[-60.28,-51.715],[-60.338,-51.709],[-60.364,-51.714],[-60.358,-51.735],[-60.366,-51.747],[-60.373,-51.747],[-60.382,-51.742],[-60.393,-51.741],[-60.438,-51.76],[-60.451,-51.762],[-60.496,-51.762],[-60.51,-51.766],[-60.518,-51.774],[-60.523,-51.783],[-60.531,-51.79],[-60.551,-51.79],[-60.561,-51.775],[-60.57,-51.757],[-60.588,-51.749],[-60.61,-51.743],[-60.629,-51.727],[-60.64,-51.707],[-60.639,-51.687],[-60.625,-51.67],[-60.609,-51.671],[-60.59,-51.681],[-60.49,-51.7],[-60.462,-51.701],[-60.438,-51.694],[-60.392,-51.672],[-60.369,-51.667],[-60.29,-51.672],[-60.22,-51.654],[-60.199,-51.656],[-60.157,-51.683],[-60.133,-51.69],[-60.077,-51.694],[-60.092,-51.675],[-60.116,-51.665],[-60.144,-51.66],[-60.17,-51.659],[-60.19,-51.653],[-60.249,-51.612],[-60.259,-51.608],[-60.28,-51.603],[-60.29,-51.597],[-60.318,-51.571],[-60.344,-51.569],[-60.49,-51.526],[-60.503,-51.519],[-60.513,-51.498],[-60.515,-51.487],[-60.506,-51.481],[-60.447,-51.481],[-60.399,-51.489],[-60.389,-51.484],[-60.403,-51.464],[-60.423,-51.451],[-60.45,-51.442],[-60.478,-51.436],[-60.516,-51.433],[-60.544,-51.434],[-60.557,-51.433],[-60.589,-51.421],[-60.602,-51.42],[-60.612,-51.417],[-60.623,-51.411],[-60.631,-51.404],[-60.63,-51.396],[-60.626,-51.385],[-60.631,-51.373],[-60.646,-51.351],[-60.635,-51.352],[-60.624,-51.352],[-60.615,-51.349],[-60.606,-51.344],[-60.573,-51.358],[-60.462,-51.386],[-60.427,-51.399],[-60.324,-51.453],[-60.243,-51.479],[-60.153,-51.487],[-59.989,-51.468],[-60.013,-51.45],[-60.084,-51.446],[-60.074,-51.423],[-60.053,-51.406],[-60.03,-51.393],[-60.024,-51.379],[-60.017,-51.375],[-60.006,-51.382],[-60.002,-51.388],[-59.995,-51.414],[-59.934,-51.382],[-59.901,-51.373],[-59.872,-51.379],[-59.872,-51.386],[-59.878,-51.389],[-59.88,-51.392],[-59.882,-51.396],[-59.886,-51.399],[-59.792,-51.411],[-59.762,-51.42],[-59.778,-51.425],[-59.795,-51.427],[-59.83,-51.427],[-59.802,-51.447],[-59.749,-51.447],[-59.56,-51.42],[-59.543,-51.415],[-59.509,-51.396],[-59.488,-51.393],[-59.488,-51.399],[-59.559,-51.431],[-59.585,-51.44],[-59.539,-51.456],[-59.491,-51.456],[-59.393,-51.433],[-59.4,-51.423],[-59.412,-51.415],[-59.425,-51.408],[-59.437,-51.406],[-59.444,-51.4],[-59.445,-51.371],[-59.447,-51.358],[-59.439,-51.359],[-59.422,-51.358],[-59.413,-51.358],[-59.415,-51.354],[-59.418,-51.342],[-59.42,-51.338],[-59.405,-51.338],[-59.387,-51.34],[-59.371,-51.346],[-59.365,-51.355],[-59.357,-51.361],[-59.256,-51.387],[-59.229,-51.399],[-59.214,-51.414],[-59.257,-51.412],[-59.274,-51.417],[-59.283,-51.433],[-59.279,-51.448],[-59.266,-51.448],[-59.25,-51.445],[-59.235,-51.447],[-59.262,-51.457],[-59.308,-51.49],[-59.331,-51.502],[-59.338,-51.491],[-59.348,-51.487],[-59.361,-51.489],[-59.372,-51.495],[-59.372,-51.502],[-59.369,-51.507],[-59.37,-51.513],[-59.379,-51.529],[-59.371,-51.526],[-59.351,-51.523],[-59.351,-51.529],[-59.382,-51.557],[-59.386,-51.563],[-59.389,-51.591],[-59.396,-51.597],[-59.409,-51.602],[-59.433,-51.621],[-59.447,-51.625],[-59.459,-51.621],[-59.464,-51.612],[-59.465,-51.602],[-59.46,-51.591],[-59.492,-51.614],[-59.509,-51.623],[-59.523,-51.618],[-59.577,-51.653],[-59.549,-51.651],[-59.554,-51.662],[-59.588,-51.69],[-59.632,-51.741]]],[[[-59.899,-51.304],[-59.914,-51.31],[-59.92,-51.31],[-59.92,-51.317],[-59.906,-51.329],[-59.918,-51.339],[-59.941,-51.344],[-59.961,-51.344],[-59.981,-51.336],[-59.998,-51.325],[-60.013,-51.311],[-60.023,-51.296],[-59.976,-51.287],[-59.96,-51.287],[-59.945,-51.289],[-59.906,-51.303],[-59.899,-51.304]]],[[[-60.17,-51.393],[-60.241,-51.401],[-60.256,-51.4],[-60.274,-51.394],[-60.289,-51.385],[-60.291,-51.372],[-60.277,-51.357],[-60.253,-51.349],[-60.205,-51.344],[-60.194,-51.348],[-60.173,-51.368],[-60.163,-51.372],[-60.148,-51.371],[-60.135,-51.369],[-60.123,-51.365],[-60.112,-51.358],[-60.13,-51.347],[-60.185,-51.328],[-60.223,-51.32],[-60.27,-51.298],[-60.284,-51.289],[-60.3,-51.275],[-60.301,-51.268],[-60.29,-51.262],[-60.274,-51.261],[-60.265,-51.267],[-60.259,-51.277],[-60.252,-51.286],[-60.232,-51.297],[-60.206,-51.303],[-60.178,-51.305],[-60.153,-51.304],[-60.099,-51.296],[-60.074,-51.3],[-60.064,-51.321],[-60.059,-51.325],[-60.052,-51.336],[-60.049,-51.346],[-60.061,-51.351],[-60.098,-51.379],[-60.114,-51.402],[-60.119,-51.406],[-60.129,-51.405],[-60.158,-51.395],[-60.17,-51.393]]],[[[-57.816,-51.694],[-57.776,-51.685],[-57.757,-51.683],[-57.734,-51.687],[-57.734,-51.694],[-57.762,-51.695],[-57.864,-51.726],[-57.884,-51.729],[-57.952,-51.73],[-57.966,-51.733],[-57.966,-51.74],[-57.979,-51.747],[-57.992,-51.751],[-58.144,-51.762],[-58.222,-51.755],[-58.261,-51.756],[-58.261,-51.762],[-58.249,-51.764],[-58.214,-51.777],[-58.198,-51.78],[-58.145,-51.783],[-58.145,-51.79],[-58.173,-51.795],[-58.232,-51.793],[-58.261,-51.797],[-58.331,-51.824],[-58.357,-51.824],[-58.336,-51.831],[-58.315,-51.83],[-58.253,-51.811],[-58.186,-51.811],[-58.2,-51.822],[-58.225,-51.833],[-58.252,-51.842],[-58.295,-51.849],[-58.371,-51.879],[-58.419,-51.892],[-58.511,-51.883],[-58.563,-51.885],[-58.599,-51.893],[-58.758,-51.891],[-58.782,-51.885],[-58.816,-51.865],[-58.862,-51.855],[-58.885,-51.843],[-58.906,-51.835],[-58.916,-51.828],[-58.921,-51.819],[-58.925,-51.809],[-58.93,-51.801],[-58.94,-51.797],[-58.953,-51.802],[-58.964,-51.817],[-58.972,-51.832],[-58.974,-51.841],[-58.969,-51.854],[-58.956,-51.866],[-58.939,-51.875],[-58.893,-51.884],[-58.852,-51.898],[-58.815,-51.915],[-58.796,-51.934],[-58.81,-51.952],[-58.784,-51.957],[-58.727,-51.947],[-58.698,-51.948],[-58.661,-51.955],[-58.632,-51.968],[-58.632,-51.988],[-58.604,-52.002],[-58.656,-52.024],[-58.673,-52.036],[-58.661,-52.043],[-58.654,-52.052],[-58.649,-52.064],[-58.641,-52.098],[-58.641,-52.108],[-58.649,-52.111],[-58.666,-52.112],[-58.675,-52.107],[-58.706,-52.07],[-58.718,-52.06],[-58.729,-52.051],[-58.743,-52.045],[-58.762,-52.043],[-58.771,-52.041],[-58.783,-52.032],[-58.789,-52.03],[-58.795,-52.032],[-58.798,-52.036],[-58.802,-52.041],[-58.813,-52.043],[-58.822,-52.042],[-58.837,-52.037],[-58.844,-52.036],[-58.857,-52.04],[-58.856,-52.047],[-58.851,-52.057],[-58.851,-52.064],[-58.864,-52.073],[-58.896,-52.085],[-58.909,-52.094],[-58.926,-52.102],[-58.936,-52.09],[-58.948,-52.057],[-58.969,-52.071],[-58.98,-52.063],[-58.987,-52.045],[-58.995,-52.03],[-59.017,-52.023],[-59.039,-52.027],[-59.056,-52.026],[-59.063,-52.009],[-59.081,-52.015],[-59.096,-52.012],[-59.125,-51.995],[-59.133,-51.987],[-59.138,-51.983],[-59.146,-51.982],[-59.158,-51.985],[-59.162,-51.99],[-59.165,-51.996],[-59.173,-52.002],[-59.187,-52.007],[-59.2,-52.008],[-59.213,-52.006],[-59.228,-52.002],[-59.237,-51.998],[-59.243,-51.993],[-59.251,-51.99],[-59.262,-51.988],[-59.27,-51.99],[-59.284,-52],[-59.293,-52.002],[-59.303,-52.008],[-59.298,-52.019],[-59.283,-52.026],[-59.253,-52.014],[-59.201,-52.023],[-59.186,-52.029],[-59.184,-52.043],[-59.184,-52.058],[-59.177,-52.064],[-59.157,-52.062],[-59.144,-52.058],[-59.13,-52.057],[-59.112,-52.064],[-59.146,-52.091],[-59.109,-52.089],[-59.092,-52.091],[-59.077,-52.098],[-59.094,-52.108],[-59.133,-52.118],[-59.146,-52.126],[-59.153,-52.144],[-59.139,-52.15],[-59.116,-52.149],[-59.058,-52.136],[-59.039,-52.136],[-59.036,-52.146],[-59.046,-52.154],[-59.098,-52.174],[-59.085,-52.187],[-59.063,-52.199],[-59.049,-52.212],[-59.063,-52.229],[-59.085,-52.232],[-59.11,-52.225],[-59.153,-52.208],[-59.179,-52.206],[-59.201,-52.209],[-59.222,-52.207],[-59.241,-52.194],[-59.246,-52.185],[-59.249,-52.177],[-59.253,-52.169],[-59.262,-52.16],[-59.274,-52.155],[-59.286,-52.154],[-59.298,-52.15],[-59.31,-52.139],[-59.327,-52.144],[-59.367,-52.115],[-59.386,-52.112],[-59.39,-52.118],[-59.395,-52.13],[-59.4,-52.15],[-59.405,-52.156],[-59.416,-52.149],[-59.434,-52.132],[-59.456,-52.142],[-59.446,-52.16],[-59.413,-52.187],[-59.417,-52.187],[-59.424,-52.193],[-59.431,-52.202],[-59.434,-52.211],[-59.429,-52.218],[-59.416,-52.22],[-59.393,-52.222],[-59.368,-52.231],[-59.352,-52.242],[-59.346,-52.257],[-59.351,-52.276],[-59.357,-52.28],[-59.368,-52.289],[-59.374,-52.299],[-59.361,-52.304],[-59.359,-52.308],[-59.337,-52.323],[-59.331,-52.324],[-59.339,-52.342],[-59.359,-52.336],[-59.393,-52.31],[-59.416,-52.302],[-59.467,-52.296],[-59.488,-52.284],[-59.484,-52.264],[-59.497,-52.252],[-59.517,-52.245],[-59.563,-52.238],[-59.58,-52.23],[-59.581,-52.217],[-59.557,-52.201],[-59.574,-52.195],[-59.608,-52.202],[-59.622,-52.197],[-59.625,-52.192],[-59.624,-52.179],[-59.626,-52.174],[-59.657,-52.152],[-59.694,-52.135],[-59.703,-52.128],[-59.714,-52.119],[-59.722,-52.108],[-59.719,-52.097],[-59.713,-52.093],[-59.704,-52.094],[-59.695,-52.097],[-59.688,-52.101],[-59.667,-52.116],[-59.66,-52.119],[-59.641,-52.118],[-59.628,-52.111],[-59.626,-52.099],[-59.639,-52.085],[-59.598,-52.079],[-59.58,-52.071],[-59.57,-52.057],[-59.588,-52.051],[-59.608,-52.042],[-59.625,-52.03],[-59.632,-52.016],[-59.631,-52.007],[-59.626,-52.003],[-59.618,-52.004],[-59.608,-52.012],[-59.598,-52.016],[-59.584,-52.017],[-59.557,-52.016],[-59.572,-51.996],[-59.58,-51.989],[-59.591,-51.982],[-59.575,-51.977],[-59.539,-51.973],[-59.523,-51.968],[-59.523,-51.961],[-59.579,-51.951],[-59.605,-51.941],[-59.605,-51.921],[-59.581,-51.911],[-59.548,-51.919],[-59.514,-51.931],[-59.488,-51.934],[-59.467,-51.922],[-59.482,-51.91],[-59.509,-51.897],[-59.523,-51.885],[-59.517,-51.874],[-59.504,-51.874],[-59.488,-51.876],[-59.475,-51.872],[-59.468,-51.864],[-59.469,-51.855],[-59.476,-51.848],[-59.488,-51.845],[-59.471,-51.838],[-59.396,-51.821],[-59.376,-51.833],[-59.364,-51.822],[-59.351,-51.777],[-59.335,-51.787],[-59.319,-51.789],[-59.283,-51.783],[-59.3,-51.759],[-59.303,-51.749],[-59.207,-51.707],[-59.191,-51.721],[-59.178,-51.714],[-59.165,-51.701],[-59.149,-51.694],[-59.073,-51.685],[-59.056,-51.687],[-59.051,-51.694],[-59.05,-51.703],[-59.052,-51.712],[-59.05,-51.721],[-59.045,-51.729],[-59.038,-51.736],[-59.032,-51.743],[-59.03,-51.752],[-59.033,-51.761],[-59.038,-51.77],[-59.042,-51.779],[-59.036,-51.793],[-59.037,-51.802],[-59.04,-51.81],[-59.043,-51.817],[-59.026,-51.813],[-59.007,-51.81],[-58.99,-51.804],[-58.981,-51.79],[-58.986,-51.775],[-58.998,-51.758],[-59.008,-51.74],[-59.004,-51.714],[-59.017,-51.705],[-59.028,-51.694],[-59.022,-51.673],[-59.013,-51.668],[-59.002,-51.667],[-58.992,-51.665],[-58.988,-51.656],[-58.991,-51.647],[-58.999,-51.646],[-59.009,-51.646],[-59.03,-51.639],[-59.101,-51.622],[-59.146,-51.597],[-59.168,-51.574],[-59.15,-51.557],[-59.122,-51.536],[-59.112,-51.502],[-59.061,-51.563],[-59.029,-51.584],[-59.008,-51.557],[-59.035,-51.534],[-59.041,-51.511],[-59.026,-51.499],[-58.988,-51.508],[-59.014,-51.492],[-59.105,-51.466],[-59.125,-51.457],[-59.122,-51.442],[-59.112,-51.426],[-59.099,-51.413],[-59.084,-51.406],[-59.078,-51.408],[-59.059,-51.417],[-59.05,-51.42],[-59.038,-51.42],[-59.005,-51.414],[-58.996,-51.409],[-58.991,-51.4],[-58.988,-51.39],[-58.985,-51.386],[-58.917,-51.384],[-58.893,-51.38],[-58.874,-51.372],[-58.865,-51.358],[-58.87,-51.345],[-58.899,-51.318],[-58.91,-51.301],[-58.919,-51.293],[-58.93,-51.286],[-58.937,-51.283],[-58.942,-51.279],[-58.954,-51.248],[-58.933,-51.254],[-58.901,-51.278],[-58.886,-51.283],[-58.864,-51.285],[-58.816,-51.297],[-58.734,-51.328],[-58.71,-51.331],[-58.659,-51.331],[-58.648,-51.334],[-58.638,-51.339],[-58.626,-51.343],[-58.611,-51.344],[-58.611,-51.338],[-58.615,-51.325],[-58.6,-51.315],[-58.577,-51.307],[-58.481,-51.301],[-58.464,-51.307],[-58.447,-51.315],[-58.407,-51.324],[-58.389,-51.334],[-58.344,-51.368],[-58.337,-51.382],[-58.333,-51.403],[-58.329,-51.416],[-58.334,-51.428],[-58.357,-51.44],[-58.377,-51.445],[-58.403,-51.449],[-58.428,-51.451],[-58.447,-51.447],[-58.457,-51.436],[-58.473,-51.402],[-58.488,-51.393],[-58.505,-51.395],[-58.521,-51.406],[-58.549,-51.433],[-58.515,-51.433],[-58.509,-51.447],[-58.522,-51.491],[-58.509,-51.498],[-58.445,-51.476],[-58.422,-51.478],[-58.418,-51.488],[-58.42,-51.501],[-58.424,-51.514],[-58.426,-51.526],[-58.425,-51.543],[-58.421,-51.549],[-58.406,-51.549],[-58.402,-51.548],[-58.395,-51.539],[-58.389,-51.537],[-58.385,-51.54],[-58.378,-51.554],[-58.375,-51.56],[-58.361,-51.566],[-58.346,-51.565],[-58.332,-51.559],[-58.324,-51.549],[-58.303,-51.557],[-58.29,-51.568],[-58.284,-51.582],[-58.282,-51.601],[-58.276,-51.615],[-58.262,-51.632],[-58.245,-51.646],[-58.231,-51.653],[-58.213,-51.646],[-58.222,-51.631],[-58.248,-51.605],[-58.237,-51.593],[-58.215,-51.595],[-58.173,-51.612],[-58.18,-51.588],[-58.204,-51.578],[-58.23,-51.572],[-58.241,-51.56],[-58.235,-51.553],[-58.221,-51.547],[-58.212,-51.539],[-58.217,-51.526],[-58.23,-51.522],[-58.261,-51.53],[-58.276,-51.529],[-58.285,-51.521],[-58.286,-51.513],[-58.285,-51.505],[-58.289,-51.495],[-58.294,-51.489],[-58.301,-51.483],[-58.307,-51.482],[-58.31,-51.491],[-58.314,-51.501],[-58.324,-51.506],[-58.337,-51.508],[-58.348,-51.508],[-58.359,-51.505],[-58.355,-51.496],[-58.337,-51.481],[-58.291,-51.423],[-58.279,-51.414],[-58.268,-51.41],[-58.241,-51.396],[-58.227,-51.393],[-58.018,-51.383],[-57.963,-51.372],[-57.933,-51.372],[-57.906,-51.377],[-57.895,-51.382],[-57.885,-51.393],[-57.868,-51.434],[-57.861,-51.44],[-57.85,-51.445],[-57.82,-51.478],[-57.809,-51.485],[-57.795,-51.49],[-57.768,-51.495],[-57.776,-51.505],[-57.795,-51.512],[-57.803,-51.523],[-57.777,-51.523],[-57.769,-51.532],[-57.778,-51.543],[-57.803,-51.549],[-57.927,-51.539],[-58.011,-51.507],[-58.032,-51.504],[-58.041,-51.512],[-58.029,-51.537],[-58.082,-51.522],[-58.145,-51.543],[-58.128,-51.561],[-58.094,-51.576],[-58.057,-51.587],[-58.029,-51.591],[-57.971,-51.582],[-57.943,-51.593],[-57.85,-51.599],[-57.812,-51.606],[-57.781,-51.619],[-57.768,-51.642],[-57.786,-51.655],[-57.828,-51.665],[-57.899,-51.673],[-57.899,-51.68],[-57.839,-51.694],[-57.816,-51.694]]],[[[-59.748,-51.283],[-59.791,-51.277],[-59.8,-51.273],[-59.807,-51.265],[-59.809,-51.256],[-59.804,-51.25],[-59.789,-51.248],[-59.767,-51.241],[-59.741,-51.247],[-59.715,-51.257],[-59.691,-51.262],[-59.588,-51.255],[-59.579,-51.257],[-59.578,-51.26],[-59.58,-51.265],[-59.577,-51.27],[-59.571,-51.277],[-59.567,-51.283],[-59.561,-51.288],[-59.546,-51.289],[-59.54,-51.287],[-59.535,-51.281],[-59.532,-51.274],[-59.529,-51.27],[-59.519,-51.265],[-59.512,-51.263],[-59.502,-51.262],[-59.479,-51.268],[-59.463,-51.282],[-59.452,-51.302],[-59.447,-51.324],[-59.472,-51.328],[-59.495,-51.336],[-59.553,-51.338],[-59.577,-51.33],[-59.61,-51.297],[-59.636,-51.289],[-59.748,-51.283]]],[[[-59.768,-52.327],[-59.752,-52.309],[-59.726,-52.304],[-59.692,-52.304],[-59.689,-52.315],[-59.712,-52.319],[-59.712,-52.333],[-59.731,-52.344],[-59.742,-52.358],[-59.72,-52.367],[-59.681,-52.364],[-59.654,-52.355],[-59.642,-52.368],[-59.667,-52.379],[-59.688,-52.392],[-59.696,-52.407],[-59.723,-52.398],[-59.745,-52.389],[-59.761,-52.379],[-59.786,-52.381],[-59.798,-52.369],[-59.821,-52.358],[-59.79,-52.343],[-59.765,-52.338],[-59.768,-52.327]]],[[[-58.416,-51.994],[-58.402,-52.002],[-58.402,-52.004],[-58.406,-52.005],[-58.408,-52.012],[-58.411,-52.02],[-58.422,-52.02],[-58.441,-52.015],[-58.45,-52.016],[-58.45,-52.02],[-58.444,-52.03],[-58.449,-52.034],[-58.46,-52.033],[-58.461,-52.036],[-58.451,-52.04],[-58.44,-52.037],[-58.431,-52.031],[-58.43,-52.033],[-58.434,-52.042],[-58.436,-52.052],[-58.435,-52.061],[-58.426,-52.073],[-58.427,-52.078],[-58.43,-52.083],[-58.429,-52.089],[-58.423,-52.096],[-58.428,-52.101],[-58.448,-52.098],[-58.456,-52.093],[-58.449,-52.088],[-58.448,-52.081],[-58.454,-52.081],[-58.465,-52.083],[-58.481,-52.078],[-58.495,-52.071],[-58.518,-52.064],[-58.52,-52.059],[-58.521,-52.05],[-58.526,-52.042],[-58.538,-52.034],[-58.547,-52.026],[-58.54,-52.019],[-58.527,-52.013],[-58.513,-52.009],[-58.499,-52.006],[-58.489,-52.002],[-58.48,-52.001],[-58.477,-52],[-58.484,-51.995],[-58.481,-51.992],[-58.466,-51.993],[-58.454,-51.996],[-58.448,-52.001],[-58.444,-52.005],[-58.439,-52.006],[-58.43,-52.005],[-58.424,-52],[-58.425,-51.993],[-58.421,-51.992],[-58.416,-51.994]]],[[[-59.68,-51.966],[-59.674,-51.97],[-59.672,-51.981],[-59.68,-51.988],[-59.69,-51.99],[-59.696,-51.989],[-59.698,-51.986],[-59.7,-51.983],[-59.704,-51.98],[-59.709,-51.979],[-59.715,-51.98],[-59.719,-51.976],[-59.713,-51.964],[-59.715,-51.956],[-59.711,-51.946],[-59.699,-51.938],[-59.689,-51.941],[-59.688,-51.947],[-59.692,-51.955],[-59.686,-51.963],[-59.68,-51.966]]],[[[-59.744,-51.329],[-59.731,-51.339],[-59.717,-51.347],[-59.689,-51.36],[-59.688,-51.339],[-59.666,-51.342],[-59.66,-51.357],[-59.638,-51.366],[-59.6,-51.369],[-59.597,-51.381],[-59.626,-51.385],[-59.663,-51.397],[-59.694,-51.408],[-59.723,-51.41],[-59.752,-51.398],[-59.749,-51.383],[-59.729,-51.373],[-59.753,-51.368],[-59.792,-51.373],[-59.823,-51.361],[-59.829,-51.351],[-59.802,-51.348],[-59.773,-51.346],[-59.765,-51.328],[-59.744,-51.329]]],[[[-60.533,-51.283],[-60.52,-51.293],[-60.517,-51.305],[-60.521,-51.315],[-60.527,-51.317],[-60.53,-51.311],[-60.531,-51.305],[-60.534,-51.301],[-60.546,-51.298],[-60.566,-51.295],[-60.586,-51.285],[-60.597,-51.263],[-60.583,-51.255],[-60.555,-51.269],[-60.541,-51.28],[-60.533,-51.283]]],[[[-61.056,-51.071],[-61.05,-51.075],[-61.049,-51.08],[-61.057,-51.082],[-61.07,-51.079],[-61.103,-51.07],[-61.117,-51.068],[-61.126,-51.065],[-61.126,-51.06],[-61.118,-51.055],[-61.112,-51.051],[-61.113,-51.046],[-61.12,-51.036],[-61.119,-51.028],[-61.106,-51.03],[-61.092,-51.038],[-61.079,-51.051],[-61.074,-51.057],[-61.07,-51.063],[-61.068,-51.067],[-61.056,-51.071]]]]}}]}
