{"type":"FeatureCollection","features":[{"type":"Feature","id":"FM-KSA","properties":{"id":"FM-KSA","countryCode":"FM","isoSubdivision":"FM-KSA","name":"Kosrae","name_en":"Kosrae","name_ko":"코스라에","type":"Principal subdivision","labelLongitude":162.927,"labelLatitude":5.356,"minZoom":11},"geometry":{"type":"Polygon","coordinates":[[[163.026,5.341],[163.03,5.336],[163.037,5.334],[163.044,5.331],[163.047,5.324],[163.043,5.311],[163.026,5.28],[163.019,5.273],[163.006,5.27],[162.993,5.273],[162.981,5.278],[162.968,5.28],[162.946,5.28],[162.931,5.282],[162.916,5.287],[162.912,5.304],[162.924,5.321],[162.971,5.362],[162.991,5.375],[163.011,5.38],[163.026,5.369],[163.027,5.363],[163.026,5.348],[163.026,5.341]]]}},{"type":"Feature","id":"FM-PNI","properties":{"id":"FM-PNI","countryCode":"FM","isoSubdivision":"FM-PNI","name":"Pohnpei State","name_en":"Pohnpei State","name_ko":"폰페이","type":"Principal subdivision","labelLongitude":158.163,"labelLatitude":6.866,"minZoom":11},"geometry":{"type":"MultiPolygon","coordinates":[[[[158.291,6.938],[158.296,6.928],[158.305,6.924],[158.315,6.926],[158.325,6.931],[158.338,6.879],[158.339,6.869],[158.331,6.867],[158.309,6.868],[158.304,6.866],[158.306,6.855],[158.316,6.837],[158.318,6.825],[158.314,6.809],[158.305,6.799],[158.292,6.795],[158.244,6.788],[158.225,6.789],[158.215,6.801],[158.194,6.793],[158.18,6.802],[158.171,6.818],[158.16,6.828],[158.165,6.841],[158.166,6.854],[158.163,6.866],[158.153,6.876],[158.156,6.88],[158.16,6.89],[158.133,6.892],[158.126,6.907],[158.132,6.941],[158.142,6.951],[158.161,6.951],[158.178,6.956],[158.181,6.979],[158.202,6.97],[158.208,6.965],[158.218,6.971],[158.225,6.97],[158.232,6.967],[158.242,6.965],[158.267,6.966],[158.277,6.965],[158.277,6.963],[158.294,6.952],[158.297,6.952],[158.303,6.943],[158.301,6.941],[158.291,6.938]]],[[[154.808,0.928],[154.814,0.926],[154.818,0.922],[154.813,0.918],[154.802,0.918],[154.799,0.924],[154.803,0.927],[154.808,0.928]]],[[[154.715,0.966],[154.722,0.969],[154.733,0.967],[154.727,0.961],[154.715,0.961],[154.715,0.966]]],[[[154.793,0.972],[154.797,0.966],[154.792,0.963],[154.784,0.964],[154.778,0.969],[154.778,0.974],[154.784,0.975],[154.793,0.972]]],[[[154.879,3.752],[154.877,3.768],[154.892,3.779],[154.894,3.763],[154.879,3.752]]],[[[154.789,3.792],[154.792,3.777],[154.774,3.766],[154.771,3.781],[154.789,3.792]]],[[[157.162,5.774],[157.161,5.776],[157.159,5.778],[157.158,5.779],[157.161,5.78],[157.164,5.779],[157.164,5.777],[157.162,5.776],[157.162,5.774]]],[[[157.936,6.717],[157.939,6.727],[157.942,6.731],[157.949,6.732],[157.948,6.726],[157.946,6.723],[157.936,6.717]]],[[[154.3,8.175],[154.31,8.167],[154.313,8.138],[154.308,8.119],[154.304,8.112],[154.296,8.106],[154.279,8.126],[154.255,8.136],[154.238,8.143],[154.245,8.156],[154.25,8.173],[154.26,8.18],[154.267,8.183],[154.291,8.185],[154.3,8.175]]]]}},{"type":"Feature","id":"FM-TRK","properties":{"id":"FM-TRK","countryCode":"FM","isoSubdivision":"FM-TRK","name":"Chuuk State","name_en":"Chuuk State","name_ko":"추크","type":"Principal subdivision","labelLongitude":151.839,"labelLatitude":7.44,"minZoom":11},"geometry":{"type":"MultiPolygon","coordinates":[[[[151.589,7.384],[151.622,7.392],[151.636,7.387],[151.65,7.369],[151.651,7.354],[151.645,7.336],[151.634,7.328],[151.623,7.343],[151.616,7.343],[151.607,7.336],[151.596,7.337],[151.583,7.34],[151.568,7.343],[151.571,7.346],[151.574,7.348],[151.582,7.349],[151.591,7.353],[151.617,7.359],[151.623,7.366],[151.618,7.376],[151.597,7.373],[151.589,7.384]]],[[[151.877,7.459],[151.884,7.464],[151.892,7.462],[151.903,7.46],[151.918,7.459],[151.907,7.447],[151.891,7.435],[151.872,7.427],[151.856,7.425],[151.856,7.437],[151.857,7.447],[151.863,7.466],[151.867,7.465],[151.87,7.464],[151.877,7.459]]],[[[153.668,5.286],[153.672,5.298],[153.685,5.31],[153.701,5.317],[153.711,5.315],[153.708,5.305],[153.694,5.296],[153.678,5.289],[153.668,5.286]]],[[[149.316,6.697],[149.316,6.704],[149.317,6.71],[149.319,6.715],[149.323,6.719],[149.326,6.713],[149.325,6.707],[149.321,6.702],[149.316,6.697]]],[[[151.857,7.317],[151.853,7.354],[151.855,7.37],[151.863,7.362],[151.866,7.351],[151.865,7.339],[151.862,7.327],[151.857,7.317]]],[[[149.186,7.372],[149.181,7.381],[149.187,7.382],[149.188,7.38],[149.187,7.376],[149.186,7.372]]],[[[150.407,8.576],[150.405,8.586],[150.409,8.585],[150.41,8.582],[150.408,8.579],[150.407,8.576]]],[[[149.669,8.575],[149.665,8.588],[149.668,8.604],[149.676,8.616],[149.687,8.616],[149.689,8.607],[149.683,8.594],[149.674,8.582],[149.669,8.575]]],[[[150.118,8.976],[150.124,8.986],[150.127,8.987],[150.133,8.986],[150.131,8.981],[150.127,8.979],[150.123,8.978],[150.118,8.976]]]]}},{"type":"Feature","id":"FM-YAP","properties":{"id":"FM-YAP","countryCode":"FM","isoSubdivision":"FM-YAP","name":"Yap State","name_en":"Yap State","name_ko":"야프","type":"Principal subdivision","labelLongitude":138.114,"labelLatitude":9.581,"minZoom":11},"geometry":{"type":"MultiPolygon","coordinates":[[[[138.192,9.576],[138.182,9.559],[138.184,9.544],[138.198,9.539],[138.219,9.549],[138.214,9.537],[138.202,9.521],[138.189,9.507],[138.178,9.5],[138.164,9.505],[138.157,9.526],[138.144,9.521],[138.134,9.512],[138.08,9.425],[138.068,9.412],[138.064,9.436],[138.073,9.47],[138.089,9.501],[138.106,9.514],[138.113,9.521],[138.121,9.555],[138.126,9.566],[138.141,9.574],[138.147,9.567],[138.15,9.541],[138.152,9.551],[138.155,9.561],[138.159,9.57],[138.164,9.576],[138.173,9.582],[138.185,9.589],[138.194,9.589],[138.192,9.576]]],[[[140.514,9.768],[140.522,9.775],[140.531,9.776],[140.533,9.772],[140.525,9.764],[140.515,9.761],[140.514,9.768]]]]}}]}
