{"type":"FeatureCollection","features":[{"type":"Feature","id":"FO-X00~","properties":{"id":"FO-X00~","countryCode":"FO","isoSubdivision":"FO-X00~","name":"Eysturoy","name_en":"Eysturoy","name_ko":"에스투로이섬","type":"Region","labelLongitude":-6.959,"labelLatitude":62.139,"minZoom":8},"geometry":{"type":"MultiPolygon","coordinates":[[[[-6.655,61.396],[-6.678,61.394],[-6.7,61.404],[-6.737,61.431],[-6.827,61.472],[-6.87,61.502],[-6.866,61.527],[-6.892,61.542],[-6.923,61.566],[-6.946,61.591],[-6.949,61.609],[-6.954,61.614],[-6.963,61.629],[-6.942,61.629],[-6.944,61.632],[-6.945,61.633],[-6.949,61.636],[-6.912,61.648],[-6.895,61.649],[-6.88,61.642],[-6.9,61.632],[-6.907,61.629],[-6.898,61.624],[-6.888,61.622],[-6.877,61.622],[-6.866,61.623],[-6.914,61.601],[-6.914,61.595],[-6.826,61.6],[-6.799,61.583],[-6.737,61.579],[-6.716,61.568],[-6.713,61.554],[-6.724,61.546],[-6.741,61.545],[-6.754,61.55],[-6.766,61.558],[-6.783,61.562],[-6.798,61.561],[-6.806,61.554],[-6.786,61.552],[-6.775,61.543],[-6.766,61.534],[-6.757,61.527],[-6.747,61.526],[-6.725,61.528],[-6.716,61.527],[-6.706,61.521],[-6.702,61.515],[-6.705,61.509],[-6.716,61.506],[-6.716,61.499],[-6.674,61.488],[-6.678,61.48],[-6.687,61.478],[-6.698,61.48],[-6.709,61.479],[-6.744,61.47],[-6.761,61.469],[-6.784,61.472],[-6.784,61.465],[-6.772,61.464],[-6.763,61.46],[-6.755,61.454],[-6.75,61.444],[-6.739,61.456],[-6.721,61.459],[-6.681,61.458],[-6.684,61.454],[-6.688,61.444],[-6.666,61.44],[-6.651,61.425],[-6.646,61.408],[-6.655,61.396]]],[[[-6.613,61.821],[-6.626,61.81],[-6.633,61.804],[-6.63,61.801],[-6.628,61.795],[-6.63,61.767],[-6.635,61.763],[-6.642,61.756],[-6.651,61.749],[-6.661,61.746],[-6.668,61.749],[-6.733,61.814],[-6.747,61.821],[-6.838,61.829],[-6.854,61.832],[-6.868,61.839],[-6.873,61.852],[-6.878,61.87],[-6.899,61.894],[-6.907,61.91],[-6.884,61.908],[-6.842,61.899],[-6.822,61.897],[-6.79,61.899],[-6.778,61.897],[-6.768,61.892],[-6.754,61.88],[-6.743,61.876],[-6.667,61.866],[-6.655,61.859],[-6.648,61.845],[-6.619,61.831],[-6.613,61.821]]],[[[-7.384,62.095],[-7.411,62.106],[-7.43,62.128],[-7.432,62.148],[-7.408,62.15],[-7.372,62.133],[-7.36,62.13],[-7.352,62.129],[-7.329,62.13],[-7.321,62.132],[-7.319,62.136],[-7.318,62.141],[-7.315,62.143],[-7.304,62.145],[-7.286,62.155],[-7.216,62.164],[-7.216,62.158],[-7.223,62.158],[-7.223,62.15],[-7.184,62.137],[-7.171,62.136],[-7.16,62.133],[-7.144,62.116],[-7.134,62.109],[-7.109,62.105],[-7.083,62.106],[-7.058,62.103],[-7.038,62.089],[-7.051,62.076],[-7.06,62.063],[-7.072,62.053],[-7.093,62.048],[-7.111,62.049],[-7.127,62.053],[-7.144,62.054],[-7.161,62.048],[-7.153,62.044],[-7.145,62.042],[-7.136,62.04],[-7.126,62.04],[-7.185,62.027],[-7.202,62.02],[-7.194,62.031],[-7.189,62.034],[-7.196,62.048],[-7.207,62.06],[-7.221,62.066],[-7.236,62.061],[-7.228,62.058],[-7.216,62.051],[-7.207,62.043],[-7.208,62.034],[-7.219,62.033],[-7.264,62.048],[-7.326,62.054],[-7.366,62.067],[-7.38,62.068],[-7.38,62.075],[-7.285,62.075],[-7.307,62.083],[-7.333,62.09],[-7.384,62.095]]],[[[-7.223,62.171],[-7.232,62.176],[-7.235,62.18],[-7.236,62.188],[-7.234,62.198],[-7.228,62.201],[-7.222,62.201],[-7.216,62.205],[-7.21,62.218],[-7.209,62.229],[-7.205,62.236],[-7.189,62.239],[-7.208,62.254],[-7.208,62.275],[-7.195,62.315],[-7.19,62.31],[-7.186,62.309],[-7.181,62.309],[-7.175,62.308],[-7.106,62.3],[-7.073,62.29],[-7.058,62.277],[-7.045,62.252],[-6.997,62.207],[-6.997,62.184],[-6.964,62.179],[-6.907,62.155],[-6.856,62.148],[-6.847,62.142],[-6.846,62.133],[-6.853,62.123],[-6.862,62.115],[-6.875,62.109],[-6.889,62.104],[-6.901,62.102],[-6.813,62.104],[-6.798,62.092],[-6.784,62.077],[-6.779,62.066],[-6.788,62.061],[-6.846,62.061],[-6.846,62.054],[-6.811,62.046],[-6.743,62.047],[-6.716,62.034],[-6.726,62.022],[-6.734,62.005],[-6.732,61.991],[-6.699,61.982],[-6.701,61.974],[-6.706,61.961],[-6.702,61.944],[-6.734,61.938],[-6.765,61.954],[-6.794,61.975],[-6.857,61.995],[-6.91,62.038],[-6.946,62.048],[-6.96,62.05],[-6.969,62.057],[-6.974,62.069],[-6.976,62.085],[-6.982,62.094],[-6.998,62.104],[-7.016,62.112],[-7.031,62.117],[-7.109,62.123],[-7.127,62.127],[-7.137,62.137],[-7.136,62.146],[-7.12,62.15],[-7.129,62.162],[-7.142,62.161],[-7.159,62.154],[-7.175,62.15],[-7.186,62.152],[-7.214,62.165],[-7.223,62.171]]],[[[-7.055,62.29],[-7.064,62.296],[-7.075,62.302],[-7.084,62.308],[-7.086,62.315],[-7.077,62.322],[-7.067,62.321],[-7.055,62.316],[-7.045,62.315],[-7.023,62.319],[-6.986,62.332],[-6.941,62.337],[-6.928,62.335],[-6.918,62.331],[-6.909,62.326],[-6.9,62.322],[-6.888,62.321],[-6.883,62.311],[-6.901,62.304],[-6.923,62.298],[-6.935,62.29],[-6.934,62.274],[-6.931,62.26],[-6.923,62.249],[-6.907,62.239],[-6.917,62.27],[-6.913,62.282],[-6.838,62.294],[-6.814,62.293],[-6.798,62.28],[-6.806,62.279],[-6.825,62.273],[-6.747,62.267],[-6.737,62.262],[-6.745,62.252],[-6.763,62.242],[-6.784,62.239],[-6.784,62.232],[-6.772,62.23],[-6.753,62.221],[-6.743,62.218],[-6.735,62.219],[-6.716,62.225],[-6.706,62.226],[-6.651,62.216],[-6.609,62.202],[-6.606,62.196],[-6.619,62.192],[-6.644,62.191],[-6.704,62.195],[-6.722,62.191],[-6.722,62.184],[-6.6,62.153],[-6.564,62.136],[-6.616,62.139],[-6.668,62.15],[-6.668,62.143],[-6.646,62.141],[-6.625,62.133],[-6.592,62.117],[-6.592,62.109],[-6.61,62.11],[-6.631,62.109],[-6.649,62.104],[-6.661,62.095],[-6.657,62.093],[-6.652,62.09],[-6.647,62.089],[-6.647,62.081],[-6.656,62.077],[-6.66,62.073],[-6.659,62.068],[-6.655,62.061],[-6.691,62.073],[-6.701,62.094],[-6.702,62.119],[-6.709,62.143],[-6.727,62.161],[-6.754,62.182],[-6.784,62.195],[-6.812,62.191],[-6.788,62.178],[-6.759,62.166],[-6.733,62.149],[-6.722,62.123],[-6.74,62.101],[-6.781,62.117],[-6.86,62.164],[-6.9,62.163],[-6.911,62.167],[-6.917,62.172],[-6.938,62.182],[-6.946,62.184],[-6.958,62.19],[-7.02,62.24],[-7.055,62.29]]],[[[-6.537,62.191],[-6.571,62.213],[-6.583,62.229],[-6.578,62.246],[-6.571,62.252],[-6.567,62.251],[-6.565,62.248],[-6.561,62.246],[-6.553,62.247],[-6.552,62.251],[-6.551,62.256],[-6.548,62.263],[-6.546,62.272],[-6.549,62.3],[-6.551,62.308],[-6.563,62.328],[-6.572,62.347],[-6.567,62.361],[-6.537,62.37],[-6.545,62.362],[-6.517,62.323],[-6.483,62.295],[-6.44,62.275],[-6.387,62.26],[-6.405,62.245],[-6.437,62.242],[-6.469,62.249],[-6.49,62.26],[-6.496,62.253],[-6.459,62.228],[-6.44,62.22],[-6.421,62.226],[-6.418,62.208],[-6.414,62.203],[-6.407,62.198],[-6.407,62.191],[-6.424,62.185],[-6.444,62.183],[-6.464,62.186],[-6.479,62.194],[-6.506,62.222],[-6.522,62.23],[-6.537,62.226],[-6.516,62.192],[-6.507,62.181],[-6.503,62.174],[-6.51,62.174],[-6.519,62.176],[-6.529,62.181],[-6.532,62.184],[-6.534,62.188],[-6.537,62.191]]],[[[-7.56,62.108],[-7.546,62.102],[-7.537,62.099],[-7.546,62.097],[-7.559,62.096],[-7.641,62.1],[-7.644,62.107],[-7.617,62.114],[-7.588,62.115],[-7.56,62.108]]],[[[-6.321,62.308],[-6.291,62.308],[-6.276,62.303],[-6.277,62.296],[-6.306,62.282],[-6.3,62.272],[-6.299,62.262],[-6.304,62.256],[-6.313,62.251],[-6.326,62.247],[-6.342,62.244],[-6.359,62.246],[-6.37,62.256],[-6.381,62.269],[-6.384,62.28],[-6.372,62.288],[-6.356,62.292],[-6.321,62.308]]],[[[-6.585,62.29],[-6.581,62.282],[-6.58,62.267],[-6.594,62.261],[-6.616,62.266],[-6.636,62.28],[-6.646,62.29],[-6.673,62.321],[-6.684,62.344],[-6.681,62.366],[-6.664,62.374],[-6.648,62.367],[-6.639,62.352],[-6.596,62.305],[-6.585,62.29]]],[[[-6.655,62.264],[-6.648,62.26],[-6.639,62.249],[-6.643,62.239],[-6.659,62.236],[-6.677,62.241],[-6.691,62.252],[-6.699,62.268],[-6.709,62.283],[-6.716,62.29],[-6.736,62.304],[-6.762,62.328],[-6.769,62.336],[-6.787,62.361],[-6.789,62.375],[-6.779,62.38],[-6.765,62.374],[-6.752,62.362],[-6.724,62.329],[-6.655,62.264]]],[[[-6.409,62.324],[-6.402,62.32],[-6.395,62.31],[-6.399,62.301],[-6.406,62.294],[-6.424,62.29],[-6.456,62.296],[-6.485,62.31],[-6.509,62.33],[-6.524,62.347],[-6.533,62.372],[-6.546,62.378],[-6.556,62.391],[-6.543,62.399],[-6.519,62.395],[-6.505,62.388],[-6.495,62.375],[-6.487,62.36],[-6.475,62.349],[-6.46,62.34],[-6.455,62.331],[-6.455,62.324],[-6.449,62.318],[-6.438,62.319],[-6.427,62.326],[-6.416,62.326],[-6.409,62.324]]]]}}]}
