{"type":"FeatureCollection","features":[{"type":"Feature","id":"GA-1","properties":{"id":"GA-1","countryCode":"GA","isoSubdivision":"GA-1","name":"Estuaire","name_en":"Estuaire","name_ko":"에스튀에르","type":"Province","labelLongitude":10.137,"labelLatitude":0.322,"minZoom":7.7},"geometry":{"type":"Polygon","coordinates":[[[10.029,1.004],[10.139,1.003],[10.415,1.002],[10.41,0.86],[10.394,0.81],[10.383,0.79],[10.368,0.751],[10.364,0.732],[10.366,0.718],[10.381,0.697],[10.386,0.687],[10.391,0.678],[10.399,0.649],[10.404,0.64],[10.412,0.638],[10.427,0.641],[10.948,0.821],[10.957,0.821],[10.961,0.818],[10.971,0.779],[10.974,0.757],[10.972,0.688],[10.97,0.675],[10.96,0.647],[10.955,0.624],[10.953,0.617],[10.951,0.613],[10.935,0.601],[10.931,0.595],[10.929,0.593],[10.928,0.59],[10.917,0.55],[10.913,0.542],[10.906,0.53],[10.901,0.524],[10.898,0.518],[10.896,0.514],[10.892,0.502],[10.891,0.498],[10.879,0.478],[10.875,0.468],[10.854,0.395],[10.851,0.368],[10.849,0.36],[10.848,0.356],[10.845,0.351],[10.841,0.348],[10.836,0.344],[10.834,0.338],[10.832,0.328],[10.839,0.295],[10.84,0.283],[10.839,0.278],[10.838,0.273],[10.833,0.261],[10.825,0.252],[10.822,0.249],[10.82,0.246],[10.813,0.237],[10.807,0.232],[10.788,0.235],[10.784,0.235],[10.78,0.234],[10.75,0.22],[10.735,0.217],[10.729,0.217],[10.689,0.212],[10.674,0.213],[10.669,0.21],[10.666,0.207],[10.665,0.197],[10.665,0.183],[10.663,0.176],[10.66,0.17],[10.656,0.165],[10.639,0.15],[10.636,0.147],[10.633,0.14],[10.632,0.138],[10.631,0.135],[10.632,0.126],[10.632,0.122],[10.635,0.115],[10.643,0.097],[10.644,0.088],[10.639,0.079],[10.612,0.065],[10.604,0.059],[10.593,0.046],[10.572,0.025],[10.556,0.015],[10.544,0.002],[10.544,-0.001],[10.548,-0.011],[10.552,-0.031],[10.553,-0.041],[10.552,-0.045],[10.548,-0.049],[10.544,-0.051],[10.535,-0.053],[10.529,-0.057],[10.526,-0.062],[10.526,-0.067],[10.526,-0.072],[10.521,-0.077],[10.4,-0.172],[10.388,-0.18],[10.37,-0.187],[10.298,-0.23],[10.287,-0.24],[10.253,-0.281],[10.231,-0.3],[10.11,-0.376],[10.019,-0.414],[10.001,-0.415],[9.996,-0.409],[9.994,-0.4],[9.992,-0.381],[9.988,-0.371],[9.982,-0.341],[9.977,-0.332],[9.97,-0.323],[9.961,-0.318],[9.952,-0.315],[9.933,-0.313],[9.923,-0.31],[9.913,-0.305],[9.903,-0.302],[9.893,-0.304],[9.883,-0.314],[9.875,-0.324],[9.862,-0.337],[9.845,-0.349],[9.815,-0.366],[9.798,-0.368],[9.786,-0.365],[9.766,-0.347],[9.757,-0.346],[9.739,-0.356],[9.715,-0.369],[9.705,-0.37],[9.675,-0.372],[9.665,-0.374],[9.624,-0.39],[9.585,-0.409],[9.575,-0.412],[9.567,-0.417],[9.562,-0.425],[9.576,-0.554],[9.57,-0.578],[9.524,-0.522],[9.492,-0.5],[9.459,-0.484],[9.449,-0.482],[9.43,-0.48],[9.417,-0.472],[9.403,-0.458],[9.351,-0.388],[9.342,-0.369],[9.32,-0.285],[9.306,-0.272],[9.306,-0.203],[9.313,-0.182],[9.336,-0.137],[9.341,-0.117],[9.342,-0.106],[9.346,-0.085],[9.347,-0.073],[9.344,-0.063],[9.333,-0.038],[9.334,-0.025],[9.337,-0.013],[9.343,-0.003],[9.35,0.007],[9.355,0.016],[9.354,0.025],[9.349,0.033],[9.347,0.041],[9.345,0.062],[9.31,0.251],[9.299,0.284],[9.302,0.293],[9.307,0.319],[9.309,0.325],[9.313,0.327],[9.345,0.356],[9.356,0.359],[9.366,0.352],[9.375,0.332],[9.379,0.308],[9.377,0.287],[9.367,0.25],[9.369,0.238],[9.373,0.227],[9.374,0.219],[9.364,0.216],[9.358,0.212],[9.356,0.202],[9.357,0.19],[9.36,0.181],[9.369,0.189],[9.374,0.198],[9.38,0.205],[9.392,0.208],[9.424,0.208],[9.429,0.205],[9.435,0.192],[9.461,0.166],[9.47,0.147],[9.473,0.109],[9.48,0.104],[9.488,0.098],[9.495,0.098],[9.498,0.109],[9.493,0.152],[9.494,0.17],[9.504,0.188],[9.554,0.174],[9.566,0.167],[9.572,0.156],[9.58,0.122],[9.587,0.112],[9.591,0.119],[9.619,0.147],[9.628,0.154],[9.644,0.153],[9.652,0.147],[9.663,0.127],[9.712,0.135],[9.749,0.098],[9.78,0.049],[9.812,0.024],[9.776,0.09],[9.761,0.109],[9.759,0.126],[9.778,0.134],[9.804,0.133],[9.82,0.119],[9.832,0.127],[9.85,0.151],[9.861,0.161],[9.896,0.183],[9.909,0.188],[9.925,0.188],[9.954,0.177],[9.97,0.174],[9.985,0.175],[10.026,0.188],[10.026,0.195],[9.975,0.194],[9.956,0.2],[9.936,0.216],[9.921,0.206],[9.902,0.197],[9.883,0.19],[9.805,0.186],[9.792,0.181],[9.747,0.196],[9.735,0.205],[9.72,0.219],[9.711,0.223],[9.68,0.222],[9.669,0.227],[9.621,0.263],[9.586,0.284],[9.572,0.298],[9.566,0.318],[9.56,0.318],[9.554,0.306],[9.548,0.303],[9.536,0.305],[9.528,0.302],[9.505,0.292],[9.498,0.291],[9.49,0.302],[9.484,0.338],[9.473,0.346],[9.459,0.36],[9.411,0.47],[9.399,0.489],[9.371,0.52],[9.352,0.529],[9.335,0.528],[9.319,0.529],[9.306,0.544],[9.305,0.559],[9.309,0.614],[9.316,0.626],[9.338,0.628],[9.36,0.633],[9.371,0.638],[9.392,0.649],[9.402,0.654],[9.415,0.655],[9.424,0.653],[9.433,0.649],[9.447,0.647],[9.455,0.649],[9.468,0.659],[9.487,0.666],[9.502,0.676],[9.52,0.684],[9.539,0.681],[9.555,0.665],[9.563,0.642],[9.559,0.622],[9.542,0.612],[9.499,0.622],[9.478,0.619],[9.464,0.599],[9.487,0.606],[9.516,0.604],[9.54,0.591],[9.546,0.565],[9.558,0.569],[9.567,0.576],[9.572,0.586],[9.573,0.599],[9.585,0.583],[9.587,0.554],[9.582,0.525],[9.573,0.51],[9.583,0.482],[9.591,0.473],[9.608,0.469],[9.604,0.485],[9.604,0.505],[9.609,0.523],[9.618,0.531],[9.624,0.539],[9.634,0.583],[9.642,0.599],[9.628,0.619],[9.625,0.639],[9.628,0.688],[9.618,0.807],[9.583,0.901],[9.58,0.925],[9.576,0.941],[9.567,0.951],[9.562,0.963],[9.566,0.983],[9.579,1.004],[9.592,1.014],[9.607,1.017],[9.625,1.017],[9.642,1.022],[9.652,1.034],[9.659,1.048],[9.669,1.058],[9.687,1.061],[9.745,1.06],[9.761,1.055],[9.775,1.033],[9.783,0.99],[9.792,0.969],[9.8,0.986],[9.804,0.998],[9.834,0.995],[9.85,0.989],[9.866,0.978],[9.892,0.948],[9.909,0.935],[9.926,0.928],[9.944,0.925],[9.96,0.928],[9.972,0.94],[9.975,0.953],[9.975,0.983],[9.981,0.997],[10,1],[10.029,1.004]]]}},{"type":"Feature","id":"GA-2","properties":{"id":"GA-2","countryCode":"GA","isoSubdivision":"GA-2","name":"Haut-Ogooué","name_en":"Haut-Ogooué","name_ko":"오트오고웨","type":"Province","labelLongitude":13.62,"labelLatitude":-1.132,"minZoom":7.7},"geometry":{"type":"Polygon","coordinates":[[[13.888,-0.092],[13.843,-0.152],[13.832,-0.177],[13.831,-0.205],[13.877,-0.26],[13.883,-0.265],[13.89,-0.264],[13.903,-0.259],[13.907,-0.254],[13.91,-0.247],[13.914,-0.241],[13.922,-0.238],[13.957,-0.242],[13.967,-0.246],[13.975,-0.253],[13.982,-0.262],[14.019,-0.253],[14.059,-0.259],[14.095,-0.277],[14.121,-0.302],[14.138,-0.336],[14.151,-0.376],[14.158,-0.418],[14.16,-0.455],[14.177,-0.446],[14.193,-0.44],[14.21,-0.44],[14.229,-0.448],[14.245,-0.452],[14.26,-0.446],[14.276,-0.439],[14.293,-0.436],[14.321,-0.444],[14.359,-0.461],[14.392,-0.482],[14.414,-0.512],[14.454,-0.54],[14.467,-0.553],[14.49,-0.601],[14.499,-0.631],[14.492,-0.663],[14.452,-0.751],[14.446,-0.776],[14.446,-0.8],[14.453,-0.826],[14.457,-0.856],[14.446,-0.878],[14.428,-0.897],[14.413,-0.922],[14.408,-0.944],[14.403,-0.988],[14.392,-1.009],[14.392,-1.023],[14.42,-1.102],[14.431,-1.123],[14.434,-1.135],[14.434,-1.144],[14.428,-1.161],[14.428,-1.169],[14.435,-1.182],[14.439,-1.186],[14.456,-1.202],[14.464,-1.215],[14.466,-1.224],[14.465,-1.256],[14.461,-1.278],[14.457,-1.288],[14.452,-1.298],[14.444,-1.306],[14.436,-1.313],[14.429,-1.32],[14.426,-1.331],[14.432,-1.35],[14.447,-1.365],[14.482,-1.389],[14.488,-1.409],[14.481,-1.421],[14.468,-1.429],[14.456,-1.44],[14.453,-1.45],[14.451,-1.474],[14.438,-1.503],[14.452,-1.516],[14.463,-1.534],[14.463,-1.549],[14.43,-1.555],[14.424,-1.564],[14.42,-1.575],[14.413,-1.585],[14.404,-1.592],[14.394,-1.597],[14.374,-1.604],[14.365,-1.612],[14.371,-1.619],[14.391,-1.63],[14.403,-1.671],[14.42,-1.676],[14.441,-1.68],[14.449,-1.686],[14.425,-1.701],[14.413,-1.714],[14.407,-1.736],[14.404,-1.815],[14.397,-1.841],[14.397,-1.849],[14.405,-1.893],[14.397,-1.907],[14.371,-1.921],[14.369,-1.922],[14.252,-1.968],[14.245,-1.975],[14.24,-1.982],[14.238,-1.991],[14.238,-2.003],[14.233,-2.012],[14.233,-2.018],[14.239,-2.023],[14.247,-2.029],[14.252,-2.038],[14.251,-2.048],[14.244,-2.068],[14.238,-2.12],[14.234,-2.134],[14.227,-2.141],[14.21,-2.147],[14.204,-2.152],[14.203,-2.162],[14.209,-2.18],[14.209,-2.187],[14.196,-2.202],[14.162,-2.214],[14.148,-2.225],[14.151,-2.259],[14.227,-2.323],[14.234,-2.355],[14.23,-2.352],[14.182,-2.363],[14.172,-2.368],[14.163,-2.374],[14.144,-2.39],[14.136,-2.399],[14.131,-2.409],[14.132,-2.435],[14.125,-2.444],[14.115,-2.451],[14.107,-2.46],[14.101,-2.478],[14.096,-2.491],[14.09,-2.499],[14.081,-2.5],[14.071,-2.496],[14.056,-2.487],[14.046,-2.486],[14.039,-2.487],[13.993,-2.502],[13.986,-2.501],[13.979,-2.496],[13.976,-2.477],[13.967,-2.471],[13.957,-2.471],[13.948,-2.475],[13.93,-2.485],[13.909,-2.49],[13.885,-2.488],[13.862,-2.481],[13.846,-2.467],[13.847,-2.462],[13.848,-2.423],[13.855,-2.414],[13.876,-2.404],[13.89,-2.374],[13.902,-2.366],[13.906,-2.36],[13.893,-2.341],[13.882,-2.334],[13.872,-2.329],[13.864,-2.321],[13.861,-2.294],[13.854,-2.284],[13.836,-2.265],[13.823,-2.247],[13.801,-2.2],[13.791,-2.159],[13.783,-2.138],[13.771,-2.119],[13.757,-2.106],[13.746,-2.098],[13.743,-2.097],[13.741,-2.102],[13.72,-2.134],[13.709,-2.154],[13.707,-2.165],[13.705,-2.184],[13.702,-2.195],[13.694,-2.206],[13.617,-2.28],[13.611,-2.29],[13.608,-2.311],[13.603,-2.32],[13.593,-2.327],[13.569,-2.334],[13.558,-2.34],[13.548,-2.349],[13.533,-2.368],[13.525,-2.376],[13.492,-2.398],[13.482,-2.408],[13.477,-2.418],[13.474,-2.427],[13.469,-2.435],[13.459,-2.441],[13.454,-2.439],[13.445,-2.427],[13.439,-2.425],[13.425,-2.43],[13.42,-2.43],[13.398,-2.426],[13.379,-2.431],[13.361,-2.429],[13.187,-2.364],[13.177,-2.362],[13.165,-2.364],[13.146,-2.375],[13.135,-2.377],[13.114,-2.372],[13.05,-2.343],[13.025,-2.338],[13.012,-2.342],[12.994,-2.36],[12.982,-2.372],[12.969,-2.372],[12.966,-2.366],[12.971,-2.357],[12.982,-2.348],[12.987,-2.341],[12.991,-2.332],[12.994,-2.324],[12.995,-2.315],[12.997,-2.305],[13.002,-2.297],[13.011,-2.288],[13.008,-2.277],[13.003,-2.275],[12.997,-2.276],[12.99,-2.268],[12.988,-2.26],[12.982,-2.233],[12.973,-2.222],[12.954,-2.191],[12.946,-2.182],[12.921,-2.195],[12.907,-2.195],[12.903,-2.178],[12.902,-2.167],[12.898,-2.16],[12.885,-2.147],[12.883,-2.141],[12.884,-2.134],[12.889,-2.127],[12.891,-2.122],[12.894,-2.116],[12.895,-2.11],[12.876,-2.105],[12.874,-2.1],[12.875,-2.094],[12.875,-2.089],[12.877,-2.089],[12.873,-2.066],[12.869,-2.06],[12.853,-2.045],[12.847,-2.037],[12.838,-2.016],[12.816,-1.943],[12.805,-1.919],[12.788,-1.908],[12.745,-1.894],[12.741,-1.891],[12.743,-1.884],[12.757,-1.847],[12.764,-1.82],[12.778,-1.789],[12.778,-1.779],[12.774,-1.76],[12.776,-1.75],[12.85,-1.597],[12.868,-1.575],[12.873,-1.566],[12.877,-1.557],[12.885,-1.546],[12.891,-1.534],[12.895,-1.523],[12.898,-1.494],[12.901,-1.484],[12.91,-1.471],[12.919,-1.461],[12.928,-1.454],[12.937,-1.446],[12.944,-1.435],[12.949,-1.418],[12.96,-1.409],[12.989,-1.393],[12.997,-1.392],[13.002,-1.392],[13.01,-1.394],[13.019,-1.393],[13.028,-1.39],[13.038,-1.384],[13.048,-1.376],[13.057,-1.366],[13.071,-1.347],[13.079,-1.339],[13.088,-1.334],[13.106,-1.327],[13.112,-1.32],[13.129,-1.29],[13.139,-1.281],[13.15,-1.275],[13.159,-1.271],[13.167,-1.259],[13.171,-1.239],[13.172,-1.198],[13.168,-1.16],[13.158,-1.123],[13.158,-1.116],[13.167,-1.109],[13.24,-1.145],[13.257,-1.159],[13.265,-1.157],[13.271,-1.151],[13.433,-0.954],[13.557,-0.77],[13.559,-0.753],[13.552,-0.729],[13.303,-0.24],[13.293,-0.231],[13.284,-0.227],[13.274,-0.225],[13.264,-0.221],[13.256,-0.214],[13.251,-0.201],[13.249,-0.19],[13.247,-0.169],[13.238,-0.128],[13.233,-0.12],[13.226,-0.113],[13.223,-0.106],[13.229,-0.095],[13.253,-0.06],[13.279,-0.01],[13.281,0.041],[13.469,0.033],[13.508,0.035],[13.523,0.034],[13.723,-0.009],[13.743,-0.018],[13.765,-0.031],[13.814,-0.066],[13.888,-0.092]]]}},{"type":"Feature","id":"GA-3","properties":{"id":"GA-3","countryCode":"GA","isoSubdivision":"GA-3","name":"Moyen-Ogooué","name_en":"Moyen-Ogooué","name_ko":"무아얭오고웨","type":"Province","labelLongitude":10.572,"labelLatitude":-0.374,"minZoom":7.7},"geometry":{"type":"Polygon","coordinates":[[[11.583,0.23],[11.578,0.198],[11.58,0.184],[11.576,0.17],[11.57,0.16],[11.551,0.144],[11.539,0.136],[11.525,0.124],[11.514,0.119],[11.497,0.116],[11.356,0.043],[11.342,0.03],[11.316,0.011],[11.308,0.001],[11.299,-0.03],[11.283,-0.061],[11.28,-0.071],[11.28,-0.08],[11.284,-0.089],[11.287,-0.093],[11.293,-0.098],[11.301,-0.101],[11.311,-0.102],[11.319,-0.105],[11.326,-0.112],[11.329,-0.119],[11.338,-0.153],[11.342,-0.198],[11.338,-0.226],[11.338,-0.25],[11.34,-0.26],[11.343,-0.27],[11.348,-0.28],[11.4,-0.357],[11.406,-0.368],[11.408,-0.381],[11.41,-0.397],[11.408,-0.422],[11.411,-0.437],[11.426,-0.489],[11.432,-0.5],[11.44,-0.509],[11.478,-0.54],[11.486,-0.55],[11.498,-0.567],[11.513,-0.6],[11.529,-0.681],[11.532,-0.69],[11.563,-0.753],[11.476,-0.75],[11.443,-0.745],[11.384,-0.724],[11.326,-0.697],[11.173,-0.578],[11.159,-0.575],[11.147,-0.576],[11.107,-0.585],[10.928,-0.595],[10.908,-0.6],[10.897,-0.605],[10.888,-0.611],[10.875,-0.628],[10.867,-0.633],[10.857,-0.63],[10.836,-0.615],[10.826,-0.615],[10.817,-0.621],[10.805,-0.638],[10.795,-0.645],[10.782,-0.649],[10.771,-0.647],[10.762,-0.639],[10.757,-0.63],[10.749,-0.62],[10.738,-0.616],[10.723,-0.614],[10.712,-0.615],[10.702,-0.62],[10.695,-0.626],[10.684,-0.631],[10.66,-0.625],[10.655,-0.63],[10.656,-0.638],[10.668,-0.657],[10.671,-0.666],[10.668,-0.675],[10.661,-0.681],[10.652,-0.688],[10.644,-0.697],[10.615,-0.74],[10.606,-0.75],[10.594,-0.76],[10.544,-0.79],[10.534,-0.799],[10.528,-0.808],[10.519,-0.839],[10.515,-0.859],[10.515,-0.869],[10.518,-0.888],[10.515,-0.898],[10.475,-0.967],[10.47,-0.972],[10.462,-0.977],[10.425,-0.995],[10.42,-0.999],[10.419,-1.002],[10.419,-1.007],[10.423,-1.014],[10.428,-1.021],[10.431,-1.031],[10.429,-1.041],[10.424,-1.051],[10.41,-1.069],[10.402,-1.078],[10.396,-1.087],[10.394,-1.096],[10.393,-1.106],[10.391,-1.115],[10.386,-1.122],[10.375,-1.127],[10.371,-1.135],[10.368,-1.144],[10.365,-1.153],[10.357,-1.161],[10.346,-1.151],[10.335,-1.144],[10.276,-1.143],[10.252,-1.138],[10.236,-1.137],[10.211,-1.138],[10.196,-1.143],[10.182,-1.148],[10.152,-1.167],[10.066,-1.255],[10.05,-1.248],[10.004,-1.24],[9.998,-1.238],[9.99,-1.235],[9.981,-1.229],[9.919,-1.173],[9.91,-1.162],[9.909,-1.153],[9.911,-1.143],[9.937,-1.094],[9.944,-1.074],[9.946,-1.063],[9.946,-1.053],[9.945,-1.043],[9.928,-1.004],[9.927,-0.998],[9.927,-0.991],[9.935,-0.974],[9.936,-0.964],[9.932,-0.952],[9.923,-0.939],[9.889,-0.911],[9.876,-0.904],[9.866,-0.902],[9.847,-0.903],[9.809,-0.901],[9.801,-0.899],[9.795,-0.899],[9.768,-0.901],[9.758,-0.901],[9.748,-0.897],[9.74,-0.89],[9.735,-0.879],[9.724,-0.869],[9.72,-0.867],[9.711,-0.859],[9.698,-0.851],[9.677,-0.842],[9.636,-0.787],[9.57,-0.578],[9.576,-0.554],[9.562,-0.425],[9.567,-0.417],[9.575,-0.412],[9.585,-0.409],[9.624,-0.39],[9.665,-0.374],[9.675,-0.372],[9.705,-0.37],[9.715,-0.369],[9.739,-0.356],[9.757,-0.346],[9.766,-0.347],[9.786,-0.365],[9.798,-0.368],[9.815,-0.366],[9.845,-0.349],[9.862,-0.337],[9.875,-0.324],[9.883,-0.314],[9.893,-0.304],[9.903,-0.302],[9.913,-0.305],[9.923,-0.31],[9.933,-0.313],[9.952,-0.315],[9.961,-0.318],[9.97,-0.323],[9.977,-0.332],[9.982,-0.341],[9.988,-0.371],[9.992,-0.381],[9.994,-0.4],[9.996,-0.409],[10.001,-0.415],[10.019,-0.414],[10.11,-0.376],[10.231,-0.3],[10.253,-0.281],[10.287,-0.24],[10.298,-0.23],[10.37,-0.187],[10.388,-0.18],[10.4,-0.172],[10.521,-0.077],[10.526,-0.072],[10.526,-0.067],[10.526,-0.062],[10.529,-0.057],[10.535,-0.053],[10.544,-0.051],[10.548,-0.049],[10.552,-0.045],[10.553,-0.041],[10.552,-0.031],[10.548,-0.011],[10.544,-0.001],[10.544,0.002],[10.556,0.015],[10.572,0.025],[10.593,0.046],[10.604,0.059],[10.612,0.065],[10.639,0.079],[10.644,0.088],[10.643,0.097],[10.635,0.115],[10.632,0.122],[10.632,0.126],[10.631,0.135],[10.632,0.138],[10.633,0.14],[10.636,0.147],[10.639,0.15],[10.656,0.165],[10.66,0.17],[10.663,0.176],[10.665,0.183],[10.665,0.197],[10.666,0.207],[10.669,0.21],[10.674,0.213],[10.689,0.212],[10.729,0.217],[10.735,0.217],[10.75,0.22],[10.78,0.234],[10.784,0.235],[10.788,0.235],[10.807,0.232],[11.583,0.23]]]}},{"type":"Feature","id":"GA-4","properties":{"id":"GA-4","countryCode":"GA","isoSubdivision":"GA-4","name":"Ngounié","name_en":"Ngounié","name_ko":"응구니에","type":"Province","labelLongitude":11.186,"labelLatitude":-1.486,"minZoom":7.7},"geometry":{"type":"Polygon","coordinates":[[[12.45,-1.899],[12.438,-1.887],[12.427,-1.884],[12.423,-1.898],[12.431,-2.005],[12.44,-2.046],[12.461,-2.078],[12.5,-2.096],[12.495,-2.113],[12.477,-2.141],[12.47,-2.156],[12.468,-2.171],[12.475,-2.212],[12.469,-2.241],[12.455,-2.276],[12.448,-2.308],[12.459,-2.33],[12.062,-2.415],[12.031,-2.412],[12.001,-2.391],[11.967,-2.349],[11.949,-2.335],[11.938,-2.329],[11.907,-2.345],[11.865,-2.358],[11.829,-2.365],[11.807,-2.374],[11.773,-2.405],[11.756,-2.415],[11.74,-2.414],[11.721,-2.404],[11.688,-2.378],[11.68,-2.369],[11.676,-2.36],[11.67,-2.353],[11.656,-2.346],[11.605,-2.33],[11.568,-2.329],[11.566,-2.33],[11.558,-2.349],[11.58,-2.408],[11.583,-2.43],[11.576,-2.485],[11.577,-2.503],[11.584,-2.524],[11.61,-2.564],[11.619,-2.586],[11.624,-2.612],[11.624,-2.633],[11.62,-2.654],[11.61,-2.679],[11.537,-2.798],[11.536,-2.805],[11.535,-2.805],[11.465,-2.714],[11.385,-2.632],[11.306,-2.568],[11.248,-2.503],[11.229,-2.486],[11.225,-2.477],[11.206,-2.408],[11.201,-2.398],[11.193,-2.388],[11.11,-2.338],[11.102,-2.33],[11.097,-2.321],[11.094,-2.311],[11.092,-2.301],[11.089,-2.291],[11.083,-2.281],[11.076,-2.272],[11.066,-2.264],[11.054,-2.258],[11.04,-2.254],[10.607,-2.31],[10.567,-2.246],[10.552,-2.229],[10.548,-2.226],[10.544,-2.223],[10.54,-2.219],[10.513,-2.179],[10.507,-2.164],[10.488,-2.096],[10.486,-2.091],[10.482,-2.087],[10.464,-2.074],[10.456,-2.064],[10.45,-2.053],[10.447,-2.039],[10.447,-2.028],[10.448,-2.017],[10.461,-1.984],[10.462,-1.974],[10.459,-1.964],[10.449,-1.957],[10.429,-1.95],[10.408,-1.933],[10.366,-1.91],[10.356,-1.91],[10.347,-1.915],[10.338,-1.922],[10.328,-1.927],[10.318,-1.929],[10.307,-1.929],[10.237,-1.912],[10.217,-1.912],[10.206,-1.907],[10.195,-1.897],[10.185,-1.891],[10.162,-1.876],[10.13,-1.867],[10.098,-1.85],[10.049,-1.833],[10.028,-1.83],[9.995,-1.83],[9.986,-1.829],[9.977,-1.825],[9.968,-1.818],[9.959,-1.809],[9.925,-1.768],[9.92,-1.758],[9.908,-1.727],[9.902,-1.717],[9.888,-1.698],[9.874,-1.683],[9.872,-1.674],[9.882,-1.665],[9.89,-1.658],[9.896,-1.649],[9.897,-1.639],[9.899,-1.628],[9.909,-1.616],[9.918,-1.61],[9.929,-1.607],[9.938,-1.607],[9.947,-1.606],[9.956,-1.601],[9.965,-1.588],[9.973,-1.568],[9.979,-1.536],[9.981,-1.519],[9.98,-1.505],[9.969,-1.453],[9.967,-1.433],[9.967,-1.414],[9.971,-1.403],[9.977,-1.392],[10.047,-1.324],[10.061,-1.296],[10.066,-1.255],[10.152,-1.167],[10.182,-1.148],[10.196,-1.143],[10.211,-1.138],[10.236,-1.137],[10.252,-1.138],[10.276,-1.143],[10.335,-1.144],[10.346,-1.151],[10.357,-1.161],[10.365,-1.153],[10.368,-1.144],[10.371,-1.135],[10.375,-1.127],[10.386,-1.122],[10.391,-1.115],[10.393,-1.106],[10.394,-1.096],[10.396,-1.087],[10.402,-1.078],[10.41,-1.069],[10.424,-1.051],[10.429,-1.041],[10.431,-1.031],[10.428,-1.021],[10.423,-1.014],[10.419,-1.007],[10.419,-1.002],[10.42,-0.999],[10.425,-0.995],[10.462,-0.977],[10.47,-0.972],[10.475,-0.967],[10.515,-0.898],[10.518,-0.888],[10.515,-0.869],[10.515,-0.859],[10.519,-0.839],[10.528,-0.808],[10.534,-0.799],[10.544,-0.79],[10.594,-0.76],[10.606,-0.75],[10.615,-0.74],[10.644,-0.697],[10.652,-0.688],[10.661,-0.681],[10.668,-0.675],[10.671,-0.666],[10.668,-0.657],[10.656,-0.638],[10.655,-0.63],[10.66,-0.625],[10.684,-0.631],[10.695,-0.626],[10.702,-0.62],[10.712,-0.615],[10.723,-0.614],[10.738,-0.616],[10.749,-0.62],[10.757,-0.63],[10.762,-0.639],[10.771,-0.647],[10.782,-0.649],[10.795,-0.645],[10.805,-0.638],[10.817,-0.621],[10.826,-0.615],[10.836,-0.615],[10.857,-0.63],[10.867,-0.633],[10.875,-0.628],[10.888,-0.611],[10.897,-0.605],[10.908,-0.6],[10.928,-0.595],[11.107,-0.585],[11.147,-0.576],[11.159,-0.575],[11.173,-0.578],[11.326,-0.697],[11.384,-0.724],[11.443,-0.745],[11.476,-0.75],[11.563,-0.753],[11.544,-0.783],[11.517,-0.814],[11.509,-0.827],[11.504,-0.839],[11.498,-0.896],[11.498,-0.906],[11.502,-0.923],[11.505,-0.948],[11.507,-0.959],[11.511,-0.968],[11.517,-0.978],[11.536,-0.998],[11.538,-1.002],[11.541,-1.007],[11.547,-1.027],[11.55,-1.04],[11.552,-1.06],[11.55,-1.076],[11.547,-1.095],[11.549,-1.113],[11.556,-1.122],[11.566,-1.126],[11.586,-1.131],[11.596,-1.131],[11.606,-1.128],[11.626,-1.119],[11.656,-1.113],[11.725,-1.069],[11.735,-1.065],[11.745,-1.063],[11.755,-1.064],[11.757,-1.067],[11.758,-1.072],[11.756,-1.081],[11.755,-1.097],[11.758,-1.118],[11.767,-1.149],[11.772,-1.159],[11.808,-1.209],[11.824,-1.226],[11.873,-1.26],[11.909,-1.295],[11.917,-1.3],[11.955,-1.318],[11.964,-1.323],[11.985,-1.343],[12.02,-1.387],[12.026,-1.398],[12.027,-1.403],[12.027,-1.423],[12.029,-1.434],[12.043,-1.481],[12.047,-1.518],[12.045,-1.542],[12.042,-1.551],[12.041,-1.553],[12.036,-1.562],[12.03,-1.569],[12.023,-1.576],[12.02,-1.58],[12.017,-1.584],[12.016,-1.589],[12.016,-1.599],[12.019,-1.611],[12.028,-1.633],[12.038,-1.642],[12.049,-1.648],[12.059,-1.651],[12.068,-1.658],[12.134,-1.748],[12.147,-1.763],[12.209,-1.815],[12.219,-1.82],[12.342,-1.863],[12.352,-1.863],[12.422,-1.857],[12.433,-1.857],[12.442,-1.86],[12.449,-1.863],[12.454,-1.878],[12.45,-1.899]]]}},{"type":"Feature","id":"GA-5","properties":{"id":"GA-5","countryCode":"GA","isoSubdivision":"GA-5","name":"Nyanga","name_en":"Nyanga","name_ko":"냥가","type":"Province","labelLongitude":10.977,"labelLatitude":-2.977,"minZoom":7.7},"geometry":{"type":"Polygon","coordinates":[[[11.536,-2.805],[11.526,-2.843],[11.531,-2.867],[11.548,-2.864],[11.588,-2.835],[11.617,-2.827],[11.637,-2.833],[11.653,-2.852],[11.688,-2.902],[11.764,-2.983],[11.778,-3.006],[11.778,-3.027],[11.754,-3.042],[11.731,-3.045],[11.717,-3.044],[11.706,-3.05],[11.693,-3.075],[11.688,-3.092],[11.687,-3.162],[11.686,-3.167],[11.688,-3.171],[11.696,-3.18],[11.704,-3.185],[11.761,-3.209],[11.782,-3.222],[11.822,-3.255],[11.858,-3.272],[11.906,-3.285],[11.944,-3.303],[11.955,-3.335],[11.941,-3.357],[11.898,-3.389],[11.885,-3.413],[11.828,-3.548],[11.825,-3.571],[11.835,-3.592],[11.856,-3.604],[11.879,-3.612],[11.898,-3.622],[11.906,-3.644],[11.898,-3.666],[11.88,-3.687],[11.858,-3.703],[11.841,-3.71],[11.838,-3.711],[11.82,-3.71],[11.762,-3.694],[11.742,-3.692],[11.688,-3.699],[11.666,-3.691],[11.649,-3.673],[11.57,-3.545],[11.533,-3.517],[11.483,-3.509],[11.455,-3.528],[11.436,-3.559],[11.414,-3.588],[11.376,-3.6],[11.335,-3.609],[11.302,-3.628],[11.273,-3.653],[11.239,-3.675],[11.213,-3.697],[11.196,-3.729],[11.13,-3.908],[11.114,-3.937],[11.095,-3.924],[11.07,-3.909],[11.021,-3.858],[11.006,-3.793],[10.996,-3.775],[10.99,-3.757],[10.986,-3.738],[10.985,-3.715],[10.964,-3.691],[10.93,-3.667],[10.808,-3.563],[10.646,-3.452],[10.638,-3.407],[10.639,-3.392],[10.645,-3.374],[10.649,-3.352],[10.645,-3.332],[10.635,-3.314],[10.621,-3.302],[10.599,-3.289],[10.57,-3.267],[10.553,-3.259],[10.549,-3.239],[10.512,-3.197],[10.498,-3.182],[10.48,-3.162],[10.453,-3.133],[10.347,-3.044],[10.219,-2.945],[10.168,-2.903],[10.039,-2.809],[9.979,-2.758],[9.962,-2.745],[9.999,-2.735],[10,-2.735],[10.296,-2.649],[10.316,-2.649],[10.326,-2.645],[10.335,-2.63],[10.339,-2.618],[10.348,-2.576],[10.351,-2.565],[10.358,-2.554],[10.368,-2.544],[10.386,-2.533],[10.399,-2.528],[10.41,-2.525],[10.416,-2.521],[10.417,-2.513],[10.415,-2.506],[10.401,-2.484],[10.398,-2.474],[10.401,-2.463],[10.407,-2.451],[10.42,-2.435],[10.43,-2.41],[10.464,-2.381],[10.607,-2.31],[11.04,-2.254],[11.054,-2.258],[11.066,-2.264],[11.076,-2.272],[11.083,-2.281],[11.089,-2.291],[11.092,-2.301],[11.094,-2.311],[11.097,-2.321],[11.102,-2.33],[11.11,-2.338],[11.193,-2.388],[11.201,-2.398],[11.206,-2.408],[11.225,-2.477],[11.229,-2.486],[11.248,-2.503],[11.306,-2.568],[11.385,-2.632],[11.465,-2.714],[11.535,-2.805],[11.536,-2.805]]]}},{"type":"Feature","id":"GA-6","properties":{"id":"GA-6","countryCode":"GA","isoSubdivision":"GA-6","name":"Ogooué-Ivindo","name_en":"Ogooué-Ivindo","name_ko":"오고웨이빈도","type":"Province","labelLongitude":12.874,"labelLatitude":0.723,"minZoom":7.7},"geometry":{"type":"Polygon","coordinates":[[[13.185,1.223],[13.195,1.221],[13.216,1.224],[13.25,1.222],[13.271,1.226],[13.289,1.234],[13.308,1.257],[13.326,1.259],[13.343,1.264],[13.349,1.282],[13.357,1.289],[13.377,1.294],[13.399,1.297],[13.414,1.296],[13.449,1.283],[13.48,1.277],[13.51,1.277],[13.543,1.283],[13.556,1.293],[13.579,1.323],[13.615,1.337],[13.628,1.348],[13.642,1.357],[13.662,1.359],[13.671,1.359],[13.681,1.359],[13.699,1.363],[13.706,1.366],[13.718,1.375],[13.724,1.378],[13.729,1.377],[13.741,1.371],[13.744,1.37],[13.755,1.374],[13.758,1.377],[13.77,1.4],[13.78,1.426],[13.781,1.431],[13.795,1.434],[13.984,1.417],[14.001,1.413],[14.019,1.402],[14.034,1.388],[14.05,1.376],[14.071,1.375],[14.106,1.389],[14.124,1.394],[14.144,1.392],[14.184,1.381],[14.193,1.375],[14.199,1.368],[14.207,1.363],[14.218,1.361],[14.22,1.355],[14.221,1.349],[14.23,1.344],[14.241,1.339],[14.252,1.331],[14.258,1.32],[14.273,1.257],[14.276,1.231],[14.275,1.156],[14.283,1.13],[14.298,1.109],[14.346,1.087],[14.36,1.067],[14.376,1.016],[14.387,0.992],[14.401,0.97],[14.418,0.951],[14.437,0.933],[14.46,0.921],[14.468,0.913],[14.466,0.9],[14.457,0.89],[14.445,0.883],[14.438,0.875],[14.441,0.863],[14.448,0.816],[14.413,0.775],[14.367,0.736],[14.338,0.694],[14.335,0.643],[14.329,0.621],[14.255,0.557],[14.251,0.552],[14.245,0.548],[14.232,0.543],[14.182,0.54],[14.125,0.546],[14.076,0.539],[14.046,0.497],[14.057,0.476],[14.063,0.456],[14.059,0.435],[14.04,0.414],[13.967,0.373],[13.945,0.35],[13.91,0.271],[13.876,0.22],[13.871,0.196],[13.876,0.171],[13.886,0.14],[13.891,0.116],[13.895,0.044],[13.901,0.037],[13.913,0.037],[13.925,0.034],[13.933,0.022],[13.931,0.012],[13.917,-0.007],[13.913,-0.017],[13.915,-0.031],[13.92,-0.042],[13.921,-0.053],[13.911,-0.066],[13.9,-0.076],[13.888,-0.092],[13.814,-0.066],[13.765,-0.031],[13.743,-0.018],[13.723,-0.009],[13.523,0.034],[13.508,0.035],[13.469,0.033],[13.281,0.041],[13.261,0.041],[13.253,0.042],[13.242,0.047],[13.233,0.053],[13.222,0.057],[13.195,0.056],[13.183,0.058],[13.172,0.063],[13.162,0.07],[13.124,0.088],[13.117,0.096],[13.113,0.105],[13.094,0.165],[13.092,0.185],[13.087,0.193],[13.071,0.205],[13.057,0.219],[13.049,0.223],[13.019,0.218],[13.01,0.218],[13.002,0.22],[12.996,0.222],[12.988,0.225],[12.969,0.237],[12.953,0.249],[12.945,0.252],[12.916,0.225],[12.904,0.219],[12.89,0.217],[12.878,0.218],[12.848,0.227],[12.823,0.231],[12.805,0.229],[12.793,0.233],[12.784,0.24],[12.779,0.249],[12.771,0.258],[12.763,0.265],[12.755,0.274],[12.744,0.279],[12.731,0.281],[12.666,0.25],[12.656,0.248],[12.646,0.249],[12.637,0.255],[12.628,0.263],[12.621,0.271],[12.614,0.277],[12.609,0.273],[12.458,-0.402],[12.3,-0.482],[11.563,-0.753],[11.532,-0.69],[11.529,-0.681],[11.513,-0.6],[11.498,-0.567],[11.486,-0.55],[11.478,-0.54],[11.44,-0.509],[11.432,-0.5],[11.426,-0.489],[11.411,-0.437],[11.408,-0.422],[11.41,-0.397],[11.408,-0.381],[11.406,-0.368],[11.4,-0.357],[11.348,-0.28],[11.343,-0.27],[11.34,-0.26],[11.338,-0.25],[11.338,-0.226],[11.342,-0.198],[11.338,-0.153],[11.329,-0.119],[11.326,-0.112],[11.319,-0.105],[11.311,-0.102],[11.301,-0.101],[11.293,-0.098],[11.287,-0.093],[11.284,-0.089],[11.28,-0.08],[11.28,-0.071],[11.283,-0.061],[11.299,-0.03],[11.308,0.001],[11.316,0.011],[11.342,0.03],[11.356,0.043],[11.497,0.116],[11.514,0.119],[11.525,0.124],[11.539,0.136],[11.551,0.144],[11.57,0.16],[11.576,0.17],[11.58,0.184],[11.578,0.198],[11.583,0.23],[11.481,0.337],[11.476,0.346],[11.477,0.352],[11.485,0.36],[12.205,0.848],[12.212,0.856],[12.216,0.865],[12.222,0.893],[12.221,0.896],[12.22,0.898],[12.218,0.901],[12.217,0.905],[12.218,0.91],[12.221,0.921],[12.221,0.927],[12.218,0.964],[12.219,0.984],[12.222,1],[12.223,1.001],[12.224,1.002],[12.252,1.039],[12.26,1.052],[12.271,1.076],[12.273,1.081],[12.275,1.086],[12.278,1.092],[12.294,1.109],[12.296,1.113],[12.315,1.15],[12.328,1.163],[12.331,1.168],[12.332,1.172],[12.334,1.185],[12.335,1.188],[12.336,1.192],[12.338,1.196],[12.35,1.21],[12.351,1.213],[12.353,1.216],[12.355,1.226],[12.355,1.235],[13.185,1.223]]]}},{"type":"Feature","id":"GA-7","properties":{"id":"GA-7","countryCode":"GA","isoSubdivision":"GA-7","name":"Ogooué-Lolo","name_en":"Ogooué-Lolo","name_ko":"오고웨롤로","type":"Province","labelLongitude":12.528,"labelLatitude":-0.973,"minZoom":7.7},"geometry":{"type":"Polygon","coordinates":[[[12.741,-1.891],[12.675,-1.843],[12.632,-1.825],[12.583,-1.827],[12.572,-1.83],[12.523,-1.863],[12.517,-1.869],[12.512,-1.875],[12.506,-1.888],[12.505,-1.897],[12.504,-1.908],[12.499,-1.918],[12.487,-1.925],[12.469,-1.919],[12.45,-1.899],[12.454,-1.878],[12.449,-1.863],[12.442,-1.86],[12.433,-1.857],[12.422,-1.857],[12.352,-1.863],[12.342,-1.863],[12.219,-1.82],[12.209,-1.815],[12.147,-1.763],[12.134,-1.748],[12.068,-1.658],[12.059,-1.651],[12.049,-1.648],[12.038,-1.642],[12.028,-1.633],[12.019,-1.611],[12.016,-1.599],[12.016,-1.589],[12.017,-1.584],[12.02,-1.58],[12.023,-1.576],[12.03,-1.569],[12.036,-1.562],[12.041,-1.553],[12.042,-1.551],[12.045,-1.542],[12.047,-1.518],[12.043,-1.481],[12.029,-1.434],[12.027,-1.423],[12.027,-1.403],[12.026,-1.398],[12.02,-1.387],[11.985,-1.343],[11.964,-1.323],[11.955,-1.318],[11.917,-1.3],[11.909,-1.295],[11.873,-1.26],[11.824,-1.226],[11.808,-1.209],[11.772,-1.159],[11.767,-1.149],[11.758,-1.118],[11.755,-1.097],[11.756,-1.081],[11.758,-1.072],[11.757,-1.067],[11.755,-1.064],[11.745,-1.063],[11.735,-1.065],[11.725,-1.069],[11.656,-1.113],[11.626,-1.119],[11.606,-1.128],[11.596,-1.131],[11.586,-1.131],[11.566,-1.126],[11.556,-1.122],[11.549,-1.113],[11.547,-1.095],[11.55,-1.076],[11.552,-1.06],[11.55,-1.04],[11.547,-1.027],[11.541,-1.007],[11.538,-1.002],[11.536,-0.998],[11.517,-0.978],[11.511,-0.968],[11.507,-0.959],[11.505,-0.948],[11.502,-0.923],[11.498,-0.906],[11.498,-0.896],[11.504,-0.839],[11.509,-0.827],[11.517,-0.814],[11.544,-0.783],[11.563,-0.753],[12.3,-0.482],[12.458,-0.402],[12.609,0.273],[12.614,0.277],[12.621,0.271],[12.628,0.263],[12.637,0.255],[12.646,0.249],[12.656,0.248],[12.666,0.25],[12.731,0.281],[12.744,0.279],[12.755,0.274],[12.763,0.265],[12.771,0.258],[12.779,0.249],[12.784,0.24],[12.793,0.233],[12.805,0.229],[12.823,0.231],[12.848,0.227],[12.878,0.218],[12.89,0.217],[12.904,0.219],[12.916,0.225],[12.945,0.252],[12.953,0.249],[12.969,0.237],[12.988,0.225],[12.996,0.222],[13.002,0.22],[13.01,0.218],[13.019,0.218],[13.049,0.223],[13.057,0.219],[13.071,0.205],[13.087,0.193],[13.092,0.185],[13.094,0.165],[13.113,0.105],[13.117,0.096],[13.124,0.088],[13.162,0.07],[13.172,0.063],[13.183,0.058],[13.195,0.056],[13.222,0.057],[13.233,0.053],[13.242,0.047],[13.253,0.042],[13.261,0.041],[13.281,0.041],[13.279,-0.01],[13.253,-0.06],[13.229,-0.095],[13.223,-0.106],[13.226,-0.113],[13.233,-0.12],[13.238,-0.128],[13.247,-0.169],[13.249,-0.19],[13.251,-0.201],[13.256,-0.214],[13.264,-0.221],[13.274,-0.225],[13.284,-0.227],[13.293,-0.231],[13.303,-0.24],[13.552,-0.729],[13.559,-0.753],[13.557,-0.77],[13.433,-0.954],[13.271,-1.151],[13.265,-1.157],[13.257,-1.159],[13.24,-1.145],[13.167,-1.109],[13.158,-1.116],[13.158,-1.123],[13.168,-1.16],[13.172,-1.198],[13.171,-1.239],[13.167,-1.259],[13.159,-1.271],[13.15,-1.275],[13.139,-1.281],[13.129,-1.29],[13.112,-1.32],[13.106,-1.327],[13.088,-1.334],[13.079,-1.339],[13.071,-1.347],[13.057,-1.366],[13.048,-1.376],[13.038,-1.384],[13.028,-1.39],[13.019,-1.393],[13.01,-1.394],[13.002,-1.392],[12.997,-1.392],[12.989,-1.393],[12.96,-1.409],[12.949,-1.418],[12.944,-1.435],[12.937,-1.446],[12.928,-1.454],[12.919,-1.461],[12.91,-1.471],[12.901,-1.484],[12.898,-1.494],[12.895,-1.523],[12.891,-1.534],[12.885,-1.546],[12.877,-1.557],[12.873,-1.566],[12.868,-1.575],[12.85,-1.597],[12.776,-1.75],[12.774,-1.76],[12.778,-1.779],[12.778,-1.789],[12.764,-1.82],[12.757,-1.847],[12.743,-1.884],[12.741,-1.891]]]}},{"type":"Feature","id":"GA-8","properties":{"id":"GA-8","countryCode":"GA","isoSubdivision":"GA-8","name":"Ogooué-Maritime","name_en":"Ogooué-Maritime","name_ko":"오고웨마리팀","type":"Province","labelLongitude":8.996,"labelLatitude":-0.683,"minZoom":7.7},"geometry":{"type":"MultiPolygon","coordinates":[[[[9.962,-2.745],[9.902,-2.7],[9.725,-2.481],[9.703,-2.443],[9.722,-2.457],[9.75,-2.487],[9.772,-2.498],[9.795,-2.501],[9.809,-2.492],[9.821,-2.476],[9.84,-2.457],[9.838,-2.471],[9.833,-2.482],[9.83,-2.493],[9.833,-2.505],[9.839,-2.503],[9.843,-2.501],[9.845,-2.497],[9.848,-2.491],[9.847,-2.51],[9.85,-2.528],[9.859,-2.539],[9.874,-2.532],[9.91,-2.545],[9.916,-2.55],[9.918,-2.55],[9.933,-2.573],[9.936,-2.594],[9.943,-2.594],[9.945,-2.585],[9.949,-2.58],[9.954,-2.581],[9.964,-2.587],[9.965,-2.583],[9.965,-2.582],[9.966,-2.581],[9.97,-2.58],[9.974,-2.617],[9.977,-2.629],[9.984,-2.621],[9.992,-2.616],[10.001,-2.614],[10.011,-2.615],[10.008,-2.629],[10.012,-2.632],[10.021,-2.629],[10.032,-2.621],[10.04,-2.613],[10.047,-2.595],[10.053,-2.587],[10.067,-2.582],[10.089,-2.579],[10.11,-2.578],[10.121,-2.58],[10.147,-2.578],[10.157,-2.573],[10.162,-2.56],[10.143,-2.549],[10.136,-2.546],[10.137,-2.527],[10.118,-2.518],[10.094,-2.508],[10.08,-2.491],[10.073,-2.491],[10.08,-2.509],[10.094,-2.56],[10.08,-2.558],[10.072,-2.551],[10.067,-2.543],[10.063,-2.539],[10.055,-2.535],[10.044,-2.516],[10.036,-2.512],[10.028,-2.511],[10.016,-2.506],[10.008,-2.505],[10.005,-2.508],[10.005,-2.514],[10.006,-2.52],[10.005,-2.525],[9.998,-2.533],[9.992,-2.542],[9.987,-2.552],[9.984,-2.56],[9.97,-2.554],[9.957,-2.546],[9.961,-2.536],[9.955,-2.515],[9.957,-2.505],[9.967,-2.5],[9.978,-2.501],[9.988,-2.5],[9.992,-2.491],[9.98,-2.482],[9.954,-2.473],[9.927,-2.469],[9.909,-2.47],[9.886,-2.424],[9.885,-2.416],[9.875,-2.409],[9.87,-2.409],[9.867,-2.42],[9.864,-2.42],[9.849,-2.428],[9.848,-2.429],[9.822,-2.424],[9.798,-2.442],[9.775,-2.464],[9.752,-2.47],[9.742,-2.465],[9.733,-2.456],[9.727,-2.445],[9.724,-2.433],[9.726,-2.429],[9.738,-2.419],[9.741,-2.416],[9.747,-2.413],[9.739,-2.407],[9.728,-2.402],[9.724,-2.402],[9.722,-2.394],[9.724,-2.386],[9.724,-2.379],[9.718,-2.375],[9.709,-2.373],[9.703,-2.374],[9.698,-2.378],[9.697,-2.384],[9.709,-2.408],[9.713,-2.423],[9.703,-2.436],[9.688,-2.429],[9.646,-2.379],[9.628,-2.367],[9.638,-2.382],[9.66,-2.408],[9.669,-2.423],[9.646,-2.408],[9.62,-2.382],[9.597,-2.352],[9.587,-2.326],[9.587,-2.321],[9.579,-2.298],[9.573,-2.207],[9.566,-2.193],[9.467,-2.095],[9.44,-2.08],[9.409,-2.044],[9.395,-2.032],[9.398,-2.028],[9.402,-2.018],[9.38,-2.013],[9.368,-1.995],[9.354,-1.957],[9.312,-1.916],[9.306,-1.906],[9.301,-1.904],[9.292,-1.895],[9.283,-1.886],[9.282,-1.881],[9.271,-1.877],[9.274,-1.867],[9.281,-1.86],[9.285,-1.864],[9.293,-1.883],[9.311,-1.897],[9.334,-1.904],[9.354,-1.902],[9.352,-1.906],[9.351,-1.907],[9.349,-1.907],[9.347,-1.909],[9.36,-1.915],[9.367,-1.909],[9.375,-1.888],[9.381,-1.888],[9.388,-1.909],[9.382,-1.911],[9.378,-1.914],[9.375,-1.919],[9.375,-1.926],[9.378,-1.932],[9.385,-1.927],[9.39,-1.92],[9.388,-1.916],[9.439,-1.916],[9.467,-1.922],[9.481,-1.939],[9.479,-1.96],[9.457,-1.978],[9.469,-1.991],[9.475,-1.996],[9.481,-1.998],[9.502,-2],[9.508,-2.002],[9.511,-2.008],[9.511,-2.025],[9.512,-2.032],[9.532,-2.046],[9.533,-2.051],[9.538,-2.063],[9.543,-2.071],[9.546,-2.063],[9.549,-2.058],[9.563,-2.053],[9.566,-2.05],[9.564,-2.032],[9.557,-2.012],[9.549,-1.998],[9.539,-1.998],[9.528,-1.985],[9.504,-1.969],[9.498,-1.957],[9.51,-1.94],[9.519,-1.933],[9.518,-1.926],[9.485,-1.87],[9.467,-1.851],[9.457,-1.861],[9.441,-1.852],[9.436,-1.847],[9.432,-1.857],[9.432,-1.866],[9.436,-1.888],[9.417,-1.873],[9.392,-1.826],[9.375,-1.819],[9.367,-1.826],[9.362,-1.838],[9.36,-1.849],[9.357,-1.854],[9.348,-1.857],[9.342,-1.865],[9.34,-1.876],[9.341,-1.888],[9.333,-1.881],[9.326,-1.876],[9.317,-1.874],[9.306,-1.874],[9.317,-1.854],[9.315,-1.843],[9.292,-1.826],[9.27,-1.84],[9.255,-1.835],[9.247,-1.816],[9.244,-1.786],[9.245,-1.774],[9.249,-1.757],[9.25,-1.748],[9.25,-1.707],[9.249,-1.696],[9.24,-1.674],[9.237,-1.662],[9.238,-1.631],[9.237,-1.621],[9.22,-1.58],[9.197,-1.548],[9.142,-1.491],[9.017,-1.316],[9.007,-1.299],[8.997,-1.274],[8.988,-1.252],[8.984,-1.231],[8.997,-1.258],[9.007,-1.287],[9.019,-1.305],[9.039,-1.326],[9.054,-1.325],[9.07,-1.332],[9.082,-1.344],[9.093,-1.375],[9.116,-1.4],[9.121,-1.419],[9.128,-1.429],[9.159,-1.468],[9.173,-1.477],[9.179,-1.483],[9.227,-1.522],[9.235,-1.527],[9.265,-1.535],[9.274,-1.66],[9.28,-1.675],[9.292,-1.67],[9.295,-1.659],[9.286,-1.646],[9.289,-1.638],[9.298,-1.635],[9.305,-1.638],[9.31,-1.647],[9.313,-1.655],[9.327,-1.638],[9.351,-1.625],[9.378,-1.616],[9.402,-1.614],[9.396,-1.63],[9.395,-1.647],[9.401,-1.661],[9.416,-1.67],[9.423,-1.636],[9.422,-1.619],[9.416,-1.608],[9.447,-1.603],[9.53,-1.614],[9.56,-1.608],[9.518,-1.592],[9.502,-1.58],[9.491,-1.56],[9.481,-1.523],[9.48,-1.501],[9.484,-1.484],[9.476,-1.482],[9.457,-1.47],[9.452,-1.47],[9.439,-1.47],[9.432,-1.473],[9.432,-1.479],[9.436,-1.494],[9.435,-1.505],[9.431,-1.51],[9.427,-1.513],[9.402,-1.546],[9.379,-1.563],[9.352,-1.571],[9.319,-1.573],[9.313,-1.575],[9.306,-1.577],[9.3,-1.577],[9.292,-1.573],[9.287,-1.566],[9.285,-1.55],[9.278,-1.535],[9.278,-1.526],[9.278,-1.508],[9.274,-1.503],[9.265,-1.501],[9.255,-1.499],[9.25,-1.498],[9.249,-1.482],[9.257,-1.471],[9.271,-1.466],[9.289,-1.464],[9.297,-1.458],[9.299,-1.444],[9.295,-1.43],[9.285,-1.422],[9.285,-1.416],[9.294,-1.413],[9.318,-1.411],[9.326,-1.408],[9.334,-1.399],[9.339,-1.38],[9.355,-1.351],[9.351,-1.333],[9.333,-1.299],[9.338,-1.292],[9.339,-1.288],[9.335,-1.283],[9.326,-1.278],[9.326,-1.298],[9.333,-1.35],[9.33,-1.361],[9.323,-1.371],[9.313,-1.378],[9.302,-1.381],[9.293,-1.378],[9.285,-1.364],[9.278,-1.361],[9.262,-1.366],[9.252,-1.38],[9.244,-1.395],[9.234,-1.402],[9.186,-1.411],[9.169,-1.408],[9.158,-1.395],[9.155,-1.374],[9.157,-1.355],[9.159,-1.346],[9.157,-1.345],[9.15,-1.339],[9.146,-1.332],[9.142,-1.334],[9.136,-1.338],[9.126,-1.342],[9.124,-1.346],[9.12,-1.349],[9.107,-1.346],[9.093,-1.338],[9.057,-1.312],[9.042,-1.306],[9.03,-1.299],[9.021,-1.282],[9.019,-1.262],[9.026,-1.244],[9.022,-1.24],[9.021,-1.238],[9.018,-1.231],[9.038,-1.217],[9.033,-1.193],[9.016,-1.17],[8.997,-1.155],[9.01,-1.185],[9.004,-1.212],[9,-1.221],[8.994,-1.22],[8.991,-1.21],[8.984,-1.148],[8.967,-1.104],[8.867,-0.977],[8.893,-1.002],[8.908,-1.009],[8.923,-1.004],[8.908,-0.997],[8.914,-0.984],[8.923,-0.973],[8.931,-0.965],[8.936,-0.963],[8.924,-0.958],[8.895,-0.978],[8.877,-0.974],[8.871,-0.958],[8.865,-0.933],[8.857,-0.916],[8.847,-0.922],[8.84,-0.922],[8.831,-0.887],[8.826,-0.875],[8.811,-0.849],[8.784,-0.789],[8.763,-0.753],[8.75,-0.7],[8.719,-0.66],[8.696,-0.587],[8.709,-0.566],[8.717,-0.573],[8.708,-0.592],[8.719,-0.601],[8.751,-0.607],[8.746,-0.616],[8.745,-0.622],[8.747,-0.627],[8.751,-0.634],[8.772,-0.633],[8.787,-0.658],[8.796,-0.692],[8.8,-0.734],[8.806,-0.748],[8.816,-0.76],[8.83,-0.765],[8.837,-0.772],[8.84,-0.786],[8.844,-0.8],[8.861,-0.805],[8.852,-0.788],[8.853,-0.771],[8.858,-0.754],[8.861,-0.734],[8.866,-0.719],[8.879,-0.718],[8.897,-0.722],[8.915,-0.723],[8.915,-0.716],[8.905,-0.712],[8.895,-0.704],[8.888,-0.693],[8.888,-0.682],[8.895,-0.675],[8.905,-0.676],[8.929,-0.687],[8.939,-0.701],[8.946,-0.718],[8.949,-0.734],[8.957,-0.754],[8.993,-0.787],[9.005,-0.805],[9.005,-0.825],[8.998,-0.86],[9.005,-0.875],[9.011,-0.875],[9.016,-0.856],[9.018,-0.795],[9.024,-0.776],[9.048,-0.75],[9.053,-0.734],[9.052,-0.72],[9.051,-0.714],[9.052,-0.711],[9.059,-0.703],[9.065,-0.699],[9.082,-0.693],[9.087,-0.69],[9.09,-0.679],[9.088,-0.669],[9.089,-0.66],[9.101,-0.655],[9.115,-0.682],[9.112,-0.658],[9.101,-0.642],[9.093,-0.626],[9.101,-0.6],[9.16,-0.547],[9.178,-0.511],[9.267,-0.412],[9.292,-0.374],[9.306,-0.332],[9.306,-0.272],[9.32,-0.285],[9.342,-0.369],[9.351,-0.388],[9.403,-0.458],[9.417,-0.472],[9.43,-0.48],[9.449,-0.482],[9.459,-0.484],[9.492,-0.5],[9.524,-0.522],[9.57,-0.578],[9.636,-0.787],[9.677,-0.842],[9.698,-0.851],[9.711,-0.859],[9.72,-0.867],[9.724,-0.869],[9.735,-0.879],[9.74,-0.89],[9.748,-0.897],[9.758,-0.901],[9.768,-0.901],[9.795,-0.899],[9.801,-0.899],[9.809,-0.901],[9.847,-0.903],[9.866,-0.902],[9.876,-0.904],[9.889,-0.911],[9.923,-0.939],[9.932,-0.952],[9.936,-0.964],[9.935,-0.974],[9.927,-0.991],[9.927,-0.998],[9.928,-1.004],[9.945,-1.043],[9.946,-1.053],[9.946,-1.063],[9.944,-1.074],[9.937,-1.094],[9.911,-1.143],[9.909,-1.153],[9.91,-1.162],[9.919,-1.173],[9.981,-1.229],[9.99,-1.235],[9.998,-1.238],[10.004,-1.24],[10.05,-1.248],[10.066,-1.255],[10.061,-1.296],[10.047,-1.324],[9.977,-1.392],[9.971,-1.403],[9.967,-1.414],[9.967,-1.433],[9.969,-1.453],[9.98,-1.505],[9.981,-1.519],[9.979,-1.536],[9.973,-1.568],[9.965,-1.588],[9.956,-1.601],[9.947,-1.606],[9.938,-1.607],[9.929,-1.607],[9.918,-1.61],[9.909,-1.616],[9.899,-1.628],[9.897,-1.639],[9.896,-1.649],[9.89,-1.658],[9.882,-1.665],[9.872,-1.674],[9.874,-1.683],[9.888,-1.698],[9.902,-1.717],[9.908,-1.727],[9.92,-1.758],[9.925,-1.768],[9.959,-1.809],[9.968,-1.818],[9.977,-1.825],[9.986,-1.829],[9.995,-1.83],[10.028,-1.83],[10.049,-1.833],[10.098,-1.85],[10.13,-1.867],[10.162,-1.876],[10.185,-1.891],[10.195,-1.897],[10.206,-1.907],[10.217,-1.912],[10.237,-1.912],[10.307,-1.929],[10.318,-1.929],[10.328,-1.927],[10.338,-1.922],[10.347,-1.915],[10.356,-1.91],[10.366,-1.91],[10.408,-1.933],[10.429,-1.95],[10.449,-1.957],[10.459,-1.964],[10.462,-1.974],[10.461,-1.984],[10.448,-2.017],[10.447,-2.028],[10.447,-2.039],[10.45,-2.053],[10.456,-2.064],[10.464,-2.074],[10.482,-2.087],[10.486,-2.091],[10.488,-2.096],[10.507,-2.164],[10.513,-2.179],[10.54,-2.219],[10.544,-2.223],[10.548,-2.226],[10.552,-2.229],[10.567,-2.246],[10.607,-2.31],[10.464,-2.381],[10.43,-2.41],[10.42,-2.435],[10.407,-2.451],[10.401,-2.463],[10.398,-2.474],[10.401,-2.484],[10.415,-2.506],[10.417,-2.513],[10.416,-2.521],[10.41,-2.525],[10.399,-2.528],[10.386,-2.533],[10.368,-2.544],[10.358,-2.554],[10.351,-2.565],[10.348,-2.576],[10.339,-2.618],[10.335,-2.63],[10.326,-2.645],[10.316,-2.649],[10.296,-2.649],[10,-2.735],[9.999,-2.735],[9.962,-2.745]]],[[[8.997,-0.628],[9.033,-0.635],[9.042,-0.67],[9.038,-0.712],[9.039,-0.744],[9.021,-0.756],[9.007,-0.762],[8.993,-0.761],[8.977,-0.751],[8.969,-0.737],[8.968,-0.725],[8.971,-0.712],[8.971,-0.696],[8.967,-0.687],[8.953,-0.673],[8.949,-0.662],[8.949,-0.651],[8.952,-0.643],[8.963,-0.628],[8.974,-0.617],[8.996,-0.604],[9.005,-0.593],[9.01,-0.603],[9.01,-0.611],[9.006,-0.617],[8.997,-0.62],[8.997,-0.628]]]]}},{"type":"Feature","id":"GA-9","properties":{"id":"GA-9","countryCode":"GA","isoSubdivision":"GA-9","name":"Woleu-Ntem","name_en":"Woleu-Ntem","name_ko":"월뢰은템","type":"Province","labelLongitude":11.831,"labelLatitude":1.439,"minZoom":7.7},"geometry":{"type":"Polygon","coordinates":[[[11.657,2.322],[11.671,2.321],[11.681,2.315],[11.701,2.299],[11.753,2.282],[11.768,2.28],[11.802,2.285],[11.89,2.282],[11.966,2.289],[12.042,2.284],[12.101,2.288],[12.119,2.288],[12.159,2.281],[12.203,2.28],[12.223,2.283],[12.261,2.296],[12.281,2.299],[12.291,2.302],[12.312,2.313],[12.322,2.314],[12.334,2.31],[12.367,2.29],[12.385,2.286],[12.44,2.299],[12.478,2.296],[12.534,2.278],[12.551,2.272],[12.575,2.278],[12.591,2.266],[12.615,2.257],[12.75,2.237],[12.77,2.241],[12.784,2.25],[12.796,2.259],[12.808,2.264],[12.825,2.259],[12.848,2.249],[12.868,2.245],[12.876,2.257],[12.89,2.251],[12.903,2.25],[12.915,2.255],[12.925,2.264],[12.955,2.253],[12.972,2.25],[12.983,2.253],[12.997,2.26],[13.013,2.256],[13.041,2.244],[13.084,2.25],[13.093,2.253],[13.113,2.273],[13.125,2.281],[13.133,2.285],[13.164,2.283],[13.192,2.278],[13.206,2.267],[13.212,2.264],[13.222,2.264],[13.236,2.27],[13.243,2.271],[13.254,2.267],[13.27,2.256],[13.285,2.242],[13.294,2.231],[13.298,2.216],[13.294,2.186],[13.295,2.161],[13.295,2.101],[13.291,2.069],[13.281,2.045],[13.245,2.025],[13.239,2.021],[13.221,2.001],[13.216,1.997],[13.207,1.994],[13.207,1.985],[13.212,1.966],[13.21,1.956],[13.205,1.949],[13.198,1.943],[13.192,1.935],[13.185,1.923],[13.178,1.908],[13.166,1.904],[13.162,1.9],[13.175,1.882],[13.183,1.864],[13.188,1.857],[13.192,1.845],[13.191,1.829],[13.181,1.792],[13.173,1.777],[13.163,1.764],[13.15,1.756],[13.158,1.739],[13.155,1.722],[13.148,1.703],[13.144,1.682],[13.15,1.636],[13.147,1.612],[13.13,1.592],[13.146,1.563],[13.164,1.538],[13.171,1.545],[13.183,1.537],[13.19,1.525],[13.191,1.511],[13.185,1.497],[13.205,1.486],[13.223,1.438],[13.239,1.428],[13.238,1.42],[13.24,1.372],[13.239,1.364],[13.24,1.357],[13.243,1.35],[13.251,1.338],[13.249,1.332],[13.243,1.329],[13.234,1.309],[13.219,1.299],[13.202,1.293],[13.188,1.291],[13.18,1.285],[13.177,1.271],[13.169,1.259],[13.15,1.257],[13.16,1.248],[13.172,1.243],[13.182,1.236],[13.185,1.223],[12.355,1.235],[12.355,1.226],[12.353,1.216],[12.351,1.213],[12.35,1.21],[12.338,1.196],[12.336,1.192],[12.335,1.188],[12.334,1.185],[12.332,1.172],[12.331,1.168],[12.328,1.163],[12.315,1.15],[12.296,1.113],[12.294,1.109],[12.278,1.092],[12.275,1.086],[12.273,1.081],[12.271,1.076],[12.26,1.052],[12.252,1.039],[12.224,1.002],[12.223,1.001],[12.222,1],[12.219,0.984],[12.218,0.964],[12.221,0.927],[12.221,0.921],[12.218,0.91],[12.217,0.905],[12.218,0.901],[12.22,0.898],[12.221,0.896],[12.222,0.893],[12.216,0.865],[12.212,0.856],[12.205,0.848],[11.485,0.36],[11.477,0.352],[11.476,0.346],[11.481,0.337],[11.583,0.23],[10.807,0.232],[10.813,0.237],[10.82,0.246],[10.822,0.249],[10.825,0.252],[10.833,0.261],[10.838,0.273],[10.839,0.278],[10.84,0.283],[10.839,0.295],[10.832,0.328],[10.834,0.338],[10.836,0.344],[10.841,0.348],[10.845,0.351],[10.848,0.356],[10.849,0.36],[10.851,0.368],[10.854,0.395],[10.875,0.468],[10.879,0.478],[10.891,0.498],[10.892,0.502],[10.896,0.514],[10.898,0.518],[10.901,0.524],[10.906,0.53],[10.913,0.542],[10.917,0.55],[10.928,0.59],[10.929,0.593],[10.931,0.595],[10.935,0.601],[10.951,0.613],[10.953,0.617],[10.955,0.624],[10.96,0.647],[10.97,0.675],[10.972,0.688],[10.974,0.757],[10.971,0.779],[10.961,0.818],[10.957,0.821],[10.948,0.821],[10.427,0.641],[10.412,0.638],[10.404,0.64],[10.399,0.649],[10.391,0.678],[10.386,0.687],[10.381,0.697],[10.366,0.718],[10.364,0.732],[10.368,0.751],[10.383,0.79],[10.394,0.81],[10.41,0.86],[10.415,1.002],[10.438,1.002],[10.737,1.001],[10.964,1],[11.037,1],[11.336,0.999],[11.335,1.261],[11.333,1.523],[11.332,1.733],[11.332,1.785],[11.33,2.047],[11.33,2.127],[11.322,2.166],[11.328,2.176],[11.332,2.188],[11.334,2.2],[11.334,2.213],[11.336,2.229],[11.342,2.241],[11.35,2.251],[11.356,2.265],[11.354,2.278],[11.35,2.291],[11.352,2.301],[11.619,2.31],[11.645,2.32],[11.657,2.322]]]}}]}
