{"type":"FeatureCollection","features":[{"type":"Feature","id":"GD-01","properties":{"id":"GD-01","countryCode":"GD","isoSubdivision":"GD-01","name":"Saint Andrew","name_en":"Saint Andrew","name_ko":"세인트앤드루구","type":"Parish","labelLongitude":-61.633,"labelLatitude":12.122,"minZoom":11},"geometry":{"type":"Polygon","coordinates":[[[-61.603,12.177],[-61.606,12.134],[-61.609,12.127],[-61.613,12.12],[-61.62,12.105],[-61.619,12.097],[-61.614,12.08],[-61.616,12.077],[-61.622,12.075],[-61.625,12.069],[-61.643,12.083],[-61.658,12.09],[-61.677,12.085],[-61.681,12.091],[-61.686,12.111],[-61.688,12.122],[-61.677,12.136],[-61.663,12.159],[-61.656,12.179],[-61.631,12.179],[-61.603,12.177]]]}},{"type":"Feature","id":"GD-02","properties":{"id":"GD-02","countryCode":"GD","isoSubdivision":"GD-02","name":"Saint David","name_en":"Saint David","name_ko":"세인트데이비드구","type":"Parish","labelLongitude":-61.662,"labelLatitude":12.055,"minZoom":11},"geometry":{"type":"Polygon","coordinates":[[[-61.625,12.069],[-61.626,12.061],[-61.626,12.053],[-61.632,12.044],[-61.674,12.022],[-61.674,12.029],[-61.683,12.025],[-61.689,12.029],[-61.696,12.041],[-61.696,12.058],[-61.69,12.08],[-61.677,12.085],[-61.658,12.09],[-61.643,12.083],[-61.625,12.069]]]}},{"type":"Feature","id":"GD-03","properties":{"id":"GD-03","countryCode":"GD","isoSubdivision":"GD-03","name":"Saint George","name_en":"Saint George","name_ko":"세인트조지구","type":"Parish","labelLongitude":-61.723,"labelLatitude":12.068,"minZoom":11},"geometry":{"type":"Polygon","coordinates":[[[-61.683,12.025],[-61.689,12.02],[-61.693,12.012],[-61.695,12.003],[-61.704,12.005],[-61.713,12.007],[-61.722,12.011],[-61.73,12.016],[-61.74,12.007],[-61.757,12.003],[-61.776,12.004],[-61.791,12.008],[-61.756,12.03],[-61.75,12.036],[-61.746,12.051],[-61.749,12.063],[-61.754,12.074],[-61.756,12.088],[-61.751,12.11],[-61.716,12.11],[-61.686,12.111],[-61.681,12.091],[-61.677,12.085],[-61.69,12.08],[-61.696,12.058],[-61.696,12.041],[-61.689,12.029],[-61.683,12.025]]]}},{"type":"Feature","id":"GD-04","properties":{"id":"GD-04","countryCode":"GD","isoSubdivision":"GD-04","name":"Saint John","name_en":"Saint John","name_ko":"세인트존구","type":"Parish","labelLongitude":-61.709,"labelLatitude":12.145,"minZoom":11},"geometry":{"type":"Polygon","coordinates":[[[-61.751,12.11],[-61.73,12.149],[-61.73,12.167],[-61.715,12.184],[-61.696,12.179],[-61.677,12.17],[-61.663,12.159],[-61.677,12.136],[-61.688,12.122],[-61.686,12.111],[-61.716,12.11],[-61.751,12.11]]]}},{"type":"Feature","id":"GD-05","properties":{"id":"GD-05","countryCode":"GD","isoSubdivision":"GD-05","name":"Saint Mark","name_en":"Saint Mark","name_ko":"세인트마크구","type":"Parish","labelLongitude":-61.675,"labelLatitude":12.189,"minZoom":11},"geometry":{"type":"Polygon","coordinates":[[[-61.715,12.184],[-61.682,12.223],[-61.669,12.214],[-61.659,12.2],[-61.656,12.179],[-61.663,12.159],[-61.677,12.17],[-61.696,12.179],[-61.715,12.184]]]}},{"type":"Feature","id":"GD-06","properties":{"id":"GD-06","countryCode":"GD","isoSubdivision":"GD-06","name":"Saint Patrick","name_en":"Saint Patrick","name_ko":"세인트패트릭구","type":"Parish","labelLongitude":-61.634,"labelLatitude":12.215,"minZoom":11},"geometry":{"type":"Polygon","coordinates":[[[-61.682,12.223],[-61.671,12.236],[-61.651,12.24],[-61.628,12.237],[-61.606,12.223],[-61.607,12.22],[-61.613,12.214],[-61.605,12.197],[-61.603,12.183],[-61.603,12.177],[-61.631,12.179],[-61.656,12.179],[-61.659,12.2],[-61.669,12.214],[-61.682,12.223]]]}},{"type":"Feature","id":"GD-10","properties":{"id":"GD-10","countryCode":"GD","isoSubdivision":"GD-10","name":"Carriacou and Petite Martinique","name_en":"Carriacou and Petite Martinique","name_ko":"카리아쿠 프티마르티니크","type":"Dependency","labelLongitude":-61.446,"labelLatitude":12.473,"minZoom":11},"geometry":{"type":"Polygon","coordinates":[[[-61.428,12.455],[-61.446,12.46],[-61.463,12.455],[-61.479,12.447],[-61.496,12.44],[-61.493,12.446],[-61.486,12.462],[-61.483,12.468],[-61.486,12.469],[-61.496,12.468],[-61.495,12.472],[-61.489,12.482],[-61.467,12.476],[-61.454,12.493],[-61.443,12.517],[-61.428,12.53],[-61.422,12.513],[-61.423,12.495],[-61.427,12.475],[-61.428,12.455]]]}}]}
