{"type":"FeatureCollection","features":[{"type":"Feature","id":"GE-AB","properties":{"id":"GE-AB","countryCode":"GE","isoSubdivision":"GE-AB","name":"Abkhazia","name_en":"Abkhazia","name_ko":"압하지야","type":"Autonomous Republic","labelLongitude":41.07,"labelLatitude":43.148,"minZoom":7.7},"geometry":{"type":"Polygon","coordinates":[[[40.164,43.576],[40.233,43.576],[40.48,43.509],[40.52,43.505],[40.551,43.511],[40.616,43.536],[40.652,43.539],[40.681,43.528],[40.69,43.523],[40.74,43.495],[40.843,43.469],[40.875,43.456],[41.012,43.375],[41.042,43.37],[41.147,43.38],[41.181,43.375],[41.213,43.363],[41.244,43.344],[41.279,43.333],[41.35,43.343],[41.381,43.335],[41.39,43.325],[41.404,43.302],[41.413,43.291],[41.428,43.283],[41.48,43.271],[41.506,43.26],[41.551,43.226],[41.578,43.215],[41.614,43.213],[41.687,43.22],[41.724,43.217],[41.789,43.204],[41.82,43.201],[41.89,43.207],[41.919,43.206],[41.948,43.2],[41.98,43.189],[42.011,43.182],[42.043,43.181],[42.075,43.185],[42.154,43.217],[42.14,43.194],[42.129,43.168],[42.133,43.139],[42.133,43.111],[42.119,43.083],[42.099,43.059],[42.076,43.04],[42.057,43.017],[42.005,43],[41.908,42.987],[41.9,42.98],[41.885,42.965],[41.902,42.948],[41.911,42.927],[41.916,42.904],[41.918,42.9],[41.926,42.882],[41.931,42.861],[41.916,42.845],[41.903,42.839],[41.892,42.831],[41.892,42.82],[41.899,42.811],[41.91,42.765],[41.908,42.739],[41.912,42.715],[41.94,42.679],[41.944,42.655],[41.947,42.636],[41.938,42.618],[41.92,42.61],[41.899,42.597],[41.884,42.58],[41.882,42.579],[41.804,42.522],[41.717,42.485],[41.714,42.484],[41.665,42.471],[41.651,42.459],[41.629,42.438],[41.591,42.421],[41.58,42.417],[41.556,42.408],[41.551,42.406],[41.5,42.641],[41.483,42.68],[41.457,42.714],[41.424,42.74],[41.383,42.757],[41.307,42.768],[41.291,42.774],[41.275,42.785],[41.251,42.795],[41.225,42.802],[41.205,42.804],[41.194,42.802],[41.174,42.793],[41.161,42.791],[41.15,42.796],[41.105,42.847],[41.082,42.908],[41.04,42.961],[41.023,42.99],[40.998,42.989],[40.959,42.976],[40.934,42.983],[40.904,43.016],[40.887,43.024],[40.886,43.029],[40.863,43.059],[40.856,43.063],[40.783,43.084],[40.683,43.094],[40.636,43.092],[40.604,43.086],[40.592,43.086],[40.58,43.089],[40.561,43.103],[40.551,43.106],[40.546,43.109],[40.529,43.122],[40.52,43.127],[40.51,43.13],[40.479,43.134],[40.398,43.162],[40.361,43.165],[40.335,43.141],[40.325,43.149],[40.31,43.176],[40.301,43.189],[40.278,43.206],[40.268,43.216],[40.273,43.248],[40.257,43.277],[40.235,43.304],[40.219,43.319],[40.188,43.33],[40.133,43.342],[40.101,43.365],[40.087,43.37],[40.041,43.376],[40.01,43.385],[39.986,43.389],[39.991,43.406],[40.059,43.535],[40.073,43.551],[40.097,43.563],[40.164,43.576]]]}},{"type":"Feature","id":"GE-AJ","properties":{"id":"GE-AJ","countryCode":"GE","isoSubdivision":"GE-AJ","name":"Adjara","name_en":"Adjara","name_ko":"아자리야 공화국","type":"Autonomous Republic","labelLongitude":42.054,"labelLatitude":41.655,"minZoom":7.7},"geometry":{"type":"Polygon","coordinates":[[[42.451,41.431],[42.438,41.431],[42.262,41.482],[42.213,41.48],[42.189,41.482],[42.173,41.493],[42.158,41.5],[42.143,41.5],[42.112,41.493],[42.098,41.498],[42.083,41.5],[42.069,41.499],[42.055,41.493],[42.02,41.485],[41.948,41.506],[41.908,41.493],[41.894,41.486],[41.863,41.452],[41.823,41.426],[41.813,41.422],[41.801,41.426],[41.761,41.454],[41.748,41.457],[41.719,41.46],[41.707,41.463],[41.703,41.469],[41.703,41.478],[41.704,41.485],[41.703,41.489],[41.695,41.489],[41.67,41.48],[41.64,41.479],[41.627,41.481],[41.521,41.514],[41.586,41.603],[41.616,41.633],[41.676,41.662],[41.693,41.692],[41.74,41.75],[41.742,41.762],[41.742,41.771],[41.744,41.779],[41.75,41.788],[41.766,41.804],[41.772,41.813],[41.774,41.822],[41.774,41.903],[41.905,41.898],[41.931,41.886],[41.946,41.879],[41.952,41.858],[42.001,41.843],[42.02,41.833],[42.032,41.829],[42.063,41.811],[42.076,41.813],[42.077,41.813],[42.102,41.82],[42.151,41.825],[42.182,41.812],[42.2,41.804],[42.23,41.799],[42.248,41.801],[42.302,41.807],[42.356,41.832],[42.383,41.839],[42.406,41.835],[42.443,41.805],[42.456,41.801],[42.482,41.799],[42.486,41.789],[42.496,41.768],[42.495,41.733],[42.484,41.72],[42.481,41.701],[42.488,41.687],[42.498,41.674],[42.524,41.656],[42.547,41.636],[42.577,41.6],[42.587,41.579],[42.585,41.579],[42.565,41.567],[42.555,41.55],[42.546,41.51],[42.536,41.493],[42.514,41.476],[42.484,41.442],[42.463,41.432],[42.451,41.431]]]}},{"type":"Feature","id":"GE-GU","properties":{"id":"GE-GU","countryCode":"GE","isoSubdivision":"GE-GU","name":"Guria","name_en":"Guria","name_ko":"구리아","type":"Region","labelLongitude":42.182,"labelLatitude":41.963,"minZoom":7.7},"geometry":{"type":"Polygon","coordinates":[[[42.482,41.799],[42.456,41.801],[42.443,41.805],[42.406,41.835],[42.383,41.839],[42.356,41.832],[42.302,41.807],[42.248,41.801],[42.23,41.799],[42.2,41.804],[42.182,41.812],[42.151,41.825],[42.102,41.82],[42.077,41.813],[42.076,41.813],[42.063,41.811],[42.032,41.829],[42.02,41.833],[42.001,41.843],[41.952,41.858],[41.946,41.879],[41.931,41.886],[41.905,41.898],[41.774,41.903],[41.774,41.907],[41.762,41.97],[41.76,41.993],[41.756,42.006],[41.715,42.059],[41.732,42.081],[41.737,42.086],[41.741,42.105],[41.755,42.133],[41.818,42.141],[41.882,42.143],[42.006,42.159],[42.062,42.148],[42.112,42.123],[42.176,42.117],[42.229,42.097],[42.206,42.071],[42.23,42.044],[42.28,42.038],[42.298,42.034],[42.315,42.038],[42.345,42.053],[42.381,42.046],[42.401,42.022],[42.413,41.993],[42.442,41.98],[42.478,41.972],[42.504,41.958],[42.531,41.948],[42.55,41.939],[42.57,41.932],[42.602,41.934],[42.632,41.927],[42.648,41.884],[42.65,41.833],[42.624,41.833],[42.602,41.822],[42.593,41.804],[42.576,41.794],[42.553,41.797],[42.531,41.803],[42.482,41.799]]]}},{"type":"Feature","id":"GE-IM","properties":{"id":"GE-IM","countryCode":"GE","isoSubdivision":"GE-IM","name":"Imereti","name_en":"Imereti","name_ko":"이메레티","type":"Region","labelLongitude":42.989,"labelLatitude":42.093,"minZoom":7.7},"geometry":{"type":"Polygon","coordinates":[[[43.75,42.394],[43.773,42.374],[43.761,42.342],[43.76,42.309],[43.683,42.294],[43.636,42.269],[43.616,42.258],[43.613,42.246],[43.608,42.228],[43.614,42.196],[43.608,42.17],[43.603,42.166],[43.602,42.165],[43.596,42.161],[43.581,42.151],[43.567,42.122],[43.549,42.096],[43.517,42.078],[43.489,42.057],[43.485,42.015],[43.47,41.979],[43.433,41.955],[43.426,41.917],[43.127,41.825],[43.111,41.827],[43.094,41.832],[42.991,41.825],[42.948,41.812],[42.903,41.812],[42.817,41.826],[42.711,41.806],[42.65,41.833],[42.648,41.884],[42.632,41.927],[42.602,41.934],[42.57,41.932],[42.55,41.939],[42.531,41.948],[42.504,41.958],[42.478,41.972],[42.442,41.98],[42.413,41.993],[42.401,42.022],[42.381,42.046],[42.345,42.053],[42.315,42.038],[42.298,42.034],[42.28,42.038],[42.23,42.044],[42.206,42.071],[42.229,42.097],[42.269,42.101],[42.289,42.132],[42.288,42.184],[42.298,42.226],[42.317,42.242],[42.328,42.268],[42.371,42.321],[42.442,42.381],[42.455,42.405],[42.456,42.434],[42.466,42.45],[42.481,42.46],[42.496,42.494],[42.527,42.517],[42.577,42.52],[42.595,42.523],[42.614,42.524],[42.623,42.501],[42.623,42.476],[42.631,42.457],[42.632,42.435],[42.739,42.462],[42.764,42.454],[42.79,42.453],[42.813,42.469],[42.837,42.47],[42.893,42.444],[42.943,42.409],[42.956,42.377],[42.981,42.362],[43.002,42.359],[43.05,42.34],[43.122,42.344],[43.164,42.357],[43.199,42.384],[43.294,42.42],[43.4,42.412],[43.502,42.418],[43.565,42.401],[43.566,42.4],[43.587,42.395],[43.623,42.379],[43.662,42.374],[43.691,42.38],[43.718,42.391],[43.75,42.394]]]}},{"type":"Feature","id":"GE-KA","properties":{"id":"GE-KA","countryCode":"GE","isoSubdivision":"GE-KA","name":"Kakheti","name_en":"Kakheti","name_ko":"카헤티","type":"Region","labelLongitude":45.858,"labelLatitude":41.653,"minZoom":7.7},"geometry":{"type":"Polygon","coordinates":[[[45.302,42.56],[45.313,42.542],[45.323,42.53],[45.356,42.52],[45.399,42.524],[45.479,42.542],[45.537,42.541],[45.621,42.53],[45.699,42.508],[45.74,42.471],[45.736,42.448],[45.621,42.224],[45.631,42.201],[45.662,42.187],[45.702,42.173],[45.812,42.115],[45.881,42.102],[45.895,42.092],[45.923,42.04],[45.934,42.028],[45.948,42.023],[45.966,42.022],[45.974,42.024],[45.987,42.032],[45.995,42.033],[46.002,42.031],[46.018,42.02],[46.027,42.017],[46.045,42.018],[46.058,42.02],[46.068,42.015],[46.075,41.993],[46.099,41.985],[46.13,41.984],[46.189,41.994],[46.198,41.996],[46.206,41.996],[46.215,41.996],[46.224,41.993],[46.25,41.978],[46.294,41.939],[46.323,41.929],[46.382,41.925],[46.407,41.915],[46.431,41.89],[46.393,41.832],[46.371,41.806],[46.328,41.766],[46.314,41.757],[46.298,41.751],[46.277,41.749],[46.23,41.757],[46.208,41.756],[46.189,41.74],[46.18,41.706],[46.18,41.655],[46.193,41.61],[46.22,41.593],[46.228,41.599],[46.233,41.608],[46.24,41.615],[46.254,41.616],[46.256,41.61],[46.278,41.578],[46.28,41.571],[46.288,41.532],[46.297,41.51],[46.314,41.494],[46.366,41.467],[46.378,41.462],[46.398,41.459],[46.445,41.426],[46.542,41.395],[46.592,41.373],[46.607,41.345],[46.623,41.35],[46.63,41.346],[46.631,41.346],[46.638,41.337],[46.657,41.321],[46.688,41.284],[46.695,41.27],[46.692,41.269],[46.683,41.269],[46.675,41.262],[46.673,41.254],[46.672,41.236],[46.669,41.23],[46.664,41.224],[46.65,41.214],[46.644,41.208],[46.635,41.181],[46.629,41.147],[46.621,41.115],[46.616,41.109],[46.602,41.094],[46.582,41.092],[46.563,41.096],[46.544,41.097],[46.522,41.087],[46.511,41.071],[46.506,41.055],[46.497,41.045],[46.475,41.044],[46.457,41.052],[46.429,41.081],[46.413,41.092],[46.353,41.107],[46.332,41.116],[46.273,41.156],[46.244,41.184],[46.229,41.195],[46.211,41.2],[46.135,41.2],[46.113,41.196],[46.088,41.184],[46.061,41.171],[46.042,41.165],[46.017,41.164],[45.969,41.168],[45.821,41.209],[45.77,41.232],[45.751,41.241],[45.71,41.268],[45.686,41.296],[45.708,41.317],[45.731,41.323],[45.745,41.329],[45.744,41.335],[45.721,41.342],[45.656,41.352],[45.512,41.395],[45.479,41.418],[45.465,41.43],[45.45,41.432],[45.417,41.425],[45.397,41.423],[45.381,41.426],[45.333,41.444],[45.33,41.461],[45.324,41.474],[45.315,41.486],[45.308,41.511],[45.29,41.531],[45.258,41.538],[45.226,41.54],[45.208,41.549],[45.201,41.568],[45.196,41.595],[45.23,41.654],[45.211,41.708],[45.203,41.74],[45.185,41.767],[45.147,41.77],[45.114,41.788],[45.092,41.815],[45.066,41.837],[45.053,41.867],[45.021,41.881],[45.048,41.903],[45.078,41.917],[45.133,41.89],[45.213,41.898],[45.177,41.931],[45.128,41.94],[45.104,41.942],[45.082,41.948],[45.072,41.979],[45.088,42.006],[45.07,42.038],[45.067,42.066],[45.055,42.104],[45.069,42.128],[45.084,42.185],[45.103,42.208],[45.124,42.258],[45.148,42.281],[45.174,42.298],[45.195,42.301],[45.215,42.306],[45.224,42.345],[45.211,42.385],[45.221,42.408],[45.243,42.423],[45.258,42.448],[45.255,42.479],[45.269,42.524],[45.301,42.56],[45.302,42.56]]]}},{"type":"Feature","id":"GE-KK","properties":{"id":"GE-KK","countryCode":"GE","isoSubdivision":"GE-KK","name":"Kvemo Kartli","name_en":"Kvemo Kartli","name_ko":"크베모카르틀리","type":"Region","labelLongitude":44.503,"labelLatitude":41.476,"minZoom":7.7},"geometry":{"type":"Polygon","coordinates":[[[45.002,41.29],[44.99,41.284],[44.967,41.269],[44.955,41.263],[44.917,41.262],[44.821,41.273],[44.801,41.259],[44.81,41.244],[44.847,41.231],[44.854,41.224],[44.858,41.219],[44.848,41.209],[44.822,41.206],[44.675,41.208],[44.633,41.221],[44.613,41.223],[44.591,41.216],[44.578,41.203],[44.566,41.187],[44.552,41.177],[44.531,41.181],[44.526,41.189],[44.522,41.199],[44.517,41.207],[44.506,41.207],[44.499,41.203],[44.479,41.186],[44.455,41.18],[44.432,41.182],[44.411,41.188],[44.357,41.212],[44.345,41.213],[44.333,41.21],[44.325,41.205],[44.318,41.199],[44.308,41.194],[44.285,41.191],[44.266,41.196],[44.218,41.222],[44.191,41.23],[44.18,41.23],[44.168,41.224],[44.166,41.216],[44.165,41.208],[44.16,41.198],[44.144,41.186],[44.125,41.178],[44.104,41.175],[44.061,41.184],[44.041,41.183],[44.001,41.169],[43.978,41.165],[43.967,41.217],[43.957,41.233],[43.944,41.247],[43.937,41.291],[43.951,41.335],[43.948,41.357],[43.937,41.376],[43.916,41.386],[43.908,41.409],[43.908,41.431],[43.905,41.452],[43.901,41.466],[43.892,41.472],[43.874,41.501],[43.847,41.522],[43.8,41.524],[43.752,41.515],[43.708,41.513],[43.673,41.519],[43.679,41.534],[43.694,41.543],[43.704,41.567],[43.71,41.667],[43.733,41.699],[43.777,41.693],[43.837,41.695],[43.886,41.734],[44.118,41.717],[44.148,41.725],[44.18,41.729],[44.227,41.72],[44.276,41.726],[44.336,41.748],[44.354,41.742],[44.37,41.727],[44.393,41.72],[44.463,41.722],[44.479,41.748],[44.535,41.742],[44.581,41.717],[44.628,41.686],[44.681,41.705],[44.699,41.702],[44.702,41.688],[44.716,41.674],[44.745,41.675],[44.827,41.644],[44.852,41.642],[44.876,41.638],[44.905,41.627],[44.943,41.625],[44.981,41.634],[45.009,41.666],[45,41.69],[44.984,41.681],[44.97,41.667],[44.947,41.662],[44.924,41.667],[44.907,41.673],[44.891,41.683],[44.887,41.701],[44.88,41.718],[44.861,41.732],[44.863,41.749],[44.892,41.77],[44.916,41.791],[44.928,41.819],[44.945,41.838],[44.966,41.844],[45.016,41.835],[45.066,41.837],[45.092,41.815],[45.114,41.788],[45.147,41.77],[45.185,41.767],[45.203,41.74],[45.211,41.708],[45.23,41.654],[45.196,41.595],[45.201,41.568],[45.208,41.549],[45.226,41.54],[45.258,41.538],[45.29,41.531],[45.308,41.511],[45.315,41.486],[45.324,41.474],[45.33,41.461],[45.333,41.444],[45.314,41.452],[45.282,41.453],[45.25,41.445],[45.098,41.35],[45.002,41.29]]]}},{"type":"Feature","id":"GE-MM","properties":{"id":"GE-MM","countryCode":"GE","isoSubdivision":"GE-MM","name":"Mtskheta-Mtianeti","name_en":"Mtskheta-Mtianeti","name_ko":"므츠헤타므티아네티","type":"Region","labelLongitude":44.744,"labelLatitude":42.211,"minZoom":7.7},"geometry":{"type":"Polygon","coordinates":[[[44.859,42.76],[44.903,42.753],[45.012,42.695],[45.03,42.689],[45.048,42.686],[45.067,42.688],[45.076,42.691],[45.104,42.701],[45.123,42.702],[45.155,42.693],[45.184,42.675],[45.283,42.586],[45.294,42.573],[45.302,42.56],[45.301,42.56],[45.269,42.524],[45.255,42.479],[45.258,42.448],[45.243,42.423],[45.221,42.408],[45.211,42.385],[45.224,42.345],[45.215,42.306],[45.195,42.301],[45.174,42.298],[45.148,42.281],[45.124,42.258],[45.103,42.208],[45.084,42.185],[45.069,42.128],[45.055,42.104],[45.067,42.066],[45.07,42.038],[45.088,42.006],[45.072,41.979],[45.082,41.948],[45.104,41.942],[45.128,41.94],[45.177,41.931],[45.213,41.898],[45.133,41.89],[45.078,41.917],[45.048,41.903],[45.021,41.881],[45.053,41.867],[45.066,41.837],[45.016,41.835],[44.966,41.844],[44.945,41.838],[44.928,41.819],[44.916,41.791],[44.892,41.77],[44.831,41.794],[44.805,41.795],[44.79,41.775],[44.761,41.761],[44.733,41.762],[44.712,41.728],[44.693,41.721],[44.681,41.705],[44.628,41.686],[44.581,41.717],[44.535,41.742],[44.479,41.748],[44.479,41.774],[44.498,41.791],[44.495,41.829],[44.523,41.849],[44.56,41.851],[44.573,41.879],[44.546,41.91],[44.513,41.939],[44.506,41.975],[44.497,41.997],[44.496,41.998],[44.493,42.006],[44.459,42.021],[44.387,42.033],[44.353,42.033],[44.324,42.017],[44.308,42.006],[44.294,41.997],[44.29,42.023],[44.262,42.034],[44.258,42.051],[44.266,42.069],[44.267,42.07],[44.269,42.122],[44.284,42.171],[44.296,42.179],[44.309,42.185],[44.318,42.197],[44.325,42.21],[44.345,42.222],[44.363,42.24],[44.355,42.271],[44.338,42.298],[44.341,42.329],[44.339,42.359],[44.325,42.373],[44.312,42.383],[44.307,42.398],[44.305,42.414],[44.298,42.424],[44.287,42.429],[44.302,42.465],[44.334,42.495],[44.319,42.511],[44.302,42.522],[44.268,42.566],[44.221,42.576],[44.2,42.597],[44.188,42.623],[44.186,42.627],[44.197,42.629],[44.211,42.64],[44.23,42.654],[44.249,42.682],[44.272,42.702],[44.361,42.704],[44.401,42.714],[44.479,42.744],[44.508,42.75],[44.558,42.753],[44.601,42.749],[44.639,42.74],[44.642,42.739],[44.679,42.724],[44.695,42.714],[44.724,42.691],[44.736,42.678],[44.761,42.619],[44.773,42.61],[44.782,42.617],[44.798,42.672],[44.827,42.718],[44.834,42.734],[44.859,42.76]]]}},{"type":"Feature","id":"GE-RL","properties":{"id":"GE-RL","countryCode":"GE","isoSubdivision":"GE-RL","name":"Racha-Lechkhumi and Kvemo Svaneti","name_en":"Racha-Lechkhumi and Kvemo Svaneti","name_ko":"라차레츠후미크베모스바네티","type":"Region","labelLongitude":43.13,"labelLatitude":42.63,"minZoom":7.7},"geometry":{"type":"Polygon","coordinates":[[[43.386,42.887],[43.48,42.867],[43.517,42.86],[43.586,42.836],[43.603,42.825],[43.644,42.789],[43.663,42.78],[43.756,42.763],[43.783,42.753],[43.801,42.746],[43.812,42.717],[43.789,42.693],[43.754,42.675],[43.726,42.654],[43.723,42.625],[43.751,42.599],[43.796,42.59],[43.845,42.587],[43.885,42.579],[43.908,42.566],[43.902,42.516],[43.849,42.487],[43.827,42.458],[43.808,42.451],[43.669,42.443],[43.587,42.395],[43.566,42.4],[43.565,42.401],[43.502,42.418],[43.4,42.412],[43.294,42.42],[43.199,42.384],[43.164,42.357],[43.122,42.344],[43.05,42.34],[43.002,42.359],[42.981,42.362],[42.956,42.377],[42.943,42.409],[42.893,42.444],[42.837,42.47],[42.813,42.469],[42.79,42.453],[42.764,42.454],[42.739,42.462],[42.632,42.435],[42.631,42.457],[42.623,42.476],[42.623,42.501],[42.614,42.524],[42.538,42.636],[42.565,42.678],[42.52,42.712],[42.407,42.759],[42.353,42.794],[42.377,42.828],[42.409,42.842],[42.446,42.844],[42.458,42.846],[42.469,42.852],[42.48,42.87],[42.492,42.887],[42.517,42.887],[42.542,42.878],[42.684,42.853],[42.742,42.851],[42.769,42.86],[42.781,42.867],[42.794,42.872],[42.903,42.836],[42.976,42.843],[43.038,42.826],[43.066,42.822],[43.084,42.843],[43.086,42.874],[43.108,42.89],[43.143,42.925],[43.175,42.934],[43.194,42.927],[43.386,42.887]]]}},{"type":"Feature","id":"GE-SJ","properties":{"id":"GE-SJ","countryCode":"GE","isoSubdivision":"GE-SJ","name":"Samtskhe–Javakheti","name_en":"Samtskhe–Javakheti","name_ko":"삼츠헤자바헤티","type":"Region","labelLongitude":43.23,"labelLatitude":41.515,"minZoom":7.7},"geometry":{"type":"Polygon","coordinates":[[[42.83,41.473],[42.811,41.477],[42.792,41.493],[42.767,41.504],[42.775,41.514],[42.795,41.527],[42.803,41.534],[42.807,41.543],[42.809,41.553],[42.812,41.563],[42.82,41.572],[42.801,41.579],[42.661,41.588],[42.611,41.585],[42.591,41.58],[42.587,41.579],[42.577,41.6],[42.547,41.636],[42.524,41.656],[42.498,41.674],[42.488,41.687],[42.481,41.701],[42.484,41.72],[42.495,41.733],[42.496,41.768],[42.486,41.789],[42.482,41.799],[42.531,41.803],[42.553,41.797],[42.576,41.794],[42.593,41.804],[42.602,41.822],[42.624,41.833],[42.65,41.833],[42.711,41.806],[42.817,41.826],[42.903,41.812],[42.948,41.812],[42.991,41.825],[43.094,41.832],[43.111,41.827],[43.127,41.825],[43.426,41.917],[43.454,41.918],[43.519,41.906],[43.554,41.894],[43.564,41.88],[43.569,41.864],[43.583,41.855],[43.592,41.844],[43.627,41.822],[43.657,41.818],[43.672,41.791],[43.705,41.782],[43.739,41.767],[43.777,41.772],[43.844,41.772],[43.886,41.734],[43.837,41.695],[43.777,41.693],[43.733,41.699],[43.71,41.667],[43.704,41.567],[43.694,41.543],[43.679,41.534],[43.673,41.519],[43.708,41.513],[43.752,41.515],[43.8,41.524],[43.847,41.522],[43.874,41.501],[43.892,41.472],[43.901,41.466],[43.905,41.452],[43.908,41.431],[43.908,41.409],[43.916,41.386],[43.937,41.376],[43.948,41.357],[43.951,41.335],[43.937,41.291],[43.944,41.247],[43.957,41.233],[43.967,41.217],[43.978,41.165],[43.956,41.16],[43.863,41.159],[43.82,41.146],[43.774,41.114],[43.754,41.108],[43.73,41.107],[43.567,41.124],[43.524,41.123],[43.47,41.106],[43.46,41.105],[43.45,41.105],[43.44,41.107],[43.452,41.133],[43.438,41.156],[43.411,41.175],[43.383,41.187],[43.352,41.194],[43.323,41.192],[43.231,41.173],[43.216,41.181],[43.192,41.225],[43.172,41.242],[43.152,41.244],[43.13,41.242],[43.103,41.249],[43.157,41.27],[43.172,41.279],[43.185,41.294],[43.184,41.299],[43.155,41.302],[43.124,41.313],[43.076,41.345],[43.002,41.383],[42.988,41.395],[42.958,41.437],[42.95,41.444],[42.941,41.446],[42.936,41.45],[42.932,41.455],[42.926,41.459],[42.897,41.467],[42.889,41.47],[42.881,41.481],[42.875,41.494],[42.868,41.5],[42.855,41.494],[42.83,41.473]]]}},{"type":"Feature","id":"GE-SK","properties":{"id":"GE-SK","countryCode":"GE","isoSubdivision":"GE-SK","name":"Shida Kartli","name_en":"Shida Kartli","name_ko":"시다카르틀리","type":"Region","labelLongitude":44,"labelLatitude":42.159,"minZoom":7.7},"geometry":{"type":"Polygon","coordinates":[[[43.908,42.566],[43.921,42.559],[43.94,42.552],[43.958,42.554],[43.973,42.564],[43.998,42.589],[44.012,42.6],[44.055,42.615],[44.151,42.619],[44.186,42.627],[44.188,42.623],[44.2,42.597],[44.221,42.576],[44.268,42.566],[44.302,42.522],[44.319,42.511],[44.334,42.495],[44.302,42.465],[44.287,42.429],[44.298,42.424],[44.305,42.414],[44.307,42.398],[44.312,42.383],[44.325,42.373],[44.339,42.359],[44.341,42.329],[44.338,42.298],[44.355,42.271],[44.363,42.24],[44.345,42.222],[44.325,42.21],[44.318,42.197],[44.309,42.185],[44.296,42.179],[44.284,42.171],[44.269,42.122],[44.267,42.07],[44.266,42.069],[44.258,42.051],[44.262,42.034],[44.29,42.023],[44.294,41.997],[44.308,42.006],[44.324,42.017],[44.353,42.033],[44.387,42.033],[44.459,42.021],[44.493,42.006],[44.496,41.998],[44.497,41.997],[44.506,41.975],[44.513,41.939],[44.546,41.91],[44.573,41.879],[44.56,41.851],[44.523,41.849],[44.495,41.829],[44.498,41.791],[44.479,41.774],[44.479,41.748],[44.463,41.722],[44.393,41.72],[44.37,41.727],[44.354,41.742],[44.336,41.748],[44.276,41.726],[44.227,41.72],[44.18,41.729],[44.148,41.725],[44.118,41.717],[43.886,41.734],[43.844,41.772],[43.777,41.772],[43.739,41.767],[43.705,41.782],[43.672,41.791],[43.657,41.818],[43.627,41.822],[43.592,41.844],[43.583,41.855],[43.569,41.864],[43.564,41.88],[43.554,41.894],[43.519,41.906],[43.454,41.918],[43.426,41.917],[43.433,41.955],[43.47,41.979],[43.485,42.015],[43.489,42.057],[43.517,42.078],[43.549,42.096],[43.567,42.122],[43.581,42.151],[43.596,42.161],[43.602,42.165],[43.603,42.166],[43.608,42.17],[43.614,42.196],[43.608,42.228],[43.613,42.246],[43.616,42.258],[43.636,42.269],[43.683,42.294],[43.76,42.309],[43.761,42.342],[43.773,42.374],[43.75,42.394],[43.718,42.391],[43.691,42.38],[43.662,42.374],[43.623,42.379],[43.587,42.395],[43.669,42.443],[43.808,42.451],[43.827,42.458],[43.849,42.487],[43.902,42.516],[43.908,42.566]]]}},{"type":"Feature","id":"GE-SZ","properties":{"id":"GE-SZ","countryCode":"GE","isoSubdivision":"GE-SZ","name":"Samegrelo-Zemo Svaneti","name_en":"Samegrelo-Zemo Svaneti","name_ko":"사메그렐로제모스바네티","type":"Region","labelLongitude":42.363,"labelLatitude":42.549,"minZoom":7.7},"geometry":{"type":"Polygon","coordinates":[[[42.363,43.235],[42.423,43.229],[42.48,43.201],[42.506,43.182],[42.535,43.165],[42.596,43.14],[42.615,43.137],[42.629,43.141],[42.656,43.16],[42.674,43.166],[42.705,43.166],[42.752,43.177],[42.791,43.176],[42.83,43.169],[42.858,43.155],[42.886,43.136],[42.915,43.122],[43,43.099],[43,43.085],[42.993,43.069],[42.99,43.053],[42.999,43.042],[43.048,43.017],[43.156,42.942],[43.175,42.934],[43.143,42.925],[43.108,42.89],[43.086,42.874],[43.084,42.843],[43.066,42.822],[43.038,42.826],[42.976,42.843],[42.903,42.836],[42.794,42.872],[42.781,42.867],[42.769,42.86],[42.742,42.851],[42.684,42.853],[42.542,42.878],[42.517,42.887],[42.492,42.887],[42.48,42.87],[42.469,42.852],[42.458,42.846],[42.446,42.844],[42.409,42.842],[42.377,42.828],[42.353,42.794],[42.407,42.759],[42.52,42.712],[42.565,42.678],[42.538,42.636],[42.614,42.524],[42.595,42.523],[42.577,42.52],[42.527,42.517],[42.496,42.494],[42.481,42.46],[42.466,42.45],[42.456,42.434],[42.455,42.405],[42.442,42.381],[42.371,42.321],[42.328,42.268],[42.317,42.242],[42.298,42.226],[42.288,42.184],[42.289,42.132],[42.269,42.101],[42.229,42.097],[42.176,42.117],[42.112,42.123],[42.062,42.148],[42.006,42.159],[41.882,42.143],[41.818,42.141],[41.755,42.133],[41.741,42.105],[41.737,42.086],[41.732,42.081],[41.715,42.059],[41.685,42.099],[41.674,42.106],[41.664,42.114],[41.659,42.133],[41.657,42.167],[41.649,42.212],[41.596,42.349],[41.592,42.355],[41.585,42.363],[41.558,42.383],[41.555,42.39],[41.551,42.406],[41.556,42.408],[41.58,42.417],[41.591,42.421],[41.629,42.438],[41.651,42.459],[41.665,42.471],[41.714,42.484],[41.717,42.485],[41.804,42.522],[41.882,42.579],[41.884,42.58],[41.899,42.597],[41.92,42.61],[41.938,42.618],[41.947,42.636],[41.944,42.655],[41.94,42.679],[41.912,42.715],[41.908,42.739],[41.91,42.765],[41.899,42.811],[41.892,42.82],[41.892,42.831],[41.903,42.839],[41.916,42.845],[41.931,42.861],[41.926,42.882],[41.918,42.9],[41.916,42.904],[41.911,42.927],[41.902,42.948],[41.885,42.965],[41.9,42.98],[41.908,42.987],[42.005,43],[42.057,43.017],[42.076,43.04],[42.099,43.059],[42.119,43.083],[42.133,43.111],[42.133,43.139],[42.129,43.168],[42.14,43.194],[42.154,43.217],[42.16,43.22],[42.185,43.225],[42.355,43.236],[42.363,43.235]]]}},{"type":"Feature","id":"GE-TB","properties":{"id":"GE-TB","countryCode":"GE","isoSubdivision":"GE-TB","name":"Tbilisi","name_en":"Tbilisi","name_ko":"트빌리시","type":"Independent City","labelLongitude":44.845,"labelLatitude":41.715,"minZoom":7.7},"geometry":{"type":"Polygon","coordinates":[[[44.805,41.795],[44.831,41.794],[44.892,41.77],[44.863,41.749],[44.861,41.732],[44.88,41.718],[44.887,41.701],[44.891,41.683],[44.907,41.673],[44.924,41.667],[44.947,41.662],[44.97,41.667],[44.984,41.681],[45,41.69],[45.009,41.666],[44.981,41.634],[44.943,41.625],[44.905,41.627],[44.876,41.638],[44.852,41.642],[44.827,41.644],[44.745,41.675],[44.716,41.674],[44.702,41.688],[44.699,41.702],[44.681,41.705],[44.693,41.721],[44.712,41.728],[44.733,41.762],[44.761,41.761],[44.79,41.775],[44.805,41.795]]]}}]}
