{"type":"FeatureCollection","features":[{"type":"Feature","id":"GG-X01~","properties":{"id":"GG-X01~","countryCode":"GG","isoSubdivision":"GG-X01~","name":"Sark","name_en":"Sark","name_ko":"사크","type":"Principal subdivision","labelLongitude":-2.366,"labelLatitude":49.431,"minZoom":18},"geometry":{"type":"MultiPolygon","coordinates":[[[[-2.58,49.494],[-2.56,49.499],[-2.538,49.51],[-2.518,49.516],[-2.502,49.507],[-2.506,49.498],[-2.522,49.48],[-2.527,49.458],[-2.533,49.443],[-2.533,49.439],[-2.534,49.436],[-2.542,49.431],[-2.552,49.427],[-2.559,49.427],[-2.565,49.43],[-2.573,49.431],[-2.669,49.431],[-2.673,49.433],[-2.671,49.439],[-2.663,49.444],[-2.652,49.445],[-2.657,49.459],[-2.65,49.464],[-2.638,49.464],[-2.625,49.466],[-2.58,49.494]]],[[[-2.364,49.447],[-2.356,49.44],[-2.354,49.428],[-2.365,49.418],[-2.374,49.412],[-2.378,49.413],[-2.375,49.419],[-2.373,49.424],[-2.376,49.43],[-2.375,49.435],[-2.373,49.438],[-2.37,49.442],[-2.366,49.446],[-2.364,49.447]]],[[[-2.174,49.731],[-2.17,49.729],[-2.17,49.723],[-2.188,49.711],[-2.201,49.706],[-2.217,49.703],[-2.226,49.708],[-2.218,49.719],[-2.205,49.724],[-2.195,49.725],[-2.179,49.731],[-2.174,49.731]]]]}}]}
