{"type":"FeatureCollection","features":[{"type":"Feature","id":"GH-AA","properties":{"id":"GH-AA","countryCode":"GH","isoSubdivision":"GH-AA","name":"Greater Accra","name_en":"Greater Accra","name_ko":"그레이터아크라","type":"Region","labelLongitude":0.105,"labelLatitude":5.839,"minZoom":7.7},"geometry":{"type":"Polygon","coordinates":[[[0.674,5.759],[0.365,5.781],[0.322,5.779],[0.298,5.774],[0.286,5.769],[0.281,5.763],[0.276,5.76],[0.252,5.759],[0.243,5.756],[0.224,5.743],[0.157,5.725],[0.142,5.714],[0.115,5.689],[0.076,5.678],[0.062,5.663],[0.051,5.645],[0.035,5.628],[-0.045,5.602],[-0.05,5.599],[-0.063,5.586],[-0.069,5.581],[-0.077,5.578],[-0.093,5.577],[-0.308,5.507],[-0.353,5.502],[-0.359,5.499],[-0.375,5.552],[-0.39,5.587],[-0.395,5.593],[-0.401,5.6],[-0.415,5.609],[-0.431,5.618],[-0.436,5.619],[-0.446,5.624],[-0.455,5.631],[-0.469,5.653],[-0.507,5.726],[-0.509,5.734],[-0.51,5.738],[-0.51,5.743],[-0.51,5.752],[-0.506,5.774],[-0.505,5.777],[-0.503,5.78],[-0.5,5.782],[-0.498,5.783],[-0.489,5.786],[-0.479,5.788],[-0.436,5.791],[-0.425,5.79],[-0.419,5.786],[-0.419,5.769],[-0.417,5.764],[-0.413,5.761],[-0.404,5.756],[-0.389,5.75],[-0.384,5.748],[-0.366,5.741],[-0.356,5.739],[-0.331,5.739],[-0.323,5.74],[-0.313,5.744],[-0.296,5.752],[-0.287,5.757],[-0.281,5.762],[-0.262,5.784],[-0.257,5.787],[-0.251,5.789],[-0.239,5.787],[-0.232,5.784],[-0.227,5.78],[-0.224,5.777],[-0.22,5.774],[-0.211,5.769],[-0.201,5.765],[-0.193,5.766],[-0.184,5.768],[-0.17,5.776],[-0.163,5.782],[-0.158,5.787],[-0.155,5.791],[-0.152,5.795],[-0.143,5.815],[-0.132,5.853],[-0.121,5.876],[-0.117,5.881],[-0.112,5.884],[-0.069,5.902],[-0.062,5.908],[-0.058,5.914],[-0.042,5.972],[-0.038,5.976],[-0.032,5.977],[-0.021,5.973],[-0.015,5.969],[-0.01,5.966],[-0.003,5.958],[0,5.956],[0.004,5.957],[0.012,5.959],[0.023,5.965],[0.06,5.989],[0.067,5.991],[0.079,5.994],[0.093,5.994],[0.105,5.992],[0.112,5.988],[0.115,5.984],[0.129,5.956],[0.135,5.949],[0.142,5.942],[0.15,5.936],[0.154,5.934],[0.182,5.922],[0.186,5.918],[0.189,5.914],[0.202,5.893],[0.209,5.886],[0.219,5.876],[0.223,5.873],[0.228,5.871],[0.235,5.87],[0.243,5.871],[0.248,5.873],[0.261,5.881],[0.277,5.895],[0.32,5.944],[0.328,5.959],[0.331,5.964],[0.338,5.971],[0.357,5.985],[0.374,5.995],[0.384,5.998],[0.394,6],[0.401,6],[0.402,6],[0.483,5.996],[0.561,5.979],[0.575,5.972],[0.583,5.966],[0.593,5.955],[0.628,5.86],[0.64,5.846],[0.651,5.837],[0.665,5.828],[0.686,5.82],[0.701,5.813],[0.709,5.807],[0.713,5.804],[0.716,5.801],[0.719,5.796],[0.721,5.789],[0.718,5.783],[0.715,5.779],[0.695,5.773],[0.674,5.759]]]}},{"type":"Feature","id":"GH-AH","properties":{"id":"GH-AH","countryCode":"GH","isoSubdivision":"GH-AH","name":"Ashanti","name_en":"Ashanti","name_ko":"아샨티","type":"Region","labelLongitude":-1.33,"labelLatitude":6.752,"minZoom":7.7},"geometry":{"type":"Polygon","coordinates":[[[-0.214,7.193],[-0.271,7.183],[-0.289,7.176],[-0.297,7.17],[-0.304,7.163],[-0.324,7.139],[-0.33,7.132],[-0.342,7.122],[-0.354,7.115],[-0.404,7.098],[-0.415,7.094],[-0.423,7.089],[-0.43,7.082],[-0.433,7.077],[-0.444,7.065],[-0.453,7.062],[-0.587,7.06],[-0.602,7.057],[-0.613,7.047],[-0.793,6.797],[-0.801,6.79],[-0.808,6.786],[-0.813,6.784],[-0.885,6.774],[-0.907,6.766],[-0.931,6.755],[-0.941,6.747],[-0.948,6.741],[-0.952,6.731],[-0.954,6.72],[-0.955,6.715],[-0.955,6.709],[-0.953,6.703],[-0.952,6.698],[-0.946,6.69],[-0.94,6.682],[-0.933,6.675],[-0.91,6.657],[-0.906,6.654],[-0.903,6.65],[-0.898,6.642],[-0.893,6.633],[-0.891,6.622],[-0.89,6.617],[-0.891,6.614],[-0.894,6.607],[-0.901,6.599],[-0.929,6.571],[-0.934,6.563],[-0.937,6.559],[-0.942,6.552],[-1.071,6.419],[-1.114,6.352],[-1.129,6.312],[-1.141,6.268],[-1.143,6.254],[-1.146,6.247],[-1.151,6.235],[-1.156,6.229],[-1.16,6.225],[-1.168,6.219],[-1.19,6.206],[-1.192,6.202],[-1.19,6.199],[-1.187,6.195],[-1.185,6.191],[-1.183,6.186],[-1.182,6.18],[-1.182,6.174],[-1.184,6.162],[-1.187,6.154],[-1.198,6.135],[-1.2,6.13],[-1.2,6.125],[-1.198,6.121],[-1.199,6.111],[-1.197,6.108],[-1.192,6.107],[-1.188,6.104],[-1.185,6.1],[-1.186,6.094],[-1.189,6.09],[-1.202,6.087],[-1.205,6.083],[-1.207,6.077],[-1.208,6.071],[-1.215,6.049],[-1.218,6.043],[-1.226,6.029],[-1.234,6.008],[-1.235,6.001],[-1.235,6],[-1.236,5.995],[-1.242,5.982],[-1.244,5.977],[-1.243,5.973],[-1.241,5.97],[-1.238,5.97],[-1.233,5.971],[-1.228,5.97],[-1.225,5.968],[-1.222,5.964],[-1.221,5.951],[-1.239,5.915],[-1.241,5.91],[-1.242,5.908],[-1.244,5.906],[-1.251,5.902],[-1.253,5.897],[-1.254,5.892],[-1.255,5.888],[-1.257,5.889],[-1.26,5.892],[-1.264,5.894],[-1.269,5.893],[-1.277,5.887],[-1.282,5.885],[-1.287,5.883],[-1.292,5.883],[-1.296,5.884],[-1.299,5.889],[-1.301,5.894],[-1.303,5.9],[-1.305,5.904],[-1.309,5.906],[-1.316,5.906],[-1.321,5.904],[-1.327,5.904],[-1.332,5.907],[-1.339,5.912],[-1.362,5.918],[-1.37,5.917],[-1.376,5.916],[-1.379,5.913],[-1.384,5.911],[-1.389,5.91],[-1.394,5.909],[-1.413,5.906],[-1.417,5.902],[-1.42,5.898],[-1.423,5.895],[-1.431,5.894],[-1.436,5.892],[-1.44,5.891],[-1.451,5.891],[-1.461,5.889],[-1.463,5.886],[-1.462,5.882],[-1.461,5.878],[-1.46,5.873],[-1.466,5.859],[-1.469,5.856],[-1.473,5.854],[-1.478,5.854],[-1.487,5.857],[-1.496,5.861],[-1.512,5.871],[-1.516,5.877],[-1.516,5.882],[-1.512,5.885],[-1.507,5.885],[-1.503,5.886],[-1.501,5.89],[-1.501,5.894],[-1.504,5.899],[-1.508,5.905],[-1.516,5.913],[-1.522,5.916],[-1.538,5.919],[-1.547,5.922],[-1.553,5.922],[-1.558,5.92],[-1.563,5.92],[-1.574,5.92],[-1.583,5.918],[-1.589,5.917],[-1.597,5.92],[-1.609,5.921],[-1.62,5.919],[-1.643,5.918],[-1.654,5.915],[-1.66,5.916],[-1.665,5.914],[-1.672,5.913],[-1.681,5.915],[-1.696,5.923],[-1.705,5.927],[-1.711,5.93],[-1.716,5.938],[-1.721,5.943],[-1.748,5.954],[-1.759,5.955],[-1.773,5.958],[-1.777,5.961],[-1.78,5.967],[-1.783,5.97],[-1.805,5.981],[-1.809,5.985],[-1.811,5.992],[-1.811,5.997],[-1.811,6.001],[-1.81,6.007],[-1.808,6.011],[-1.808,6.016],[-1.81,6.02],[-1.824,6.026],[-1.834,6.027],[-1.839,6.027],[-1.843,6.025],[-1.849,6.019],[-1.852,6.017],[-1.857,6.015],[-1.864,6.015],[-1.872,6.016],[-1.884,6.022],[-1.891,6.022],[-1.895,6.02],[-1.898,6.016],[-1.901,6.012],[-1.906,6.012],[-1.912,6.014],[-1.921,6.022],[-1.937,6.043],[-1.941,6.046],[-1.945,6.048],[-1.949,6.047],[-1.955,6.053],[-1.962,6.063],[-1.976,6.103],[-1.981,6.111],[-1.987,6.114],[-1.992,6.113],[-2,6.111],[-2.003,6.11],[-2.008,6.116],[-2.013,6.128],[-2.028,6.206],[-2.026,6.212],[-2.023,6.217],[-2.019,6.221],[-2.017,6.225],[-2.016,6.231],[-2.018,6.245],[-2.017,6.252],[-2.016,6.257],[-2.011,6.267],[-2.01,6.272],[-2.009,6.277],[-2.01,6.281],[-2.012,6.288],[-2.024,6.295],[-2.07,6.298],[-2.093,6.297],[-2.101,6.298],[-2.107,6.3],[-2.113,6.307],[-2.117,6.313],[-2.119,6.319],[-2.123,6.335],[-2.125,6.34],[-2.133,6.352],[-2.137,6.356],[-2.141,6.359],[-2.146,6.361],[-2.219,6.378],[-2.228,6.382],[-2.231,6.387],[-2.232,6.392],[-2.232,6.398],[-2.231,6.41],[-2.212,6.467],[-2.212,6.472],[-2.212,6.477],[-2.213,6.481],[-2.214,6.484],[-2.217,6.488],[-2.222,6.491],[-2.23,6.492],[-2.238,6.491],[-2.259,6.484],[-2.267,6.484],[-2.273,6.485],[-2.304,6.504],[-2.313,6.508],[-2.318,6.51],[-2.324,6.51],[-2.33,6.508],[-2.335,6.503],[-2.34,6.491],[-2.343,6.483],[-2.353,6.413],[-2.356,6.403],[-2.36,6.392],[-2.364,6.382],[-2.368,6.377],[-2.381,6.365],[-2.384,6.362],[-2.393,6.358],[-2.399,6.356],[-2.405,6.356],[-2.412,6.356],[-2.421,6.357],[-2.426,6.36],[-2.429,6.363],[-2.426,6.387],[-2.424,6.396],[-2.424,6.401],[-2.426,6.406],[-2.429,6.41],[-2.439,6.413],[-2.443,6.416],[-2.445,6.42],[-2.445,6.425],[-2.443,6.429],[-2.438,6.436],[-2.438,6.44],[-2.441,6.447],[-2.441,6.451],[-2.433,6.463],[-2.43,6.474],[-2.428,6.479],[-2.424,6.483],[-2.419,6.488],[-2.414,6.499],[-2.411,6.504],[-2.407,6.508],[-2.401,6.512],[-2.395,6.521],[-2.391,6.524],[-2.387,6.527],[-2.384,6.531],[-2.38,6.541],[-2.377,6.545],[-2.378,6.55],[-2.379,6.554],[-2.384,6.563],[-2.385,6.568],[-2.384,6.572],[-2.382,6.577],[-2.376,6.584],[-2.375,6.589],[-2.377,6.593],[-2.38,6.597],[-2.393,6.604],[-2.396,6.608],[-2.398,6.613],[-2.399,6.63],[-2.402,6.635],[-2.405,6.638],[-2.415,6.642],[-2.417,6.645],[-2.418,6.651],[-2.418,6.656],[-2.414,6.673],[-2.414,6.679],[-2.413,6.684],[-2.41,6.686],[-2.402,6.686],[-2.377,6.68],[-2.364,6.679],[-2.355,6.68],[-2.344,6.683],[-2.323,6.691],[-2.313,6.696],[-2.307,6.7],[-2.303,6.704],[-2.3,6.707],[-2.295,6.717],[-2.291,6.728],[-2.29,6.734],[-2.283,6.792],[-2.279,6.803],[-2.277,6.807],[-2.274,6.811],[-2.271,6.815],[-2.266,6.818],[-2.26,6.822],[-2.251,6.825],[-2.246,6.829],[-2.242,6.832],[-2.241,6.836],[-2.242,6.841],[-2.245,6.845],[-2.249,6.849],[-2.253,6.851],[-2.258,6.854],[-2.269,6.857],[-2.289,6.859],[-2.339,6.86],[-2.375,6.85],[-2.381,6.85],[-2.387,6.85],[-2.392,6.852],[-2.392,6.856],[-2.391,6.86],[-2.389,6.866],[-2.386,6.869],[-2.381,6.872],[-2.372,6.876],[-2.368,6.879],[-2.356,6.888],[-2.353,6.891],[-2.347,6.899],[-2.34,6.906],[-2.337,6.909],[-2.334,6.914],[-2.332,6.919],[-2.329,6.922],[-2.326,6.926],[-2.325,6.931],[-2.326,6.947],[-2.324,6.951],[-2.32,6.96],[-2.319,6.965],[-2.317,6.969],[-2.316,6.98],[-2.315,6.985],[-2.313,6.989],[-2.249,7.058],[-2.237,7.066],[-2.231,7.068],[-2.223,7.069],[-2.208,7.066],[-2.201,7.063],[-2.197,7.059],[-2.195,7.054],[-2.192,7.044],[-2.19,7.039],[-2.187,7.035],[-2.177,7.034],[-2.055,7.04],[-2.036,7.047],[-2.009,7.063],[-1.982,7.082],[-1.968,7.097],[-1.944,7.129],[-1.934,7.139],[-1.927,7.142],[-1.917,7.145],[-1.896,7.147],[-1.885,7.15],[-1.877,7.152],[-1.873,7.155],[-1.87,7.159],[-1.863,7.179],[-1.862,7.184],[-1.865,7.2],[-1.864,7.206],[-1.862,7.211],[-1.854,7.224],[-1.853,7.229],[-1.853,7.232],[-1.856,7.234],[-1.906,7.246],[-1.916,7.25],[-1.924,7.256],[-1.95,7.284],[-1.988,7.315],[-1.992,7.317],[-1.997,7.318],[-2,7.317],[-2.037,7.31],[-2.043,7.31],[-2.048,7.311],[-2.053,7.313],[-2.057,7.317],[-2.079,7.342],[-2.083,7.345],[-2.088,7.347],[-2.094,7.348],[-2.106,7.348],[-2.118,7.347],[-2.13,7.349],[-2.135,7.35],[-2.139,7.352],[-2.141,7.354],[-2.142,7.358],[-2.142,7.363],[-2.141,7.368],[-2.137,7.378],[-2.135,7.383],[-2.135,7.4],[-2.134,7.406],[-2.133,7.411],[-2.127,7.418],[-2.124,7.422],[-2.121,7.433],[-2.119,7.438],[-2.117,7.442],[-2.115,7.448],[-2.114,7.454],[-2.113,7.459],[-2.105,7.462],[-2.092,7.462],[-2.045,7.454],[-2.03,7.456],[-2.024,7.459],[-2.016,7.465],[-2.009,7.467],[-1.984,7.466],[-1.976,7.468],[-1.968,7.468],[-1.963,7.467],[-1.952,7.461],[-1.945,7.458],[-1.935,7.458],[-1.898,7.459],[-1.892,7.46],[-1.882,7.464],[-1.86,7.469],[-1.853,7.469],[-1.847,7.468],[-1.838,7.464],[-1.834,7.458],[-1.833,7.452],[-1.83,7.408],[-1.828,7.397],[-1.826,7.392],[-1.823,7.388],[-1.814,7.384],[-1.798,7.379],[-1.776,7.366],[-1.764,7.357],[-1.755,7.346],[-1.751,7.342],[-1.746,7.34],[-1.74,7.339],[-1.73,7.34],[-1.724,7.342],[-1.703,7.35],[-1.698,7.351],[-1.691,7.352],[-1.684,7.351],[-1.669,7.344],[-1.661,7.342],[-1.652,7.341],[-1.635,7.343],[-1.627,7.346],[-1.622,7.35],[-1.615,7.357],[-1.599,7.383],[-1.589,7.393],[-1.58,7.398],[-1.575,7.4],[-1.568,7.401],[-1.545,7.401],[-1.535,7.403],[-1.524,7.407],[-1.521,7.412],[-1.519,7.418],[-1.52,7.424],[-1.526,7.446],[-1.533,7.465],[-1.535,7.471],[-1.535,7.476],[-1.533,7.48],[-1.532,7.482],[-1.529,7.485],[-1.5,7.506],[-1.459,7.53],[-1.452,7.536],[-1.44,7.552],[-1.407,7.604],[-1.4,7.611],[-1.396,7.614],[-1.388,7.619],[-1.383,7.621],[-1.378,7.623],[-1.372,7.623],[-1.365,7.622],[-1.356,7.619],[-1.341,7.611],[-1.335,7.605],[-1.33,7.599],[-1.325,7.59],[-1.318,7.571],[-1.316,7.56],[-1.314,7.512],[-1.312,7.502],[-1.308,7.493],[-1.306,7.488],[-1.3,7.48],[-1.295,7.474],[-1.289,7.469],[-1.281,7.467],[-1.27,7.464],[-1.247,7.461],[-1.225,7.46],[-1.203,7.463],[-1.184,7.463],[-1.178,7.465],[-1.172,7.466],[-1.168,7.468],[-1.163,7.47],[-1.152,7.472],[-1.146,7.473],[-1.14,7.474],[-1.131,7.475],[-1.116,7.478],[-1.104,7.479],[-1.086,7.483],[-1.082,7.486],[-1.079,7.49],[-1.075,7.501],[-1.073,7.505],[-1.07,7.509],[-1.063,7.516],[-1.05,7.524],[-1.047,7.528],[-1.042,7.536],[-1.039,7.539],[-1.032,7.541],[-1.023,7.541],[-0.995,7.537],[-0.99,7.535],[-0.981,7.526],[-0.976,7.524],[-0.968,7.524],[-0.956,7.526],[-0.951,7.526],[-0.946,7.525],[-0.938,7.515],[-0.934,7.511],[-0.929,7.509],[-0.919,7.509],[-0.906,7.51],[-0.895,7.51],[-0.89,7.51],[-0.883,7.516],[-0.878,7.519],[-0.871,7.52],[-0.862,7.519],[-0.856,7.52],[-0.849,7.519],[-0.839,7.513],[-0.83,7.509],[-0.816,7.506],[-0.809,7.505],[-0.803,7.503],[-0.802,7.499],[-0.799,7.495],[-0.795,7.494],[-0.789,7.496],[-0.785,7.499],[-0.781,7.503],[-0.777,7.512],[-0.774,7.515],[-0.77,7.516],[-0.764,7.511],[-0.757,7.51],[-0.751,7.511],[-0.736,7.524],[-0.727,7.529],[-0.707,7.536],[-0.702,7.538],[-0.698,7.541],[-0.69,7.539],[-0.679,7.533],[-0.655,7.512],[-0.637,7.494],[-0.614,7.457],[-0.596,7.414],[-0.586,7.397],[-0.58,7.39],[-0.573,7.386],[-0.565,7.381],[-0.534,7.372],[-0.43,7.354],[-0.289,7.302],[-0.283,7.3],[-0.278,7.296],[-0.258,7.271],[-0.214,7.193]]]}},{"type":"Feature","id":"GH-BA","properties":{"id":"GH-BA","countryCode":"GH","isoSubdivision":"GH-BA","name":"Brong-Ahafo","name_en":"Brong-Ahafo","name_ko":"브롱아하포","type":"Region","labelLongitude":-1.428,"labelLatitude":8.166,"minZoom":7.7},"geometry":{"type":"Polygon","coordinates":[[[-2.572,8.163],[-2.558,8.168],[-2.513,8.194],[-2.506,8.209],[-2.552,8.489],[-2.598,8.769],[-2.603,8.785],[-2.597,8.788],[-2.594,8.784],[-2.591,8.782],[-2.583,8.781],[-2.562,8.77],[-2.522,8.726],[-2.521,8.727],[-2.517,8.728],[-2.512,8.728],[-2.508,8.726],[-2.494,8.713],[-2.465,8.658],[-2.428,8.629],[-2.419,8.606],[-2.414,8.596],[-2.39,8.581],[-2.384,8.573],[-2.382,8.562],[-2.364,8.528],[-2.37,8.509],[-2.362,8.493],[-2.35,8.478],[-2.343,8.463],[-2.339,8.456],[-2.32,8.45],[-2.316,8.442],[-2.314,8.433],[-2.302,8.411],[-2.293,8.375],[-2.285,8.313],[-2.276,8.299],[-2.262,8.29],[-2.247,8.281],[-2.233,8.268],[-2.205,8.233],[-2.174,8.217],[-2.148,8.174],[-2.131,8.158],[-2.095,8.149],[-2.051,8.15],[-1.956,8.169],[-1.952,8.172],[-1.945,8.178],[-1.929,8.205],[-1.92,8.214],[-1.908,8.232],[-1.892,8.25],[-1.871,8.26],[-1.847,8.258],[-1.807,8.238],[-1.785,8.233],[-1.766,8.239],[-1.756,8.252],[-1.753,8.27],[-1.754,8.288],[-1.77,8.325],[-1.801,8.333],[-1.84,8.33],[-1.878,8.336],[-1.889,8.345],[-1.897,8.359],[-1.902,8.376],[-1.904,8.394],[-1.907,8.402],[-1.911,8.41],[-1.913,8.419],[-1.908,8.428],[-1.894,8.445],[-1.889,8.455],[-1.885,8.466],[-1.882,8.485],[-1.885,8.545],[-1.883,8.566],[-1.879,8.587],[-1.87,8.607],[-1.857,8.624],[-1.816,8.641],[-1.742,8.618],[-1.713,8.631],[-1.7,8.634],[-1.693,8.64],[-1.69,8.644],[-1.687,8.648],[-1.684,8.659],[-1.682,8.663],[-1.679,8.667],[-1.674,8.671],[-1.667,8.674],[-1.654,8.678],[-1.646,8.678],[-1.587,8.666],[-1.577,8.666],[-1.552,8.668],[-1.541,8.671],[-1.522,8.679],[-1.513,8.684],[-1.509,8.687],[-1.506,8.691],[-1.504,8.696],[-1.498,8.725],[-1.496,8.73],[-1.494,8.735],[-1.492,8.739],[-1.488,8.743],[-1.485,8.746],[-1.469,8.757],[-1.444,8.76],[-1.39,8.762],[-1.378,8.762],[-1.367,8.759],[-1.357,8.754],[-1.353,8.751],[-1.346,8.744],[-1.343,8.741],[-1.333,8.731],[-1.319,8.719],[-1.269,8.686],[-1.26,8.682],[-1.243,8.676],[-1.222,8.672],[-1.207,8.671],[-1.185,8.671],[-1.177,8.668],[-1.172,8.664],[-1.166,8.649],[-1.161,8.627],[-1.147,8.594],[-1.143,8.578],[-1.142,8.573],[-1.142,8.567],[-1.143,8.562],[-1.147,8.552],[-1.157,8.532],[-1.163,8.525],[-1.214,8.479],[-1.22,8.472],[-1.225,8.462],[-1.227,8.457],[-1.228,8.451],[-1.228,8.418],[-1.229,8.412],[-1.231,8.407],[-1.233,8.403],[-1.236,8.399],[-1.239,8.395],[-1.247,8.389],[-1.25,8.386],[-1.257,8.379],[-1.264,8.371],[-1.266,8.367],[-1.269,8.362],[-1.27,8.357],[-1.265,8.35],[-1.254,8.34],[-1.227,8.322],[-1.213,8.305],[-1.203,8.287],[-1.096,7.991],[-1.091,7.982],[-1.084,7.977],[-1.073,7.975],[-1.067,7.971],[-1.059,7.966],[-1.054,7.965],[-1.051,7.967],[-1.046,7.976],[-1.04,7.984],[-1.031,8],[-1.029,8.002],[-1.026,8.005],[-1.022,8.007],[-1.017,8.01],[-1.013,8.013],[-1.01,8.018],[-1.008,8.024],[-1.008,8.03],[-1.008,8.054],[-1.009,8.06],[-1.01,8.065],[-1.014,8.074],[-1.025,8.091],[-1.029,8.1],[-1.031,8.111],[-1.031,8.117],[-1.03,8.123],[-1.029,8.129],[-1.027,8.134],[-1.025,8.139],[-1.022,8.143],[-1.018,8.146],[-1.013,8.149],[-1.004,8.153],[-0.972,8.16],[-0.968,8.162],[-0.96,8.168],[-0.945,8.181],[-0.939,8.189],[-0.934,8.198],[-0.918,8.239],[-0.915,8.244],[-0.912,8.247],[-0.909,8.251],[-0.901,8.257],[-0.892,8.263],[-0.882,8.267],[-0.868,8.272],[-0.863,8.274],[-0.859,8.276],[-0.852,8.283],[-0.845,8.29],[-0.833,8.306],[-0.826,8.313],[-0.823,8.316],[-0.82,8.317],[-0.817,8.319],[-0.812,8.319],[-0.806,8.32],[-0.794,8.319],[-0.775,8.316],[-0.762,8.315],[-0.752,8.316],[-0.73,8.32],[-0.707,8.322],[-0.701,8.32],[-0.695,8.319],[-0.69,8.317],[-0.683,8.311],[-0.666,8.293],[-0.655,8.278],[-0.651,8.274],[-0.648,8.27],[-0.645,8.267],[-0.642,8.263],[-0.538,8.18],[-0.483,8.147],[-0.464,8.141],[-0.424,8.135],[-0.406,8.136],[-0.395,8.139],[-0.338,8.124],[-0.318,8.115],[-0.179,8.004],[-0.167,7.989],[-0.155,7.971],[-0.112,7.871],[-0.11,7.86],[-0.105,7.824],[-0.102,7.814],[-0.1,7.809],[-0.075,7.77],[-0.067,7.762],[-0.058,7.754],[-0.048,7.75],[-0.037,7.748],[-0.015,7.744],[-0.007,7.742],[0.004,7.734],[0.01,7.727],[0.014,7.717],[0.015,7.704],[0.039,7.638],[0.105,7.526],[0.117,7.497],[0.118,7.491],[0.121,7.432],[0.123,7.423],[0.127,7.411],[0.131,7.405],[0.136,7.401],[0.173,7.382],[0.2,7.375],[0.207,7.371],[0.215,7.366],[0.227,7.356],[0.233,7.349],[0.237,7.343],[0.241,7.313],[0.241,7.3],[0.237,7.269],[0.22,7.216],[0.219,7.204],[0.219,7.199],[0.224,7.167],[0.177,7.184],[0.17,7.184],[0.163,7.184],[0.147,7.177],[0.129,7.166],[0.115,7.16],[0.109,7.159],[0.102,7.159],[0.094,7.16],[0.082,7.165],[0.06,7.176],[0.05,7.18],[0.039,7.183],[-0.214,7.193],[-0.258,7.271],[-0.278,7.296],[-0.283,7.3],[-0.289,7.302],[-0.43,7.354],[-0.534,7.372],[-0.565,7.381],[-0.573,7.386],[-0.58,7.39],[-0.586,7.397],[-0.596,7.414],[-0.614,7.457],[-0.637,7.494],[-0.655,7.512],[-0.679,7.533],[-0.69,7.539],[-0.698,7.541],[-0.702,7.538],[-0.707,7.536],[-0.727,7.529],[-0.736,7.524],[-0.751,7.511],[-0.757,7.51],[-0.764,7.511],[-0.77,7.516],[-0.774,7.515],[-0.777,7.512],[-0.781,7.503],[-0.785,7.499],[-0.789,7.496],[-0.795,7.494],[-0.799,7.495],[-0.802,7.499],[-0.803,7.503],[-0.809,7.505],[-0.816,7.506],[-0.83,7.509],[-0.839,7.513],[-0.849,7.519],[-0.856,7.52],[-0.862,7.519],[-0.871,7.52],[-0.878,7.519],[-0.883,7.516],[-0.89,7.51],[-0.895,7.51],[-0.906,7.51],[-0.919,7.509],[-0.929,7.509],[-0.934,7.511],[-0.938,7.515],[-0.946,7.525],[-0.951,7.526],[-0.956,7.526],[-0.968,7.524],[-0.976,7.524],[-0.981,7.526],[-0.99,7.535],[-0.995,7.537],[-1.023,7.541],[-1.032,7.541],[-1.039,7.539],[-1.042,7.536],[-1.047,7.528],[-1.05,7.524],[-1.063,7.516],[-1.07,7.509],[-1.073,7.505],[-1.075,7.501],[-1.079,7.49],[-1.082,7.486],[-1.086,7.483],[-1.104,7.479],[-1.116,7.478],[-1.131,7.475],[-1.14,7.474],[-1.146,7.473],[-1.152,7.472],[-1.163,7.47],[-1.168,7.468],[-1.172,7.466],[-1.178,7.465],[-1.184,7.463],[-1.203,7.463],[-1.225,7.46],[-1.247,7.461],[-1.27,7.464],[-1.281,7.467],[-1.289,7.469],[-1.295,7.474],[-1.3,7.48],[-1.306,7.488],[-1.308,7.493],[-1.312,7.502],[-1.314,7.512],[-1.316,7.56],[-1.318,7.571],[-1.325,7.59],[-1.33,7.599],[-1.335,7.605],[-1.341,7.611],[-1.356,7.619],[-1.365,7.622],[-1.372,7.623],[-1.378,7.623],[-1.383,7.621],[-1.388,7.619],[-1.396,7.614],[-1.4,7.611],[-1.407,7.604],[-1.44,7.552],[-1.452,7.536],[-1.459,7.53],[-1.5,7.506],[-1.529,7.485],[-1.532,7.482],[-1.533,7.48],[-1.535,7.476],[-1.535,7.471],[-1.533,7.465],[-1.526,7.446],[-1.52,7.424],[-1.519,7.418],[-1.521,7.412],[-1.524,7.407],[-1.535,7.403],[-1.545,7.401],[-1.568,7.401],[-1.575,7.4],[-1.58,7.398],[-1.589,7.393],[-1.599,7.383],[-1.615,7.357],[-1.622,7.35],[-1.627,7.346],[-1.635,7.343],[-1.652,7.341],[-1.661,7.342],[-1.669,7.344],[-1.684,7.351],[-1.691,7.352],[-1.698,7.351],[-1.703,7.35],[-1.724,7.342],[-1.73,7.34],[-1.74,7.339],[-1.746,7.34],[-1.751,7.342],[-1.755,7.346],[-1.764,7.357],[-1.776,7.366],[-1.798,7.379],[-1.814,7.384],[-1.823,7.388],[-1.826,7.392],[-1.828,7.397],[-1.83,7.408],[-1.833,7.452],[-1.834,7.458],[-1.838,7.464],[-1.847,7.468],[-1.853,7.469],[-1.86,7.469],[-1.882,7.464],[-1.892,7.46],[-1.898,7.459],[-1.935,7.458],[-1.945,7.458],[-1.952,7.461],[-1.963,7.467],[-1.968,7.468],[-1.976,7.468],[-1.984,7.466],[-2.009,7.467],[-2.016,7.465],[-2.024,7.459],[-2.03,7.456],[-2.045,7.454],[-2.092,7.462],[-2.105,7.462],[-2.113,7.459],[-2.114,7.454],[-2.115,7.448],[-2.117,7.442],[-2.119,7.438],[-2.121,7.433],[-2.124,7.422],[-2.127,7.418],[-2.133,7.411],[-2.134,7.406],[-2.135,7.4],[-2.135,7.383],[-2.137,7.378],[-2.141,7.368],[-2.142,7.363],[-2.142,7.358],[-2.141,7.354],[-2.139,7.352],[-2.135,7.35],[-2.13,7.349],[-2.118,7.347],[-2.106,7.348],[-2.094,7.348],[-2.088,7.347],[-2.083,7.345],[-2.079,7.342],[-2.057,7.317],[-2.053,7.313],[-2.048,7.311],[-2.043,7.31],[-2.037,7.31],[-2,7.317],[-1.997,7.318],[-1.992,7.317],[-1.988,7.315],[-1.95,7.284],[-1.924,7.256],[-1.916,7.25],[-1.906,7.246],[-1.856,7.234],[-1.853,7.232],[-1.853,7.229],[-1.854,7.224],[-1.862,7.211],[-1.864,7.206],[-1.865,7.2],[-1.862,7.184],[-1.863,7.179],[-1.87,7.159],[-1.873,7.155],[-1.877,7.152],[-1.885,7.15],[-1.896,7.147],[-1.917,7.145],[-1.927,7.142],[-1.934,7.139],[-1.944,7.129],[-1.968,7.097],[-1.982,7.082],[-2.009,7.063],[-2.036,7.047],[-2.055,7.04],[-2.177,7.034],[-2.187,7.035],[-2.19,7.039],[-2.192,7.044],[-2.195,7.054],[-2.197,7.059],[-2.201,7.063],[-2.208,7.066],[-2.223,7.069],[-2.231,7.068],[-2.237,7.066],[-2.249,7.058],[-2.313,6.989],[-2.315,6.985],[-2.316,6.98],[-2.317,6.969],[-2.319,6.965],[-2.32,6.96],[-2.324,6.951],[-2.326,6.947],[-2.325,6.931],[-2.326,6.926],[-2.329,6.922],[-2.332,6.919],[-2.334,6.914],[-2.337,6.909],[-2.34,6.906],[-2.347,6.899],[-2.353,6.891],[-2.356,6.888],[-2.368,6.879],[-2.372,6.876],[-2.381,6.872],[-2.386,6.869],[-2.389,6.866],[-2.391,6.86],[-2.392,6.856],[-2.392,6.852],[-2.387,6.85],[-2.381,6.85],[-2.375,6.85],[-2.339,6.86],[-2.289,6.859],[-2.269,6.857],[-2.258,6.854],[-2.253,6.851],[-2.249,6.849],[-2.245,6.845],[-2.242,6.841],[-2.241,6.836],[-2.242,6.832],[-2.246,6.829],[-2.251,6.825],[-2.26,6.822],[-2.266,6.818],[-2.271,6.815],[-2.274,6.811],[-2.277,6.807],[-2.279,6.803],[-2.283,6.792],[-2.29,6.734],[-2.291,6.728],[-2.295,6.717],[-2.3,6.707],[-2.303,6.704],[-2.307,6.7],[-2.313,6.696],[-2.323,6.691],[-2.344,6.683],[-2.355,6.68],[-2.364,6.679],[-2.377,6.68],[-2.402,6.686],[-2.41,6.686],[-2.413,6.684],[-2.414,6.679],[-2.414,6.673],[-2.418,6.656],[-2.418,6.651],[-2.417,6.645],[-2.415,6.642],[-2.405,6.638],[-2.402,6.635],[-2.399,6.63],[-2.398,6.613],[-2.396,6.608],[-2.393,6.604],[-2.38,6.597],[-2.377,6.593],[-2.375,6.589],[-2.376,6.584],[-2.382,6.577],[-2.384,6.572],[-2.385,6.568],[-2.384,6.563],[-2.379,6.554],[-2.378,6.55],[-2.377,6.545],[-2.38,6.541],[-2.384,6.531],[-2.387,6.527],[-2.391,6.524],[-2.395,6.521],[-2.401,6.512],[-2.407,6.508],[-2.411,6.504],[-2.414,6.499],[-2.419,6.488],[-2.424,6.483],[-2.428,6.479],[-2.43,6.474],[-2.433,6.463],[-2.441,6.451],[-2.441,6.447],[-2.438,6.44],[-2.438,6.436],[-2.443,6.429],[-2.445,6.425],[-2.445,6.42],[-2.443,6.416],[-2.439,6.413],[-2.429,6.41],[-2.426,6.406],[-2.424,6.401],[-2.424,6.396],[-2.426,6.387],[-2.434,6.387],[-2.443,6.392],[-2.456,6.401],[-2.467,6.407],[-2.472,6.409],[-2.478,6.41],[-2.505,6.411],[-2.511,6.412],[-2.517,6.415],[-2.521,6.419],[-2.566,6.513],[-2.57,6.518],[-2.576,6.522],[-2.587,6.527],[-2.607,6.533],[-2.612,6.535],[-2.617,6.538],[-2.622,6.542],[-2.627,6.55],[-2.631,6.56],[-2.636,6.58],[-2.639,6.586],[-2.646,6.591],[-2.659,6.597],[-2.668,6.6],[-2.677,6.601],[-2.714,6.598],[-2.727,6.598],[-2.738,6.601],[-2.743,6.603],[-2.782,6.633],[-2.791,6.637],[-2.818,6.644],[-2.823,6.647],[-2.827,6.65],[-2.83,6.655],[-2.83,6.662],[-2.831,6.67],[-2.833,6.68],[-2.84,6.696],[-2.843,6.706],[-2.844,6.715],[-2.843,6.721],[-2.842,6.726],[-2.833,6.745],[-2.832,6.751],[-2.833,6.756],[-2.836,6.767],[-2.838,6.771],[-2.839,6.777],[-2.84,6.782],[-2.841,6.8],[-2.842,6.806],[-2.858,6.84],[-2.863,6.862],[-2.887,6.905],[-2.898,6.918],[-2.912,6.931],[-2.943,6.948],[-2.958,6.954],[-2.969,6.956],[-2.98,6.954],[-3.017,6.939],[-3.023,6.937],[-3.028,6.937],[-3.041,6.938],[-3.047,6.941],[-3.053,6.944],[-3.061,6.95],[-3.065,6.955],[-3.069,6.959],[-3.079,6.978],[-3.086,6.998],[-3.096,7.051],[-3.097,7.054],[-3.095,7.055],[-3.046,7.071],[-3.041,7.078],[-3.033,7.128],[-3.028,7.138],[-2.982,7.196],[-2.973,7.215],[-2.972,7.229],[-2.977,7.237],[-2.983,7.245],[-2.99,7.259],[-2.99,7.271],[-2.942,7.577],[-2.928,7.618],[-2.856,7.772],[-2.852,7.778],[-2.842,7.79],[-2.838,7.797],[-2.838,7.802],[-2.841,7.815],[-2.84,7.82],[-2.831,7.828],[-2.809,7.842],[-2.801,7.85],[-2.798,7.861],[-2.794,7.936],[-2.791,7.943],[-2.784,7.944],[-2.778,7.94],[-2.773,7.934],[-2.771,7.931],[-2.755,7.944],[-2.709,7.997],[-2.691,8.01],[-2.631,8.03],[-2.611,8.04],[-2.601,8.053],[-2.6,8.07],[-2.606,8.094],[-2.619,8.123],[-2.622,8.136],[-2.618,8.151],[-2.611,8.165],[-2.604,8.171],[-2.596,8.17],[-2.583,8.164],[-2.572,8.163]]]}},{"type":"Feature","id":"GH-CP","properties":{"id":"GH-CP","countryCode":"GH","isoSubdivision":"GH-CP","name":"Central","name_en":"Central","name_ko":"중앙","type":"Region","labelLongitude":-1.266,"labelLatitude":5.495,"minZoom":7.7},"geometry":{"type":"Polygon","coordinates":[[[-0.359,5.499],[-0.372,5.493],[-0.445,5.431],[-0.453,5.42],[-0.458,5.405],[-0.472,5.391],[-0.507,5.369],[-0.577,5.352],[-0.589,5.352],[-0.597,5.344],[-0.613,5.332],[-0.629,5.327],[-0.638,5.341],[-0.69,5.305],[-0.702,5.3],[-0.761,5.252],[-0.784,5.224],[-0.8,5.215],[-0.874,5.204],[-0.897,5.205],[-0.911,5.218],[-0.918,5.209],[-0.928,5.206],[-0.952,5.204],[-0.977,5.198],[-0.988,5.199],[-0.993,5.208],[-0.997,5.217],[-1.005,5.215],[-1.017,5.204],[-1.034,5.203],[-1.05,5.199],[-1.154,5.154],[-1.165,5.139],[-1.174,5.131],[-1.194,5.119],[-1.234,5.101],[-1.254,5.097],[-1.319,5.095],[-1.33,5.092],[-1.353,5.078],[-1.364,5.073],[-1.374,5.073],[-1.395,5.074],[-1.405,5.073],[-1.423,5.067],[-1.46,5.05],[-1.529,5.04],[-1.552,5.031],[-1.569,5.019],[-1.577,5.084],[-1.577,5.095],[-1.573,5.119],[-1.57,5.131],[-1.565,5.141],[-1.546,5.177],[-1.54,5.185],[-1.536,5.188],[-1.532,5.191],[-1.527,5.193],[-1.523,5.195],[-1.513,5.198],[-1.508,5.198],[-1.494,5.198],[-1.488,5.199],[-1.483,5.2],[-1.479,5.201],[-1.475,5.204],[-1.471,5.207],[-1.467,5.21],[-1.455,5.225],[-1.425,5.248],[-1.422,5.252],[-1.421,5.257],[-1.424,5.265],[-1.435,5.277],[-1.441,5.283],[-1.482,5.309],[-1.514,5.338],[-1.527,5.353],[-1.53,5.359],[-1.534,5.366],[-1.541,5.388],[-1.544,5.396],[-1.549,5.402],[-1.557,5.41],[-1.563,5.414],[-1.569,5.417],[-1.579,5.421],[-1.588,5.427],[-1.591,5.43],[-1.607,5.45],[-1.614,5.467],[-1.617,5.479],[-1.617,5.485],[-1.617,5.491],[-1.615,5.502],[-1.611,5.513],[-1.609,5.518],[-1.606,5.521],[-1.602,5.523],[-1.597,5.525],[-1.593,5.527],[-1.59,5.531],[-1.585,5.539],[-1.583,5.543],[-1.584,5.548],[-1.585,5.553],[-1.595,5.567],[-1.607,5.581],[-1.621,5.592],[-1.639,5.602],[-1.648,5.606],[-1.659,5.61],[-1.671,5.612],[-1.695,5.612],[-1.701,5.613],[-1.706,5.615],[-1.711,5.618],[-1.722,5.627],[-1.727,5.63],[-1.732,5.632],[-1.738,5.633],[-1.744,5.633],[-1.756,5.632],[-1.766,5.629],[-1.8,5.616],[-1.805,5.615],[-1.81,5.615],[-1.815,5.62],[-1.819,5.629],[-1.823,5.649],[-1.823,5.66],[-1.822,5.669],[-1.816,5.685],[-1.81,5.706],[-1.809,5.717],[-1.81,5.737],[-1.809,5.743],[-1.807,5.749],[-1.805,5.753],[-1.802,5.757],[-1.795,5.764],[-1.792,5.767],[-1.792,5.773],[-1.794,5.779],[-1.801,5.784],[-1.814,5.79],[-1.818,5.794],[-1.82,5.8],[-1.821,5.811],[-1.82,5.826],[-1.816,5.844],[-1.815,5.85],[-1.818,5.859],[-1.823,5.87],[-1.836,5.888],[-1.844,5.897],[-1.85,5.902],[-1.855,5.904],[-1.879,5.91],[-1.884,5.912],[-1.888,5.915],[-1.906,5.929],[-1.91,5.932],[-1.912,5.935],[-1.958,6],[-1.977,6.02],[-1.981,6.023],[-1.985,6.026],[-2,6.034],[-2.031,6.047],[-2.036,6.049],[-2.039,6.052],[-2.043,6.056],[-2.053,6.083],[-2.057,6.089],[-2.067,6.1],[-2.075,6.105],[-2.096,6.112],[-2.101,6.113],[-2.109,6.116],[-2.125,6.124],[-2.155,6.143],[-2.159,6.147],[-2.166,6.16],[-2.169,6.168],[-2.171,6.174],[-2.172,6.187],[-2.171,6.2],[-2.169,6.212],[-2.168,6.217],[-2.163,6.223],[-2.155,6.229],[-2.138,6.238],[-2.111,6.249],[-2.099,6.258],[-2.082,6.273],[-2.075,6.283],[-2.07,6.298],[-2.024,6.295],[-2.012,6.288],[-2.01,6.281],[-2.009,6.277],[-2.01,6.272],[-2.011,6.267],[-2.016,6.257],[-2.017,6.252],[-2.018,6.245],[-2.016,6.231],[-2.017,6.225],[-2.019,6.221],[-2.023,6.217],[-2.026,6.212],[-2.028,6.206],[-2.013,6.128],[-2.008,6.116],[-2.003,6.11],[-2,6.111],[-1.992,6.113],[-1.987,6.114],[-1.981,6.111],[-1.976,6.103],[-1.962,6.063],[-1.955,6.053],[-1.949,6.047],[-1.945,6.048],[-1.941,6.046],[-1.937,6.043],[-1.921,6.022],[-1.912,6.014],[-1.906,6.012],[-1.901,6.012],[-1.898,6.016],[-1.895,6.02],[-1.891,6.022],[-1.884,6.022],[-1.872,6.016],[-1.864,6.015],[-1.857,6.015],[-1.852,6.017],[-1.849,6.019],[-1.843,6.025],[-1.839,6.027],[-1.834,6.027],[-1.824,6.026],[-1.81,6.02],[-1.808,6.016],[-1.808,6.011],[-1.81,6.007],[-1.811,6.001],[-1.811,5.997],[-1.811,5.992],[-1.809,5.985],[-1.805,5.981],[-1.783,5.97],[-1.78,5.967],[-1.777,5.961],[-1.773,5.958],[-1.759,5.955],[-1.748,5.954],[-1.721,5.943],[-1.716,5.938],[-1.711,5.93],[-1.705,5.927],[-1.696,5.923],[-1.681,5.915],[-1.672,5.913],[-1.665,5.914],[-1.66,5.916],[-1.654,5.915],[-1.643,5.918],[-1.62,5.919],[-1.609,5.921],[-1.597,5.92],[-1.589,5.917],[-1.583,5.918],[-1.574,5.92],[-1.563,5.92],[-1.558,5.92],[-1.553,5.922],[-1.547,5.922],[-1.538,5.919],[-1.522,5.916],[-1.516,5.913],[-1.508,5.905],[-1.504,5.899],[-1.501,5.894],[-1.501,5.89],[-1.503,5.886],[-1.507,5.885],[-1.512,5.885],[-1.516,5.882],[-1.516,5.877],[-1.512,5.871],[-1.496,5.861],[-1.487,5.857],[-1.478,5.854],[-1.473,5.854],[-1.469,5.856],[-1.466,5.859],[-1.46,5.873],[-1.461,5.878],[-1.462,5.882],[-1.463,5.886],[-1.461,5.889],[-1.451,5.891],[-1.44,5.891],[-1.436,5.892],[-1.431,5.894],[-1.423,5.895],[-1.42,5.898],[-1.417,5.902],[-1.413,5.906],[-1.394,5.909],[-1.389,5.91],[-1.384,5.911],[-1.379,5.913],[-1.376,5.916],[-1.37,5.917],[-1.362,5.918],[-1.339,5.912],[-1.332,5.907],[-1.327,5.904],[-1.321,5.904],[-1.316,5.906],[-1.309,5.906],[-1.305,5.904],[-1.303,5.9],[-1.301,5.894],[-1.299,5.889],[-1.296,5.884],[-1.292,5.883],[-1.287,5.883],[-1.282,5.885],[-1.277,5.887],[-1.269,5.893],[-1.264,5.894],[-1.26,5.892],[-1.257,5.889],[-1.255,5.888],[-1.254,5.892],[-1.253,5.897],[-1.251,5.902],[-1.244,5.906],[-1.242,5.908],[-1.241,5.91],[-1.239,5.915],[-1.207,5.898],[-1.177,5.887],[-1.173,5.883],[-1.17,5.878],[-1.139,5.811],[-1.124,5.786],[-1.119,5.78],[-1.116,5.778],[-1.11,5.777],[-1.101,5.776],[-1.015,5.777],[-1.008,5.776],[-0.998,5.774],[-0.983,5.769],[-0.976,5.765],[-0.966,5.758],[-0.959,5.756],[-0.95,5.755],[-0.925,5.758],[-0.913,5.761],[-0.902,5.762],[-0.882,5.76],[-0.785,5.739],[-0.78,5.737],[-0.769,5.734],[-0.747,5.734],[-0.578,5.748],[-0.551,5.743],[-0.507,5.726],[-0.469,5.653],[-0.455,5.631],[-0.446,5.624],[-0.436,5.619],[-0.431,5.618],[-0.415,5.609],[-0.401,5.6],[-0.395,5.593],[-0.39,5.587],[-0.375,5.552],[-0.359,5.499]]]}},{"type":"Feature","id":"GH-EP","properties":{"id":"GH-EP","countryCode":"GH","isoSubdivision":"GH-EP","name":"Eastern","name_en":"Eastern","name_ko":"동부","type":"Region","labelLongitude":-0.46,"labelLatitude":6.426,"minZoom":7.7},"geometry":{"type":"Polygon","coordinates":[[[-1.238,5.97],[-1.241,5.97],[-1.243,5.973],[-1.244,5.977],[-1.242,5.982],[-1.236,5.995],[-1.235,6],[-1.235,6.001],[-1.234,6.008],[-1.226,6.029],[-1.218,6.043],[-1.215,6.049],[-1.208,6.071],[-1.207,6.077],[-1.205,6.083],[-1.202,6.087],[-1.189,6.09],[-1.186,6.094],[-1.185,6.1],[-1.188,6.104],[-1.192,6.107],[-1.197,6.108],[-1.199,6.111],[-1.198,6.121],[-1.2,6.125],[-1.2,6.13],[-1.198,6.135],[-1.187,6.154],[-1.184,6.162],[-1.182,6.174],[-1.182,6.18],[-1.183,6.186],[-1.185,6.191],[-1.187,6.195],[-1.19,6.199],[-1.192,6.202],[-1.19,6.206],[-1.168,6.219],[-1.16,6.225],[-1.156,6.229],[-1.151,6.235],[-1.146,6.247],[-1.143,6.254],[-1.141,6.268],[-1.129,6.312],[-1.114,6.352],[-1.071,6.419],[-0.942,6.552],[-0.937,6.559],[-0.934,6.563],[-0.929,6.571],[-0.901,6.599],[-0.894,6.607],[-0.891,6.614],[-0.89,6.617],[-0.891,6.622],[-0.893,6.633],[-0.898,6.642],[-0.903,6.65],[-0.906,6.654],[-0.91,6.657],[-0.933,6.675],[-0.94,6.682],[-0.946,6.69],[-0.952,6.698],[-0.953,6.703],[-0.955,6.709],[-0.955,6.715],[-0.954,6.72],[-0.952,6.731],[-0.948,6.741],[-0.941,6.747],[-0.931,6.755],[-0.907,6.766],[-0.885,6.774],[-0.813,6.784],[-0.808,6.786],[-0.801,6.79],[-0.793,6.797],[-0.613,7.047],[-0.602,7.057],[-0.587,7.06],[-0.453,7.062],[-0.444,7.065],[-0.433,7.077],[-0.43,7.082],[-0.423,7.089],[-0.415,7.094],[-0.404,7.098],[-0.354,7.115],[-0.342,7.122],[-0.33,7.132],[-0.324,7.139],[-0.304,7.163],[-0.297,7.17],[-0.289,7.176],[-0.271,7.183],[-0.214,7.193],[0.039,7.183],[0.05,7.18],[0.06,7.176],[0.082,7.165],[0.094,7.16],[0.102,7.159],[0.109,7.159],[0.115,7.16],[0.129,7.166],[0.147,7.177],[0.163,7.184],[0.17,7.184],[0.177,7.184],[0.224,7.167],[0.228,7.114],[0.225,7.096],[0.223,7.092],[0.215,7.075],[0.209,7.055],[0.207,7.043],[0.207,7.035],[0.209,7.03],[0.213,7.007],[0.215,6.978],[0.214,6.963],[0.212,6.952],[0.21,6.947],[0.201,6.935],[0.187,6.922],[0.184,6.919],[0.166,6.902],[0.161,6.894],[0.156,6.882],[0.146,6.856],[0.144,6.843],[0.143,6.833],[0.146,6.823],[0.151,6.814],[0.154,6.81],[0.158,6.807],[0.162,6.804],[0.177,6.799],[0.187,6.794],[0.194,6.788],[0.201,6.781],[0.206,6.773],[0.21,6.763],[0.216,6.72],[0.216,6.709],[0.214,6.701],[0.211,6.697],[0.207,6.694],[0.168,6.671],[0.164,6.668],[0.15,6.654],[0.147,6.651],[0.144,6.647],[0.141,6.643],[0.138,6.64],[0.135,6.636],[0.13,6.624],[0.114,6.565],[0.111,6.547],[0.111,6.534],[0.114,6.53],[0.119,6.529],[0.148,6.531],[0.154,6.53],[0.158,6.529],[0.163,6.526],[0.166,6.522],[0.169,6.518],[0.172,6.508],[0.176,6.484],[0.177,6.479],[0.179,6.474],[0.184,6.466],[0.191,6.459],[0.204,6.451],[0.208,6.446],[0.213,6.44],[0.217,6.426],[0.217,6.416],[0.217,6.408],[0.188,6.321],[0.185,6.316],[0.18,6.308],[0.177,6.304],[0.174,6.301],[0.158,6.289],[0.141,6.279],[0.096,6.262],[0.091,6.256],[0.097,6.246],[0.104,6.227],[0.106,6.209],[0.101,6.196],[0.094,6.183],[0.09,6.165],[0.091,6.148],[0.097,6.138],[0.145,6.103],[0.162,6.097],[0.231,6.099],[0.248,6.096],[0.261,6.089],[0.282,6.071],[0.317,6.051],[0.321,6.044],[0.323,6.036],[0.32,5.944],[0.277,5.895],[0.261,5.881],[0.248,5.873],[0.243,5.871],[0.235,5.87],[0.228,5.871],[0.223,5.873],[0.219,5.876],[0.209,5.886],[0.202,5.893],[0.189,5.914],[0.186,5.918],[0.182,5.922],[0.154,5.934],[0.15,5.936],[0.142,5.942],[0.135,5.949],[0.129,5.956],[0.115,5.984],[0.112,5.988],[0.105,5.992],[0.093,5.994],[0.079,5.994],[0.067,5.991],[0.06,5.989],[0.023,5.965],[0.012,5.959],[0.004,5.957],[0,5.956],[-0.003,5.958],[-0.01,5.966],[-0.015,5.969],[-0.021,5.973],[-0.032,5.977],[-0.038,5.976],[-0.042,5.972],[-0.058,5.914],[-0.062,5.908],[-0.069,5.902],[-0.112,5.884],[-0.117,5.881],[-0.121,5.876],[-0.132,5.853],[-0.143,5.815],[-0.152,5.795],[-0.155,5.791],[-0.158,5.787],[-0.163,5.782],[-0.17,5.776],[-0.184,5.768],[-0.193,5.766],[-0.201,5.765],[-0.211,5.769],[-0.22,5.774],[-0.224,5.777],[-0.227,5.78],[-0.232,5.784],[-0.239,5.787],[-0.251,5.789],[-0.257,5.787],[-0.262,5.784],[-0.281,5.762],[-0.287,5.757],[-0.296,5.752],[-0.313,5.744],[-0.323,5.74],[-0.331,5.739],[-0.356,5.739],[-0.366,5.741],[-0.384,5.748],[-0.389,5.75],[-0.404,5.756],[-0.413,5.761],[-0.417,5.764],[-0.419,5.769],[-0.419,5.786],[-0.425,5.79],[-0.436,5.791],[-0.479,5.788],[-0.489,5.786],[-0.498,5.783],[-0.5,5.782],[-0.503,5.78],[-0.505,5.777],[-0.506,5.774],[-0.51,5.752],[-0.51,5.743],[-0.51,5.738],[-0.509,5.734],[-0.507,5.726],[-0.551,5.743],[-0.578,5.748],[-0.747,5.734],[-0.769,5.734],[-0.78,5.737],[-0.785,5.739],[-0.882,5.76],[-0.902,5.762],[-0.913,5.761],[-0.925,5.758],[-0.95,5.755],[-0.959,5.756],[-0.966,5.758],[-0.976,5.765],[-0.983,5.769],[-0.998,5.774],[-1.008,5.776],[-1.015,5.777],[-1.101,5.776],[-1.11,5.777],[-1.116,5.778],[-1.119,5.78],[-1.124,5.786],[-1.139,5.811],[-1.17,5.878],[-1.173,5.883],[-1.177,5.887],[-1.207,5.898],[-1.239,5.915],[-1.221,5.951],[-1.222,5.964],[-1.225,5.968],[-1.228,5.97],[-1.233,5.971],[-1.238,5.97]]]}},{"type":"Feature","id":"GH-NP","properties":{"id":"GH-NP","countryCode":"GH","isoSubdivision":"GH-NP","name":"Northern","name_en":"Northern","name_ko":"북부","type":"Region","labelLongitude":-1.119,"labelLatitude":9.273,"minZoom":7.7},"geometry":{"type":"Polygon","coordinates":[[[-0.092,10.7],[-0.098,10.675],[-0.098,10.654],[-0.088,10.633],[-0.079,10.626],[-0.068,10.621],[-0.056,10.618],[-0.033,10.615],[-0.026,10.61],[-0.02,10.604],[-0.011,10.598],[0.02,10.588],[0.029,10.583],[0.037,10.573],[0.049,10.551],[0.057,10.541],[0.11,10.508],[0.126,10.492],[0.177,10.398],[0.18,10.394],[0.188,10.395],[0.192,10.401],[0.194,10.407],[0.197,10.41],[0.224,10.4],[0.233,10.399],[0.245,10.402],[0.254,10.406],[0.263,10.409],[0.273,10.407],[0.283,10.397],[0.284,10.386],[0.28,10.375],[0.279,10.367],[0.29,10.348],[0.307,10.333],[0.318,10.317],[0.309,10.297],[0.323,10.297],[0.367,10.304],[0.376,10.3],[0.397,10.283],[0.372,10.265],[0.367,10.25],[0.364,10.233],[0.357,10.22],[0.359,10.186],[0.354,10.116],[0.363,10.09],[0.376,10.082],[0.387,10.079],[0.395,10.072],[0.398,10.052],[0.395,10.036],[0.394,10.032],[0.383,10.03],[0.367,10.032],[0.35,10.029],[0.356,10.019],[0.355,10.013],[0.352,10.006],[0.35,9.997],[0.351,9.99],[0.363,9.967],[0.37,9.947],[0.37,9.939],[0.363,9.933],[0.35,9.919],[0.342,9.904],[0.34,9.89],[0.344,9.85],[0.344,9.838],[0.322,9.761],[0.324,9.742],[0.329,9.731],[0.336,9.723],[0.343,9.714],[0.348,9.699],[0.35,9.681],[0.347,9.663],[0.337,9.651],[0.319,9.649],[0.302,9.658],[0.275,9.686],[0.261,9.657],[0.262,9.628],[0.278,9.607],[0.309,9.604],[0.349,9.614],[0.369,9.61],[0.378,9.589],[0.371,9.576],[0.355,9.571],[0.336,9.574],[0.322,9.583],[0.305,9.572],[0.281,9.57],[0.23,9.576],[0.228,9.569],[0.223,9.541],[0.223,9.535],[0.226,9.532],[0.233,9.526],[0.243,9.519],[0.254,9.514],[0.279,9.519],[0.293,9.518],[0.302,9.507],[0.298,9.497],[0.285,9.488],[0.27,9.482],[0.228,9.474],[0.228,9.46],[0.235,9.444],[0.227,9.432],[0.231,9.419],[0.25,9.417],[0.268,9.421],[0.314,9.436],[0.322,9.443],[0.326,9.451],[0.329,9.472],[0.334,9.479],[0.349,9.486],[0.371,9.49],[0.412,9.492],[0.43,9.489],[0.484,9.47],[0.49,9.461],[0.492,9.451],[0.489,9.441],[0.483,9.43],[0.483,9.429],[0.483,9.428],[0.484,9.427],[0.513,9.417],[0.531,9.401],[0.538,9.378],[0.528,9.327],[0.527,9.298],[0.522,9.285],[0.512,9.275],[0.501,9.268],[0.493,9.259],[0.492,9.239],[0.504,9.203],[0.505,9.187],[0.493,9.167],[0.47,9.147],[0.464,9.137],[0.464,9.121],[0.458,9.089],[0.442,9.058],[0.431,9.028],[0.445,8.997],[0.445,8.996],[0.493,8.915],[0.506,8.866],[0.484,8.835],[0.478,8.822],[0.477,8.807],[0.473,8.794],[0.462,8.788],[0.45,8.79],[0.439,8.793],[0.43,8.795],[0.42,8.791],[0.425,8.787],[0.418,8.771],[0.408,8.759],[0.397,8.782],[0.385,8.786],[0.373,8.784],[0.366,8.774],[0.368,8.761],[0.367,8.761],[0.328,8.767],[0.322,8.766],[0.29,8.76],[0.284,8.76],[0.278,8.76],[0.272,8.76],[0.267,8.762],[0.243,8.776],[0.238,8.777],[0.233,8.778],[0.227,8.778],[0.217,8.776],[0.193,8.766],[0.189,8.763],[0.186,8.759],[0.184,8.753],[0.183,8.747],[0.187,8.743],[0.19,8.739],[0.192,8.734],[0.192,8.728],[0.187,8.72],[0.18,8.703],[0.172,8.687],[0.152,8.661],[0.148,8.653],[0.147,8.646],[0.148,8.64],[0.149,8.635],[0.151,8.631],[0.157,8.622],[0.168,8.612],[0.171,8.609],[0.174,8.604],[0.175,8.599],[0.174,8.593],[0.17,8.588],[0.162,8.585],[0.155,8.585],[0.149,8.587],[0.14,8.592],[0.136,8.593],[0.13,8.591],[0.124,8.587],[0.113,8.57],[0.106,8.555],[0.095,8.524],[0.094,8.518],[0.093,8.513],[0.093,8.507],[0.095,8.502],[0.097,8.498],[0.101,8.495],[0.12,8.486],[0.124,8.483],[0.126,8.478],[0.127,8.473],[0.124,8.468],[0.12,8.464],[0.109,8.461],[0.102,8.459],[0.096,8.456],[0.092,8.452],[0.09,8.443],[0.09,8.437],[0.094,8.427],[0.096,8.416],[0.096,8.41],[0.094,8.399],[0.095,8.394],[0.097,8.391],[0.101,8.388],[0.106,8.386],[0.116,8.383],[0.128,8.381],[0.133,8.382],[0.156,8.385],[0.178,8.39],[0.208,8.394],[0.214,8.394],[0.22,8.392],[0.225,8.39],[0.229,8.387],[0.233,8.384],[0.243,8.367],[0.245,8.362],[0.247,8.351],[0.246,8.345],[0.245,8.339],[0.241,8.335],[0.235,8.333],[0.204,8.331],[0.198,8.33],[0.193,8.327],[0.19,8.32],[0.189,8.314],[0.196,8.274],[0.198,8.27],[0.199,8.265],[0.199,8.26],[0.198,8.254],[0.188,8.248],[0.172,8.244],[0.132,8.239],[0.114,8.239],[0.103,8.24],[0.091,8.249],[0.069,8.27],[0.06,8.281],[0.046,8.295],[0.011,8.318],[-0.005,8.324],[-0.027,8.331],[-0.051,8.336],[-0.072,8.335],[-0.116,8.32],[-0.124,8.315],[-0.134,8.308],[-0.149,8.295],[-0.154,8.287],[-0.155,8.28],[-0.155,8.275],[-0.154,8.269],[-0.155,8.263],[-0.166,8.246],[-0.168,8.24],[-0.171,8.236],[-0.179,8.234],[-0.185,8.23],[-0.189,8.223],[-0.196,8.217],[-0.203,8.211],[-0.22,8.208],[-0.23,8.208],[-0.238,8.209],[-0.243,8.211],[-0.267,8.222],[-0.272,8.223],[-0.279,8.223],[-0.313,8.212],[-0.323,8.211],[-0.33,8.211],[-0.341,8.213],[-0.347,8.21],[-0.354,8.204],[-0.374,8.16],[-0.395,8.139],[-0.406,8.136],[-0.424,8.135],[-0.464,8.141],[-0.483,8.147],[-0.538,8.18],[-0.642,8.263],[-0.645,8.267],[-0.648,8.27],[-0.651,8.274],[-0.655,8.278],[-0.666,8.293],[-0.683,8.311],[-0.69,8.317],[-0.695,8.319],[-0.701,8.32],[-0.707,8.322],[-0.73,8.32],[-0.752,8.316],[-0.762,8.315],[-0.775,8.316],[-0.794,8.319],[-0.806,8.32],[-0.812,8.319],[-0.817,8.319],[-0.82,8.317],[-0.823,8.316],[-0.826,8.313],[-0.833,8.306],[-0.845,8.29],[-0.852,8.283],[-0.859,8.276],[-0.863,8.274],[-0.868,8.272],[-0.882,8.267],[-0.892,8.263],[-0.901,8.257],[-0.909,8.251],[-0.912,8.247],[-0.915,8.244],[-0.918,8.239],[-0.934,8.198],[-0.939,8.189],[-0.945,8.181],[-0.96,8.168],[-0.968,8.162],[-0.972,8.16],[-1.004,8.153],[-1.013,8.149],[-1.018,8.146],[-1.022,8.143],[-1.025,8.139],[-1.027,8.134],[-1.029,8.129],[-1.03,8.123],[-1.031,8.117],[-1.031,8.111],[-1.029,8.1],[-1.025,8.091],[-1.014,8.074],[-1.01,8.065],[-1.009,8.06],[-1.008,8.054],[-1.008,8.03],[-1.008,8.024],[-1.01,8.018],[-1.013,8.013],[-1.017,8.01],[-1.022,8.007],[-1.026,8.005],[-1.029,8.002],[-1.031,8],[-1.04,7.984],[-1.046,7.976],[-1.051,7.967],[-1.054,7.965],[-1.059,7.966],[-1.067,7.971],[-1.073,7.975],[-1.084,7.977],[-1.091,7.982],[-1.096,7.991],[-1.203,8.287],[-1.213,8.305],[-1.227,8.322],[-1.254,8.34],[-1.265,8.35],[-1.27,8.357],[-1.269,8.362],[-1.266,8.367],[-1.264,8.371],[-1.257,8.379],[-1.25,8.386],[-1.247,8.389],[-1.239,8.395],[-1.236,8.399],[-1.233,8.403],[-1.231,8.407],[-1.229,8.412],[-1.228,8.418],[-1.228,8.451],[-1.227,8.457],[-1.225,8.462],[-1.22,8.472],[-1.214,8.479],[-1.163,8.525],[-1.157,8.532],[-1.147,8.552],[-1.143,8.562],[-1.142,8.567],[-1.142,8.573],[-1.143,8.578],[-1.147,8.594],[-1.161,8.627],[-1.166,8.649],[-1.172,8.664],[-1.177,8.668],[-1.185,8.671],[-1.207,8.671],[-1.222,8.672],[-1.243,8.676],[-1.26,8.682],[-1.269,8.686],[-1.319,8.719],[-1.333,8.731],[-1.343,8.741],[-1.346,8.744],[-1.353,8.751],[-1.357,8.754],[-1.367,8.759],[-1.378,8.762],[-1.39,8.762],[-1.444,8.76],[-1.469,8.757],[-1.485,8.746],[-1.488,8.743],[-1.492,8.739],[-1.494,8.735],[-1.496,8.73],[-1.498,8.725],[-1.504,8.696],[-1.506,8.691],[-1.509,8.687],[-1.513,8.684],[-1.522,8.679],[-1.541,8.671],[-1.552,8.668],[-1.577,8.666],[-1.587,8.666],[-1.646,8.678],[-1.654,8.678],[-1.667,8.674],[-1.674,8.671],[-1.679,8.667],[-1.682,8.663],[-1.684,8.659],[-1.687,8.648],[-1.69,8.644],[-1.693,8.64],[-1.7,8.634],[-1.713,8.631],[-1.742,8.618],[-1.816,8.641],[-1.857,8.624],[-1.87,8.607],[-1.879,8.587],[-1.883,8.566],[-1.885,8.545],[-1.882,8.485],[-1.885,8.466],[-1.889,8.455],[-1.894,8.445],[-1.908,8.428],[-1.913,8.419],[-1.911,8.41],[-1.907,8.402],[-1.904,8.394],[-1.902,8.376],[-1.897,8.359],[-1.889,8.345],[-1.878,8.336],[-1.84,8.33],[-1.801,8.333],[-1.77,8.325],[-1.754,8.288],[-1.753,8.27],[-1.756,8.252],[-1.766,8.239],[-1.785,8.233],[-1.807,8.238],[-1.847,8.258],[-1.871,8.26],[-1.892,8.25],[-1.908,8.232],[-1.92,8.214],[-1.929,8.205],[-1.945,8.178],[-1.952,8.172],[-1.956,8.169],[-2.051,8.15],[-2.095,8.149],[-2.131,8.158],[-2.148,8.174],[-2.174,8.217],[-2.205,8.233],[-2.233,8.268],[-2.247,8.281],[-2.262,8.29],[-2.276,8.299],[-2.285,8.313],[-2.293,8.375],[-2.302,8.411],[-2.314,8.433],[-2.316,8.442],[-2.32,8.45],[-2.339,8.456],[-2.343,8.463],[-2.35,8.478],[-2.362,8.493],[-2.37,8.509],[-2.364,8.528],[-2.382,8.562],[-2.384,8.573],[-2.39,8.581],[-2.414,8.596],[-2.419,8.606],[-2.428,8.629],[-2.465,8.658],[-2.494,8.713],[-2.508,8.726],[-2.512,8.728],[-2.517,8.728],[-2.521,8.727],[-2.522,8.726],[-2.562,8.77],[-2.583,8.781],[-2.591,8.782],[-2.594,8.784],[-2.597,8.788],[-2.603,8.785],[-2.612,8.781],[-2.617,8.789],[-2.615,8.802],[-2.607,8.809],[-2.597,8.814],[-2.596,8.828],[-2.616,8.898],[-2.617,8.915],[-2.619,8.924],[-2.625,8.926],[-2.632,8.927],[-2.638,8.931],[-2.653,8.978],[-2.654,8.999],[-2.661,9.015],[-2.686,9.028],[-2.711,9.034],[-2.737,9.035],[-2.751,9.037],[-2.759,9.043],[-2.765,9.049],[-2.775,9.055],[-2.765,9.069],[-2.761,9.085],[-2.759,9.135],[-2.755,9.143],[-2.734,9.165],[-2.716,9.2],[-2.705,9.218],[-2.673,9.235],[-2.661,9.254],[-2.66,9.273],[-2.676,9.282],[-2.693,9.285],[-2.707,9.296],[-2.715,9.311],[-2.713,9.33],[-2.703,9.343],[-2.689,9.35],[-2.678,9.357],[-2.672,9.374],[-2.672,9.401],[-2.677,9.418],[-2.679,9.426],[-2.675,9.457],[-2.676,9.472],[-2.689,9.489],[-2.725,9.534],[-2.761,9.566],[-2.766,9.577],[-2.768,9.593],[-2.766,9.609],[-2.762,9.625],[-2.753,9.64],[-2.74,9.651],[-2.743,9.653],[-2.63,9.669],[-2.623,9.671],[-2.615,9.677],[-2.607,9.686],[-2.602,9.693],[-2.596,9.703],[-2.593,9.707],[-2.588,9.71],[-2.582,9.713],[-2.564,9.717],[-2.557,9.72],[-2.551,9.724],[-2.546,9.732],[-2.54,9.751],[-2.538,9.756],[-2.532,9.764],[-2.529,9.767],[-2.523,9.77],[-2.514,9.774],[-2.499,9.778],[-2.484,9.781],[-2.434,9.782],[-2.422,9.784],[-2.33,9.812],[-2.324,9.813],[-2.235,9.806],[-2.229,9.807],[-2.197,9.816],[-2.185,9.818],[-2.172,9.818],[-2.145,9.816],[-2.133,9.813],[-2.109,9.81],[-2.071,9.812],[-1.941,9.84],[-1.876,9.836],[-1.864,9.837],[-1.848,9.84],[-1.844,9.84],[-1.788,9.833],[-1.764,9.834],[-1.757,9.837],[-1.752,9.843],[-1.743,9.857],[-1.737,9.865],[-1.728,9.872],[-1.704,9.878],[-1.7,9.881],[-1.696,9.885],[-1.693,9.891],[-1.691,9.902],[-1.687,9.913],[-1.685,9.922],[-1.685,9.928],[-1.686,9.934],[-1.688,9.94],[-1.696,9.952],[-1.698,9.956],[-1.698,9.962],[-1.698,9.967],[-1.699,9.984],[-1.698,9.989],[-1.694,10],[-1.692,10.005],[-1.689,10.009],[-1.684,10.013],[-1.676,10.017],[-1.67,10.019],[-1.656,10.026],[-1.651,10.026],[-1.645,10.026],[-1.639,10.025],[-1.633,10.025],[-1.628,10.027],[-1.624,10.031],[-1.623,10.039],[-1.626,10.043],[-1.631,10.046],[-1.648,10.05],[-1.651,10.053],[-1.649,10.056],[-1.643,10.058],[-1.631,10.06],[-1.626,10.062],[-1.621,10.062],[-1.616,10.062],[-1.606,10.058],[-1.6,10.057],[-1.594,10.057],[-1.589,10.057],[-1.585,10.058],[-1.572,10.065],[-1.562,10.069],[-1.558,10.072],[-1.555,10.078],[-1.559,10.085],[-1.567,10.093],[-1.643,10.16],[-1.649,10.168],[-1.649,10.174],[-1.646,10.181],[-1.63,10.21],[-1.628,10.217],[-1.627,10.223],[-1.624,10.262],[-1.622,10.273],[-1.62,10.279],[-1.614,10.289],[-1.604,10.303],[-1.592,10.315],[-1.552,10.345],[-1.538,10.358],[-1.532,10.366],[-1.512,10.404],[-1.498,10.421],[-1.495,10.424],[-1.49,10.426],[-1.483,10.428],[-1.476,10.429],[-1.469,10.429],[-1.456,10.428],[-1.434,10.419],[-1.398,10.401],[-1.366,10.391],[-1.364,10.382],[-1.361,10.372],[-1.358,10.368],[-1.355,10.365],[-1.351,10.362],[-1.346,10.359],[-1.342,10.356],[-1.339,10.353],[-1.335,10.343],[-1.332,10.339],[-1.329,10.335],[-1.323,10.334],[-1.318,10.333],[-1.312,10.332],[-1.308,10.329],[-1.304,10.326],[-1.286,10.317],[-1.281,10.315],[-1.275,10.314],[-1.259,10.314],[-1.252,10.314],[-1.247,10.311],[-1.245,10.307],[-1.243,10.302],[-1.239,10.299],[-1.232,10.299],[-1.219,10.306],[-1.212,10.312],[-1.208,10.318],[-1.207,10.323],[-1.206,10.329],[-1.206,10.336],[-1.207,10.348],[-1.214,10.382],[-1.214,10.387],[-1.214,10.393],[-1.213,10.398],[-1.211,10.403],[-1.205,10.411],[-1.198,10.418],[-1.164,10.435],[-1.156,10.441],[-1.151,10.447],[-1.147,10.464],[-1.142,10.474],[-1.14,10.478],[-1.136,10.481],[-1.133,10.485],[-1.124,10.49],[-1.019,10.528],[-1.008,10.531],[-1,10.531],[-0.989,10.53],[-0.976,10.526],[-0.963,10.525],[-0.957,10.524],[-0.953,10.521],[-0.949,10.518],[-0.942,10.516],[-0.933,10.515],[-0.918,10.516],[-0.912,10.513],[-0.911,10.51],[-0.913,10.506],[-0.918,10.5],[-0.93,10.488],[-0.933,10.485],[-0.932,10.48],[-0.929,10.478],[-0.922,10.479],[-0.911,10.485],[-0.901,10.493],[-0.898,10.496],[-0.893,10.5],[-0.853,10.536],[-0.85,10.54],[-0.848,10.545],[-0.844,10.555],[-0.842,10.559],[-0.837,10.564],[-0.835,10.567],[-0.833,10.571],[-0.832,10.582],[-0.831,10.588],[-0.827,10.592],[-0.82,10.595],[-0.809,10.599],[-0.803,10.603],[-0.798,10.608],[-0.796,10.613],[-0.794,10.631],[-0.792,10.637],[-0.786,10.64],[-0.775,10.641],[-0.715,10.64],[-0.707,10.638],[-0.701,10.634],[-0.698,10.63],[-0.697,10.625],[-0.697,10.62],[-0.699,10.615],[-0.703,10.612],[-0.705,10.608],[-0.706,10.604],[-0.705,10.599],[-0.703,10.595],[-0.699,10.591],[-0.695,10.589],[-0.691,10.586],[-0.688,10.581],[-0.686,10.576],[-0.685,10.571],[-0.686,10.564],[-0.686,10.559],[-0.688,10.553],[-0.69,10.548],[-0.693,10.544],[-0.704,10.534],[-0.706,10.529],[-0.706,10.524],[-0.704,10.52],[-0.701,10.518],[-0.696,10.519],[-0.688,10.525],[-0.682,10.524],[-0.678,10.521],[-0.673,10.519],[-0.667,10.519],[-0.658,10.525],[-0.654,10.53],[-0.647,10.539],[-0.642,10.543],[-0.636,10.545],[-0.603,10.545],[-0.588,10.54],[-0.583,10.541],[-0.576,10.543],[-0.564,10.553],[-0.558,10.556],[-0.551,10.558],[-0.54,10.558],[-0.534,10.556],[-0.529,10.553],[-0.525,10.55],[-0.519,10.551],[-0.513,10.554],[-0.506,10.56],[-0.502,10.565],[-0.5,10.57],[-0.494,10.601],[-0.492,10.606],[-0.49,10.611],[-0.487,10.615],[-0.483,10.617],[-0.478,10.619],[-0.471,10.617],[-0.467,10.613],[-0.46,10.606],[-0.455,10.604],[-0.449,10.602],[-0.431,10.601],[-0.425,10.601],[-0.4,10.607],[-0.354,10.628],[-0.346,10.629],[-0.338,10.634],[-0.325,10.638],[-0.223,10.659],[-0.175,10.663],[-0.111,10.696],[-0.092,10.7]]]}},{"type":"Feature","id":"GH-TV","properties":{"id":"GH-TV","countryCode":"GH","isoSubdivision":"GH-TV","name":"Volta","name_en":"Volta","name_ko":"볼타","type":"Region","labelLongitude":0.396,"labelLatitude":7.339,"minZoom":7.7},"geometry":{"type":"Polygon","coordinates":[[[0.603,7.893],[0.603,7.888],[0.603,7.828],[0.612,7.771],[0.61,7.719],[0.612,7.699],[0.583,7.704],[0.571,7.684],[0.567,7.653],[0.568,7.626],[0.562,7.612],[0.549,7.605],[0.533,7.601],[0.519,7.595],[0.509,7.585],[0.503,7.575],[0.499,7.562],[0.496,7.504],[0.501,7.455],[0.517,7.411],[0.548,7.383],[0.566,7.381],[0.586,7.384],[0.623,7.398],[0.63,7.389],[0.646,7.324],[0.644,7.302],[0.631,7.265],[0.622,7.219],[0.598,7.159],[0.594,7.12],[0.599,7.075],[0.598,7.031],[0.579,6.997],[0.566,6.99],[0.524,6.979],[0.509,6.978],[0.495,6.973],[0.506,6.958],[0.534,6.936],[0.546,6.915],[0.544,6.898],[0.523,6.863],[0.516,6.842],[0.519,6.832],[0.529,6.827],[0.541,6.817],[0.57,6.764],[0.577,6.755],[0.594,6.751],[0.611,6.742],[0.626,6.728],[0.634,6.712],[0.635,6.695],[0.627,6.645],[0.632,6.624],[0.645,6.612],[0.659,6.602],[0.668,6.586],[0.678,6.585],[0.706,6.586],[0.715,6.584],[0.727,6.571],[0.727,6.562],[0.72,6.553],[0.713,6.54],[0.713,6.534],[0.712,6.513],[0.718,6.489],[0.73,6.465],[0.746,6.441],[0.767,6.419],[0.816,6.395],[0.841,6.379],[0.874,6.34],[0.887,6.33],[0.907,6.325],[0.984,6.325],[1.01,6.244],[1.025,6.222],[1.033,6.217],[1.041,6.213],[1.048,6.209],[1.056,6.201],[1.069,6.18],[1.08,6.168],[1.093,6.161],[1.176,6.152],[1.188,6.136],[1.185,6.1],[1.178,6.098],[1.133,6.074],[1.099,6.047],[1.048,5.993],[1.036,5.975],[1.012,5.926],[1.007,5.907],[1.006,5.886],[0.995,5.839],[0.987,5.821],[0.955,5.791],[0.914,5.777],[0.723,5.755],[0.674,5.759],[0.695,5.773],[0.715,5.779],[0.718,5.783],[0.721,5.789],[0.719,5.796],[0.716,5.801],[0.713,5.804],[0.709,5.807],[0.701,5.813],[0.686,5.82],[0.665,5.828],[0.651,5.837],[0.64,5.846],[0.628,5.86],[0.593,5.955],[0.583,5.966],[0.575,5.972],[0.561,5.979],[0.483,5.996],[0.402,6],[0.401,6],[0.394,6],[0.384,5.998],[0.374,5.995],[0.357,5.985],[0.338,5.971],[0.331,5.964],[0.328,5.959],[0.32,5.944],[0.323,6.036],[0.321,6.044],[0.317,6.051],[0.282,6.071],[0.261,6.089],[0.248,6.096],[0.231,6.099],[0.162,6.097],[0.145,6.103],[0.097,6.138],[0.091,6.148],[0.09,6.165],[0.094,6.183],[0.101,6.196],[0.106,6.209],[0.104,6.227],[0.097,6.246],[0.091,6.256],[0.096,6.262],[0.141,6.279],[0.158,6.289],[0.174,6.301],[0.177,6.304],[0.18,6.308],[0.185,6.316],[0.188,6.321],[0.217,6.408],[0.217,6.416],[0.217,6.426],[0.213,6.44],[0.208,6.446],[0.204,6.451],[0.191,6.459],[0.184,6.466],[0.179,6.474],[0.177,6.479],[0.176,6.484],[0.172,6.508],[0.169,6.518],[0.166,6.522],[0.163,6.526],[0.158,6.529],[0.154,6.53],[0.148,6.531],[0.119,6.529],[0.114,6.53],[0.111,6.534],[0.111,6.547],[0.114,6.565],[0.13,6.624],[0.135,6.636],[0.138,6.64],[0.141,6.643],[0.144,6.647],[0.147,6.651],[0.15,6.654],[0.164,6.668],[0.168,6.671],[0.207,6.694],[0.211,6.697],[0.214,6.701],[0.216,6.709],[0.216,6.72],[0.21,6.763],[0.206,6.773],[0.201,6.781],[0.194,6.788],[0.187,6.794],[0.177,6.799],[0.162,6.804],[0.158,6.807],[0.154,6.81],[0.151,6.814],[0.146,6.823],[0.143,6.833],[0.144,6.843],[0.146,6.856],[0.156,6.882],[0.161,6.894],[0.166,6.902],[0.184,6.919],[0.187,6.922],[0.201,6.935],[0.21,6.947],[0.212,6.952],[0.214,6.963],[0.215,6.978],[0.213,7.007],[0.209,7.03],[0.207,7.035],[0.207,7.043],[0.209,7.055],[0.215,7.075],[0.223,7.092],[0.225,7.096],[0.228,7.114],[0.224,7.167],[0.219,7.199],[0.219,7.204],[0.22,7.216],[0.237,7.269],[0.241,7.3],[0.241,7.313],[0.237,7.343],[0.233,7.349],[0.227,7.356],[0.215,7.366],[0.207,7.371],[0.2,7.375],[0.173,7.382],[0.136,7.401],[0.131,7.405],[0.127,7.411],[0.123,7.423],[0.121,7.432],[0.118,7.491],[0.117,7.497],[0.105,7.526],[0.039,7.638],[0.015,7.704],[0.014,7.717],[0.01,7.727],[0.004,7.734],[-0.007,7.742],[-0.015,7.744],[-0.037,7.748],[-0.048,7.75],[-0.058,7.754],[-0.067,7.762],[-0.075,7.77],[-0.1,7.809],[-0.102,7.814],[-0.105,7.824],[-0.11,7.86],[-0.112,7.871],[-0.155,7.971],[-0.167,7.989],[-0.179,8.004],[-0.318,8.115],[-0.338,8.124],[-0.395,8.139],[-0.374,8.16],[-0.354,8.204],[-0.347,8.21],[-0.341,8.213],[-0.33,8.211],[-0.323,8.211],[-0.313,8.212],[-0.279,8.223],[-0.272,8.223],[-0.267,8.222],[-0.243,8.211],[-0.238,8.209],[-0.23,8.208],[-0.22,8.208],[-0.203,8.211],[-0.196,8.217],[-0.189,8.223],[-0.185,8.23],[-0.179,8.234],[-0.171,8.236],[-0.168,8.24],[-0.166,8.246],[-0.155,8.263],[-0.154,8.269],[-0.155,8.275],[-0.155,8.28],[-0.154,8.287],[-0.149,8.295],[-0.134,8.308],[-0.124,8.315],[-0.116,8.32],[-0.072,8.335],[-0.051,8.336],[-0.027,8.331],[-0.005,8.324],[0.011,8.318],[0.046,8.295],[0.06,8.281],[0.069,8.27],[0.091,8.249],[0.103,8.24],[0.114,8.239],[0.132,8.239],[0.172,8.244],[0.188,8.248],[0.198,8.254],[0.199,8.26],[0.199,8.265],[0.198,8.27],[0.196,8.274],[0.189,8.314],[0.19,8.32],[0.193,8.327],[0.198,8.33],[0.204,8.331],[0.235,8.333],[0.241,8.335],[0.245,8.339],[0.246,8.345],[0.247,8.351],[0.245,8.362],[0.243,8.367],[0.233,8.384],[0.229,8.387],[0.225,8.39],[0.22,8.392],[0.214,8.394],[0.208,8.394],[0.178,8.39],[0.156,8.385],[0.133,8.382],[0.128,8.381],[0.116,8.383],[0.106,8.386],[0.101,8.388],[0.097,8.391],[0.095,8.394],[0.094,8.399],[0.096,8.41],[0.096,8.416],[0.094,8.427],[0.09,8.437],[0.09,8.443],[0.092,8.452],[0.096,8.456],[0.102,8.459],[0.109,8.461],[0.12,8.464],[0.124,8.468],[0.127,8.473],[0.126,8.478],[0.124,8.483],[0.12,8.486],[0.101,8.495],[0.097,8.498],[0.095,8.502],[0.093,8.507],[0.093,8.513],[0.094,8.518],[0.095,8.524],[0.106,8.555],[0.113,8.57],[0.124,8.587],[0.13,8.591],[0.136,8.593],[0.14,8.592],[0.149,8.587],[0.155,8.585],[0.162,8.585],[0.17,8.588],[0.174,8.593],[0.175,8.599],[0.174,8.604],[0.171,8.609],[0.168,8.612],[0.157,8.622],[0.151,8.631],[0.149,8.635],[0.148,8.64],[0.147,8.646],[0.148,8.653],[0.152,8.661],[0.172,8.687],[0.18,8.703],[0.187,8.72],[0.192,8.728],[0.192,8.734],[0.19,8.739],[0.187,8.743],[0.183,8.747],[0.184,8.753],[0.186,8.759],[0.189,8.763],[0.193,8.766],[0.217,8.776],[0.227,8.778],[0.233,8.778],[0.238,8.777],[0.243,8.776],[0.267,8.762],[0.272,8.76],[0.278,8.76],[0.284,8.76],[0.29,8.76],[0.322,8.766],[0.328,8.767],[0.367,8.761],[0.368,8.761],[0.374,8.725],[0.404,8.662],[0.444,8.607],[0.484,8.58],[0.501,8.56],[0.525,8.538],[0.551,8.519],[0.616,8.489],[0.634,8.452],[0.647,8.414],[0.685,8.383],[0.687,8.372],[0.687,8.361],[0.689,8.346],[0.689,8.336],[0.689,8.331],[0.693,8.328],[0.705,8.326],[0.709,8.323],[0.713,8.298],[0.705,8.283],[0.689,8.273],[0.645,8.253],[0.628,8.242],[0.595,8.213],[0.587,8.209],[0.579,8.208],[0.574,8.204],[0.573,8.191],[0.577,8.18],[0.585,8.173],[0.592,8.164],[0.593,8.151],[0.588,8.138],[0.58,8.132],[0.575,8.125],[0.58,8.1],[0.584,8.053],[0.593,8.016],[0.594,7.997],[0.593,7.959],[0.603,7.893]]]}},{"type":"Feature","id":"GH-UE","properties":{"id":"GH-UE","countryCode":"GH","isoSubdivision":"GH-UE","name":"Upper East","name_en":"Upper East","name_ko":"어퍼이스트","type":"Region","labelLongitude":-0.78,"labelLatitude":10.818,"minZoom":7.7},"geometry":{"type":"Polygon","coordinates":[[[-0.166,11.135],[-0.159,11.118],[-0.142,11.103],[-0.122,11.092],[-0.103,11.088],[-0.085,11.089],[-0.051,11.098],[-0.032,11.099],[0.001,11.086],[0.016,11.063],[0.019,11.032],[0.017,10.996],[0.014,10.984],[0.007,10.977],[-0.002,10.971],[-0.01,10.963],[-0.014,10.954],[-0.036,10.853],[-0.035,10.843],[-0.03,10.824],[-0.032,10.813],[-0.041,10.805],[-0.061,10.791],[-0.075,10.774],[-0.083,10.756],[-0.088,10.714],[-0.092,10.7],[-0.111,10.696],[-0.175,10.663],[-0.223,10.659],[-0.325,10.638],[-0.338,10.634],[-0.346,10.629],[-0.354,10.628],[-0.4,10.607],[-0.425,10.601],[-0.431,10.601],[-0.449,10.602],[-0.455,10.604],[-0.46,10.606],[-0.467,10.613],[-0.471,10.617],[-0.478,10.619],[-0.483,10.617],[-0.487,10.615],[-0.49,10.611],[-0.492,10.606],[-0.494,10.601],[-0.5,10.57],[-0.502,10.565],[-0.506,10.56],[-0.513,10.554],[-0.519,10.551],[-0.525,10.55],[-0.529,10.553],[-0.534,10.556],[-0.54,10.558],[-0.551,10.558],[-0.558,10.556],[-0.564,10.553],[-0.576,10.543],[-0.583,10.541],[-0.588,10.54],[-0.603,10.545],[-0.636,10.545],[-0.642,10.543],[-0.647,10.539],[-0.654,10.53],[-0.658,10.525],[-0.667,10.519],[-0.673,10.519],[-0.678,10.521],[-0.682,10.524],[-0.688,10.525],[-0.696,10.519],[-0.701,10.518],[-0.704,10.52],[-0.706,10.524],[-0.706,10.529],[-0.704,10.534],[-0.693,10.544],[-0.69,10.548],[-0.688,10.553],[-0.686,10.559],[-0.686,10.564],[-0.685,10.571],[-0.686,10.576],[-0.688,10.581],[-0.691,10.586],[-0.695,10.589],[-0.699,10.591],[-0.703,10.595],[-0.705,10.599],[-0.706,10.604],[-0.705,10.608],[-0.703,10.612],[-0.699,10.615],[-0.697,10.62],[-0.697,10.625],[-0.698,10.63],[-0.701,10.634],[-0.707,10.638],[-0.715,10.64],[-0.775,10.641],[-0.786,10.64],[-0.792,10.637],[-0.794,10.631],[-0.796,10.613],[-0.798,10.608],[-0.803,10.603],[-0.809,10.599],[-0.82,10.595],[-0.827,10.592],[-0.831,10.588],[-0.832,10.582],[-0.833,10.571],[-0.835,10.567],[-0.837,10.564],[-0.842,10.559],[-0.844,10.555],[-0.848,10.545],[-0.85,10.54],[-0.853,10.536],[-0.893,10.5],[-0.898,10.496],[-0.901,10.493],[-0.911,10.485],[-0.922,10.479],[-0.929,10.478],[-0.932,10.48],[-0.933,10.485],[-0.93,10.488],[-0.918,10.5],[-0.913,10.506],[-0.911,10.51],[-0.912,10.513],[-0.918,10.516],[-0.933,10.515],[-0.942,10.516],[-0.949,10.518],[-0.953,10.521],[-0.957,10.524],[-0.963,10.525],[-0.976,10.526],[-0.989,10.53],[-1,10.531],[-1.008,10.531],[-1.019,10.528],[-1.124,10.49],[-1.133,10.485],[-1.136,10.481],[-1.14,10.478],[-1.142,10.474],[-1.147,10.464],[-1.151,10.447],[-1.156,10.441],[-1.164,10.435],[-1.198,10.418],[-1.205,10.411],[-1.211,10.403],[-1.213,10.398],[-1.214,10.393],[-1.214,10.387],[-1.214,10.382],[-1.207,10.348],[-1.206,10.336],[-1.206,10.329],[-1.207,10.323],[-1.208,10.318],[-1.212,10.312],[-1.219,10.306],[-1.232,10.299],[-1.239,10.299],[-1.243,10.302],[-1.245,10.307],[-1.247,10.311],[-1.252,10.314],[-1.259,10.314],[-1.275,10.314],[-1.281,10.315],[-1.286,10.317],[-1.304,10.326],[-1.308,10.329],[-1.312,10.332],[-1.318,10.333],[-1.323,10.334],[-1.329,10.335],[-1.332,10.339],[-1.335,10.343],[-1.339,10.353],[-1.342,10.356],[-1.346,10.359],[-1.351,10.362],[-1.355,10.365],[-1.358,10.368],[-1.361,10.372],[-1.364,10.382],[-1.366,10.391],[-1.359,10.397],[-1.358,10.403],[-1.356,10.419],[-1.358,10.439],[-1.364,10.457],[-1.368,10.465],[-1.373,10.471],[-1.382,10.475],[-1.388,10.476],[-1.393,10.475],[-1.397,10.472],[-1.406,10.461],[-1.41,10.458],[-1.413,10.457],[-1.415,10.457],[-1.417,10.459],[-1.427,10.468],[-1.436,10.473],[-1.444,10.478],[-1.447,10.482],[-1.449,10.486],[-1.453,10.497],[-1.454,10.503],[-1.452,10.512],[-1.451,10.518],[-1.454,10.525],[-1.457,10.529],[-1.471,10.536],[-1.477,10.537],[-1.489,10.539],[-1.494,10.54],[-1.497,10.543],[-1.501,10.549],[-1.504,10.552],[-1.507,10.555],[-1.512,10.557],[-1.516,10.56],[-1.519,10.564],[-1.52,10.569],[-1.523,10.574],[-1.526,10.578],[-1.531,10.58],[-1.537,10.58],[-1.543,10.581],[-1.549,10.582],[-1.553,10.584],[-1.556,10.588],[-1.559,10.598],[-1.562,10.603],[-1.564,10.608],[-1.565,10.613],[-1.571,10.648],[-1.573,10.653],[-1.577,10.663],[-1.578,10.669],[-1.579,10.679],[-1.573,10.707],[-1.57,10.717],[-1.567,10.725],[-1.558,10.735],[-1.551,10.741],[-1.545,10.744],[-1.535,10.748],[-1.53,10.752],[-1.516,10.769],[-1.502,10.781],[-1.5,10.785],[-1.499,10.791],[-1.499,10.804],[-1.497,10.813],[-1.49,10.823],[-1.475,10.833],[-1.471,10.837],[-1.467,10.839],[-1.461,10.841],[-1.457,10.845],[-1.453,10.852],[-1.453,10.894],[-1.454,10.899],[-1.455,10.905],[-1.453,10.911],[-1.449,10.918],[-1.447,10.926],[-1.447,10.94],[-1.449,10.955],[-1.443,10.975],[-1.424,11.018],[-1.414,11.014],[-1.38,11.001],[-1.355,10.997],[-1.228,10.995],[-1.108,10.994],[-1.099,11.01],[-1.07,11.014],[-0.932,11.003],[-0.924,11.001],[-0.916,10.996],[-0.909,10.983],[-0.904,10.979],[-0.894,10.98],[-0.901,10.966],[-0.883,10.969],[-0.861,10.993],[-0.839,10.996],[-0.834,11.003],[-0.828,11.006],[-0.822,11.004],[-0.817,10.996],[-0.703,10.994],[-0.696,10.994],[-0.695,10.983],[-0.69,10.982],[-0.683,10.984],[-0.674,10.984],[-0.668,10.977],[-0.672,10.969],[-0.68,10.961],[-0.683,10.954],[-0.635,10.908],[-0.617,10.919],[-0.607,10.941],[-0.6,10.966],[-0.591,10.982],[-0.576,10.988],[-0.555,10.99],[-0.516,10.989],[-0.513,10.99],[-0.51,10.991],[-0.507,10.994],[-0.504,10.996],[-0.495,11.008],[-0.469,11.02],[-0.457,11.03],[-0.451,11.04],[-0.449,11.063],[-0.444,11.077],[-0.425,11.101],[-0.406,11.101],[-0.387,11.086],[-0.369,11.065],[-0.319,11.101],[-0.306,11.114],[-0.298,11.128],[-0.301,11.137],[-0.304,11.147],[-0.302,11.163],[-0.166,11.135]]]}},{"type":"Feature","id":"GH-UW","properties":{"id":"GH-UW","countryCode":"GH","isoSubdivision":"GH-UW","name":"Upper West","name_en":"Upper West","name_ko":"어퍼웨스트","type":"Region","labelLongitude":-2.144,"labelLatitude":10.404,"minZoom":7.7},"geometry":{"type":"Polygon","coordinates":[[[-1.562,11.027],[-1.436,11.023],[-1.424,11.018],[-1.443,10.975],[-1.449,10.955],[-1.447,10.94],[-1.447,10.926],[-1.449,10.918],[-1.453,10.911],[-1.455,10.905],[-1.454,10.899],[-1.453,10.894],[-1.453,10.852],[-1.457,10.845],[-1.461,10.841],[-1.467,10.839],[-1.471,10.837],[-1.475,10.833],[-1.49,10.823],[-1.497,10.813],[-1.499,10.804],[-1.499,10.791],[-1.5,10.785],[-1.502,10.781],[-1.516,10.769],[-1.53,10.752],[-1.535,10.748],[-1.545,10.744],[-1.551,10.741],[-1.558,10.735],[-1.567,10.725],[-1.57,10.717],[-1.573,10.707],[-1.579,10.679],[-1.578,10.669],[-1.577,10.663],[-1.573,10.653],[-1.571,10.648],[-1.565,10.613],[-1.564,10.608],[-1.562,10.603],[-1.559,10.598],[-1.556,10.588],[-1.553,10.584],[-1.549,10.582],[-1.543,10.581],[-1.537,10.58],[-1.531,10.58],[-1.526,10.578],[-1.523,10.574],[-1.52,10.569],[-1.519,10.564],[-1.516,10.56],[-1.512,10.557],[-1.507,10.555],[-1.504,10.552],[-1.501,10.549],[-1.497,10.543],[-1.494,10.54],[-1.489,10.539],[-1.477,10.537],[-1.471,10.536],[-1.457,10.529],[-1.454,10.525],[-1.451,10.518],[-1.452,10.512],[-1.454,10.503],[-1.453,10.497],[-1.449,10.486],[-1.447,10.482],[-1.444,10.478],[-1.436,10.473],[-1.427,10.468],[-1.417,10.459],[-1.415,10.457],[-1.413,10.457],[-1.41,10.458],[-1.406,10.461],[-1.397,10.472],[-1.393,10.475],[-1.388,10.476],[-1.382,10.475],[-1.373,10.471],[-1.368,10.465],[-1.364,10.457],[-1.358,10.439],[-1.356,10.419],[-1.358,10.403],[-1.359,10.397],[-1.366,10.391],[-1.398,10.401],[-1.434,10.419],[-1.456,10.428],[-1.469,10.429],[-1.476,10.429],[-1.483,10.428],[-1.49,10.426],[-1.495,10.424],[-1.498,10.421],[-1.512,10.404],[-1.532,10.366],[-1.538,10.358],[-1.552,10.345],[-1.592,10.315],[-1.604,10.303],[-1.614,10.289],[-1.62,10.279],[-1.622,10.273],[-1.624,10.262],[-1.627,10.223],[-1.628,10.217],[-1.63,10.21],[-1.646,10.181],[-1.649,10.174],[-1.649,10.168],[-1.643,10.16],[-1.567,10.093],[-1.559,10.085],[-1.555,10.078],[-1.558,10.072],[-1.562,10.069],[-1.572,10.065],[-1.585,10.058],[-1.589,10.057],[-1.594,10.057],[-1.6,10.057],[-1.606,10.058],[-1.616,10.062],[-1.621,10.062],[-1.626,10.062],[-1.631,10.06],[-1.643,10.058],[-1.649,10.056],[-1.651,10.053],[-1.648,10.05],[-1.631,10.046],[-1.626,10.043],[-1.623,10.039],[-1.624,10.031],[-1.628,10.027],[-1.633,10.025],[-1.639,10.025],[-1.645,10.026],[-1.651,10.026],[-1.656,10.026],[-1.67,10.019],[-1.676,10.017],[-1.684,10.013],[-1.689,10.009],[-1.692,10.005],[-1.694,10],[-1.698,9.989],[-1.699,9.984],[-1.698,9.967],[-1.698,9.962],[-1.698,9.956],[-1.696,9.952],[-1.688,9.94],[-1.686,9.934],[-1.685,9.928],[-1.685,9.922],[-1.687,9.913],[-1.691,9.902],[-1.693,9.891],[-1.696,9.885],[-1.7,9.881],[-1.704,9.878],[-1.728,9.872],[-1.737,9.865],[-1.743,9.857],[-1.752,9.843],[-1.757,9.837],[-1.764,9.834],[-1.788,9.833],[-1.844,9.84],[-1.848,9.84],[-1.864,9.837],[-1.876,9.836],[-1.941,9.84],[-2.071,9.812],[-2.109,9.81],[-2.133,9.813],[-2.145,9.816],[-2.172,9.818],[-2.185,9.818],[-2.197,9.816],[-2.229,9.807],[-2.235,9.806],[-2.324,9.813],[-2.33,9.812],[-2.422,9.784],[-2.434,9.782],[-2.484,9.781],[-2.499,9.778],[-2.514,9.774],[-2.523,9.77],[-2.529,9.767],[-2.532,9.764],[-2.538,9.756],[-2.54,9.751],[-2.546,9.732],[-2.551,9.724],[-2.557,9.72],[-2.564,9.717],[-2.582,9.713],[-2.588,9.71],[-2.593,9.707],[-2.596,9.703],[-2.602,9.693],[-2.607,9.686],[-2.615,9.677],[-2.623,9.671],[-2.63,9.669],[-2.743,9.653],[-2.751,9.659],[-2.754,9.668],[-2.755,9.677],[-2.761,9.686],[-2.769,9.69],[-2.775,9.689],[-2.78,9.69],[-2.788,9.699],[-2.795,9.72],[-2.792,9.741],[-2.775,9.774],[-2.74,9.813],[-2.734,9.823],[-2.737,9.833],[-2.761,9.871],[-2.765,9.896],[-2.756,9.941],[-2.754,9.967],[-2.761,9.985],[-2.784,10.019],[-2.788,10.039],[-2.788,10.092],[-2.788,10.124],[-2.799,10.17],[-2.798,10.19],[-2.785,10.21],[-2.765,10.226],[-2.758,10.235],[-2.754,10.248],[-2.755,10.261],[-2.758,10.266],[-2.765,10.269],[-2.775,10.275],[-2.784,10.279],[-2.793,10.279],[-2.8,10.281],[-2.802,10.292],[-2.806,10.299],[-2.814,10.301],[-2.824,10.302],[-2.833,10.306],[-2.841,10.322],[-2.841,10.343],[-2.836,10.364],[-2.829,10.378],[-2.822,10.388],[-2.815,10.394],[-2.805,10.397],[-2.792,10.398],[-2.781,10.402],[-2.772,10.412],[-2.768,10.421],[-2.771,10.425],[-2.796,10.426],[-2.812,10.429],[-2.824,10.435],[-2.86,10.466],[-2.867,10.478],[-2.87,10.498],[-2.873,10.502],[-2.887,10.516],[-2.892,10.522],[-2.894,10.531],[-2.896,10.553],[-2.898,10.563],[-2.928,10.615],[-2.933,10.634],[-2.93,10.644],[-2.916,10.668],[-2.91,10.684],[-2.907,10.688],[-2.905,10.693],[-2.905,10.699],[-2.908,10.704],[-2.913,10.706],[-2.917,10.707],[-2.919,10.707],[-2.92,10.711],[-2.922,10.721],[-2.919,10.727],[-2.909,10.738],[-2.903,10.747],[-2.899,10.77],[-2.883,10.797],[-2.872,10.843],[-2.864,10.864],[-2.851,10.88],[-2.835,10.892],[-2.821,10.906],[-2.816,10.929],[-2.822,10.948],[-2.833,10.966],[-2.839,10.985],[-2.836,10.992],[-2.837,10.998],[-2.751,10.996],[-2.751,10.986],[-2.729,10.986],[-2.635,10.987],[-2.44,10.989],[-2.198,10.991],[-1.973,10.994],[-1.754,10.996],[-1.599,10.997],[-1.587,11.004],[-1.58,11.021],[-1.562,11.027]]]}},{"type":"Feature","id":"GH-WP","properties":{"id":"GH-WP","countryCode":"GH","isoSubdivision":"GH-WP","name":"Western","name_en":"Western","name_ko":"서부","type":"Region","labelLongitude":-2.342,"labelLatitude":5.7,"minZoom":7.7},"geometry":{"type":"Polygon","coordinates":[[[-3.172,6.25],[-3.184,6.264],[-3.263,6.617],[-3.261,6.634],[-3.254,6.644],[-3.235,6.655],[-3.23,6.661],[-3.21,6.716],[-3.213,6.723],[-3.226,6.749],[-3.239,6.765],[-3.243,6.775],[-3.242,6.811],[-3.225,6.849],[-3.11,7.046],[-3.097,7.054],[-3.096,7.051],[-3.086,6.998],[-3.079,6.978],[-3.069,6.959],[-3.065,6.955],[-3.061,6.95],[-3.053,6.944],[-3.047,6.941],[-3.041,6.938],[-3.028,6.937],[-3.023,6.937],[-3.017,6.939],[-2.98,6.954],[-2.969,6.956],[-2.958,6.954],[-2.943,6.948],[-2.912,6.931],[-2.898,6.918],[-2.887,6.905],[-2.863,6.862],[-2.858,6.84],[-2.842,6.806],[-2.841,6.8],[-2.84,6.782],[-2.839,6.777],[-2.838,6.771],[-2.836,6.767],[-2.833,6.756],[-2.832,6.751],[-2.833,6.745],[-2.842,6.726],[-2.843,6.721],[-2.844,6.715],[-2.843,6.706],[-2.84,6.696],[-2.833,6.68],[-2.831,6.67],[-2.83,6.662],[-2.83,6.655],[-2.827,6.65],[-2.823,6.647],[-2.818,6.644],[-2.791,6.637],[-2.782,6.633],[-2.743,6.603],[-2.738,6.601],[-2.727,6.598],[-2.714,6.598],[-2.677,6.601],[-2.668,6.6],[-2.659,6.597],[-2.646,6.591],[-2.639,6.586],[-2.636,6.58],[-2.631,6.56],[-2.627,6.55],[-2.622,6.542],[-2.617,6.538],[-2.612,6.535],[-2.607,6.533],[-2.587,6.527],[-2.576,6.522],[-2.57,6.518],[-2.566,6.513],[-2.521,6.419],[-2.517,6.415],[-2.511,6.412],[-2.505,6.411],[-2.478,6.41],[-2.472,6.409],[-2.467,6.407],[-2.456,6.401],[-2.443,6.392],[-2.434,6.387],[-2.426,6.387],[-2.429,6.363],[-2.426,6.36],[-2.421,6.357],[-2.412,6.356],[-2.405,6.356],[-2.399,6.356],[-2.393,6.358],[-2.384,6.362],[-2.381,6.365],[-2.368,6.377],[-2.364,6.382],[-2.36,6.392],[-2.356,6.403],[-2.353,6.413],[-2.343,6.483],[-2.34,6.491],[-2.335,6.503],[-2.33,6.508],[-2.324,6.51],[-2.318,6.51],[-2.313,6.508],[-2.304,6.504],[-2.273,6.485],[-2.267,6.484],[-2.259,6.484],[-2.238,6.491],[-2.23,6.492],[-2.222,6.491],[-2.217,6.488],[-2.214,6.484],[-2.213,6.481],[-2.212,6.477],[-2.212,6.472],[-2.212,6.467],[-2.231,6.41],[-2.232,6.398],[-2.232,6.392],[-2.231,6.387],[-2.228,6.382],[-2.219,6.378],[-2.146,6.361],[-2.141,6.359],[-2.137,6.356],[-2.133,6.352],[-2.125,6.34],[-2.123,6.335],[-2.119,6.319],[-2.117,6.313],[-2.113,6.307],[-2.107,6.3],[-2.101,6.298],[-2.093,6.297],[-2.07,6.298],[-2.075,6.283],[-2.082,6.273],[-2.099,6.258],[-2.111,6.249],[-2.138,6.238],[-2.155,6.229],[-2.163,6.223],[-2.168,6.217],[-2.169,6.212],[-2.171,6.2],[-2.172,6.187],[-2.171,6.174],[-2.169,6.168],[-2.166,6.16],[-2.159,6.147],[-2.155,6.143],[-2.125,6.124],[-2.109,6.116],[-2.101,6.113],[-2.096,6.112],[-2.075,6.105],[-2.067,6.1],[-2.057,6.089],[-2.053,6.083],[-2.043,6.056],[-2.039,6.052],[-2.036,6.049],[-2.031,6.047],[-2,6.034],[-1.985,6.026],[-1.981,6.023],[-1.977,6.02],[-1.958,6],[-1.912,5.935],[-1.91,5.932],[-1.906,5.929],[-1.888,5.915],[-1.884,5.912],[-1.879,5.91],[-1.855,5.904],[-1.85,5.902],[-1.844,5.897],[-1.836,5.888],[-1.823,5.87],[-1.818,5.859],[-1.815,5.85],[-1.816,5.844],[-1.82,5.826],[-1.821,5.811],[-1.82,5.8],[-1.818,5.794],[-1.814,5.79],[-1.801,5.784],[-1.794,5.779],[-1.792,5.773],[-1.792,5.767],[-1.795,5.764],[-1.802,5.757],[-1.805,5.753],[-1.807,5.749],[-1.809,5.743],[-1.81,5.737],[-1.809,5.717],[-1.81,5.706],[-1.816,5.685],[-1.822,5.669],[-1.823,5.66],[-1.823,5.649],[-1.819,5.629],[-1.815,5.62],[-1.81,5.615],[-1.805,5.615],[-1.8,5.616],[-1.766,5.629],[-1.756,5.632],[-1.744,5.633],[-1.738,5.633],[-1.732,5.632],[-1.727,5.63],[-1.722,5.627],[-1.711,5.618],[-1.706,5.615],[-1.701,5.613],[-1.695,5.612],[-1.671,5.612],[-1.659,5.61],[-1.648,5.606],[-1.639,5.602],[-1.621,5.592],[-1.607,5.581],[-1.595,5.567],[-1.585,5.553],[-1.584,5.548],[-1.583,5.543],[-1.585,5.539],[-1.59,5.531],[-1.593,5.527],[-1.597,5.525],[-1.602,5.523],[-1.606,5.521],[-1.609,5.518],[-1.611,5.513],[-1.615,5.502],[-1.617,5.491],[-1.617,5.485],[-1.617,5.479],[-1.614,5.467],[-1.607,5.45],[-1.591,5.43],[-1.588,5.427],[-1.579,5.421],[-1.569,5.417],[-1.563,5.414],[-1.557,5.41],[-1.549,5.402],[-1.544,5.396],[-1.541,5.388],[-1.534,5.366],[-1.53,5.359],[-1.527,5.353],[-1.514,5.338],[-1.482,5.309],[-1.441,5.283],[-1.435,5.277],[-1.424,5.265],[-1.421,5.257],[-1.422,5.252],[-1.425,5.248],[-1.455,5.225],[-1.467,5.21],[-1.471,5.207],[-1.475,5.204],[-1.479,5.201],[-1.483,5.2],[-1.488,5.199],[-1.494,5.198],[-1.508,5.198],[-1.513,5.198],[-1.523,5.195],[-1.527,5.193],[-1.532,5.191],[-1.536,5.188],[-1.54,5.185],[-1.546,5.177],[-1.565,5.141],[-1.57,5.131],[-1.573,5.119],[-1.577,5.095],[-1.577,5.084],[-1.569,5.019],[-1.584,5.025],[-1.601,5.027],[-1.618,5.022],[-1.631,5.013],[-1.632,5.005],[-1.625,4.989],[-1.628,4.982],[-1.634,4.974],[-1.638,4.971],[-1.707,4.937],[-1.719,4.928],[-1.748,4.896],[-1.75,4.889],[-1.748,4.882],[-1.749,4.877],[-1.757,4.875],[-1.767,4.875],[-1.835,4.855],[-1.912,4.821],[-1.928,4.807],[-1.952,4.772],[-1.967,4.758],[-1.981,4.752],[-2.05,4.744],[-2.064,4.738],[-2.091,4.737],[-2.097,4.738],[-2.104,4.745],[-2.107,4.755],[-2.106,4.767],[-2.108,4.776],[-2.121,4.779],[-2.129,4.78],[-2.144,4.785],[-2.155,4.786],[-2.154,4.791],[-2.164,4.801],[-2.206,4.834],[-2.227,4.843],[-2.237,4.849],[-2.241,4.858],[-2.243,4.865],[-2.247,4.873],[-2.253,4.879],[-2.357,4.92],[-2.526,4.954],[-2.69,5.01],[-2.821,5.02],[-2.965,5.045],[-3.104,5.088],[-3.12,5.091],[-3.115,5.108],[-3.108,5.11],[-3.099,5.113],[-3.088,5.115],[-3.016,5.114],[-2.994,5.108],[-2.989,5.102],[-2.976,5.085],[-2.971,5.081],[-2.958,5.083],[-2.937,5.091],[-2.926,5.095],[-2.929,5.122],[-2.901,5.134],[-2.865,5.139],[-2.844,5.149],[-2.804,5.148],[-2.781,5.151],[-2.767,5.161],[-2.757,5.18],[-2.762,5.186],[-2.776,5.198],[-2.779,5.201],[-2.78,5.21],[-2.775,5.231],[-2.775,5.24],[-2.779,5.251],[-2.793,5.271],[-2.796,5.285],[-2.79,5.347],[-2.756,5.341],[-2.743,5.343],[-2.733,5.356],[-2.73,5.373],[-2.734,5.391],[-2.762,5.455],[-2.779,5.526],[-2.782,5.579],[-2.786,5.595],[-2.793,5.608],[-2.806,5.618],[-2.877,5.637],[-2.894,5.63],[-2.926,5.611],[-2.946,5.608],[-2.97,5.621],[-2.975,5.647],[-2.965,5.71],[-3.03,5.704],[-3.02,5.818],[-3.023,5.855],[-3.035,5.891],[-3.073,5.961],[-3.088,5.997],[-3.118,6.163],[-3.139,6.219],[-3.169,6.246],[-3.172,6.25]]]}}]}
