{"type":"FeatureCollection","features":[{"type":"Feature","id":"GM-B","properties":{"id":"GM-B","countryCode":"GM","isoSubdivision":"GM-B","name":"Banjul","name_en":"Banjul","name_ko":"반줄","type":"Independent City","labelLongitude":-16.683,"labelLatitude":13.406,"minZoom":8},"geometry":{"type":"Polygon","coordinates":[[[-16.763,13.405],[-16.704,13.475],[-16.679,13.496],[-16.677,13.486],[-16.671,13.479],[-16.663,13.473],[-16.652,13.468],[-16.635,13.477],[-16.617,13.478],[-16.601,13.472],[-16.591,13.461],[-16.585,13.443],[-16.596,13.44],[-16.613,13.439],[-16.624,13.427],[-16.609,13.414],[-16.596,13.385],[-16.619,13.366],[-16.663,13.335],[-16.704,13.338],[-16.736,13.369],[-16.763,13.405]]]}},{"type":"Feature","id":"GM-L","properties":{"id":"GM-L","countryCode":"GM","isoSubdivision":"GM-L","name":"Lower River","name_en":"Lower River","name_ko":"로어리버 구","type":"Division","labelLongitude":-15.705,"labelLatitude":13.406,"minZoom":8},"geometry":{"type":"Polygon","coordinates":[[[-15.181,13.56],[-15.204,13.537],[-15.218,13.515],[-15.222,13.453],[-15.228,13.425],[-15.248,13.399],[-15.277,13.38],[-15.31,13.368],[-15.342,13.363],[-15.379,13.363],[-15.488,13.385],[-15.52,13.387],[-15.543,13.378],[-15.566,13.366],[-15.596,13.356],[-15.612,13.354],[-15.68,13.361],[-15.692,13.36],[-15.737,13.346],[-15.807,13.34],[-15.819,13.334],[-15.823,13.319],[-15.824,13.249],[-15.825,13.249],[-15.971,13.279],[-15.979,13.28],[-16.006,13.273],[-16.026,13.271],[-16.033,13.269],[-16.041,13.268],[-16.047,13.269],[-16.056,13.272],[-16.063,13.273],[-16.074,13.268],[-16.081,13.257],[-16.084,13.254],[-16.09,13.253],[-16.097,13.256],[-16.108,13.266],[-16.111,13.273],[-16.112,13.279],[-16.114,13.284],[-16.118,13.289],[-16.137,13.291],[-16.151,13.284],[-16.162,13.283],[-16.173,13.279],[-16.182,13.274],[-16.19,13.266],[-16.199,13.259],[-16.204,13.265],[-16.208,13.292],[-16.209,13.304],[-16.211,13.313],[-16.217,13.317],[-16.222,13.32],[-16.225,13.326],[-16.227,13.334],[-16.228,13.342],[-16.224,13.36],[-16.216,13.373],[-16.176,13.405],[-16.169,13.413],[-16.166,13.424],[-16.161,13.429],[-16.151,13.427],[-16.135,13.42],[-15.995,13.413],[-15.941,13.425],[-15.922,13.427],[-15.911,13.427],[-15.906,13.426],[-15.901,13.426],[-15.891,13.427],[-15.884,13.43],[-15.878,13.435],[-15.874,13.439],[-15.871,13.441],[-15.85,13.442],[-15.785,13.435],[-15.764,13.437],[-15.706,13.455],[-15.697,13.46],[-15.678,13.473],[-15.669,13.476],[-15.659,13.472],[-15.645,13.458],[-15.635,13.455],[-15.621,13.455],[-15.61,13.456],[-15.601,13.46],[-15.59,13.468],[-15.581,13.478],[-15.565,13.503],[-15.555,13.509],[-15.543,13.51],[-15.531,13.506],[-15.52,13.5],[-15.511,13.493],[-15.5,13.488],[-15.49,13.49],[-15.479,13.494],[-15.47,13.496],[-15.451,13.491],[-15.439,13.479],[-15.429,13.465],[-15.419,13.455],[-15.384,13.444],[-15.341,13.441],[-15.305,13.455],[-15.295,13.496],[-15.3,13.496],[-15.298,13.505],[-15.234,13.541],[-15.21,13.552],[-15.197,13.561],[-15.19,13.563],[-15.184,13.562],[-15.182,13.56],[-15.181,13.56]]]}},{"type":"Feature","id":"GM-M","properties":{"id":"GM-M","countryCode":"GM","isoSubdivision":"GM-M","name":"Central River","name_en":"Central River","name_ko":"센트럴리버 구","type":"Division","labelLongitude":-14.98,"labelLatitude":13.637,"minZoom":8},"geometry":{"type":"Polygon","coordinates":[[[-15.098,13.82],[-15.076,13.819],[-15.017,13.797],[-14.916,13.792],[-14.879,13.781],[-14.86,13.766],[-14.844,13.753],[-14.831,13.736],[-14.822,13.717],[-14.803,13.652],[-14.796,13.645],[-14.755,13.62],[-14.741,13.615],[-14.729,13.619],[-14.667,13.653],[-14.627,13.664],[-14.586,13.66],[-14.543,13.641],[-14.523,13.626],[-14.51,13.609],[-14.5,13.59],[-14.487,13.547],[-14.48,13.533],[-14.47,13.522],[-14.462,13.517],[-14.478,13.507],[-14.481,13.503],[-14.486,13.497],[-14.488,13.489],[-14.493,13.476],[-14.497,13.469],[-14.501,13.465],[-14.519,13.453],[-14.494,13.402],[-14.489,13.399],[-14.503,13.391],[-14.507,13.393],[-14.512,13.395],[-14.519,13.39],[-14.526,13.384],[-14.548,13.336],[-14.552,13.323],[-14.581,13.349],[-14.592,13.353],[-14.625,13.345],[-14.662,13.341],[-14.698,13.345],[-14.732,13.359],[-14.759,13.383],[-14.78,13.411],[-14.79,13.417],[-14.811,13.421],[-14.829,13.427],[-14.863,13.447],[-14.878,13.451],[-14.916,13.454],[-14.95,13.463],[-15.015,13.496],[-15.016,13.496],[-15.065,13.531],[-15.11,13.572],[-15.138,13.59],[-15.16,13.581],[-15.181,13.56],[-15.182,13.56],[-15.184,13.562],[-15.19,13.563],[-15.197,13.561],[-15.21,13.552],[-15.234,13.541],[-15.298,13.505],[-15.3,13.496],[-15.302,13.496],[-15.361,13.538],[-15.373,13.566],[-15.371,13.612],[-15.368,13.626],[-15.379,13.633],[-15.414,13.634],[-15.422,13.634],[-15.439,13.634],[-15.484,13.641],[-15.498,13.642],[-15.497,13.648],[-15.489,13.67],[-15.479,13.691],[-15.468,13.708],[-15.436,13.741],[-15.394,13.772],[-15.348,13.789],[-15.304,13.782],[-15.295,13.773],[-15.276,13.748],[-15.267,13.742],[-15.246,13.747],[-15.171,13.794],[-15.098,13.82]]]}},{"type":"Feature","id":"GM-N","properties":{"id":"GM-N","countryCode":"GM","isoSubdivision":"GM-N","name":"North Bank","name_en":"North Bank","name_ko":"노스뱅크 구","type":"Division","labelLongitude":-15.98,"labelLatitude":13.524,"minZoom":8},"geometry":{"type":"Polygon","coordinates":[[[-15.518,13.583],[-15.502,13.588],[-15.5,13.628],[-15.498,13.642],[-15.484,13.641],[-15.439,13.634],[-15.422,13.634],[-15.414,13.634],[-15.379,13.633],[-15.368,13.626],[-15.371,13.612],[-15.373,13.566],[-15.361,13.538],[-15.302,13.496],[-15.304,13.481],[-15.311,13.468],[-15.322,13.458],[-15.333,13.455],[-15.352,13.457],[-15.386,13.466],[-15.401,13.468],[-15.416,13.473],[-15.432,13.485],[-15.456,13.506],[-15.465,13.51],[-15.474,13.509],[-15.483,13.505],[-15.491,13.503],[-15.5,13.505],[-15.508,13.51],[-15.514,13.515],[-15.518,13.517],[-15.532,13.52],[-15.543,13.526],[-15.556,13.528],[-15.576,13.523],[-15.586,13.515],[-15.601,13.496],[-15.611,13.489],[-15.628,13.489],[-15.655,13.501],[-15.672,13.503],[-15.69,13.499],[-15.734,13.476],[-15.77,13.465],[-16.09,13.44],[-16.122,13.452],[-16.142,13.455],[-16.16,13.451],[-16.178,13.441],[-16.207,13.42],[-16.248,13.379],[-16.258,13.372],[-16.266,13.369],[-16.273,13.363],[-16.281,13.36],[-16.289,13.366],[-16.29,13.373],[-16.287,13.384],[-16.285,13.395],[-16.289,13.407],[-16.306,13.392],[-16.308,13.383],[-16.302,13.372],[-16.312,13.367],[-16.316,13.366],[-16.316,13.359],[-16.312,13.358],[-16.307,13.355],[-16.302,13.353],[-16.322,13.343],[-16.356,13.338],[-16.391,13.337],[-16.412,13.339],[-16.489,13.357],[-16.522,13.359],[-16.516,13.368],[-16.504,13.393],[-16.501,13.403],[-16.504,13.417],[-16.513,13.437],[-16.516,13.444],[-16.52,13.451],[-16.538,13.465],[-16.545,13.476],[-16.554,13.482],[-16.557,13.486],[-16.557,13.506],[-16.548,13.548],[-16.549,13.564],[-16.555,13.577],[-16.561,13.587],[-16.499,13.587],[-16.437,13.586],[-16.375,13.586],[-16.312,13.586],[-16.25,13.586],[-16.188,13.586],[-16.126,13.585],[-16.085,13.585],[-16.064,13.585],[-16.002,13.585],[-15.94,13.585],[-15.878,13.584],[-15.816,13.584],[-15.753,13.584],[-15.691,13.584],[-15.629,13.584],[-15.567,13.583],[-15.518,13.583]]]}},{"type":"Feature","id":"GM-U","properties":{"id":"GM-U","countryCode":"GM","isoSubdivision":"GM-U","name":"Upper River","name_en":"Upper River","name_ko":"어퍼리버 구","type":"Division","labelLongitude":-14.186,"labelLatitude":13.38,"minZoom":8},"geometry":{"type":"Polygon","coordinates":[[[-14.462,13.517],[-14.39,13.466],[-14.366,13.455],[-14.347,13.452],[-14.33,13.456],[-14.271,13.477],[-14.216,13.511],[-14.197,13.519],[-14.139,13.532],[-14.093,13.555],[-14.073,13.56],[-14.062,13.56],[-14.044,13.559],[-14.034,13.56],[-14.022,13.565],[-14.002,13.577],[-13.988,13.579],[-13.967,13.576],[-13.942,13.567],[-13.918,13.555],[-13.901,13.542],[-13.896,13.533],[-13.89,13.514],[-13.885,13.506],[-13.883,13.504],[-13.875,13.498],[-13.853,13.485],[-13.843,13.477],[-13.819,13.429],[-13.823,13.378],[-13.851,13.336],[-13.901,13.315],[-13.976,13.308],[-14.016,13.298],[-14.057,13.297],[-14.099,13.282],[-14.117,13.282],[-14.132,13.276],[-14.18,13.24],[-14.202,13.23],[-14.231,13.229],[-14.285,13.239],[-14.342,13.234],[-14.369,13.236],[-14.395,13.243],[-14.431,13.261],[-14.442,13.269],[-14.451,13.277],[-14.459,13.287],[-14.47,13.298],[-14.484,13.302],[-14.515,13.303],[-14.53,13.307],[-14.543,13.315],[-14.552,13.323],[-14.548,13.336],[-14.526,13.384],[-14.519,13.39],[-14.512,13.395],[-14.507,13.393],[-14.503,13.391],[-14.489,13.399],[-14.494,13.402],[-14.519,13.453],[-14.501,13.465],[-14.497,13.469],[-14.493,13.476],[-14.488,13.489],[-14.486,13.497],[-14.481,13.503],[-14.478,13.507],[-14.462,13.517]]]}},{"type":"Feature","id":"GM-W","properties":{"id":"GM-W","countryCode":"GM","isoSubdivision":"GM-W","name":"West Coast","name_en":"West Coast","name_ko":"웨스트코스트구","type":"Division","labelLongitude":-16.314,"labelLatitude":13.221,"minZoom":8},"geometry":{"type":"Polygon","coordinates":[[[-15.824,13.249],[-15.825,13.233],[-15.827,13.162],[-15.833,13.157],[-15.871,13.157],[-15.897,13.157],[-15.962,13.158],[-16.092,13.159],[-16.313,13.161],[-16.465,13.162],[-16.63,13.164],[-16.674,13.164],[-16.708,13.157],[-16.723,13.132],[-16.726,13.123],[-16.742,13.107],[-16.749,13.099],[-16.752,13.088],[-16.754,13.065],[-16.769,13.078],[-16.784,13.083],[-16.787,13.09],[-16.783,13.098],[-16.776,13.113],[-16.777,13.128],[-16.797,13.177],[-16.797,13.189],[-16.795,13.236],[-16.797,13.249],[-16.803,13.262],[-16.82,13.281],[-16.824,13.295],[-16.817,13.311],[-16.82,13.316],[-16.83,13.339],[-16.821,13.349],[-16.81,13.38],[-16.8,13.386],[-16.787,13.389],[-16.774,13.396],[-16.763,13.405],[-16.736,13.369],[-16.704,13.338],[-16.663,13.335],[-16.619,13.366],[-16.596,13.385],[-16.588,13.355],[-16.591,13.339],[-16.554,13.296],[-16.546,13.29],[-16.495,13.288],[-16.481,13.284],[-16.468,13.276],[-16.46,13.269],[-16.45,13.264],[-16.429,13.262],[-16.42,13.256],[-16.414,13.24],[-16.413,13.222],[-16.419,13.208],[-16.4,13.224],[-16.391,13.225],[-16.378,13.215],[-16.384,13.225],[-16.402,13.243],[-16.406,13.246],[-16.408,13.259],[-16.415,13.267],[-16.426,13.271],[-16.44,13.27],[-16.44,13.276],[-16.411,13.276],[-16.397,13.278],[-16.385,13.284],[-16.375,13.264],[-16.363,13.268],[-16.35,13.282],[-16.333,13.29],[-16.315,13.296],[-16.278,13.319],[-16.258,13.325],[-16.23,13.316],[-16.226,13.297],[-16.23,13.274],[-16.228,13.256],[-16.21,13.251],[-16.185,13.258],[-16.151,13.276],[-16.151,13.284],[-16.137,13.291],[-16.118,13.289],[-16.114,13.284],[-16.112,13.279],[-16.111,13.273],[-16.108,13.266],[-16.097,13.256],[-16.09,13.253],[-16.084,13.254],[-16.081,13.257],[-16.074,13.268],[-16.063,13.273],[-16.056,13.272],[-16.047,13.269],[-16.041,13.268],[-16.033,13.269],[-16.026,13.271],[-16.006,13.273],[-15.979,13.28],[-15.971,13.279],[-15.825,13.249],[-15.824,13.249]]]}}]}
