{"type":"FeatureCollection","features":[{"type":"Feature","id":"GN-BE","properties":{"id":"GN-BE","countryCode":"GN","isoSubdivision":"GN-BE","name":"Beyla Prefecture","name_en":"Beyla Prefecture","name_ko":"베일라 지방 행정 구역","type":"Prefecture","labelLongitude":-8.407,"labelLatitude":8.814,"minZoom":8},"geometry":{"type":"Polygon","coordinates":[[[-8.07,9.398],[-8.054,9.389],[-8.032,9.385],[-8.01,9.384],[-7.992,9.385],[-7.971,9.393],[-7.933,9.414],[-7.912,9.419],[-7.871,9.419],[-7.865,9.41],[-7.892,9.33],[-7.895,9.307],[-7.931,9.22],[-7.93,9.184],[-7.879,9.164],[-7.866,9.166],[-7.856,9.17],[-7.848,9.169],[-7.834,9.143],[-7.823,9.132],[-7.801,9.115],[-7.759,9.092],[-7.747,9.076],[-7.748,9.075],[-7.764,9.064],[-7.788,9.06],[-7.808,9.06],[-7.827,9.058],[-7.917,9.012],[-7.932,8.997],[-7.932,8.996],[-7.942,8.972],[-7.946,8.949],[-7.951,8.9],[-7.969,8.813],[-7.959,8.782],[-7.913,8.768],[-7.891,8.766],[-7.831,8.748],[-7.827,8.748],[-7.816,8.754],[-7.81,8.753],[-7.804,8.749],[-7.796,8.736],[-7.791,8.731],[-7.772,8.715],[-7.765,8.706],[-7.741,8.663],[-7.732,8.652],[-7.704,8.633],[-7.697,8.625],[-7.692,8.606],[-7.694,8.568],[-7.692,8.547],[-7.679,8.505],[-7.679,8.488],[-7.686,8.463],[-7.69,8.439],[-7.683,8.417],[-7.662,8.375],[-7.721,8.369],[-7.748,8.372],[-7.771,8.387],[-7.802,8.449],[-7.824,8.478],[-7.846,8.474],[-7.849,8.459],[-7.847,8.443],[-7.849,8.429],[-7.866,8.421],[-7.882,8.421],[-7.899,8.426],[-7.913,8.434],[-7.924,8.444],[-7.932,8.457],[-7.937,8.471],[-7.944,8.485],[-7.956,8.494],[-7.971,8.497],[-7.986,8.495],[-8.016,8.487],[-8.025,8.489],[-8.042,8.487],[-8.051,8.488],[-8.057,8.491],[-8.068,8.5],[-8.077,8.503],[-8.097,8.502],[-8.13,8.489],[-8.151,8.486],[-8.186,8.494],[-8.2,8.492],[-8.249,8.454],[-8.254,8.447],[-8.254,8.434],[-8.249,8.424],[-8.242,8.413],[-8.237,8.4],[-8.235,8.38],[-8.248,8.323],[-8.248,8.304],[-8.245,8.285],[-8.248,8.274],[-8.265,8.257],[-8.266,8.246],[-8.183,8.192],[-8.086,8.162],[-8.076,8.163],[-8.016,8.184],[-8.003,8.184],[-8.002,8.174],[-8.008,8.16],[-8.016,8.148],[-8.022,8.118],[-8.021,8.103],[-8.016,8.088],[-7.997,8.077],[-7.98,8.059],[-7.968,8.037],[-7.966,8.027],[-7.963,8.015],[-7.98,8.017],[-7.993,8.024],[-8.002,8.032],[-8.012,8.036],[-8.054,8.029],[-8.069,8.029],[-8.067,8.021],[-8.111,8.049],[-8.207,8.136],[-8.279,8.196],[-8.37,8.22],[-8.43,8.217],[-8.445,8.241],[-8.478,8.265],[-8.538,8.271],[-8.55,8.307],[-8.589,8.349],[-8.652,8.364],[-8.736,8.358],[-8.823,8.319],[-8.91,8.298],[-8.895,8.34],[-8.874,8.397],[-8.856,8.463],[-8.871,8.55],[-8.904,8.635],[-8.952,8.701],[-8.968,8.746],[-8.969,8.962],[-8.926,9.002],[-8.884,9.022],[-8.807,9.036],[-8.764,9.056],[-8.728,9.072],[-8.727,9.077],[-8.725,9.083],[-8.717,9.1],[-8.715,9.11],[-8.711,9.119],[-8.667,9.195],[-8.622,9.227],[-8.599,9.27],[-8.565,9.315],[-8.53,9.327],[-8.522,9.367],[-8.479,9.381],[-8.428,9.378],[-8.385,9.364],[-8.32,9.335],[-8.271,9.341],[-8.211,9.372],[-8.149,9.401],[-8.07,9.398]]]}},{"type":"Feature","id":"GN-BF","properties":{"id":"GN-BF","countryCode":"GN","isoSubdivision":"GN-BF","name":"Boffa Prefecture","name_en":"Boffa Prefecture","name_ko":"보파 지방 행정 구역","type":"Prefecture","labelLongitude":-14.076,"labelLatitude":10.399,"minZoom":8},"geometry":{"type":"Polygon","coordinates":[[[-13.69,9.951],[-13.694,9.954],[-13.697,9.94],[-13.699,9.921],[-13.702,9.912],[-13.713,9.905],[-13.732,9.877],[-13.747,9.871],[-13.745,9.867],[-13.75,9.863],[-13.785,9.85],[-13.789,9.85],[-13.81,9.852],[-13.828,9.855],[-13.843,9.861],[-13.849,9.868],[-13.855,9.879],[-13.869,9.896],[-13.886,9.912],[-13.901,9.919],[-13.928,9.936],[-13.933,9.943],[-13.945,9.967],[-13.954,9.971],[-13.971,9.972],[-13.979,9.974],[-13.987,9.98],[-14.007,10.001],[-14.022,10.007],[-14.032,10.009],[-14.043,10.013],[-14.058,10.025],[-14.062,10.05],[-14.046,10.079],[-14.02,10.094],[-13.994,10.076],[-14.001,10.088],[-14.015,10.105],[-14.028,10.117],[-14.034,10.114],[-14.042,10.101],[-14.057,10.107],[-14.068,10.118],[-14.065,10.125],[-14.044,10.133],[-14.027,10.154],[-14,10.2],[-14.015,10.193],[-14.025,10.184],[-14.045,10.162],[-14.055,10.155],[-14.083,10.143],[-14.089,10.138],[-14.091,10.126],[-14.089,10.08],[-14.092,10.069],[-14.101,10.058],[-14.113,10.051],[-14.13,10.049],[-14.153,10.056],[-14.17,10.071],[-14.18,10.09],[-14.179,10.11],[-14.163,10.127],[-14.138,10.144],[-14.124,10.163],[-14.138,10.179],[-14.142,10.165],[-14.153,10.156],[-14.169,10.153],[-14.185,10.152],[-14.182,10.13],[-14.2,10.113],[-14.222,10.106],[-14.233,10.114],[-14.237,10.121],[-14.244,10.129],[-14.251,10.141],[-14.254,10.155],[-14.25,10.163],[-14.244,10.169],[-14.24,10.175],[-14.244,10.182],[-14.249,10.184],[-14.255,10.183],[-14.259,10.18],[-14.261,10.176],[-14.27,10.16],[-14.292,10.172],[-14.352,10.226],[-14.363,10.231],[-14.377,10.234],[-14.392,10.233],[-14.406,10.229],[-14.419,10.228],[-14.432,10.234],[-14.453,10.215],[-14.463,10.225],[-14.466,10.25],[-14.466,10.272],[-14.458,10.304],[-14.459,10.317],[-14.463,10.33],[-14.469,10.336],[-14.475,10.34],[-14.537,10.404],[-14.548,10.426],[-14.551,10.447],[-14.551,10.472],[-14.546,10.495],[-14.536,10.507],[-14.499,10.536],[-14.46,10.569],[-14.405,10.593],[-14.276,10.599],[-14.207,10.62],[-14.145,10.669],[-14.05,10.669],[-14.031,10.641],[-13.986,10.647],[-13.928,10.675],[-13.921,10.668],[-13.916,10.667],[-13.912,10.668],[-13.909,10.673],[-13.906,10.677],[-13.893,10.682],[-13.888,10.685],[-13.851,10.691],[-13.842,10.722],[-13.833,10.725],[-13.825,10.729],[-13.818,10.736],[-13.81,10.74],[-13.8,10.741],[-13.774,10.73],[-13.764,10.728],[-13.746,10.73],[-13.734,10.729],[-13.724,10.722],[-13.612,10.715],[-13.624,10.554],[-13.672,10.518],[-13.69,10.506],[-13.732,10.491],[-13.757,10.455],[-13.811,10.395],[-13.829,10.353],[-13.819,10.296],[-13.841,10.239],[-13.87,10.185],[-13.908,10.129],[-13.912,10.124],[-13.913,10.117],[-13.91,10.104],[-13.908,10.097],[-13.904,10.091],[-13.899,10.085],[-13.785,9.99],[-13.78,9.987],[-13.775,9.985],[-13.763,9.983],[-13.724,9.983],[-13.718,9.982],[-13.708,9.977],[-13.7,9.969],[-13.69,9.952],[-13.69,9.951]]]}},{"type":"Feature","id":"GN-BK","properties":{"id":"GN-BK","countryCode":"GN","isoSubdivision":"GN-BK","name":"Boké","name_en":"Boké","name_ko":"보케","type":"Prefecture","labelLongitude":-14.309,"labelLatitude":11.167,"minZoom":8},"geometry":{"type":"Polygon","coordinates":[[[-14.29,11.669],[-14.284,11.668],[-14.279,11.665],[-14.195,11.66],[-14.172,11.663],[-14.162,11.661],[-14.153,11.655],[-14.144,11.647],[-14.135,11.642],[-14.119,11.638],[-14.105,11.639],[-14.075,11.644],[-14.059,11.644],[-14.015,11.637],[-14.024,11.594],[-14.048,11.564],[-14.048,11.534],[-14.021,11.513],[-13.97,11.513],[-13.934,11.486],[-13.919,11.429],[-13.91,11.378],[-13.883,11.354],[-13.841,11.345],[-13.807,11.292],[-13.825,11.275],[-13.844,11.272],[-13.839,11.262],[-13.835,11.26],[-13.829,11.259],[-13.817,11.258],[-13.812,11.255],[-13.803,11.243],[-13.796,11.236],[-13.784,11.221],[-13.783,11.214],[-13.784,11.192],[-13.782,11.186],[-13.778,11.182],[-13.773,11.179],[-13.762,11.17],[-13.76,11.165],[-13.76,11.158],[-13.76,11.149],[-13.759,11.128],[-13.76,11.119],[-13.77,11.077],[-13.772,11.074],[-13.776,11.071],[-13.785,11.067],[-13.794,11.061],[-13.813,11.043],[-13.817,11.037],[-13.816,11.027],[-13.825,10.982],[-13.841,10.944],[-13.86,10.89],[-13.931,10.858],[-13.99,10.862],[-14.04,10.792],[-14.1,10.732],[-14.145,10.669],[-14.207,10.62],[-14.276,10.599],[-14.405,10.593],[-14.46,10.569],[-14.499,10.536],[-14.536,10.507],[-14.535,10.508],[-14.551,10.507],[-14.562,10.499],[-14.572,10.489],[-14.583,10.481],[-14.596,10.476],[-14.614,10.473],[-14.629,10.476],[-14.637,10.488],[-14.644,10.488],[-14.651,10.475],[-14.658,10.48],[-14.663,10.494],[-14.665,10.512],[-14.664,10.529],[-14.661,10.543],[-14.65,10.57],[-14.639,10.567],[-14.626,10.577],[-14.611,10.593],[-14.596,10.604],[-14.621,10.604],[-14.629,10.617],[-14.627,10.635],[-14.615,10.691],[-14.607,10.705],[-14.596,10.699],[-14.59,10.699],[-14.588,10.714],[-14.581,10.722],[-14.572,10.726],[-14.569,10.731],[-14.555,10.776],[-14.531,10.823],[-14.517,10.829],[-14.51,10.842],[-14.508,10.858],[-14.514,10.872],[-14.51,10.876],[-14.5,10.891],[-14.52,10.885],[-14.523,10.878],[-14.519,10.867],[-14.521,10.851],[-14.555,10.828],[-14.559,10.823],[-14.573,10.812],[-14.59,10.787],[-14.604,10.76],[-14.616,10.728],[-14.63,10.706],[-14.658,10.673],[-14.686,10.648],[-14.7,10.643],[-14.706,10.655],[-14.704,10.671],[-14.698,10.682],[-14.689,10.689],[-14.678,10.693],[-14.686,10.695],[-14.692,10.694],[-14.698,10.692],[-14.706,10.686],[-14.719,10.699],[-14.707,10.739],[-14.699,10.756],[-14.688,10.772],[-14.682,10.778],[-14.668,10.787],[-14.661,10.793],[-14.656,10.801],[-14.653,10.808],[-14.651,10.81],[-14.657,10.812],[-14.665,10.817],[-14.678,10.8],[-14.723,10.765],[-14.735,10.748],[-14.746,10.711],[-14.76,10.699],[-14.77,10.719],[-14.783,10.731],[-14.793,10.745],[-14.795,10.768],[-14.782,10.768],[-14.77,10.777],[-14.761,10.79],[-14.754,10.803],[-14.749,10.816],[-14.746,10.831],[-14.745,10.844],[-14.747,10.851],[-14.744,10.857],[-14.742,10.861],[-14.74,10.872],[-14.759,10.858],[-14.765,10.85],[-14.768,10.841],[-14.773,10.836],[-14.801,10.823],[-14.809,10.823],[-14.81,10.835],[-14.809,10.846],[-14.807,10.855],[-14.801,10.864],[-14.807,10.874],[-14.808,10.882],[-14.804,10.891],[-14.795,10.899],[-14.814,10.9],[-14.82,10.912],[-14.817,10.927],[-14.809,10.94],[-14.796,10.948],[-14.779,10.954],[-14.76,10.958],[-14.744,10.96],[-14.732,10.966],[-14.725,10.981],[-14.721,10.995],[-14.716,11.001],[-14.699,11.006],[-14.681,11.027],[-14.665,11.036],[-14.672,11.041],[-14.677,11.048],[-14.685,11.064],[-14.687,11.054],[-14.69,11.045],[-14.695,11.038],[-14.702,11.036],[-14.708,11.034],[-14.724,11.028],[-14.727,11.026],[-14.731,11.006],[-14.742,10.989],[-14.757,10.981],[-14.775,10.988],[-14.779,10.983],[-14.785,10.981],[-14.791,10.98],[-14.801,10.981],[-14.795,11],[-14.801,11.012],[-14.811,11.014],[-14.816,11.005],[-14.843,10.967],[-14.875,10.973],[-14.894,11.03],[-14.919,11.029],[-14.901,11.012],[-14.899,10.993],[-14.904,10.975],[-14.911,10.96],[-14.932,10.976],[-14.944,10.98],[-14.96,10.981],[-14.926,10.956],[-14.914,10.942],[-14.911,10.926],[-14.921,10.908],[-14.94,10.889],[-14.958,10.876],[-14.966,10.875],[-14.968,10.878],[-14.973,10.879],[-14.978,10.878],[-14.98,10.875],[-14.979,10.869],[-14.974,10.859],[-14.973,10.854],[-14.973,10.82],[-14.969,10.814],[-14.96,10.81],[-14.95,10.804],[-14.946,10.793],[-14.948,10.788],[-14.96,10.768],[-14.978,10.777],[-15.014,10.783],[-15.032,10.793],[-15.053,10.814],[-15.069,10.837],[-15.079,10.859],[-15.081,10.878],[-15.074,10.897],[-15.059,10.916],[-15.052,10.92],[-15.032,10.925],[-15.028,10.929],[-15.027,10.937],[-15.024,10.944],[-15.019,10.95],[-15.015,10.954],[-15.015,10.96],[-15.019,10.96],[-15.02,10.961],[-15.02,10.964],[-15.021,10.967],[-14.993,10.996],[-14.959,11.036],[-14.863,11.219],[-14.843,11.297],[-14.828,11.335],[-14.729,11.478],[-14.711,11.498],[-14.687,11.511],[-14.645,11.515],[-14.562,11.506],[-14.521,11.513],[-14.432,11.561],[-14.339,11.611],[-14.326,11.621],[-14.32,11.631],[-14.308,11.655],[-14.3,11.663],[-14.29,11.669]]]}},{"type":"Feature","id":"GN-C","properties":{"id":"GN-C","countryCode":"GN","isoSubdivision":"GN-C","name":"Conakry","name_en":"Conakry","name_ko":"코나크리","type":"Administrative Zone","labelLongitude":-13.685,"labelLatitude":9.539,"minZoom":8},"geometry":{"type":"Polygon","coordinates":[[[-13.643,9.543],[-13.678,9.523],[-13.706,9.514],[-13.707,9.512],[-13.714,9.508],[-13.722,9.506],[-13.726,9.511],[-13.724,9.52],[-13.719,9.522],[-13.712,9.524],[-13.706,9.528],[-13.673,9.574],[-13.643,9.543]]]}},{"type":"Feature","id":"GN-CO","properties":{"id":"GN-CO","countryCode":"GN","isoSubdivision":"GN-CO","name":"Coyah Prefecture","name_en":"Coyah Prefecture","name_ko":"코야 지방 행정 구역","type":"Prefecture","labelLongitude":-13.348,"labelLatitude":9.791,"minZoom":8},"geometry":{"type":"Polygon","coordinates":[[[-13.487,9.569],[-13.494,9.569],[-13.516,9.524],[-13.522,9.578],[-13.528,9.65],[-13.498,9.689],[-13.474,9.734],[-13.474,9.767],[-13.486,9.824],[-13.474,9.899],[-13.441,9.954],[-13.393,9.993],[-13.312,9.999],[-13.282,9.999],[-13.24,9.963],[-13.219,9.938],[-13.21,9.851],[-13.225,9.818],[-13.246,9.788],[-13.234,9.746],[-13.195,9.722],[-13.153,9.707],[-13.108,9.65],[-13.093,9.605],[-13.09,9.563],[-13.132,9.557],[-13.207,9.563],[-13.237,9.581],[-13.276,9.62],[-13.318,9.638],[-13.369,9.614],[-13.423,9.596],[-13.456,9.593],[-13.487,9.569]]]}},{"type":"Feature","id":"GN-DB","properties":{"id":"GN-DB","countryCode":"GN","isoSubdivision":"GN-DB","name":"Dabola Prefecture","name_en":"Dabola Prefecture","name_ko":"다보라 지방 행정 구역","type":"Prefecture","labelLongitude":-11.2,"labelLatitude":10.777,"minZoom":8},"geometry":{"type":"Polygon","coordinates":[[[-11.449,9.995],[-11.485,9.995],[-11.588,9.994],[-11.606,10.069],[-11.594,10.157],[-11.572,10.189],[-11.565,10.242],[-11.566,10.372],[-11.553,10.735],[-11.553,10.796],[-11.584,10.809],[-11.595,10.819],[-11.592,10.826],[-11.588,10.866],[-11.589,10.899],[-11.603,10.965],[-11.595,10.976],[-11.59,10.98],[-11.582,10.986],[-11.489,11.064],[-11.423,11.064],[-11.416,11.029],[-11.194,11.026],[-11.173,11.002],[-11.14,10.966],[-11.083,10.945],[-11.026,10.96],[-10.914,11.032],[-10.833,11.089],[-10.758,11.104],[-10.703,11.113],[-10.694,11.1],[-10.696,11.091],[-10.712,11.056],[-10.718,11.046],[-10.725,11.039],[-10.73,11.037],[-10.738,11.032],[-10.748,11.022],[-10.755,11.013],[-10.761,11.008],[-10.766,11.004],[-10.776,11.001],[-10.779,10.998],[-10.793,10.983],[-10.798,10.976],[-10.801,10.969],[-10.808,10.941],[-10.817,10.919],[-10.823,10.909],[-10.83,10.903],[-10.841,10.901],[-10.851,10.897],[-10.865,10.889],[-10.891,10.871],[-10.896,10.863],[-10.898,10.854],[-10.896,10.844],[-10.892,10.835],[-10.886,10.826],[-10.877,10.817],[-10.864,10.808],[-10.731,10.766],[-10.723,10.76],[-10.718,10.758],[-10.713,10.756],[-10.698,10.755],[-10.692,10.753],[-10.687,10.75],[-10.677,10.737],[-10.673,10.734],[-10.648,10.722],[-10.644,10.718],[-10.639,10.712],[-10.626,10.689],[-10.623,10.685],[-10.598,10.662],[-10.623,10.648],[-10.653,10.611],[-10.728,10.602],[-10.809,10.608],[-10.845,10.645],[-10.881,10.657],[-10.947,10.633],[-11.02,10.608],[-11.107,10.521],[-11.161,10.473],[-11.248,10.464],[-11.302,10.419],[-11.377,10.395],[-11.392,10.167],[-11.422,10.062],[-11.449,9.995]]]}},{"type":"Feature","id":"GN-DI","properties":{"id":"GN-DI","countryCode":"GN","isoSubdivision":"GN-DI","name":"Dinguiraye Prefecture","name_en":"Dinguiraye Prefecture","name_ko":"딩기라예 지방 행정 구역","type":"Prefecture","labelLongitude":-10.675,"labelLatitude":11.561,"minZoom":8},"geometry":{"type":"Polygon","coordinates":[[[-10.952,12.219],[-10.928,12.213],[-10.91,12.2],[-10.87,12.138],[-10.846,12.121],[-10.823,12.11],[-10.805,12.096],[-10.799,12.068],[-10.801,12.059],[-10.811,12.042],[-10.812,12.033],[-10.808,12.023],[-10.781,11.996],[-10.74,11.92],[-10.711,11.89],[-10.67,11.892],[-10.655,11.899],[-10.645,11.908],[-10.634,11.925],[-10.625,11.944],[-10.622,11.958],[-10.614,11.968],[-10.596,11.98],[-10.575,11.99],[-10.559,11.995],[-10.567,12.017],[-10.555,12.029],[-10.535,12.039],[-10.515,12.053],[-10.515,12.06],[-10.518,12.071],[-10.517,12.08],[-10.508,12.085],[-10.504,12.088],[-10.513,12.108],[-10.512,12.118],[-10.493,12.124],[-10.446,12.121],[-10.436,12.135],[-10.429,12.143],[-10.395,12.172],[-10.381,12.18],[-10.375,12.175],[-10.368,12.172],[-10.353,12.166],[-10.354,12.181],[-10.348,12.185],[-10.339,12.185],[-10.33,12.19],[-10.326,12.2],[-10.324,12.202],[-10.316,12.197],[-10.314,12.191],[-10.311,12.191],[-10.305,12.203],[-10.267,12.218],[-10.259,12.214],[-10.254,12.207],[-10.248,12.201],[-10.215,12.195],[-10.18,12.178],[-10.16,12.175],[-10.136,12.175],[-10.129,12.175],[-10.119,12.17],[-10.105,12.159],[-10.097,12.154],[-10.09,12.152],[-10.087,12.151],[-10.07,12.15],[-10.06,12.148],[-10.048,12.141],[-10.028,12.126],[-10.016,12.12],[-9.996,12.114],[-9.962,12.096],[-9.942,12.093],[-9.923,12.088],[-9.889,12.061],[-9.955,12.019],[-9.994,11.965],[-10.083,11.897],[-10.183,11.845],[-10.191,11.835],[-10.2,11.825],[-10.208,11.815],[-10.151,11.727],[-10.115,11.694],[-10.065,11.641],[-10.026,11.545],[-10.029,11.378],[-10.14,11.374],[-10.243,11.452],[-10.321,11.467],[-10.386,11.442],[-10.4,11.399],[-10.343,11.269],[-10.343,11.207],[-10.375,11.178],[-10.457,11.175],[-10.549,11.175],[-10.581,11.182],[-10.598,11.209],[-10.649,11.235],[-10.695,11.228],[-10.703,11.185],[-10.703,11.113],[-10.758,11.104],[-10.833,11.089],[-10.914,11.032],[-11.026,10.96],[-11.083,10.945],[-11.14,10.966],[-11.173,11.002],[-11.194,11.026],[-11.416,11.029],[-11.423,11.064],[-11.312,11.14],[-11.249,11.184],[-11.249,11.229],[-11.271,11.282],[-11.306,11.326],[-11.266,11.385],[-11.251,11.4],[-11.241,11.407],[-11.231,11.413],[-11.196,11.425],[-11.19,11.43],[-11.185,11.437],[-11.173,11.447],[-11.158,11.456],[-11.146,11.46],[-11.139,11.467],[-11.132,11.483],[-11.137,11.49],[-11.196,11.518],[-11.203,11.524],[-11.211,11.531],[-11.214,11.534],[-11.217,11.539],[-11.218,11.544],[-11.218,11.551],[-11.216,11.562],[-11.139,11.658],[-11.135,11.702],[-11.132,11.731],[-11.131,11.765],[-11.119,11.787],[-11.119,11.83],[-11.119,11.891],[-11.166,11.935],[-11.181,11.971],[-11.185,12.021],[-11.176,12.029],[-11.166,12.049],[-11.159,12.078],[-11.153,12.081],[-11.144,12.081],[-11.136,12.085],[-11.122,12.107],[-11.117,12.113],[-11.117,12.114],[-11.084,12.137],[-11.073,12.149],[-11.06,12.192],[-11.052,12.203],[-11.039,12.205],[-11.015,12.204],[-10.972,12.219],[-10.952,12.219]]]}},{"type":"Feature","id":"GN-DL","properties":{"id":"GN-DL","countryCode":"GN","isoSubdivision":"GN-DL","name":"Dalaba Prefecture","name_en":"Dalaba Prefecture","name_ko":"달라바 지방 행정 구역","type":"Prefecture","labelLongitude":-12.214,"labelLatitude":10.833,"minZoom":8},"geometry":{"type":"Polygon","coordinates":[[[-12.005,11.287],[-11.996,11.247],[-11.987,11.228],[-11.977,11.216],[-11.968,11.211],[-11.957,11.208],[-11.942,11.201],[-11.928,11.191],[-11.911,11.173],[-11.905,11.159],[-11.903,11.142],[-11.908,11.111],[-11.91,11.089],[-11.909,11.068],[-11.904,11.034],[-11.897,11.018],[-11.888,11.006],[-11.878,11.002],[-11.867,11],[-11.824,11.001],[-11.813,11.002],[-11.786,10.969],[-11.78,10.897],[-11.801,10.849],[-11.822,10.804],[-11.861,10.786],[-11.948,10.78],[-12.029,10.762],[-12.101,10.708],[-12.173,10.636],[-12.197,10.593],[-12.275,10.581],[-12.311,10.563],[-12.359,10.524],[-12.415,10.491],[-12.428,10.497],[-12.433,10.505],[-12.436,10.525],[-12.443,10.531],[-12.452,10.535],[-12.471,10.54],[-12.478,10.543],[-12.49,10.55],[-12.496,10.558],[-12.497,10.568],[-12.491,10.589],[-12.493,10.615],[-12.5,10.619],[-12.505,10.619],[-12.513,10.617],[-12.524,10.609],[-12.571,10.563],[-12.61,10.544],[-12.65,10.529],[-12.645,10.675],[-12.618,10.732],[-12.552,10.777],[-12.495,10.825],[-12.441,10.837],[-12.402,10.9],[-12.384,10.954],[-12.338,10.987],[-12.293,11.008],[-12.257,11.029],[-12.134,11.032],[-12.146,11.074],[-12.173,11.095],[-12.182,11.134],[-12.158,11.17],[-12.155,11.218],[-12.134,11.248],[-12.122,11.293],[-12.105,11.303],[-12.093,11.306],[-12.086,11.303],[-12.075,11.294],[-12.069,11.291],[-12.062,11.29],[-12.055,11.291],[-12.049,11.291],[-12.03,11.286],[-12.005,11.287]]]}},{"type":"Feature","id":"GN-DU","properties":{"id":"GN-DU","countryCode":"GN","isoSubdivision":"GN-DU","name":"Dubréka Prefecture","name_en":"Dubréka Prefecture","name_ko":"두브레카 지방 행정 구역","type":"Prefecture","labelLongitude":-13.468,"labelLatitude":10.114,"minZoom":8},"geometry":{"type":"Polygon","coordinates":[[[-13.673,9.574],[-13.653,9.597],[-13.641,9.624],[-13.626,9.647],[-13.623,9.663],[-13.624,9.72],[-13.623,9.727],[-13.619,9.732],[-13.605,9.737],[-13.602,9.744],[-13.595,9.755],[-13.581,9.762],[-13.567,9.771],[-13.561,9.788],[-13.582,9.777],[-13.594,9.774],[-13.604,9.78],[-13.648,9.831],[-13.651,9.843],[-13.655,9.842],[-13.658,9.841],[-13.665,9.837],[-13.654,9.805],[-13.651,9.777],[-13.661,9.755],[-13.692,9.74],[-13.729,9.744],[-13.747,9.768],[-13.75,9.8],[-13.74,9.829],[-13.698,9.881],[-13.682,9.913],[-13.685,9.946],[-13.69,9.951],[-13.69,9.952],[-13.7,9.969],[-13.708,9.977],[-13.718,9.982],[-13.724,9.983],[-13.763,9.983],[-13.775,9.985],[-13.78,9.987],[-13.785,9.99],[-13.899,10.085],[-13.904,10.091],[-13.908,10.097],[-13.91,10.104],[-13.913,10.117],[-13.912,10.124],[-13.908,10.129],[-13.87,10.185],[-13.841,10.239],[-13.819,10.296],[-13.756,10.296],[-13.678,10.28],[-13.484,10.239],[-13.408,10.258],[-13.367,10.318],[-13.295,10.377],[-13.212,10.397],[-13.135,10.404],[-13.135,10.296],[-13.12,10.275],[-13.114,10.242],[-13.132,10.212],[-13.156,10.188],[-13.156,10.11],[-13.204,10.092],[-13.234,10.065],[-13.243,10.038],[-13.282,9.999],[-13.312,9.999],[-13.393,9.993],[-13.441,9.954],[-13.474,9.899],[-13.486,9.824],[-13.474,9.767],[-13.474,9.734],[-13.498,9.689],[-13.528,9.65],[-13.522,9.578],[-13.516,9.524],[-13.529,9.506],[-13.547,9.5],[-13.561,9.509],[-13.575,9.527],[-13.586,9.549],[-13.588,9.569],[-13.619,9.556],[-13.643,9.543],[-13.673,9.574]]]}},{"type":"Feature","id":"GN-FA","properties":{"id":"GN-FA","countryCode":"GN","isoSubdivision":"GN-FA","name":"Faranah","name_en":"Faranah","name_ko":"파라나","type":"Prefecture","labelLongitude":-10.881,"labelLatitude":9.985,"minZoom":8},"geometry":{"type":"Polygon","coordinates":[[[-10.802,9.387],[-10.819,9.388],[-10.832,9.392],[-10.822,9.401],[-10.811,9.408],[-10.813,9.414],[-10.829,9.424],[-10.844,9.44],[-10.855,9.455],[-10.859,9.473],[-10.854,9.498],[-10.853,9.512],[-10.86,9.519],[-10.871,9.523],[-10.878,9.533],[-10.883,9.56],[-10.886,9.568],[-10.896,9.578],[-10.922,9.596],[-10.929,9.606],[-10.936,9.632],[-10.94,9.64],[-10.947,9.645],[-10.963,9.651],[-10.968,9.654],[-10.975,9.664],[-10.986,9.698],[-11.01,9.743],[-11.045,9.787],[-11.086,9.826],[-11.16,9.873],[-11.168,9.884],[-11.181,9.95],[-11.189,9.973],[-11.2,9.982],[-11.213,9.983],[-11.247,9.993],[-11.273,9.996],[-11.449,9.995],[-11.422,10.062],[-11.392,10.167],[-11.377,10.395],[-11.302,10.419],[-11.248,10.464],[-11.161,10.473],[-11.107,10.521],[-11.02,10.608],[-10.947,10.633],[-10.881,10.657],[-10.845,10.645],[-10.809,10.608],[-10.728,10.602],[-10.653,10.611],[-10.623,10.648],[-10.598,10.662],[-10.585,10.648],[-10.579,10.638],[-10.577,10.631],[-10.576,10.623],[-10.577,10.613],[-10.576,10.607],[-10.573,10.6],[-10.569,10.597],[-10.565,10.594],[-10.559,10.593],[-10.537,10.591],[-10.53,10.588],[-10.523,10.585],[-10.517,10.58],[-10.471,10.53],[-10.46,10.524],[-10.455,10.521],[-10.442,10.506],[-10.433,10.508],[-10.424,10.51],[-10.417,10.514],[-10.412,10.52],[-10.409,10.529],[-10.399,10.526],[-10.37,10.522],[-10.351,10.522],[-10.343,10.523],[-10.305,10.532],[-10.296,10.529],[-10.29,10.522],[-10.279,10.515],[-10.264,10.511],[-10.238,10.513],[-10.224,10.508],[-10.236,10.497],[-10.235,10.488],[-10.214,10.47],[-10.21,10.464],[-10.202,10.444],[-10.2,10.439],[-10.191,10.443],[-10.189,10.45],[-10.19,10.457],[-10.186,10.46],[-10.179,10.464],[-10.155,10.481],[-10.149,10.488],[-10.146,10.505],[-10.147,10.522],[-10.138,10.527],[-10.134,10.524],[-10.131,10.496],[-10.129,10.492],[-10.127,10.488],[-10.124,10.484],[-10.122,10.478],[-10.123,10.471],[-10.131,10.459],[-10.137,10.452],[-10.142,10.446],[-10.144,10.44],[-10.144,10.429],[-10.142,10.423],[-10.139,10.418],[-10.136,10.414],[-10.135,10.409],[-10.137,10.399],[-10.17,10.334],[-10.177,10.325],[-10.184,10.322],[-10.19,10.321],[-10.203,10.322],[-10.224,10.327],[-10.228,10.325],[-10.23,10.319],[-10.23,10.31],[-10.228,10.303],[-10.228,10.294],[-10.233,10.264],[-10.232,10.254],[-10.231,10.247],[-10.229,10.242],[-10.224,10.226],[-10.219,10.217],[-10.216,10.213],[-10.211,10.205],[-10.209,10.2],[-10.209,10.193],[-10.211,10.184],[-10.22,10.168],[-10.226,10.16],[-10.232,10.155],[-10.241,10.15],[-10.245,10.146],[-10.267,10.114],[-10.278,10.106],[-10.282,10.103],[-10.285,10.099],[-10.288,10.095],[-10.291,10.091],[-10.295,10.088],[-10.3,10.086],[-10.304,10.085],[-10.315,10.086],[-10.32,10.085],[-10.323,10.081],[-10.325,10.074],[-10.325,10.051],[-10.326,10.042],[-10.328,10.034],[-10.334,10.024],[-10.338,10.018],[-10.347,10.01],[-10.352,10.003],[-10.354,9.999],[-10.354,9.995],[-10.355,9.989],[-10.353,9.979],[-10.344,9.957],[-10.342,9.951],[-10.34,9.933],[-10.338,9.928],[-10.332,9.919],[-10.328,9.909],[-10.323,9.901],[-10.322,9.895],[-10.323,9.889],[-10.325,9.881],[-10.338,9.858],[-10.342,9.856],[-10.348,9.854],[-10.361,9.852],[-10.366,9.851],[-10.371,9.845],[-10.373,9.836],[-10.375,9.803],[-10.374,9.795],[-10.372,9.79],[-10.369,9.786],[-10.367,9.782],[-10.366,9.778],[-10.371,9.774],[-10.382,9.77],[-10.386,9.767],[-10.394,9.757],[-10.404,9.751],[-10.408,9.748],[-10.411,9.744],[-10.414,9.74],[-10.415,9.733],[-10.416,9.723],[-10.408,9.674],[-10.407,9.66],[-10.41,9.635],[-10.418,9.612],[-10.422,9.554],[-10.407,9.509],[-10.389,9.467],[-10.38,9.386],[-10.392,9.293],[-10.434,9.262],[-10.461,9.226],[-10.478,9.185],[-10.487,9.147],[-10.498,9.115],[-10.502,9.11],[-10.516,9.097],[-10.572,9.059],[-10.593,9.048],[-10.594,9.054],[-10.606,9.064],[-10.629,9.07],[-10.669,9.074],[-10.71,9.073],[-10.746,9.084],[-10.753,9.12],[-10.743,9.163],[-10.725,9.195],[-10.715,9.201],[-10.704,9.206],[-10.693,9.213],[-10.685,9.225],[-10.684,9.234],[-10.688,9.251],[-10.688,9.259],[-10.683,9.272],[-10.678,9.283],[-10.674,9.294],[-10.675,9.306],[-10.718,9.343],[-10.728,9.348],[-10.742,9.357],[-10.753,9.368],[-10.765,9.385],[-10.775,9.387],[-10.785,9.387],[-10.795,9.389],[-10.802,9.387]]]}},{"type":"Feature","id":"GN-FO","properties":{"id":"GN-FO","countryCode":"GN","isoSubdivision":"GN-FO","name":"Forécariah Prefecture","name_en":"Forécariah Prefecture","name_ko":"포레카리아","type":"Prefecture","labelLongitude":-13.062,"labelLatitude":9.385,"minZoom":8},"geometry":{"type":"Polygon","coordinates":[[[-12.602,9.652],[-12.603,9.609],[-12.607,9.601],[-12.615,9.6],[-12.625,9.601],[-12.634,9.598],[-12.639,9.589],[-12.647,9.557],[-12.65,9.552],[-12.652,9.549],[-12.655,9.548],[-12.661,9.546],[-12.669,9.542],[-12.669,9.538],[-12.667,9.534],[-12.668,9.529],[-12.702,9.42],[-12.706,9.414],[-12.713,9.408],[-12.716,9.404],[-12.719,9.398],[-12.723,9.392],[-12.728,9.393],[-12.733,9.397],[-12.737,9.397],[-12.754,9.388],[-12.76,9.383],[-12.768,9.372],[-12.768,9.364],[-12.764,9.355],[-12.764,9.348],[-12.778,9.344],[-12.795,9.335],[-12.819,9.296],[-12.836,9.282],[-12.857,9.279],[-12.876,9.28],[-12.896,9.279],[-12.918,9.267],[-12.937,9.287],[-12.958,9.272],[-12.974,9.242],[-12.978,9.213],[-12.974,9.203],[-12.96,9.186],[-12.959,9.178],[-12.963,9.177],[-12.978,9.175],[-12.984,9.172],[-12.994,9.159],[-13.002,9.144],[-13.015,9.113],[-13.029,9.096],[-13.047,9.085],[-13.086,9.066],[-13.116,9.044],[-13.131,9.041],[-13.154,9.049],[-13.192,9.073],[-13.208,9.077],[-13.234,9.072],[-13.277,9.059],[-13.301,9.041],[-13.312,9.048],[-13.322,9.057],[-13.326,9.068],[-13.322,9.083],[-13.319,9.084],[-13.305,9.083],[-13.301,9.085],[-13.301,9.088],[-13.302,9.093],[-13.301,9.096],[-13.274,9.124],[-13.255,9.155],[-13.243,9.17],[-13.226,9.179],[-13.208,9.18],[-13.176,9.174],[-13.158,9.179],[-13.158,9.185],[-13.218,9.183],[-13.247,9.186],[-13.26,9.196],[-13.258,9.2],[-13.249,9.208],[-13.246,9.213],[-13.246,9.226],[-13.238,9.247],[-13.233,9.267],[-13.255,9.245],[-13.265,9.22],[-13.27,9.194],[-13.281,9.165],[-13.305,9.175],[-13.315,9.182],[-13.322,9.193],[-13.314,9.198],[-13.312,9.207],[-13.315,9.233],[-13.314,9.233],[-13.311,9.238],[-13.309,9.245],[-13.308,9.25],[-13.31,9.254],[-13.32,9.259],[-13.322,9.261],[-13.325,9.281],[-13.325,9.311],[-13.319,9.329],[-13.301,9.316],[-13.304,9.338],[-13.303,9.347],[-13.301,9.357],[-13.308,9.357],[-13.314,9.35],[-13.322,9.345],[-13.333,9.344],[-13.346,9.343],[-13.353,9.339],[-13.358,9.328],[-13.368,9.282],[-13.375,9.273],[-13.398,9.284],[-13.408,9.287],[-13.412,9.293],[-13.404,9.308],[-13.414,9.317],[-13.424,9.333],[-13.431,9.352],[-13.432,9.371],[-13.425,9.39],[-13.403,9.418],[-13.397,9.439],[-13.404,9.439],[-13.428,9.421],[-13.465,9.418],[-13.499,9.429],[-13.514,9.45],[-13.521,9.479],[-13.521,9.495],[-13.51,9.511],[-13.501,9.522],[-13.493,9.535],[-13.488,9.551],[-13.487,9.569],[-13.456,9.593],[-13.423,9.596],[-13.369,9.614],[-13.318,9.638],[-13.276,9.62],[-13.237,9.581],[-13.207,9.563],[-13.132,9.557],[-13.09,9.563],[-13.047,9.584],[-13.023,9.62],[-12.984,9.65],[-12.924,9.683],[-12.867,9.698],[-12.711,9.695],[-12.654,9.668],[-12.602,9.652]]]}},{"type":"Feature","id":"GN-FR","properties":{"id":"GN-FR","countryCode":"GN","isoSubdivision":"GN-FR","name":"Fria Prefecture","name_en":"Fria Prefecture","name_ko":"프리아 지방 행정 구역","type":"Prefecture","labelLongitude":-13.496,"labelLatitude":10.473,"minZoom":8},"geometry":{"type":"Polygon","coordinates":[[[-13.612,10.715],[-13.405,10.701],[-13.209,10.596],[-13.196,10.514],[-13.218,10.476],[-13.215,10.438],[-13.212,10.397],[-13.295,10.377],[-13.367,10.318],[-13.408,10.258],[-13.484,10.239],[-13.678,10.28],[-13.756,10.296],[-13.819,10.296],[-13.829,10.353],[-13.811,10.395],[-13.757,10.455],[-13.732,10.491],[-13.69,10.506],[-13.672,10.518],[-13.624,10.554],[-13.612,10.715]]]}},{"type":"Feature","id":"GN-GA","properties":{"id":"GN-GA","countryCode":"GN","isoSubdivision":"GN-GA","name":"Gaoual Prefecture","name_en":"Gaoual Prefecture","name_ko":"가우알 지방 행정 구역","type":"Prefecture","labelLongitude":-13.394,"labelLatitude":11.745,"minZoom":8},"geometry":{"type":"Polygon","coordinates":[[[-13.809,12.256],[-13.741,12.257],[-13.712,12.268],[-13.695,12.292],[-13.668,12.24],[-13.667,12.232],[-13.655,12.235],[-13.594,12.264],[-13.579,12.277],[-13.571,12.281],[-13.562,12.283],[-13.538,12.28],[-13.533,12.29],[-13.528,12.291],[-13.515,12.282],[-13.477,12.272],[-13.487,12.301],[-13.485,12.31],[-13.475,12.303],[-13.467,12.293],[-13.456,12.281],[-13.445,12.277],[-13.421,12.309],[-13.41,12.31],[-13.398,12.311],[-13.378,12.301],[-13.371,12.288],[-13.378,12.279],[-13.386,12.276],[-13.39,12.271],[-13.388,12.256],[-13.38,12.243],[-13.369,12.236],[-13.355,12.227],[-13.346,12.217],[-13.339,12.201],[-13.333,12.186],[-13.332,12.17],[-13.343,12.136],[-13.344,12.12],[-13.342,12.105],[-13.334,12.091],[-13.327,12.081],[-13.318,12.071],[-13.308,12.065],[-13.296,12.066],[-13.296,12.074],[-13.301,12.086],[-13.302,12.095],[-13.29,12.096],[-13.277,12.088],[-13.273,12.077],[-13.274,12.063],[-13.275,12.048],[-13.273,12.043],[-13.264,12.03],[-13.244,12.024],[-13.211,12.015],[-13.018,12.017],[-13.005,12.042],[-12.981,12.058],[-12.96,12.082],[-12.895,12.085],[-12.867,12.105],[-12.844,12.133],[-12.828,12.154],[-12.814,12.131],[-12.809,12.114],[-12.808,12.107],[-12.807,12.1],[-12.824,11.992],[-12.828,11.978],[-12.863,11.915],[-12.863,11.909],[-12.859,11.904],[-12.852,11.901],[-12.844,11.899],[-12.839,11.898],[-12.834,11.9],[-12.829,11.905],[-12.82,11.919],[-12.815,11.925],[-12.809,11.928],[-12.802,11.928],[-12.797,11.926],[-12.793,11.921],[-12.787,11.911],[-12.782,11.9],[-12.78,11.892],[-12.781,11.885],[-12.782,11.88],[-12.806,11.835],[-12.815,11.788],[-12.816,11.764],[-12.809,11.722],[-12.808,11.705],[-12.807,11.696],[-12.805,11.692],[-12.803,11.687],[-12.799,11.683],[-12.789,11.679],[-12.785,11.676],[-12.78,11.667],[-12.776,11.657],[-12.775,11.652],[-12.772,11.647],[-12.767,11.643],[-12.765,11.64],[-12.762,11.637],[-12.76,11.633],[-12.756,11.629],[-12.752,11.626],[-12.748,11.623],[-12.712,11.609],[-12.708,11.607],[-12.705,11.602],[-12.705,11.595],[-12.707,11.584],[-12.706,11.577],[-12.704,11.571],[-12.704,11.566],[-12.707,11.559],[-12.717,11.551],[-12.724,11.546],[-12.746,11.537],[-12.755,11.532],[-12.761,11.525],[-12.801,11.469],[-12.823,11.453],[-12.881,11.427],[-12.885,11.424],[-12.908,11.401],[-12.921,11.39],[-12.926,11.388],[-12.93,11.385],[-12.935,11.378],[-12.94,11.366],[-12.955,11.317],[-12.966,11.296],[-12.985,11.266],[-12.99,11.256],[-12.969,11.168],[-13.041,11.172],[-13.05,11.167],[-13.088,11.154],[-13.176,11.133],[-13.227,11.129],[-13.234,11.13],[-13.244,11.138],[-13.246,11.142],[-13.264,11.331],[-13.28,11.336],[-13.284,11.337],[-13.294,11.338],[-13.354,11.349],[-13.395,11.361],[-13.44,11.359],[-13.445,11.363],[-13.454,11.365],[-13.464,11.366],[-13.551,11.364],[-13.566,11.362],[-13.581,11.356],[-13.605,11.344],[-13.616,11.336],[-13.624,11.329],[-13.63,11.324],[-13.639,11.321],[-13.655,11.32],[-13.667,11.32],[-13.685,11.322],[-13.69,11.324],[-13.695,11.326],[-13.699,11.328],[-13.707,11.329],[-13.745,11.323],[-13.791,11.306],[-13.807,11.292],[-13.841,11.345],[-13.883,11.354],[-13.91,11.378],[-13.919,11.429],[-13.934,11.486],[-13.97,11.513],[-14.021,11.513],[-14.048,11.534],[-14.048,11.564],[-14.024,11.594],[-14.015,11.637],[-13.996,11.644],[-13.953,11.67],[-13.945,11.676],[-13.924,11.665],[-13.904,11.665],[-13.886,11.676],[-13.874,11.695],[-13.871,11.704],[-13.869,11.727],[-13.873,11.738],[-13.87,11.744],[-13.855,11.743],[-13.846,11.737],[-13.843,11.717],[-13.835,11.712],[-13.82,11.708],[-13.82,11.702],[-13.822,11.694],[-13.816,11.687],[-13.796,11.684],[-13.77,11.689],[-13.746,11.698],[-13.73,11.71],[-13.725,11.723],[-13.72,11.766],[-13.719,11.784],[-13.735,11.902],[-13.731,11.943],[-13.723,11.984],[-13.724,12.003],[-13.735,12.019],[-13.744,12.024],[-13.78,12.029],[-13.796,12.036],[-13.808,12.044],[-13.83,12.068],[-13.835,12.078],[-13.838,12.085],[-13.842,12.091],[-13.87,12.101],[-13.88,12.108],[-13.899,12.126],[-13.918,12.138],[-13.939,12.144],[-13.965,12.148],[-13.973,12.152],[-13.968,12.163],[-13.968,12.184],[-13.966,12.194],[-13.944,12.219],[-13.883,12.246],[-13.859,12.266],[-13.84,12.277],[-13.813,12.284],[-13.796,12.279],[-13.809,12.256]]]}},{"type":"Feature","id":"GN-GU","properties":{"id":"GN-GU","countryCode":"GN","isoSubdivision":"GN-GU","name":"Guéckédou Prefecture","name_en":"Guéckédou Prefecture","name_ko":"게케두 지방 행정 구역","type":"Prefecture","labelLongitude":-10.223,"labelLatitude":8.703,"minZoom":8},"geometry":{"type":"Polygon","coordinates":[[[-10.592,9.042],[-10.593,9.048],[-10.572,9.059],[-10.516,9.097],[-10.502,9.11],[-10.498,9.115],[-10.487,9.147],[-10.478,9.185],[-10.442,9.164],[-10.437,9.158],[-10.432,9.147],[-10.442,9.085],[-10.44,9.078],[-10.436,9.074],[-10.4,9.047],[-10.385,9.043],[-10.294,8.937],[-10.293,8.931],[-10.291,8.926],[-10.288,8.923],[-10.28,8.919],[-10.238,8.909],[-10.223,8.902],[-10.214,8.895],[-10.204,8.875],[-10.202,8.872],[-10.189,8.871],[-10.167,8.872],[-10.087,8.883],[-10.07,8.888],[-10.056,8.896],[-10.05,8.901],[-10.041,8.909],[-9.99,8.939],[-9.98,8.943],[-9.938,8.938],[-9.77,8.9],[-9.782,8.86],[-9.794,8.827],[-9.839,8.809],[-9.875,8.788],[-9.908,8.755],[-9.92,8.692],[-9.873,8.5],[-9.887,8.497],[-9.892,8.496],[-9.911,8.496],[-9.928,8.493],[-9.944,8.488],[-9.961,8.48],[-10,8.449],[-10.04,8.426],[-10.062,8.422],[-10.075,8.427],[-10.079,8.44],[-10.069,8.487],[-10.076,8.501],[-10.091,8.51],[-10.148,8.524],[-10.165,8.525],[-10.182,8.52],[-10.216,8.487],[-10.232,8.477],[-10.24,8.494],[-10.261,8.486],[-10.271,8.484],[-10.282,8.485],[-10.294,8.483],[-10.302,8.486],[-10.31,8.49],[-10.338,8.499],[-10.344,8.499],[-10.375,8.495],[-10.39,8.489],[-10.402,8.481],[-10.414,8.47],[-10.424,8.457],[-10.448,8.408],[-10.46,8.392],[-10.519,8.335],[-10.554,8.312],[-10.573,8.305],[-10.583,8.307],[-10.612,8.325],[-10.627,8.332],[-10.66,8.333],[-10.688,8.324],[-10.708,8.303],[-10.715,8.27],[-10.735,8.287],[-10.725,8.32],[-10.702,8.354],[-10.684,8.375],[-10.669,8.399],[-10.655,8.486],[-10.644,8.487],[-10.641,8.495],[-10.641,8.507],[-10.639,8.52],[-10.632,8.532],[-10.616,8.547],[-10.601,8.576],[-10.585,8.597],[-10.565,8.613],[-10.545,8.617],[-10.522,8.619],[-10.503,8.632],[-10.49,8.651],[-10.482,8.672],[-10.525,8.73],[-10.53,8.739],[-10.545,8.75],[-10.586,8.804],[-10.589,8.807],[-10.596,8.811],[-10.6,8.815],[-10.6,8.819],[-10.599,8.83],[-10.599,8.834],[-10.608,8.862],[-10.61,8.872],[-10.612,8.945],[-10.607,8.98],[-10.592,9.039],[-10.592,9.042]]]}},{"type":"Feature","id":"GN-K","properties":{"id":"GN-K","countryCode":"GN","isoSubdivision":"GN-K","name":"Kankan","name_en":"Kankan","name_ko":"캉칸","type":"Prefecture","labelLongitude":-9.126,"labelLatitude":10.132,"minZoom":8},"geometry":{"type":"Polygon","coordinates":[[[-8.152,9.95],[-8.174,9.942],[-8.175,9.933],[-8.172,9.923],[-8.168,9.915],[-8.165,9.913],[-8.159,9.912],[-8.153,9.911],[-8.15,9.905],[-8.147,9.888],[-8.146,9.882],[-8.147,9.88],[-8.152,9.879],[-8.155,9.875],[-8.151,9.866],[-8.147,9.865],[-8.128,9.866],[-8.124,9.845],[-8.16,9.585],[-8.162,9.576],[-8.161,9.554],[-8.158,9.531],[-8.153,9.513],[-8.145,9.497],[-8.087,9.415],[-8.07,9.398],[-8.149,9.401],[-8.211,9.372],[-8.271,9.341],[-8.32,9.335],[-8.385,9.364],[-8.428,9.378],[-8.479,9.381],[-8.466,9.458],[-8.475,9.521],[-8.523,9.584],[-8.571,9.626],[-8.631,9.65],[-8.673,9.668],[-8.775,9.674],[-8.814,9.683],[-8.838,9.722],[-8.883,9.74],[-9.025,9.731],[-9.124,9.68],[-9.178,9.638],[-9.214,9.497],[-9.221,9.426],[-9.344,9.467],[-9.549,9.459],[-9.629,9.537],[-9.633,9.536],[-9.662,9.542],[-9.671,9.542],[-9.755,9.558],[-9.833,9.553],[-9.893,9.596],[-9.955,9.669],[-9.923,9.689],[-9.851,9.701],[-9.815,9.749],[-9.779,9.773],[-9.776,9.827],[-9.74,9.872],[-9.701,9.902],[-9.692,10.002],[-9.719,10.047],[-9.719,10.203],[-9.683,10.284],[-9.668,10.437],[-9.619,10.491],[-9.511,10.602],[-9.46,10.678],[-9.424,10.723],[-9.373,10.75],[-9.301,10.723],[-9.214,10.705],[-9.16,10.681],[-8.964,10.666],[-8.955,10.56],[-8.946,10.503],[-8.898,10.449],[-8.856,10.434],[-8.784,10.419],[-8.748,10.392],[-8.73,10.332],[-8.724,10.284],[-8.673,10.233],[-8.574,10.218],[-8.478,10.2],[-8.43,10.179],[-8.421,10.128],[-8.391,10.059],[-8.34,10.005],[-8.261,9.978],[-8.213,9.957],[-8.152,9.95]]]}},{"type":"Feature","id":"GN-KB","properties":{"id":"GN-KB","countryCode":"GN","isoSubdivision":"GN-KB","name":"Koubia Prefecture","name_en":"Koubia Prefecture","name_ko":"쿠비아 지방 행정 구역","type":"Prefecture","labelLongitude":-11.707,"labelLatitude":11.616,"minZoom":8},"geometry":{"type":"Polygon","coordinates":[[[-11.471,12.135],[-11.41,12.108],[-11.392,12.094],[-11.351,12.04],[-11.344,11.705],[-11.353,11.666],[-11.446,11.648],[-11.524,11.624],[-11.551,11.564],[-11.623,11.51],[-11.801,11.435],[-11.945,11.354],[-11.996,11.321],[-12.005,11.287],[-12.03,11.286],[-12.049,11.291],[-12.055,11.291],[-12.062,11.327],[-12.068,11.363],[-12.104,11.399],[-12.153,11.474],[-12.239,11.594],[-12.299,11.678],[-12.317,11.728],[-12.2,11.729],[-12.17,11.711],[-12.11,11.69],[-12.077,11.663],[-12.026,11.654],[-11.956,11.653],[-11.931,11.673],[-11.912,11.671],[-11.892,11.674],[-11.882,11.684],[-11.843,11.696],[-11.807,11.714],[-11.741,11.726],[-11.626,11.729],[-11.614,11.768],[-11.59,11.846],[-11.545,11.888],[-11.518,11.963],[-11.473,12.057],[-11.471,12.135]]]}},{"type":"Feature","id":"GN-KD","properties":{"id":"GN-KD","countryCode":"GN","isoSubdivision":"GN-KD","name":"Kindia","name_en":"Kindia","name_ko":"킨디아","type":"Prefecture","labelLongitude":-12.73,"labelLatitude":10.055,"minZoom":8},"geometry":{"type":"Polygon","coordinates":[[[-12.11,9.882],[-12.141,9.875],[-12.158,9.876],[-12.175,9.879],[-12.194,9.886],[-12.217,9.901],[-12.236,9.917],[-12.254,9.928],[-12.277,9.929],[-12.427,9.898],[-12.472,9.881],[-12.508,9.86],[-12.514,9.851],[-12.515,9.845],[-12.514,9.838],[-12.514,9.828],[-12.527,9.754],[-12.527,9.751],[-12.523,9.739],[-12.522,9.734],[-12.526,9.732],[-12.531,9.733],[-12.536,9.733],[-12.538,9.728],[-12.537,9.716],[-12.539,9.712],[-12.542,9.711],[-12.573,9.693],[-12.582,9.683],[-12.599,9.655],[-12.602,9.652],[-12.654,9.668],[-12.711,9.695],[-12.867,9.698],[-12.924,9.683],[-12.984,9.65],[-13.023,9.62],[-13.047,9.584],[-13.09,9.563],[-13.093,9.605],[-13.108,9.65],[-13.153,9.707],[-13.195,9.722],[-13.234,9.746],[-13.246,9.788],[-13.225,9.818],[-13.21,9.851],[-13.219,9.938],[-13.24,9.963],[-13.282,9.999],[-13.243,10.038],[-13.234,10.065],[-13.204,10.092],[-13.156,10.11],[-13.156,10.188],[-13.132,10.212],[-13.114,10.242],[-13.12,10.275],[-13.135,10.296],[-13.135,10.404],[-13.044,10.425],[-12.933,10.458],[-12.896,10.47],[-12.852,10.483],[-12.837,10.52],[-12.826,10.521],[-12.813,10.524],[-12.803,10.521],[-12.787,10.509],[-12.77,10.5],[-12.762,10.495],[-12.755,10.489],[-12.734,10.477],[-12.714,10.471],[-12.703,10.476],[-12.695,10.483],[-12.684,10.504],[-12.67,10.515],[-12.65,10.529],[-12.61,10.544],[-12.571,10.563],[-12.524,10.609],[-12.513,10.617],[-12.505,10.619],[-12.5,10.619],[-12.493,10.615],[-12.491,10.589],[-12.497,10.568],[-12.496,10.558],[-12.49,10.55],[-12.478,10.543],[-12.471,10.54],[-12.452,10.535],[-12.443,10.531],[-12.436,10.525],[-12.433,10.505],[-12.428,10.497],[-12.415,10.491],[-12.4,10.483],[-12.383,10.465],[-12.401,10.445],[-12.405,10.44],[-12.406,10.433],[-12.406,10.416],[-12.407,10.405],[-12.414,10.385],[-12.423,10.365],[-12.426,10.354],[-12.426,10.34],[-12.41,10.277],[-12.407,10.272],[-12.403,10.268],[-12.395,10.265],[-12.386,10.264],[-12.376,10.264],[-12.367,10.265],[-12.337,10.275],[-12.327,10.277],[-12.316,10.278],[-12.306,10.276],[-12.279,10.27],[-12.264,10.269],[-12.257,10.269],[-12.247,10.272],[-12.244,10.272],[-12.24,10.271],[-12.236,10.269],[-12.229,10.258],[-12.186,10.177],[-12.125,10.1],[-12.123,10.09],[-12.122,10.075],[-12.122,10.041],[-12.124,10.026],[-12.126,10.015],[-12.141,9.982],[-12.144,9.972],[-12.144,9.963],[-12.132,9.924],[-12.11,9.882]]]}},{"type":"Feature","id":"GN-KE","properties":{"id":"GN-KE","countryCode":"GN","isoSubdivision":"GN-KE","name":"Kérouané Prefecture","name_en":"Kérouané Prefecture","name_ko":"케로우아네 지방 행정 구역","type":"Prefecture","labelLongitude":-8.905,"labelLatitude":9.33,"minZoom":8},"geometry":{"type":"Polygon","coordinates":[[[-9.336,9.09],[-9.32,9.196],[-9.238,9.246],[-9.221,9.426],[-9.214,9.497],[-9.178,9.638],[-9.124,9.68],[-9.025,9.731],[-8.883,9.74],[-8.838,9.722],[-8.814,9.683],[-8.775,9.674],[-8.673,9.668],[-8.631,9.65],[-8.571,9.626],[-8.523,9.584],[-8.475,9.521],[-8.466,9.458],[-8.479,9.381],[-8.522,9.367],[-8.53,9.327],[-8.565,9.315],[-8.599,9.27],[-8.622,9.227],[-8.667,9.195],[-8.711,9.119],[-8.715,9.11],[-8.717,9.1],[-8.725,9.083],[-8.727,9.077],[-8.728,9.072],[-8.764,9.056],[-8.807,9.036],[-8.884,9.022],[-8.926,9.002],[-8.969,8.962],[-9.149,8.911],[-9.24,8.919],[-9.271,8.999],[-9.288,9.082],[-9.336,9.09]]]}},{"type":"Feature","id":"GN-KN","properties":{"id":"GN-KN","countryCode":"GN","isoSubdivision":"GN-KN","name":"Koundara Prefecture","name_en":"Koundara Prefecture","name_ko":"쿤다라 지방 행정 구역","type":"Prefecture","labelLongitude":-13.182,"labelLatitude":12.354,"minZoom":8},"geometry":{"type":"Polygon","coordinates":[[[-13.36,12.65],[-13.357,12.649],[-13.352,12.647],[-13.343,12.641],[-13.339,12.639],[-13.333,12.64],[-13.33,12.642],[-13.328,12.645],[-13.323,12.647],[-13.293,12.653],[-13.284,12.653],[-13.276,12.651],[-13.263,12.643],[-13.255,12.642],[-13.246,12.643],[-13.229,12.648],[-13.222,12.648],[-13.216,12.646],[-13.206,12.636],[-13.202,12.633],[-13.198,12.634],[-13.185,12.638],[-13.176,12.638],[-13.169,12.639],[-13.163,12.638],[-13.155,12.633],[-13.145,12.644],[-13.127,12.635],[-13.109,12.635],[-13.092,12.638],[-13.076,12.636],[-13.064,12.622],[-13.059,12.603],[-13.06,12.583],[-13.064,12.566],[-13.079,12.532],[-13.083,12.516],[-13.078,12.496],[-13.067,12.48],[-13.052,12.472],[-13.035,12.471],[-13.015,12.473],[-12.997,12.466],[-12.981,12.467],[-12.97,12.477],[-12.966,12.496],[-12.949,12.536],[-12.913,12.536],[-12.874,12.516],[-12.849,12.495],[-12.85,12.491],[-12.851,12.484],[-12.849,12.476],[-12.839,12.466],[-12.829,12.463],[-12.799,12.461],[-12.783,12.453],[-12.779,12.443],[-12.773,12.435],[-12.753,12.432],[-12.688,12.436],[-12.668,12.434],[-12.648,12.426],[-12.632,12.413],[-12.603,12.382],[-12.598,12.372],[-12.597,12.365],[-12.594,12.362],[-12.579,12.361],[-12.578,12.362],[-12.579,12.36],[-12.61,12.339],[-12.656,12.318],[-12.688,12.298],[-12.702,12.286],[-12.714,12.279],[-12.724,12.274],[-12.776,12.257],[-12.79,12.248],[-12.799,12.24],[-12.826,12.164],[-12.828,12.154],[-12.844,12.133],[-12.867,12.105],[-12.895,12.085],[-12.96,12.082],[-12.981,12.058],[-13.005,12.042],[-13.018,12.017],[-13.211,12.015],[-13.244,12.024],[-13.264,12.03],[-13.273,12.043],[-13.275,12.048],[-13.274,12.063],[-13.273,12.077],[-13.277,12.088],[-13.29,12.096],[-13.302,12.095],[-13.301,12.086],[-13.296,12.074],[-13.296,12.066],[-13.308,12.065],[-13.318,12.071],[-13.327,12.081],[-13.334,12.091],[-13.342,12.105],[-13.344,12.12],[-13.343,12.136],[-13.332,12.17],[-13.333,12.186],[-13.339,12.201],[-13.346,12.217],[-13.355,12.227],[-13.369,12.236],[-13.38,12.243],[-13.388,12.256],[-13.39,12.271],[-13.386,12.276],[-13.378,12.279],[-13.371,12.288],[-13.378,12.301],[-13.398,12.311],[-13.41,12.31],[-13.421,12.309],[-13.445,12.277],[-13.456,12.281],[-13.467,12.293],[-13.475,12.303],[-13.485,12.31],[-13.487,12.301],[-13.477,12.272],[-13.515,12.282],[-13.528,12.291],[-13.533,12.29],[-13.538,12.28],[-13.562,12.283],[-13.571,12.281],[-13.579,12.277],[-13.594,12.264],[-13.655,12.235],[-13.667,12.232],[-13.668,12.24],[-13.695,12.292],[-13.695,12.293],[-13.691,12.319],[-13.683,12.339],[-13.682,12.35],[-13.685,12.379],[-13.684,12.392],[-13.682,12.4],[-13.664,12.442],[-13.661,12.459],[-13.663,12.476],[-13.675,12.496],[-13.725,12.558],[-13.735,12.585],[-13.736,12.608],[-13.728,12.673],[-13.405,12.662],[-13.36,12.65]]]}},{"type":"Feature","id":"GN-KO","properties":{"id":"GN-KO","countryCode":"GN","isoSubdivision":"GN-KO","name":"Kouroussa Prefecture","name_en":"Kouroussa Prefecture","name_ko":"쿠루사 지방 행정 구역","type":"Prefecture","labelLongitude":-10.02,"labelLatitude":10.722,"minZoom":8},"geometry":{"type":"Polygon","coordinates":[[[-9.955,9.669],[-9.992,9.7],[-10.021,9.713],[-10.03,9.714],[-10.084,9.717],[-10.134,9.714],[-10.15,9.711],[-10.162,9.707],[-10.166,9.705],[-10.169,9.703],[-10.181,9.691],[-10.207,9.661],[-10.228,9.627],[-10.238,9.615],[-10.244,9.61],[-10.253,9.605],[-10.271,9.598],[-10.281,9.596],[-10.29,9.596],[-10.418,9.612],[-10.41,9.635],[-10.407,9.66],[-10.408,9.674],[-10.416,9.723],[-10.415,9.733],[-10.414,9.74],[-10.411,9.744],[-10.408,9.748],[-10.404,9.751],[-10.394,9.757],[-10.386,9.767],[-10.382,9.77],[-10.371,9.774],[-10.366,9.778],[-10.367,9.782],[-10.369,9.786],[-10.372,9.79],[-10.374,9.795],[-10.375,9.803],[-10.373,9.836],[-10.371,9.845],[-10.366,9.851],[-10.361,9.852],[-10.348,9.854],[-10.342,9.856],[-10.338,9.858],[-10.325,9.881],[-10.323,9.889],[-10.322,9.895],[-10.323,9.901],[-10.328,9.909],[-10.332,9.919],[-10.338,9.928],[-10.34,9.933],[-10.342,9.951],[-10.344,9.957],[-10.353,9.979],[-10.355,9.989],[-10.354,9.995],[-10.354,9.999],[-10.352,10.003],[-10.347,10.01],[-10.338,10.018],[-10.334,10.024],[-10.328,10.034],[-10.326,10.042],[-10.325,10.051],[-10.325,10.074],[-10.323,10.081],[-10.32,10.085],[-10.315,10.086],[-10.304,10.085],[-10.3,10.086],[-10.295,10.088],[-10.291,10.091],[-10.288,10.095],[-10.285,10.099],[-10.282,10.103],[-10.278,10.106],[-10.267,10.114],[-10.245,10.146],[-10.241,10.15],[-10.232,10.155],[-10.226,10.16],[-10.22,10.168],[-10.211,10.184],[-10.209,10.193],[-10.209,10.2],[-10.211,10.205],[-10.216,10.213],[-10.219,10.217],[-10.224,10.226],[-10.229,10.242],[-10.231,10.247],[-10.232,10.254],[-10.233,10.264],[-10.228,10.294],[-10.228,10.303],[-10.23,10.31],[-10.23,10.319],[-10.228,10.325],[-10.224,10.327],[-10.203,10.322],[-10.19,10.321],[-10.184,10.322],[-10.177,10.325],[-10.17,10.334],[-10.137,10.399],[-10.135,10.409],[-10.136,10.414],[-10.139,10.418],[-10.142,10.423],[-10.144,10.429],[-10.144,10.44],[-10.142,10.446],[-10.137,10.452],[-10.131,10.459],[-10.123,10.471],[-10.122,10.478],[-10.124,10.484],[-10.127,10.488],[-10.129,10.492],[-10.131,10.496],[-10.134,10.524],[-10.138,10.527],[-10.147,10.522],[-10.146,10.505],[-10.149,10.488],[-10.155,10.481],[-10.179,10.464],[-10.186,10.46],[-10.19,10.457],[-10.189,10.45],[-10.191,10.443],[-10.2,10.439],[-10.202,10.444],[-10.21,10.464],[-10.214,10.47],[-10.235,10.488],[-10.236,10.497],[-10.224,10.508],[-10.238,10.513],[-10.264,10.511],[-10.279,10.515],[-10.29,10.522],[-10.296,10.529],[-10.305,10.532],[-10.343,10.523],[-10.351,10.522],[-10.37,10.522],[-10.399,10.526],[-10.409,10.529],[-10.412,10.52],[-10.417,10.514],[-10.424,10.51],[-10.433,10.508],[-10.442,10.506],[-10.455,10.521],[-10.46,10.524],[-10.471,10.53],[-10.517,10.58],[-10.523,10.585],[-10.53,10.588],[-10.537,10.591],[-10.559,10.593],[-10.565,10.594],[-10.569,10.597],[-10.573,10.6],[-10.576,10.607],[-10.577,10.613],[-10.576,10.623],[-10.577,10.631],[-10.579,10.638],[-10.585,10.648],[-10.598,10.662],[-10.623,10.685],[-10.626,10.689],[-10.639,10.712],[-10.644,10.718],[-10.648,10.722],[-10.673,10.734],[-10.677,10.737],[-10.687,10.75],[-10.692,10.753],[-10.698,10.755],[-10.713,10.756],[-10.718,10.758],[-10.723,10.76],[-10.731,10.766],[-10.864,10.808],[-10.877,10.817],[-10.886,10.826],[-10.892,10.835],[-10.896,10.844],[-10.898,10.854],[-10.896,10.863],[-10.891,10.871],[-10.865,10.889],[-10.851,10.897],[-10.841,10.901],[-10.83,10.903],[-10.823,10.909],[-10.817,10.919],[-10.808,10.941],[-10.801,10.969],[-10.798,10.976],[-10.793,10.983],[-10.779,10.998],[-10.776,11.001],[-10.766,11.004],[-10.761,11.008],[-10.755,11.013],[-10.748,11.022],[-10.738,11.032],[-10.73,11.037],[-10.725,11.039],[-10.718,11.046],[-10.712,11.056],[-10.696,11.091],[-10.694,11.1],[-10.703,11.113],[-10.703,11.185],[-10.695,11.228],[-10.649,11.235],[-10.598,11.209],[-10.581,11.182],[-10.549,11.175],[-10.457,11.175],[-10.375,11.178],[-10.343,11.207],[-10.343,11.269],[-10.4,11.399],[-10.386,11.442],[-10.321,11.467],[-10.243,11.452],[-10.14,11.374],[-10.029,11.378],[-9.959,11.366],[-9.926,11.33],[-9.875,11.302],[-9.86,11.263],[-9.842,11.161],[-9.833,11.038],[-9.809,11.008],[-9.77,10.987],[-9.734,10.936],[-9.689,10.873],[-9.637,10.864],[-9.343,10.867],[-9.364,10.825],[-9.37,10.792],[-9.373,10.75],[-9.424,10.723],[-9.46,10.678],[-9.511,10.602],[-9.619,10.491],[-9.668,10.437],[-9.683,10.284],[-9.719,10.203],[-9.719,10.047],[-9.692,10.002],[-9.701,9.902],[-9.74,9.872],[-9.776,9.827],[-9.779,9.773],[-9.815,9.749],[-9.851,9.701],[-9.923,9.689],[-9.955,9.669]]]}},{"type":"Feature","id":"GN-KS","properties":{"id":"GN-KS","countryCode":"GN","isoSubdivision":"GN-KS","name":"Kissidougou Prefecture","name_en":"Kissidougou Prefecture","name_ko":"키시두구 지방 행정 구역","type":"Prefecture","labelLongitude":-9.891,"labelLatitude":9.256,"minZoom":8},"geometry":{"type":"Polygon","coordinates":[[[-9.955,9.669],[-9.893,9.596],[-9.833,9.553],[-9.755,9.558],[-9.671,9.542],[-9.662,9.542],[-9.633,9.536],[-9.629,9.537],[-9.549,9.459],[-9.344,9.467],[-9.221,9.426],[-9.238,9.246],[-9.32,9.196],[-9.336,9.09],[-9.351,9.059],[-9.362,8.993],[-9.422,8.929],[-9.523,8.872],[-9.547,8.865],[-9.574,8.86],[-9.593,8.86],[-9.77,8.9],[-9.938,8.938],[-9.98,8.943],[-9.99,8.939],[-10.041,8.909],[-10.05,8.901],[-10.056,8.896],[-10.07,8.888],[-10.087,8.883],[-10.167,8.872],[-10.189,8.871],[-10.202,8.872],[-10.204,8.875],[-10.214,8.895],[-10.223,8.902],[-10.238,8.909],[-10.28,8.919],[-10.288,8.923],[-10.291,8.926],[-10.293,8.931],[-10.294,8.937],[-10.385,9.043],[-10.4,9.047],[-10.436,9.074],[-10.44,9.078],[-10.442,9.085],[-10.432,9.147],[-10.437,9.158],[-10.442,9.164],[-10.478,9.185],[-10.461,9.226],[-10.434,9.262],[-10.392,9.293],[-10.38,9.386],[-10.389,9.467],[-10.407,9.509],[-10.422,9.554],[-10.418,9.612],[-10.29,9.596],[-10.281,9.596],[-10.271,9.598],[-10.253,9.605],[-10.244,9.61],[-10.238,9.615],[-10.228,9.627],[-10.207,9.661],[-10.181,9.691],[-10.169,9.703],[-10.166,9.705],[-10.162,9.707],[-10.15,9.711],[-10.134,9.714],[-10.084,9.717],[-10.03,9.714],[-10.021,9.713],[-9.992,9.7],[-9.955,9.669]]]}},{"type":"Feature","id":"GN-LA","properties":{"id":"GN-LA","countryCode":"GN","isoSubdivision":"GN-LA","name":"Labé Prefecture","name_en":"Labé Prefecture","name_ko":"라베 지방 행정 구역","type":"Prefecture","labelLongitude":-12.34,"labelLatitude":11.515,"minZoom":8},"geometry":{"type":"Polygon","coordinates":[[[-12.062,11.29],[-12.069,11.291],[-12.075,11.294],[-12.086,11.303],[-12.093,11.306],[-12.105,11.303],[-12.122,11.293],[-12.235,11.266],[-12.254,11.196],[-12.366,11.16],[-12.416,11.148],[-12.438,11.152],[-12.461,11.159],[-12.468,11.163],[-12.478,11.169],[-12.482,11.173],[-12.485,11.178],[-12.487,11.185],[-12.488,11.195],[-12.487,11.209],[-12.487,11.215],[-12.489,11.224],[-12.497,11.254],[-12.508,11.278],[-12.526,11.299],[-12.522,11.384],[-12.507,11.429],[-12.492,11.486],[-12.462,11.513],[-12.462,11.579],[-12.477,11.63],[-12.507,11.657],[-12.501,11.726],[-12.317,11.728],[-12.299,11.678],[-12.239,11.594],[-12.153,11.474],[-12.104,11.399],[-12.068,11.363],[-12.062,11.327],[-12.055,11.291],[-12.062,11.29]]]}},{"type":"Feature","id":"GN-LE","properties":{"id":"GN-LE","countryCode":"GN","isoSubdivision":"GN-LE","name":"Lélouma Prefecture","name_en":"Lélouma Prefecture","name_ko":"렐루마 지방 행정 구역","type":"Prefecture","labelLongitude":-12.634,"labelLatitude":11.469,"minZoom":8},"geometry":{"type":"Polygon","coordinates":[[[-12.875,10.986],[-12.909,11.07],[-12.95,11.117],[-12.969,11.168],[-12.99,11.256],[-12.985,11.266],[-12.966,11.296],[-12.955,11.317],[-12.94,11.366],[-12.935,11.378],[-12.93,11.385],[-12.926,11.388],[-12.921,11.39],[-12.908,11.401],[-12.885,11.424],[-12.881,11.427],[-12.823,11.453],[-12.801,11.469],[-12.761,11.525],[-12.755,11.532],[-12.746,11.537],[-12.724,11.546],[-12.717,11.551],[-12.707,11.559],[-12.704,11.566],[-12.704,11.571],[-12.706,11.577],[-12.707,11.584],[-12.705,11.595],[-12.705,11.602],[-12.708,11.607],[-12.712,11.609],[-12.748,11.623],[-12.752,11.626],[-12.756,11.629],[-12.76,11.633],[-12.762,11.637],[-12.765,11.64],[-12.767,11.643],[-12.772,11.647],[-12.775,11.652],[-12.776,11.657],[-12.78,11.667],[-12.785,11.676],[-12.789,11.679],[-12.799,11.683],[-12.803,11.687],[-12.805,11.692],[-12.807,11.696],[-12.808,11.705],[-12.809,11.722],[-12.501,11.726],[-12.507,11.657],[-12.477,11.63],[-12.462,11.579],[-12.462,11.513],[-12.492,11.486],[-12.507,11.429],[-12.522,11.384],[-12.526,11.299],[-12.539,11.315],[-12.604,11.314],[-12.63,11.322],[-12.648,11.314],[-12.652,11.308],[-12.652,11.303],[-12.649,11.293],[-12.649,11.287],[-12.652,11.281],[-12.657,11.273],[-12.662,11.269],[-12.668,11.265],[-12.695,11.259],[-12.709,11.254],[-12.717,11.247],[-12.727,11.235],[-12.752,11.191],[-12.753,11.186],[-12.754,11.18],[-12.756,11.162],[-12.757,11.156],[-12.761,11.146],[-12.765,11.137],[-12.767,11.132],[-12.769,11.121],[-12.77,11.116],[-12.772,11.111],[-12.773,11.106],[-12.777,11.097],[-12.779,11.086],[-12.798,11.054],[-12.805,11.034],[-12.813,11],[-12.814,10.999],[-12.816,10.998],[-12.82,10.998],[-12.824,10.999],[-12.826,11],[-12.827,11],[-12.836,11.008],[-12.84,11.011],[-12.845,11.012],[-12.851,11.011],[-12.853,11.007],[-12.853,11.003],[-12.853,11.001],[-12.852,10.999],[-12.853,10.997],[-12.855,10.991],[-12.859,10.988],[-12.864,10.986],[-12.87,10.986],[-12.875,10.986]]]}},{"type":"Feature","id":"GN-LO","properties":{"id":"GN-LO","countryCode":"GN","isoSubdivision":"GN-LO","name":"Lola Prefecture","name_en":"Lola Prefecture","name_ko":"롤라 지방 행정 구역","type":"Prefecture","labelLongitude":-8.334,"labelLatitude":7.855,"minZoom":8},"geometry":{"type":"Polygon","coordinates":[[[-8.067,8.021],[-8.069,7.997],[-8.079,7.958],[-8.129,7.883],[-8.131,7.842],[-8.124,7.832],[-8.101,7.813],[-8.096,7.802],[-8.098,7.792],[-8.104,7.786],[-8.11,7.782],[-8.115,7.777],[-8.119,7.761],[-8.123,7.727],[-8.127,7.713],[-8.16,7.676],[-8.16,7.672],[-8.157,7.662],[-8.158,7.658],[-8.162,7.654],[-8.173,7.648],[-8.178,7.644],[-8.198,7.619],[-8.203,7.607],[-8.203,7.6],[-8.2,7.583],[-8.2,7.576],[-8.229,7.544],[-8.265,7.56],[-8.303,7.589],[-8.337,7.598],[-8.372,7.587],[-8.391,7.586],[-8.415,7.613],[-8.44,7.6],[-8.485,7.558],[-8.516,7.577],[-8.548,7.601],[-8.567,7.623],[-8.573,7.651],[-8.567,7.688],[-8.532,7.721],[-8.511,7.763],[-8.532,7.817],[-8.55,7.871],[-8.55,7.935],[-8.523,7.995],[-8.49,8.049],[-8.475,8.097],[-8.445,8.124],[-8.436,8.16],[-8.43,8.217],[-8.37,8.22],[-8.279,8.196],[-8.207,8.136],[-8.111,8.049],[-8.067,8.021]]]}},{"type":"Feature","id":"GN-MC","properties":{"id":"GN-MC","countryCode":"GN","isoSubdivision":"GN-MC","name":"Macenta Prefecture","name_en":"Macenta Prefecture","name_ko":"마센타 지방 행정 구역","type":"Prefecture","labelLongitude":-9.32,"labelLatitude":8.547,"minZoom":8},"geometry":{"type":"Polygon","coordinates":[[[-9.722,8.436],[-9.736,8.45],[-9.746,8.468],[-9.751,8.486],[-9.757,8.533],[-9.763,8.55],[-9.774,8.563],[-9.791,8.565],[-9.79,8.553],[-9.795,8.545],[-9.802,8.537],[-9.809,8.528],[-9.809,8.52],[-9.805,8.513],[-9.807,8.506],[-9.832,8.499],[-9.85,8.49],[-9.859,8.487],[-9.864,8.494],[-9.868,8.498],[-9.873,8.5],[-9.92,8.692],[-9.908,8.755],[-9.875,8.788],[-9.839,8.809],[-9.794,8.827],[-9.782,8.86],[-9.77,8.9],[-9.593,8.86],[-9.574,8.86],[-9.547,8.865],[-9.523,8.872],[-9.422,8.929],[-9.362,8.993],[-9.351,9.059],[-9.336,9.09],[-9.288,9.082],[-9.271,8.999],[-9.24,8.919],[-9.149,8.911],[-8.969,8.962],[-8.968,8.746],[-8.952,8.701],[-8.904,8.635],[-8.871,8.55],[-8.856,8.463],[-8.874,8.397],[-8.895,8.34],[-8.91,8.298],[-8.94,8.274],[-8.989,8.181],[-9.01,8.112],[-9.052,8.083],[-9.069,8.053],[-9.086,8.025],[-9.109,7.994],[-9.132,7.98],[-9.176,7.945],[-9.194,7.904],[-9.268,7.838],[-9.303,7.811],[-9.329,7.755],[-9.347,7.76],[-9.368,7.758],[-9.381,7.774],[-9.39,7.791],[-9.416,7.824],[-9.439,7.866],[-9.448,7.908],[-9.446,7.95],[-9.433,7.993],[-9.432,7.997],[-9.425,8.006],[-9.422,8.016],[-9.424,8.026],[-9.429,8.037],[-9.441,8.051],[-9.452,8.052],[-9.462,8.043],[-9.474,8.029],[-9.473,8.04],[-9.462,8.058],[-9.46,8.069],[-9.478,8.141],[-9.478,8.153],[-9.481,8.165],[-9.491,8.17],[-9.516,8.175],[-9.53,8.185],[-9.532,8.212],[-9.525,8.241],[-9.516,8.257],[-9.511,8.261],[-9.509,8.266],[-9.511,8.27],[-9.516,8.274],[-9.521,8.284],[-9.525,8.295],[-9.53,8.306],[-9.539,8.315],[-9.528,8.326],[-9.522,8.331],[-9.516,8.334],[-9.511,8.336],[-9.499,8.343],[-9.504,8.346],[-9.511,8.354],[-9.529,8.366],[-9.579,8.387],[-9.592,8.405],[-9.6,8.411],[-9.607,8.403],[-9.612,8.396],[-9.62,8.393],[-9.628,8.392],[-9.636,8.393],[-9.653,8.392],[-9.668,8.389],[-9.677,8.392],[-9.676,8.41],[-9.667,8.422],[-9.653,8.431],[-9.645,8.443],[-9.651,8.465],[-9.664,8.478],[-9.684,8.487],[-9.703,8.487],[-9.715,8.473],[-9.718,8.453],[-9.718,8.438],[-9.722,8.436]]]}},{"type":"Feature","id":"GN-MD","properties":{"id":"GN-MD","countryCode":"GN","isoSubdivision":"GN-MD","name":"Mandiana Prefecture","name_en":"Mandiana Prefecture","name_ko":"만디아나 지방 행정 구역","type":"Prefecture","labelLongitude":-8.665,"labelLatitude":10.722,"minZoom":8},"geometry":{"type":"Polygon","coordinates":[[[-7.99,10.162],[-8,10.151],[-8.007,10.138],[-8.012,10.125],[-8.016,10.11],[-8.035,10.086],[-8.058,10.073],[-8.109,10.054],[-8.128,10.037],[-8.148,10.01],[-8.158,9.985],[-8.149,9.974],[-8.136,9.969],[-8.14,9.96],[-8.152,9.95],[-8.213,9.957],[-8.261,9.978],[-8.34,10.005],[-8.391,10.059],[-8.421,10.128],[-8.43,10.179],[-8.478,10.2],[-8.574,10.218],[-8.673,10.233],[-8.724,10.284],[-8.73,10.332],[-8.748,10.392],[-8.784,10.419],[-8.856,10.434],[-8.898,10.449],[-8.946,10.503],[-8.955,10.56],[-8.964,10.666],[-9.16,10.681],[-9.214,10.705],[-9.301,10.723],[-9.373,10.75],[-9.37,10.792],[-9.364,10.825],[-9.343,10.867],[-9.313,10.9],[-9.238,10.954],[-9.151,10.984],[-9.07,11.017],[-8.977,11.08],[-8.922,11.131],[-8.886,11.23],[-8.874,11.339],[-8.853,11.429],[-8.811,11.527],[-8.787,11.558],[-8.779,11.586],[-8.767,11.61],[-8.747,11.623],[-8.727,11.649],[-8.713,11.64],[-8.691,11.568],[-8.687,11.55],[-8.679,11.53],[-8.668,11.511],[-8.657,11.496],[-8.602,11.472],[-8.575,11.47],[-8.55,11.49],[-8.544,11.478],[-8.539,11.456],[-8.536,11.438],[-8.528,11.423],[-8.516,11.419],[-8.488,11.418],[-8.428,11.4],[-8.398,11.386],[-8.375,11.368],[-8.393,11.363],[-8.414,11.353],[-8.426,11.34],[-8.418,11.326],[-8.4,11.322],[-8.381,11.325],[-8.371,11.321],[-8.377,11.295],[-8.388,11.281],[-8.407,11.275],[-8.427,11.274],[-8.445,11.276],[-8.483,11.285],[-8.493,11.278],[-8.503,11.255],[-8.502,11.252],[-8.499,11.247],[-8.497,11.241],[-8.499,11.234],[-8.502,11.231],[-8.512,11.23],[-8.516,11.229],[-8.524,11.224],[-8.545,11.215],[-8.552,11.211],[-8.564,11.193],[-8.57,11.158],[-8.578,11.142],[-8.587,11.137],[-8.607,11.137],[-8.615,11.134],[-8.625,11.122],[-8.625,11.112],[-8.622,11.103],[-8.623,11.091],[-8.634,11.071],[-8.68,11.025],[-8.689,11.013],[-8.697,10.996],[-8.701,10.978],[-8.696,10.963],[-8.681,10.952],[-8.665,10.957],[-8.648,10.966],[-8.628,10.968],[-8.611,10.965],[-8.593,10.965],[-8.576,10.967],[-8.56,10.972],[-8.542,10.984],[-8.532,10.999],[-8.506,11.053],[-8.489,11.053],[-8.469,11.046],[-8.449,11.047],[-8.438,11.05],[-8.429,11.048],[-8.41,11.042],[-8.401,11.043],[-8.381,11.054],[-8.369,11.054],[-8.347,11.043],[-8.327,11.024],[-8.311,11.001],[-8.305,10.978],[-8.304,10.875],[-8.306,10.856],[-8.312,10.847],[-8.319,10.84],[-8.34,10.784],[-8.342,10.763],[-8.316,10.753],[-8.311,10.735],[-8.296,10.537],[-8.284,10.511],[-8.254,10.47],[-8.229,10.423],[-8.211,10.414],[-8.189,10.414],[-8.166,10.418],[-8.151,10.425],[-8.142,10.43],[-8.135,10.427],[-8.125,10.412],[-8.122,10.399],[-8.121,10.373],[-8.115,10.36],[-8.096,10.347],[-8.07,10.342],[-8.016,10.339],[-7.996,10.328],[-7.982,10.307],[-7.971,10.282],[-7.965,10.259],[-7.963,10.233],[-7.968,10.21],[-7.99,10.162]]]}},{"type":"Feature","id":"GN-ML","properties":{"id":"GN-ML","countryCode":"GN","isoSubdivision":"GN-ML","name":"Mali Prefecture","name_en":"Mali Prefecture","name_ko":"말리 지방 행정 구역","type":"Prefecture","labelLongitude":-12.122,"labelLatitude":12.022,"minZoom":8},"geometry":{"type":"Polygon","coordinates":[[[-11.515,12.432],[-11.482,12.428],[-11.416,12.405],[-11.388,12.404],[-11.389,12.384],[-11.408,12.382],[-11.432,12.383],[-11.447,12.375],[-11.451,12.352],[-11.445,12.313],[-11.445,12.289],[-11.463,12.25],[-11.492,12.221],[-11.508,12.192],[-11.49,12.151],[-11.471,12.135],[-11.473,12.057],[-11.518,11.963],[-11.545,11.888],[-11.59,11.846],[-11.614,11.768],[-11.626,11.729],[-11.741,11.726],[-11.807,11.714],[-11.843,11.696],[-11.882,11.684],[-11.892,11.674],[-11.912,11.671],[-11.931,11.673],[-11.956,11.653],[-12.026,11.654],[-12.077,11.663],[-12.11,11.69],[-12.17,11.711],[-12.2,11.729],[-12.317,11.728],[-12.501,11.726],[-12.809,11.722],[-12.816,11.764],[-12.815,11.788],[-12.806,11.835],[-12.782,11.88],[-12.781,11.885],[-12.78,11.892],[-12.782,11.9],[-12.787,11.911],[-12.793,11.921],[-12.797,11.926],[-12.802,11.928],[-12.809,11.928],[-12.815,11.925],[-12.82,11.919],[-12.829,11.905],[-12.834,11.9],[-12.839,11.898],[-12.844,11.899],[-12.852,11.901],[-12.859,11.904],[-12.863,11.909],[-12.863,11.915],[-12.828,11.978],[-12.824,11.992],[-12.807,12.1],[-12.808,12.107],[-12.809,12.114],[-12.814,12.131],[-12.828,12.154],[-12.826,12.164],[-12.799,12.24],[-12.79,12.248],[-12.776,12.257],[-12.724,12.274],[-12.714,12.279],[-12.702,12.286],[-12.688,12.298],[-12.656,12.318],[-12.61,12.339],[-12.579,12.36],[-12.578,12.362],[-12.571,12.364],[-12.541,12.379],[-12.522,12.387],[-12.505,12.39],[-12.488,12.389],[-12.467,12.384],[-12.423,12.369],[-12.406,12.356],[-12.377,12.314],[-12.361,12.306],[-12.192,12.349],[-12.155,12.369],[-12.122,12.399],[-12.104,12.407],[-12.079,12.408],[-12.019,12.388],[-11.998,12.386],[-11.984,12.389],[-11.946,12.409],[-11.935,12.417],[-11.931,12.419],[-11.924,12.419],[-11.922,12.418],[-11.921,12.416],[-11.86,12.391],[-11.84,12.387],[-11.758,12.383],[-11.72,12.389],[-11.643,12.418],[-11.602,12.425],[-11.515,12.432]]]}},{"type":"Feature","id":"GN-MM","properties":{"id":"GN-MM","countryCode":"GN","isoSubdivision":"GN-MM","name":"Mamou Prefecture","name_en":"Mamou Prefecture","name_ko":"마모우","type":"Prefecture","labelLongitude":-11.893,"labelLatitude":10.344,"minZoom":8},"geometry":{"type":"Polygon","coordinates":[[[-11.588,9.994],[-11.91,9.993],[-11.915,9.931],[-11.922,9.922],[-12.11,9.882],[-12.132,9.924],[-12.144,9.963],[-12.144,9.972],[-12.141,9.982],[-12.126,10.015],[-12.124,10.026],[-12.122,10.041],[-12.122,10.075],[-12.123,10.09],[-12.125,10.1],[-12.186,10.177],[-12.229,10.258],[-12.236,10.269],[-12.24,10.271],[-12.244,10.272],[-12.247,10.272],[-12.257,10.269],[-12.264,10.269],[-12.279,10.27],[-12.306,10.276],[-12.316,10.278],[-12.327,10.277],[-12.337,10.275],[-12.367,10.265],[-12.376,10.264],[-12.386,10.264],[-12.395,10.265],[-12.403,10.268],[-12.407,10.272],[-12.41,10.277],[-12.426,10.34],[-12.426,10.354],[-12.423,10.365],[-12.414,10.385],[-12.407,10.405],[-12.406,10.416],[-12.406,10.433],[-12.405,10.44],[-12.401,10.445],[-12.383,10.465],[-12.4,10.483],[-12.415,10.491],[-12.359,10.524],[-12.311,10.563],[-12.275,10.581],[-12.197,10.593],[-12.173,10.636],[-12.101,10.708],[-12.029,10.762],[-11.948,10.78],[-11.861,10.786],[-11.822,10.804],[-11.801,10.849],[-11.78,10.897],[-11.786,10.969],[-11.813,11.002],[-11.785,11.014],[-11.741,11.022],[-11.697,11.025],[-11.664,11.031],[-11.647,11.043],[-11.619,11.07],[-11.616,11.074],[-11.573,11.121],[-11.566,11.134],[-11.503,11.169],[-11.492,11.178],[-11.487,11.19],[-11.484,11.225],[-11.48,11.237],[-11.473,11.245],[-11.461,11.248],[-11.452,11.249],[-11.446,11.251],[-11.437,11.256],[-11.431,11.262],[-11.427,11.27],[-11.421,11.275],[-11.41,11.269],[-11.397,11.279],[-11.385,11.276],[-11.371,11.269],[-11.355,11.269],[-11.344,11.279],[-11.327,11.31],[-11.306,11.326],[-11.271,11.282],[-11.249,11.229],[-11.249,11.184],[-11.312,11.14],[-11.423,11.064],[-11.489,11.064],[-11.582,10.986],[-11.59,10.98],[-11.595,10.976],[-11.603,10.965],[-11.589,10.899],[-11.588,10.866],[-11.592,10.826],[-11.595,10.819],[-11.584,10.809],[-11.553,10.796],[-11.553,10.735],[-11.566,10.372],[-11.565,10.242],[-11.572,10.189],[-11.594,10.157],[-11.606,10.069],[-11.588,9.994]]]}},{"type":"Feature","id":"GN-NZ","properties":{"id":"GN-NZ","countryCode":"GN","isoSubdivision":"GN-NZ","name":"Nzérékoré Prefecture","name_en":"Nzérékoré Prefecture","name_ko":"은제레코레","type":"Prefecture","labelLongitude":-8.738,"labelLatitude":8.051,"minZoom":8},"geometry":{"type":"Polygon","coordinates":[[[-8.567,7.688],[-8.687,7.694],[-8.694,7.674],[-8.721,7.643],[-8.728,7.622],[-8.809,7.633],[-8.885,7.666],[-8.912,7.726],[-8.939,7.807],[-8.982,7.889],[-8.993,7.965],[-9.015,8.013],[-9.069,8.053],[-9.052,8.083],[-9.01,8.112],[-8.989,8.181],[-8.94,8.274],[-8.91,8.298],[-8.823,8.319],[-8.736,8.358],[-8.652,8.364],[-8.589,8.349],[-8.55,8.307],[-8.538,8.271],[-8.478,8.265],[-8.445,8.241],[-8.43,8.217],[-8.436,8.16],[-8.445,8.124],[-8.475,8.097],[-8.49,8.049],[-8.523,7.995],[-8.55,7.935],[-8.55,7.871],[-8.532,7.817],[-8.511,7.763],[-8.532,7.721],[-8.567,7.688]]]}},{"type":"Feature","id":"GN-PI","properties":{"id":"GN-PI","countryCode":"GN","isoSubdivision":"GN-PI","name":"Pita Prefecture","name_en":"Pita Prefecture","name_ko":"피타 지방 행정 구역","type":"Prefecture","labelLongitude":-12.62,"labelLatitude":10.934,"minZoom":8},"geometry":{"type":"Polygon","coordinates":[[[-12.254,11.196],[-12.235,11.266],[-12.122,11.293],[-12.134,11.248],[-12.155,11.218],[-12.158,11.17],[-12.182,11.134],[-12.173,11.095],[-12.146,11.074],[-12.134,11.032],[-12.257,11.029],[-12.293,11.008],[-12.338,10.987],[-12.384,10.954],[-12.402,10.9],[-12.441,10.837],[-12.495,10.825],[-12.552,10.777],[-12.618,10.732],[-12.645,10.675],[-12.65,10.529],[-12.67,10.515],[-12.684,10.504],[-12.695,10.483],[-12.703,10.476],[-12.714,10.471],[-12.734,10.477],[-12.755,10.489],[-12.762,10.495],[-12.77,10.5],[-12.787,10.509],[-12.803,10.521],[-12.813,10.524],[-12.826,10.521],[-12.837,10.52],[-12.852,10.483],[-12.896,10.47],[-12.921,10.543],[-12.955,10.573],[-12.957,10.577],[-12.961,10.58],[-12.963,10.585],[-12.964,10.59],[-12.963,10.602],[-12.962,10.606],[-12.956,10.611],[-12.95,10.616],[-12.944,10.623],[-12.933,10.647],[-12.932,10.653],[-12.935,10.655],[-12.939,10.656],[-12.941,10.66],[-12.94,10.665],[-12.935,10.673],[-12.931,10.679],[-12.928,10.687],[-12.921,10.724],[-12.922,10.73],[-12.924,10.734],[-12.928,10.737],[-12.932,10.739],[-12.937,10.742],[-12.944,10.748],[-12.947,10.752],[-12.949,10.757],[-12.95,10.768],[-12.953,10.779],[-12.953,10.785],[-12.953,10.797],[-12.954,10.802],[-12.956,10.806],[-12.959,10.809],[-12.961,10.813],[-12.961,10.818],[-12.958,10.823],[-12.951,10.829],[-12.947,10.834],[-12.948,10.842],[-12.952,10.853],[-12.952,10.859],[-12.952,10.874],[-12.953,10.879],[-12.954,10.885],[-12.951,10.891],[-12.943,10.897],[-12.931,10.912],[-12.927,10.935],[-12.925,10.943],[-12.925,10.949],[-12.923,10.954],[-12.917,10.96],[-12.88,10.984],[-12.875,10.986],[-12.87,10.986],[-12.864,10.986],[-12.859,10.988],[-12.855,10.991],[-12.853,10.997],[-12.852,10.999],[-12.853,11.001],[-12.853,11.003],[-12.853,11.007],[-12.851,11.011],[-12.845,11.012],[-12.84,11.011],[-12.836,11.008],[-12.827,11],[-12.826,11],[-12.824,10.999],[-12.82,10.998],[-12.816,10.998],[-12.814,10.999],[-12.813,11],[-12.805,11.034],[-12.798,11.054],[-12.779,11.086],[-12.777,11.097],[-12.773,11.106],[-12.772,11.111],[-12.77,11.116],[-12.769,11.121],[-12.767,11.132],[-12.765,11.137],[-12.761,11.146],[-12.757,11.156],[-12.756,11.162],[-12.754,11.18],[-12.753,11.186],[-12.752,11.191],[-12.727,11.235],[-12.717,11.247],[-12.709,11.254],[-12.695,11.259],[-12.668,11.265],[-12.662,11.269],[-12.657,11.273],[-12.652,11.281],[-12.649,11.287],[-12.649,11.293],[-12.652,11.303],[-12.652,11.308],[-12.648,11.314],[-12.63,11.322],[-12.604,11.314],[-12.539,11.315],[-12.526,11.299],[-12.508,11.278],[-12.497,11.254],[-12.489,11.224],[-12.487,11.215],[-12.487,11.209],[-12.488,11.195],[-12.487,11.185],[-12.485,11.178],[-12.482,11.173],[-12.478,11.169],[-12.468,11.163],[-12.461,11.159],[-12.438,11.152],[-12.416,11.148],[-12.366,11.16],[-12.254,11.196]]]}},{"type":"Feature","id":"GN-SI","properties":{"id":"GN-SI","countryCode":"GN","isoSubdivision":"GN-SI","name":"Siguiri Prefecture","name_en":"Siguiri Prefecture","name_ko":"시기리 현","type":"Prefecture","labelLongitude":-9.394,"labelLatitude":11.57,"minZoom":8},"geometry":{"type":"Polygon","coordinates":[[[-9.327,12.498],[-9.322,12.497],[-9.308,12.489],[-9.294,12.484],[-9.286,12.488],[-9.279,12.494],[-9.266,12.495],[-9.189,12.479],[-9.147,12.465],[-9.028,12.405],[-8.994,12.388],[-8.976,12.369],[-8.965,12.346],[-8.963,12.324],[-8.972,12.302],[-8.985,12.282],[-8.996,12.261],[-8.998,12.235],[-8.994,12.225],[-8.985,12.209],[-8.981,12.199],[-8.974,12.188],[-8.962,12.188],[-8.942,12.196],[-8.927,12.187],[-8.914,12.17],[-8.906,12.148],[-8.907,12.125],[-8.922,12.086],[-8.926,12.064],[-8.922,12.045],[-8.904,12.03],[-8.882,12.029],[-8.859,12.032],[-8.838,12.028],[-8.82,12.013],[-8.815,11.996],[-8.816,11.977],[-8.815,11.955],[-8.81,11.944],[-8.803,11.935],[-8.798,11.925],[-8.797,11.913],[-8.847,11.658],[-8.829,11.659],[-8.812,11.652],[-8.795,11.642],[-8.777,11.636],[-8.757,11.639],[-8.74,11.646],[-8.727,11.649],[-8.747,11.623],[-8.767,11.61],[-8.779,11.586],[-8.787,11.558],[-8.811,11.527],[-8.853,11.429],[-8.874,11.339],[-8.886,11.23],[-8.922,11.131],[-8.977,11.08],[-9.07,11.017],[-9.151,10.984],[-9.238,10.954],[-9.313,10.9],[-9.343,10.867],[-9.637,10.864],[-9.689,10.873],[-9.734,10.936],[-9.77,10.987],[-9.809,11.008],[-9.833,11.038],[-9.842,11.161],[-9.86,11.263],[-9.875,11.302],[-9.926,11.33],[-9.959,11.366],[-10.029,11.378],[-10.026,11.545],[-10.065,11.641],[-10.115,11.694],[-10.151,11.727],[-10.208,11.815],[-10.2,11.825],[-10.191,11.835],[-10.183,11.845],[-10.083,11.897],[-9.994,11.965],[-9.955,12.019],[-9.889,12.061],[-9.871,12.052],[-9.861,12.052],[-9.841,12.055],[-9.834,12.055],[-9.823,12.051],[-9.807,12.038],[-9.797,12.032],[-9.779,12.027],[-9.723,12.025],[-9.699,12.051],[-9.686,12.068],[-9.682,12.081],[-9.684,12.101],[-9.682,12.119],[-9.675,12.134],[-9.66,12.15],[-9.628,12.17],[-9.516,12.207],[-9.496,12.225],[-9.48,12.236],[-9.439,12.255],[-9.422,12.257],[-9.36,12.247],[-9.337,12.27],[-9.332,12.283],[-9.335,12.307],[-9.322,12.31],[-9.313,12.326],[-9.308,12.345],[-9.309,12.358],[-9.315,12.363],[-9.332,12.366],[-9.339,12.371],[-9.344,12.38],[-9.344,12.389],[-9.347,12.396],[-9.375,12.411],[-9.393,12.428],[-9.407,12.445],[-9.413,12.455],[-9.398,12.473],[-9.351,12.485],[-9.334,12.496],[-9.327,12.498]]]}},{"type":"Feature","id":"GN-TE","properties":{"id":"GN-TE","countryCode":"GN","isoSubdivision":"GN-TE","name":"Télimélé Prefecture","name_en":"Télimélé Prefecture","name_ko":"텔리멜리 지방 행정 구역","type":"Prefecture","labelLongitude":-13.311,"labelLatitude":10.916,"minZoom":8},"geometry":{"type":"Polygon","coordinates":[[[-12.969,11.168],[-12.95,11.117],[-12.909,11.07],[-12.875,10.986],[-12.88,10.984],[-12.917,10.96],[-12.923,10.954],[-12.925,10.949],[-12.925,10.943],[-12.927,10.935],[-12.931,10.912],[-12.943,10.897],[-12.951,10.891],[-12.954,10.885],[-12.953,10.879],[-12.952,10.874],[-12.952,10.859],[-12.952,10.853],[-12.948,10.842],[-12.947,10.834],[-12.951,10.829],[-12.958,10.823],[-12.961,10.818],[-12.961,10.813],[-12.959,10.809],[-12.956,10.806],[-12.954,10.802],[-12.953,10.797],[-12.953,10.785],[-12.953,10.779],[-12.95,10.768],[-12.949,10.757],[-12.947,10.752],[-12.944,10.748],[-12.937,10.742],[-12.932,10.739],[-12.928,10.737],[-12.924,10.734],[-12.922,10.73],[-12.921,10.724],[-12.928,10.687],[-12.931,10.679],[-12.935,10.673],[-12.94,10.665],[-12.941,10.66],[-12.939,10.656],[-12.935,10.655],[-12.932,10.653],[-12.933,10.647],[-12.944,10.623],[-12.95,10.616],[-12.956,10.611],[-12.962,10.606],[-12.963,10.602],[-12.964,10.59],[-12.963,10.585],[-12.961,10.58],[-12.957,10.577],[-12.955,10.573],[-12.921,10.543],[-12.896,10.47],[-12.933,10.458],[-13.044,10.425],[-13.135,10.404],[-13.212,10.397],[-13.215,10.438],[-13.218,10.476],[-13.196,10.514],[-13.209,10.596],[-13.405,10.701],[-13.612,10.715],[-13.724,10.722],[-13.734,10.729],[-13.746,10.73],[-13.764,10.728],[-13.774,10.73],[-13.8,10.741],[-13.81,10.74],[-13.818,10.736],[-13.825,10.729],[-13.833,10.725],[-13.842,10.722],[-13.851,10.691],[-13.888,10.685],[-13.893,10.682],[-13.906,10.677],[-13.909,10.673],[-13.912,10.668],[-13.916,10.667],[-13.921,10.668],[-13.928,10.675],[-13.986,10.647],[-14.031,10.641],[-14.05,10.669],[-14.145,10.669],[-14.1,10.732],[-14.04,10.792],[-13.99,10.862],[-13.931,10.858],[-13.86,10.89],[-13.841,10.944],[-13.825,10.982],[-13.816,11.027],[-13.817,11.037],[-13.813,11.043],[-13.794,11.061],[-13.785,11.067],[-13.776,11.071],[-13.772,11.074],[-13.77,11.077],[-13.76,11.119],[-13.759,11.128],[-13.76,11.149],[-13.76,11.158],[-13.76,11.165],[-13.762,11.17],[-13.773,11.179],[-13.778,11.182],[-13.782,11.186],[-13.784,11.192],[-13.783,11.214],[-13.784,11.221],[-13.796,11.236],[-13.803,11.243],[-13.812,11.255],[-13.817,11.258],[-13.829,11.259],[-13.835,11.26],[-13.839,11.262],[-13.844,11.272],[-13.825,11.275],[-13.807,11.292],[-13.791,11.306],[-13.745,11.323],[-13.707,11.329],[-13.699,11.328],[-13.695,11.326],[-13.69,11.324],[-13.685,11.322],[-13.667,11.32],[-13.655,11.32],[-13.639,11.321],[-13.63,11.324],[-13.624,11.329],[-13.616,11.336],[-13.605,11.344],[-13.581,11.356],[-13.566,11.362],[-13.551,11.364],[-13.464,11.366],[-13.454,11.365],[-13.445,11.363],[-13.44,11.359],[-13.395,11.361],[-13.354,11.349],[-13.294,11.338],[-13.284,11.337],[-13.28,11.336],[-13.264,11.331],[-13.246,11.142],[-13.244,11.138],[-13.234,11.13],[-13.227,11.129],[-13.176,11.133],[-13.088,11.154],[-13.05,11.167],[-13.041,11.172],[-12.969,11.168]]]}},{"type":"Feature","id":"GN-TO","properties":{"id":"GN-TO","countryCode":"GN","isoSubdivision":"GN-TO","name":"Tougué Prefecture","name_en":"Tougué Prefecture","name_ko":"투구 지방 행정 구역","type":"Prefecture","labelLongitude":-11.468,"labelLatitude":11.45,"minZoom":8},"geometry":{"type":"Polygon","coordinates":[[[-11.351,12.04],[-11.335,12.026],[-11.315,12.013],[-11.295,12.003],[-11.275,11.996],[-11.256,11.996],[-11.223,12.009],[-11.207,12.01],[-11.191,12.014],[-11.185,12.021],[-11.181,11.971],[-11.166,11.935],[-11.119,11.891],[-11.119,11.83],[-11.119,11.787],[-11.131,11.765],[-11.132,11.731],[-11.135,11.702],[-11.139,11.658],[-11.216,11.562],[-11.218,11.551],[-11.218,11.544],[-11.217,11.539],[-11.214,11.534],[-11.211,11.531],[-11.203,11.524],[-11.196,11.518],[-11.137,11.49],[-11.132,11.483],[-11.139,11.467],[-11.146,11.46],[-11.158,11.456],[-11.173,11.447],[-11.185,11.437],[-11.19,11.43],[-11.196,11.425],[-11.231,11.413],[-11.241,11.407],[-11.251,11.4],[-11.266,11.385],[-11.306,11.326],[-11.327,11.31],[-11.344,11.279],[-11.355,11.269],[-11.371,11.269],[-11.385,11.276],[-11.397,11.279],[-11.41,11.269],[-11.421,11.275],[-11.427,11.27],[-11.431,11.262],[-11.437,11.256],[-11.446,11.251],[-11.452,11.249],[-11.461,11.248],[-11.473,11.245],[-11.48,11.237],[-11.484,11.225],[-11.487,11.19],[-11.492,11.178],[-11.503,11.169],[-11.566,11.134],[-11.573,11.121],[-11.616,11.074],[-11.619,11.07],[-11.647,11.043],[-11.664,11.031],[-11.697,11.025],[-11.741,11.022],[-11.785,11.014],[-11.813,11.002],[-11.824,11.001],[-11.867,11],[-11.878,11.002],[-11.888,11.006],[-11.897,11.018],[-11.904,11.034],[-11.909,11.068],[-11.91,11.089],[-11.908,11.111],[-11.903,11.142],[-11.905,11.159],[-11.911,11.173],[-11.928,11.191],[-11.942,11.201],[-11.957,11.208],[-11.968,11.211],[-11.977,11.216],[-11.987,11.228],[-11.996,11.247],[-12.005,11.287],[-11.996,11.321],[-11.945,11.354],[-11.801,11.435],[-11.623,11.51],[-11.551,11.564],[-11.524,11.624],[-11.446,11.648],[-11.353,11.666],[-11.344,11.705],[-11.351,12.04]]]}},{"type":"Feature","id":"GN-YO","properties":{"id":"GN-YO","countryCode":"GN","isoSubdivision":"GN-YO","name":"Yomou Prefecture","name_en":"Yomou Prefecture","name_ko":"요무 지방 행정 구역","type":"Prefecture","labelLongitude":-9.08,"labelLatitude":7.616,"minZoom":8},"geometry":{"type":"Polygon","coordinates":[[[-9.487,7.373],[-9.491,7.376],[-9.48,7.385],[-9.473,7.396],[-9.471,7.407],[-9.47,7.421],[-9.466,7.433],[-9.457,7.443],[-9.436,7.459],[-9.413,7.492],[-9.405,7.514],[-9.409,7.527],[-9.391,7.548],[-9.384,7.56],[-9.379,7.586],[-9.373,7.601],[-9.364,7.614],[-9.354,7.622],[-9.375,7.647],[-9.376,7.681],[-9.366,7.716],[-9.355,7.742],[-9.368,7.758],[-9.347,7.76],[-9.329,7.755],[-9.303,7.811],[-9.268,7.838],[-9.194,7.904],[-9.176,7.945],[-9.132,7.98],[-9.109,7.994],[-9.086,8.025],[-9.069,8.053],[-9.015,8.013],[-8.993,7.965],[-8.982,7.889],[-8.939,7.807],[-8.912,7.726],[-8.885,7.666],[-8.809,7.633],[-8.728,7.622],[-8.73,7.587],[-8.731,7.582],[-8.737,7.571],[-8.739,7.566],[-8.738,7.559],[-8.734,7.558],[-8.73,7.556],[-8.727,7.552],[-8.726,7.529],[-8.73,7.509],[-8.74,7.491],[-8.756,7.472],[-8.784,7.456],[-8.79,7.451],[-8.794,7.442],[-8.795,7.421],[-8.799,7.412],[-8.808,7.405],[-8.824,7.4],[-8.833,7.394],[-8.852,7.371],[-8.861,7.358],[-8.865,7.347],[-8.863,7.33],[-8.856,7.312],[-8.851,7.293],[-8.858,7.273],[-8.869,7.267],[-8.912,7.25],[-8.925,7.249],[-8.944,7.279],[-8.957,7.286],[-8.963,7.263],[-8.973,7.268],[-8.978,7.266],[-8.981,7.251],[-8.985,7.25],[-9.008,7.243],[-9.016,7.239],[-9.033,7.24],[-9.047,7.233],[-9.059,7.221],[-9.073,7.211],[-9.086,7.207],[-9.1,7.205],[-9.106,7.203],[-9.114,7.2],[-9.125,7.19],[-9.116,7.225],[-9.12,7.238],[-9.139,7.248],[-9.147,7.254],[-9.147,7.271],[-9.153,7.275],[-9.175,7.275],[-9.181,7.276],[-9.206,7.298],[-9.22,7.361],[-9.234,7.381],[-9.25,7.383],[-9.284,7.374],[-9.3,7.377],[-9.305,7.383],[-9.312,7.403],[-9.319,7.412],[-9.328,7.417],[-9.335,7.42],[-9.349,7.422],[-9.366,7.421],[-9.375,7.419],[-9.379,7.416],[-9.381,7.405],[-9.386,7.402],[-9.392,7.4],[-9.407,7.378],[-9.419,7.388],[-9.438,7.422],[-9.449,7.405],[-9.478,7.377],[-9.487,7.373]]]}}]}
