{"type":"FeatureCollection","features":[{"type":"Feature","id":"GQ-AN","properties":{"id":"GQ-AN","countryCode":"GQ","isoSubdivision":"GQ-AN","name":"Annobón","name_en":"Annobón","name_ko":"안노본","type":"Province","labelLongitude":5.629,"labelLatitude":-1.447,"minZoom":8.7},"geometry":{"type":"Polygon","coordinates":[[[5.626,-1.456],[5.62,-1.445],[5.619,-1.433],[5.623,-1.423],[5.633,-1.416],[5.646,-1.438],[5.643,-1.463],[5.629,-1.476],[5.612,-1.464],[5.617,-1.462],[5.621,-1.458],[5.626,-1.456]]]}},{"type":"Feature","id":"GQ-BN","properties":{"id":"GQ-BN","countryCode":"GQ","isoSubdivision":"GQ-BN","name":"Bioko Norte","name_en":"Bioko Norte","name_ko":"북비오코","type":"Province","labelLongitude":8.795,"labelLatitude":3.668,"minZoom":8.7},"geometry":{"type":"Polygon","coordinates":[[[8.627,3.633],[8.628,3.648],[8.641,3.684],[8.667,3.726],[8.702,3.761],[8.743,3.772],[8.741,3.769],[8.737,3.758],[8.768,3.752],[8.782,3.751],[8.792,3.758],[8.814,3.751],[8.847,3.746],[8.881,3.747],[8.908,3.758],[8.911,3.754],[8.915,3.752],[8.923,3.751],[8.949,3.718],[8.959,3.701],[8.963,3.68],[8.962,3.66],[8.958,3.643],[8.951,3.627],[8.943,3.614],[8.907,3.582],[8.897,3.554],[8.864,3.515],[8.848,3.554],[8.845,3.559],[8.842,3.562],[8.833,3.569],[8.82,3.573],[8.793,3.579],[8.767,3.58],[8.76,3.579],[8.751,3.579],[8.739,3.581],[8.726,3.587],[8.682,3.618],[8.669,3.625],[8.642,3.634],[8.627,3.633]]]}},{"type":"Feature","id":"GQ-BS","properties":{"id":"GQ-BS","countryCode":"GQ","isoSubdivision":"GQ-BS","name":"Bioko Sur","name_en":"Bioko Sur","name_ko":"남비오코","type":"Province","labelLongitude":8.643,"labelLatitude":3.426,"minZoom":8.7},"geometry":{"type":"Polygon","coordinates":[[[8.864,3.515],[8.861,3.512],[8.841,3.458],[8.823,3.444],[8.819,3.421],[8.816,3.416],[8.814,3.412],[8.785,3.395],[8.781,3.379],[8.781,3.333],[8.775,3.317],[8.73,3.265],[8.695,3.209],[8.686,3.197],[8.677,3.204],[8.654,3.214],[8.648,3.22],[8.642,3.217],[8.628,3.223],[8.6,3.238],[8.593,3.236],[8.57,3.23],[8.56,3.231],[8.549,3.235],[8.528,3.249],[8.515,3.252],[8.493,3.252],[8.469,3.258],[8.45,3.273],[8.442,3.302],[8.438,3.313],[8.429,3.326],[8.422,3.339],[8.425,3.35],[8.429,3.36],[8.435,3.402],[8.442,3.421],[8.455,3.447],[8.474,3.463],[8.498,3.457],[8.51,3.464],[8.527,3.463],[8.563,3.457],[8.58,3.463],[8.585,3.479],[8.582,3.498],[8.573,3.512],[8.586,3.518],[8.601,3.53],[8.615,3.543],[8.621,3.556],[8.627,3.633],[8.642,3.634],[8.669,3.625],[8.682,3.618],[8.726,3.587],[8.739,3.581],[8.751,3.579],[8.76,3.579],[8.767,3.58],[8.793,3.579],[8.82,3.573],[8.833,3.569],[8.842,3.562],[8.845,3.559],[8.848,3.554],[8.864,3.515]]]}},{"type":"Feature","id":"GQ-CS","properties":{"id":"GQ-CS","countryCode":"GQ","isoSubdivision":"GQ-CS","name":"Centro Sur","name_en":"Centro Sur","name_ko":"중남부","type":"Province","labelLongitude":10.449,"labelLatitude":1.462,"minZoom":8.7},"geometry":{"type":"Polygon","coordinates":[[[10.19,2.166],[10.41,2.166],[10.411,2.116],[10.42,2.084],[10.435,2.041],[10.437,2.027],[10.436,2.014],[10.427,1.994],[10.424,1.98],[10.421,1.956],[10.423,1.943],[10.427,1.935],[10.429,1.934],[10.44,1.924],[10.451,1.922],[10.494,1.926],[10.512,1.921],[10.517,1.915],[10.543,1.884],[10.61,1.83],[10.616,1.814],[10.614,1.791],[10.609,1.767],[10.602,1.748],[10.576,1.71],[10.572,1.696],[10.574,1.683],[10.587,1.663],[10.59,1.652],[10.585,1.624],[10.574,1.604],[10.575,1.587],[10.608,1.571],[10.639,1.563],[10.666,1.56],[10.693,1.563],[10.721,1.572],[10.754,1.588],[10.766,1.591],[10.776,1.59],[10.793,1.584],[10.803,1.583],[10.813,1.587],[10.821,1.595],[10.827,1.597],[10.841,1.573],[10.849,1.576],[10.861,1.59],[10.868,1.593],[10.875,1.598],[10.882,1.6],[10.889,1.597],[10.891,1.593],[10.893,1.582],[10.896,1.579],[10.912,1.574],[10.963,1.566],[10.968,1.566],[10.972,1.568],[10.981,1.573],[10.981,1.567],[10.975,1.556],[10.965,1.551],[10.929,1.538],[10.918,1.529],[10.873,1.48],[10.865,1.469],[10.85,1.441],[10.809,1.385],[10.79,1.354],[10.777,1.322],[10.775,1.311],[10.778,1.298],[10.785,1.282],[10.85,1.21],[10.862,1.201],[10.904,1.182],[10.915,1.168],[10.926,1.148],[10.942,1.083],[10.951,1.065],[10.959,1.06],[10.967,1.056],[10.974,1.05],[10.98,1.043],[10.981,1.032],[10.98,1.023],[10.966,1.003],[10.964,1.001],[10.964,1],[10.737,1.001],[10.438,1.002],[10.415,1.002],[10.139,1.003],[10.029,1.004],[10,1],[10,1.002],[10.007,1.023],[10.016,1.042],[10.022,1.05],[10.027,1.056],[10.033,1.061],[10.056,1.074],[10.08,1.083],[10.085,1.086],[10.097,1.09],[10.106,1.091],[10.115,1.091],[10.136,1.085],[10.148,1.082],[10.163,1.082],[10.182,1.083],[10.22,1.091],[10.236,1.096],[10.251,1.104],[10.264,1.114],[10.273,1.127],[10.276,1.14],[10.275,1.152],[10.271,1.164],[10.266,1.173],[10.257,1.178],[10.251,1.178],[10.245,1.172],[10.238,1.165],[10.23,1.161],[10.219,1.162],[10.208,1.168],[10.203,1.175],[10.198,1.2],[10.195,1.209],[10.189,1.215],[10.186,1.224],[10.185,1.237],[10.185,1.249],[10.184,1.258],[10.178,1.264],[10.167,1.265],[10.158,1.268],[10.149,1.275],[10.144,1.294],[10.141,1.31],[10.138,1.376],[10.134,1.387],[10.114,1.397],[10.105,1.405],[10.098,1.421],[10.096,1.435],[10.098,1.447],[10.109,1.469],[10.116,1.482],[10.115,1.486],[10.111,1.492],[10.094,1.507],[10.064,1.52],[10,1.539],[9.93,1.558],[9.923,1.562],[9.919,1.568],[9.918,1.577],[9.923,1.588],[9.932,1.596],[9.949,1.602],[9.968,1.606],[9.982,1.615],[10,1.641],[10.062,1.75],[10.098,1.797],[10.106,1.817],[10.112,1.925],[10.115,1.943],[10.121,1.959],[10.133,1.978],[10.142,1.989],[10.18,2.023],[10.187,2.032],[10.193,2.045],[10.197,2.062],[10.198,2.11],[10.19,2.166]]]}},{"type":"Feature","id":"GQ-KN","properties":{"id":"GQ-KN","countryCode":"GQ","isoSubdivision":"GQ-KN","name":"Kié-Ntem","name_en":"Kié-Ntem","name_ko":"키에은템","type":"Province","labelLongitude":10.871,"labelLatitude":2.049,"minZoom":8.7},"geometry":{"type":"Polygon","coordinates":[[[10.41,2.166],[10.425,2.166],[10.724,2.166],[11.023,2.166],[11.322,2.166],[11.33,2.127],[11.33,2.047],[11.332,1.785],[11.332,1.733],[11.228,1.747],[11.184,1.74],[11.173,1.735],[11.161,1.733],[11.097,1.74],[11.075,1.739],[11.055,1.734],[11.035,1.732],[11.019,1.733],[11.002,1.741],[10.994,1.75],[10.988,1.762],[10.959,1.949],[10.955,1.963],[10.948,1.971],[10.939,1.974],[10.926,1.969],[10.916,1.961],[10.9,1.945],[10.89,1.937],[10.876,1.932],[10.86,1.93],[10.835,1.935],[10.817,1.94],[10.702,1.989],[10.675,1.995],[10.665,1.996],[10.629,1.981],[10.517,1.915],[10.512,1.921],[10.494,1.926],[10.451,1.922],[10.44,1.924],[10.429,1.934],[10.427,1.935],[10.423,1.943],[10.421,1.956],[10.424,1.98],[10.427,1.994],[10.436,2.014],[10.437,2.027],[10.435,2.041],[10.42,2.084],[10.411,2.116],[10.41,2.166]]]}},{"type":"Feature","id":"GQ-LI","properties":{"id":"GQ-LI","countryCode":"GQ","isoSubdivision":"GQ-LI","name":"Litoral","name_en":"Litoral","name_ko":"리토랄","type":"Province","labelLongitude":9.799,"labelLatitude":1.307,"minZoom":8.7},"geometry":{"type":"Polygon","coordinates":[[[9.8,2.342],[9.811,2.325],[9.812,2.306],[9.809,2.285],[9.811,2.265],[9.824,2.249],[9.847,2.229],[9.872,2.211],[9.89,2.205],[9.907,2.2],[9.971,2.169],[9.991,2.166],[10.126,2.166],[10.19,2.166],[10.198,2.11],[10.197,2.062],[10.193,2.045],[10.187,2.032],[10.18,2.023],[10.142,1.989],[10.133,1.978],[10.121,1.959],[10.115,1.943],[10.112,1.925],[10.106,1.817],[10.098,1.797],[10.062,1.75],[10,1.641],[9.982,1.615],[9.968,1.606],[9.949,1.602],[9.932,1.596],[9.923,1.588],[9.918,1.577],[9.919,1.568],[9.923,1.562],[9.93,1.558],[10,1.539],[10.064,1.52],[10.094,1.507],[10.111,1.492],[10.115,1.486],[10.116,1.482],[10.109,1.469],[10.098,1.447],[10.096,1.435],[10.098,1.421],[10.105,1.405],[10.114,1.397],[10.134,1.387],[10.138,1.376],[10.141,1.31],[10.144,1.294],[10.149,1.275],[10.158,1.268],[10.167,1.265],[10.178,1.264],[10.184,1.258],[10.185,1.249],[10.185,1.237],[10.186,1.224],[10.189,1.215],[10.195,1.209],[10.198,1.2],[10.203,1.175],[10.208,1.168],[10.219,1.162],[10.23,1.161],[10.238,1.165],[10.245,1.172],[10.251,1.178],[10.257,1.178],[10.266,1.173],[10.271,1.164],[10.275,1.152],[10.276,1.14],[10.273,1.127],[10.264,1.114],[10.251,1.104],[10.236,1.096],[10.22,1.091],[10.182,1.083],[10.163,1.082],[10.148,1.082],[10.136,1.085],[10.115,1.091],[10.106,1.091],[10.097,1.09],[10.085,1.086],[10.08,1.083],[10.056,1.074],[10.033,1.061],[10.027,1.056],[10.022,1.05],[10.016,1.042],[10.007,1.023],[10,1.002],[10,1],[9.981,0.997],[9.975,0.983],[9.975,0.953],[9.972,0.94],[9.96,0.928],[9.944,0.925],[9.926,0.928],[9.909,0.935],[9.892,0.948],[9.866,0.978],[9.85,0.989],[9.834,0.995],[9.804,0.998],[9.806,1.004],[9.805,1.021],[9.797,1.046],[9.799,1.058],[9.807,1.064],[9.82,1.069],[9.835,1.072],[9.848,1.072],[9.841,1.078],[9.829,1.082],[9.815,1.085],[9.803,1.086],[9.792,1.089],[9.767,1.103],[9.755,1.106],[9.714,1.097],[9.703,1.1],[9.699,1.11],[9.704,1.121],[9.712,1.129],[9.718,1.133],[9.699,1.125],[9.676,1.105],[9.657,1.083],[9.649,1.069],[9.642,1.062],[9.609,1.053],[9.584,1.043],[9.575,1.055],[9.56,1.103],[9.552,1.115],[9.541,1.125],[9.525,1.133],[9.507,1.138],[9.494,1.135],[9.482,1.129],[9.45,1.123],[9.42,1.109],[9.405,1.106],[9.396,1.111],[9.373,1.138],[9.36,1.147],[9.362,1.157],[9.36,1.165],[9.347,1.182],[9.362,1.188],[9.374,1.2],[9.382,1.215],[9.399,1.266],[9.408,1.284],[9.419,1.292],[9.434,1.3],[9.448,1.319],[9.459,1.342],[9.464,1.36],[9.461,1.398],[9.465,1.415],[9.493,1.427],[9.532,1.462],[9.55,1.485],[9.553,1.486],[9.555,1.492],[9.56,1.497],[9.564,1.503],[9.566,1.514],[9.578,1.543],[9.594,1.572],[9.615,1.588],[9.628,1.584],[9.64,1.572],[9.659,1.565],[9.686,1.569],[9.705,1.578],[9.722,1.589],[9.744,1.6],[9.724,1.599],[9.683,1.571],[9.666,1.576],[9.622,1.617],[9.607,1.644],[9.618,1.671],[9.676,1.73],[9.679,1.733],[9.685,1.745],[9.69,1.75],[9.71,1.764],[9.718,1.772],[9.722,1.779],[9.731,1.799],[9.735,1.805],[9.74,1.809],[9.743,1.816],[9.747,1.84],[9.751,1.847],[9.756,1.851],[9.758,1.857],[9.764,1.866],[9.799,1.901],[9.81,1.935],[9.806,1.976],[9.778,2.058],[9.769,2.077],[9.765,2.085],[9.764,2.096],[9.767,2.107],[9.771,2.114],[9.776,2.119],[9.778,2.124],[9.786,2.248],[9.783,2.271],[9.775,2.288],[9.767,2.31],[9.78,2.328],[9.8,2.342]]]}},{"type":"Feature","id":"GQ-WN","properties":{"id":"GQ-WN","countryCode":"GQ","isoSubdivision":"GQ-WN","name":"Wele-Nzas","name_en":"Wele-Nzas","name_ko":"웰레은사스","type":"Province","labelLongitude":10.927,"labelLatitude":1.34,"minZoom":8.7},"geometry":{"type":"Polygon","coordinates":[[[11.332,1.733],[11.333,1.523],[11.335,1.261],[11.336,0.999],[11.037,1],[10.964,1],[10.964,1.001],[10.966,1.003],[10.98,1.023],[10.981,1.032],[10.98,1.043],[10.974,1.05],[10.967,1.056],[10.959,1.06],[10.951,1.065],[10.942,1.083],[10.926,1.148],[10.915,1.168],[10.904,1.182],[10.862,1.201],[10.85,1.21],[10.785,1.282],[10.778,1.298],[10.775,1.311],[10.777,1.322],[10.79,1.354],[10.809,1.385],[10.85,1.441],[10.865,1.469],[10.873,1.48],[10.918,1.529],[10.929,1.538],[10.965,1.551],[10.975,1.556],[10.981,1.567],[10.981,1.573],[10.972,1.568],[10.968,1.566],[10.963,1.566],[10.912,1.574],[10.896,1.579],[10.893,1.582],[10.891,1.593],[10.889,1.597],[10.882,1.6],[10.875,1.598],[10.868,1.593],[10.861,1.59],[10.849,1.576],[10.841,1.573],[10.827,1.597],[10.821,1.595],[10.813,1.587],[10.803,1.583],[10.793,1.584],[10.776,1.59],[10.766,1.591],[10.754,1.588],[10.721,1.572],[10.693,1.563],[10.666,1.56],[10.639,1.563],[10.608,1.571],[10.575,1.587],[10.574,1.604],[10.585,1.624],[10.59,1.652],[10.587,1.663],[10.574,1.683],[10.572,1.696],[10.576,1.71],[10.602,1.748],[10.609,1.767],[10.614,1.791],[10.616,1.814],[10.61,1.83],[10.543,1.884],[10.517,1.915],[10.629,1.981],[10.665,1.996],[10.675,1.995],[10.702,1.989],[10.817,1.94],[10.835,1.935],[10.86,1.93],[10.876,1.932],[10.89,1.937],[10.9,1.945],[10.916,1.961],[10.926,1.969],[10.939,1.974],[10.948,1.971],[10.955,1.963],[10.959,1.949],[10.988,1.762],[10.994,1.75],[11.002,1.741],[11.019,1.733],[11.035,1.732],[11.055,1.734],[11.075,1.739],[11.097,1.74],[11.161,1.733],[11.173,1.735],[11.184,1.74],[11.228,1.747],[11.332,1.733]]]}}]}
