{"type":"FeatureCollection","features":[{"type":"Feature","id":"GS-X01~","properties":{"id":"GS-X01~","countryCode":"GS","isoSubdivision":"GS-X01~","name":"South Georgia and the South Sandwich Islands","name_en":"South Georgia and the South Sandwich Islands","name_ko":"사우스 조지아 앤 더 사우스 샌드위치","type":"Principal subdivision","labelLongitude":-27.194,"labelLatitude":-59.455,"minZoom":18},"geometry":{"type":"MultiPolygon","coordinates":[[[[-27.253,-59.458],[-27.25,-59.447],[-27.243,-59.441],[-27.231,-59.438],[-27.137,-59.437],[-27.137,-59.444],[-27.146,-59.453],[-27.148,-59.463],[-27.153,-59.471],[-27.214,-59.472],[-27.235,-59.468],[-27.253,-59.458]]],[[[-27.329,-59.437],[-27.323,-59.447],[-27.321,-59.458],[-27.316,-59.467],[-27.301,-59.472],[-27.312,-59.473],[-27.323,-59.472],[-27.333,-59.469],[-27.342,-59.465],[-27.371,-59.456],[-27.399,-59.444],[-27.407,-59.432],[-27.377,-59.424],[-27.331,-59.425],[-27.33,-59.428],[-27.331,-59.432],[-27.329,-59.437]]],[[[-26.63,-59.006],[-26.595,-59.002],[-26.563,-59.008],[-26.499,-59.033],[-26.522,-59.047],[-26.545,-59.057],[-26.569,-59.064],[-26.596,-59.067],[-26.63,-59.063],[-26.654,-59.046],[-26.657,-59.024],[-26.63,-59.006]]],[[[-26.26,-58.437],[-26.255,-58.445],[-26.242,-58.461],[-26.239,-58.468],[-26.246,-58.489],[-26.246,-58.499],[-26.249,-58.495],[-26.253,-58.494],[-26.256,-58.493],[-26.301,-58.477],[-26.43,-58.452],[-26.458,-58.427],[-26.455,-58.421],[-26.448,-58.414],[-26.441,-58.404],[-26.438,-58.392],[-26.431,-58.385],[-26.415,-58.382],[-26.312,-58.382],[-26.277,-58.387],[-26.246,-58.403],[-26.26,-58.437]]],[[[-26.424,-57.813],[-26.452,-57.812],[-26.479,-57.803],[-26.5,-57.789],[-26.513,-57.773],[-26.478,-57.745],[-26.459,-57.738],[-26.438,-57.745],[-26.433,-57.751],[-26.425,-57.771],[-26.417,-57.779],[-26.403,-57.784],[-26.388,-57.786],[-26.356,-57.786],[-26.372,-57.797],[-26.389,-57.803],[-26.424,-57.813]]],[[[-26.733,-57.059],[-26.713,-57.048],[-26.69,-57.051],[-26.668,-57.062],[-26.65,-57.08],[-26.655,-57.08],[-26.658,-57.082],[-26.66,-57.084],[-26.664,-57.087],[-26.671,-57.08],[-26.683,-57.081],[-26.7,-57.076],[-26.733,-57.059]]],[[[-27.151,-56.676],[-27.135,-56.679],[-27.112,-56.686],[-27.094,-56.696],[-27.092,-56.706],[-27.107,-56.715],[-27.164,-56.724],[-27.196,-56.719],[-27.208,-56.713],[-27.212,-56.7],[-27.205,-56.69],[-27.187,-56.683],[-27.167,-56.678],[-27.151,-56.676]]],[[[-27.61,-56.292],[-27.593,-56.277],[-27.572,-56.273],[-27.55,-56.276],[-27.528,-56.285],[-27.528,-56.292],[-27.543,-56.297],[-27.556,-56.311],[-27.569,-56.321],[-27.583,-56.313],[-27.602,-56.297],[-27.61,-56.292]]],[[[-37.083,-54.466],[-37.068,-54.464],[-37.049,-54.475],[-37.018,-54.497],[-37.018,-54.503],[-37.026,-54.503],[-37.03,-54.505],[-37.034,-54.508],[-37.039,-54.511],[-37.063,-54.514],[-37.075,-54.513],[-37.086,-54.511],[-37.086,-54.503],[-37.067,-54.503],[-37.108,-54.49],[-37.11,-54.477],[-37.103,-54.472],[-37.092,-54.469],[-37.083,-54.466]]],[[[-38.087,-54.004],[-38.078,-53.992],[-38.062,-53.988],[-38.026,-53.989],[-38.066,-54.002],[-38.076,-54.004],[-38.087,-54.004]]],[[[-35.909,-54.687],[-35.936,-54.689],[-35.915,-54.715],[-35.871,-54.737],[-35.822,-54.752],[-35.784,-54.757],[-35.784,-54.765],[-35.797,-54.767],[-35.811,-54.772],[-35.822,-54.779],[-35.827,-54.788],[-35.835,-54.791],[-35.855,-54.79],[-35.887,-54.784],[-35.907,-54.805],[-35.937,-54.81],[-35.97,-54.806],[-35.997,-54.798],[-36.047,-54.776],[-36.076,-54.767],[-36.106,-54.765],[-36.097,-54.775],[-36.084,-54.783],[-36.07,-54.789],[-36.056,-54.791],[-36.043,-54.794],[-36.023,-54.811],[-36.011,-54.819],[-36,-54.822],[-35.989,-54.824],[-35.963,-54.825],[-35.953,-54.828],[-35.934,-54.842],[-35.922,-54.846],[-35.922,-54.852],[-35.933,-54.853],[-35.944,-54.853],[-35.954,-54.851],[-35.963,-54.846],[-35.961,-54.851],[-35.958,-54.862],[-35.956,-54.866],[-35.985,-54.867],[-35.996,-54.863],[-36.004,-54.852],[-36.008,-54.865],[-36.007,-54.871],[-36.004,-54.879],[-36.017,-54.88],[-36.038,-54.875],[-36.049,-54.873],[-36.055,-54.876],[-36.063,-54.882],[-36.073,-54.887],[-36.102,-54.887],[-36.116,-54.885],[-36.127,-54.878],[-36.134,-54.866],[-36.125,-54.866],[-36.119,-54.864],[-36.106,-54.859],[-36.147,-54.846],[-36.192,-54.811],[-36.212,-54.806],[-36.235,-54.795],[-36.272,-54.771],[-36.273,-54.757],[-36.283,-54.758],[-36.299,-54.744],[-36.295,-54.728],[-36.304,-54.711],[-36.312,-54.69],[-36.346,-54.654],[-36.422,-54.593],[-36.436,-54.586],[-36.448,-54.585],[-36.464,-54.582],[-36.478,-54.576],[-36.484,-54.569],[-36.48,-54.558],[-36.466,-54.545],[-36.463,-54.538],[-36.474,-54.524],[-36.499,-54.511],[-36.525,-54.501],[-36.542,-54.497],[-36.57,-54.497],[-36.581,-54.5],[-36.601,-54.514],[-36.615,-54.516],[-36.629,-54.515],[-36.641,-54.511],[-36.659,-54.499],[-36.67,-54.487],[-36.684,-54.477],[-36.786,-54.449],[-36.793,-54.448],[-36.802,-54.449],[-36.81,-54.449],[-36.813,-54.445],[-36.812,-54.441],[-36.807,-54.429],[-36.806,-54.428],[-36.806,-54.423],[-36.8,-54.415],[-36.799,-54.411],[-36.8,-54.403],[-36.803,-54.403],[-36.808,-54.404],[-36.813,-54.401],[-36.828,-54.39],[-36.847,-54.384],[-36.868,-54.381],[-36.888,-54.38],[-36.881,-54.373],[-36.901,-54.367],[-36.896,-54.357],[-36.886,-54.352],[-36.874,-54.351],[-36.861,-54.353],[-36.885,-54.336],[-36.924,-54.336],[-37.001,-54.346],[-37.014,-54.343],[-37.053,-54.331],[-37.073,-54.322],[-37.082,-54.316],[-37.086,-54.312],[-37.086,-54.305],[-37.081,-54.296],[-37.08,-54.287],[-37.09,-54.284],[-37.103,-54.281],[-37.119,-54.275],[-37.134,-54.268],[-37.145,-54.26],[-37.153,-54.258],[-37.172,-54.262],[-37.183,-54.26],[-37.2,-54.253],[-37.224,-54.249],[-37.242,-54.25],[-37.27,-54.261],[-37.331,-54.265],[-37.35,-54.269],[-37.368,-54.277],[-37.374,-54.27],[-37.383,-54.267],[-37.392,-54.266],[-37.402,-54.27],[-37.414,-54.255],[-37.41,-54.248],[-37.335,-54.23],[-37.319,-54.229],[-37.338,-54.214],[-37.394,-54.201],[-37.409,-54.182],[-37.368,-54.182],[-37.321,-54.174],[-37.237,-54.148],[-37.262,-54.141],[-37.353,-54.141],[-37.388,-54.148],[-37.401,-54.145],[-37.424,-54.136],[-37.436,-54.133],[-37.529,-54.133],[-37.553,-54.138],[-37.562,-54.147],[-37.555,-54.156],[-37.533,-54.161],[-37.551,-54.166],[-37.63,-54.175],[-37.669,-54.173],[-37.69,-54.174],[-37.685,-54.17],[-37.68,-54.164],[-37.676,-54.161],[-37.689,-54.156],[-37.725,-54.133],[-37.688,-54.12],[-37.67,-54.111],[-37.656,-54.099],[-37.672,-54.096],[-37.706,-54.098],[-37.725,-54.092],[-37.661,-54.073],[-37.632,-54.059],[-37.615,-54.038],[-37.734,-54.038],[-37.793,-54.044],[-37.808,-54.041],[-37.829,-54.032],[-37.841,-54.03],[-37.897,-54.043],[-37.928,-54.046],[-37.954,-54.034],[-37.973,-54.028],[-38.012,-54.052],[-38.032,-54.051],[-38.03,-54.042],[-38.025,-54.033],[-38.017,-54.026],[-38.005,-54.024],[-38.01,-54.016],[-38.015,-54.011],[-38.021,-54.009],[-38.032,-54.01],[-38.016,-54.004],[-37.964,-54.004],[-37.912,-53.991],[-37.892,-53.989],[-37.87,-53.993],[-37.837,-54.007],[-37.82,-54.01],[-37.799,-54.008],[-37.777,-54.002],[-37.756,-53.994],[-37.738,-53.983],[-37.738,-53.973],[-37.717,-53.972],[-37.689,-53.977],[-37.67,-53.983],[-37.679,-53.985],[-37.684,-53.988],[-37.687,-53.994],[-37.69,-54.004],[-37.492,-54],[-37.422,-53.986],[-37.382,-53.983],[-37.382,-53.989],[-37.443,-54.01],[-37.437,-54.017],[-37.443,-54.03],[-37.464,-54.03],[-37.443,-54.043],[-37.426,-54.049],[-37.409,-54.051],[-37.385,-54.051],[-37.376,-54.05],[-37.359,-54.045],[-37.351,-54.044],[-37.293,-54.044],[-37.233,-54.068],[-37.224,-54.069],[-37.217,-54.052],[-37.202,-54.049],[-37.185,-54.049],[-37.17,-54.044],[-37.171,-54.034],[-37.156,-54.031],[-37.135,-54.032],[-37.121,-54.03],[-37.14,-54.046],[-37.133,-54.05],[-37.118,-54.05],[-37.108,-54.051],[-37.108,-54.062],[-37.118,-54.07],[-37.142,-54.079],[-37.138,-54.088],[-37.139,-54.097],[-37.143,-54.105],[-37.149,-54.114],[-37.122,-54.112],[-37.102,-54.099],[-37.083,-54.081],[-37.06,-54.065],[-37.037,-54.058],[-37.005,-54.052],[-36.978,-54.055],[-36.97,-54.072],[-37.013,-54.096],[-37.031,-54.111],[-37.018,-54.12],[-36.996,-54.117],[-36.916,-54.086],[-36.921,-54.082],[-36.931,-54.075],[-36.936,-54.072],[-36.915,-54.068],[-36.891,-54.07],[-36.84,-54.079],[-36.813,-54.088],[-36.806,-54.092],[-36.804,-54.103],[-36.816,-54.116],[-36.813,-54.127],[-36.818,-54.135],[-36.813,-54.141],[-36.803,-54.143],[-36.792,-54.14],[-36.788,-54.133],[-36.784,-54.108],[-36.779,-54.099],[-36.754,-54.094],[-36.655,-54.106],[-36.663,-54.114],[-36.643,-54.114],[-36.632,-54.116],[-36.622,-54.12],[-36.622,-54.127],[-36.63,-54.135],[-36.632,-54.139],[-36.635,-54.148],[-36.652,-54.141],[-36.67,-54.14],[-36.688,-54.144],[-36.703,-54.154],[-36.675,-54.158],[-36.664,-54.162],[-36.669,-54.168],[-36.68,-54.171],[-36.705,-54.171],[-36.717,-54.174],[-36.692,-54.184],[-36.659,-54.182],[-36.6,-54.168],[-36.542,-54.161],[-36.533,-54.167],[-36.524,-54.177],[-36.513,-54.183],[-36.497,-54.174],[-36.493,-54.181],[-36.491,-54.185],[-36.493,-54.189],[-36.497,-54.195],[-36.513,-54.188],[-36.529,-54.188],[-36.559,-54.195],[-36.573,-54.202],[-36.657,-54.239],[-36.664,-54.241],[-36.67,-54.244],[-36.676,-54.249],[-36.674,-54.254],[-36.669,-54.26],[-36.667,-54.268],[-36.676,-54.277],[-36.65,-54.279],[-36.631,-54.278],[-36.613,-54.273],[-36.545,-54.238],[-36.519,-54.232],[-36.504,-54.243],[-36.492,-54.235],[-36.477,-54.239],[-36.469,-54.251],[-36.474,-54.267],[-36.482,-54.27],[-36.492,-54.27],[-36.501,-54.272],[-36.504,-54.281],[-36.501,-54.286],[-36.495,-54.289],[-36.492,-54.294],[-36.497,-54.305],[-36.488,-54.314],[-36.486,-54.325],[-36.49,-54.336],[-36.497,-54.346],[-36.458,-54.318],[-36.437,-54.31],[-36.419,-54.315],[-36.393,-54.343],[-36.375,-54.356],[-36.354,-54.359],[-36.337,-54.351],[-36.338,-54.338],[-36.348,-54.321],[-36.354,-54.301],[-36.357,-54.294],[-36.381,-54.277],[-36.388,-54.269],[-36.392,-54.263],[-36.394,-54.255],[-36.394,-54.243],[-36.329,-54.257],[-36.299,-54.268],[-36.292,-54.284],[-36.28,-54.282],[-36.269,-54.282],[-36.261,-54.285],[-36.257,-54.294],[-36.255,-54.305],[-36.253,-54.313],[-36.255,-54.319],[-36.265,-54.325],[-36.235,-54.339],[-36.235,-54.344],[-36.249,-54.35],[-36.257,-54.37],[-36.244,-54.375],[-36.162,-54.373],[-36.164,-54.386],[-36.165,-54.399],[-36.171,-54.41],[-36.189,-54.415],[-36.184,-54.424],[-36.176,-54.43],[-36.166,-54.434],[-36.155,-54.435],[-36.155,-54.444],[-36.146,-54.45],[-36.133,-54.453],[-36.121,-54.456],[-36.115,-54.455],[-36.1,-54.449],[-36.093,-54.452],[-36.076,-54.462],[-36.052,-54.461],[-36.042,-54.464],[-36.038,-54.473],[-36.035,-54.484],[-36.027,-54.491],[-36.016,-54.495],[-36.034,-54.504],[-36.056,-54.515],[-36.1,-54.545],[-36.088,-54.552],[-36.07,-54.567],[-36.059,-54.572],[-36.043,-54.573],[-35.951,-54.571],[-35.936,-54.566],[-35.91,-54.552],[-35.898,-54.549],[-35.887,-54.551],[-35.891,-54.562],[-35.908,-54.593],[-35.932,-54.618],[-35.936,-54.62],[-35.912,-54.665],[-35.909,-54.687]]],[[[-28.213,-56.714],[-28.193,-56.704],[-28.171,-56.705],[-28.169,-56.716],[-28.187,-56.726],[-28.21,-56.725],[-28.213,-56.714]]],[[[-34.589,-55.063],[-34.581,-55.057],[-34.566,-55.059],[-34.558,-55.07],[-34.567,-55.078],[-34.58,-55.078],[-34.588,-55.072],[-34.589,-55.063]]],[[[-34.665,-55.02],[-34.647,-55.012],[-34.63,-55.015],[-34.624,-55.03],[-34.634,-55.047],[-34.651,-55.055],[-34.669,-55.049],[-34.677,-55.035],[-34.665,-55.02]]],[[[-34.729,-54.978],[-34.705,-54.982],[-34.699,-54.99],[-34.701,-54.997],[-34.713,-55.003],[-34.73,-55.004],[-34.746,-54.997],[-34.75,-54.986],[-34.729,-54.978]]],[[[-41.755,-53.561],[-41.737,-53.56],[-41.723,-53.579],[-41.734,-53.594],[-41.755,-53.59],[-41.763,-53.574],[-41.755,-53.561]]],[[[-42.112,-53.458],[-42.096,-53.457],[-42.079,-53.475],[-42.08,-53.495],[-42.098,-53.496],[-42.113,-53.487],[-42.119,-53.472],[-42.112,-53.458]]]]}}]}
