{"type":"FeatureCollection","features":[{"type":"Feature","id":"GT-AV","properties":{"id":"GT-AV","countryCode":"GT","isoSubdivision":"GT-AV","name":"Alta Verapaz","name_en":"Alta Verapaz","name_ko":"알타베라파스","type":"Department","labelLongitude":-90.107,"labelLatitude":15.646,"minZoom":8},"geometry":{"type":"Polygon","coordinates":[[[-90.448,16.079],[-90.448,16.08],[-90.421,16.082],[-90.217,16.052],[-90.047,15.999],[-90.04,15.999],[-90.038,16],[-90.038,16.001],[-90.037,16.003],[-90.034,16.006],[-90.03,16.009],[-90.019,16.01],[-90.015,16.009],[-90.012,16.006],[-90.011,16.003],[-90.009,15.999],[-90.005,15.999],[-89.999,16],[-89.996,16],[-89.995,16],[-89.991,15.995],[-89.989,15.995],[-89.986,15.995],[-89.983,15.997],[-89.975,15.998],[-89.973,15.999],[-89.973,16],[-89.972,16],[-89.972,16.001],[-89.973,16.003],[-89.975,16.011],[-89.975,16.014],[-89.973,16.014],[-89.971,16.014],[-89.963,16.011],[-89.961,16.009],[-89.96,16.008],[-89.96,16.005],[-89.96,16.003],[-89.961,16.001],[-89.961,16],[-89.96,15.997],[-89.957,15.996],[-89.955,15.994],[-89.955,15.992],[-89.957,15.985],[-89.94,15.973],[-89.929,15.97],[-89.927,15.971],[-89.922,15.976],[-89.905,15.964],[-89.895,15.963],[-89.89,15.964],[-89.887,15.963],[-89.884,15.959],[-89.881,15.953],[-89.868,15.936],[-89.865,15.93],[-89.864,15.925],[-89.859,15.916],[-89.855,15.913],[-89.852,15.911],[-89.849,15.912],[-89.846,15.913],[-89.841,15.912],[-89.826,15.91],[-89.792,15.912],[-89.787,15.913],[-89.785,15.914],[-89.784,15.915],[-89.783,15.917],[-89.778,15.922],[-89.777,15.924],[-89.775,15.926],[-89.772,15.927],[-89.769,15.927],[-89.76,15.926],[-89.758,15.926],[-89.752,15.929],[-89.748,15.932],[-89.745,15.932],[-89.743,15.931],[-89.719,15.92],[-89.716,15.919],[-89.7,15.906],[-89.68,15.892],[-89.674,15.889],[-89.669,15.888],[-89.656,15.887],[-89.65,15.888],[-89.648,15.889],[-89.646,15.891],[-89.634,15.9],[-89.627,15.9],[-89.565,15.892],[-89.561,15.892],[-89.558,15.893],[-89.556,15.894],[-89.553,15.895],[-89.551,15.896],[-89.547,15.898],[-89.541,15.899],[-89.527,15.9],[-89.521,15.899],[-89.516,15.898],[-89.516,15.895],[-89.513,15.843],[-89.512,15.842],[-89.511,15.842],[-89.485,15.854],[-89.463,15.858],[-89.446,15.849],[-89.438,15.849],[-89.426,15.854],[-89.396,15.861],[-89.424,15.826],[-89.434,15.818],[-89.453,15.816],[-89.457,15.814],[-89.459,15.812],[-89.464,15.803],[-89.465,15.801],[-89.478,15.779],[-89.481,15.774],[-89.485,15.772],[-89.495,15.767],[-89.512,15.756],[-89.517,15.753],[-89.528,15.75],[-89.531,15.748],[-89.533,15.745],[-89.535,15.74],[-89.598,15.655],[-89.654,15.578],[-89.661,15.561],[-89.659,15.56],[-89.654,15.558],[-89.652,15.556],[-89.65,15.554],[-89.649,15.552],[-89.645,15.546],[-89.623,15.523],[-89.615,15.511],[-89.606,15.502],[-89.593,15.491],[-89.59,15.485],[-89.588,15.481],[-89.596,15.468],[-89.598,15.466],[-89.599,15.461],[-89.602,15.45],[-89.605,15.445],[-89.606,15.443],[-89.608,15.441],[-89.61,15.44],[-89.612,15.438],[-89.631,15.429],[-89.637,15.425],[-89.638,15.423],[-89.647,15.306],[-89.647,15.291],[-89.646,15.287],[-89.642,15.278],[-89.64,15.273],[-89.633,15.264],[-89.627,15.255],[-89.627,15.251],[-89.627,15.246],[-89.63,15.229],[-89.63,15.224],[-89.63,15.219],[-89.628,15.214],[-89.623,15.205],[-89.606,15.18],[-89.675,15.164],[-89.707,15.166],[-89.77,15.157],[-89.782,15.159],[-89.817,15.172],[-89.84,15.173],[-89.851,15.172],[-89.878,15.16],[-89.907,15.152],[-89.924,15.151],[-89.973,15.157],[-89.929,15.218],[-89.918,15.247],[-89.917,15.257],[-89.919,15.262],[-89.922,15.267],[-89.926,15.272],[-89.938,15.282],[-89.945,15.287],[-89.949,15.288],[-89.952,15.288],[-89.997,15.285],[-90.006,15.283],[-90.039,15.27],[-90.078,15.269],[-90.187,15.284],[-90.235,15.295],[-90.249,15.296],[-90.253,15.293],[-90.255,15.291],[-90.256,15.289],[-90.259,15.284],[-90.26,15.282],[-90.261,15.276],[-90.269,15.245],[-90.275,15.236],[-90.28,15.232],[-90.292,15.217],[-90.296,15.213],[-90.306,15.208],[-90.31,15.207],[-90.313,15.208],[-90.324,15.218],[-90.379,15.254],[-90.401,15.261],[-90.424,15.26],[-90.458,15.261],[-90.481,15.261],[-90.504,15.262],[-90.497,15.271],[-90.488,15.288],[-90.478,15.311],[-90.478,15.331],[-90.494,15.34],[-90.651,15.363],[-90.682,15.375],[-90.703,15.394],[-90.708,15.408],[-90.71,15.427],[-90.706,15.442],[-90.692,15.449],[-90.652,15.453],[-90.64,15.459],[-90.648,15.469],[-90.648,15.476],[-90.62,15.501],[-90.615,15.503],[-90.604,15.514],[-90.597,15.526],[-90.603,15.532],[-90.609,15.541],[-90.615,15.561],[-90.626,15.582],[-90.641,15.592],[-90.632,15.609],[-90.633,15.623],[-90.643,15.636],[-90.662,15.648],[-90.662,15.652],[-90.661,15.654],[-90.658,15.654],[-90.654,15.654],[-90.662,15.659],[-90.672,15.661],[-90.681,15.659],[-90.689,15.654],[-90.701,15.661],[-90.743,15.673],[-90.781,15.679],[-90.788,15.688],[-90.784,15.7],[-90.771,15.709],[-90.777,15.712],[-90.791,15.723],[-90.791,15.73],[-90.787,15.731],[-90.782,15.735],[-90.777,15.737],[-90.784,15.746],[-90.793,15.751],[-90.805,15.752],[-90.818,15.751],[-90.812,15.765],[-90.785,15.798],[-90.771,15.833],[-90.767,15.839],[-90.743,15.849],[-90.733,15.868],[-90.739,15.885],[-90.764,15.888],[-90.754,15.921],[-90.746,15.936],[-90.736,15.942],[-90.736,15.949],[-90.741,15.95],[-90.742,15.951],[-90.742,15.953],[-90.744,15.956],[-90.751,15.949],[-90.759,15.959],[-90.764,15.962],[-90.764,15.97],[-90.75,15.973],[-90.734,15.985],[-90.723,15.99],[-90.721,15.987],[-90.717,15.98],[-90.713,15.976],[-90.706,15.98],[-90.702,15.989],[-90.704,15.994],[-90.704,15.998],[-90.695,16.004],[-90.703,16.018],[-90.66,16.04],[-90.634,16.045],[-90.62,16.031],[-90.613,16.031],[-90.61,16.039],[-90.606,16.043],[-90.6,16.043],[-90.593,16.039],[-90.593,16.031],[-90.597,16.029],[-90.602,16.026],[-90.607,16.025],[-90.607,16.018],[-90.59,16.018],[-90.58,16.013],[-90.571,16.004],[-90.558,15.998],[-90.555,16.001],[-90.549,16.006],[-90.544,16.011],[-90.543,16.005],[-90.542,16.004],[-90.54,16.007],[-90.538,16.011],[-90.531,16.004],[-90.528,16.005],[-90.524,16.011],[-90.517,16.011],[-90.507,16.006],[-90.487,16.018],[-90.476,16.011],[-90.469,16.011],[-90.468,16.016],[-90.464,16.02],[-90.462,16.025],[-90.45,16.021],[-90.44,16.025],[-90.436,16.034],[-90.442,16.045],[-90.434,16.056],[-90.432,16.065],[-90.436,16.073],[-90.448,16.079]]]}},{"type":"Feature","id":"GT-BV","properties":{"id":"GT-BV","countryCode":"GT","isoSubdivision":"GT-BV","name":"Baja Verapaz","name_en":"Baja Verapaz","name_ko":"바하베라파스","type":"Department","labelLongitude":-90.395,"labelLatitude":15.077,"minZoom":8},"geometry":{"type":"Polygon","coordinates":[[[-90.4,14.899],[-90.404,14.911],[-90.412,14.917],[-90.428,14.914],[-90.437,14.908],[-90.439,14.902],[-90.443,14.897],[-90.456,14.894],[-90.468,14.893],[-90.477,14.894],[-90.485,14.899],[-90.49,14.908],[-90.497,14.908],[-90.513,14.899],[-90.539,14.89],[-90.564,14.885],[-90.579,14.887],[-90.585,14.887],[-90.59,14.885],[-90.594,14.884],[-90.599,14.886],[-90.607,14.894],[-90.622,14.891],[-90.658,14.904],[-90.669,14.93],[-90.673,14.939],[-90.681,14.946],[-90.687,14.95],[-90.694,14.956],[-90.712,14.974],[-90.708,14.996],[-90.707,15],[-90.797,15.055],[-90.872,15.148],[-90.866,15.257],[-90.857,15.253],[-90.692,15.215],[-90.574,15.21],[-90.541,15.213],[-90.504,15.262],[-90.481,15.261],[-90.458,15.261],[-90.424,15.26],[-90.401,15.261],[-90.379,15.254],[-90.324,15.218],[-90.313,15.208],[-90.31,15.207],[-90.306,15.208],[-90.296,15.213],[-90.292,15.217],[-90.28,15.232],[-90.275,15.236],[-90.269,15.245],[-90.261,15.276],[-90.26,15.282],[-90.259,15.284],[-90.256,15.289],[-90.255,15.291],[-90.253,15.293],[-90.249,15.296],[-90.235,15.295],[-90.187,15.284],[-90.078,15.269],[-90.039,15.27],[-90.006,15.283],[-89.997,15.285],[-89.952,15.288],[-89.949,15.288],[-89.945,15.287],[-89.938,15.282],[-89.926,15.272],[-89.922,15.267],[-89.919,15.262],[-89.917,15.257],[-89.918,15.247],[-89.929,15.218],[-89.973,15.157],[-90,15.142],[-90.038,15.117],[-90.124,15.061],[-90.283,14.954],[-90.298,14.906],[-90.303,14.89],[-90.354,14.882],[-90.387,14.887],[-90.4,14.899]]]}},{"type":"Feature","id":"GT-CM","properties":{"id":"GT-CM","countryCode":"GT","isoSubdivision":"GT-CM","name":"Chimaltenango","name_en":"Chimaltenango","name_ko":"치말테낭고","type":"Department","labelLongitude":-90.886,"labelLatitude":14.731,"minZoom":8},"geometry":{"type":"Polygon","coordinates":[[[-90.765,14.778],[-90.781,14.75],[-90.784,14.738],[-90.778,14.709],[-90.775,14.699],[-90.772,14.682],[-90.772,14.675],[-90.772,14.671],[-90.775,14.666],[-90.781,14.659],[-90.794,14.631],[-90.819,14.613],[-90.864,14.564],[-90.886,14.524],[-90.891,14.496],[-90.891,14.49],[-90.891,14.489],[-90.917,14.469],[-90.938,14.449],[-90.945,14.441],[-90.946,14.438],[-90.952,14.424],[-90.971,14.386],[-90.978,14.383],[-90.981,14.386],[-90.983,14.388],[-90.983,14.392],[-90.984,14.4],[-90.986,14.416],[-90.988,14.42],[-90.991,14.422],[-90.993,14.421],[-90.997,14.418],[-91.002,14.412],[-91.005,14.411],[-91.009,14.409],[-91.016,14.409],[-91.021,14.411],[-91.027,14.415],[-91.037,14.424],[-91.042,14.427],[-91.047,14.428],[-91.05,14.428],[-91.053,14.427],[-91.055,14.426],[-91.069,14.419],[-91.072,14.417],[-91.077,14.416],[-91.086,14.415],[-91.09,14.416],[-91.095,14.418],[-91.097,14.42],[-91.111,14.43],[-91.097,14.468],[-91.097,14.481],[-91.095,14.503],[-91.097,14.513],[-91.101,14.518],[-91.107,14.524],[-91.114,14.53],[-91.106,14.61],[-91.106,14.632],[-91.103,14.642],[-91.095,14.653],[-91.074,14.7],[-91.076,14.722],[-91.075,14.725],[-91.069,14.745],[-91.085,14.82],[-91.087,14.826],[-91.061,14.839],[-91.053,14.845],[-91.031,14.907],[-91.025,14.917],[-91.023,14.918],[-91.021,14.92],[-91.011,14.924],[-90.994,14.929],[-90.977,14.939],[-90.959,14.935],[-90.894,14.937],[-90.882,14.939],[-90.868,14.942],[-90.853,14.942],[-90.805,14.928],[-90.754,14.928],[-90.737,14.926],[-90.707,14.916],[-90.671,14.909],[-90.658,14.904],[-90.66,14.888],[-90.661,14.886],[-90.662,14.883],[-90.663,14.881],[-90.665,14.878],[-90.668,14.875],[-90.673,14.872],[-90.684,14.868],[-90.689,14.866],[-90.704,14.854],[-90.709,14.852],[-90.713,14.852],[-90.715,14.853],[-90.718,14.853],[-90.721,14.852],[-90.723,14.851],[-90.728,14.848],[-90.732,14.845],[-90.738,14.835],[-90.747,14.805],[-90.765,14.778]]]}},{"type":"Feature","id":"GT-CQ","properties":{"id":"GT-CQ","countryCode":"GT","isoSubdivision":"GT-CQ","name":"Chiquimula","name_en":"Chiquimula","name_ko":"치키물라","type":"Department","labelLongitude":-89.44,"labelLatitude":14.667,"minZoom":8},"geometry":{"type":"Polygon","coordinates":[[[-89.362,14.415],[-89.362,14.416],[-89.391,14.436],[-89.392,14.434],[-89.397,14.426],[-89.398,14.445],[-89.408,14.442],[-89.431,14.419],[-89.447,14.416],[-89.458,14.42],[-89.469,14.425],[-89.485,14.427],[-89.496,14.423],[-89.497,14.423],[-89.51,14.438],[-89.511,14.44],[-89.512,14.442],[-89.512,14.445],[-89.511,14.451],[-89.509,14.462],[-89.505,14.472],[-89.502,14.478],[-89.498,14.492],[-89.497,14.497],[-89.496,14.502],[-89.499,14.509],[-89.513,14.524],[-89.519,14.526],[-89.595,14.523],[-89.598,14.524],[-89.602,14.526],[-89.613,14.543],[-89.618,14.552],[-89.624,14.56],[-89.631,14.567],[-89.633,14.569],[-89.645,14.573],[-89.686,14.578],[-89.696,14.577],[-89.7,14.578],[-89.696,14.599],[-89.66,14.696],[-89.664,14.707],[-89.668,14.716],[-89.669,14.721],[-89.669,14.727],[-89.668,14.73],[-89.667,14.733],[-89.665,14.745],[-89.665,14.748],[-89.667,14.76],[-89.671,14.771],[-89.676,14.779],[-89.689,14.782],[-89.736,14.78],[-89.713,14.821],[-89.709,14.838],[-89.712,14.862],[-89.71,14.867],[-89.688,14.888],[-89.67,14.901],[-89.659,14.9],[-89.625,14.883],[-89.593,14.867],[-89.578,14.864],[-89.524,14.863],[-89.509,14.867],[-89.449,14.914],[-89.429,14.919],[-89.421,14.919],[-89.399,14.913],[-89.385,14.903],[-89.369,14.903],[-89.32,14.92],[-89.304,14.915],[-89.3,14.91],[-89.294,14.905],[-89.286,14.906],[-89.274,14.91],[-89.268,14.914],[-89.264,14.92],[-89.258,14.927],[-89.254,14.931],[-89.248,14.935],[-89.225,14.946],[-89.218,14.949],[-89.213,14.949],[-89.21,14.948],[-89.208,14.947],[-89.206,14.945],[-89.205,14.944],[-89.203,14.941],[-89.199,14.935],[-89.196,14.928],[-89.195,14.925],[-89.194,14.923],[-89.193,14.921],[-89.19,14.914],[-89.189,14.913],[-89.199,14.9],[-89.224,14.879],[-89.231,14.867],[-89.232,14.849],[-89.228,14.835],[-89.219,14.822],[-89.199,14.798],[-89.189,14.783],[-89.171,14.739],[-89.16,14.725],[-89.151,14.717],[-89.146,14.711],[-89.145,14.708],[-89.143,14.691],[-89.145,14.683],[-89.156,14.672],[-89.159,14.666],[-89.155,14.616],[-89.156,14.598],[-89.16,14.581],[-89.172,14.57],[-89.184,14.57],[-89.209,14.578],[-89.221,14.58],[-89.238,14.578],[-89.246,14.573],[-89.251,14.565],[-89.26,14.554],[-89.291,14.528],[-89.305,14.513],[-89.315,14.496],[-89.323,14.487],[-89.345,14.482],[-89.355,14.475],[-89.362,14.462],[-89.364,14.447],[-89.362,14.415]]]}},{"type":"Feature","id":"GT-ES","properties":{"id":"GT-ES","countryCode":"GT","isoSubdivision":"GT-ES","name":"Escuintla","name_en":"Escuintla","name_ko":"에스쿠인틀라","type":"Department","labelLongitude":-91.024,"labelLatitude":14.167,"minZoom":8},"geometry":{"type":"Polygon","coordinates":[[[-90.627,13.921],[-90.638,13.922],[-90.707,13.929],[-90.785,13.922],[-90.796,13.918],[-90.91,13.911],[-91.044,13.914],[-91.166,13.927],[-91.316,13.956],[-91.552,14.057],[-91.529,14.048],[-91.53,14.057],[-91.533,14.072],[-91.532,14.077],[-91.53,14.082],[-91.481,14.152],[-91.473,14.169],[-91.468,14.177],[-91.463,14.182],[-91.457,14.19],[-91.456,14.206],[-91.458,14.246],[-91.462,14.27],[-91.462,14.278],[-91.462,14.29],[-91.46,14.297],[-91.458,14.3],[-91.448,14.307],[-91.44,14.301],[-91.437,14.296],[-91.434,14.289],[-91.433,14.287],[-91.43,14.286],[-91.426,14.287],[-91.419,14.291],[-91.415,14.294],[-91.413,14.297],[-91.414,14.299],[-91.415,14.302],[-91.419,14.31],[-91.421,14.315],[-91.423,14.324],[-91.424,14.33],[-91.423,14.337],[-91.421,14.345],[-91.419,14.35],[-91.418,14.352],[-91.414,14.355],[-91.386,14.376],[-91.381,14.378],[-91.373,14.381],[-91.369,14.379],[-91.365,14.376],[-91.358,14.366],[-91.356,14.361],[-91.356,14.357],[-91.364,14.347],[-91.365,14.345],[-91.365,14.342],[-91.365,14.339],[-91.364,14.337],[-91.363,14.334],[-91.358,14.328],[-91.357,14.325],[-91.357,14.321],[-91.359,14.313],[-91.359,14.31],[-91.359,14.307],[-91.358,14.304],[-91.356,14.301],[-91.352,14.297],[-91.347,14.294],[-91.343,14.293],[-91.336,14.292],[-91.326,14.292],[-91.318,14.297],[-91.3,14.316],[-91.289,14.306],[-91.294,14.282],[-91.288,14.28],[-91.171,14.272],[-91.165,14.276],[-91.156,14.293],[-91.151,14.299],[-91.15,14.303],[-91.149,14.309],[-91.146,14.357],[-91.14,14.374],[-91.111,14.43],[-91.097,14.42],[-91.095,14.418],[-91.09,14.416],[-91.086,14.415],[-91.077,14.416],[-91.072,14.417],[-91.069,14.419],[-91.055,14.426],[-91.053,14.427],[-91.05,14.428],[-91.047,14.428],[-91.042,14.427],[-91.037,14.424],[-91.027,14.415],[-91.021,14.411],[-91.016,14.409],[-91.009,14.409],[-91.005,14.411],[-91.002,14.412],[-90.997,14.418],[-90.993,14.421],[-90.991,14.422],[-90.988,14.42],[-90.986,14.416],[-90.984,14.4],[-90.983,14.392],[-90.983,14.388],[-90.981,14.386],[-90.978,14.383],[-90.971,14.386],[-90.952,14.424],[-90.946,14.438],[-90.945,14.441],[-90.938,14.449],[-90.917,14.469],[-90.891,14.489],[-90.861,14.464],[-90.853,14.456],[-90.852,14.454],[-90.851,14.451],[-90.844,14.435],[-90.831,14.415],[-90.825,14.408],[-90.82,14.405],[-90.794,14.427],[-90.787,14.434],[-90.785,14.436],[-90.781,14.445],[-90.776,14.451],[-90.774,14.453],[-90.772,14.455],[-90.763,14.459],[-90.749,14.459],[-90.743,14.463],[-90.738,14.47],[-90.731,14.472],[-90.727,14.469],[-90.726,14.467],[-90.715,14.444],[-90.651,14.469],[-90.638,14.432],[-90.623,14.419],[-90.615,14.416],[-90.602,14.417],[-90.599,14.416],[-90.596,14.415],[-90.592,14.402],[-90.586,14.35],[-90.586,14.317],[-90.583,14.305],[-90.571,14.278],[-90.565,14.256],[-90.58,14.242],[-90.586,14.231],[-90.589,14.22],[-90.589,14.216],[-90.587,14.212],[-90.585,14.211],[-90.581,14.21],[-90.567,14.208],[-90.561,14.207],[-90.554,14.207],[-90.551,14.208],[-90.536,14.213],[-90.532,14.214],[-90.527,14.213],[-90.519,14.209],[-90.516,14.205],[-90.516,14.203],[-90.528,14.187],[-90.544,14.172],[-90.551,14.168],[-90.553,14.167],[-90.572,14.164],[-90.579,14.161],[-90.578,14.147],[-90.575,14.141],[-90.573,14.139],[-90.558,14.126],[-90.557,14.121],[-90.556,14.118],[-90.557,14.116],[-90.56,14.112],[-90.564,14.109],[-90.577,14.101],[-90.582,14.096],[-90.59,14.082],[-90.593,14.073],[-90.595,14.071],[-90.598,14.07],[-90.61,14.068],[-90.621,14.065],[-90.625,14.061],[-90.627,14.056],[-90.627,13.932],[-90.627,13.921]]]}},{"type":"Feature","id":"GT-GU","properties":{"id":"GT-GU","countryCode":"GT","isoSubdivision":"GT-GU","name":"Guatemala","name_en":"Guatemala","name_ko":"과테말라","type":"Department","labelLongitude":-90.487,"labelLatitude":14.601,"minZoom":8},"geometry":{"type":"Polygon","coordinates":[[[-90.71,14.747],[-90.719,14.748],[-90.729,14.75],[-90.742,14.757],[-90.765,14.778],[-90.747,14.805],[-90.738,14.835],[-90.732,14.845],[-90.728,14.848],[-90.723,14.851],[-90.721,14.852],[-90.718,14.853],[-90.715,14.853],[-90.713,14.852],[-90.709,14.852],[-90.704,14.854],[-90.689,14.866],[-90.684,14.868],[-90.673,14.872],[-90.668,14.875],[-90.665,14.878],[-90.663,14.881],[-90.662,14.883],[-90.661,14.886],[-90.66,14.888],[-90.658,14.904],[-90.622,14.891],[-90.607,14.894],[-90.599,14.886],[-90.594,14.884],[-90.59,14.885],[-90.585,14.887],[-90.579,14.887],[-90.564,14.885],[-90.539,14.89],[-90.513,14.899],[-90.497,14.908],[-90.49,14.908],[-90.485,14.899],[-90.477,14.894],[-90.468,14.893],[-90.456,14.894],[-90.443,14.897],[-90.439,14.902],[-90.437,14.908],[-90.428,14.914],[-90.412,14.917],[-90.404,14.911],[-90.4,14.899],[-90.412,14.878],[-90.415,14.875],[-90.418,14.871],[-90.418,14.867],[-90.417,14.861],[-90.415,14.858],[-90.413,14.856],[-90.411,14.854],[-90.409,14.853],[-90.407,14.852],[-90.401,14.851],[-90.394,14.852],[-90.38,14.856],[-90.357,14.857],[-90.35,14.855],[-90.349,14.853],[-90.344,14.844],[-90.335,14.818],[-90.331,14.794],[-90.333,14.786],[-90.334,14.784],[-90.335,14.783],[-90.339,14.777],[-90.343,14.77],[-90.345,14.766],[-90.344,14.762],[-90.343,14.759],[-90.339,14.751],[-90.318,14.729],[-90.308,14.722],[-90.25,14.702],[-90.237,14.695],[-90.231,14.69],[-90.22,14.678],[-90.209,14.674],[-90.218,14.652],[-90.223,14.645],[-90.225,14.643],[-90.233,14.638],[-90.266,14.612],[-90.272,14.588],[-90.272,14.572],[-90.275,14.564],[-90.277,14.559],[-90.281,14.556],[-90.283,14.55],[-90.284,14.545],[-90.285,14.514],[-90.297,14.509],[-90.306,14.509],[-90.314,14.506],[-90.32,14.5],[-90.339,14.483],[-90.345,14.479],[-90.35,14.478],[-90.352,14.48],[-90.353,14.482],[-90.354,14.485],[-90.355,14.497],[-90.357,14.5],[-90.36,14.502],[-90.367,14.504],[-90.371,14.504],[-90.388,14.497],[-90.429,14.433],[-90.448,14.388],[-90.442,14.341],[-90.444,14.329],[-90.449,14.323],[-90.451,14.321],[-90.453,14.32],[-90.455,14.319],[-90.458,14.318],[-90.461,14.316],[-90.464,14.313],[-90.472,14.304],[-90.474,14.302],[-90.477,14.302],[-90.482,14.3],[-90.49,14.297],[-90.51,14.288],[-90.529,14.271],[-90.536,14.266],[-90.565,14.256],[-90.571,14.278],[-90.583,14.305],[-90.586,14.317],[-90.586,14.35],[-90.592,14.402],[-90.596,14.415],[-90.599,14.416],[-90.602,14.417],[-90.615,14.416],[-90.623,14.419],[-90.638,14.432],[-90.651,14.469],[-90.642,14.506],[-90.635,14.587],[-90.629,14.599],[-90.621,14.608],[-90.623,14.62],[-90.618,14.638],[-90.618,14.645],[-90.619,14.648],[-90.629,14.658],[-90.642,14.673],[-90.651,14.702],[-90.682,14.74],[-90.692,14.749],[-90.695,14.749],[-90.698,14.749],[-90.71,14.747]]]}},{"type":"Feature","id":"GT-HU","properties":{"id":"GT-HU","countryCode":"GT","isoSubdivision":"GT-HU","name":"Huehuetenango","name_en":"Huehuetenango","name_ko":"우에우에테낭고","type":"Department","labelLongitude":-91.55,"labelLatitude":15.637,"minZoom":8},"geometry":{"type":"Polygon","coordinates":[[[-92.106,15.454],[-92.069,15.517],[-91.99,15.649],[-91.911,15.781],[-91.842,15.896],[-91.793,15.978],[-91.774,16.008],[-91.752,16.046],[-91.74,16.061],[-91.724,16.069],[-91.678,16.069],[-91.54,16.069],[-91.403,16.069],[-91.265,16.07],[-91.127,16.07],[-90.995,16.07],[-91.117,15.834],[-91.127,15.816],[-91.192,15.688],[-91.195,15.685],[-91.213,15.667],[-91.212,15.66],[-91.211,15.659],[-91.21,15.656],[-91.212,15.655],[-91.216,15.653],[-91.224,15.653],[-91.228,15.652],[-91.232,15.646],[-91.259,15.628],[-91.263,15.627],[-91.269,15.627],[-91.272,15.627],[-91.275,15.626],[-91.277,15.625],[-91.289,15.614],[-91.294,15.613],[-91.297,15.613],[-91.301,15.613],[-91.303,15.611],[-91.306,15.607],[-91.307,15.595],[-91.31,15.585],[-91.316,15.574],[-91.319,15.569],[-91.321,15.564],[-91.322,15.56],[-91.324,15.537],[-91.329,15.528],[-91.331,15.523],[-91.332,15.52],[-91.332,15.517],[-91.332,15.514],[-91.331,15.508],[-91.331,15.505],[-91.33,15.503],[-91.328,15.498],[-91.326,15.496],[-91.325,15.494],[-91.322,15.489],[-91.302,15.466],[-91.301,15.463],[-91.3,15.46],[-91.3,15.447],[-91.299,15.441],[-91.294,15.432],[-91.289,15.423],[-91.282,15.416],[-91.264,15.399],[-91.26,15.398],[-91.254,15.398],[-91.225,15.402],[-91.212,15.399],[-91.184,15.387],[-91.182,15.369],[-91.191,15.333],[-91.19,15.327],[-91.184,15.312],[-91.179,15.292],[-91.195,15.289],[-91.203,15.288],[-91.228,15.292],[-91.237,15.292],[-91.259,15.285],[-91.303,15.277],[-91.311,15.272],[-91.315,15.263],[-91.341,15.265],[-91.353,15.263],[-91.377,15.252],[-91.392,15.241],[-91.436,15.232],[-91.446,15.229],[-91.451,15.226],[-91.454,15.223],[-91.468,15.204],[-91.474,15.193],[-91.474,15.19],[-91.476,15.165],[-91.477,15.162],[-91.481,15.159],[-91.485,15.158],[-91.519,15.156],[-91.538,15.179],[-91.542,15.188],[-91.541,15.198],[-91.549,15.204],[-91.616,15.221],[-91.621,15.234],[-91.631,15.244],[-91.641,15.25],[-91.661,15.266],[-91.679,15.286],[-91.696,15.308],[-91.71,15.333],[-91.715,15.346],[-91.716,15.35],[-91.731,15.35],[-91.786,15.335],[-91.807,15.337],[-91.841,15.357],[-91.85,15.361],[-91.856,15.361],[-91.863,15.358],[-91.88,15.348],[-91.91,15.33],[-91.943,15.327],[-91.957,15.319],[-91.99,15.281],[-91.993,15.278],[-92.044,15.28],[-92.055,15.288],[-92.065,15.392],[-92.068,15.407],[-92.082,15.413],[-92.1,15.434],[-92.106,15.454]]]}},{"type":"Feature","id":"GT-IZ","properties":{"id":"GT-IZ","countryCode":"GT","isoSubdivision":"GT-IZ","name":"Izabal","name_en":"Izabal","name_ko":"이사발","type":"Department","labelLongitude":-88.941,"labelLatitude":15.525,"minZoom":8},"geometry":{"type":"Polygon","coordinates":[[[-88.221,15.726],[-88.233,15.721],[-88.236,15.712],[-88.235,15.702],[-88.242,15.688],[-88.248,15.696],[-88.265,15.689],[-88.28,15.681],[-88.296,15.675],[-88.317,15.675],[-88.322,15.667],[-88.353,15.617],[-88.399,15.573],[-88.467,15.521],[-88.5,15.496],[-88.587,15.43],[-88.674,15.365],[-88.761,15.3],[-88.847,15.235],[-88.973,15.14],[-89.008,15.124],[-89.11,15.091],[-89.141,15.076],[-89.147,15.071],[-89.147,15.072],[-89.15,15.074],[-89.157,15.077],[-89.162,15.08],[-89.181,15.103],[-89.183,15.108],[-89.189,15.136],[-89.191,15.152],[-89.19,15.162],[-89.19,15.168],[-89.198,15.2],[-89.198,15.206],[-89.197,15.21],[-89.185,15.215],[-89.181,15.218],[-89.179,15.22],[-89.177,15.222],[-89.175,15.226],[-89.174,15.228],[-89.173,15.235],[-89.17,15.26],[-89.171,15.266],[-89.172,15.269],[-89.173,15.272],[-89.176,15.276],[-89.181,15.281],[-89.184,15.283],[-89.187,15.285],[-89.21,15.298],[-89.22,15.3],[-89.251,15.303],[-89.274,15.298],[-89.288,15.291],[-89.314,15.272],[-89.431,15.226],[-89.55,15.188],[-89.565,15.185],[-89.606,15.18],[-89.623,15.205],[-89.628,15.214],[-89.63,15.219],[-89.63,15.224],[-89.63,15.229],[-89.627,15.246],[-89.627,15.251],[-89.627,15.255],[-89.633,15.264],[-89.64,15.273],[-89.642,15.278],[-89.646,15.287],[-89.647,15.291],[-89.647,15.306],[-89.638,15.423],[-89.637,15.425],[-89.631,15.429],[-89.612,15.438],[-89.61,15.44],[-89.608,15.441],[-89.606,15.443],[-89.605,15.445],[-89.602,15.45],[-89.599,15.461],[-89.598,15.466],[-89.596,15.468],[-89.588,15.481],[-89.59,15.485],[-89.593,15.491],[-89.606,15.502],[-89.615,15.511],[-89.623,15.523],[-89.645,15.546],[-89.649,15.552],[-89.65,15.554],[-89.652,15.556],[-89.654,15.558],[-89.659,15.56],[-89.661,15.561],[-89.654,15.578],[-89.598,15.655],[-89.535,15.74],[-89.533,15.745],[-89.531,15.748],[-89.528,15.75],[-89.517,15.753],[-89.512,15.756],[-89.495,15.767],[-89.485,15.772],[-89.481,15.774],[-89.478,15.779],[-89.465,15.801],[-89.464,15.803],[-89.459,15.812],[-89.457,15.814],[-89.453,15.816],[-89.434,15.818],[-89.424,15.826],[-89.396,15.861],[-89.385,15.868],[-89.381,15.872],[-89.379,15.875],[-89.378,15.878],[-89.376,15.885],[-89.37,15.902],[-89.358,15.913],[-89.266,15.915],[-89.243,15.912],[-89.237,15.908],[-89.237,15.907],[-89.236,15.906],[-89.237,15.894],[-89.228,15.881],[-89.226,15.884],[-89.217,15.889],[-89.205,15.892],[-89.196,15.893],[-89.177,15.9],[-89.101,15.897],[-89.072,15.902],[-89.04,15.902],[-88.952,15.88],[-88.914,15.894],[-88.9,15.888],[-88.866,15.86],[-88.832,15.869],[-88.787,15.859],[-88.753,15.84],[-88.75,15.819],[-88.727,15.815],[-88.626,15.754],[-88.638,15.709],[-88.636,15.702],[-88.609,15.702],[-88.598,15.706],[-88.595,15.715],[-88.596,15.722],[-88.599,15.723],[-88.599,15.727],[-88.602,15.731],[-88.606,15.736],[-88.605,15.743],[-88.6,15.745],[-88.591,15.744],[-88.582,15.745],[-88.578,15.754],[-88.574,15.77],[-88.565,15.781],[-88.556,15.789],[-88.55,15.798],[-88.549,15.814],[-88.557,15.837],[-88.558,15.853],[-88.55,15.853],[-88.551,15.842],[-88.55,15.839],[-88.544,15.839],[-88.532,15.847],[-88.503,15.841],[-88.489,15.847],[-88.512,15.868],[-88.525,15.877],[-88.543,15.885],[-88.551,15.895],[-88.558,15.907],[-88.565,15.915],[-88.608,15.938],[-88.62,15.953],[-88.605,15.97],[-88.59,15.961],[-88.562,15.949],[-88.55,15.942],[-88.521,15.913],[-88.5,15.901],[-88.448,15.859],[-88.345,15.812],[-88.311,15.782],[-88.3,15.778],[-88.256,15.74],[-88.222,15.726],[-88.221,15.726]]]}},{"type":"Feature","id":"GT-JA","properties":{"id":"GT-JA","countryCode":"GT","isoSubdivision":"GT-JA","name":"Jalapa","name_en":"Jalapa","name_ko":"할라파","type":"Department","labelLongitude":-89.973,"labelLatitude":14.626,"minZoom":8},"geometry":{"type":"Polygon","coordinates":[[[-90.285,14.514],[-90.284,14.545],[-90.283,14.55],[-90.281,14.556],[-90.277,14.559],[-90.275,14.564],[-90.272,14.572],[-90.272,14.588],[-90.266,14.612],[-90.233,14.638],[-90.225,14.643],[-90.223,14.645],[-90.218,14.652],[-90.209,14.674],[-90.207,14.675],[-90.2,14.678],[-90.184,14.687],[-90.18,14.698],[-90.179,14.704],[-90.178,14.707],[-90.174,14.709],[-90.147,14.719],[-90.114,14.73],[-90.098,14.728],[-90.086,14.723],[-90.078,14.72],[-90.073,14.722],[-90.07,14.726],[-90.039,14.783],[-90.015,14.789],[-89.982,14.793],[-89.952,14.804],[-89.922,14.819],[-89.888,14.862],[-89.874,14.874],[-89.868,14.876],[-89.863,14.877],[-89.85,14.878],[-89.834,14.877],[-89.842,14.86],[-89.839,14.856],[-89.833,14.846],[-89.824,14.833],[-89.808,14.804],[-89.799,14.792],[-89.794,14.786],[-89.79,14.785],[-89.764,14.785],[-89.748,14.783],[-89.736,14.78],[-89.689,14.782],[-89.676,14.779],[-89.671,14.771],[-89.667,14.76],[-89.665,14.748],[-89.665,14.745],[-89.667,14.733],[-89.668,14.73],[-89.669,14.727],[-89.669,14.721],[-89.668,14.716],[-89.664,14.707],[-89.66,14.696],[-89.696,14.599],[-89.7,14.578],[-89.696,14.577],[-89.686,14.578],[-89.678,14.555],[-89.678,14.545],[-89.678,14.542],[-89.7,14.53],[-89.762,14.5],[-89.764,14.501],[-89.775,14.51],[-89.782,14.516],[-89.785,14.52],[-89.789,14.523],[-89.796,14.525],[-89.816,14.519],[-89.832,14.509],[-89.851,14.496],[-89.872,14.483],[-89.88,14.471],[-89.885,14.436],[-89.93,14.471],[-89.933,14.472],[-89.936,14.473],[-89.939,14.473],[-89.943,14.474],[-89.947,14.473],[-89.954,14.472],[-89.958,14.471],[-89.961,14.469],[-89.965,14.465],[-89.989,14.434],[-90.052,14.433],[-90.078,14.453],[-90.114,14.482],[-90.123,14.495],[-90.128,14.519],[-90.238,14.499],[-90.251,14.497],[-90.265,14.495],[-90.267,14.496],[-90.271,14.499],[-90.273,14.501],[-90.285,14.514]]]}},{"type":"Feature","id":"GT-JU","properties":{"id":"GT-JU","countryCode":"GT","isoSubdivision":"GT-JU","name":"Jutiapa","name_en":"Jutiapa","name_ko":"후티아파","type":"Department","labelLongitude":-89.895,"labelLatitude":14.238,"minZoom":8},"geometry":{"type":"Polygon","coordinates":[[[-89.748,14.045],[-89.747,14.043],[-89.748,14.038],[-89.762,14.03],[-89.777,14.036],[-89.803,14.055],[-89.821,14.06],[-89.836,14.059],[-89.88,14.043],[-89.891,14.036],[-89.912,14.015],[-90.008,13.95],[-90.023,13.937],[-90.031,13.923],[-90.038,13.908],[-90.047,13.894],[-90.06,13.885],[-90.087,13.87],[-90.099,13.859],[-90.107,13.844],[-90.112,13.828],[-90.115,13.812],[-90.114,13.796],[-90.098,13.731],[-90.241,13.789],[-90.237,13.802],[-90.231,13.827],[-90.23,13.845],[-90.231,13.85],[-90.233,13.855],[-90.245,13.878],[-90.255,13.913],[-90.259,13.921],[-90.261,13.925],[-90.266,13.928],[-90.269,13.929],[-90.27,13.931],[-90.271,13.933],[-90.279,13.975],[-90.28,13.979],[-90.285,13.984],[-90.289,13.988],[-90.292,13.995],[-90.293,13.999],[-90.293,14.004],[-90.292,14.01],[-90.29,14.013],[-90.284,14.018],[-90.266,14.023],[-90.238,14.007],[-90.219,13.991],[-90.213,13.989],[-90.174,13.98],[-90.164,13.976],[-90.16,13.976],[-90.157,13.977],[-90.141,13.987],[-90.125,14.016],[-90.119,14.027],[-90.116,14.03],[-90.11,14.033],[-90.099,14.036],[-90.085,14.038],[-90.083,14.039],[-90.077,14.045],[-90.06,14.07],[-90.054,14.081],[-90.052,14.089],[-90.05,14.095],[-90.05,14.098],[-90.055,14.138],[-90.053,14.16],[-90.058,14.17],[-90.083,14.193],[-90.114,14.218],[-90.121,14.225],[-90.125,14.228],[-90.13,14.23],[-90.177,14.243],[-90.191,14.253],[-90.155,14.339],[-90.142,14.35],[-90.14,14.352],[-90.105,14.358],[-90.094,14.358],[-90.089,14.356],[-90.084,14.354],[-90.082,14.355],[-90.081,14.358],[-90.084,14.377],[-90.07,14.378],[-90.052,14.433],[-89.989,14.434],[-89.965,14.465],[-89.961,14.469],[-89.958,14.471],[-89.954,14.472],[-89.947,14.473],[-89.943,14.474],[-89.939,14.473],[-89.936,14.473],[-89.933,14.472],[-89.93,14.471],[-89.885,14.436],[-89.88,14.471],[-89.872,14.483],[-89.851,14.496],[-89.832,14.509],[-89.816,14.519],[-89.796,14.525],[-89.789,14.523],[-89.785,14.52],[-89.782,14.516],[-89.775,14.51],[-89.764,14.501],[-89.762,14.5],[-89.7,14.53],[-89.678,14.542],[-89.678,14.545],[-89.678,14.555],[-89.686,14.578],[-89.645,14.573],[-89.633,14.569],[-89.631,14.567],[-89.624,14.56],[-89.618,14.552],[-89.613,14.543],[-89.602,14.526],[-89.598,14.524],[-89.595,14.523],[-89.519,14.526],[-89.513,14.524],[-89.499,14.509],[-89.496,14.502],[-89.497,14.497],[-89.498,14.492],[-89.502,14.478],[-89.505,14.472],[-89.509,14.462],[-89.511,14.451],[-89.512,14.445],[-89.512,14.442],[-89.511,14.44],[-89.51,14.438],[-89.497,14.423],[-89.496,14.423],[-89.503,14.42],[-89.528,14.391],[-89.541,14.382],[-89.544,14.4],[-89.555,14.411],[-89.57,14.412],[-89.584,14.402],[-89.591,14.386],[-89.586,14.375],[-89.579,14.365],[-89.576,14.353],[-89.582,14.343],[-89.592,14.336],[-89.598,14.328],[-89.592,14.314],[-89.571,14.311],[-89.564,14.308],[-89.559,14.303],[-89.556,14.299],[-89.55,14.288],[-89.549,14.284],[-89.547,14.268],[-89.545,14.262],[-89.541,14.258],[-89.528,14.251],[-89.525,14.247],[-89.525,14.232],[-89.531,14.226],[-89.638,14.201],[-89.665,14.189],[-89.69,14.17],[-89.71,14.149],[-89.753,14.075],[-89.755,14.067],[-89.754,14.059],[-89.748,14.045]]]}},{"type":"Feature","id":"GT-PE","properties":{"id":"GT-PE","countryCode":"GT","isoSubdivision":"GT-PE","name":"Petén","name_en":"Petén","name_ko":"페텐","type":"Department","labelLongitude":-90.032,"labelLatitude":16.888,"minZoom":8},"geometry":{"type":"Polygon","coordinates":[[[-89.151,17.321],[-89.149,17.036],[-89.166,16.777],[-89.184,16.496],[-89.193,16.393],[-89.209,16.186],[-89.234,15.955],[-89.236,15.906],[-89.237,15.907],[-89.237,15.908],[-89.243,15.912],[-89.266,15.915],[-89.358,15.913],[-89.37,15.902],[-89.376,15.885],[-89.378,15.878],[-89.379,15.875],[-89.381,15.872],[-89.385,15.868],[-89.396,15.861],[-89.426,15.854],[-89.438,15.849],[-89.446,15.849],[-89.463,15.858],[-89.485,15.854],[-89.511,15.842],[-89.512,15.842],[-89.513,15.843],[-89.516,15.895],[-89.516,15.898],[-89.521,15.899],[-89.527,15.9],[-89.541,15.899],[-89.547,15.898],[-89.551,15.896],[-89.553,15.895],[-89.556,15.894],[-89.558,15.893],[-89.561,15.892],[-89.565,15.892],[-89.627,15.9],[-89.634,15.9],[-89.646,15.891],[-89.648,15.889],[-89.65,15.888],[-89.656,15.887],[-89.669,15.888],[-89.674,15.889],[-89.68,15.892],[-89.7,15.906],[-89.716,15.919],[-89.719,15.92],[-89.743,15.931],[-89.745,15.932],[-89.748,15.932],[-89.752,15.929],[-89.758,15.926],[-89.76,15.926],[-89.769,15.927],[-89.772,15.927],[-89.775,15.926],[-89.777,15.924],[-89.778,15.922],[-89.783,15.917],[-89.784,15.915],[-89.785,15.914],[-89.787,15.913],[-89.792,15.912],[-89.826,15.91],[-89.841,15.912],[-89.846,15.913],[-89.849,15.912],[-89.852,15.911],[-89.855,15.913],[-89.859,15.916],[-89.864,15.925],[-89.865,15.93],[-89.868,15.936],[-89.881,15.953],[-89.884,15.959],[-89.887,15.963],[-89.89,15.964],[-89.895,15.963],[-89.905,15.964],[-89.922,15.976],[-89.927,15.971],[-89.929,15.97],[-89.94,15.973],[-89.957,15.985],[-89.955,15.992],[-89.955,15.994],[-89.957,15.996],[-89.96,15.997],[-89.961,16],[-89.961,16.001],[-89.96,16.003],[-89.96,16.005],[-89.96,16.008],[-89.961,16.009],[-89.963,16.011],[-89.971,16.014],[-89.973,16.014],[-89.975,16.014],[-89.975,16.011],[-89.973,16.003],[-89.972,16.001],[-89.972,16],[-89.973,16],[-89.973,15.999],[-89.975,15.998],[-89.983,15.997],[-89.986,15.995],[-89.989,15.995],[-89.991,15.995],[-89.995,16],[-89.996,16],[-89.999,16],[-90.005,15.999],[-90.009,15.999],[-90.011,16.003],[-90.012,16.006],[-90.015,16.009],[-90.019,16.01],[-90.03,16.009],[-90.034,16.006],[-90.037,16.003],[-90.038,16.001],[-90.038,16],[-90.04,15.999],[-90.047,15.999],[-90.217,16.052],[-90.421,16.082],[-90.448,16.08],[-90.444,16.085],[-90.437,16.099],[-90.434,16.107],[-90.44,16.105],[-90.443,16.104],[-90.445,16.103],[-90.448,16.1],[-90.456,16.1],[-90.459,16.117],[-90.435,16.136],[-90.448,16.148],[-90.448,16.154],[-90.426,16.163],[-90.433,16.173],[-90.462,16.189],[-90.466,16.208],[-90.459,16.222],[-90.446,16.231],[-90.434,16.236],[-90.448,16.241],[-90.458,16.249],[-90.459,16.259],[-90.448,16.271],[-90.444,16.267],[-90.441,16.265],[-90.428,16.264],[-90.431,16.269],[-90.438,16.28],[-90.441,16.285],[-90.437,16.285],[-90.436,16.286],[-90.436,16.289],[-90.434,16.292],[-90.429,16.288],[-90.42,16.285],[-90.414,16.288],[-90.414,16.298],[-90.42,16.296],[-90.435,16.301],[-90.445,16.308],[-90.438,16.312],[-90.419,16.318],[-90.405,16.332],[-90.399,16.348],[-90.407,16.36],[-90.414,16.36],[-90.414,16.353],[-90.421,16.353],[-90.418,16.367],[-90.409,16.372],[-90.395,16.371],[-90.38,16.367],[-90.391,16.386],[-90.393,16.392],[-90.393,16.405],[-90.395,16.419],[-90.401,16.421],[-90.409,16.417],[-90.421,16.415],[-90.427,16.418],[-90.434,16.422],[-90.444,16.427],[-90.476,16.431],[-90.478,16.436],[-90.477,16.445],[-90.482,16.456],[-90.488,16.462],[-90.498,16.468],[-90.509,16.471],[-90.533,16.46],[-90.539,16.469],[-90.544,16.49],[-90.553,16.49],[-90.579,16.483],[-90.585,16.48],[-90.591,16.483],[-90.605,16.486],[-90.621,16.487],[-90.633,16.483],[-90.628,16.493],[-90.619,16.5],[-90.612,16.508],[-90.613,16.518],[-90.624,16.525],[-90.64,16.526],[-90.648,16.53],[-90.64,16.545],[-90.644,16.561],[-90.637,16.578],[-90.634,16.592],[-90.647,16.6],[-90.65,16.593],[-90.654,16.59],[-90.659,16.588],[-90.667,16.587],[-90.667,16.593],[-90.654,16.617],[-90.668,16.653],[-90.735,16.747],[-90.75,16.758],[-90.786,16.775],[-90.8,16.787],[-90.797,16.799],[-90.797,16.805],[-90.811,16.813],[-90.82,16.805],[-90.832,16.805],[-90.901,16.826],[-90.919,16.836],[-90.948,16.865],[-90.969,16.874],[-90.953,16.891],[-90.955,16.899],[-90.969,16.901],[-90.986,16.901],[-90.988,16.897],[-90.984,16.888],[-90.983,16.879],[-90.993,16.874],[-90.998,16.877],[-91.011,16.89],[-91.017,16.895],[-91.055,16.908],[-91.067,16.918],[-91.071,16.939],[-91.077,16.95],[-91.112,16.99],[-91.116,16.999],[-91.121,17.018],[-91.127,17.025],[-91.137,17.027],[-91.161,17.024],[-91.171,17.028],[-91.207,17.065],[-91.216,17.079],[-91.22,17.089],[-91.225,17.107],[-91.23,17.114],[-91.239,17.119],[-91.259,17.124],[-91.263,17.131],[-91.265,17.146],[-91.271,17.164],[-91.28,17.18],[-91.29,17.189],[-91.318,17.19],[-91.345,17.186],[-91.365,17.19],[-91.373,17.214],[-91.388,17.222],[-91.419,17.228],[-91.443,17.238],[-91.438,17.254],[-91.433,17.255],[-91.431,17.255],[-90.992,17.252],[-90.991,17.527],[-90.991,17.802],[-90.983,17.811],[-90.962,17.816],[-90.919,17.816],[-90.699,17.816],[-90.479,17.816],[-90.26,17.815],[-90.04,17.815],[-89.82,17.815],[-89.6,17.815],[-89.38,17.815],[-89.16,17.814],[-89.156,17.598],[-89.151,17.321]]]}},{"type":"Feature","id":"GT-PR","properties":{"id":"GT-PR","countryCode":"GT","isoSubdivision":"GT-PR","name":"El Progreso","name_en":"El Progreso","name_ko":"엘프로그레소","type":"Department","labelLongitude":-90.091,"labelLatitude":14.904,"minZoom":8},"geometry":{"type":"Polygon","coordinates":[[[-90.401,14.851],[-90.407,14.852],[-90.409,14.853],[-90.411,14.854],[-90.413,14.856],[-90.415,14.858],[-90.417,14.861],[-90.418,14.867],[-90.418,14.871],[-90.415,14.875],[-90.412,14.878],[-90.4,14.899],[-90.387,14.887],[-90.354,14.882],[-90.303,14.89],[-90.298,14.906],[-90.283,14.954],[-90.124,15.061],[-90.038,15.117],[-90,15.142],[-89.973,15.157],[-89.924,15.151],[-89.907,15.152],[-89.878,15.16],[-89.841,15.108],[-89.797,15.043],[-89.796,15.03],[-89.844,15.029],[-89.849,15.028],[-89.853,15.027],[-89.852,15.023],[-89.849,15.018],[-89.805,14.959],[-89.797,14.948],[-89.785,14.942],[-89.772,14.94],[-89.767,14.937],[-89.765,14.934],[-89.767,14.914],[-89.769,14.91],[-89.773,14.908],[-89.778,14.907],[-89.799,14.906],[-89.812,14.901],[-89.834,14.877],[-89.85,14.878],[-89.863,14.877],[-89.868,14.876],[-89.874,14.874],[-89.888,14.862],[-89.922,14.819],[-89.952,14.804],[-89.982,14.793],[-90.015,14.789],[-90.039,14.783],[-90.07,14.726],[-90.073,14.722],[-90.078,14.72],[-90.086,14.723],[-90.098,14.728],[-90.114,14.73],[-90.147,14.719],[-90.174,14.709],[-90.178,14.707],[-90.179,14.704],[-90.18,14.698],[-90.184,14.687],[-90.2,14.678],[-90.207,14.675],[-90.209,14.674],[-90.22,14.678],[-90.231,14.69],[-90.237,14.695],[-90.25,14.702],[-90.308,14.722],[-90.318,14.729],[-90.339,14.751],[-90.343,14.759],[-90.344,14.762],[-90.345,14.766],[-90.343,14.77],[-90.339,14.777],[-90.335,14.783],[-90.334,14.784],[-90.333,14.786],[-90.331,14.794],[-90.335,14.818],[-90.344,14.844],[-90.349,14.853],[-90.35,14.855],[-90.357,14.857],[-90.38,14.856],[-90.394,14.852],[-90.401,14.851]]]}},{"type":"Feature","id":"GT-QC","properties":{"id":"GT-QC","countryCode":"GT","isoSubdivision":"GT-QC","name":"Quiché","name_en":"Quiché","name_ko":"키체","type":"Department","labelLongitude":-90.882,"labelLatitude":15.505,"minZoom":8},"geometry":{"type":"Polygon","coordinates":[[[-90.995,16.07],[-90.989,16.07],[-90.851,16.07],[-90.713,16.07],[-90.575,16.071],[-90.486,16.071],[-90.466,16.073],[-90.448,16.079],[-90.436,16.073],[-90.432,16.065],[-90.434,16.056],[-90.442,16.045],[-90.436,16.034],[-90.44,16.025],[-90.45,16.021],[-90.462,16.025],[-90.464,16.02],[-90.468,16.016],[-90.469,16.011],[-90.476,16.011],[-90.487,16.018],[-90.507,16.006],[-90.517,16.011],[-90.524,16.011],[-90.528,16.005],[-90.531,16.004],[-90.538,16.011],[-90.54,16.007],[-90.542,16.004],[-90.543,16.005],[-90.544,16.011],[-90.549,16.006],[-90.555,16.001],[-90.558,15.998],[-90.571,16.004],[-90.58,16.013],[-90.59,16.018],[-90.607,16.018],[-90.607,16.025],[-90.602,16.026],[-90.597,16.029],[-90.593,16.031],[-90.593,16.039],[-90.6,16.043],[-90.606,16.043],[-90.61,16.039],[-90.613,16.031],[-90.62,16.031],[-90.634,16.045],[-90.66,16.04],[-90.703,16.018],[-90.695,16.004],[-90.704,15.998],[-90.704,15.994],[-90.702,15.989],[-90.706,15.98],[-90.713,15.976],[-90.717,15.98],[-90.721,15.987],[-90.723,15.99],[-90.734,15.985],[-90.75,15.973],[-90.764,15.97],[-90.764,15.962],[-90.759,15.959],[-90.751,15.949],[-90.744,15.956],[-90.742,15.953],[-90.742,15.951],[-90.741,15.95],[-90.736,15.949],[-90.736,15.942],[-90.746,15.936],[-90.754,15.921],[-90.764,15.888],[-90.739,15.885],[-90.733,15.868],[-90.743,15.849],[-90.767,15.839],[-90.771,15.833],[-90.785,15.798],[-90.812,15.765],[-90.818,15.751],[-90.805,15.752],[-90.793,15.751],[-90.784,15.746],[-90.777,15.737],[-90.782,15.735],[-90.787,15.731],[-90.791,15.73],[-90.791,15.723],[-90.777,15.712],[-90.771,15.709],[-90.784,15.7],[-90.788,15.688],[-90.781,15.679],[-90.743,15.673],[-90.701,15.661],[-90.689,15.654],[-90.681,15.659],[-90.672,15.661],[-90.662,15.659],[-90.654,15.654],[-90.658,15.654],[-90.661,15.654],[-90.662,15.652],[-90.662,15.648],[-90.643,15.636],[-90.633,15.623],[-90.632,15.609],[-90.641,15.592],[-90.626,15.582],[-90.615,15.561],[-90.609,15.541],[-90.603,15.532],[-90.597,15.526],[-90.604,15.514],[-90.615,15.503],[-90.62,15.501],[-90.648,15.476],[-90.648,15.469],[-90.64,15.459],[-90.652,15.453],[-90.692,15.449],[-90.706,15.442],[-90.71,15.427],[-90.708,15.408],[-90.703,15.394],[-90.682,15.375],[-90.651,15.363],[-90.494,15.34],[-90.478,15.331],[-90.478,15.311],[-90.488,15.288],[-90.497,15.271],[-90.504,15.262],[-90.541,15.213],[-90.574,15.21],[-90.692,15.215],[-90.857,15.253],[-90.866,15.257],[-90.872,15.148],[-90.797,15.055],[-90.707,15],[-90.708,14.996],[-90.712,14.974],[-90.694,14.956],[-90.687,14.95],[-90.681,14.946],[-90.673,14.939],[-90.669,14.93],[-90.658,14.904],[-90.671,14.909],[-90.707,14.916],[-90.737,14.926],[-90.754,14.928],[-90.805,14.928],[-90.853,14.942],[-90.868,14.942],[-90.882,14.939],[-90.894,14.937],[-90.959,14.935],[-90.977,14.939],[-90.994,14.929],[-91.011,14.924],[-91.021,14.92],[-91.023,14.918],[-91.025,14.917],[-91.031,14.907],[-91.053,14.845],[-91.061,14.839],[-91.087,14.826],[-91.104,14.832],[-91.109,14.829],[-91.112,14.816],[-91.114,14.813],[-91.115,14.811],[-91.116,14.809],[-91.119,14.808],[-91.121,14.807],[-91.124,14.807],[-91.127,14.807],[-91.13,14.81],[-91.132,14.815],[-91.133,14.826],[-91.133,14.831],[-91.132,14.835],[-91.131,14.837],[-91.123,14.846],[-91.12,14.85],[-91.117,14.855],[-91.117,14.857],[-91.119,14.861],[-91.123,14.864],[-91.135,14.868],[-91.14,14.87],[-91.144,14.87],[-91.147,14.87],[-91.15,14.871],[-91.156,14.875],[-91.166,14.892],[-91.171,14.905],[-91.183,14.911],[-91.215,14.935],[-91.212,14.941],[-91.207,14.958],[-91.207,14.964],[-91.21,14.97],[-91.227,14.981],[-91.234,14.991],[-91.238,15.009],[-91.241,15.014],[-91.243,15.017],[-91.261,15.03],[-91.271,15.037],[-91.273,15.039],[-91.274,15.041],[-91.275,15.044],[-91.275,15.047],[-91.274,15.055],[-91.272,15.062],[-91.269,15.066],[-91.26,15.073],[-91.255,15.075],[-91.251,15.076],[-91.241,15.076],[-91.238,15.078],[-91.235,15.082],[-91.235,15.092],[-91.235,15.097],[-91.241,15.108],[-91.248,15.111],[-91.249,15.125],[-91.259,15.138],[-91.264,15.158],[-91.271,15.16],[-91.299,15.188],[-91.302,15.195],[-91.315,15.202],[-91.32,15.217],[-91.32,15.235],[-91.315,15.263],[-91.311,15.272],[-91.303,15.277],[-91.259,15.285],[-91.237,15.292],[-91.228,15.292],[-91.203,15.288],[-91.195,15.289],[-91.179,15.292],[-91.184,15.312],[-91.19,15.327],[-91.191,15.333],[-91.182,15.369],[-91.184,15.387],[-91.212,15.399],[-91.225,15.402],[-91.254,15.398],[-91.26,15.398],[-91.264,15.399],[-91.282,15.416],[-91.289,15.423],[-91.294,15.432],[-91.299,15.441],[-91.3,15.447],[-91.3,15.46],[-91.301,15.463],[-91.302,15.466],[-91.322,15.489],[-91.325,15.494],[-91.326,15.496],[-91.328,15.498],[-91.33,15.503],[-91.331,15.505],[-91.331,15.508],[-91.332,15.514],[-91.332,15.517],[-91.332,15.52],[-91.331,15.523],[-91.329,15.528],[-91.324,15.537],[-91.322,15.56],[-91.321,15.564],[-91.319,15.569],[-91.316,15.574],[-91.31,15.585],[-91.307,15.595],[-91.306,15.607],[-91.303,15.611],[-91.301,15.613],[-91.297,15.613],[-91.294,15.613],[-91.289,15.614],[-91.277,15.625],[-91.275,15.626],[-91.272,15.627],[-91.269,15.627],[-91.263,15.627],[-91.259,15.628],[-91.232,15.646],[-91.228,15.652],[-91.224,15.653],[-91.216,15.653],[-91.212,15.655],[-91.21,15.656],[-91.211,15.659],[-91.212,15.66],[-91.213,15.667],[-91.195,15.685],[-91.192,15.688],[-91.127,15.816],[-91.117,15.834],[-90.995,16.07]]]}},{"type":"Feature","id":"GT-QZ","properties":{"id":"GT-QZ","countryCode":"GT","isoSubdivision":"GT-QZ","name":"Quetzaltenango","name_en":"Quetzaltenango","name_ko":"케트살테낭고","type":"Department","labelLongitude":-91.783,"labelLatitude":14.727,"minZoom":8},"geometry":{"type":"Polygon","coordinates":[[[-91.428,14.818],[-91.44,14.778],[-91.47,14.74],[-91.511,14.713],[-91.526,14.719],[-91.538,14.72],[-91.545,14.719],[-91.565,14.705],[-91.571,14.702],[-91.576,14.701],[-91.579,14.701],[-91.584,14.702],[-91.59,14.704],[-91.601,14.707],[-91.605,14.707],[-91.607,14.706],[-91.611,14.702],[-91.616,14.694],[-91.618,14.691],[-91.622,14.684],[-91.63,14.676],[-91.634,14.675],[-91.636,14.675],[-91.642,14.679],[-91.648,14.68],[-91.652,14.679],[-91.654,14.677],[-91.657,14.671],[-91.666,14.662],[-91.674,14.662],[-91.68,14.664],[-91.692,14.666],[-91.697,14.669],[-91.7,14.672],[-91.697,14.689],[-91.683,14.722],[-91.681,14.734],[-91.682,14.737],[-91.684,14.739],[-91.687,14.74],[-91.69,14.74],[-91.694,14.74],[-91.697,14.738],[-91.7,14.737],[-91.704,14.734],[-91.712,14.728],[-91.725,14.713],[-91.761,14.697],[-91.768,14.686],[-91.776,14.659],[-91.781,14.649],[-91.799,14.623],[-91.803,14.614],[-91.807,14.605],[-91.81,14.591],[-91.813,14.584],[-91.815,14.58],[-91.825,14.569],[-91.856,14.523],[-91.897,14.514],[-91.927,14.512],[-91.938,14.513],[-91.997,14.538],[-92.001,14.539],[-92.003,14.539],[-92.009,14.536],[-92.017,14.531],[-92.04,14.599],[-92.05,14.616],[-92.052,14.618],[-92.061,14.62],[-92.12,14.626],[-92.125,14.627],[-92.134,14.63],[-92.137,14.633],[-92.138,14.636],[-92.134,14.642],[-92.1,14.68],[-92.072,14.702],[-92.061,14.708],[-92.039,14.712],[-91.951,14.736],[-91.889,14.73],[-91.861,14.728],[-91.851,14.729],[-91.842,14.732],[-91.832,14.738],[-91.819,14.762],[-91.817,14.765],[-91.812,14.77],[-91.799,14.779],[-91.795,14.783],[-91.793,14.787],[-91.792,14.79],[-91.765,14.845],[-91.763,14.848],[-91.756,14.861],[-91.749,14.898],[-91.74,14.91],[-91.738,14.92],[-91.739,14.927],[-91.738,14.931],[-91.736,14.934],[-91.729,14.938],[-91.721,14.942],[-91.692,14.969],[-91.683,14.98],[-91.68,14.99],[-91.673,15.033],[-91.677,15.049],[-91.696,15.065],[-91.708,15.092],[-91.699,15.122],[-91.68,15.149],[-91.662,15.168],[-91.627,15.196],[-91.621,15.202],[-91.616,15.221],[-91.549,15.204],[-91.541,15.198],[-91.542,15.188],[-91.538,15.179],[-91.519,15.156],[-91.536,15.15],[-91.587,15.131],[-91.59,15.13],[-91.592,15.128],[-91.594,15.12],[-91.589,15.091],[-91.564,15.001],[-91.56,14.986],[-91.553,14.976],[-91.536,14.962],[-91.536,14.95],[-91.538,14.945],[-91.538,14.938],[-91.536,14.932],[-91.521,14.914],[-91.519,14.911],[-91.518,14.909],[-91.511,14.907],[-91.492,14.909],[-91.47,14.91],[-91.462,14.891],[-91.459,14.861],[-91.448,14.851],[-91.428,14.818]]]}},{"type":"Feature","id":"GT-RE","properties":{"id":"GT-RE","countryCode":"GT","isoSubdivision":"GT-RE","name":"Retalhuleu","name_en":"Retalhuleu","name_ko":"레탈룰레우","type":"Department","labelLongitude":-91.836,"labelLatitude":14.396,"minZoom":8},"geometry":{"type":"Polygon","coordinates":[[[-91.659,14.117],[-91.763,14.18],[-91.908,14.284],[-92.05,14.408],[-92.162,14.487],[-92.161,14.49],[-92.158,14.491],[-92.154,14.492],[-92.144,14.489],[-92.139,14.49],[-92.134,14.492],[-92.125,14.498],[-92.116,14.506],[-92.112,14.507],[-92.107,14.508],[-92.097,14.508],[-92.088,14.506],[-92.083,14.504],[-92.08,14.503],[-92.077,14.503],[-92.074,14.504],[-92.07,14.505],[-92.066,14.508],[-92.055,14.52],[-92.046,14.524],[-92.017,14.531],[-92.009,14.536],[-92.003,14.539],[-92.001,14.539],[-91.997,14.538],[-91.938,14.513],[-91.927,14.512],[-91.897,14.514],[-91.856,14.523],[-91.825,14.569],[-91.815,14.58],[-91.813,14.584],[-91.81,14.591],[-91.807,14.605],[-91.803,14.614],[-91.799,14.623],[-91.781,14.649],[-91.776,14.659],[-91.768,14.686],[-91.761,14.697],[-91.725,14.713],[-91.712,14.728],[-91.704,14.734],[-91.7,14.737],[-91.697,14.738],[-91.694,14.74],[-91.69,14.74],[-91.687,14.74],[-91.684,14.739],[-91.682,14.737],[-91.681,14.734],[-91.683,14.722],[-91.697,14.689],[-91.7,14.672],[-91.697,14.669],[-91.692,14.666],[-91.68,14.664],[-91.674,14.662],[-91.666,14.662],[-91.657,14.671],[-91.654,14.677],[-91.652,14.679],[-91.648,14.68],[-91.642,14.679],[-91.636,14.675],[-91.634,14.675],[-91.63,14.676],[-91.622,14.684],[-91.618,14.691],[-91.616,14.694],[-91.611,14.702],[-91.607,14.706],[-91.605,14.707],[-91.601,14.707],[-91.59,14.704],[-91.584,14.702],[-91.579,14.701],[-91.576,14.701],[-91.571,14.702],[-91.565,14.705],[-91.545,14.719],[-91.538,14.72],[-91.526,14.719],[-91.511,14.713],[-91.541,14.687],[-91.563,14.662],[-91.566,14.658],[-91.569,14.652],[-91.57,14.649],[-91.57,14.638],[-91.569,14.625],[-91.569,14.616],[-91.608,14.537],[-91.609,14.531],[-91.609,14.528],[-91.608,14.525],[-91.616,14.466],[-91.615,14.46],[-91.614,14.455],[-91.612,14.45],[-91.599,14.428],[-91.599,14.421],[-91.603,14.356],[-91.603,14.342],[-91.603,14.336],[-91.604,14.331],[-91.615,14.315],[-91.628,14.278],[-91.632,14.248],[-91.634,14.215],[-91.636,14.209],[-91.637,14.207],[-91.665,14.165],[-91.659,14.125],[-91.659,14.117]]]}},{"type":"Feature","id":"GT-SA","properties":{"id":"GT-SA","countryCode":"GT","isoSubdivision":"GT-SA","name":"Sacatepéquez","name_en":"Sacatepéquez","name_ko":"사카테페케스","type":"Department","labelLongitude":-90.754,"labelLatitude":14.614,"minZoom":8},"geometry":{"type":"Polygon","coordinates":[[[-90.891,14.489],[-90.891,14.49],[-90.891,14.496],[-90.886,14.524],[-90.864,14.564],[-90.819,14.613],[-90.794,14.631],[-90.781,14.659],[-90.775,14.666],[-90.772,14.671],[-90.772,14.675],[-90.772,14.682],[-90.775,14.699],[-90.778,14.709],[-90.784,14.738],[-90.781,14.75],[-90.765,14.778],[-90.742,14.757],[-90.729,14.75],[-90.719,14.748],[-90.71,14.747],[-90.698,14.749],[-90.695,14.749],[-90.692,14.749],[-90.682,14.74],[-90.651,14.702],[-90.642,14.673],[-90.629,14.658],[-90.619,14.648],[-90.618,14.645],[-90.618,14.638],[-90.623,14.62],[-90.621,14.608],[-90.629,14.599],[-90.635,14.587],[-90.642,14.506],[-90.651,14.469],[-90.715,14.444],[-90.726,14.467],[-90.727,14.469],[-90.731,14.472],[-90.738,14.47],[-90.743,14.463],[-90.749,14.459],[-90.763,14.459],[-90.772,14.455],[-90.774,14.453],[-90.776,14.451],[-90.781,14.445],[-90.785,14.436],[-90.787,14.434],[-90.794,14.427],[-90.82,14.405],[-90.825,14.408],[-90.831,14.415],[-90.844,14.435],[-90.851,14.451],[-90.852,14.454],[-90.853,14.456],[-90.861,14.464],[-90.891,14.489]]]}},{"type":"Feature","id":"GT-SM","properties":{"id":"GT-SM","countryCode":"GT","isoSubdivision":"GT-SM","name":"San Marcos","name_en":"San Marcos","name_ko":"산마르코스","type":"Department","labelLongitude":-91.931,"labelLatitude":15.031,"minZoom":8},"geometry":{"type":"Polygon","coordinates":[[[-92.246,14.546],[-92.226,14.549],[-92.208,14.571],[-92.186,14.63],[-92.165,14.668],[-92.161,14.683],[-92.162,14.702],[-92.179,14.752],[-92.18,14.759],[-92.179,14.773],[-92.179,14.781],[-92.189,14.806],[-92.191,14.814],[-92.192,14.835],[-92.187,14.847],[-92.166,14.871],[-92.155,14.901],[-92.158,14.963],[-92.154,14.996],[-92.142,15.007],[-92.13,15.011],[-92.117,15.012],[-92.104,15.018],[-92.094,15.029],[-92.074,15.074],[-92.203,15.237],[-92.211,15.253],[-92.211,15.272],[-92.205,15.29],[-92.186,15.32],[-92.137,15.402],[-92.106,15.454],[-92.1,15.434],[-92.082,15.413],[-92.068,15.407],[-92.065,15.392],[-92.055,15.288],[-92.044,15.28],[-91.993,15.278],[-91.99,15.281],[-91.957,15.319],[-91.943,15.327],[-91.91,15.33],[-91.88,15.348],[-91.863,15.358],[-91.856,15.361],[-91.85,15.361],[-91.841,15.357],[-91.807,15.337],[-91.786,15.335],[-91.731,15.35],[-91.716,15.35],[-91.715,15.346],[-91.71,15.333],[-91.696,15.308],[-91.679,15.286],[-91.661,15.266],[-91.641,15.25],[-91.631,15.244],[-91.621,15.234],[-91.616,15.221],[-91.621,15.202],[-91.627,15.196],[-91.662,15.168],[-91.68,15.149],[-91.699,15.122],[-91.708,15.092],[-91.696,15.065],[-91.677,15.049],[-91.673,15.033],[-91.68,14.99],[-91.683,14.98],[-91.692,14.969],[-91.721,14.942],[-91.729,14.938],[-91.736,14.934],[-91.738,14.931],[-91.739,14.927],[-91.738,14.92],[-91.74,14.91],[-91.749,14.898],[-91.756,14.861],[-91.763,14.848],[-91.765,14.845],[-91.792,14.79],[-91.793,14.787],[-91.795,14.783],[-91.799,14.779],[-91.812,14.77],[-91.817,14.765],[-91.819,14.762],[-91.832,14.738],[-91.842,14.732],[-91.851,14.729],[-91.861,14.728],[-91.889,14.73],[-91.951,14.736],[-92.039,14.712],[-92.061,14.708],[-92.072,14.702],[-92.1,14.68],[-92.134,14.642],[-92.138,14.636],[-92.137,14.633],[-92.134,14.63],[-92.125,14.627],[-92.12,14.626],[-92.061,14.62],[-92.052,14.618],[-92.05,14.616],[-92.04,14.599],[-92.017,14.531],[-92.046,14.524],[-92.055,14.52],[-92.066,14.508],[-92.07,14.505],[-92.074,14.504],[-92.077,14.503],[-92.08,14.503],[-92.083,14.504],[-92.088,14.506],[-92.097,14.508],[-92.107,14.508],[-92.112,14.507],[-92.116,14.506],[-92.125,14.498],[-92.134,14.492],[-92.139,14.49],[-92.144,14.489],[-92.154,14.492],[-92.158,14.491],[-92.161,14.49],[-92.162,14.487],[-92.246,14.546]]]}},{"type":"Feature","id":"GT-SO","properties":{"id":"GT-SO","countryCode":"GT","isoSubdivision":"GT-SO","name":"Sololá","name_en":"Sololá","name_ko":"솔롤라","type":"Department","labelLongitude":-91.273,"labelLatitude":14.737,"minZoom":8},"geometry":{"type":"Polygon","coordinates":[[[-91.087,14.826],[-91.085,14.82],[-91.069,14.745],[-91.075,14.725],[-91.076,14.722],[-91.074,14.7],[-91.095,14.653],[-91.103,14.642],[-91.106,14.632],[-91.106,14.61],[-91.114,14.53],[-91.153,14.559],[-91.166,14.568],[-91.176,14.571],[-91.182,14.572],[-91.192,14.572],[-91.201,14.571],[-91.229,14.557],[-91.251,14.554],[-91.254,14.555],[-91.257,14.557],[-91.258,14.56],[-91.258,14.563],[-91.255,14.575],[-91.255,14.578],[-91.255,14.587],[-91.257,14.595],[-91.259,14.599],[-91.263,14.605],[-91.292,14.63],[-91.303,14.641],[-91.306,14.641],[-91.309,14.642],[-91.321,14.64],[-91.343,14.638],[-91.344,14.638],[-91.355,14.651],[-91.37,14.658],[-91.378,14.659],[-91.384,14.657],[-91.387,14.655],[-91.392,14.652],[-91.395,14.649],[-91.397,14.646],[-91.398,14.643],[-91.398,14.641],[-91.397,14.628],[-91.398,14.62],[-91.403,14.606],[-91.416,14.61],[-91.462,14.616],[-91.477,14.63],[-91.453,14.674],[-91.448,14.688],[-91.448,14.691],[-91.45,14.697],[-91.462,14.729],[-91.465,14.734],[-91.47,14.74],[-91.44,14.778],[-91.428,14.818],[-91.424,14.821],[-91.379,14.859],[-91.37,14.862],[-91.358,14.863],[-91.335,14.86],[-91.326,14.857],[-91.32,14.855],[-91.313,14.854],[-91.292,14.863],[-91.279,14.863],[-91.272,14.861],[-91.256,14.856],[-91.253,14.856],[-91.246,14.856],[-91.241,14.857],[-91.23,14.86],[-91.216,14.873],[-91.203,14.892],[-91.183,14.911],[-91.171,14.905],[-91.166,14.892],[-91.156,14.875],[-91.15,14.871],[-91.147,14.87],[-91.144,14.87],[-91.14,14.87],[-91.135,14.868],[-91.123,14.864],[-91.119,14.861],[-91.117,14.857],[-91.117,14.855],[-91.12,14.85],[-91.123,14.846],[-91.131,14.837],[-91.132,14.835],[-91.133,14.831],[-91.133,14.826],[-91.132,14.815],[-91.13,14.81],[-91.127,14.807],[-91.124,14.807],[-91.121,14.807],[-91.119,14.808],[-91.116,14.809],[-91.115,14.811],[-91.114,14.813],[-91.112,14.816],[-91.109,14.829],[-91.104,14.832],[-91.087,14.826]]]}},{"type":"Feature","id":"GT-SR","properties":{"id":"GT-SR","countryCode":"GT","isoSubdivision":"GT-SR","name":"Santa Rosa","name_en":"Santa Rosa","name_ko":"산타로사","type":"Department","labelLongitude":-90.339,"labelLatitude":14.165,"minZoom":8},"geometry":{"type":"Polygon","coordinates":[[[-90.241,13.789],[-90.246,13.791],[-90.401,13.859],[-90.5,13.895],[-90.58,13.913],[-90.627,13.921],[-90.627,13.932],[-90.627,14.056],[-90.625,14.061],[-90.621,14.065],[-90.61,14.068],[-90.598,14.07],[-90.595,14.071],[-90.593,14.073],[-90.59,14.082],[-90.582,14.096],[-90.577,14.101],[-90.564,14.109],[-90.56,14.112],[-90.557,14.116],[-90.556,14.118],[-90.557,14.121],[-90.558,14.126],[-90.573,14.139],[-90.575,14.141],[-90.578,14.147],[-90.579,14.161],[-90.572,14.164],[-90.553,14.167],[-90.551,14.168],[-90.544,14.172],[-90.528,14.187],[-90.516,14.203],[-90.516,14.205],[-90.519,14.209],[-90.527,14.213],[-90.532,14.214],[-90.536,14.213],[-90.551,14.208],[-90.554,14.207],[-90.561,14.207],[-90.567,14.208],[-90.581,14.21],[-90.585,14.211],[-90.587,14.212],[-90.589,14.216],[-90.589,14.22],[-90.586,14.231],[-90.58,14.242],[-90.565,14.256],[-90.536,14.266],[-90.529,14.271],[-90.51,14.288],[-90.49,14.297],[-90.482,14.3],[-90.477,14.302],[-90.474,14.302],[-90.472,14.304],[-90.464,14.313],[-90.461,14.316],[-90.458,14.318],[-90.455,14.319],[-90.453,14.32],[-90.451,14.321],[-90.449,14.323],[-90.444,14.329],[-90.442,14.341],[-90.448,14.388],[-90.429,14.433],[-90.388,14.497],[-90.371,14.504],[-90.367,14.504],[-90.36,14.502],[-90.357,14.5],[-90.355,14.497],[-90.354,14.485],[-90.353,14.482],[-90.352,14.48],[-90.35,14.478],[-90.345,14.479],[-90.339,14.483],[-90.32,14.5],[-90.314,14.506],[-90.306,14.509],[-90.297,14.509],[-90.285,14.514],[-90.273,14.501],[-90.271,14.499],[-90.267,14.496],[-90.265,14.495],[-90.251,14.497],[-90.238,14.499],[-90.128,14.519],[-90.123,14.495],[-90.114,14.482],[-90.078,14.453],[-90.052,14.433],[-90.07,14.378],[-90.084,14.377],[-90.081,14.358],[-90.082,14.355],[-90.084,14.354],[-90.089,14.356],[-90.094,14.358],[-90.105,14.358],[-90.14,14.352],[-90.142,14.35],[-90.155,14.339],[-90.191,14.253],[-90.177,14.243],[-90.13,14.23],[-90.125,14.228],[-90.121,14.225],[-90.114,14.218],[-90.083,14.193],[-90.058,14.17],[-90.053,14.16],[-90.055,14.138],[-90.05,14.098],[-90.05,14.095],[-90.052,14.089],[-90.054,14.081],[-90.06,14.07],[-90.077,14.045],[-90.083,14.039],[-90.085,14.038],[-90.099,14.036],[-90.11,14.033],[-90.116,14.03],[-90.119,14.027],[-90.125,14.016],[-90.141,13.987],[-90.157,13.977],[-90.16,13.976],[-90.164,13.976],[-90.174,13.98],[-90.213,13.989],[-90.219,13.991],[-90.238,14.007],[-90.266,14.023],[-90.284,14.018],[-90.29,14.013],[-90.292,14.01],[-90.293,14.004],[-90.293,13.999],[-90.292,13.995],[-90.289,13.988],[-90.285,13.984],[-90.28,13.979],[-90.279,13.975],[-90.271,13.933],[-90.27,13.931],[-90.269,13.929],[-90.266,13.928],[-90.261,13.925],[-90.259,13.921],[-90.255,13.913],[-90.245,13.878],[-90.233,13.855],[-90.231,13.85],[-90.23,13.845],[-90.231,13.827],[-90.237,13.802],[-90.241,13.789]]]}},{"type":"Feature","id":"GT-SU","properties":{"id":"GT-SU","countryCode":"GT","isoSubdivision":"GT-SU","name":"Suchitepéquez","name_en":"Suchitepéquez","name_ko":"수치테페케스","type":"Department","labelLongitude":-91.38,"labelLatitude":14.518,"minZoom":8},"geometry":{"type":"Polygon","coordinates":[[[-91.552,14.057],[-91.637,14.104],[-91.659,14.117],[-91.659,14.125],[-91.665,14.165],[-91.637,14.207],[-91.636,14.209],[-91.634,14.215],[-91.632,14.248],[-91.628,14.278],[-91.615,14.315],[-91.604,14.331],[-91.603,14.336],[-91.603,14.342],[-91.603,14.356],[-91.599,14.421],[-91.599,14.428],[-91.612,14.45],[-91.614,14.455],[-91.615,14.46],[-91.616,14.466],[-91.608,14.525],[-91.609,14.528],[-91.609,14.531],[-91.608,14.537],[-91.569,14.616],[-91.569,14.625],[-91.57,14.638],[-91.57,14.649],[-91.569,14.652],[-91.566,14.658],[-91.563,14.662],[-91.541,14.687],[-91.511,14.713],[-91.47,14.74],[-91.465,14.734],[-91.462,14.729],[-91.45,14.697],[-91.448,14.691],[-91.448,14.688],[-91.453,14.674],[-91.477,14.63],[-91.462,14.616],[-91.416,14.61],[-91.403,14.606],[-91.398,14.62],[-91.397,14.628],[-91.398,14.641],[-91.398,14.643],[-91.397,14.646],[-91.395,14.649],[-91.392,14.652],[-91.387,14.655],[-91.384,14.657],[-91.378,14.659],[-91.37,14.658],[-91.355,14.651],[-91.344,14.638],[-91.343,14.638],[-91.321,14.64],[-91.309,14.642],[-91.306,14.641],[-91.303,14.641],[-91.292,14.63],[-91.263,14.605],[-91.259,14.599],[-91.257,14.595],[-91.255,14.587],[-91.255,14.578],[-91.255,14.575],[-91.258,14.563],[-91.258,14.56],[-91.257,14.557],[-91.254,14.555],[-91.251,14.554],[-91.229,14.557],[-91.201,14.571],[-91.192,14.572],[-91.182,14.572],[-91.176,14.571],[-91.166,14.568],[-91.153,14.559],[-91.114,14.53],[-91.107,14.524],[-91.101,14.518],[-91.097,14.513],[-91.095,14.503],[-91.097,14.481],[-91.097,14.468],[-91.111,14.43],[-91.14,14.374],[-91.146,14.357],[-91.149,14.309],[-91.15,14.303],[-91.151,14.299],[-91.156,14.293],[-91.165,14.276],[-91.171,14.272],[-91.288,14.28],[-91.294,14.282],[-91.289,14.306],[-91.3,14.316],[-91.318,14.297],[-91.326,14.292],[-91.336,14.292],[-91.343,14.293],[-91.347,14.294],[-91.352,14.297],[-91.356,14.301],[-91.358,14.304],[-91.359,14.307],[-91.359,14.31],[-91.359,14.313],[-91.357,14.321],[-91.357,14.325],[-91.358,14.328],[-91.363,14.334],[-91.364,14.337],[-91.365,14.339],[-91.365,14.342],[-91.365,14.345],[-91.364,14.347],[-91.356,14.357],[-91.356,14.361],[-91.358,14.366],[-91.365,14.376],[-91.369,14.379],[-91.373,14.381],[-91.381,14.378],[-91.386,14.376],[-91.414,14.355],[-91.418,14.352],[-91.419,14.35],[-91.421,14.345],[-91.423,14.337],[-91.424,14.33],[-91.423,14.324],[-91.421,14.315],[-91.419,14.31],[-91.415,14.302],[-91.414,14.299],[-91.413,14.297],[-91.415,14.294],[-91.419,14.291],[-91.426,14.287],[-91.43,14.286],[-91.433,14.287],[-91.434,14.289],[-91.437,14.296],[-91.44,14.301],[-91.448,14.307],[-91.458,14.3],[-91.46,14.297],[-91.462,14.29],[-91.462,14.278],[-91.462,14.27],[-91.458,14.246],[-91.456,14.206],[-91.457,14.19],[-91.463,14.182],[-91.468,14.177],[-91.473,14.169],[-91.481,14.152],[-91.53,14.082],[-91.532,14.077],[-91.533,14.072],[-91.53,14.057],[-91.529,14.048],[-91.552,14.057]]]}},{"type":"Feature","id":"GT-TO","properties":{"id":"GT-TO","countryCode":"GT","isoSubdivision":"GT-TO","name":"Totonicapán","name_en":"Totonicapán","name_ko":"토토니카판","type":"Department","labelLongitude":-91.388,"labelLatitude":15.047,"minZoom":8},"geometry":{"type":"Polygon","coordinates":[[[-91.511,14.907],[-91.518,14.909],[-91.519,14.911],[-91.521,14.914],[-91.536,14.932],[-91.538,14.938],[-91.538,14.945],[-91.536,14.95],[-91.536,14.962],[-91.553,14.976],[-91.56,14.986],[-91.564,15.001],[-91.589,15.091],[-91.594,15.12],[-91.592,15.128],[-91.59,15.13],[-91.587,15.131],[-91.536,15.15],[-91.519,15.156],[-91.485,15.158],[-91.481,15.159],[-91.477,15.162],[-91.476,15.165],[-91.474,15.19],[-91.474,15.193],[-91.468,15.204],[-91.454,15.223],[-91.451,15.226],[-91.446,15.229],[-91.436,15.232],[-91.392,15.241],[-91.377,15.252],[-91.353,15.263],[-91.341,15.265],[-91.315,15.263],[-91.32,15.235],[-91.32,15.217],[-91.315,15.202],[-91.302,15.195],[-91.299,15.188],[-91.271,15.16],[-91.264,15.158],[-91.259,15.138],[-91.249,15.125],[-91.248,15.111],[-91.241,15.108],[-91.235,15.097],[-91.235,15.092],[-91.235,15.082],[-91.238,15.078],[-91.241,15.076],[-91.251,15.076],[-91.255,15.075],[-91.26,15.073],[-91.269,15.066],[-91.272,15.062],[-91.274,15.055],[-91.275,15.047],[-91.275,15.044],[-91.274,15.041],[-91.273,15.039],[-91.271,15.037],[-91.261,15.03],[-91.243,15.017],[-91.241,15.014],[-91.238,15.009],[-91.234,14.991],[-91.227,14.981],[-91.21,14.97],[-91.207,14.964],[-91.207,14.958],[-91.212,14.941],[-91.215,14.935],[-91.183,14.911],[-91.203,14.892],[-91.216,14.873],[-91.23,14.86],[-91.241,14.857],[-91.246,14.856],[-91.253,14.856],[-91.256,14.856],[-91.272,14.861],[-91.279,14.863],[-91.292,14.863],[-91.313,14.854],[-91.32,14.855],[-91.326,14.857],[-91.335,14.86],[-91.358,14.863],[-91.37,14.862],[-91.379,14.859],[-91.424,14.821],[-91.428,14.818],[-91.448,14.851],[-91.459,14.861],[-91.462,14.891],[-91.47,14.91],[-91.492,14.909],[-91.511,14.907]]]}},{"type":"Feature","id":"GT-ZA","properties":{"id":"GT-ZA","countryCode":"GT","isoSubdivision":"GT-ZA","name":"Zacapa","name_en":"Zacapa","name_ko":"사카파","type":"Department","labelLongitude":-89.513,"labelLatitude":15.033,"minZoom":8},"geometry":{"type":"Polygon","coordinates":[[[-89.147,15.071],[-89.161,15.06],[-89.173,15.042],[-89.189,14.996],[-89.169,14.978],[-89.169,14.952],[-89.182,14.924],[-89.189,14.913],[-89.19,14.914],[-89.193,14.921],[-89.194,14.923],[-89.195,14.925],[-89.196,14.928],[-89.199,14.935],[-89.203,14.941],[-89.205,14.944],[-89.206,14.945],[-89.208,14.947],[-89.21,14.948],[-89.213,14.949],[-89.218,14.949],[-89.225,14.946],[-89.248,14.935],[-89.254,14.931],[-89.258,14.927],[-89.264,14.92],[-89.268,14.914],[-89.274,14.91],[-89.286,14.906],[-89.294,14.905],[-89.3,14.91],[-89.304,14.915],[-89.32,14.92],[-89.369,14.903],[-89.385,14.903],[-89.399,14.913],[-89.421,14.919],[-89.429,14.919],[-89.449,14.914],[-89.509,14.867],[-89.524,14.863],[-89.578,14.864],[-89.593,14.867],[-89.625,14.883],[-89.659,14.9],[-89.67,14.901],[-89.688,14.888],[-89.71,14.867],[-89.712,14.862],[-89.709,14.838],[-89.713,14.821],[-89.736,14.78],[-89.748,14.783],[-89.764,14.785],[-89.79,14.785],[-89.794,14.786],[-89.799,14.792],[-89.808,14.804],[-89.824,14.833],[-89.833,14.846],[-89.839,14.856],[-89.842,14.86],[-89.834,14.877],[-89.812,14.901],[-89.799,14.906],[-89.778,14.907],[-89.773,14.908],[-89.769,14.91],[-89.767,14.914],[-89.765,14.934],[-89.767,14.937],[-89.772,14.94],[-89.785,14.942],[-89.797,14.948],[-89.805,14.959],[-89.849,15.018],[-89.852,15.023],[-89.853,15.027],[-89.849,15.028],[-89.844,15.029],[-89.796,15.03],[-89.797,15.043],[-89.841,15.108],[-89.878,15.16],[-89.851,15.172],[-89.84,15.173],[-89.817,15.172],[-89.782,15.159],[-89.77,15.157],[-89.707,15.166],[-89.675,15.164],[-89.606,15.18],[-89.565,15.185],[-89.55,15.188],[-89.431,15.226],[-89.314,15.272],[-89.288,15.291],[-89.274,15.298],[-89.251,15.303],[-89.22,15.3],[-89.21,15.298],[-89.187,15.285],[-89.184,15.283],[-89.181,15.281],[-89.176,15.276],[-89.173,15.272],[-89.172,15.269],[-89.171,15.266],[-89.17,15.26],[-89.173,15.235],[-89.174,15.228],[-89.175,15.226],[-89.177,15.222],[-89.179,15.22],[-89.181,15.218],[-89.185,15.215],[-89.197,15.21],[-89.198,15.206],[-89.198,15.2],[-89.19,15.168],[-89.19,15.162],[-89.191,15.152],[-89.189,15.136],[-89.183,15.108],[-89.181,15.103],[-89.162,15.08],[-89.157,15.077],[-89.15,15.074],[-89.147,15.072],[-89.147,15.071]]]}}]}
