{"type":"FeatureCollection","features":[{"type":"Feature","id":"GU-X01~","properties":{"id":"GU-X01~","countryCode":"GU","isoSubdivision":"GU-X01~","name":"Guam","name_en":"Guam","name_ko":"괌","type":"Principal subdivision","labelLongitude":144.789,"labelLatitude":13.473,"minZoom":18},"geometry":{"type":"Polygon","coordinates":[[[144.886,13.64],[144.897,13.618],[144.914,13.605],[144.934,13.6],[144.952,13.599],[144.952,13.587],[144.938,13.561],[144.907,13.517],[144.872,13.485],[144.808,13.446],[144.783,13.42],[144.769,13.379],[144.76,13.286],[144.736,13.249],[144.718,13.242],[144.698,13.241],[144.681,13.247],[144.67,13.265],[144.657,13.282],[144.654,13.287],[144.647,13.325],[144.644,13.332],[144.639,13.337],[144.634,13.342],[144.626,13.345],[144.637,13.355],[144.643,13.366],[144.646,13.378],[144.647,13.396],[144.646,13.404],[144.64,13.415],[144.635,13.424],[144.624,13.431],[144.629,13.439],[144.636,13.443],[144.641,13.438],[144.654,13.439],[144.715,13.473],[144.729,13.486],[144.783,13.517],[144.794,13.527],[144.803,13.539],[144.811,13.554],[144.832,13.621],[144.839,13.633],[144.85,13.644],[144.867,13.653],[144.881,13.654],[144.886,13.64]]]}}]}
