{"type":"FeatureCollection","features":[{"type":"Feature","id":"GW-BA","properties":{"id":"GW-BA","countryCode":"GW","isoSubdivision":"GW-BA","name":"Bafatá","name_en":"Bafatá","name_ko":"바파타","type":"Region","labelLongitude":-14.707,"labelLatitude":12.143,"minZoom":8.7},"geometry":{"type":"Polygon","coordinates":[[[-14.872,12.678],[-14.792,12.678],[-14.437,12.676],[-14.343,12.676],[-14.359,12.643],[-14.364,12.629],[-14.368,12.622],[-14.373,12.618],[-14.378,12.616],[-14.384,12.615],[-14.388,12.617],[-14.392,12.62],[-14.397,12.628],[-14.405,12.634],[-14.408,12.637],[-14.412,12.635],[-14.414,12.628],[-14.409,12.571],[-14.406,12.558],[-14.403,12.553],[-14.399,12.55],[-14.389,12.547],[-14.383,12.54],[-14.379,12.539],[-14.375,12.538],[-14.373,12.534],[-14.374,12.527],[-14.38,12.513],[-14.384,12.506],[-14.387,12.502],[-14.389,12.501],[-14.391,12.5],[-14.394,12.5],[-14.399,12.5],[-14.401,12.501],[-14.404,12.504],[-14.41,12.51],[-14.414,12.513],[-14.419,12.515],[-14.425,12.515],[-14.43,12.513],[-14.433,12.51],[-14.445,12.498],[-14.448,12.496],[-14.452,12.495],[-14.456,12.495],[-14.459,12.497],[-14.461,12.499],[-14.464,12.508],[-14.468,12.511],[-14.473,12.512],[-14.484,12.511],[-14.489,12.511],[-14.494,12.512],[-14.497,12.516],[-14.5,12.518],[-14.502,12.519],[-14.51,12.515],[-14.515,12.515],[-14.519,12.516],[-14.52,12.521],[-14.519,12.527],[-14.519,12.532],[-14.524,12.536],[-14.528,12.536],[-14.533,12.534],[-14.535,12.527],[-14.536,12.518],[-14.533,12.501],[-14.53,12.491],[-14.526,12.485],[-14.521,12.483],[-14.516,12.483],[-14.511,12.484],[-14.506,12.486],[-14.492,12.494],[-14.487,12.496],[-14.483,12.495],[-14.479,12.493],[-14.475,12.49],[-14.462,12.475],[-14.459,12.471],[-14.457,12.466],[-14.457,12.46],[-14.459,12.454],[-14.465,12.448],[-14.47,12.447],[-14.475,12.444],[-14.479,12.441],[-14.482,12.438],[-14.485,12.435],[-14.489,12.436],[-14.493,12.438],[-14.497,12.446],[-14.5,12.449],[-14.502,12.45],[-14.506,12.449],[-14.508,12.445],[-14.509,12.438],[-14.504,12.421],[-14.502,12.416],[-14.501,12.412],[-14.501,12.409],[-14.505,12.405],[-14.509,12.402],[-14.515,12.4],[-14.521,12.399],[-14.527,12.398],[-14.532,12.399],[-14.54,12.402],[-14.544,12.402],[-14.548,12.4],[-14.551,12.397],[-14.555,12.393],[-14.557,12.389],[-14.558,12.385],[-14.557,12.382],[-14.553,12.38],[-14.55,12.377],[-14.552,12.373],[-14.554,12.37],[-14.556,12.368],[-14.557,12.366],[-14.556,12.364],[-14.555,12.362],[-14.538,12.359],[-14.534,12.357],[-14.53,12.353],[-14.525,12.345],[-14.521,12.341],[-14.517,12.338],[-14.512,12.336],[-14.495,12.331],[-14.491,12.33],[-14.482,12.325],[-14.475,12.318],[-14.472,12.314],[-14.471,12.308],[-14.471,12.301],[-14.474,12.289],[-14.477,12.283],[-14.482,12.273],[-14.484,12.267],[-14.483,12.259],[-14.468,12.207],[-14.466,12.204],[-14.464,12.201],[-14.461,12.198],[-14.457,12.195],[-14.452,12.193],[-14.442,12.189],[-14.438,12.187],[-14.435,12.183],[-14.434,12.175],[-14.436,12.163],[-14.444,12.141],[-14.451,12.134],[-14.457,12.131],[-14.462,12.131],[-14.467,12.13],[-14.471,12.128],[-14.482,12.119],[-14.486,12.117],[-14.491,12.116],[-14.496,12.116],[-14.508,12.118],[-14.514,12.118],[-14.519,12.117],[-14.524,12.113],[-14.527,12.107],[-14.529,12.096],[-14.529,12.087],[-14.525,12.077],[-14.521,12.072],[-14.517,12.069],[-14.509,12.064],[-14.494,12.057],[-14.49,12.055],[-14.487,12.047],[-14.487,12.034],[-14.492,12.006],[-14.496,11.994],[-14.499,11.987],[-14.502,11.985],[-14.503,11.98],[-14.504,11.974],[-14.501,11.965],[-14.498,11.96],[-14.494,11.956],[-14.473,11.941],[-14.47,11.937],[-14.468,11.932],[-14.469,11.924],[-14.481,11.89],[-14.482,11.881],[-14.483,11.869],[-14.481,11.824],[-14.476,11.787],[-14.476,11.768],[-14.474,11.762],[-14.471,11.757],[-14.464,11.75],[-14.461,11.747],[-14.46,11.742],[-14.461,11.736],[-14.469,11.727],[-14.474,11.723],[-14.491,11.716],[-14.495,11.713],[-14.498,11.711],[-14.502,11.697],[-14.507,11.642],[-14.53,11.643],[-14.576,11.638],[-14.598,11.633],[-14.626,11.621],[-14.635,11.62],[-14.642,11.623],[-14.653,11.632],[-14.657,11.634],[-14.673,11.635],[-14.683,11.632],[-14.71,11.605],[-14.734,11.598],[-14.761,11.609],[-14.787,11.63],[-14.803,11.653],[-14.808,11.669],[-14.808,11.681],[-14.812,11.69],[-14.83,11.699],[-14.861,11.695],[-14.863,11.701],[-14.838,11.73],[-14.834,11.738],[-14.838,11.742],[-14.863,11.753],[-14.867,11.754],[-14.872,11.752],[-14.878,11.749],[-14.88,11.752],[-14.884,11.761],[-14.89,11.77],[-14.891,11.778],[-14.895,11.785],[-14.904,11.789],[-14.914,11.788],[-14.921,11.783],[-14.925,11.77],[-14.925,11.769],[-14.951,11.761],[-14.969,11.776],[-14.983,11.799],[-14.997,11.81],[-15.026,11.814],[-15.035,11.817],[-15.047,11.823],[-15.052,11.831],[-15.057,11.838],[-15.066,11.848],[-15.07,11.861],[-15.061,11.873],[-15.049,11.884],[-15.042,11.896],[-15.024,11.945],[-15.023,11.951],[-15.019,11.954],[-15.004,11.954],[-14.994,11.957],[-14.994,11.958],[-14.991,11.957],[-14.979,11.956],[-14.969,11.958],[-14.963,11.96],[-14.959,11.963],[-14.955,11.965],[-14.952,11.967],[-14.95,11.969],[-14.949,11.972],[-14.95,11.975],[-14.952,11.982],[-14.959,11.996],[-14.96,12.001],[-14.961,12.003],[-14.96,12.01],[-14.959,12.016],[-14.955,12.025],[-14.953,12.031],[-14.956,12.035],[-14.997,12.058],[-15.002,12.062],[-15.01,12.066],[-15.022,12.069],[-15.026,12.071],[-15.029,12.075],[-15.031,12.08],[-15.035,12.105],[-15.039,12.114],[-15.07,12.167],[-15.071,12.174],[-15.069,12.181],[-15.062,12.192],[-15.052,12.204],[-15.048,12.207],[-15.044,12.21],[-15.04,12.212],[-15.035,12.211],[-15.03,12.21],[-15.024,12.209],[-15.019,12.21],[-15.014,12.212],[-15.008,12.213],[-15.004,12.213],[-15,12.212],[-14.996,12.211],[-14.97,12.197],[-14.965,12.196],[-14.959,12.195],[-14.94,12.193],[-14.929,12.192],[-14.925,12.195],[-14.923,12.203],[-14.922,12.249],[-14.919,12.268],[-14.921,12.282],[-14.924,12.29],[-14.928,12.294],[-14.947,12.31],[-14.95,12.314],[-14.953,12.318],[-14.955,12.323],[-14.956,12.329],[-14.959,12.427],[-14.958,12.433],[-14.953,12.435],[-14.904,12.445],[-14.889,12.45],[-14.884,12.453],[-14.872,12.462],[-14.868,12.465],[-14.862,12.466],[-14.858,12.469],[-14.854,12.472],[-14.851,12.476],[-14.85,12.481],[-14.853,12.49],[-14.856,12.495],[-14.858,12.499],[-14.861,12.502],[-14.874,12.515],[-14.899,12.531],[-14.903,12.535],[-14.905,12.54],[-14.905,12.549],[-14.898,12.564],[-14.894,12.573],[-14.884,12.587],[-14.88,12.597],[-14.864,12.623],[-14.861,12.628],[-14.859,12.635],[-14.859,12.646],[-14.861,12.658],[-14.872,12.678]]]}},{"type":"Feature","id":"GW-BL","properties":{"id":"GW-BL","countryCode":"GW","isoSubdivision":"GW-BL","name":"Bolama","name_en":"Bolama","name_ko":"볼라마","type":"Region","labelLongitude":-15.962,"labelLatitude":11.519,"minZoom":8.7},"geometry":{"type":"MultiPolygon","coordinates":[[[[-15.341,11.683],[-15.35,11.68],[-15.343,11.666],[-15.357,11.666],[-15.353,11.64],[-15.348,11.629],[-15.336,11.619],[-15.343,11.605],[-15.358,11.615],[-15.372,11.63],[-15.392,11.66],[-15.395,11.642],[-15.388,11.625],[-15.378,11.609],[-15.371,11.591],[-15.376,11.593],[-15.392,11.598],[-15.396,11.585],[-15.405,11.584],[-15.412,11.595],[-15.412,11.612],[-15.419,11.612],[-15.423,11.603],[-15.426,11.592],[-15.427,11.581],[-15.426,11.57],[-15.435,11.575],[-15.439,11.577],[-15.439,11.557],[-15.449,11.564],[-15.453,11.573],[-15.456,11.583],[-15.463,11.595],[-15.469,11.606],[-15.465,11.614],[-15.453,11.622],[-15.448,11.637],[-15.438,11.652],[-15.428,11.67],[-15.428,11.68],[-15.427,11.681],[-15.424,11.683],[-15.391,11.691],[-15.377,11.693],[-15.371,11.692],[-15.353,11.689],[-15.342,11.685],[-15.341,11.683]]],[[[-15.946,11.2],[-15.927,11.186],[-15.912,11.166],[-15.902,11.142],[-15.895,11.099],[-15.888,11.089],[-15.881,11.082],[-15.878,11.074],[-15.883,11.061],[-15.895,11.054],[-15.908,11.053],[-15.918,11.056],[-15.926,11.051],[-15.937,11.052],[-15.963,11.056],[-15.966,11.054],[-15.972,11.05],[-15.978,11.048],[-15.981,11.053],[-15.981,11.061],[-15.981,11.066],[-15.978,11.069],[-15.97,11.07],[-15.96,11.073],[-15.932,11.086],[-15.926,11.09],[-15.93,11.102],[-15.942,11.105],[-15.952,11.1],[-15.953,11.084],[-15.961,11.09],[-15.967,11.098],[-15.958,11.113],[-15.953,11.124],[-15.952,11.136],[-15.953,11.152],[-15.959,11.174],[-15.957,11.187],[-15.946,11.2]]],[[[-15.974,11.159],[-15.972,11.13],[-15.974,11.116],[-15.984,11.101],[-16.005,11.076],[-16.017,11.069],[-16.022,11.08],[-16.026,11.096],[-16.031,11.109],[-16.032,11.121],[-16.022,11.139],[-16.045,11.139],[-16.056,11.149],[-16.057,11.164],[-16.049,11.179],[-16.035,11.19],[-15.981,11.207],[-15.977,11.199],[-15.975,11.185],[-15.974,11.159]]],[[[-16.049,11.118],[-16.063,11.118],[-16.063,11.111],[-16.053,11.092],[-16.057,11.073],[-16.062,11.058],[-16.056,11.049],[-16.076,11.036],[-16.094,11.035],[-16.112,11.037],[-16.132,11.029],[-16.135,11.038],[-16.137,11.046],[-16.135,11.054],[-16.132,11.064],[-16.138,11.064],[-16.151,11.043],[-16.145,11.029],[-16.158,11.033],[-16.161,11.035],[-16.166,11.043],[-16.188,11.04],[-16.213,11.056],[-16.235,11.081],[-16.248,11.105],[-16.235,11.118],[-16.219,11.13],[-16.202,11.136],[-16.187,11.132],[-16.2,11.126],[-16.207,11.125],[-16.206,11.121],[-16.205,11.118],[-16.203,11.115],[-16.2,11.111],[-16.191,11.12],[-16.179,11.125],[-16.17,11.132],[-16.162,11.166],[-16.153,11.172],[-16.144,11.176],[-16.138,11.187],[-16.133,11.181],[-16.118,11.173],[-16.115,11.197],[-16.1,11.208],[-16.08,11.206],[-16.063,11.193],[-16.057,11.185],[-16.06,11.18],[-16.066,11.173],[-16.069,11.163],[-16.068,11.148],[-16.063,11.139],[-16.049,11.118]]],[[[-15.857,11.303],[-15.831,11.303],[-15.826,11.293],[-15.837,11.256],[-15.838,11.214],[-15.847,11.201],[-15.871,11.2],[-15.896,11.218],[-15.896,11.249],[-15.881,11.281],[-15.857,11.303]]],[[[-15.658,11.303],[-15.662,11.285],[-15.656,11.252],[-15.658,11.234],[-15.663,11.23],[-15.67,11.241],[-15.679,11.254],[-15.693,11.256],[-15.693,11.248],[-15.686,11.248],[-15.686,11.241],[-15.693,11.228],[-15.699,11.221],[-15.706,11.215],[-15.712,11.222],[-15.715,11.225],[-15.727,11.221],[-15.721,11.21],[-15.72,11.196],[-15.723,11.18],[-15.727,11.166],[-15.729,11.17],[-15.732,11.175],[-15.734,11.179],[-15.74,11.179],[-15.743,11.178],[-15.744,11.178],[-15.748,11.179],[-15.754,11.179],[-15.764,11.168],[-15.773,11.173],[-15.78,11.187],[-15.782,11.2],[-15.775,11.207],[-15.764,11.215],[-15.76,11.222],[-15.775,11.228],[-15.775,11.234],[-15.754,11.256],[-15.753,11.26],[-15.755,11.272],[-15.754,11.276],[-15.749,11.277],[-15.743,11.276],[-15.737,11.276],[-15.734,11.279],[-15.724,11.299],[-15.7,11.306],[-15.674,11.305],[-15.658,11.303]]],[[[-16.173,11.221],[-16.239,11.215],[-16.251,11.218],[-16.278,11.23],[-16.283,11.231],[-16.282,11.243],[-16.278,11.252],[-16.271,11.259],[-16.261,11.262],[-16.263,11.279],[-16.249,11.294],[-16.229,11.304],[-16.214,11.303],[-16.207,11.31],[-16.197,11.298],[-16.186,11.297],[-16.173,11.299],[-16.159,11.296],[-16.154,11.289],[-16.152,11.276],[-16.15,11.263],[-16.151,11.256],[-16.163,11.251],[-16.173,11.245],[-16.177,11.235],[-16.173,11.221]]],[[[-15.665,11.494],[-15.663,11.492],[-15.661,11.489],[-15.658,11.488],[-15.652,11.488],[-15.652,11.484],[-15.653,11.481],[-15.658,11.474],[-15.653,11.466],[-15.658,11.458],[-15.68,11.44],[-15.684,11.45],[-15.686,11.454],[-15.693,11.454],[-15.705,11.443],[-15.721,11.443],[-15.735,11.45],[-15.74,11.46],[-15.735,11.469],[-15.727,11.47],[-15.719,11.468],[-15.714,11.468],[-15.706,11.475],[-15.701,11.483],[-15.696,11.492],[-15.693,11.502],[-15.686,11.494],[-15.681,11.499],[-15.665,11.509],[-15.66,11.505],[-15.66,11.502],[-15.665,11.494]]],[[[-16.255,11.447],[-16.276,11.447],[-16.288,11.449],[-16.302,11.454],[-16.29,11.462],[-16.272,11.471],[-16.255,11.483],[-16.248,11.498],[-16.237,11.508],[-16.211,11.515],[-16.183,11.519],[-16.166,11.516],[-16.161,11.506],[-16.164,11.496],[-16.194,11.465],[-16.2,11.46],[-16.203,11.456],[-16.206,11.45],[-16.209,11.445],[-16.214,11.44],[-16.222,11.44],[-16.255,11.447]]],[[[-16.276,11.496],[-16.282,11.493],[-16.292,11.493],[-16.302,11.488],[-16.307,11.487],[-16.31,11.483],[-16.314,11.481],[-16.32,11.485],[-16.333,11.499],[-16.337,11.502],[-16.339,11.501],[-16.391,11.502],[-16.401,11.494],[-16.409,11.489],[-16.419,11.488],[-16.416,11.495],[-16.412,11.502],[-16.418,11.514],[-16.417,11.517],[-16.412,11.522],[-16.422,11.528],[-16.426,11.529],[-16.389,11.548],[-16.348,11.549],[-16.31,11.553],[-16.283,11.584],[-16.278,11.582],[-16.277,11.582],[-16.277,11.581],[-16.275,11.577],[-16.268,11.577],[-16.26,11.578],[-16.254,11.58],[-16.248,11.584],[-16.244,11.581],[-16.243,11.578],[-16.241,11.57],[-16.245,11.552],[-16.252,11.537],[-16.269,11.516],[-16.273,11.507],[-16.274,11.501],[-16.276,11.496]]],[[[-16.022,11.512],[-16.019,11.529],[-16.011,11.55],[-16.001,11.569],[-15.991,11.577],[-15.975,11.583],[-15.952,11.607],[-15.94,11.605],[-15.938,11.589],[-15.931,11.579],[-15.922,11.578],[-15.918,11.591],[-15.906,11.578],[-15.909,11.552],[-15.898,11.543],[-15.91,11.523],[-15.913,11.498],[-15.909,11.474],[-15.898,11.454],[-15.918,11.447],[-15.944,11.432],[-15.966,11.427],[-15.974,11.447],[-15.981,11.447],[-15.983,11.443],[-15.985,11.438],[-15.987,11.433],[-15.991,11.437],[-15.998,11.444],[-16.001,11.447],[-16.007,11.436],[-16.016,11.428],[-16.026,11.423],[-16.035,11.42],[-16.045,11.433],[-16.079,11.457],[-16.084,11.468],[-16.049,11.488],[-16.026,11.512],[-16.022,11.512]]],[[[-15.473,11.632],[-15.474,11.619],[-15.485,11.607],[-15.488,11.595],[-15.482,11.584],[-15.473,11.573],[-15.472,11.566],[-15.491,11.563],[-15.503,11.565],[-15.512,11.571],[-15.521,11.57],[-15.523,11.567],[-15.542,11.55],[-15.547,11.549],[-15.57,11.55],[-15.57,11.543],[-15.548,11.535],[-15.552,11.52],[-15.566,11.51],[-15.576,11.522],[-15.587,11.519],[-15.601,11.521],[-15.612,11.524],[-15.617,11.526],[-15.622,11.522],[-15.63,11.529],[-15.633,11.538],[-15.621,11.543],[-15.607,11.55],[-15.598,11.565],[-15.586,11.578],[-15.562,11.577],[-15.56,11.592],[-15.55,11.603],[-15.538,11.613],[-15.529,11.625],[-15.512,11.62],[-15.497,11.625],[-15.484,11.631],[-15.473,11.632]]]]}},{"type":"Feature","id":"GW-BM","properties":{"id":"GW-BM","countryCode":"GW","isoSubdivision":"GW-BM","name":"Biombo","name_en":"Biombo","name_ko":"비옴부","type":"Region","labelLongitude":-15.784,"labelLatitude":11.811,"minZoom":8.7},"geometry":{"type":"MultiPolygon","coordinates":[[[[-15.677,11.805],[-15.68,11.804],[-15.744,11.792],[-15.754,11.786],[-15.764,11.778],[-15.811,11.753],[-15.83,11.748],[-15.81,11.83],[-15.791,11.863],[-15.767,11.865],[-15.762,11.861],[-15.754,11.859],[-15.745,11.858],[-15.734,11.858],[-15.734,11.865],[-15.753,11.866],[-15.776,11.886],[-15.796,11.885],[-15.812,11.874],[-15.816,11.857],[-15.818,11.838],[-15.85,11.775],[-15.86,11.769],[-15.88,11.774],[-15.884,11.787],[-15.878,11.824],[-15.894,11.816],[-15.898,11.8],[-15.899,11.78],[-15.906,11.762],[-15.912,11.759],[-15.934,11.751],[-15.943,11.745],[-15.953,11.736],[-15.959,11.735],[-15.963,11.739],[-15.967,11.748],[-15.97,11.768],[-15.964,11.788],[-15.946,11.824],[-15.932,11.88],[-15.926,11.893],[-15.922,11.897],[-15.916,11.901],[-15.908,11.905],[-15.902,11.906],[-15.898,11.91],[-15.891,11.934],[-15.865,11.972],[-15.857,11.981],[-15.843,11.989],[-15.822,11.998],[-15.799,12.003],[-15.782,12.003],[-15.777,11.997],[-15.773,11.988],[-15.768,11.979],[-15.758,11.975],[-15.738,11.974],[-15.729,11.971],[-15.721,11.967],[-15.717,11.982],[-15.71,11.996],[-15.706,12.008],[-15.707,12.009],[-15.706,12.01],[-15.666,12.031],[-15.634,11.992],[-15.63,11.987],[-15.624,11.966],[-15.671,11.881],[-15.678,11.848],[-15.678,11.83],[-15.677,11.805]]],[[[-16.166,11.871],[-16.148,11.877],[-16.129,11.877],[-16.093,11.871],[-16.08,11.873],[-16.065,11.878],[-16.035,11.893],[-16.039,11.897],[-16.039,11.898],[-16.037,11.899],[-16.023,11.9],[-16.009,11.9],[-15.995,11.899],[-15.988,11.89],[-15.986,11.887],[-15.989,11.862],[-15.997,11.849],[-16.007,11.838],[-16.015,11.824],[-16.024,11.785],[-16.029,11.769],[-16.041,11.755],[-16.052,11.762],[-16.063,11.761],[-16.075,11.756],[-16.084,11.755],[-16.096,11.763],[-16.121,11.8],[-16.133,11.805],[-16.145,11.805],[-16.155,11.808],[-16.159,11.82],[-16.159,11.848],[-16.161,11.861],[-16.166,11.871]]]]}},{"type":"Feature","id":"GW-BS","properties":{"id":"GW-BS","countryCode":"GW","isoSubdivision":"GW-BS","name":"Bissau","name_en":"Bissau","name_ko":"비사우","type":"Autonomous Sector","labelLongitude":-15.612,"labelLatitude":11.892,"minZoom":8.7},"geometry":{"type":"Polygon","coordinates":[[[-15.546,11.898],[-15.549,11.897],[-15.555,11.893],[-15.585,11.851],[-15.593,11.845],[-15.613,11.839],[-15.658,11.813],[-15.677,11.805],[-15.678,11.83],[-15.678,11.848],[-15.671,11.881],[-15.624,11.966],[-15.612,11.945],[-15.609,11.941],[-15.603,11.937],[-15.591,11.933],[-15.583,11.929],[-15.57,11.914],[-15.564,11.909],[-15.546,11.898]]]}},{"type":"Feature","id":"GW-CA","properties":{"id":"GW-CA","countryCode":"GW","isoSubdivision":"GW-CA","name":"Cacheu","name_en":"Cacheu","name_ko":"카셰우","type":"Region","labelLongitude":-16.063,"labelLatitude":12.19,"minZoom":8.7},"geometry":{"type":"Polygon","coordinates":[[[-15.712,12.432],[-15.677,12.439],[-15.425,12.555],[-15.422,12.557],[-15.419,12.551],[-15.401,12.49],[-15.397,12.467],[-15.398,12.454],[-15.4,12.44],[-15.406,12.417],[-15.411,12.411],[-15.416,12.407],[-15.421,12.405],[-15.454,12.382],[-15.46,12.38],[-15.466,12.38],[-15.47,12.383],[-15.473,12.387],[-15.478,12.403],[-15.482,12.406],[-15.488,12.406],[-15.494,12.406],[-15.498,12.405],[-15.502,12.404],[-15.506,12.404],[-15.511,12.405],[-15.519,12.404],[-15.529,12.4],[-15.547,12.388],[-15.557,12.383],[-15.576,12.376],[-15.615,12.352],[-15.62,12.346],[-15.625,12.337],[-15.63,12.332],[-15.65,12.322],[-15.656,12.321],[-15.674,12.322],[-15.682,12.321],[-15.691,12.317],[-15.694,12.313],[-15.694,12.308],[-15.692,12.303],[-15.693,12.297],[-15.697,12.294],[-15.703,12.292],[-15.709,12.291],[-15.714,12.291],[-15.718,12.294],[-15.72,12.303],[-15.723,12.308],[-15.728,12.305],[-15.734,12.298],[-15.745,12.283],[-15.746,12.276],[-15.744,12.272],[-15.742,12.268],[-15.743,12.262],[-15.751,12.255],[-15.753,12.251],[-15.753,12.246],[-15.751,12.242],[-15.748,12.238],[-15.734,12.223],[-15.711,12.204],[-15.701,12.193],[-15.697,12.19],[-15.693,12.187],[-15.688,12.185],[-15.662,12.176],[-15.657,12.173],[-15.654,12.17],[-15.651,12.165],[-15.651,12.158],[-15.652,12.147],[-15.664,12.106],[-15.664,12.1],[-15.663,12.094],[-15.662,12.088],[-15.662,12.079],[-15.67,12.05],[-15.67,12.044],[-15.669,12.039],[-15.666,12.031],[-15.706,12.01],[-15.707,12.009],[-15.706,12.008],[-15.714,12.016],[-15.719,12.012],[-15.729,12.003],[-15.743,11.995],[-15.761,11.995],[-15.767,11.999],[-15.774,12.011],[-15.782,12.016],[-15.791,12.018],[-15.795,12.018],[-15.799,12.017],[-15.837,12.014],[-15.85,12.017],[-15.857,12.029],[-15.864,12.029],[-15.871,12.013],[-15.89,12.003],[-15.913,11.997],[-15.933,11.995],[-15.93,11.988],[-15.929,11.985],[-15.926,11.981],[-15.929,11.98],[-15.932,11.98],[-15.933,11.979],[-15.933,11.975],[-15.941,11.979],[-15.946,11.984],[-15.946,11.979],[-15.943,11.965],[-15.945,11.953],[-15.953,11.94],[-15.968,11.927],[-15.982,11.921],[-16.056,11.92],[-16.065,11.917],[-16.085,11.908],[-16.093,11.906],[-16.099,11.903],[-16.105,11.895],[-16.113,11.888],[-16.125,11.885],[-16.134,11.889],[-16.143,11.896],[-16.159,11.913],[-16.183,11.908],[-16.215,11.914],[-16.243,11.925],[-16.255,11.937],[-16.275,11.981],[-16.285,11.987],[-16.312,11.991],[-16.323,11.995],[-16.332,12.005],[-16.338,12.017],[-16.342,12.031],[-16.345,12.062],[-16.355,12.087],[-16.357,12.101],[-16.33,12.159],[-16.32,12.172],[-16.308,12.181],[-16.296,12.188],[-16.283,12.194],[-16.282,12.182],[-16.277,12.173],[-16.27,12.171],[-16.261,12.18],[-16.26,12.189],[-16.269,12.203],[-16.269,12.214],[-16.257,12.23],[-16.24,12.24],[-16.222,12.248],[-16.148,12.291],[-16.132,12.304],[-16.124,12.313],[-16.113,12.33],[-16.104,12.338],[-16.095,12.342],[-16.073,12.347],[-16.063,12.351],[-16.09,12.352],[-16.108,12.345],[-16.121,12.331],[-16.135,12.314],[-16.155,12.3],[-16.207,12.289],[-16.228,12.283],[-16.262,12.261],[-16.272,12.252],[-16.306,12.214],[-16.325,12.222],[-16.323,12.241],[-16.316,12.263],[-16.316,12.283],[-16.322,12.268],[-16.334,12.248],[-16.34,12.212],[-16.35,12.197],[-16.365,12.192],[-16.385,12.201],[-16.391,12.194],[-16.394,12.198],[-16.406,12.208],[-16.408,12.194],[-16.416,12.188],[-16.428,12.187],[-16.443,12.187],[-16.446,12.183],[-16.452,12.176],[-16.458,12.172],[-16.46,12.177],[-16.462,12.181],[-16.466,12.184],[-16.472,12.186],[-16.491,12.19],[-16.501,12.197],[-16.506,12.206],[-16.508,12.218],[-16.514,12.223],[-16.538,12.25],[-16.539,12.256],[-16.546,12.26],[-16.567,12.277],[-16.576,12.283],[-16.581,12.282],[-16.596,12.276],[-16.604,12.277],[-16.61,12.281],[-16.619,12.297],[-16.624,12.304],[-16.661,12.332],[-16.673,12.338],[-16.688,12.338],[-16.699,12.333],[-16.709,12.327],[-16.721,12.324],[-16.728,12.333],[-16.706,12.348],[-16.669,12.357],[-16.533,12.348],[-16.515,12.349],[-16.463,12.361],[-16.412,12.362],[-16.382,12.374],[-16.302,12.416],[-16.233,12.453],[-16.222,12.455],[-16.212,12.453],[-16.19,12.445],[-16.182,12.443],[-16.177,12.445],[-16.173,12.449],[-16.166,12.451],[-16.091,12.464],[-16.055,12.461],[-15.992,12.441],[-15.973,12.437],[-15.894,12.443],[-15.884,12.442],[-15.712,12.432]]]}},{"type":"Feature","id":"GW-GA","properties":{"id":"GW-GA","countryCode":"GW","isoSubdivision":"GW-GA","name":"Gabú","name_en":"Gabú","name_ko":"가부","type":"Region","labelLongitude":-14.11,"labelLatitude":12.157,"minZoom":8.7},"geometry":{"type":"Polygon","coordinates":[[[-13.695,12.292],[-13.712,12.268],[-13.741,12.257],[-13.809,12.256],[-13.796,12.279],[-13.813,12.284],[-13.84,12.277],[-13.859,12.266],[-13.883,12.246],[-13.944,12.219],[-13.966,12.194],[-13.968,12.184],[-13.968,12.163],[-13.973,12.152],[-13.965,12.148],[-13.939,12.144],[-13.918,12.138],[-13.899,12.126],[-13.88,12.108],[-13.87,12.101],[-13.842,12.091],[-13.838,12.085],[-13.835,12.078],[-13.83,12.068],[-13.808,12.044],[-13.796,12.036],[-13.78,12.029],[-13.744,12.024],[-13.735,12.019],[-13.724,12.003],[-13.723,11.984],[-13.731,11.943],[-13.735,11.902],[-13.719,11.784],[-13.72,11.766],[-13.725,11.723],[-13.73,11.71],[-13.746,11.698],[-13.77,11.689],[-13.796,11.684],[-13.816,11.687],[-13.822,11.694],[-13.82,11.702],[-13.82,11.708],[-13.835,11.712],[-13.843,11.717],[-13.846,11.737],[-13.855,11.743],[-13.87,11.744],[-13.873,11.738],[-13.869,11.727],[-13.871,11.704],[-13.874,11.695],[-13.886,11.676],[-13.904,11.665],[-13.924,11.665],[-13.945,11.676],[-13.953,11.67],[-13.996,11.644],[-14.015,11.637],[-14.059,11.644],[-14.075,11.644],[-14.105,11.639],[-14.119,11.638],[-14.135,11.642],[-14.144,11.647],[-14.153,11.655],[-14.162,11.661],[-14.172,11.663],[-14.195,11.66],[-14.279,11.665],[-14.284,11.668],[-14.29,11.669],[-14.3,11.663],[-14.308,11.655],[-14.32,11.631],[-14.326,11.621],[-14.339,11.611],[-14.432,11.561],[-14.455,11.592],[-14.46,11.61],[-14.46,11.617],[-14.464,11.632],[-14.507,11.642],[-14.502,11.697],[-14.498,11.711],[-14.495,11.713],[-14.491,11.716],[-14.474,11.723],[-14.469,11.727],[-14.461,11.736],[-14.46,11.742],[-14.461,11.747],[-14.464,11.75],[-14.471,11.757],[-14.474,11.762],[-14.476,11.768],[-14.476,11.787],[-14.481,11.824],[-14.483,11.869],[-14.482,11.881],[-14.481,11.89],[-14.469,11.924],[-14.468,11.932],[-14.47,11.937],[-14.473,11.941],[-14.494,11.956],[-14.498,11.96],[-14.501,11.965],[-14.504,11.974],[-14.503,11.98],[-14.502,11.985],[-14.499,11.987],[-14.496,11.994],[-14.492,12.006],[-14.487,12.034],[-14.487,12.047],[-14.49,12.055],[-14.494,12.057],[-14.509,12.064],[-14.517,12.069],[-14.521,12.072],[-14.525,12.077],[-14.529,12.087],[-14.529,12.096],[-14.527,12.107],[-14.524,12.113],[-14.519,12.117],[-14.514,12.118],[-14.508,12.118],[-14.496,12.116],[-14.491,12.116],[-14.486,12.117],[-14.482,12.119],[-14.471,12.128],[-14.467,12.13],[-14.462,12.131],[-14.457,12.131],[-14.451,12.134],[-14.444,12.141],[-14.436,12.163],[-14.434,12.175],[-14.435,12.183],[-14.438,12.187],[-14.442,12.189],[-14.452,12.193],[-14.457,12.195],[-14.461,12.198],[-14.464,12.201],[-14.466,12.204],[-14.468,12.207],[-14.483,12.259],[-14.484,12.267],[-14.482,12.273],[-14.477,12.283],[-14.474,12.289],[-14.471,12.301],[-14.471,12.308],[-14.472,12.314],[-14.475,12.318],[-14.482,12.325],[-14.491,12.33],[-14.495,12.331],[-14.512,12.336],[-14.517,12.338],[-14.521,12.341],[-14.525,12.345],[-14.53,12.353],[-14.534,12.357],[-14.538,12.359],[-14.555,12.362],[-14.556,12.364],[-14.557,12.366],[-14.556,12.368],[-14.554,12.37],[-14.552,12.373],[-14.55,12.377],[-14.553,12.38],[-14.557,12.382],[-14.558,12.385],[-14.557,12.389],[-14.555,12.393],[-14.551,12.397],[-14.548,12.4],[-14.544,12.402],[-14.54,12.402],[-14.532,12.399],[-14.527,12.398],[-14.521,12.399],[-14.515,12.4],[-14.509,12.402],[-14.505,12.405],[-14.501,12.409],[-14.501,12.412],[-14.502,12.416],[-14.504,12.421],[-14.509,12.438],[-14.508,12.445],[-14.506,12.449],[-14.502,12.45],[-14.5,12.449],[-14.497,12.446],[-14.493,12.438],[-14.489,12.436],[-14.485,12.435],[-14.482,12.438],[-14.479,12.441],[-14.475,12.444],[-14.47,12.447],[-14.465,12.448],[-14.459,12.454],[-14.457,12.46],[-14.457,12.466],[-14.459,12.471],[-14.462,12.475],[-14.475,12.49],[-14.479,12.493],[-14.483,12.495],[-14.487,12.496],[-14.492,12.494],[-14.506,12.486],[-14.511,12.484],[-14.516,12.483],[-14.521,12.483],[-14.526,12.485],[-14.53,12.491],[-14.533,12.501],[-14.536,12.518],[-14.535,12.527],[-14.533,12.534],[-14.528,12.536],[-14.524,12.536],[-14.519,12.532],[-14.519,12.527],[-14.52,12.521],[-14.519,12.516],[-14.515,12.515],[-14.51,12.515],[-14.502,12.519],[-14.5,12.518],[-14.497,12.516],[-14.494,12.512],[-14.489,12.511],[-14.484,12.511],[-14.473,12.512],[-14.468,12.511],[-14.464,12.508],[-14.461,12.499],[-14.459,12.497],[-14.456,12.495],[-14.452,12.495],[-14.448,12.496],[-14.445,12.498],[-14.433,12.51],[-14.43,12.513],[-14.425,12.515],[-14.419,12.515],[-14.414,12.513],[-14.41,12.51],[-14.404,12.504],[-14.401,12.501],[-14.399,12.5],[-14.394,12.5],[-14.391,12.5],[-14.389,12.501],[-14.387,12.502],[-14.384,12.506],[-14.38,12.513],[-14.374,12.527],[-14.373,12.534],[-14.375,12.538],[-14.379,12.539],[-14.383,12.54],[-14.389,12.547],[-14.399,12.55],[-14.403,12.553],[-14.406,12.558],[-14.409,12.571],[-14.414,12.628],[-14.412,12.635],[-14.408,12.637],[-14.405,12.634],[-14.397,12.628],[-14.392,12.62],[-14.388,12.617],[-14.384,12.615],[-14.378,12.616],[-14.373,12.618],[-14.368,12.622],[-14.364,12.629],[-14.359,12.643],[-14.343,12.676],[-14.083,12.675],[-13.728,12.673],[-13.736,12.608],[-13.735,12.585],[-13.725,12.558],[-13.675,12.496],[-13.663,12.476],[-13.661,12.459],[-13.664,12.442],[-13.682,12.4],[-13.684,12.392],[-13.685,12.379],[-13.682,12.35],[-13.683,12.339],[-13.691,12.319],[-13.695,12.293],[-13.695,12.292]]]}},{"type":"Feature","id":"GW-OI","properties":{"id":"GW-OI","countryCode":"GW","isoSubdivision":"GW-OI","name":"Oio","name_en":"Oio","name_ko":"오이우","type":"Region","labelLongitude":-15.301,"labelLatitude":12.279,"minZoom":8.7},"geometry":{"type":"Polygon","coordinates":[[[-15.146,12.679],[-14.872,12.678],[-14.861,12.658],[-14.859,12.646],[-14.859,12.635],[-14.861,12.628],[-14.864,12.623],[-14.88,12.597],[-14.884,12.587],[-14.894,12.573],[-14.898,12.564],[-14.905,12.549],[-14.905,12.54],[-14.903,12.535],[-14.899,12.531],[-14.874,12.515],[-14.861,12.502],[-14.858,12.499],[-14.856,12.495],[-14.853,12.49],[-14.85,12.481],[-14.851,12.476],[-14.854,12.472],[-14.858,12.469],[-14.862,12.466],[-14.868,12.465],[-14.872,12.462],[-14.884,12.453],[-14.889,12.45],[-14.904,12.445],[-14.953,12.435],[-14.958,12.433],[-14.959,12.427],[-14.956,12.329],[-14.955,12.323],[-14.953,12.318],[-14.95,12.314],[-14.947,12.31],[-14.928,12.294],[-14.924,12.29],[-14.921,12.282],[-14.919,12.268],[-14.922,12.249],[-14.923,12.203],[-14.925,12.195],[-14.929,12.192],[-14.94,12.193],[-14.959,12.195],[-14.965,12.196],[-14.97,12.197],[-14.996,12.211],[-15,12.212],[-15.004,12.213],[-15.008,12.213],[-15.014,12.212],[-15.019,12.21],[-15.024,12.209],[-15.03,12.21],[-15.035,12.211],[-15.04,12.212],[-15.044,12.21],[-15.048,12.207],[-15.052,12.204],[-15.062,12.192],[-15.069,12.181],[-15.071,12.174],[-15.07,12.167],[-15.039,12.114],[-15.035,12.105],[-15.031,12.08],[-15.029,12.075],[-15.026,12.071],[-15.022,12.069],[-15.01,12.066],[-15.002,12.062],[-14.997,12.058],[-14.956,12.035],[-14.953,12.031],[-14.955,12.025],[-14.959,12.016],[-14.96,12.01],[-14.961,12.003],[-14.96,12.001],[-14.959,11.996],[-14.952,11.982],[-14.95,11.975],[-14.949,11.972],[-14.95,11.969],[-14.952,11.967],[-14.955,11.965],[-14.959,11.963],[-14.963,11.96],[-14.969,11.958],[-14.979,11.956],[-14.991,11.957],[-14.994,11.958],[-14.994,11.964],[-15,11.971],[-15.007,11.975],[-15.007,11.978],[-15.018,11.982],[-15.029,11.982],[-15.039,11.978],[-15.047,11.976],[-15.069,11.985],[-15.08,11.988],[-15.094,11.984],[-15.125,11.965],[-15.141,11.961],[-15.149,11.955],[-15.178,11.923],[-15.192,11.913],[-15.215,11.91],[-15.234,11.913],[-15.274,11.926],[-15.313,11.933],[-15.325,11.939],[-15.34,11.951],[-15.359,11.963],[-15.381,11.968],[-15.404,11.967],[-15.426,11.961],[-15.434,11.956],[-15.45,11.943],[-15.456,11.94],[-15.478,11.941],[-15.489,11.941],[-15.497,11.937],[-15.529,11.906],[-15.535,11.902],[-15.546,11.898],[-15.564,11.909],[-15.57,11.914],[-15.583,11.929],[-15.591,11.933],[-15.603,11.937],[-15.609,11.941],[-15.612,11.945],[-15.624,11.966],[-15.63,11.987],[-15.634,11.992],[-15.666,12.031],[-15.669,12.039],[-15.67,12.044],[-15.67,12.05],[-15.662,12.079],[-15.662,12.088],[-15.663,12.094],[-15.664,12.1],[-15.664,12.106],[-15.652,12.147],[-15.651,12.158],[-15.651,12.165],[-15.654,12.17],[-15.657,12.173],[-15.662,12.176],[-15.688,12.185],[-15.693,12.187],[-15.697,12.19],[-15.701,12.193],[-15.711,12.204],[-15.734,12.223],[-15.748,12.238],[-15.751,12.242],[-15.753,12.246],[-15.753,12.251],[-15.751,12.255],[-15.743,12.262],[-15.742,12.268],[-15.744,12.272],[-15.746,12.276],[-15.745,12.283],[-15.734,12.298],[-15.728,12.305],[-15.723,12.308],[-15.72,12.303],[-15.718,12.294],[-15.714,12.291],[-15.709,12.291],[-15.703,12.292],[-15.697,12.294],[-15.693,12.297],[-15.692,12.303],[-15.694,12.308],[-15.694,12.313],[-15.691,12.317],[-15.682,12.321],[-15.674,12.322],[-15.656,12.321],[-15.65,12.322],[-15.63,12.332],[-15.625,12.337],[-15.62,12.346],[-15.615,12.352],[-15.576,12.376],[-15.557,12.383],[-15.547,12.388],[-15.529,12.4],[-15.519,12.404],[-15.511,12.405],[-15.506,12.404],[-15.502,12.404],[-15.498,12.405],[-15.494,12.406],[-15.488,12.406],[-15.482,12.406],[-15.478,12.403],[-15.473,12.387],[-15.47,12.383],[-15.466,12.38],[-15.46,12.38],[-15.454,12.382],[-15.421,12.405],[-15.416,12.407],[-15.411,12.411],[-15.406,12.417],[-15.4,12.44],[-15.398,12.454],[-15.397,12.467],[-15.401,12.49],[-15.419,12.551],[-15.422,12.557],[-15.369,12.595],[-15.308,12.623],[-15.25,12.664],[-15.224,12.675],[-15.195,12.679],[-15.146,12.679]]]}},{"type":"Feature","id":"GW-QU","properties":{"id":"GW-QU","countryCode":"GW","isoSubdivision":"GW-QU","name":"Quinara","name_en":"Quinara","name_ko":"키나라","type":"Region","labelLongitude":-15.19,"labelLatitude":11.558,"minZoom":8.7},"geometry":{"type":"Polygon","coordinates":[[[-15.428,11.68],[-15.426,11.694],[-15.459,11.663],[-15.476,11.654],[-15.494,11.666],[-15.489,11.675],[-15.489,11.696],[-15.488,11.708],[-15.501,11.709],[-15.509,11.705],[-15.515,11.699],[-15.521,11.694],[-15.522,11.69],[-15.529,11.682],[-15.538,11.676],[-15.542,11.683],[-15.546,11.7],[-15.551,11.716],[-15.551,11.733],[-15.533,11.76],[-15.525,11.782],[-15.518,11.793],[-15.48,11.83],[-15.469,11.838],[-15.463,11.84],[-15.46,11.843],[-15.46,11.855],[-15.457,11.865],[-15.452,11.873],[-15.439,11.885],[-15.432,11.885],[-15.43,11.879],[-15.427,11.876],[-15.423,11.874],[-15.419,11.871],[-15.415,11.881],[-15.41,11.884],[-15.404,11.883],[-15.398,11.885],[-15.375,11.885],[-15.335,11.874],[-15.313,11.871],[-15.189,11.871],[-15.184,11.875],[-15.167,11.89],[-15.162,11.893],[-15.136,11.899],[-15.119,11.913],[-15.106,11.929],[-15.09,11.94],[-15.067,11.94],[-15.063,11.925],[-15.07,11.905],[-15.08,11.889],[-15.087,11.87],[-15.086,11.845],[-15.08,11.821],[-15.069,11.804],[-15.05,11.795],[-15.025,11.791],[-15.003,11.784],[-14.993,11.766],[-14.982,11.754],[-14.959,11.749],[-14.936,11.753],[-14.925,11.769],[-14.925,11.77],[-14.921,11.783],[-14.914,11.788],[-14.904,11.789],[-14.895,11.785],[-14.891,11.778],[-14.89,11.77],[-14.884,11.761],[-14.88,11.752],[-14.878,11.749],[-14.872,11.752],[-14.867,11.754],[-14.863,11.753],[-14.838,11.742],[-14.834,11.738],[-14.838,11.73],[-14.863,11.701],[-14.861,11.695],[-14.83,11.699],[-14.854,11.656],[-14.899,11.59],[-14.912,11.561],[-14.914,11.555],[-14.915,11.543],[-14.914,11.524],[-14.914,11.518],[-14.916,11.513],[-14.917,11.508],[-14.92,11.504],[-14.923,11.5],[-14.927,11.496],[-14.933,11.488],[-14.945,11.464],[-14.956,11.448],[-14.962,11.444],[-14.97,11.44],[-15.009,11.431],[-15.014,11.429],[-15.024,11.425],[-15.029,11.423],[-15.053,11.42],[-15.089,11.407],[-15.096,11.407],[-15.104,11.409],[-15.115,11.414],[-15.121,11.419],[-15.126,11.423],[-15.142,11.442],[-15.145,11.445],[-15.149,11.447],[-15.157,11.45],[-15.173,11.462],[-15.191,11.471],[-15.196,11.473],[-15.215,11.467],[-15.264,11.427],[-15.273,11.42],[-15.268,11.433],[-15.323,11.389],[-15.343,11.378],[-15.358,11.387],[-15.362,11.399],[-15.357,11.43],[-15.351,11.439],[-15.339,11.452],[-15.331,11.463],[-15.336,11.468],[-15.353,11.463],[-15.366,11.451],[-15.375,11.434],[-15.378,11.416],[-15.384,11.405],[-15.399,11.397],[-15.415,11.392],[-15.426,11.385],[-15.436,11.369],[-15.441,11.356],[-15.449,11.347],[-15.47,11.344],[-15.483,11.34],[-15.494,11.334],[-15.503,11.337],[-15.507,11.358],[-15.504,11.369],[-15.489,11.405],[-15.484,11.413],[-15.481,11.419],[-15.453,11.46],[-15.471,11.461],[-15.477,11.468],[-15.476,11.48],[-15.473,11.494],[-15.466,11.49],[-15.457,11.489],[-15.448,11.493],[-15.439,11.502],[-15.438,11.496],[-15.432,11.481],[-15.428,11.494],[-15.421,11.505],[-15.412,11.508],[-15.405,11.494],[-15.398,11.494],[-15.399,11.504],[-15.401,11.513],[-15.406,11.522],[-15.412,11.529],[-15.407,11.53],[-15.407,11.531],[-15.407,11.533],[-15.405,11.536],[-15.396,11.532],[-15.385,11.53],[-15.371,11.529],[-15.354,11.525],[-15.349,11.528],[-15.357,11.543],[-15.353,11.551],[-15.35,11.563],[-15.343,11.563],[-15.335,11.552],[-15.321,11.554],[-15.31,11.554],[-15.309,11.536],[-15.29,11.543],[-15.29,11.556],[-15.302,11.572],[-15.316,11.584],[-15.321,11.581],[-15.324,11.58],[-15.336,11.577],[-15.336,11.584],[-15.315,11.591],[-15.304,11.597],[-15.295,11.605],[-15.287,11.592],[-15.275,11.578],[-15.258,11.57],[-15.24,11.577],[-15.252,11.579],[-15.253,11.586],[-15.251,11.595],[-15.254,11.605],[-15.262,11.609],[-15.27,11.609],[-15.277,11.612],[-15.281,11.625],[-15.27,11.621],[-15.248,11.617],[-15.24,11.612],[-15.226,11.619],[-15.229,11.612],[-15.231,11.598],[-15.234,11.591],[-15.209,11.574],[-15.202,11.575],[-15.192,11.591],[-15.197,11.6],[-15.21,11.617],[-15.213,11.622],[-15.21,11.629],[-15.203,11.636],[-15.194,11.643],[-15.186,11.646],[-15.184,11.644],[-15.176,11.639],[-15.166,11.634],[-15.155,11.632],[-15.148,11.629],[-15.145,11.62],[-15.144,11.609],[-15.144,11.598],[-15.125,11.605],[-15.127,11.608],[-15.129,11.615],[-15.131,11.619],[-15.116,11.618],[-15.106,11.612],[-15.098,11.603],[-15.09,11.591],[-15.129,11.584],[-15.144,11.584],[-15.139,11.578],[-15.137,11.575],[-15.133,11.572],[-15.125,11.57],[-15.129,11.554],[-15.123,11.545],[-15.115,11.546],[-15.105,11.573],[-15.093,11.574],[-15.082,11.572],[-15.076,11.574],[-15.045,11.575],[-15.035,11.577],[-15.024,11.583],[-15.016,11.589],[-15.011,11.598],[-15.007,11.612],[-15.02,11.608],[-15.029,11.603],[-15.039,11.599],[-15.072,11.596],[-15.08,11.598],[-15.083,11.608],[-15.081,11.613],[-15.076,11.616],[-15.069,11.618],[-15.062,11.619],[-15.066,11.628],[-15.066,11.633],[-15.062,11.646],[-15.073,11.649],[-15.082,11.643],[-15.088,11.633],[-15.09,11.619],[-15.104,11.634],[-15.112,11.639],[-15.125,11.638],[-15.125,11.646],[-15.118,11.65],[-15.103,11.666],[-15.103,11.673],[-15.11,11.687],[-15.117,11.687],[-15.131,11.653],[-15.143,11.65],[-15.158,11.658],[-15.172,11.66],[-15.161,11.675],[-15.147,11.682],[-15.135,11.69],[-15.131,11.708],[-15.139,11.699],[-15.149,11.695],[-15.158,11.695],[-15.166,11.701],[-15.172,11.701],[-15.173,11.691],[-15.176,11.684],[-15.182,11.681],[-15.192,11.68],[-15.189,11.665],[-15.197,11.662],[-15.207,11.667],[-15.213,11.68],[-15.228,11.659],[-15.236,11.664],[-15.231,11.681],[-15.207,11.694],[-15.215,11.7],[-15.219,11.708],[-15.218,11.718],[-15.213,11.728],[-15.207,11.728],[-15.202,11.725],[-15.198,11.724],[-15.186,11.722],[-15.191,11.735],[-15.199,11.745],[-15.22,11.755],[-15.226,11.755],[-15.229,11.739],[-15.236,11.726],[-15.241,11.712],[-15.24,11.694],[-15.25,11.69],[-15.259,11.677],[-15.268,11.673],[-15.274,11.677],[-15.271,11.686],[-15.261,11.701],[-15.273,11.706],[-15.275,11.718],[-15.268,11.748],[-15.278,11.743],[-15.284,11.734],[-15.288,11.723],[-15.289,11.711],[-15.293,11.71],[-15.313,11.711],[-15.323,11.708],[-15.309,11.701],[-15.309,11.694],[-15.298,11.686],[-15.286,11.679],[-15.281,11.67],[-15.285,11.656],[-15.294,11.653],[-15.303,11.657],[-15.309,11.666],[-15.314,11.659],[-15.318,11.65],[-15.321,11.641],[-15.323,11.632],[-15.33,11.671],[-15.336,11.684],[-15.341,11.683],[-15.342,11.685],[-15.353,11.689],[-15.371,11.692],[-15.377,11.693],[-15.391,11.691],[-15.424,11.683],[-15.427,11.681],[-15.428,11.68]]]}},{"type":"Feature","id":"GW-TO","properties":{"id":"GW-TO","countryCode":"GW","isoSubdivision":"GW-TO","name":"Tombali","name_en":"Tombali","name_ko":"톰발리","type":"Region","labelLongitude":-14.929,"labelLatitude":11.293,"minZoom":8.7},"geometry":{"type":"Polygon","coordinates":[[[-14.432,11.561],[-14.521,11.513],[-14.562,11.506],[-14.645,11.515],[-14.687,11.511],[-14.711,11.498],[-14.729,11.478],[-14.828,11.335],[-14.843,11.297],[-14.863,11.219],[-14.959,11.036],[-14.993,10.996],[-15.021,10.967],[-15.06,10.94],[-15.085,10.928],[-15.097,10.929],[-15.094,10.943],[-15.087,10.949],[-15.078,10.954],[-15.069,10.96],[-15.055,10.983],[-15.048,10.988],[-15.048,10.995],[-15.056,10.995],[-15.06,10.985],[-15.065,10.977],[-15.072,10.971],[-15.083,10.967],[-15.095,10.967],[-15.106,10.969],[-15.114,10.975],[-15.117,10.984],[-15.099,11.058],[-15.093,11.07],[-15.083,11.075],[-15.076,11.088],[-15.072,11.103],[-15.066,11.115],[-15.06,11.117],[-15.047,11.117],[-15.042,11.118],[-15.041,11.122],[-15.043,11.135],[-15.042,11.139],[-15.001,11.142],[-15.002,11.151],[-15.008,11.157],[-15.014,11.163],[-15.021,11.166],[-15.008,11.18],[-15,11.199],[-15.001,11.217],[-15.015,11.228],[-15.024,11.201],[-15.039,11.183],[-15.059,11.171],[-15.083,11.166],[-15.078,11.15],[-15.082,11.14],[-15.092,11.138],[-15.103,11.146],[-15.105,11.14],[-15.108,11.136],[-15.11,11.132],[-15.11,11.125],[-15.114,11.128],[-15.125,11.132],[-15.125,11.113],[-15.131,11.104],[-15.141,11.097],[-15.155,11.087],[-15.166,11.072],[-15.181,11.044],[-15.207,11.01],[-15.218,10.999],[-15.23,10.995],[-15.243,11],[-15.258,11.014],[-15.27,11.028],[-15.271,11.039],[-15.26,11.047],[-15.23,11.062],[-15.22,11.07],[-15.215,11.081],[-15.207,11.125],[-15.217,11.209],[-15.207,11.234],[-15.229,11.23],[-15.235,11.216],[-15.232,11.196],[-15.226,11.179],[-15.225,11.164],[-15.226,11.14],[-15.234,11.123],[-15.259,11.133],[-15.295,11.132],[-15.305,11.135],[-15.313,11.139],[-15.318,11.143],[-15.323,11.146],[-15.346,11.142],[-15.358,11.144],[-15.364,11.156],[-15.366,11.166],[-15.374,11.174],[-15.383,11.178],[-15.395,11.179],[-15.41,11.19],[-15.413,11.214],[-15.412,11.262],[-15.41,11.272],[-15.41,11.279],[-15.415,11.282],[-15.422,11.282],[-15.425,11.283],[-15.426,11.287],[-15.426,11.293],[-15.425,11.303],[-15.42,11.317],[-15.419,11.327],[-15.414,11.336],[-15.389,11.37],[-15.378,11.378],[-15.371,11.377],[-15.351,11.368],[-15.34,11.365],[-15.33,11.368],[-15.316,11.382],[-15.306,11.385],[-15.295,11.391],[-15.284,11.404],[-15.273,11.42],[-15.264,11.427],[-15.215,11.467],[-15.196,11.473],[-15.191,11.471],[-15.173,11.462],[-15.157,11.45],[-15.149,11.447],[-15.145,11.445],[-15.142,11.442],[-15.126,11.423],[-15.121,11.419],[-15.115,11.414],[-15.104,11.409],[-15.096,11.407],[-15.089,11.407],[-15.053,11.42],[-15.029,11.423],[-15.024,11.425],[-15.014,11.429],[-15.009,11.431],[-14.97,11.44],[-14.962,11.444],[-14.956,11.448],[-14.945,11.464],[-14.933,11.488],[-14.927,11.496],[-14.923,11.5],[-14.92,11.504],[-14.917,11.508],[-14.916,11.513],[-14.914,11.518],[-14.914,11.524],[-14.915,11.543],[-14.914,11.555],[-14.912,11.561],[-14.899,11.59],[-14.854,11.656],[-14.83,11.699],[-14.812,11.69],[-14.808,11.681],[-14.808,11.669],[-14.803,11.653],[-14.787,11.63],[-14.761,11.609],[-14.734,11.598],[-14.71,11.605],[-14.683,11.632],[-14.673,11.635],[-14.657,11.634],[-14.653,11.632],[-14.642,11.623],[-14.635,11.62],[-14.626,11.621],[-14.598,11.633],[-14.576,11.638],[-14.53,11.643],[-14.507,11.642],[-14.464,11.632],[-14.46,11.617],[-14.46,11.61],[-14.455,11.592],[-14.432,11.561]]]}}]}
