{"type":"FeatureCollection","features":[{"type":"Feature","id":"GY-BA","properties":{"id":"GY-BA","countryCode":"GY","isoSubdivision":"GY-BA","name":"Barima-Waini","name_en":"Barima-Waini","name_ko":"바리마와이니","type":"Region","labelLongitude":-59.75,"labelLatitude":7.742,"minZoom":8},"geometry":{"type":"Polygon","coordinates":[[[-60.068,8.032],[-60.046,8.033],[-60.03,8.043],[-60.019,8.06],[-60.011,8.1],[-59.999,8.115],[-59.998,8.127],[-60.001,8.139],[-60.001,8.153],[-59.993,8.169],[-59.968,8.188],[-59.957,8.2],[-59.94,8.208],[-59.89,8.22],[-59.869,8.221],[-59.848,8.228],[-59.829,8.245],[-59.817,8.267],[-59.816,8.288],[-59.856,8.352],[-59.96,8.468],[-60.021,8.558],[-60.001,8.549],[-59.968,8.528],[-59.932,8.492],[-59.875,8.405],[-59.838,8.369],[-59.809,8.355],[-59.761,8.341],[-59.735,8.329],[-59.681,8.289],[-59.652,8.274],[-59.622,8.268],[-59.613,8.252],[-59.611,8.25],[-59.61,8.242],[-59.606,8.24],[-59.6,8.241],[-59.543,8.229],[-59.536,8.222],[-59.523,8.206],[-59.434,8.13],[-59.457,8.167],[-59.492,8.201],[-59.534,8.229],[-59.609,8.259],[-59.701,8.323],[-59.761,8.355],[-59.77,8.367],[-59.782,8.394],[-59.78,8.407],[-59.756,8.411],[-59.739,8.404],[-59.704,8.376],[-59.663,8.363],[-59.643,8.35],[-59.611,8.323],[-59.545,8.284],[-59.454,8.243],[-59.348,8.167],[-59.165,8.059],[-59.105,8.014],[-59.09,8],[-59.075,7.981],[-59.021,7.931],[-58.885,7.779],[-58.833,7.738],[-58.804,7.696],[-58.781,7.665],[-58.829,7.605],[-58.868,7.569],[-58.889,7.556],[-59.011,7.506],[-59.025,7.498],[-59.085,7.436],[-59.096,7.421],[-59.102,7.41],[-59.102,7.402],[-59.1,7.394],[-59.097,7.387],[-59.078,7.358],[-59.074,7.351],[-59.071,7.343],[-59.071,7.335],[-59.072,7.325],[-59.079,7.317],[-59.105,7.297],[-59.113,7.288],[-59.119,7.28],[-59.175,7.111],[-59.177,7.097],[-59.177,7.083],[-59.176,7.069],[-59.155,6.995],[-59.154,6.984],[-59.208,7.008],[-59.253,7.019],[-59.261,7.019],[-59.269,7.018],[-59.28,7.014],[-59.285,7.009],[-59.289,7.005],[-59.291,7],[-59.294,6.981],[-59.298,6.977],[-59.31,6.968],[-59.331,6.951],[-59.342,6.951],[-59.356,6.953],[-59.416,6.973],[-59.431,6.985],[-59.437,6.988],[-59.444,6.99],[-59.473,6.988],[-59.481,6.991],[-59.487,6.995],[-59.569,7.081],[-59.576,7.086],[-59.583,7.089],[-59.687,7.114],[-59.832,7.192],[-59.842,7.193],[-59.856,7.192],[-59.886,7.184],[-59.898,7.178],[-59.905,7.172],[-59.906,7.166],[-59.911,7.154],[-59.916,7.146],[-59.929,7.134],[-59.935,7.127],[-59.944,7.113],[-59.951,7.107],[-59.958,7.102],[-59.966,7.1],[-59.976,7.101],[-60.016,7.115],[-60.031,7.113],[-60.04,7.108],[-60.045,7.103],[-60.049,7.097],[-60.054,7.09],[-60.06,7.083],[-60.067,7.077],[-60.075,7.072],[-60.08,7.07],[-60.088,7.068],[-60.123,7.077],[-60.154,7.092],[-60.172,7.095],[-60.183,7.096],[-60.197,7.091],[-60.205,7.093],[-60.213,7.098],[-60.236,7.12],[-60.267,7.138],[-60.303,7.152],[-60.319,7.156],[-60.337,7.155],[-60.348,7.153],[-60.36,7.166],[-60.372,7.172],[-60.385,7.173],[-60.401,7.171],[-60.416,7.171],[-60.427,7.177],[-60.437,7.184],[-60.45,7.188],[-60.475,7.189],[-60.497,7.181],[-60.513,7.165],[-60.535,7.126],[-60.548,7.126],[-60.618,7.18],[-60.628,7.191],[-60.643,7.221],[-60.644,7.251],[-60.631,7.278],[-60.607,7.299],[-60.602,7.307],[-60.6,7.314],[-60.6,7.322],[-60.602,7.33],[-60.611,7.344],[-60.622,7.372],[-60.629,7.384],[-60.636,7.39],[-60.645,7.393],[-60.653,7.398],[-60.657,7.408],[-60.657,7.417],[-60.656,7.423],[-60.656,7.429],[-60.661,7.436],[-60.674,7.445],[-60.688,7.449],[-60.701,7.454],[-60.724,7.496],[-60.73,7.51],[-60.731,7.525],[-60.716,7.552],[-60.671,7.566],[-60.656,7.585],[-60.641,7.611],[-60.632,7.625],[-60.625,7.629],[-60.611,7.627],[-60.601,7.634],[-60.597,7.647],[-60.6,7.662],[-60.585,7.689],[-60.584,7.699],[-60.588,7.718],[-60.587,7.727],[-60.582,7.736],[-60.56,7.763],[-60.54,7.8],[-60.526,7.813],[-60.503,7.821],[-60.419,7.819],[-60.375,7.824],[-60.35,7.842],[-60.342,7.865],[-60.32,7.885],[-60.272,7.918],[-60.268,7.921],[-60.253,7.935],[-60.243,7.951],[-60.231,7.964],[-60.183,7.983],[-60.166,7.997],[-60.15,8.013],[-60.129,8.029],[-60.108,8.036],[-60.068,8.032]]]}},{"type":"Feature","id":"GY-CU","properties":{"id":"GY-CU","countryCode":"GY","isoSubdivision":"GY-CU","name":"Cuyuni-Mazaruni","name_en":"Cuyuni-Mazaruni","name_ko":"쿠유니마자루니","type":"Region","labelLongitude":-58.821,"labelLatitude":7.169,"minZoom":8},"geometry":{"type":"Polygon","coordinates":[[[-58.781,7.665],[-58.779,7.662],[-58.754,7.612],[-58.738,7.588],[-58.734,7.595],[-58.744,7.619],[-58.742,7.63],[-58.728,7.629],[-58.703,7.621],[-58.682,7.604],[-58.663,7.585],[-58.647,7.565],[-58.63,7.54],[-58.609,7.506],[-58.584,7.476],[-58.568,7.453],[-58.49,7.376],[-58.472,7.345],[-58.464,7.312],[-58.474,7.28],[-58.467,7.287],[-58.473,7.244],[-58.467,7.116],[-58.485,7.011],[-58.497,6.995],[-58.52,6.978],[-58.539,6.972],[-58.607,6.935],[-58.625,6.921],[-58.634,6.909],[-58.641,6.86],[-58.644,6.851],[-58.649,6.842],[-58.656,6.837],[-58.665,6.835],[-58.678,6.835],[-58.696,6.83],[-58.706,6.823],[-58.714,6.815],[-58.743,6.77],[-58.752,6.762],[-58.759,6.756],[-58.791,6.741],[-58.834,6.714],[-58.849,6.751],[-58.85,6.759],[-58.854,6.768],[-58.863,6.768],[-58.871,6.766],[-58.883,6.762],[-58.889,6.761],[-58.895,6.76],[-58.91,6.761],[-58.928,6.766],[-58.937,6.771],[-58.944,6.779],[-58.95,6.792],[-58.954,6.833],[-58.955,6.838],[-58.965,6.854],[-58.992,6.863],[-59.003,6.862],[-59.009,6.857],[-59.028,6.838],[-59.033,6.835],[-59.039,6.833],[-59.045,6.832],[-59.051,6.831],[-59.064,6.832],[-59.076,6.834],[-59.113,6.848],[-59.118,6.85],[-59.129,6.857],[-59.135,6.86],[-59.159,6.865],[-59.166,6.868],[-59.173,6.872],[-59.176,6.884],[-59.174,6.9],[-59.155,6.964],[-59.154,6.984],[-59.155,6.995],[-59.176,7.069],[-59.177,7.083],[-59.177,7.097],[-59.175,7.111],[-59.119,7.28],[-59.113,7.288],[-59.105,7.297],[-59.079,7.317],[-59.072,7.325],[-59.071,7.335],[-59.071,7.343],[-59.074,7.351],[-59.078,7.358],[-59.097,7.387],[-59.1,7.394],[-59.102,7.402],[-59.102,7.41],[-59.096,7.421],[-59.085,7.436],[-59.025,7.498],[-59.011,7.506],[-58.889,7.556],[-58.868,7.569],[-58.829,7.605],[-58.781,7.665]]]}},{"type":"Feature","id":"GY-DE","properties":{"id":"GY-DE","countryCode":"GY","isoSubdivision":"GY-DE","name":"Demerara-Mahaica","name_en":"Demerara-Mahaica","name_ko":"데메라라마하이카","type":"Region","labelLongitude":-58.377,"labelLatitude":6.541,"minZoom":8},"geometry":{"type":"MultiPolygon","coordinates":[[[[-58.379,6.972],[-58.334,6.965],[-58.335,6.961],[-58.391,6.92],[-58.441,6.905],[-58.461,6.883],[-58.463,6.9],[-58.458,6.923],[-58.447,6.943],[-58.432,6.955],[-58.423,6.968],[-58.419,6.972],[-58.41,6.974],[-58.379,6.972]]],[[[-58.52,6.978],[-58.536,6.965],[-58.551,6.947],[-58.562,6.927],[-58.568,6.907],[-58.574,6.868],[-58.598,6.808],[-58.6,6.787],[-58.598,6.722],[-58.6,6.711],[-58.609,6.699],[-58.611,6.688],[-58.611,6.51],[-58.617,6.488],[-58.619,6.49],[-58.635,6.496],[-58.64,6.496],[-58.647,6.493],[-58.652,6.491],[-58.66,6.491],[-58.669,6.494],[-58.729,6.525],[-58.739,6.529],[-58.75,6.532],[-58.801,6.535],[-58.813,6.537],[-58.819,6.538],[-58.823,6.545],[-58.827,6.556],[-58.824,6.591],[-58.82,6.613],[-58.814,6.669],[-58.817,6.685],[-58.834,6.714],[-58.791,6.741],[-58.759,6.756],[-58.752,6.762],[-58.743,6.77],[-58.714,6.815],[-58.706,6.823],[-58.696,6.83],[-58.678,6.835],[-58.665,6.835],[-58.656,6.837],[-58.649,6.842],[-58.644,6.851],[-58.641,6.86],[-58.634,6.909],[-58.625,6.921],[-58.607,6.935],[-58.539,6.972],[-58.52,6.978]]],[[[-58.581,6.463],[-58.577,6.595],[-58.567,6.637],[-58.462,6.822],[-58.435,6.858],[-58.398,6.883],[-58.354,6.894],[-58.312,6.892],[-58.274,6.881],[-58.214,6.849],[-58.194,6.831],[-58.19,6.828],[-58.187,6.825],[-58.178,6.818],[-58.174,6.815],[-58.173,6.813],[-58.185,6.768],[-58.187,6.76],[-58.19,6.749],[-58.191,6.74],[-58.189,6.723],[-58.185,6.707],[-58.179,6.686],[-58.178,6.68],[-58.178,6.672],[-58.189,6.645],[-58.242,6.542],[-58.25,6.531],[-58.251,6.53],[-58.253,6.528],[-58.287,6.495],[-58.299,6.479],[-58.301,6.475],[-58.303,6.469],[-58.303,6.462],[-58.298,6.443],[-58.291,6.427],[-58.29,6.421],[-58.29,6.414],[-58.293,6.404],[-58.303,6.382],[-58.305,6.377],[-58.306,6.371],[-58.306,6.363],[-58.304,6.353],[-58.299,6.336],[-58.295,6.328],[-58.291,6.322],[-58.279,6.312],[-58.27,6.301],[-58.267,6.297],[-58.266,6.29],[-58.266,6.282],[-58.27,6.266],[-58.276,6.251],[-58.285,6.239],[-58.287,6.234],[-58.289,6.228],[-58.289,6.222],[-58.283,6.207],[-58.275,6.195],[-58.273,6.19],[-58.27,6.179],[-58.26,6.155],[-58.257,6.145],[-58.258,6.132],[-58.275,6.106],[-58.292,6.117],[-58.3,6.121],[-58.311,6.124],[-58.355,6.127],[-58.36,6.127],[-58.364,6.13],[-58.362,6.139],[-58.363,6.144],[-58.379,6.2],[-58.38,6.206],[-58.38,6.213],[-58.381,6.222],[-58.383,6.232],[-58.389,6.248],[-58.401,6.272],[-58.44,6.315],[-58.481,6.341],[-58.491,6.35],[-58.504,6.365],[-58.56,6.451],[-58.581,6.465],[-58.581,6.463]]]]}},{"type":"Feature","id":"GY-EB","properties":{"id":"GY-EB","countryCode":"GY","isoSubdivision":"GY-EB","name":"East Berbice-Corentyne","name_en":"East Berbice-Corentyne","name_ko":"이스트버비스코렌타인","type":"Region","labelLongitude":-58.094,"labelLatitude":6.564,"minZoom":8},"geometry":{"type":"Polygon","coordinates":[[[-58.174,6.815],[-58.17,6.813],[-58.166,6.818],[-58.162,6.83],[-58.154,6.832],[-58.068,6.822],[-58.006,6.792],[-57.986,6.775],[-57.956,6.753],[-57.919,6.716],[-57.914,6.713],[-57.914,6.711],[-57.913,6.656],[-57.91,6.643],[-57.904,6.628],[-57.895,6.613],[-57.892,6.604],[-57.891,6.595],[-57.894,6.569],[-57.893,6.562],[-57.89,6.556],[-57.882,6.543],[-57.883,6.538],[-57.892,6.533],[-57.899,6.532],[-57.907,6.533],[-57.914,6.535],[-57.92,6.536],[-57.927,6.535],[-57.934,6.533],[-57.938,6.527],[-57.939,6.518],[-57.937,6.51],[-57.929,6.488],[-57.928,6.481],[-57.929,6.474],[-57.93,6.466],[-57.932,6.459],[-57.937,6.452],[-57.945,6.445],[-57.952,6.443],[-57.982,6.44],[-57.995,6.436],[-58,6.434],[-58.004,6.431],[-58.011,6.423],[-58.032,6.392],[-58.041,6.383],[-58.049,6.376],[-58.056,6.373],[-58.063,6.368],[-58.072,6.357],[-58.079,6.344],[-58.132,6.207],[-58.135,6.196],[-58.136,6.18],[-58.135,6.128],[-58.125,6.08],[-58.14,6.082],[-58.146,6.085],[-58.18,6.115],[-58.217,6.104],[-58.235,6.096],[-58.243,6.095],[-58.248,6.094],[-58.275,6.106],[-58.258,6.132],[-58.257,6.145],[-58.26,6.155],[-58.27,6.179],[-58.273,6.19],[-58.275,6.195],[-58.283,6.207],[-58.289,6.222],[-58.289,6.228],[-58.287,6.234],[-58.285,6.239],[-58.276,6.251],[-58.27,6.266],[-58.266,6.282],[-58.266,6.29],[-58.267,6.297],[-58.27,6.301],[-58.279,6.312],[-58.291,6.322],[-58.295,6.328],[-58.299,6.336],[-58.304,6.353],[-58.306,6.363],[-58.306,6.371],[-58.305,6.377],[-58.303,6.382],[-58.293,6.404],[-58.29,6.414],[-58.29,6.421],[-58.291,6.427],[-58.298,6.443],[-58.303,6.462],[-58.303,6.469],[-58.301,6.475],[-58.299,6.479],[-58.287,6.495],[-58.253,6.528],[-58.251,6.53],[-58.25,6.531],[-58.242,6.542],[-58.189,6.645],[-58.178,6.672],[-58.178,6.68],[-58.179,6.686],[-58.185,6.707],[-58.189,6.723],[-58.191,6.74],[-58.19,6.749],[-58.187,6.76],[-58.185,6.768],[-58.173,6.813],[-58.174,6.815]]]}},{"type":"Feature","id":"GY-ES","properties":{"id":"GY-ES","countryCode":"GY","isoSubdivision":"GY-ES","name":"Mahaica-Berbice","name_en":"Mahaica-Berbice","name_ko":"마하이카버비스","type":"Region","labelLongitude":-57.828,"labelLatitude":6.237,"minZoom":8},"geometry":{"type":"Polygon","coordinates":[[[-57.914,6.713],[-57.892,6.696],[-57.838,6.645],[-57.806,6.613],[-57.797,6.598],[-57.779,6.59],[-57.757,6.568],[-57.7,6.522],[-57.668,6.496],[-57.647,6.478],[-57.633,6.463],[-57.618,6.448],[-57.599,6.427],[-57.578,6.378],[-57.548,6.307],[-57.537,6.293],[-57.534,6.274],[-57.529,6.266],[-57.52,6.278],[-57.519,6.271],[-57.524,6.26],[-57.528,6.241],[-57.523,6.22],[-57.522,6.214],[-57.524,6.208],[-57.529,6.203],[-57.54,6.196],[-57.554,6.192],[-57.588,6.186],[-57.594,6.186],[-57.606,6.184],[-57.611,6.182],[-57.616,6.179],[-57.621,6.173],[-57.625,6.166],[-57.628,6.153],[-57.626,6.138],[-57.619,6.106],[-57.616,6.102],[-57.613,6.099],[-57.608,6.096],[-57.601,6.089],[-57.599,6.085],[-57.597,6.08],[-57.598,6.074],[-57.603,6.058],[-57.623,6.021],[-57.628,6.016],[-57.633,6.013],[-57.638,6.011],[-57.644,6.011],[-57.649,6.015],[-57.657,6.022],[-57.661,6.025],[-57.666,6.027],[-57.673,6.028],[-57.682,6.025],[-57.694,6.02],[-57.706,6.008],[-57.689,5.98],[-57.684,5.957],[-57.68,5.909],[-57.683,5.875],[-57.694,5.872],[-57.715,5.872],[-57.722,5.87],[-57.745,5.862],[-57.752,5.86],[-57.797,5.863],[-57.809,5.859],[-57.817,5.854],[-57.823,5.848],[-57.829,5.842],[-57.836,5.839],[-57.844,5.841],[-57.861,5.859],[-57.871,5.864],[-57.885,5.866],[-57.894,5.865],[-57.903,5.866],[-57.91,5.87],[-57.928,5.895],[-57.94,5.906],[-57.947,5.923],[-57.951,5.93],[-57.993,5.936],[-58.001,5.937],[-58.033,5.943],[-58.101,5.965],[-58.115,5.972],[-58.126,5.989],[-58.114,6.03],[-58.114,6.047],[-58.125,6.08],[-58.135,6.128],[-58.136,6.18],[-58.135,6.196],[-58.132,6.207],[-58.079,6.344],[-58.072,6.357],[-58.063,6.368],[-58.056,6.373],[-58.049,6.376],[-58.041,6.383],[-58.032,6.392],[-58.011,6.423],[-58.004,6.431],[-58,6.434],[-57.995,6.436],[-57.982,6.44],[-57.952,6.443],[-57.945,6.445],[-57.937,6.452],[-57.932,6.459],[-57.93,6.466],[-57.929,6.474],[-57.928,6.481],[-57.929,6.488],[-57.937,6.51],[-57.939,6.518],[-57.938,6.527],[-57.934,6.533],[-57.927,6.535],[-57.92,6.536],[-57.914,6.535],[-57.907,6.533],[-57.899,6.532],[-57.892,6.533],[-57.883,6.538],[-57.882,6.543],[-57.89,6.556],[-57.893,6.562],[-57.894,6.569],[-57.891,6.595],[-57.892,6.604],[-57.895,6.613],[-57.904,6.628],[-57.91,6.643],[-57.913,6.656],[-57.914,6.711],[-57.914,6.713]]]}},{"type":"Feature","id":"GY-MA","properties":{"id":"GY-MA","countryCode":"GY","isoSubdivision":"GY-MA","name":"Mahaica-Berbice","name_en":"Mahaica-Berbice","name_ko":"마하이카버비스","type":"Region","labelLongitude":-57.492,"labelLatitude":2.567,"minZoom":8},"geometry":{"type":"Polygon","coordinates":[[[-57.308,3.395],[-57.284,3.344],[-57.28,3.33],[-57.283,3.295],[-57.284,3.289],[-57.292,3.276],[-57.29,3.268],[-57.284,3.26],[-57.28,3.248],[-57.282,3.236],[-57.287,3.215],[-57.288,3.203],[-57.286,3.192],[-57.275,3.169],[-57.278,3.157],[-57.284,3.149],[-57.286,3.142],[-57.275,3.134],[-57.265,3.133],[-57.255,3.136],[-57.246,3.142],[-57.239,3.148],[-57.238,3.145],[-57.237,3.144],[-57.237,3.143],[-57.233,3.142],[-57.249,3.112],[-57.239,3.094],[-57.222,3.078],[-57.213,3.056],[-57.212,3.048],[-57.207,3.036],[-57.206,3.028],[-57.209,3.024],[-57.223,3.025],[-57.226,3.021],[-57.225,3.009],[-57.222,3],[-57.221,2.993],[-57.226,2.983],[-57.235,2.97],[-57.222,2.963],[-57.189,2.96],[-57.184,2.945],[-57.195,2.931],[-57.21,2.918],[-57.22,2.908],[-57.206,2.857],[-57.202,2.846],[-57.194,2.842],[-57.191,2.833],[-57.187,2.823],[-57.175,2.819],[-57.165,2.821],[-57.145,2.83],[-57.133,2.833],[-57.126,2.826],[-57.144,2.79],[-57.137,2.771],[-57.134,2.773],[-57.1,2.779],[-57.09,2.774],[-57.092,2.763],[-57.099,2.75],[-57.103,2.74],[-57.098,2.727],[-57.072,2.7],[-57.062,2.682],[-57.056,2.642],[-57.048,2.636],[-57.027,2.648],[-57.02,2.635],[-57.023,2.624],[-57.028,2.611],[-57.027,2.594],[-57.022,2.585],[-56.997,2.555],[-56.995,2.548],[-57.001,2.514],[-56.994,2.505],[-56.98,2.51],[-56.96,2.525],[-56.951,2.515],[-56.953,2.505],[-56.958,2.493],[-56.96,2.484],[-56.956,2.47],[-56.952,2.461],[-56.935,2.446],[-56.93,2.436],[-56.932,2.426],[-56.938,2.411],[-56.931,2.393],[-56.895,2.362],[-56.884,2.34],[-56.884,2.304],[-56.88,2.295],[-56.871,2.29],[-56.848,2.286],[-56.839,2.281],[-56.826,2.262],[-56.816,2.218],[-56.809,2.196],[-56.801,2.166],[-56.705,2.03],[-56.678,2.018],[-56.58,2.017],[-56.542,1.997],[-56.536,1.989],[-56.529,1.982],[-56.521,1.977],[-56.5,1.97],[-56.491,1.963],[-56.485,1.953],[-56.482,1.942],[-56.529,1.924],[-56.559,1.907],[-56.575,1.905],[-56.59,1.913],[-56.604,1.925],[-56.62,1.935],[-56.64,1.937],[-56.656,1.93],[-56.67,1.92],[-56.684,1.912],[-56.704,1.913],[-56.724,1.916],[-56.738,1.913],[-56.781,1.879],[-56.793,1.874],[-56.806,1.874],[-56.878,1.886],[-56.891,1.89],[-56.907,1.903],[-56.913,1.913],[-56.922,1.918],[-56.944,1.918],[-56.977,1.915],[-56.993,1.915],[-57.011,1.919],[-57.037,1.932],[-57.056,1.948],[-57.068,1.969],[-57.074,1.997],[-57.104,2.021],[-57.153,2.002],[-57.238,1.949],[-57.259,1.952],[-57.295,1.975],[-57.319,1.977],[-57.341,1.969],[-57.356,1.955],[-57.369,1.94],[-57.385,1.925],[-57.406,1.914],[-57.42,1.909],[-57.429,1.9],[-57.454,1.834],[-57.465,1.816],[-57.531,1.732],[-57.561,1.709],[-57.608,1.697],[-57.639,1.696],[-57.723,1.712],[-57.759,1.713],[-57.791,1.705],[-57.871,1.669],[-57.905,1.649],[-57.922,1.642],[-57.939,1.643],[-57.969,1.655],[-57.985,1.658],[-57.991,1.65],[-57.99,1.635],[-57.984,1.604],[-57.987,1.587],[-57.994,1.568],[-58.011,1.536],[-58.027,1.517],[-58.069,1.509],[-58.116,1.511],[-58.149,1.519],[-58.156,1.527],[-58.163,1.549],[-58.171,1.559],[-58.187,1.568],[-58.198,1.566],[-58.207,1.56],[-58.22,1.556],[-58.239,1.557],[-58.261,1.56],[-58.282,1.567],[-58.299,1.575],[-58.306,1.583],[-58.316,1.599],[-58.32,1.601],[-58.332,1.593],[-58.339,1.58],[-58.344,1.565],[-58.351,1.553],[-58.36,1.547],[-58.383,1.537],[-58.39,1.531],[-58.392,1.521],[-58.386,1.5],[-58.386,1.49],[-58.413,1.472],[-58.426,1.47],[-58.499,1.457],[-58.502,1.454],[-58.502,1.455],[-58.494,1.514],[-58.485,1.537],[-58.45,1.587],[-58.407,1.631],[-58.396,1.647],[-58.345,1.765],[-58.304,1.828],[-58.267,1.897],[-58.108,2.342],[-58.039,2.475],[-58.027,2.509],[-58.022,2.528],[-58.02,2.548],[-58.02,2.578],[-58.031,2.707],[-58.03,2.721],[-58.028,2.735],[-58.026,2.743],[-58.011,2.773],[-57.932,2.878],[-57.929,2.886],[-57.932,2.905],[-57.995,3.054],[-58.1,3.204],[-58.111,3.235],[-58.117,3.264],[-58.119,3.291],[-58.114,3.337],[-58.115,3.355],[-58.149,3.489],[-58.149,3.512],[-58.152,3.534],[-58.157,3.549],[-58.189,3.614],[-58.282,3.753],[-58.29,3.769],[-58.298,3.79],[-58.329,3.919],[-58.331,3.936],[-58.331,3.949],[-58.324,3.978],[-58.323,3.992],[-58.324,4],[-58.364,4.139],[-58.425,4.223],[-58.44,4.251],[-58.436,4.273],[-58.396,4.381],[-58.378,4.447],[-58.293,4.597],[-58.282,4.634],[-58.115,4.638],[-58.084,4.644],[-58.066,4.654],[-58.026,4.767],[-58.012,4.83],[-57.995,4.871],[-57.97,4.905],[-57.872,5.015],[-57.823,5.144],[-57.803,5.18],[-57.77,5.223],[-57.746,5.286],[-57.73,5.314],[-57.698,5.347],[-57.692,5.362],[-57.688,5.384],[-57.68,5.48],[-57.626,5.703],[-57.608,5.748],[-57.606,5.756],[-57.606,5.765],[-57.608,5.774],[-57.623,5.788],[-57.636,5.791],[-57.652,5.809],[-57.683,5.875],[-57.68,5.909],[-57.684,5.957],[-57.689,5.98],[-57.706,6.008],[-57.694,6.02],[-57.682,6.025],[-57.673,6.028],[-57.666,6.027],[-57.661,6.025],[-57.657,6.022],[-57.649,6.015],[-57.644,6.011],[-57.638,6.011],[-57.633,6.013],[-57.628,6.016],[-57.623,6.021],[-57.603,6.058],[-57.598,6.074],[-57.597,6.08],[-57.599,6.085],[-57.601,6.089],[-57.608,6.096],[-57.613,6.099],[-57.616,6.102],[-57.619,6.106],[-57.626,6.138],[-57.628,6.153],[-57.625,6.166],[-57.621,6.173],[-57.616,6.179],[-57.611,6.182],[-57.606,6.184],[-57.594,6.186],[-57.588,6.186],[-57.554,6.192],[-57.54,6.196],[-57.529,6.203],[-57.524,6.208],[-57.522,6.214],[-57.523,6.22],[-57.528,6.241],[-57.524,6.26],[-57.519,6.271],[-57.52,6.278],[-57.519,6.287],[-57.517,6.298],[-57.517,6.315],[-57.504,6.329],[-57.494,6.335],[-57.491,6.339],[-57.486,6.34],[-57.466,6.338],[-57.446,6.33],[-57.429,6.323],[-57.409,6.313],[-57.377,6.294],[-57.365,6.287],[-57.33,6.264],[-57.29,6.235],[-57.207,6.151],[-57.187,6.121],[-57.167,6.085],[-57.158,6.044],[-57.155,6.02],[-57.152,6.008],[-57.147,5.998],[-57.144,5.989],[-57.144,5.978],[-57.158,5.999],[-57.166,6.006],[-57.148,5.97],[-57.142,5.956],[-57.142,5.934],[-57.14,5.918],[-57.137,5.882],[-57.154,5.847],[-57.158,5.829],[-57.165,5.811],[-57.17,5.8],[-57.171,5.779],[-57.181,5.755],[-57.183,5.731],[-57.16,5.693],[-57.162,5.639],[-57.173,5.607],[-57.186,5.587],[-57.197,5.565],[-57.248,5.492],[-57.248,5.485],[-57.257,5.464],[-57.26,5.448],[-57.261,5.427],[-57.265,5.403],[-57.275,5.387],[-57.324,5.339],[-57.332,5.328],[-57.336,5.317],[-57.332,5.308],[-57.323,5.308],[-57.308,5.313],[-57.298,5.311],[-57.292,5.311],[-57.289,5.309],[-57.287,5.239],[-57.285,5.231],[-57.28,5.225],[-57.272,5.223],[-57.263,5.224],[-57.256,5.228],[-57.254,5.235],[-57.264,5.247],[-57.269,5.257],[-57.267,5.266],[-57.259,5.271],[-57.248,5.272],[-57.238,5.269],[-57.233,5.263],[-57.233,5.261],[-57.226,5.244],[-57.192,5.203],[-57.185,5.183],[-57.19,5.169],[-57.202,5.158],[-57.218,5.149],[-57.233,5.142],[-57.239,5.162],[-57.247,5.172],[-57.26,5.176],[-57.278,5.177],[-57.289,5.171],[-57.296,5.157],[-57.302,5.128],[-57.317,5.095],[-57.32,5.083],[-57.321,5.07],[-57.317,5.059],[-57.28,5.026],[-57.29,5.02],[-57.299,5.021],[-57.306,5.024],[-57.315,5.026],[-57.329,5.024],[-57.338,5.021],[-57.346,5.017],[-57.356,5.012],[-57.381,5.006],[-57.46,4.998],[-57.477,4.992],[-57.49,4.991],[-57.497,4.995],[-57.512,5.009],[-57.518,5.012],[-57.543,5.011],[-57.566,5.007],[-57.61,4.991],[-57.649,5.008],[-57.687,5.006],[-57.72,4.99],[-57.747,4.964],[-57.762,4.936],[-57.774,4.926],[-57.798,4.923],[-57.811,4.926],[-57.821,4.93],[-57.83,4.933],[-57.843,4.93],[-57.85,4.923],[-57.871,4.889],[-57.884,4.872],[-57.902,4.853],[-57.919,4.83],[-57.925,4.796],[-57.918,4.782],[-57.901,4.774],[-57.885,4.763],[-57.871,4.722],[-57.844,4.688],[-57.836,4.67],[-57.837,4.651],[-57.845,4.634],[-57.863,4.608],[-57.879,4.557],[-57.896,4.529],[-57.914,4.484],[-57.922,4.451],[-57.931,4.438],[-57.943,4.425],[-57.953,4.41],[-57.957,4.391],[-57.953,4.376],[-57.948,4.36],[-57.945,4.344],[-57.947,4.319],[-57.954,4.299],[-57.965,4.282],[-58.052,4.193],[-58.066,4.172],[-58.068,4.151],[-58.055,4.108],[-58.042,4.023],[-58.032,3.988],[-58.008,3.957],[-57.942,3.905],[-57.926,3.886],[-57.875,3.812],[-57.854,3.767],[-57.85,3.747],[-57.847,3.702],[-57.841,3.681],[-57.83,3.662],[-57.813,3.652],[-57.764,3.632],[-57.726,3.607],[-57.722,3.6],[-57.717,3.582],[-57.71,3.568],[-57.709,3.564],[-57.707,3.561],[-57.703,3.556],[-57.698,3.554],[-57.687,3.552],[-57.685,3.549],[-57.681,3.547],[-57.66,3.535],[-57.644,3.517],[-57.645,3.499],[-57.661,3.47],[-57.661,3.463],[-57.658,3.451],[-57.659,3.444],[-57.664,3.426],[-57.665,3.418],[-57.663,3.407],[-57.658,3.395],[-57.655,3.39],[-57.65,3.386],[-57.641,3.382],[-57.613,3.377],[-57.596,3.367],[-57.565,3.35],[-57.554,3.347],[-57.545,3.348],[-57.535,3.368],[-57.522,3.365],[-57.51,3.358],[-57.504,3.353],[-57.496,3.353],[-57.488,3.352],[-57.482,3.349],[-57.48,3.343],[-57.476,3.339],[-57.469,3.343],[-57.462,3.35],[-57.459,3.353],[-57.431,3.361],[-57.424,3.369],[-57.425,3.387],[-57.393,3.374],[-57.367,3.366],[-57.34,3.37],[-57.308,3.395]]]}},{"type":"Feature","id":"GY-PM","properties":{"id":"GY-PM","countryCode":"GY","isoSubdivision":"GY-PM","name":"Pomeroon-Supenaam","name_en":"Pomeroon-Supenaam","name_ko":"포메룬수페남","type":"Region","labelLongitude":-59.984,"labelLatitude":6.184,"minZoom":8},"geometry":{"type":"Polygon","coordinates":[[[-60.177,5.227],[-60.191,5.24],[-60.2,5.263],[-60.213,5.267],[-60.255,5.256],[-60.274,5.247],[-60.314,5.207],[-60.333,5.194],[-60.355,5.193],[-60.399,5.208],[-60.42,5.207],[-60.427,5.201],[-60.439,5.181],[-60.449,5.174],[-60.456,5.175],[-60.463,5.18],[-60.47,5.187],[-60.477,5.192],[-60.497,5.196],[-60.554,5.188],[-60.568,5.19],[-60.579,5.195],[-60.59,5.201],[-60.602,5.207],[-60.614,5.209],[-60.673,5.213],[-60.695,5.212],[-60.74,5.202],[-60.817,5.285],[-60.893,5.369],[-60.968,5.452],[-61.044,5.536],[-61.12,5.619],[-61.196,5.703],[-61.272,5.786],[-61.347,5.87],[-61.38,5.905],[-61.397,5.946],[-61.386,5.957],[-61.353,5.975],[-61.338,5.987],[-61.291,6.061],[-61.279,6.093],[-61.269,6.107],[-61.256,6.114],[-61.223,6.121],[-61.207,6.126],[-61.194,6.133],[-61.185,6.146],[-61.174,6.172],[-61.161,6.183],[-61.147,6.185],[-61.133,6.184],[-61.122,6.187],[-61.118,6.203],[-61.118,6.216],[-61.113,6.254],[-61.115,6.264],[-61.118,6.267],[-61.121,6.269],[-61.124,6.276],[-61.129,6.283],[-61.147,6.294],[-61.152,6.303],[-61.159,6.331],[-61.161,6.342],[-61.155,6.391],[-61.15,6.404],[-61.141,6.416],[-61.139,6.425],[-61.139,6.433],[-61.14,6.441],[-61.143,6.449],[-61.153,6.464],[-61.163,6.494],[-61.171,6.509],[-61.186,6.523],[-61.2,6.531],[-61.21,6.541],[-61.212,6.561],[-61.205,6.596],[-61.19,6.633],[-61.171,6.669],[-61.139,6.704],[-61.13,6.716],[-61.111,6.72],[-61.089,6.717],[-61.07,6.712],[-61.061,6.73],[-61.04,6.727],[-61.019,6.72],[-61,6.734],[-60.955,6.729],[-60.934,6.732],[-60.928,6.736],[-60.901,6.764],[-60.899,6.769],[-60.899,6.777],[-60.901,6.786],[-60.911,6.8],[-60.913,6.811],[-60.908,6.815],[-60.895,6.814],[-60.872,6.808],[-60.866,6.803],[-60.859,6.796],[-60.85,6.79],[-60.838,6.786],[-60.828,6.787],[-60.805,6.792],[-60.794,6.794],[-60.773,6.788],[-60.736,6.765],[-60.722,6.76],[-60.7,6.767],[-60.684,6.784],[-60.656,6.825],[-60.64,6.838],[-60.621,6.846],[-60.549,6.863],[-60.421,6.942],[-60.394,6.948],[-60.377,6.939],[-60.368,6.988],[-60.36,7.005],[-60.345,7.018],[-60.328,7.029],[-60.313,7.04],[-60.304,7.054],[-60.296,7.071],[-60.292,7.088],[-60.292,7.105],[-60.3,7.121],[-60.313,7.133],[-60.348,7.152],[-60.348,7.153],[-60.337,7.155],[-60.319,7.156],[-60.303,7.152],[-60.267,7.138],[-60.236,7.12],[-60.213,7.098],[-60.205,7.093],[-60.197,7.091],[-60.183,7.096],[-60.172,7.095],[-60.154,7.092],[-60.123,7.077],[-60.088,7.068],[-60.08,7.07],[-60.075,7.072],[-60.067,7.077],[-60.06,7.083],[-60.054,7.09],[-60.049,7.097],[-60.045,7.103],[-60.04,7.108],[-60.031,7.113],[-60.016,7.115],[-59.976,7.101],[-59.966,7.1],[-59.958,7.102],[-59.951,7.107],[-59.944,7.113],[-59.935,7.127],[-59.929,7.134],[-59.916,7.146],[-59.911,7.154],[-59.906,7.166],[-59.905,7.172],[-59.898,7.178],[-59.886,7.184],[-59.856,7.192],[-59.842,7.193],[-59.832,7.192],[-59.687,7.114],[-59.583,7.089],[-59.576,7.086],[-59.569,7.081],[-59.487,6.995],[-59.481,6.991],[-59.473,6.988],[-59.444,6.99],[-59.437,6.988],[-59.431,6.985],[-59.416,6.973],[-59.356,6.953],[-59.342,6.951],[-59.331,6.951],[-59.31,6.968],[-59.298,6.977],[-59.294,6.981],[-59.291,7],[-59.289,7.005],[-59.285,7.009],[-59.28,7.014],[-59.269,7.018],[-59.261,7.019],[-59.253,7.019],[-59.208,7.008],[-59.154,6.984],[-59.155,6.964],[-59.174,6.9],[-59.176,6.884],[-59.173,6.872],[-59.166,6.868],[-59.159,6.865],[-59.135,6.86],[-59.129,6.857],[-59.118,6.85],[-59.113,6.848],[-59.076,6.834],[-59.064,6.832],[-59.051,6.831],[-59.045,6.832],[-59.039,6.833],[-59.033,6.835],[-59.028,6.838],[-59.009,6.857],[-59.003,6.862],[-58.992,6.863],[-58.965,6.854],[-58.955,6.838],[-58.954,6.833],[-58.95,6.792],[-58.944,6.779],[-58.937,6.771],[-58.928,6.766],[-58.91,6.761],[-58.895,6.76],[-58.889,6.761],[-58.883,6.762],[-58.871,6.766],[-58.863,6.768],[-58.854,6.768],[-58.85,6.759],[-58.849,6.751],[-58.834,6.714],[-58.817,6.685],[-58.814,6.669],[-58.82,6.613],[-58.824,6.591],[-58.827,6.556],[-58.823,6.545],[-58.819,6.538],[-58.813,6.537],[-58.801,6.535],[-58.75,6.532],[-58.739,6.529],[-58.729,6.525],[-58.669,6.494],[-58.66,6.491],[-58.652,6.491],[-58.647,6.493],[-58.64,6.496],[-58.635,6.496],[-58.619,6.49],[-58.617,6.488],[-58.62,6.477],[-58.686,6.382],[-58.682,6.38],[-58.68,6.376],[-58.649,6.404],[-58.639,6.41],[-58.636,6.414],[-58.633,6.42],[-58.629,6.423],[-58.615,6.417],[-58.607,6.416],[-58.602,6.417],[-58.6,6.406],[-58.6,6.361],[-58.598,6.342],[-58.574,6.294],[-58.57,6.276],[-58.571,6.267],[-58.572,6.258],[-58.576,6.25],[-58.58,6.243],[-58.583,6.235],[-58.579,6.227],[-58.573,6.218],[-58.57,6.208],[-58.585,6.075],[-58.584,6.054],[-58.573,6.03],[-58.57,6.019],[-58.57,5.937],[-58.573,5.914],[-58.586,5.895],[-58.611,5.842],[-58.615,5.819],[-58.611,5.756],[-58.618,5.692],[-58.617,5.623],[-58.623,5.581],[-58.635,5.54],[-58.653,5.499],[-58.676,5.455],[-58.693,5.438],[-58.717,5.43],[-58.804,5.417],[-58.845,5.415],[-58.87,5.456],[-58.875,5.462],[-58.881,5.467],[-58.888,5.47],[-58.896,5.472],[-58.907,5.474],[-58.952,5.477],[-58.959,5.479],[-58.967,5.483],[-58.974,5.489],[-59,5.523],[-59.005,5.528],[-59.013,5.53],[-59.023,5.53],[-59.059,5.514],[-59.068,5.511],[-59.077,5.51],[-59.091,5.513],[-59.099,5.519],[-59.103,5.526],[-59.104,5.533],[-59.102,5.571],[-59.103,5.578],[-59.108,5.584],[-59.122,5.596],[-59.128,5.603],[-59.133,5.61],[-59.148,5.639],[-59.152,5.645],[-59.171,5.664],[-59.193,5.692],[-59.2,5.699],[-59.207,5.705],[-59.214,5.708],[-59.222,5.709],[-59.232,5.708],[-59.24,5.705],[-59.276,5.685],[-59.286,5.676],[-59.297,5.664],[-59.316,5.64],[-59.33,5.616],[-59.335,5.608],[-59.344,5.601],[-59.361,5.591],[-59.372,5.587],[-59.381,5.585],[-59.388,5.585],[-59.403,5.586],[-59.418,5.588],[-59.492,5.611],[-59.498,5.611],[-59.503,5.61],[-59.509,5.607],[-59.551,5.578],[-59.58,5.552],[-59.585,5.546],[-59.588,5.536],[-59.588,5.525],[-59.581,5.488],[-59.573,5.405],[-59.584,5.386],[-59.641,5.381],[-59.657,5.381],[-59.748,5.399],[-59.764,5.399],[-59.795,5.394],[-59.839,5.396],[-59.846,5.396],[-59.853,5.395],[-59.918,5.374],[-59.929,5.369],[-59.939,5.36],[-59.948,5.348],[-59.96,5.325],[-59.969,5.295],[-59.987,5.257],[-59.991,5.243],[-60,5.233],[-60.014,5.22],[-60.061,5.183],[-60.08,5.162],[-60.089,5.155],[-60.091,5.158],[-60.123,5.232],[-60.132,5.243],[-60.177,5.227]]]}},{"type":"Feature","id":"GY-PT","properties":{"id":"GY-PT","countryCode":"GY","isoSubdivision":"GY-PT","name":"Potaro-Siparuni","name_en":"Potaro-Siparuni","name_ko":"포타로시파루니","type":"Region","labelLongitude":-59.224,"labelLatitude":4.932,"minZoom":8},"geometry":{"type":"Polygon","coordinates":[[[-60.112,4.502],[-60.121,4.502],[-60.133,4.505],[-60.149,4.513],[-60.16,4.528],[-60.165,4.546],[-60.162,4.565],[-60.135,4.594],[-60.126,4.595],[-60.106,4.595],[-60.097,4.599],[-60.088,4.608],[-60.084,4.617],[-60.083,4.627],[-60.081,4.638],[-60.076,4.65],[-60.047,4.692],[-60.038,4.708],[-60.032,4.725],[-60.03,4.744],[-60.035,4.788],[-60.02,4.832],[-60.018,4.892],[-60.011,4.922],[-60.004,4.94],[-60,4.958],[-59.999,4.997],[-59.982,5.057],[-59.983,5.086],[-60.011,5.1],[-60.055,5.125],[-60.076,5.141],[-60.089,5.155],[-60.08,5.162],[-60.061,5.183],[-60.014,5.22],[-60,5.233],[-59.991,5.243],[-59.987,5.257],[-59.969,5.295],[-59.96,5.325],[-59.948,5.348],[-59.939,5.36],[-59.929,5.369],[-59.918,5.374],[-59.853,5.395],[-59.846,5.396],[-59.839,5.396],[-59.795,5.394],[-59.764,5.399],[-59.748,5.399],[-59.657,5.381],[-59.641,5.381],[-59.584,5.386],[-59.573,5.405],[-59.581,5.488],[-59.588,5.525],[-59.588,5.536],[-59.585,5.546],[-59.58,5.552],[-59.551,5.578],[-59.509,5.607],[-59.503,5.61],[-59.498,5.611],[-59.492,5.611],[-59.418,5.588],[-59.403,5.586],[-59.388,5.585],[-59.381,5.585],[-59.372,5.587],[-59.361,5.591],[-59.344,5.601],[-59.335,5.608],[-59.33,5.616],[-59.316,5.64],[-59.297,5.664],[-59.286,5.676],[-59.276,5.685],[-59.24,5.705],[-59.232,5.708],[-59.222,5.709],[-59.214,5.708],[-59.207,5.705],[-59.2,5.699],[-59.193,5.692],[-59.171,5.664],[-59.152,5.645],[-59.148,5.639],[-59.133,5.61],[-59.128,5.603],[-59.122,5.596],[-59.108,5.584],[-59.103,5.578],[-59.102,5.571],[-59.104,5.533],[-59.103,5.526],[-59.099,5.519],[-59.091,5.513],[-59.077,5.51],[-59.068,5.511],[-59.059,5.514],[-59.023,5.53],[-59.013,5.53],[-59.005,5.528],[-59,5.523],[-58.974,5.489],[-58.967,5.483],[-58.959,5.479],[-58.952,5.477],[-58.907,5.474],[-58.896,5.472],[-58.888,5.47],[-58.881,5.467],[-58.875,5.462],[-58.87,5.456],[-58.845,5.415],[-58.859,5.409],[-58.866,5.388],[-58.875,5.372],[-58.879,5.362],[-58.88,5.351],[-58.88,5.342],[-58.881,5.334],[-58.885,5.327],[-58.838,5.256],[-58.827,5.245],[-58.821,5.229],[-58.822,5.157],[-58.846,5.013],[-58.844,4.972],[-58.82,4.908],[-58.794,4.766],[-58.781,4.749],[-58.735,4.762],[-58.721,4.747],[-58.706,4.704],[-58.682,4.671],[-58.668,4.663],[-58.663,4.661],[-58.62,4.647],[-58.61,4.642],[-58.603,4.637],[-58.588,4.628],[-58.568,4.621],[-58.521,4.614],[-58.37,4.615],[-58.297,4.632],[-58.282,4.634],[-58.293,4.597],[-58.378,4.447],[-58.396,4.381],[-58.436,4.273],[-58.44,4.251],[-58.487,4.271],[-58.517,4.284],[-58.532,4.288],[-58.54,4.288],[-58.549,4.288],[-58.564,4.286],[-58.573,4.284],[-58.598,4.273],[-58.619,4.26],[-58.633,4.248],[-58.648,4.231],[-58.668,4.197],[-58.674,4.19],[-58.808,4.071],[-58.826,4.047],[-58.854,4.019],[-58.869,4.006],[-58.876,4.003],[-58.881,4.001],[-58.891,4],[-58.925,4],[-58.939,4.004],[-58.946,4.009],[-58.955,4.017],[-59.023,4.105],[-59.029,4.115],[-59.032,4.126],[-59.038,4.151],[-59.047,4.174],[-59.05,4.178],[-59.055,4.183],[-59.063,4.185],[-59.069,4.186],[-59.075,4.186],[-59.082,4.185],[-59.089,4.182],[-59.134,4.16],[-59.141,4.157],[-59.148,4.156],[-59.155,4.156],[-59.176,4.159],[-59.19,4.16],[-59.249,4.15],[-59.385,4.155],[-59.399,4.158],[-59.414,4.163],[-59.447,4.179],[-59.455,4.184],[-59.462,4.191],[-59.47,4.2],[-59.473,4.209],[-59.473,4.219],[-59.468,4.232],[-59.462,4.241],[-59.45,4.255],[-59.446,4.264],[-59.446,4.273],[-59.453,4.315],[-59.455,4.358],[-59.451,4.377],[-59.446,4.391],[-59.44,4.398],[-59.435,4.405],[-59.435,4.418],[-59.439,4.434],[-59.453,4.468],[-59.458,4.484],[-59.466,4.501],[-59.488,4.509],[-59.509,4.503],[-59.517,4.5],[-59.525,4.495],[-59.533,4.489],[-59.541,4.482],[-59.551,4.47],[-59.558,4.461],[-59.59,4.395],[-59.595,4.389],[-59.601,4.382],[-59.608,4.377],[-59.618,4.372],[-59.638,4.37],[-59.675,4.373],[-59.687,4.371],[-59.687,4.381],[-59.69,4.384],[-59.702,4.386],[-59.714,4.389],[-59.722,4.398],[-59.73,4.408],[-59.738,4.416],[-59.796,4.448],[-59.81,4.466],[-59.818,4.457],[-59.826,4.455],[-59.848,4.46],[-59.852,4.461],[-59.863,4.461],[-59.868,4.462],[-59.872,4.468],[-59.869,4.481],[-59.873,4.485],[-59.886,4.485],[-59.905,4.475],[-59.915,4.474],[-59.92,4.479],[-59.934,4.498],[-59.943,4.504],[-59.953,4.506],[-59.965,4.506],[-59.975,4.504],[-59.979,4.495],[-59.985,4.489],[-59.997,4.491],[-60.021,4.499],[-60.04,4.496],[-60.056,4.492],[-60.066,4.494],[-60.072,4.513],[-60.077,4.52],[-60.088,4.526],[-60.099,4.526],[-60.104,4.518],[-60.106,4.507],[-60.112,4.502]]]}},{"type":"Feature","id":"GY-UD","properties":{"id":"GY-UD","countryCode":"GY","isoSubdivision":"GY-UD","name":"Upper Demerara-Berbice","name_en":"Upper Demerara-Berbice","name_ko":"어퍼데메라라버비스","type":"Region","labelLongitude":-58.965,"labelLatitude":2.669,"minZoom":8},"geometry":{"type":"Polygon","coordinates":[[[-59.59,3.967],[-59.596,3.971],[-59.595,3.996],[-59.6,4.002],[-59.606,4.007],[-59.62,4.033],[-59.654,4.064],[-59.663,4.08],[-59.66,4.103],[-59.649,4.12],[-59.646,4.134],[-59.667,4.151],[-59.71,4.164],[-59.727,4.176],[-59.738,4.203],[-59.74,4.214],[-59.741,4.222],[-59.738,4.24],[-59.736,4.246],[-59.727,4.258],[-59.724,4.264],[-59.727,4.271],[-59.737,4.282],[-59.738,4.287],[-59.728,4.305],[-59.694,4.341],[-59.687,4.364],[-59.687,4.371],[-59.675,4.373],[-59.638,4.37],[-59.618,4.372],[-59.608,4.377],[-59.601,4.382],[-59.595,4.389],[-59.59,4.395],[-59.558,4.461],[-59.551,4.47],[-59.541,4.482],[-59.533,4.489],[-59.525,4.495],[-59.517,4.5],[-59.509,4.503],[-59.488,4.509],[-59.466,4.501],[-59.458,4.484],[-59.453,4.468],[-59.439,4.434],[-59.435,4.418],[-59.435,4.405],[-59.44,4.398],[-59.446,4.391],[-59.451,4.377],[-59.455,4.358],[-59.453,4.315],[-59.446,4.273],[-59.446,4.264],[-59.45,4.255],[-59.462,4.241],[-59.468,4.232],[-59.473,4.219],[-59.473,4.209],[-59.47,4.2],[-59.462,4.191],[-59.455,4.184],[-59.447,4.179],[-59.414,4.163],[-59.399,4.158],[-59.385,4.155],[-59.249,4.15],[-59.19,4.16],[-59.176,4.159],[-59.155,4.156],[-59.148,4.156],[-59.141,4.157],[-59.134,4.16],[-59.089,4.182],[-59.082,4.185],[-59.075,4.186],[-59.069,4.186],[-59.063,4.185],[-59.055,4.183],[-59.05,4.178],[-59.047,4.174],[-59.038,4.151],[-59.032,4.126],[-59.029,4.115],[-59.023,4.105],[-58.955,4.017],[-58.946,4.009],[-58.939,4.004],[-58.925,4],[-58.891,4],[-58.881,4.001],[-58.876,4.003],[-58.869,4.006],[-58.854,4.019],[-58.826,4.047],[-58.808,4.071],[-58.674,4.19],[-58.668,4.197],[-58.648,4.231],[-58.633,4.248],[-58.619,4.26],[-58.598,4.273],[-58.573,4.284],[-58.564,4.286],[-58.549,4.288],[-58.54,4.288],[-58.532,4.288],[-58.517,4.284],[-58.487,4.271],[-58.44,4.251],[-58.425,4.223],[-58.364,4.139],[-58.324,4],[-58.323,3.992],[-58.324,3.978],[-58.331,3.949],[-58.331,3.936],[-58.329,3.919],[-58.298,3.79],[-58.29,3.769],[-58.282,3.753],[-58.189,3.614],[-58.157,3.549],[-58.152,3.534],[-58.149,3.512],[-58.149,3.489],[-58.115,3.355],[-58.114,3.337],[-58.119,3.291],[-58.117,3.264],[-58.111,3.235],[-58.1,3.204],[-57.995,3.054],[-57.932,2.905],[-57.929,2.886],[-57.932,2.878],[-58.011,2.773],[-58.026,2.743],[-58.028,2.735],[-58.03,2.721],[-58.031,2.707],[-58.02,2.578],[-58.02,2.548],[-58.022,2.528],[-58.027,2.509],[-58.039,2.475],[-58.108,2.342],[-58.267,1.897],[-58.304,1.828],[-58.345,1.765],[-58.396,1.647],[-58.407,1.631],[-58.45,1.587],[-58.485,1.537],[-58.494,1.514],[-58.502,1.455],[-58.502,1.454],[-58.514,1.439],[-58.507,1.418],[-58.488,1.379],[-58.482,1.358],[-58.481,1.334],[-58.488,1.316],[-58.519,1.267],[-58.527,1.267],[-58.535,1.272],[-58.543,1.274],[-58.543,1.276],[-58.547,1.28],[-58.552,1.285],[-58.557,1.287],[-58.561,1.285],[-58.574,1.275],[-58.581,1.273],[-58.683,1.282],[-58.698,1.281],[-58.709,1.272],[-58.737,1.232],[-58.753,1.215],[-58.772,1.201],[-58.796,1.192],[-58.816,1.187],[-58.834,1.186],[-58.852,1.189],[-58.872,1.197],[-58.898,1.218],[-58.906,1.239],[-58.912,1.26],[-58.927,1.284],[-58.946,1.299],[-58.966,1.31],[-58.972,1.312],[-59.011,1.328],[-59.178,1.357],[-59.242,1.378],[-59.26,1.387],[-59.272,1.404],[-59.294,1.452],[-59.302,1.463],[-59.32,1.474],[-59.325,1.491],[-59.327,1.51],[-59.339,1.525],[-59.348,1.526],[-59.368,1.52],[-59.38,1.523],[-59.384,1.528],[-59.391,1.544],[-59.395,1.549],[-59.4,1.552],[-59.412,1.553],[-59.417,1.555],[-59.426,1.566],[-59.446,1.601],[-59.455,1.611],[-59.486,1.636],[-59.503,1.658],[-59.531,1.703],[-59.551,1.721],[-59.573,1.727],[-59.591,1.725],[-59.608,1.72],[-59.628,1.719],[-59.64,1.722],[-59.65,1.727],[-59.659,1.734],[-59.681,1.757],[-59.682,1.766],[-59.666,1.787],[-59.645,1.828],[-59.646,1.84],[-59.649,1.841],[-59.655,1.84],[-59.668,1.843],[-59.706,1.857],[-59.717,1.858],[-59.738,1.851],[-59.75,1.851],[-59.759,1.862],[-59.764,1.883],[-59.765,1.905],[-59.765,1.921],[-59.761,1.932],[-59.748,1.951],[-59.744,1.962],[-59.743,1.971],[-59.745,1.997],[-59.744,2.006],[-59.738,2.022],[-59.737,2.03],[-59.74,2.041],[-59.751,2.062],[-59.753,2.075],[-59.75,2.086],[-59.739,2.104],[-59.735,2.114],[-59.736,2.124],[-59.745,2.154],[-59.746,2.191],[-59.74,2.229],[-59.742,2.264],[-59.763,2.288],[-59.772,2.29],[-59.792,2.291],[-59.801,2.293],[-59.814,2.299],[-59.844,2.325],[-59.884,2.346],[-59.903,2.36],[-59.913,2.379],[-59.912,2.388],[-59.902,2.405],[-59.902,2.416],[-59.904,2.426],[-59.905,2.448],[-59.907,2.459],[-59.936,2.524],[-59.94,2.543],[-59.939,2.555],[-59.941,2.563],[-59.949,2.58],[-59.953,2.584],[-59.966,2.589],[-59.971,2.593],[-59.97,2.596],[-59.965,2.608],[-59.965,2.613],[-59.996,2.675],[-60,2.694],[-59.994,2.857],[-59.973,2.939],[-59.97,2.96],[-59.974,3.018],[-59.969,3.043],[-59.959,3.066],[-59.933,3.11],[-59.927,3.114],[-59.921,3.117],[-59.915,3.12],[-59.912,3.126],[-59.913,3.133],[-59.92,3.144],[-59.922,3.15],[-59.918,3.153],[-59.906,3.155],[-59.903,3.159],[-59.905,3.165],[-59.914,3.175],[-59.917,3.181],[-59.917,3.194],[-59.912,3.202],[-59.904,3.208],[-59.898,3.217],[-59.884,3.263],[-59.88,3.273],[-59.854,3.315],[-59.843,3.349],[-59.84,3.35],[-59.834,3.35],[-59.827,3.352],[-59.822,3.357],[-59.821,3.363],[-59.827,3.377],[-59.828,3.383],[-59.824,3.432],[-59.841,3.425],[-59.839,3.443],[-59.821,3.484],[-59.83,3.51],[-59.848,3.53],[-59.863,3.552],[-59.863,3.582],[-59.838,3.609],[-59.756,3.638],[-59.718,3.673],[-59.695,3.683],[-59.686,3.69],[-59.68,3.702],[-59.68,3.71],[-59.681,3.719],[-59.68,3.731],[-59.672,3.756],[-59.659,3.769],[-59.618,3.787],[-59.599,3.802],[-59.595,3.817],[-59.6,3.833],[-59.603,3.856],[-59.596,3.876],[-59.582,3.899],[-59.563,3.918],[-59.545,3.926],[-59.535,3.927],[-59.529,3.932],[-59.528,3.94],[-59.53,3.949],[-59.537,3.958],[-59.549,3.962],[-59.58,3.967],[-59.59,3.967]]]}},{"type":"Feature","id":"GY-UT","properties":{"id":"GY-UT","countryCode":"GY","isoSubdivision":"GY-UT","name":"Upper Takutu-Upper Essequibo","name_en":"Upper Takutu-Upper Essequibo","name_ko":"어퍼타쿠투어퍼에세키보","type":"Region","labelLongitude":-58.245,"labelLatitude":5.365,"minZoom":8},"geometry":{"type":"Polygon","coordinates":[[[-58.602,6.417],[-58.59,6.417],[-58.598,6.423],[-58.581,6.463],[-58.581,6.465],[-58.56,6.451],[-58.504,6.365],[-58.491,6.35],[-58.481,6.341],[-58.44,6.315],[-58.401,6.272],[-58.389,6.248],[-58.383,6.232],[-58.381,6.222],[-58.38,6.213],[-58.38,6.206],[-58.379,6.2],[-58.363,6.144],[-58.362,6.139],[-58.364,6.13],[-58.36,6.127],[-58.355,6.127],[-58.311,6.124],[-58.3,6.121],[-58.292,6.117],[-58.275,6.106],[-58.248,6.094],[-58.243,6.095],[-58.235,6.096],[-58.217,6.104],[-58.18,6.115],[-58.146,6.085],[-58.14,6.082],[-58.125,6.08],[-58.114,6.047],[-58.114,6.03],[-58.126,5.989],[-58.115,5.972],[-58.101,5.965],[-58.033,5.943],[-58.001,5.937],[-57.993,5.936],[-57.951,5.93],[-57.947,5.923],[-57.94,5.906],[-57.928,5.895],[-57.91,5.87],[-57.903,5.866],[-57.894,5.865],[-57.885,5.866],[-57.871,5.864],[-57.861,5.859],[-57.844,5.841],[-57.836,5.839],[-57.829,5.842],[-57.823,5.848],[-57.817,5.854],[-57.809,5.859],[-57.797,5.863],[-57.752,5.86],[-57.745,5.862],[-57.722,5.87],[-57.715,5.872],[-57.694,5.872],[-57.683,5.875],[-57.652,5.809],[-57.636,5.791],[-57.623,5.788],[-57.608,5.774],[-57.606,5.765],[-57.606,5.756],[-57.608,5.748],[-57.626,5.703],[-57.68,5.48],[-57.688,5.384],[-57.692,5.362],[-57.698,5.347],[-57.73,5.314],[-57.746,5.286],[-57.77,5.223],[-57.803,5.18],[-57.823,5.144],[-57.872,5.015],[-57.97,4.905],[-57.995,4.871],[-58.012,4.83],[-58.026,4.767],[-58.066,4.654],[-58.084,4.644],[-58.115,4.638],[-58.282,4.634],[-58.297,4.632],[-58.37,4.615],[-58.521,4.614],[-58.568,4.621],[-58.588,4.628],[-58.603,4.637],[-58.61,4.642],[-58.62,4.647],[-58.663,4.661],[-58.668,4.663],[-58.682,4.671],[-58.706,4.704],[-58.721,4.747],[-58.735,4.762],[-58.781,4.749],[-58.794,4.766],[-58.82,4.908],[-58.844,4.972],[-58.846,5.013],[-58.822,5.157],[-58.821,5.229],[-58.827,5.245],[-58.838,5.256],[-58.885,5.327],[-58.881,5.334],[-58.88,5.342],[-58.88,5.351],[-58.879,5.362],[-58.875,5.372],[-58.866,5.388],[-58.859,5.409],[-58.845,5.415],[-58.804,5.417],[-58.717,5.43],[-58.693,5.438],[-58.676,5.455],[-58.653,5.499],[-58.635,5.54],[-58.623,5.581],[-58.617,5.623],[-58.618,5.692],[-58.611,5.756],[-58.615,5.819],[-58.611,5.842],[-58.586,5.895],[-58.573,5.914],[-58.57,5.937],[-58.57,6.019],[-58.573,6.03],[-58.584,6.054],[-58.585,6.075],[-58.57,6.208],[-58.573,6.218],[-58.579,6.227],[-58.583,6.235],[-58.58,6.243],[-58.576,6.25],[-58.572,6.258],[-58.571,6.267],[-58.57,6.276],[-58.574,6.294],[-58.598,6.342],[-58.6,6.361],[-58.6,6.406],[-58.602,6.417]]]}}]}
