{"type":"FeatureCollection","features":[{"type":"Feature","id":"HM-X01~","properties":{"id":"HM-X01~","countryCode":"HM","isoSubdivision":"HM-X01~","name":"Heard Island and McDonald Islands","name_en":"Heard Island and McDonald Islands","name_ko":"허드 아일랜드 앤 맥도날드 아일랜즈","type":"Principal subdivision","labelLongitude":73.525,"labelLatitude":-53.104,"minZoom":18},"geometry":{"type":"Polygon","coordinates":[[[73.735,-53.112],[73.762,-53.119],[73.789,-53.121],[73.812,-53.119],[73.662,-53.147],[73.61,-53.18],[73.581,-53.188],[73.507,-53.193],[73.473,-53.189],[73.44,-53.173],[73.43,-53.165],[73.404,-53.139],[73.371,-53.091],[73.364,-53.075],[73.371,-53.065],[73.36,-53.059],[73.353,-53.052],[73.354,-53.044],[73.364,-53.037],[73.345,-53.029],[73.329,-53.025],[73.271,-53.022],[73.254,-53.015],[73.242,-53.002],[73.236,-52.982],[73.269,-52.975],[73.297,-52.962],[73.331,-52.985],[73.337,-52.986],[73.345,-52.997],[73.361,-53.009],[73.377,-53.017],[73.385,-53.013],[73.389,-52.998],[73.4,-52.991],[73.413,-52.993],[73.427,-53.003],[73.413,-53.009],[73.426,-53.025],[73.447,-53.028],[73.47,-53.022],[73.488,-53.009],[73.508,-53.015],[73.564,-53.017],[73.588,-53.027],[73.598,-53.034],[73.621,-53.04],[73.633,-53.044],[73.64,-53.051],[73.656,-53.068],[73.663,-53.071],[73.689,-53.09],[73.699,-53.101],[73.735,-53.112]]]}}]}
