{"type":"FeatureCollection","features":[{"type":"Feature","id":"HN-AT","properties":{"id":"HN-AT","countryCode":"HN","isoSubdivision":"HN-AT","name":"Atlántida","name_en":"Atlántida","name_ko":"아틀란티다","type":"Department","labelLongitude":-87.078,"labelLatitude":15.634,"minZoom":8},"geometry":{"type":"Polygon","coordinates":[[[-87.728,15.921],[-87.722,15.923],[-87.704,15.921],[-87.687,15.915],[-87.643,15.889],[-87.626,15.888],[-87.626,15.894],[-87.636,15.904],[-87.626,15.915],[-87.591,15.935],[-87.61,15.91],[-87.617,15.895],[-87.609,15.888],[-87.603,15.881],[-87.51,15.799],[-87.479,15.786],[-87.447,15.792],[-87.442,15.798],[-87.432,15.814],[-87.427,15.819],[-87.417,15.82],[-87.391,15.818],[-87.386,15.822],[-87.38,15.84],[-87.365,15.848],[-87.345,15.85],[-87.242,15.827],[-87.152,15.797],[-87.059,15.787],[-86.953,15.763],[-86.917,15.76],[-86.879,15.764],[-86.817,15.782],[-86.8,15.785],[-86.797,15.788],[-86.78,15.8],[-86.776,15.802],[-86.771,15.807],[-86.758,15.802],[-86.746,15.796],[-86.742,15.792],[-86.699,15.789],[-86.504,15.805],[-86.471,15.804],[-86.44,15.792],[-86.438,15.791],[-86.438,15.783],[-86.445,15.782],[-86.446,15.781],[-86.447,15.779],[-86.446,15.775],[-86.445,15.77],[-86.443,15.764],[-86.442,15.75],[-86.438,15.742],[-86.432,15.734],[-86.418,15.723],[-86.409,15.714],[-86.397,15.69],[-86.394,15.684],[-86.385,15.681],[-86.38,15.678],[-86.376,15.678],[-86.37,15.679],[-86.366,15.676],[-86.363,15.672],[-86.362,15.649],[-86.362,15.627],[-86.366,15.614],[-86.376,15.604],[-86.399,15.596],[-86.421,15.583],[-86.443,15.592],[-86.47,15.596],[-86.496,15.593],[-86.503,15.592],[-86.509,15.589],[-86.518,15.588],[-86.526,15.589],[-86.537,15.593],[-86.547,15.594],[-86.583,15.592],[-86.619,15.602],[-86.636,15.605],[-86.648,15.602],[-86.67,15.596],[-86.691,15.587],[-86.732,15.564],[-86.757,15.556],[-86.779,15.551],[-86.81,15.551],[-86.825,15.549],[-86.844,15.553],[-86.856,15.569],[-86.927,15.551],[-86.972,15.552],[-86.991,15.549],[-87.028,15.517],[-87.045,15.499],[-87.054,15.492],[-87.072,15.482],[-87.137,15.459],[-87.168,15.438],[-87.178,15.429],[-87.182,15.427],[-87.224,15.427],[-87.295,15.444],[-87.305,15.443],[-87.315,15.445],[-87.324,15.451],[-87.335,15.455],[-87.343,15.456],[-87.349,15.455],[-87.355,15.451],[-87.361,15.449],[-87.365,15.446],[-87.371,15.443],[-87.376,15.441],[-87.382,15.442],[-87.387,15.444],[-87.402,15.45],[-87.41,15.456],[-87.417,15.461],[-87.424,15.47],[-87.431,15.481],[-87.436,15.506],[-87.437,15.518],[-87.438,15.529],[-87.456,15.54],[-87.465,15.541],[-87.47,15.539],[-87.509,15.517],[-87.523,15.519],[-87.565,15.508],[-87.61,15.504],[-87.626,15.511],[-87.665,15.554],[-87.669,15.559],[-87.672,15.565],[-87.677,15.596],[-87.678,15.61],[-87.687,15.645],[-87.698,15.664],[-87.715,15.672],[-87.788,15.721],[-87.773,15.725],[-87.764,15.73],[-87.758,15.74],[-87.758,15.751],[-87.761,15.76],[-87.767,15.765],[-87.775,15.763],[-87.78,15.776],[-87.795,15.793],[-87.795,15.804],[-87.789,15.813],[-87.774,15.828],[-87.766,15.839],[-87.757,15.863],[-87.752,15.872],[-87.741,15.882],[-87.731,15.888],[-87.725,15.897],[-87.728,15.921]]]}},{"type":"Feature","id":"HN-CH","properties":{"id":"HN-CH","countryCode":"HN","isoSubdivision":"HN-CH","name":"Choluteca","name_en":"Choluteca","name_ko":"촐루테카","type":"Department","labelLongitude":-87.107,"labelLatitude":13.259,"minZoom":8},"geometry":{"type":"Polygon","coordinates":[[[-86.733,13.268],[-86.74,13.264],[-86.749,13.261],[-86.759,13.264],[-86.816,13.292],[-86.833,13.293],[-86.849,13.289],[-86.863,13.28],[-86.911,13.24],[-86.919,13.23],[-86.926,13.216],[-86.933,13.188],[-86.935,13.186],[-86.933,13.18],[-86.926,13.164],[-86.924,13.161],[-86.932,13.109],[-86.93,13.102],[-86.924,13.1],[-86.92,13.096],[-86.923,13.086],[-86.928,13.081],[-86.943,13.074],[-86.948,13.07],[-86.972,13.034],[-86.983,13.022],[-87.009,13.006],[-87.03,12.996],[-87.035,12.98],[-87.047,12.981],[-87.07,12.994],[-87.085,12.996],[-87.314,12.982],[-87.304,12.988],[-87.301,13.001],[-87.294,13.011],[-87.283,13.018],[-87.269,13.023],[-87.269,13.029],[-87.297,13.03],[-87.317,13.034],[-87.332,13.043],[-87.345,13.057],[-87.351,13.067],[-87.353,13.073],[-87.351,13.088],[-87.345,13.091],[-87.314,13.095],[-87.304,13.098],[-87.362,13.113],[-87.395,13.117],[-87.413,13.111],[-87.419,13.111],[-87.422,13.15],[-87.436,13.189],[-87.455,13.224],[-87.475,13.249],[-87.481,13.265],[-87.482,13.266],[-87.485,13.27],[-87.49,13.27],[-87.497,13.268],[-87.502,13.27],[-87.509,13.279],[-87.512,13.287],[-87.51,13.295],[-87.502,13.304],[-87.493,13.31],[-87.477,13.317],[-87.468,13.325],[-87.448,13.353],[-87.44,13.359],[-87.427,13.356],[-87.411,13.36],[-87.379,13.372],[-87.38,13.38],[-87.38,13.386],[-87.379,13.393],[-87.359,13.408],[-87.348,13.433],[-87.35,13.453],[-87.361,13.474],[-87.366,13.49],[-87.368,13.499],[-87.364,13.519],[-87.4,13.546],[-87.415,13.576],[-87.416,13.583],[-87.42,13.591],[-87.424,13.598],[-87.422,13.638],[-87.426,13.645],[-87.433,13.649],[-87.442,13.654],[-87.459,13.668],[-87.461,13.67],[-87.465,13.684],[-87.465,13.698],[-87.46,13.719],[-87.458,13.745],[-87.454,13.757],[-87.443,13.76],[-87.424,13.761],[-87.412,13.758],[-87.401,13.755],[-87.397,13.756],[-87.391,13.756],[-87.387,13.755],[-87.388,13.751],[-87.395,13.734],[-87.393,13.721],[-87.374,13.703],[-87.36,13.69],[-87.319,13.695],[-87.308,13.689],[-87.298,13.684],[-87.263,13.688],[-87.214,13.671],[-87.224,13.629],[-87.217,13.616],[-87.206,13.612],[-87.198,13.603],[-87.191,13.598],[-87.187,13.579],[-87.184,13.566],[-87.17,13.558],[-87.124,13.556],[-87.116,13.549],[-87.115,13.54],[-87.107,13.521],[-87.089,13.507],[-87.077,13.506],[-87.07,13.508],[-87.039,13.525],[-87.017,13.551],[-87.014,13.566],[-87.011,13.574],[-87,13.584],[-86.985,13.588],[-86.977,13.593],[-86.966,13.602],[-86.95,13.619],[-86.943,13.63],[-86.938,13.639],[-86.935,13.657],[-86.933,13.661],[-86.926,13.659],[-86.921,13.657],[-86.891,13.659],[-86.887,13.652],[-86.849,13.676],[-86.841,13.679],[-86.824,13.681],[-86.816,13.681],[-86.809,13.682],[-86.801,13.694],[-86.794,13.7],[-86.786,13.701],[-86.772,13.708],[-86.771,13.708],[-86.774,13.655],[-86.772,13.646],[-86.768,13.64],[-86.764,13.637],[-86.755,13.631],[-86.752,13.624],[-86.751,13.608],[-86.757,13.576],[-86.757,13.559],[-86.724,13.439],[-86.726,13.424],[-86.739,13.396],[-86.74,13.382],[-86.736,13.372],[-86.73,13.369],[-86.724,13.367],[-86.717,13.362],[-86.71,13.349],[-86.708,13.343],[-86.702,13.314],[-86.704,13.299],[-86.712,13.286],[-86.725,13.273],[-86.733,13.268]]]}},{"type":"Feature","id":"HN-CL","properties":{"id":"HN-CL","countryCode":"HN","isoSubdivision":"HN-CL","name":"Colón","name_en":"Colón","name_ko":"콜론","type":"Department","labelLongitude":-85.724,"labelLatitude":15.779,"minZoom":8},"geometry":{"type":"Polygon","coordinates":[[[-86.438,15.791],[-86.415,15.776],[-86.399,15.772],[-86.375,15.771],[-86.355,15.774],[-86.338,15.781],[-86.243,15.839],[-86.218,15.865],[-86.207,15.874],[-86.173,15.888],[-86.138,15.896],[-85.995,15.901],[-85.982,15.904],[-85.972,15.909],[-85.933,15.937],[-85.912,15.959],[-85.903,15.983],[-85.919,16.004],[-85.982,16.013],[-86.013,16.02],[-86.008,16.031],[-85.982,16.033],[-85.905,16.018],[-85.851,16.009],[-85.813,16.005],[-85.766,15.992],[-85.719,15.98],[-85.703,15.976],[-85.692,15.972],[-85.689,15.96],[-85.69,15.946],[-85.687,15.935],[-85.68,15.935],[-85.68,15.942],[-85.678,15.945],[-85.675,15.947],[-85.673,15.949],[-85.656,15.949],[-85.647,15.936],[-85.63,15.922],[-85.608,15.907],[-85.564,15.889],[-85.489,15.87],[-85.436,15.874],[-85.362,15.881],[-85.254,15.884],[-85.196,15.907],[-85.124,15.959],[-85.076,15.986],[-85,15.988],[-85,15.069],[-85.06,15.137],[-85.093,15.167],[-85.233,15.227],[-85.249,15.237],[-85.307,15.305],[-85.36,15.381],[-85.396,15.409],[-85.505,15.449],[-85.608,15.535],[-85.688,15.577],[-85.709,15.582],[-85.718,15.577],[-85.728,15.573],[-85.736,15.572],[-85.746,15.576],[-85.752,15.581],[-85.759,15.584],[-85.764,15.585],[-85.786,15.574],[-85.785,15.565],[-85.788,15.558],[-85.796,15.549],[-85.817,15.532],[-85.837,15.52],[-85.848,15.521],[-85.86,15.528],[-85.866,15.53],[-85.873,15.531],[-85.88,15.529],[-85.885,15.523],[-85.909,15.484],[-85.97,15.427],[-86.028,15.397],[-86.032,15.39],[-86.038,15.39],[-86.046,15.394],[-86.054,15.396],[-86.063,15.397],[-86.081,15.394],[-86.09,15.39],[-86.107,15.387],[-86.126,15.378],[-86.149,15.373],[-86.172,15.378],[-86.233,15.41],[-86.234,15.436],[-86.241,15.449],[-86.242,15.454],[-86.236,15.499],[-86.237,15.513],[-86.24,15.521],[-86.243,15.523],[-86.248,15.524],[-86.25,15.523],[-86.252,15.52],[-86.253,15.519],[-86.254,15.519],[-86.256,15.52],[-86.258,15.522],[-86.26,15.523],[-86.264,15.523],[-86.266,15.524],[-86.269,15.526],[-86.273,15.53],[-86.275,15.533],[-86.278,15.534],[-86.281,15.535],[-86.283,15.536],[-86.289,15.536],[-86.314,15.542],[-86.362,15.54],[-86.372,15.541],[-86.377,15.542],[-86.38,15.546],[-86.391,15.56],[-86.421,15.583],[-86.399,15.596],[-86.376,15.604],[-86.366,15.614],[-86.362,15.627],[-86.362,15.649],[-86.363,15.672],[-86.366,15.676],[-86.37,15.679],[-86.376,15.678],[-86.38,15.678],[-86.385,15.681],[-86.394,15.684],[-86.397,15.69],[-86.409,15.714],[-86.418,15.723],[-86.432,15.734],[-86.438,15.742],[-86.442,15.75],[-86.443,15.764],[-86.445,15.77],[-86.446,15.775],[-86.447,15.779],[-86.446,15.781],[-86.445,15.782],[-86.438,15.783],[-86.438,15.791]]]}},{"type":"Feature","id":"HN-CM","properties":{"id":"HN-CM","countryCode":"HN","isoSubdivision":"HN-CM","name":"Comayagua","name_en":"Comayagua","name_ko":"코마야과","type":"Department","labelLongitude":-87.678,"labelLatitude":14.658,"minZoom":8},"geometry":{"type":"Polygon","coordinates":[[[-88.075,14.665],[-88.062,14.686],[-88.072,14.711],[-88.078,14.721],[-88.077,14.735],[-88.075,14.742],[-88.07,14.747],[-88.058,14.752],[-88.053,14.755],[-88.023,14.786],[-87.987,14.793],[-87.986,14.836],[-87.98,14.82],[-87.974,14.81],[-87.963,14.804],[-87.884,14.858],[-87.869,14.877],[-87.847,14.899],[-87.844,14.901],[-87.821,14.907],[-87.803,14.916],[-87.757,14.948],[-87.741,14.962],[-87.736,14.984],[-87.736,15.017],[-87.642,15.018],[-87.631,15.017],[-87.587,15.026],[-87.584,15.035],[-87.555,15.056],[-87.551,15.057],[-87.548,15.058],[-87.544,15.056],[-87.538,15.054],[-87.525,15.045],[-87.517,15.038],[-87.506,15.023],[-87.503,15.014],[-87.5,15.002],[-87.499,14.997],[-87.496,14.993],[-87.492,14.989],[-87.487,14.986],[-87.477,14.983],[-87.473,14.98],[-87.469,14.975],[-87.464,14.972],[-87.461,14.966],[-87.459,14.961],[-87.46,14.952],[-87.46,14.947],[-87.459,14.941],[-87.456,14.934],[-87.455,14.93],[-87.452,14.924],[-87.452,14.921],[-87.452,14.919],[-87.452,14.916],[-87.449,14.914],[-87.444,14.911],[-87.434,14.909],[-87.419,14.909],[-87.394,14.921],[-87.375,14.939],[-87.351,14.937],[-87.315,14.928],[-87.311,14.926],[-87.303,14.92],[-87.297,14.917],[-87.292,14.918],[-87.285,14.924],[-87.279,14.923],[-87.273,14.921],[-87.246,14.898],[-87.228,14.89],[-87.225,14.887],[-87.219,14.881],[-87.218,14.874],[-87.208,14.859],[-87.225,14.847],[-87.245,14.846],[-87.248,14.845],[-87.251,14.842],[-87.254,14.837],[-87.257,14.827],[-87.258,14.811],[-87.254,14.796],[-87.249,14.762],[-87.255,14.738],[-87.266,14.711],[-87.267,14.707],[-87.266,14.705],[-87.266,14.703],[-87.268,14.701],[-87.276,14.696],[-87.28,14.693],[-87.285,14.692],[-87.289,14.691],[-87.292,14.689],[-87.301,14.683],[-87.306,14.681],[-87.31,14.681],[-87.312,14.679],[-87.313,14.676],[-87.314,14.67],[-87.315,14.668],[-87.319,14.667],[-87.321,14.668],[-87.322,14.67],[-87.324,14.671],[-87.325,14.67],[-87.326,14.666],[-87.324,14.658],[-87.324,14.653],[-87.323,14.647],[-87.327,14.634],[-87.342,14.608],[-87.353,14.608],[-87.357,14.609],[-87.361,14.611],[-87.365,14.612],[-87.366,14.614],[-87.367,14.618],[-87.368,14.62],[-87.371,14.62],[-87.374,14.62],[-87.378,14.62],[-87.382,14.621],[-87.386,14.623],[-87.391,14.625],[-87.395,14.626],[-87.399,14.627],[-87.402,14.625],[-87.404,14.621],[-87.403,14.606],[-87.404,14.6],[-87.405,14.595],[-87.406,14.59],[-87.415,14.572],[-87.466,14.522],[-87.463,14.507],[-87.46,14.499],[-87.456,14.49],[-87.451,14.482],[-87.435,14.472],[-87.412,14.452],[-87.409,14.448],[-87.407,14.444],[-87.407,14.434],[-87.41,14.43],[-87.413,14.427],[-87.412,14.424],[-87.411,14.421],[-87.386,14.403],[-87.383,14.395],[-87.393,14.374],[-87.419,14.339],[-87.425,14.336],[-87.432,14.333],[-87.444,14.339],[-87.45,14.34],[-87.455,14.34],[-87.459,14.338],[-87.462,14.332],[-87.464,14.322],[-87.462,14.282],[-87.46,14.272],[-87.457,14.266],[-87.451,14.259],[-87.445,14.254],[-87.44,14.251],[-87.437,14.25],[-87.434,14.249],[-87.431,14.247],[-87.43,14.246],[-87.427,14.239],[-87.426,14.235],[-87.425,14.229],[-87.43,14.223],[-87.437,14.219],[-87.463,14.213],[-87.483,14.201],[-87.494,14.18],[-87.494,14.174],[-87.501,14.167],[-87.513,14.16],[-87.541,14.147],[-87.573,14.143],[-87.58,14.144],[-87.586,14.14],[-87.593,14.134],[-87.614,14.109],[-87.615,14.088],[-87.651,14.085],[-87.664,14.076],[-87.69,14.051],[-87.691,14.085],[-87.697,14.095],[-87.704,14.104],[-87.714,14.11],[-87.732,14.124],[-87.743,14.131],[-87.754,14.135],[-87.764,14.137],[-87.781,14.143],[-87.785,14.147],[-87.786,14.151],[-87.784,14.156],[-87.782,14.16],[-87.777,14.175],[-87.791,14.191],[-87.826,14.206],[-87.829,14.225],[-87.826,14.232],[-87.824,14.234],[-87.821,14.234],[-87.819,14.234],[-87.813,14.232],[-87.776,14.241],[-87.756,14.239],[-87.74,14.241],[-87.728,14.244],[-87.706,14.252],[-87.697,14.256],[-87.684,14.266],[-87.669,14.264],[-87.653,14.267],[-87.644,14.27],[-87.639,14.274],[-87.63,14.286],[-87.627,14.299],[-87.635,14.306],[-87.628,14.317],[-87.632,14.336],[-87.634,14.344],[-87.647,14.37],[-87.651,14.373],[-87.696,14.355],[-87.704,14.358],[-87.715,14.359],[-87.735,14.366],[-87.746,14.371],[-87.777,14.377],[-87.779,14.378],[-87.789,14.388],[-87.79,14.39],[-87.829,14.4],[-87.843,14.414],[-87.853,14.429],[-87.849,14.433],[-87.848,14.435],[-87.848,14.438],[-87.848,14.442],[-87.856,14.456],[-87.888,14.496],[-87.9,14.507],[-87.899,14.516],[-87.899,14.526],[-87.903,14.53],[-87.909,14.535],[-87.933,14.547],[-87.941,14.553],[-87.947,14.565],[-87.95,14.572],[-87.951,14.582],[-87.952,14.586],[-87.96,14.601],[-87.969,14.613],[-87.987,14.619],[-88.004,14.632],[-88.039,14.64],[-88.046,14.641],[-88.056,14.644],[-88.061,14.646],[-88.075,14.665]]]}},{"type":"Feature","id":"HN-CP","properties":{"id":"HN-CP","countryCode":"HN","isoSubdivision":"HN-CP","name":"Copán","name_en":"Copán","name_ko":"코판","type":"Department","labelLongitude":-88.936,"labelLatitude":14.891,"minZoom":8},"geometry":{"type":"Polygon","coordinates":[[[-89.147,15.071],[-89.141,15.076],[-89.11,15.091],[-89.008,15.124],[-88.973,15.14],[-88.847,15.235],[-88.761,15.3],[-88.758,15.296],[-88.716,15.245],[-88.715,15.237],[-88.716,15.231],[-88.718,15.217],[-88.7,15.197],[-88.679,15.176],[-88.663,15.168],[-88.655,15.163],[-88.653,15.159],[-88.652,15.155],[-88.664,15.14],[-88.657,15.114],[-88.653,15.109],[-88.645,15.097],[-88.643,15.091],[-88.642,15.084],[-88.645,15.077],[-88.669,15.056],[-88.678,15.037],[-88.679,15.019],[-88.689,14.985],[-88.702,14.952],[-88.7,14.944],[-88.698,14.939],[-88.695,14.933],[-88.692,14.927],[-88.686,14.923],[-88.68,14.921],[-88.645,14.927],[-88.639,14.896],[-88.643,14.869],[-88.657,14.86],[-88.655,14.849],[-88.657,14.845],[-88.664,14.836],[-88.67,14.831],[-88.674,14.823],[-88.676,14.815],[-88.678,14.802],[-88.677,14.787],[-88.67,14.776],[-88.66,14.754],[-88.656,14.735],[-88.655,14.73],[-88.656,14.724],[-88.664,14.723],[-88.692,14.715],[-88.728,14.712],[-88.778,14.718],[-88.793,14.714],[-88.795,14.699],[-88.794,14.694],[-88.783,14.669],[-88.753,14.641],[-88.746,14.63],[-88.734,14.609],[-88.731,14.549],[-88.754,14.547],[-88.774,14.55],[-88.782,14.55],[-88.791,14.549],[-88.801,14.546],[-88.817,14.54],[-88.824,14.535],[-88.828,14.527],[-88.828,14.515],[-88.827,14.511],[-88.825,14.508],[-88.824,14.505],[-88.827,14.503],[-88.837,14.5],[-88.849,14.503],[-88.861,14.513],[-88.875,14.516],[-88.893,14.523],[-88.91,14.541],[-88.923,14.561],[-88.925,14.569],[-88.924,14.595],[-88.931,14.609],[-88.995,14.656],[-89.003,14.67],[-89.01,14.7],[-89.026,14.721],[-89.086,14.729],[-89.099,14.724],[-89.131,14.715],[-89.146,14.711],[-89.151,14.717],[-89.16,14.725],[-89.171,14.739],[-89.189,14.783],[-89.199,14.798],[-89.219,14.822],[-89.228,14.835],[-89.232,14.849],[-89.231,14.867],[-89.224,14.879],[-89.199,14.9],[-89.189,14.913],[-89.182,14.924],[-89.169,14.952],[-89.169,14.978],[-89.189,14.996],[-89.173,15.042],[-89.161,15.06],[-89.147,15.071]]]}},{"type":"Feature","id":"HN-CR","properties":{"id":"HN-CR","countryCode":"HN","isoSubdivision":"HN-CR","name":"Cortés","name_en":"Cortés","name_ko":"코르테스","type":"Department","labelLongitude":-88.036,"labelLatitude":15.534,"minZoom":8},"geometry":{"type":"Polygon","coordinates":[[[-88.242,15.688],[-88.235,15.702],[-88.236,15.712],[-88.233,15.721],[-88.221,15.726],[-88.215,15.723],[-88.17,15.692],[-88.145,15.685],[-88.119,15.696],[-88.061,15.756],[-88.036,15.771],[-88.042,15.787],[-88.032,15.79],[-87.992,15.785],[-87.934,15.819],[-87.927,15.832],[-87.925,15.842],[-87.93,15.847],[-87.941,15.85],[-87.95,15.857],[-87.955,15.864],[-87.951,15.867],[-87.909,15.868],[-87.892,15.873],[-87.876,15.884],[-87.846,15.894],[-87.76,15.9],[-87.742,15.904],[-87.736,15.919],[-87.728,15.921],[-87.725,15.897],[-87.731,15.888],[-87.741,15.882],[-87.752,15.872],[-87.757,15.863],[-87.766,15.839],[-87.774,15.828],[-87.789,15.813],[-87.795,15.804],[-87.795,15.793],[-87.78,15.776],[-87.775,15.763],[-87.767,15.765],[-87.761,15.76],[-87.758,15.751],[-87.758,15.74],[-87.764,15.73],[-87.773,15.725],[-87.788,15.721],[-87.818,15.701],[-87.824,15.692],[-87.805,15.688],[-87.82,15.672],[-87.803,15.654],[-87.777,15.633],[-87.762,15.61],[-87.765,15.607],[-87.772,15.581],[-87.771,15.578],[-87.778,15.574],[-87.785,15.575],[-87.791,15.577],[-87.794,15.578],[-87.8,15.564],[-87.805,15.548],[-87.81,15.534],[-87.82,15.527],[-87.831,15.509],[-87.827,15.494],[-87.819,15.482],[-87.814,15.469],[-87.816,15.452],[-87.824,15.453],[-87.835,15.46],[-87.846,15.46],[-87.853,15.452],[-87.846,15.446],[-87.834,15.44],[-87.824,15.43],[-87.82,15.416],[-87.824,15.408],[-87.838,15.396],[-87.863,15.356],[-87.87,15.348],[-87.874,15.345],[-87.879,15.343],[-87.888,15.336],[-87.894,15.333],[-87.907,15.329],[-87.912,15.327],[-87.913,15.323],[-87.913,15.32],[-87.911,15.317],[-87.911,15.314],[-87.914,15.309],[-87.926,15.296],[-87.924,15.29],[-87.924,15.283],[-87.926,15.276],[-87.928,15.27],[-87.926,15.259],[-87.935,15.245],[-87.931,15.237],[-87.927,15.238],[-87.921,15.24],[-87.918,15.239],[-87.917,15.238],[-87.917,15.226],[-87.921,15.212],[-87.92,15.205],[-87.923,15.195],[-87.923,15.191],[-87.918,15.188],[-87.898,15.193],[-87.879,15.192],[-87.868,15.189],[-87.853,15.178],[-87.849,15.174],[-87.846,15.169],[-87.845,15.165],[-87.843,15.16],[-87.837,15.16],[-87.822,15.16],[-87.818,15.158],[-87.814,15.155],[-87.811,15.154],[-87.8,15.153],[-87.797,15.149],[-87.794,15.14],[-87.788,15.137],[-87.783,15.137],[-87.768,15.14],[-87.738,15.111],[-87.737,15.105],[-87.733,15.094],[-87.732,15.086],[-87.732,15.081],[-87.734,15.078],[-87.737,15.075],[-87.74,15.068],[-87.741,15.061],[-87.736,15.017],[-87.736,14.984],[-87.741,14.962],[-87.757,14.948],[-87.803,14.916],[-87.821,14.907],[-87.844,14.901],[-87.847,14.899],[-87.869,14.877],[-87.884,14.858],[-87.963,14.804],[-87.974,14.81],[-87.98,14.82],[-87.986,14.836],[-87.988,14.878],[-87.996,14.901],[-88.027,14.928],[-88.049,14.929],[-88.054,14.931],[-88.057,14.947],[-88.05,14.989],[-88.044,14.997],[-88.031,15.043],[-88.018,15.056],[-88.022,15.063],[-88.029,15.066],[-88.036,15.072],[-88.043,15.075],[-88.065,15.083],[-88.094,15.101],[-88.106,15.114],[-88.114,15.131],[-88.108,15.15],[-88.067,15.192],[-88.062,15.208],[-88.081,15.214],[-88.095,15.222],[-88.102,15.228],[-88.124,15.271],[-88.131,15.368],[-88.134,15.373],[-88.159,15.378],[-88.169,15.382],[-88.183,15.391],[-88.198,15.403],[-88.227,15.421],[-88.234,15.427],[-88.238,15.433],[-88.24,15.439],[-88.241,15.445],[-88.241,15.452],[-88.238,15.464],[-88.239,15.469],[-88.241,15.478],[-88.24,15.487],[-88.241,15.491],[-88.248,15.496],[-88.262,15.504],[-88.357,15.532],[-88.41,15.54],[-88.467,15.521],[-88.399,15.573],[-88.353,15.617],[-88.322,15.667],[-88.317,15.675],[-88.296,15.675],[-88.28,15.681],[-88.265,15.689],[-88.248,15.696],[-88.242,15.688]]]}},{"type":"Feature","id":"HN-EP","properties":{"id":"HN-EP","countryCode":"HN","isoSubdivision":"HN-EP","name":"El Paraíso","name_en":"El Paraíso","name_ko":"엘파라이소","type":"Department","labelLongitude":-86.559,"labelLatitude":14.037,"minZoom":8},"geometry":{"type":"Polygon","coordinates":[[[-85.563,14.042],[-85.572,14.041],[-85.594,14.033],[-85.603,14.02],[-85.613,14.01],[-85.648,13.999],[-85.645,13.989],[-85.648,13.988],[-85.65,13.988],[-85.652,13.987],[-85.651,13.982],[-85.658,13.982],[-85.666,13.984],[-85.686,13.967],[-85.699,13.962],[-85.717,13.963],[-85.727,13.965],[-85.732,13.96],[-85.733,13.938],[-85.743,13.908],[-85.747,13.888],[-85.744,13.88],[-85.729,13.875],[-85.723,13.863],[-85.725,13.848],[-85.733,13.832],[-85.74,13.826],[-85.742,13.824],[-85.743,13.824],[-85.745,13.825],[-85.758,13.839],[-85.779,13.841],[-85.802,13.84],[-85.824,13.848],[-85.84,13.867],[-85.85,13.887],[-85.862,13.904],[-85.884,13.914],[-85.897,13.913],[-85.906,13.909],[-85.915,13.907],[-85.929,13.912],[-85.936,13.918],[-85.958,13.946],[-86.028,13.996],[-86.031,14.023],[-86.02,14.044],[-86.02,14.055],[-86.097,14.044],[-86.11,14.037],[-86.122,14.027],[-86.127,14.019],[-86.131,14.009],[-86.138,13.996],[-86.15,13.984],[-86.162,13.978],[-86.174,13.974],[-86.184,13.967],[-86.219,13.914],[-86.284,13.846],[-86.3,13.821],[-86.308,13.792],[-86.314,13.777],[-86.325,13.764],[-86.34,13.757],[-86.358,13.752],[-86.41,13.749],[-86.417,13.75],[-86.427,13.753],[-86.432,13.757],[-86.448,13.773],[-86.463,13.771],[-86.476,13.764],[-86.491,13.759],[-86.509,13.764],[-86.542,13.782],[-86.581,13.78],[-86.663,13.765],[-86.706,13.77],[-86.727,13.768],[-86.75,13.757],[-86.761,13.749],[-86.766,13.745],[-86.768,13.739],[-86.77,13.725],[-86.771,13.708],[-86.772,13.708],[-86.786,13.701],[-86.794,13.7],[-86.801,13.694],[-86.809,13.682],[-86.816,13.681],[-86.824,13.681],[-86.841,13.679],[-86.849,13.676],[-86.887,13.652],[-86.891,13.659],[-86.921,13.657],[-86.926,13.659],[-86.933,13.661],[-86.935,13.657],[-86.938,13.639],[-86.943,13.63],[-86.95,13.619],[-86.966,13.602],[-86.977,13.593],[-86.985,13.588],[-87,13.584],[-87.011,13.574],[-87.014,13.566],[-87.017,13.551],[-87.039,13.525],[-87.07,13.508],[-87.077,13.506],[-87.089,13.507],[-87.107,13.521],[-87.115,13.54],[-87.116,13.549],[-87.124,13.556],[-87.17,13.558],[-87.184,13.566],[-87.187,13.579],[-87.191,13.598],[-87.198,13.603],[-87.206,13.612],[-87.217,13.616],[-87.224,13.629],[-87.214,13.671],[-87.183,13.681],[-87.135,13.661],[-87.13,13.66],[-87.13,13.664],[-87.127,13.682],[-87.12,13.698],[-87.112,13.708],[-87.111,13.724],[-87.123,13.745],[-87.129,13.752],[-87.132,13.763],[-87.132,13.777],[-87.132,13.791],[-87.13,13.799],[-87.128,13.802],[-87.122,13.81],[-87.106,13.803],[-87.084,13.784],[-87.076,13.78],[-87.051,13.775],[-87.036,13.775],[-87.031,13.779],[-87.014,13.8],[-86.995,13.846],[-86.991,13.892],[-86.992,13.912],[-86.99,13.924],[-86.985,13.934],[-86.984,13.943],[-86.985,13.95],[-86.989,13.965],[-86.955,13.958],[-86.938,13.967],[-86.927,13.979],[-86.916,13.999],[-86.912,14.039],[-86.914,14.05],[-86.917,14.056],[-86.925,14.06],[-86.952,14.08],[-86.978,14.115],[-86.984,14.133],[-86.963,14.141],[-86.949,14.141],[-86.933,14.138],[-86.912,14.141],[-86.902,14.161],[-86.903,14.165],[-86.907,14.17],[-86.912,14.173],[-86.921,14.175],[-86.922,14.179],[-86.92,14.184],[-86.909,14.199],[-86.897,14.23],[-86.848,14.272],[-86.829,14.305],[-86.822,14.338],[-86.789,14.368],[-86.714,14.424],[-86.671,14.406],[-86.666,14.406],[-86.656,14.406],[-86.653,14.408],[-86.649,14.409],[-86.639,14.411],[-86.635,14.41],[-86.631,14.408],[-86.621,14.397],[-86.616,14.387],[-86.612,14.382],[-86.607,14.381],[-86.6,14.382],[-86.579,14.38],[-86.523,14.365],[-86.503,14.345],[-86.499,14.343],[-86.476,14.337],[-86.457,14.323],[-86.453,14.318],[-86.448,14.311],[-86.442,14.298],[-86.437,14.294],[-86.428,14.291],[-86.354,14.286],[-86.343,14.288],[-86.336,14.291],[-86.313,14.305],[-86.304,14.313],[-86.299,14.317],[-86.293,14.319],[-86.287,14.321],[-86.277,14.328],[-86.262,14.335],[-86.243,14.34],[-86.232,14.341],[-86.207,14.341],[-86.194,14.338],[-86.185,14.334],[-86.176,14.324],[-86.149,14.276],[-86.142,14.269],[-86.114,14.259],[-86.088,14.253],[-86.08,14.253],[-86.076,14.257],[-86.073,14.266],[-86.07,14.269],[-86.067,14.272],[-86.062,14.273],[-86.058,14.273],[-86.04,14.269],[-86.03,14.263],[-86.019,14.255],[-86.007,14.235],[-86.001,14.221],[-85.997,14.208],[-85.995,14.199],[-85.991,14.191],[-85.983,14.185],[-85.944,14.168],[-85.925,14.142],[-85.913,14.133],[-85.906,14.131],[-85.893,14.132],[-85.885,14.134],[-85.88,14.138],[-85.877,14.142],[-85.876,14.147],[-85.875,14.157],[-85.874,14.162],[-85.871,14.166],[-85.868,14.168],[-85.858,14.173],[-85.853,14.176],[-85.849,14.179],[-85.845,14.182],[-85.836,14.183],[-85.827,14.181],[-85.814,14.172],[-85.804,14.168],[-85.791,14.165],[-85.784,14.167],[-85.78,14.17],[-85.768,14.194],[-85.764,14.198],[-85.757,14.199],[-85.71,14.189],[-85.672,14.177],[-85.665,14.176],[-85.662,14.177],[-85.66,14.185],[-85.655,14.186],[-85.647,14.183],[-85.631,14.17],[-85.622,14.16],[-85.615,14.147],[-85.611,14.126],[-85.611,14.115],[-85.61,14.105],[-85.606,14.097],[-85.596,14.09],[-85.588,14.085],[-85.58,14.079],[-85.576,14.075],[-85.563,14.042]]]}},{"type":"Feature","id":"HN-FM","properties":{"id":"HN-FM","countryCode":"HN","isoSubdivision":"HN-FM","name":"Francisco Morazán","name_en":"Francisco Morazán","name_ko":"프란시스코모라산","type":"Department","labelLongitude":-87.181,"labelLatitude":14.347,"minZoom":8},"geometry":{"type":"Polygon","coordinates":[[[-87.319,14.667],[-87.315,14.668],[-87.314,14.67],[-87.313,14.676],[-87.312,14.679],[-87.31,14.681],[-87.306,14.681],[-87.301,14.683],[-87.292,14.689],[-87.289,14.691],[-87.285,14.692],[-87.28,14.693],[-87.276,14.696],[-87.268,14.701],[-87.266,14.703],[-87.266,14.705],[-87.267,14.707],[-87.266,14.711],[-87.255,14.738],[-87.249,14.762],[-87.254,14.796],[-87.258,14.811],[-87.257,14.827],[-87.254,14.837],[-87.251,14.842],[-87.248,14.845],[-87.245,14.846],[-87.225,14.847],[-87.208,14.859],[-87.218,14.874],[-87.219,14.881],[-87.225,14.887],[-87.228,14.89],[-87.246,14.898],[-87.227,14.924],[-87.22,14.938],[-87.21,14.952],[-87.19,14.969],[-87.187,14.975],[-87.186,14.98],[-87.184,15.001],[-87.185,15.011],[-87.167,15.026],[-87.119,15.032],[-87.11,15.031],[-87.098,15.029],[-87.09,15.025],[-87.075,15.021],[-87.021,15.023],[-86.987,15.016],[-86.985,15.005],[-86.981,14.998],[-86.971,14.986],[-86.962,14.977],[-86.938,14.965],[-86.927,14.954],[-86.912,14.946],[-86.908,14.943],[-86.906,14.94],[-86.915,14.933],[-86.924,14.905],[-86.933,14.897],[-86.927,14.876],[-86.924,14.869],[-86.917,14.858],[-86.912,14.848],[-86.91,14.821],[-86.907,14.81],[-86.899,14.799],[-86.891,14.762],[-86.86,14.688],[-86.848,14.666],[-86.835,14.652],[-86.826,14.644],[-86.807,14.64],[-86.797,14.63],[-86.762,14.599],[-86.744,14.575],[-86.744,14.557],[-86.749,14.541],[-86.748,14.533],[-86.745,14.524],[-86.735,14.508],[-86.731,14.5],[-86.729,14.485],[-86.726,14.472],[-86.714,14.438],[-86.714,14.424],[-86.789,14.368],[-86.822,14.338],[-86.829,14.305],[-86.848,14.272],[-86.897,14.23],[-86.909,14.199],[-86.92,14.184],[-86.922,14.179],[-86.921,14.175],[-86.912,14.173],[-86.907,14.17],[-86.903,14.165],[-86.902,14.161],[-86.912,14.141],[-86.933,14.138],[-86.949,14.141],[-86.963,14.141],[-86.984,14.133],[-86.978,14.115],[-86.952,14.08],[-86.925,14.06],[-86.917,14.056],[-86.914,14.05],[-86.912,14.039],[-86.916,13.999],[-86.927,13.979],[-86.938,13.967],[-86.955,13.958],[-86.989,13.965],[-86.985,13.95],[-86.984,13.943],[-86.985,13.934],[-86.99,13.924],[-86.992,13.912],[-86.991,13.892],[-86.995,13.846],[-87.014,13.8],[-87.031,13.779],[-87.036,13.775],[-87.051,13.775],[-87.076,13.78],[-87.084,13.784],[-87.106,13.803],[-87.122,13.81],[-87.128,13.802],[-87.13,13.799],[-87.132,13.791],[-87.132,13.777],[-87.132,13.763],[-87.129,13.752],[-87.123,13.745],[-87.111,13.724],[-87.112,13.708],[-87.12,13.698],[-87.127,13.682],[-87.13,13.664],[-87.13,13.66],[-87.135,13.661],[-87.183,13.681],[-87.214,13.671],[-87.263,13.688],[-87.298,13.684],[-87.308,13.689],[-87.319,13.695],[-87.36,13.69],[-87.374,13.703],[-87.393,13.721],[-87.395,13.734],[-87.388,13.751],[-87.387,13.755],[-87.391,13.756],[-87.397,13.756],[-87.401,13.755],[-87.412,13.758],[-87.424,13.761],[-87.443,13.76],[-87.454,13.757],[-87.458,13.745],[-87.46,13.719],[-87.465,13.698],[-87.465,13.684],[-87.461,13.67],[-87.469,13.666],[-87.479,13.669],[-87.505,13.685],[-87.541,13.711],[-87.544,13.715],[-87.548,13.717],[-87.552,13.719],[-87.57,13.717],[-87.601,13.723],[-87.642,13.75],[-87.649,13.761],[-87.647,13.805],[-87.647,13.834],[-87.619,13.869],[-87.612,13.892],[-87.609,13.896],[-87.606,13.903],[-87.598,13.938],[-87.597,13.957],[-87.615,14.088],[-87.614,14.109],[-87.593,14.134],[-87.586,14.14],[-87.58,14.144],[-87.573,14.143],[-87.541,14.147],[-87.513,14.16],[-87.501,14.167],[-87.494,14.174],[-87.494,14.18],[-87.483,14.201],[-87.463,14.213],[-87.437,14.219],[-87.43,14.223],[-87.425,14.229],[-87.426,14.235],[-87.427,14.239],[-87.43,14.246],[-87.431,14.247],[-87.434,14.249],[-87.437,14.25],[-87.44,14.251],[-87.445,14.254],[-87.451,14.259],[-87.457,14.266],[-87.46,14.272],[-87.462,14.282],[-87.464,14.322],[-87.462,14.332],[-87.459,14.338],[-87.455,14.34],[-87.45,14.34],[-87.444,14.339],[-87.432,14.333],[-87.425,14.336],[-87.419,14.339],[-87.393,14.374],[-87.383,14.395],[-87.386,14.403],[-87.411,14.421],[-87.412,14.424],[-87.413,14.427],[-87.41,14.43],[-87.407,14.434],[-87.407,14.444],[-87.409,14.448],[-87.412,14.452],[-87.435,14.472],[-87.451,14.482],[-87.456,14.49],[-87.46,14.499],[-87.463,14.507],[-87.466,14.522],[-87.415,14.572],[-87.406,14.59],[-87.405,14.595],[-87.404,14.6],[-87.403,14.606],[-87.404,14.621],[-87.402,14.625],[-87.399,14.627],[-87.395,14.626],[-87.391,14.625],[-87.386,14.623],[-87.382,14.621],[-87.378,14.62],[-87.374,14.62],[-87.371,14.62],[-87.368,14.62],[-87.367,14.618],[-87.366,14.614],[-87.365,14.612],[-87.361,14.611],[-87.357,14.609],[-87.353,14.608],[-87.342,14.608],[-87.327,14.634],[-87.323,14.647],[-87.324,14.653],[-87.324,14.658],[-87.326,14.666],[-87.325,14.67],[-87.324,14.671],[-87.322,14.67],[-87.321,14.668],[-87.319,14.667]]]}},{"type":"Feature","id":"HN-GD","properties":{"id":"HN-GD","countryCode":"HN","isoSubdivision":"HN-GD","name":"Gracias a Dios","name_en":"Gracias a Dios","name_ko":"그라시아스아디오스","type":"Department","labelLongitude":-84.37,"labelLatitude":15.122,"minZoom":8},"geometry":{"type":"Polygon","coordinates":[[[-84.984,14.752],[-85,14.742],[-85,14.743],[-85,14.981],[-85,15.069],[-85,15.988],[-84.951,15.972],[-84.854,15.93],[-84.734,15.895],[-84.677,15.876],[-84.662,15.866],[-84.668,15.853],[-84.681,15.835],[-84.681,15.819],[-84.681,15.794],[-84.66,15.774],[-84.64,15.772],[-84.616,15.78],[-84.612,15.8],[-84.609,15.809],[-84.6,15.808],[-84.593,15.796],[-84.575,15.784],[-84.55,15.788],[-84.526,15.785],[-84.477,15.779],[-84.469,15.789],[-84.453,15.796],[-84.474,15.804],[-84.499,15.81],[-84.578,15.823],[-84.608,15.835],[-84.633,15.847],[-84.642,15.863],[-84.602,15.855],[-84.464,15.83],[-84.374,15.821],[-84.315,15.818],[-84.295,15.811],[-84.24,15.767],[-84.167,15.71],[-84.058,15.62],[-83.953,15.533],[-83.894,15.485],[-83.818,15.44],[-83.799,15.429],[-83.781,15.422],[-83.746,15.416],[-83.737,15.411],[-83.73,15.402],[-83.729,15.394],[-83.736,15.389],[-83.751,15.387],[-83.768,15.393],[-83.806,15.422],[-83.834,15.432],[-83.853,15.445],[-83.863,15.449],[-83.893,15.449],[-83.906,15.452],[-83.918,15.463],[-83.913,15.465],[-83.909,15.468],[-83.904,15.469],[-83.913,15.482],[-83.946,15.518],[-83.953,15.518],[-83.964,15.513],[-83.977,15.52],[-83.991,15.532],[-84.004,15.538],[-84.025,15.535],[-84.034,15.529],[-84.041,15.52],[-84.055,15.511],[-84.062,15.515],[-84.089,15.525],[-84.077,15.536],[-84.071,15.542],[-84.069,15.548],[-84.074,15.55],[-84.084,15.552],[-84.096,15.553],[-84.104,15.551],[-84.106,15.54],[-84.1,15.523],[-84.088,15.505],[-84.076,15.49],[-84.078,15.488],[-84.079,15.488],[-84.08,15.486],[-84.083,15.483],[-84.089,15.483],[-84.119,15.539],[-84.13,15.551],[-84.142,15.553],[-84.155,15.551],[-84.172,15.545],[-84.184,15.546],[-84.201,15.55],[-84.213,15.551],[-84.205,15.529],[-84.199,15.521],[-84.18,15.514],[-84.18,15.506],[-84.183,15.495],[-84.186,15.483],[-84.179,15.483],[-84.176,15.498],[-84.156,15.507],[-84.147,15.535],[-84.137,15.538],[-84.128,15.533],[-84.114,15.5],[-84.098,15.473],[-84.092,15.451],[-84.114,15.441],[-84.124,15.43],[-84.117,15.405],[-84.1,15.378],[-84.083,15.36],[-84.057,15.347],[-84.035,15.342],[-84.026,15.351],[-84.035,15.381],[-84.022,15.37],[-84.01,15.357],[-84.005,15.341],[-84.014,15.325],[-84,15.309],[-83.981,15.306],[-83.932,15.312],[-83.932,15.305],[-83.941,15.305],[-83.948,15.303],[-83.959,15.298],[-83.959,15.292],[-83.951,15.275],[-83.938,15.259],[-83.922,15.248],[-83.901,15.243],[-83.883,15.246],[-83.86,15.251],[-83.837,15.26],[-83.822,15.271],[-83.835,15.283],[-83.877,15.305],[-83.884,15.312],[-83.888,15.318],[-83.892,15.323],[-83.901,15.325],[-83.912,15.326],[-83.988,15.352],[-84.001,15.36],[-84.024,15.393],[-84.035,15.401],[-84.027,15.409],[-84.017,15.414],[-83.994,15.422],[-83.905,15.384],[-83.891,15.363],[-83.885,15.353],[-83.871,15.343],[-83.854,15.336],[-83.826,15.33],[-83.814,15.322],[-83.804,15.31],[-83.795,15.298],[-83.802,15.294],[-83.81,15.287],[-83.816,15.284],[-83.816,15.278],[-83.799,15.275],[-83.785,15.284],[-83.775,15.286],[-83.767,15.256],[-83.769,15.219],[-83.767,15.209],[-83.76,15.202],[-83.752,15.203],[-83.747,15.21],[-83.747,15.223],[-83.74,15.223],[-83.731,15.203],[-83.723,15.208],[-83.706,15.237],[-83.69,15.246],[-83.67,15.252],[-83.634,15.256],[-83.629,15.261],[-83.631,15.284],[-83.63,15.292],[-83.623,15.296],[-83.617,15.296],[-83.609,15.293],[-83.545,15.281],[-83.528,15.284],[-83.528,15.278],[-83.534,15.272],[-83.533,15.268],[-83.53,15.264],[-83.528,15.256],[-83.528,15.226],[-83.533,15.211],[-83.544,15.205],[-83.556,15.209],[-83.561,15.226],[-83.565,15.231],[-83.573,15.235],[-83.584,15.237],[-83.593,15.237],[-83.598,15.233],[-83.604,15.224],[-83.61,15.209],[-83.615,15.204],[-83.619,15.201],[-83.622,15.196],[-83.624,15.185],[-83.621,15.176],[-83.616,15.175],[-83.609,15.177],[-83.603,15.182],[-83.608,15.19],[-83.609,15.197],[-83.607,15.203],[-83.603,15.209],[-83.596,15.209],[-83.594,15.185],[-83.587,15.167],[-83.574,15.16],[-83.555,15.168],[-83.55,15.174],[-83.54,15.189],[-83.534,15.195],[-83.527,15.2],[-83.482,15.216],[-83.482,15.219],[-83.487,15.23],[-83.491,15.236],[-83.497,15.24],[-83.502,15.246],[-83.506,15.256],[-83.51,15.271],[-83.517,15.29],[-83.53,15.301],[-83.548,15.292],[-83.578,15.309],[-83.593,15.312],[-83.61,15.305],[-83.616,15.312],[-83.614,15.315],[-83.61,15.325],[-83.626,15.327],[-83.67,15.343],[-83.678,15.349],[-83.689,15.361],[-83.71,15.367],[-83.725,15.376],[-83.719,15.394],[-83.703,15.402],[-83.687,15.394],[-83.673,15.381],[-83.661,15.374],[-83.651,15.37],[-83.543,15.316],[-83.408,15.266],[-83.356,15.23],[-83.345,15.211],[-83.328,15.147],[-83.311,15.106],[-83.284,15.068],[-83.254,15.045],[-83.13,14.997],[-83.144,14.995],[-83.177,14.997],[-83.191,14.994],[-83.218,14.982],[-83.262,14.983],[-83.266,14.982],[-83.278,14.987],[-83.286,14.992],[-83.285,14.997],[-83.273,15.003],[-83.317,15.008],[-83.334,15.006],[-83.349,14.997],[-83.355,15.01],[-83.365,15.016],[-83.378,15.021],[-83.39,15.031],[-83.4,15.014],[-83.415,14.997],[-83.436,14.985],[-83.459,14.982],[-83.468,14.987],[-83.481,15.006],[-83.486,15.01],[-83.499,15.013],[-83.509,15.012],[-83.512,15.007],[-83.506,14.997],[-83.511,14.99],[-83.513,14.984],[-83.513,14.969],[-83.523,14.978],[-83.529,14.973],[-83.53,14.962],[-83.527,14.948],[-83.532,14.951],[-83.547,14.955],[-83.545,14.952],[-83.542,14.945],[-83.54,14.942],[-83.555,14.937],[-83.58,14.918],[-83.604,14.909],[-83.609,14.898],[-83.611,14.885],[-83.616,14.873],[-83.623,14.873],[-83.632,14.883],[-83.65,14.888],[-83.672,14.89],[-83.692,14.887],[-83.711,14.878],[-83.714,14.867],[-83.705,14.839],[-83.712,14.839],[-83.716,14.847],[-83.724,14.852],[-83.734,14.853],[-83.747,14.852],[-83.745,14.837],[-83.765,14.829],[-83.821,14.825],[-83.814,14.814],[-83.809,14.809],[-83.801,14.804],[-83.82,14.804],[-83.84,14.797],[-83.857,14.788],[-83.869,14.777],[-83.875,14.784],[-83.879,14.787],[-83.883,14.788],[-83.89,14.791],[-83.885,14.781],[-83.884,14.777],[-83.897,14.78],[-83.913,14.797],[-83.925,14.804],[-83.93,14.781],[-83.93,14.772],[-83.925,14.763],[-84.024,14.758],[-84.041,14.76],[-84.043,14.768],[-84.048,14.771],[-84.065,14.77],[-84.075,14.772],[-84.079,14.775],[-84.082,14.78],[-84.104,14.794],[-84.112,14.793],[-84.123,14.785],[-84.111,14.761],[-84.104,14.752],[-84.095,14.744],[-84.095,14.736],[-84.102,14.732],[-84.107,14.732],[-84.111,14.735],[-84.12,14.736],[-84.129,14.734],[-84.134,14.73],[-84.138,14.725],[-84.144,14.722],[-84.168,14.715],[-84.183,14.714],[-84.195,14.719],[-84.219,14.743],[-84.226,14.75],[-84.235,14.755],[-84.249,14.759],[-84.262,14.759],[-84.267,14.747],[-84.262,14.7],[-84.267,14.678],[-84.288,14.667],[-84.299,14.668],[-84.323,14.673],[-84.338,14.675],[-84.346,14.68],[-84.353,14.706],[-84.363,14.716],[-84.376,14.697],[-84.39,14.671],[-84.408,14.649],[-84.446,14.637],[-84.472,14.623],[-84.483,14.619],[-84.498,14.624],[-84.508,14.633],[-84.519,14.638],[-84.534,14.634],[-84.531,14.653],[-84.527,14.66],[-84.6,14.663],[-84.623,14.667],[-84.662,14.683],[-84.681,14.685],[-84.699,14.675],[-84.714,14.709],[-84.725,14.726],[-84.745,14.739],[-84.744,14.752],[-84.747,14.764],[-84.767,14.767],[-84.766,14.769],[-84.759,14.779],[-84.755,14.781],[-84.77,14.805],[-84.792,14.821],[-84.818,14.829],[-84.844,14.828],[-84.904,14.817],[-84.921,14.808],[-84.966,14.765],[-84.984,14.752]]]}},{"type":"Feature","id":"HN-IB","properties":{"id":"HN-IB","countryCode":"HN","isoSubdivision":"HN-IB","name":"Bay Islands","name_en":"Bay Islands","name_ko":"이슬라스데라바이아","type":"Department","labelLongitude":-86.932,"labelLatitude":16.105,"minZoom":8},"geometry":{"type":"MultiPolygon","coordinates":[[[[-86.879,16.127],[-86.873,16.121],[-86.881,16.105],[-86.879,16.093],[-86.898,16.094],[-86.913,16.09],[-86.94,16.079],[-86.964,16.066],[-86.979,16.078],[-86.997,16.084],[-86.989,16.095],[-86.944,16.117],[-86.918,16.122],[-86.904,16.124],[-86.891,16.128],[-86.879,16.127]]],[[[-86.607,16.285],[-86.599,16.309],[-86.57,16.332],[-86.531,16.356],[-86.5,16.369],[-86.44,16.397],[-86.375,16.417],[-86.332,16.429],[-86.302,16.433],[-86.262,16.431],[-86.231,16.429],[-86.182,16.428],[-86.202,16.422],[-86.224,16.412],[-86.243,16.418],[-86.273,16.411],[-86.294,16.415],[-86.312,16.413],[-86.319,16.409],[-86.333,16.4],[-86.339,16.398],[-86.348,16.398],[-86.362,16.394],[-86.38,16.382],[-86.417,16.364],[-86.453,16.352],[-86.491,16.325],[-86.525,16.315],[-86.548,16.313],[-86.564,16.298],[-86.581,16.283],[-86.601,16.269],[-86.607,16.285]]],[[[-85.911,16.462],[-85.896,16.489],[-85.884,16.503],[-85.851,16.517],[-85.832,16.51],[-85.817,16.498],[-85.822,16.486],[-85.844,16.484],[-85.849,16.469],[-85.863,16.452],[-85.882,16.451],[-85.896,16.436],[-85.947,16.403],[-85.951,16.412],[-85.941,16.43],[-85.927,16.455],[-85.911,16.462]]],[[[-83.941,17.419],[-83.934,17.418],[-83.926,17.416],[-83.919,17.414],[-83.912,17.411],[-83.922,17.409],[-83.93,17.409],[-83.937,17.413],[-83.941,17.419]]]]}},{"type":"Feature","id":"HN-IN","properties":{"id":"HN-IN","countryCode":"HN","isoSubdivision":"HN-IN","name":"Intibucá","name_en":"Intibucá","name_ko":"인티부카","type":"Department","labelLongitude":-88.175,"labelLatitude":14.398,"minZoom":8},"geometry":{"type":"Polygon","coordinates":[[[-88.498,13.968],[-88.497,13.969],[-88.495,13.97],[-88.484,13.985],[-88.483,13.988],[-88.48,13.992],[-88.464,14.005],[-88.431,14.019],[-88.375,14.051],[-88.353,14.07],[-88.344,14.074],[-88.339,14.075],[-88.336,14.077],[-88.334,14.081],[-88.334,14.089],[-88.333,14.095],[-88.331,14.099],[-88.326,14.105],[-88.322,14.108],[-88.32,14.122],[-88.327,14.166],[-88.328,14.188],[-88.328,14.192],[-88.328,14.201],[-88.327,14.205],[-88.328,14.216],[-88.346,14.226],[-88.368,14.23],[-88.374,14.231],[-88.379,14.231],[-88.384,14.229],[-88.388,14.23],[-88.393,14.231],[-88.399,14.234],[-88.405,14.238],[-88.411,14.241],[-88.417,14.244],[-88.421,14.248],[-88.424,14.253],[-88.423,14.261],[-88.413,14.281],[-88.412,14.299],[-88.422,14.349],[-88.429,14.358],[-88.432,14.361],[-88.454,14.364],[-88.475,14.381],[-88.495,14.407],[-88.501,14.449],[-88.498,14.456],[-88.482,14.467],[-88.457,14.474],[-88.412,14.474],[-88.388,14.477],[-88.36,14.491],[-88.35,14.508],[-88.348,14.519],[-88.342,14.538],[-88.323,14.573],[-88.334,14.636],[-88.344,14.654],[-88.266,14.649],[-88.207,14.655],[-88.163,14.659],[-88.13,14.652],[-88.1,14.649],[-88.093,14.654],[-88.075,14.665],[-88.061,14.646],[-88.056,14.644],[-88.046,14.641],[-88.039,14.64],[-88.004,14.632],[-87.987,14.619],[-87.969,14.613],[-87.96,14.601],[-87.952,14.586],[-87.951,14.582],[-87.95,14.572],[-87.947,14.565],[-87.941,14.553],[-87.933,14.547],[-87.909,14.535],[-87.903,14.53],[-87.899,14.526],[-87.899,14.516],[-87.9,14.507],[-87.888,14.496],[-87.856,14.456],[-87.848,14.442],[-87.848,14.438],[-87.848,14.435],[-87.849,14.433],[-87.853,14.429],[-87.898,14.397],[-87.91,14.39],[-87.922,14.385],[-87.932,14.385],[-87.94,14.387],[-87.947,14.39],[-87.952,14.389],[-87.955,14.384],[-87.957,14.371],[-87.953,14.34],[-87.969,14.31],[-87.975,14.304],[-87.984,14.297],[-87.996,14.293],[-88.002,14.288],[-88.006,14.275],[-88.005,14.268],[-88.013,14.254],[-88.055,14.252],[-88.09,14.224],[-88.106,14.208],[-88.115,14.188],[-88.123,14.176],[-88.126,14.173],[-88.154,14.159],[-88.165,14.15],[-88.22,14.091],[-88.226,14.085],[-88.23,14.086],[-88.232,14.084],[-88.232,14.079],[-88.226,14.069],[-88.219,14.062],[-88.21,14.043],[-88.219,13.993],[-88.218,13.991],[-88.22,13.991],[-88.235,13.993],[-88.245,13.989],[-88.245,13.986],[-88.244,13.966],[-88.242,13.963],[-88.233,13.954],[-88.232,13.952],[-88.236,13.938],[-88.243,13.937],[-88.252,13.938],[-88.264,13.933],[-88.27,13.926],[-88.274,13.919],[-88.278,13.913],[-88.285,13.906],[-88.296,13.902],[-88.308,13.901],[-88.319,13.898],[-88.326,13.885],[-88.333,13.888],[-88.341,13.89],[-88.349,13.891],[-88.355,13.891],[-88.358,13.887],[-88.359,13.881],[-88.359,13.875],[-88.36,13.872],[-88.367,13.873],[-88.383,13.879],[-88.393,13.88],[-88.433,13.871],[-88.451,13.864],[-88.47,13.852],[-88.497,13.851],[-88.488,13.865],[-88.489,13.881],[-88.5,13.908],[-88.502,13.917],[-88.5,13.932],[-88.497,13.944],[-88.496,13.956],[-88.501,13.967],[-88.502,13.969],[-88.498,13.968]]]}},{"type":"Feature","id":"HN-LE","properties":{"id":"HN-LE","countryCode":"HN","isoSubdivision":"HN-LE","name":"Lempira","name_en":"Lempira","name_ko":"렘피라","type":"Department","labelLongitude":-88.648,"labelLatitude":14.441,"minZoom":8},"geometry":{"type":"Polygon","coordinates":[[[-88.957,14.185],[-88.966,14.191],[-88.969,14.202],[-88.97,14.21],[-88.969,14.237],[-88.971,14.269],[-88.979,14.294],[-88.978,14.301],[-88.974,14.307],[-88.967,14.313],[-88.961,14.319],[-88.952,14.333],[-88.946,14.34],[-88.939,14.344],[-88.923,14.346],[-88.891,14.361],[-88.885,14.369],[-88.879,14.383],[-88.878,14.396],[-88.876,14.406],[-88.87,14.408],[-88.863,14.408],[-88.853,14.397],[-88.848,14.391],[-88.836,14.386],[-88.811,14.387],[-88.823,14.403],[-88.823,14.408],[-88.823,14.415],[-88.821,14.424],[-88.819,14.427],[-88.817,14.427],[-88.811,14.422],[-88.79,14.419],[-88.761,14.429],[-88.753,14.433],[-88.747,14.438],[-88.744,14.442],[-88.741,14.454],[-88.715,14.528],[-88.719,14.543],[-88.721,14.545],[-88.731,14.549],[-88.734,14.609],[-88.746,14.63],[-88.753,14.641],[-88.783,14.669],[-88.794,14.694],[-88.795,14.699],[-88.793,14.714],[-88.778,14.718],[-88.728,14.712],[-88.692,14.715],[-88.664,14.723],[-88.656,14.724],[-88.655,14.73],[-88.656,14.735],[-88.66,14.754],[-88.67,14.776],[-88.677,14.787],[-88.678,14.802],[-88.676,14.815],[-88.674,14.823],[-88.67,14.831],[-88.664,14.836],[-88.657,14.845],[-88.655,14.849],[-88.657,14.86],[-88.643,14.869],[-88.639,14.896],[-88.645,14.927],[-88.609,14.938],[-88.602,14.942],[-88.555,14.935],[-88.533,14.878],[-88.506,14.834],[-88.487,14.812],[-88.48,14.814],[-88.464,14.827],[-88.454,14.843],[-88.442,14.854],[-88.434,14.855],[-88.422,14.85],[-88.42,14.848],[-88.408,14.831],[-88.381,14.831],[-88.361,14.819],[-88.389,14.772],[-88.383,14.766],[-88.367,14.74],[-88.353,14.732],[-88.336,14.73],[-88.323,14.731],[-88.317,14.72],[-88.322,14.689],[-88.344,14.654],[-88.334,14.636],[-88.323,14.573],[-88.342,14.538],[-88.348,14.519],[-88.35,14.508],[-88.36,14.491],[-88.388,14.477],[-88.412,14.474],[-88.457,14.474],[-88.482,14.467],[-88.498,14.456],[-88.501,14.449],[-88.495,14.407],[-88.475,14.381],[-88.454,14.364],[-88.432,14.361],[-88.429,14.358],[-88.422,14.349],[-88.412,14.299],[-88.413,14.281],[-88.423,14.261],[-88.424,14.253],[-88.421,14.248],[-88.417,14.244],[-88.411,14.241],[-88.405,14.238],[-88.399,14.234],[-88.393,14.231],[-88.388,14.23],[-88.384,14.229],[-88.379,14.231],[-88.374,14.231],[-88.368,14.23],[-88.346,14.226],[-88.328,14.216],[-88.327,14.205],[-88.328,14.201],[-88.328,14.192],[-88.328,14.188],[-88.327,14.166],[-88.32,14.122],[-88.322,14.108],[-88.326,14.105],[-88.331,14.099],[-88.333,14.095],[-88.334,14.089],[-88.334,14.081],[-88.336,14.077],[-88.339,14.075],[-88.344,14.074],[-88.353,14.07],[-88.375,14.051],[-88.431,14.019],[-88.464,14.005],[-88.48,13.992],[-88.483,13.988],[-88.484,13.985],[-88.495,13.97],[-88.497,13.969],[-88.497,13.97],[-88.496,13.972],[-88.495,13.975],[-88.504,13.984],[-88.514,13.988],[-88.558,13.991],[-88.634,14.014],[-88.659,14.016],[-88.685,14.012],[-88.691,14.01],[-88.691,14.012],[-88.69,14.017],[-88.693,14.025],[-88.698,14.032],[-88.705,14.038],[-88.71,14.04],[-88.731,14.042],[-88.747,14.052],[-88.746,14.067],[-88.74,14.083],[-88.739,14.1],[-88.746,14.111],[-88.755,14.11],[-88.765,14.104],[-88.777,14.1],[-88.821,14.103],[-88.839,14.1],[-88.845,14.129],[-88.86,14.159],[-88.881,14.184],[-88.906,14.2],[-88.922,14.2],[-88.936,14.194],[-88.947,14.187],[-88.957,14.185]]]}},{"type":"Feature","id":"HN-LP","properties":{"id":"HN-LP","countryCode":"HN","isoSubdivision":"HN-LP","name":"La Paz","name_en":"La Paz","name_ko":"라파스","type":"Department","labelLongitude":-87.914,"labelLatitude":14.138,"minZoom":8},"geometry":{"type":"Polygon","coordinates":[[[-88.178,13.985],[-88.193,13.986],[-88.218,13.991],[-88.219,13.993],[-88.21,14.043],[-88.219,14.062],[-88.226,14.069],[-88.232,14.079],[-88.232,14.084],[-88.23,14.086],[-88.226,14.085],[-88.22,14.091],[-88.165,14.15],[-88.154,14.159],[-88.126,14.173],[-88.123,14.176],[-88.115,14.188],[-88.106,14.208],[-88.09,14.224],[-88.055,14.252],[-88.013,14.254],[-88.005,14.268],[-88.006,14.275],[-88.002,14.288],[-87.996,14.293],[-87.984,14.297],[-87.975,14.304],[-87.969,14.31],[-87.953,14.34],[-87.957,14.371],[-87.955,14.384],[-87.952,14.389],[-87.947,14.39],[-87.94,14.387],[-87.932,14.385],[-87.922,14.385],[-87.91,14.39],[-87.898,14.397],[-87.853,14.429],[-87.843,14.414],[-87.829,14.4],[-87.79,14.39],[-87.789,14.388],[-87.779,14.378],[-87.777,14.377],[-87.746,14.371],[-87.735,14.366],[-87.715,14.359],[-87.704,14.358],[-87.696,14.355],[-87.651,14.373],[-87.647,14.37],[-87.634,14.344],[-87.632,14.336],[-87.628,14.317],[-87.635,14.306],[-87.627,14.299],[-87.63,14.286],[-87.639,14.274],[-87.644,14.27],[-87.653,14.267],[-87.669,14.264],[-87.684,14.266],[-87.697,14.256],[-87.706,14.252],[-87.728,14.244],[-87.74,14.241],[-87.756,14.239],[-87.776,14.241],[-87.813,14.232],[-87.819,14.234],[-87.821,14.234],[-87.824,14.234],[-87.826,14.232],[-87.829,14.225],[-87.826,14.206],[-87.791,14.191],[-87.777,14.175],[-87.782,14.16],[-87.784,14.156],[-87.786,14.151],[-87.785,14.147],[-87.781,14.143],[-87.764,14.137],[-87.754,14.135],[-87.743,14.131],[-87.732,14.124],[-87.714,14.11],[-87.704,14.104],[-87.697,14.095],[-87.691,14.085],[-87.69,14.051],[-87.664,14.076],[-87.651,14.085],[-87.615,14.088],[-87.597,13.957],[-87.598,13.938],[-87.606,13.903],[-87.609,13.896],[-87.612,13.892],[-87.619,13.869],[-87.647,13.834],[-87.668,13.834],[-87.693,13.85],[-87.734,13.848],[-87.75,13.846],[-87.765,13.859],[-87.771,13.862],[-87.785,13.867],[-87.791,13.87],[-87.799,13.882],[-87.808,13.909],[-87.818,13.916],[-87.833,13.915],[-87.843,13.907],[-87.851,13.897],[-87.861,13.89],[-87.871,13.89],[-87.89,13.894],[-87.9,13.894],[-87.908,13.892],[-87.921,13.882],[-87.925,13.88],[-87.932,13.882],[-87.947,13.891],[-87.953,13.892],[-87.955,13.892],[-87.97,13.889],[-88.015,13.866],[-88.024,13.891],[-88.04,13.91],[-88.058,13.926],[-88.073,13.943],[-88.088,13.981],[-88.099,13.99],[-88.125,13.991],[-88.178,13.985]]]}},{"type":"Feature","id":"HN-OC","properties":{"id":"HN-OC","countryCode":"HN","isoSubdivision":"HN-OC","name":"Ocotepeque","name_en":"Ocotepeque","name_ko":"오코테페케","type":"Department","labelLongitude":-89.04,"labelLatitude":14.525,"minZoom":8},"geometry":{"type":"Polygon","coordinates":[[[-89.346,14.413],[-89.362,14.415],[-89.364,14.447],[-89.362,14.462],[-89.355,14.475],[-89.345,14.482],[-89.323,14.487],[-89.315,14.496],[-89.305,14.513],[-89.291,14.528],[-89.26,14.554],[-89.251,14.565],[-89.246,14.573],[-89.238,14.578],[-89.221,14.58],[-89.209,14.578],[-89.184,14.57],[-89.172,14.57],[-89.16,14.581],[-89.156,14.598],[-89.155,14.616],[-89.159,14.666],[-89.156,14.672],[-89.145,14.683],[-89.143,14.691],[-89.145,14.708],[-89.146,14.711],[-89.131,14.715],[-89.099,14.724],[-89.086,14.729],[-89.026,14.721],[-89.01,14.7],[-89.003,14.67],[-88.995,14.656],[-88.931,14.609],[-88.924,14.595],[-88.925,14.569],[-88.923,14.561],[-88.91,14.541],[-88.893,14.523],[-88.875,14.516],[-88.861,14.513],[-88.849,14.503],[-88.837,14.5],[-88.827,14.503],[-88.824,14.505],[-88.825,14.508],[-88.827,14.511],[-88.828,14.515],[-88.828,14.527],[-88.824,14.535],[-88.817,14.54],[-88.801,14.546],[-88.791,14.549],[-88.782,14.55],[-88.774,14.55],[-88.754,14.547],[-88.731,14.549],[-88.721,14.545],[-88.719,14.543],[-88.715,14.528],[-88.741,14.454],[-88.744,14.442],[-88.747,14.438],[-88.753,14.433],[-88.761,14.429],[-88.79,14.419],[-88.811,14.422],[-88.817,14.427],[-88.819,14.427],[-88.821,14.424],[-88.823,14.415],[-88.823,14.408],[-88.823,14.403],[-88.811,14.387],[-88.836,14.386],[-88.848,14.391],[-88.853,14.397],[-88.863,14.408],[-88.87,14.408],[-88.876,14.406],[-88.878,14.396],[-88.879,14.383],[-88.885,14.369],[-88.891,14.361],[-88.923,14.346],[-88.939,14.344],[-88.946,14.34],[-88.952,14.333],[-88.961,14.319],[-88.967,14.313],[-88.974,14.307],[-88.978,14.301],[-88.979,14.294],[-88.971,14.269],[-88.969,14.237],[-88.97,14.21],[-88.971,14.215],[-88.975,14.227],[-88.984,14.242],[-88.993,14.253],[-89.018,14.272],[-89.023,14.281],[-89.027,14.311],[-89.033,14.324],[-89.049,14.331],[-89.083,14.335],[-89.094,14.345],[-89.091,14.355],[-89.09,14.365],[-89.092,14.375],[-89.097,14.384],[-89.103,14.392],[-89.107,14.396],[-89.113,14.397],[-89.122,14.395],[-89.13,14.387],[-89.145,14.36],[-89.154,14.351],[-89.2,14.365],[-89.226,14.382],[-89.277,14.393],[-89.308,14.407],[-89.346,14.413]]]}},{"type":"Feature","id":"HN-OL","properties":{"id":"HN-OL","countryCode":"HN","isoSubdivision":"HN-OL","name":"Olancho","name_en":"Olancho","name_ko":"올란초","type":"Department","labelLongitude":-85.994,"labelLatitude":14.805,"minZoom":8},"geometry":{"type":"Polygon","coordinates":[[[-85,14.742],[-85.002,14.741],[-85.016,14.728],[-85.025,14.713],[-85.03,14.676],[-85.033,14.67],[-85.038,14.667],[-85.054,14.663],[-85.049,14.653],[-85.02,14.634],[-85.042,14.613],[-85.048,14.606],[-85.022,14.606],[-85.024,14.603],[-85.03,14.589],[-85.065,14.554],[-85.086,14.545],[-85.103,14.557],[-85.119,14.574],[-85.138,14.578],[-85.145,14.564],[-85.15,14.537],[-85.152,14.486],[-85.155,14.479],[-85.178,14.456],[-85.18,14.449],[-85.177,14.434],[-85.178,14.428],[-85.206,14.407],[-85.19,14.397],[-85.172,14.381],[-85.159,14.361],[-85.158,14.338],[-85.17,14.322],[-85.19,14.31],[-85.215,14.302],[-85.24,14.297],[-85.278,14.297],[-85.288,14.295],[-85.312,14.284],[-85.321,14.281],[-85.327,14.276],[-85.331,14.269],[-85.338,14.261],[-85.341,14.253],[-85.344,14.25],[-85.348,14.249],[-85.359,14.251],[-85.363,14.25],[-85.373,14.241],[-85.384,14.226],[-85.394,14.211],[-85.401,14.185],[-85.409,14.166],[-85.42,14.147],[-85.432,14.133],[-85.458,14.113],[-85.475,14.103],[-85.511,14.094],[-85.516,14.081],[-85.519,14.065],[-85.528,14.051],[-85.547,14.045],[-85.563,14.042],[-85.576,14.075],[-85.58,14.079],[-85.588,14.085],[-85.596,14.09],[-85.606,14.097],[-85.61,14.105],[-85.611,14.115],[-85.611,14.126],[-85.615,14.147],[-85.622,14.16],[-85.631,14.17],[-85.647,14.183],[-85.655,14.186],[-85.66,14.185],[-85.662,14.177],[-85.665,14.176],[-85.672,14.177],[-85.71,14.189],[-85.757,14.199],[-85.764,14.198],[-85.768,14.194],[-85.78,14.17],[-85.784,14.167],[-85.791,14.165],[-85.804,14.168],[-85.814,14.172],[-85.827,14.181],[-85.836,14.183],[-85.845,14.182],[-85.849,14.179],[-85.853,14.176],[-85.858,14.173],[-85.868,14.168],[-85.871,14.166],[-85.874,14.162],[-85.875,14.157],[-85.876,14.147],[-85.877,14.142],[-85.88,14.138],[-85.885,14.134],[-85.893,14.132],[-85.906,14.131],[-85.913,14.133],[-85.925,14.142],[-85.944,14.168],[-85.983,14.185],[-85.991,14.191],[-85.995,14.199],[-85.997,14.208],[-86.001,14.221],[-86.007,14.235],[-86.019,14.255],[-86.03,14.263],[-86.04,14.269],[-86.058,14.273],[-86.062,14.273],[-86.067,14.272],[-86.07,14.269],[-86.073,14.266],[-86.076,14.257],[-86.08,14.253],[-86.088,14.253],[-86.114,14.259],[-86.142,14.269],[-86.149,14.276],[-86.176,14.324],[-86.185,14.334],[-86.194,14.338],[-86.207,14.341],[-86.232,14.341],[-86.243,14.34],[-86.262,14.335],[-86.277,14.328],[-86.287,14.321],[-86.293,14.319],[-86.299,14.317],[-86.304,14.313],[-86.313,14.305],[-86.336,14.291],[-86.343,14.288],[-86.354,14.286],[-86.428,14.291],[-86.437,14.294],[-86.442,14.298],[-86.448,14.311],[-86.453,14.318],[-86.457,14.323],[-86.476,14.337],[-86.499,14.343],[-86.503,14.345],[-86.523,14.365],[-86.579,14.38],[-86.6,14.382],[-86.607,14.381],[-86.612,14.382],[-86.616,14.387],[-86.621,14.397],[-86.631,14.408],[-86.635,14.41],[-86.639,14.411],[-86.649,14.409],[-86.653,14.408],[-86.656,14.406],[-86.666,14.406],[-86.671,14.406],[-86.714,14.424],[-86.714,14.438],[-86.726,14.472],[-86.729,14.485],[-86.731,14.5],[-86.735,14.508],[-86.745,14.524],[-86.748,14.533],[-86.749,14.541],[-86.744,14.557],[-86.744,14.575],[-86.762,14.599],[-86.797,14.63],[-86.807,14.64],[-86.826,14.644],[-86.835,14.652],[-86.848,14.666],[-86.86,14.688],[-86.891,14.762],[-86.899,14.799],[-86.907,14.81],[-86.91,14.821],[-86.912,14.848],[-86.917,14.858],[-86.924,14.869],[-86.927,14.876],[-86.933,14.897],[-86.924,14.905],[-86.915,14.933],[-86.906,14.94],[-86.908,14.943],[-86.912,14.946],[-86.927,14.954],[-86.938,14.965],[-86.962,14.977],[-86.971,14.986],[-86.981,14.998],[-86.985,15.005],[-86.987,15.016],[-86.973,15.041],[-86.97,15.044],[-86.963,15.048],[-86.959,15.047],[-86.951,15.046],[-86.921,15.054],[-86.901,15.072],[-86.886,15.082],[-86.881,15.091],[-86.879,15.098],[-86.879,15.105],[-86.878,15.111],[-86.876,15.118],[-86.871,15.127],[-86.865,15.138],[-86.862,15.144],[-86.863,15.148],[-86.863,15.152],[-86.863,15.155],[-86.855,15.172],[-86.863,15.232],[-86.862,15.24],[-86.859,15.254],[-86.856,15.258],[-86.851,15.261],[-86.845,15.262],[-86.83,15.27],[-86.826,15.271],[-86.818,15.277],[-86.815,15.285],[-86.769,15.295],[-86.738,15.271],[-86.73,15.269],[-86.719,15.267],[-86.701,15.267],[-86.693,15.269],[-86.686,15.272],[-86.676,15.279],[-86.666,15.282],[-86.66,15.297],[-86.652,15.306],[-86.642,15.331],[-86.638,15.337],[-86.633,15.341],[-86.629,15.34],[-86.624,15.339],[-86.619,15.339],[-86.611,15.341],[-86.527,15.386],[-86.514,15.389],[-86.503,15.389],[-86.479,15.382],[-86.465,15.375],[-86.452,15.366],[-86.443,15.358],[-86.434,15.35],[-86.43,15.343],[-86.427,15.337],[-86.42,15.332],[-86.409,15.328],[-86.385,15.328],[-86.372,15.329],[-86.346,15.342],[-86.291,15.374],[-86.278,15.379],[-86.233,15.41],[-86.172,15.378],[-86.149,15.373],[-86.126,15.378],[-86.107,15.387],[-86.09,15.39],[-86.081,15.394],[-86.063,15.397],[-86.054,15.396],[-86.046,15.394],[-86.038,15.39],[-86.032,15.39],[-86.028,15.397],[-85.97,15.427],[-85.909,15.484],[-85.885,15.523],[-85.88,15.529],[-85.873,15.531],[-85.866,15.53],[-85.86,15.528],[-85.848,15.521],[-85.837,15.52],[-85.817,15.532],[-85.796,15.549],[-85.788,15.558],[-85.785,15.565],[-85.786,15.574],[-85.764,15.585],[-85.759,15.584],[-85.752,15.581],[-85.746,15.576],[-85.736,15.572],[-85.728,15.573],[-85.718,15.577],[-85.709,15.582],[-85.688,15.577],[-85.608,15.535],[-85.505,15.449],[-85.396,15.409],[-85.36,15.381],[-85.307,15.305],[-85.249,15.237],[-85.233,15.227],[-85.093,15.167],[-85.06,15.137],[-85,15.069],[-85,14.981],[-85,14.743],[-85,14.742]]]}},{"type":"Feature","id":"HN-SB","properties":{"id":"HN-SB","countryCode":"HN","isoSubdivision":"HN-SB","name":"Santa Bárbara","name_en":"Santa Bárbara","name_ko":"산타바르바라","type":"Department","labelLongitude":-88.33,"labelLatitude":15.053,"minZoom":8},"geometry":{"type":"Polygon","coordinates":[[[-88.761,15.3],[-88.674,15.365],[-88.587,15.43],[-88.5,15.496],[-88.467,15.521],[-88.41,15.54],[-88.357,15.532],[-88.262,15.504],[-88.248,15.496],[-88.241,15.491],[-88.24,15.487],[-88.241,15.478],[-88.239,15.469],[-88.238,15.464],[-88.241,15.452],[-88.241,15.445],[-88.24,15.439],[-88.238,15.433],[-88.234,15.427],[-88.227,15.421],[-88.198,15.403],[-88.183,15.391],[-88.169,15.382],[-88.159,15.378],[-88.134,15.373],[-88.131,15.368],[-88.124,15.271],[-88.102,15.228],[-88.095,15.222],[-88.081,15.214],[-88.062,15.208],[-88.067,15.192],[-88.108,15.15],[-88.114,15.131],[-88.106,15.114],[-88.094,15.101],[-88.065,15.083],[-88.043,15.075],[-88.036,15.072],[-88.029,15.066],[-88.022,15.063],[-88.018,15.056],[-88.031,15.043],[-88.044,14.997],[-88.05,14.989],[-88.057,14.947],[-88.054,14.931],[-88.049,14.929],[-88.027,14.928],[-87.996,14.901],[-87.988,14.878],[-87.986,14.836],[-87.987,14.793],[-88.023,14.786],[-88.053,14.755],[-88.058,14.752],[-88.07,14.747],[-88.075,14.742],[-88.077,14.735],[-88.078,14.721],[-88.072,14.711],[-88.062,14.686],[-88.075,14.665],[-88.093,14.654],[-88.1,14.649],[-88.13,14.652],[-88.163,14.659],[-88.207,14.655],[-88.266,14.649],[-88.344,14.654],[-88.322,14.689],[-88.317,14.72],[-88.323,14.731],[-88.336,14.73],[-88.353,14.732],[-88.367,14.74],[-88.383,14.766],[-88.389,14.772],[-88.361,14.819],[-88.381,14.831],[-88.408,14.831],[-88.42,14.848],[-88.422,14.85],[-88.434,14.855],[-88.442,14.854],[-88.454,14.843],[-88.464,14.827],[-88.48,14.814],[-88.487,14.812],[-88.506,14.834],[-88.533,14.878],[-88.555,14.935],[-88.602,14.942],[-88.609,14.938],[-88.645,14.927],[-88.68,14.921],[-88.686,14.923],[-88.692,14.927],[-88.695,14.933],[-88.698,14.939],[-88.7,14.944],[-88.702,14.952],[-88.689,14.985],[-88.679,15.019],[-88.678,15.037],[-88.669,15.056],[-88.645,15.077],[-88.642,15.084],[-88.643,15.091],[-88.645,15.097],[-88.653,15.109],[-88.657,15.114],[-88.664,15.14],[-88.652,15.155],[-88.653,15.159],[-88.655,15.163],[-88.663,15.168],[-88.679,15.176],[-88.7,15.197],[-88.718,15.217],[-88.716,15.231],[-88.715,15.237],[-88.716,15.245],[-88.758,15.296],[-88.761,15.3]]]}},{"type":"Feature","id":"HN-VA","properties":{"id":"HN-VA","countryCode":"HN","isoSubdivision":"HN-VA","name":"Valle","name_en":"Valle","name_ko":"바예","type":"Department","labelLongitude":-87.599,"labelLatitude":13.575,"minZoom":8},"geometry":{"type":"MultiPolygon","coordinates":[[[[-87.769,13.506],[-87.779,13.51],[-87.79,13.533],[-87.784,13.56],[-87.76,13.617],[-87.758,13.635],[-87.759,13.672],[-87.755,13.69],[-87.746,13.702],[-87.736,13.711],[-87.731,13.722],[-87.738,13.739],[-87.733,13.755],[-87.713,13.8],[-87.704,13.815],[-87.721,13.822],[-87.75,13.846],[-87.734,13.848],[-87.693,13.85],[-87.668,13.834],[-87.647,13.834],[-87.647,13.805],[-87.649,13.761],[-87.642,13.75],[-87.601,13.723],[-87.57,13.717],[-87.552,13.719],[-87.548,13.717],[-87.544,13.715],[-87.541,13.711],[-87.505,13.685],[-87.479,13.669],[-87.469,13.666],[-87.461,13.67],[-87.459,13.668],[-87.442,13.654],[-87.433,13.649],[-87.426,13.645],[-87.422,13.638],[-87.424,13.598],[-87.42,13.591],[-87.416,13.583],[-87.415,13.576],[-87.4,13.546],[-87.364,13.519],[-87.368,13.499],[-87.366,13.49],[-87.361,13.474],[-87.35,13.453],[-87.348,13.433],[-87.359,13.408],[-87.379,13.393],[-87.394,13.406],[-87.401,13.411],[-87.41,13.413],[-87.43,13.409],[-87.438,13.411],[-87.447,13.42],[-87.464,13.408],[-87.47,13.403],[-87.475,13.393],[-87.476,13.38],[-87.473,13.372],[-87.472,13.367],[-87.482,13.359],[-87.488,13.358],[-87.523,13.359],[-87.539,13.355],[-87.548,13.355],[-87.557,13.359],[-87.557,13.366],[-87.543,13.366],[-87.543,13.372],[-87.562,13.376],[-87.581,13.383],[-87.599,13.384],[-87.612,13.372],[-87.619,13.372],[-87.617,13.382],[-87.606,13.407],[-87.619,13.412],[-87.622,13.423],[-87.619,13.451],[-87.624,13.466],[-87.636,13.464],[-87.65,13.452],[-87.66,13.441],[-87.651,13.413],[-87.666,13.386],[-87.693,13.366],[-87.721,13.359],[-87.739,13.362],[-87.762,13.376],[-87.781,13.383],[-87.783,13.389],[-87.783,13.396],[-87.786,13.399],[-87.796,13.4],[-87.803,13.401],[-87.817,13.407],[-87.738,13.442],[-87.721,13.461],[-87.719,13.474],[-87.721,13.487],[-87.726,13.499],[-87.733,13.508],[-87.748,13.513],[-87.769,13.506]]],[[[-87.615,13.29],[-87.612,13.283],[-87.614,13.267],[-87.624,13.253],[-87.647,13.249],[-87.659,13.251],[-87.663,13.253],[-87.667,13.256],[-87.667,13.262],[-87.66,13.262],[-87.664,13.267],[-87.67,13.279],[-87.674,13.284],[-87.658,13.289],[-87.645,13.291],[-87.615,13.29]]],[[[-87.622,13.369],[-87.612,13.366],[-87.585,13.372],[-87.571,13.372],[-87.571,13.366],[-87.588,13.358],[-87.576,13.319],[-87.591,13.304],[-87.638,13.319],[-87.659,13.332],[-87.656,13.349],[-87.643,13.368],[-87.634,13.373],[-87.622,13.369]]]]}},{"type":"Feature","id":"HN-YO","properties":{"id":"HN-YO","countryCode":"HN","isoSubdivision":"HN-YO","name":"Yoro","name_en":"Yoro","name_ko":"요로","type":"Department","labelLongitude":-87.206,"labelLatitude":15.233,"minZoom":8},"geometry":{"type":"Polygon","coordinates":[[[-87.788,15.721],[-87.715,15.672],[-87.698,15.664],[-87.687,15.645],[-87.678,15.61],[-87.677,15.596],[-87.672,15.565],[-87.669,15.559],[-87.665,15.554],[-87.626,15.511],[-87.61,15.504],[-87.565,15.508],[-87.523,15.519],[-87.509,15.517],[-87.47,15.539],[-87.465,15.541],[-87.456,15.54],[-87.438,15.529],[-87.437,15.518],[-87.436,15.506],[-87.431,15.481],[-87.424,15.47],[-87.417,15.461],[-87.41,15.456],[-87.402,15.45],[-87.387,15.444],[-87.382,15.442],[-87.376,15.441],[-87.371,15.443],[-87.365,15.446],[-87.361,15.449],[-87.355,15.451],[-87.349,15.455],[-87.343,15.456],[-87.335,15.455],[-87.324,15.451],[-87.315,15.445],[-87.305,15.443],[-87.295,15.444],[-87.224,15.427],[-87.182,15.427],[-87.178,15.429],[-87.168,15.438],[-87.137,15.459],[-87.072,15.482],[-87.054,15.492],[-87.045,15.499],[-87.028,15.517],[-86.991,15.549],[-86.972,15.552],[-86.927,15.551],[-86.856,15.569],[-86.844,15.553],[-86.825,15.549],[-86.81,15.551],[-86.779,15.551],[-86.757,15.556],[-86.732,15.564],[-86.691,15.587],[-86.67,15.596],[-86.648,15.602],[-86.636,15.605],[-86.619,15.602],[-86.583,15.592],[-86.547,15.594],[-86.537,15.593],[-86.526,15.589],[-86.518,15.588],[-86.509,15.589],[-86.503,15.592],[-86.496,15.593],[-86.47,15.596],[-86.443,15.592],[-86.421,15.583],[-86.391,15.56],[-86.38,15.546],[-86.377,15.542],[-86.372,15.541],[-86.362,15.54],[-86.314,15.542],[-86.289,15.536],[-86.283,15.536],[-86.281,15.535],[-86.278,15.534],[-86.275,15.533],[-86.273,15.53],[-86.269,15.526],[-86.266,15.524],[-86.264,15.523],[-86.26,15.523],[-86.258,15.522],[-86.256,15.52],[-86.254,15.519],[-86.253,15.519],[-86.252,15.52],[-86.25,15.523],[-86.248,15.524],[-86.243,15.523],[-86.24,15.521],[-86.237,15.513],[-86.236,15.499],[-86.242,15.454],[-86.241,15.449],[-86.234,15.436],[-86.233,15.41],[-86.278,15.379],[-86.291,15.374],[-86.346,15.342],[-86.372,15.329],[-86.385,15.328],[-86.409,15.328],[-86.42,15.332],[-86.427,15.337],[-86.43,15.343],[-86.434,15.35],[-86.443,15.358],[-86.452,15.366],[-86.465,15.375],[-86.479,15.382],[-86.503,15.389],[-86.514,15.389],[-86.527,15.386],[-86.611,15.341],[-86.619,15.339],[-86.624,15.339],[-86.629,15.34],[-86.633,15.341],[-86.638,15.337],[-86.642,15.331],[-86.652,15.306],[-86.66,15.297],[-86.666,15.282],[-86.676,15.279],[-86.686,15.272],[-86.693,15.269],[-86.701,15.267],[-86.719,15.267],[-86.73,15.269],[-86.738,15.271],[-86.769,15.295],[-86.815,15.285],[-86.818,15.277],[-86.826,15.271],[-86.83,15.27],[-86.845,15.262],[-86.851,15.261],[-86.856,15.258],[-86.859,15.254],[-86.862,15.24],[-86.863,15.232],[-86.855,15.172],[-86.863,15.155],[-86.863,15.152],[-86.863,15.148],[-86.862,15.144],[-86.865,15.138],[-86.871,15.127],[-86.876,15.118],[-86.878,15.111],[-86.879,15.105],[-86.879,15.098],[-86.881,15.091],[-86.886,15.082],[-86.901,15.072],[-86.921,15.054],[-86.951,15.046],[-86.959,15.047],[-86.963,15.048],[-86.97,15.044],[-86.973,15.041],[-86.987,15.016],[-87.021,15.023],[-87.075,15.021],[-87.09,15.025],[-87.098,15.029],[-87.11,15.031],[-87.119,15.032],[-87.167,15.026],[-87.185,15.011],[-87.184,15.001],[-87.186,14.98],[-87.187,14.975],[-87.19,14.969],[-87.21,14.952],[-87.22,14.938],[-87.227,14.924],[-87.246,14.898],[-87.273,14.921],[-87.279,14.923],[-87.285,14.924],[-87.292,14.918],[-87.297,14.917],[-87.303,14.92],[-87.311,14.926],[-87.315,14.928],[-87.351,14.937],[-87.375,14.939],[-87.394,14.921],[-87.419,14.909],[-87.434,14.909],[-87.444,14.911],[-87.449,14.914],[-87.452,14.916],[-87.452,14.919],[-87.452,14.921],[-87.452,14.924],[-87.455,14.93],[-87.456,14.934],[-87.459,14.941],[-87.46,14.947],[-87.46,14.952],[-87.459,14.961],[-87.461,14.966],[-87.464,14.972],[-87.469,14.975],[-87.473,14.98],[-87.477,14.983],[-87.487,14.986],[-87.492,14.989],[-87.496,14.993],[-87.499,14.997],[-87.5,15.002],[-87.503,15.014],[-87.506,15.023],[-87.517,15.038],[-87.525,15.045],[-87.538,15.054],[-87.544,15.056],[-87.548,15.058],[-87.551,15.057],[-87.555,15.056],[-87.584,15.035],[-87.587,15.026],[-87.631,15.017],[-87.642,15.018],[-87.736,15.017],[-87.741,15.061],[-87.74,15.068],[-87.737,15.075],[-87.734,15.078],[-87.732,15.081],[-87.732,15.086],[-87.733,15.094],[-87.737,15.105],[-87.738,15.111],[-87.768,15.14],[-87.783,15.137],[-87.788,15.137],[-87.794,15.14],[-87.797,15.149],[-87.8,15.153],[-87.811,15.154],[-87.814,15.155],[-87.818,15.158],[-87.822,15.16],[-87.837,15.16],[-87.843,15.16],[-87.845,15.165],[-87.846,15.169],[-87.849,15.174],[-87.853,15.178],[-87.868,15.189],[-87.879,15.192],[-87.898,15.193],[-87.918,15.188],[-87.923,15.191],[-87.923,15.195],[-87.92,15.205],[-87.921,15.212],[-87.917,15.226],[-87.917,15.238],[-87.918,15.239],[-87.921,15.24],[-87.927,15.238],[-87.931,15.237],[-87.935,15.245],[-87.926,15.259],[-87.928,15.27],[-87.926,15.276],[-87.924,15.283],[-87.924,15.29],[-87.926,15.296],[-87.914,15.309],[-87.911,15.314],[-87.911,15.317],[-87.913,15.32],[-87.913,15.323],[-87.912,15.327],[-87.907,15.329],[-87.894,15.333],[-87.888,15.336],[-87.879,15.343],[-87.874,15.345],[-87.87,15.348],[-87.863,15.356],[-87.838,15.396],[-87.824,15.408],[-87.82,15.416],[-87.824,15.43],[-87.834,15.44],[-87.846,15.446],[-87.853,15.452],[-87.846,15.46],[-87.835,15.46],[-87.824,15.453],[-87.816,15.452],[-87.814,15.469],[-87.819,15.482],[-87.827,15.494],[-87.831,15.509],[-87.82,15.527],[-87.81,15.534],[-87.805,15.548],[-87.8,15.564],[-87.794,15.578],[-87.791,15.577],[-87.785,15.575],[-87.778,15.574],[-87.771,15.578],[-87.772,15.581],[-87.765,15.607],[-87.762,15.61],[-87.777,15.633],[-87.803,15.654],[-87.82,15.672],[-87.805,15.688],[-87.824,15.692],[-87.818,15.701],[-87.788,15.721]]]}}]}
