{"type":"FeatureCollection","features":[{"type":"Feature","id":"HT-AR","properties":{"id":"HT-AR","countryCode":"HT","isoSubdivision":"HT-AR","name":"Artibonite","name_en":"Artibonite","name_ko":"아르티보니트","type":"Department","labelLongitude":-72.509,"labelLatitude":19.309,"minZoom":7.7},"geometry":{"type":"Polygon","coordinates":[[[-72.706,18.944],[-72.709,18.946],[-72.814,19.053],[-72.818,19.079],[-72.776,19.095],[-72.738,19.097],[-72.716,19.104],[-72.707,19.119],[-72.713,19.137],[-72.728,19.147],[-72.746,19.154],[-72.762,19.163],[-72.773,19.176],[-72.797,19.216],[-72.803,19.232],[-72.797,19.237],[-72.796,19.238],[-72.797,19.24],[-72.796,19.246],[-72.786,19.254],[-72.775,19.277],[-72.769,19.287],[-72.758,19.292],[-72.742,19.295],[-72.726,19.295],[-72.714,19.293],[-72.728,19.32],[-72.739,19.326],[-72.759,19.328],[-72.771,19.336],[-72.774,19.356],[-72.773,19.376],[-72.769,19.389],[-72.762,19.383],[-72.754,19.377],[-72.744,19.374],[-72.734,19.376],[-72.723,19.383],[-72.723,19.391],[-72.726,19.399],[-72.728,19.422],[-72.731,19.426],[-72.728,19.426],[-72.714,19.423],[-72.709,19.42],[-72.702,19.414],[-72.692,19.41],[-72.68,19.409],[-72.699,19.446],[-72.709,19.451],[-72.761,19.454],[-72.774,19.463],[-72.783,19.477],[-72.796,19.492],[-72.815,19.505],[-72.878,19.532],[-72.932,19.563],[-72.951,19.568],[-72.967,19.575],[-73.002,19.603],[-73.009,19.605],[-73.019,19.601],[-73.081,19.622],[-73.091,19.623],[-73.111,19.628],[-73.121,19.629],[-73.122,19.632],[-73.114,19.686],[-73.067,19.733],[-73.028,19.737],[-72.988,19.727],[-72.947,19.724],[-72.906,19.717],[-72.83,19.73],[-72.768,19.78],[-72.747,19.785],[-72.731,19.794],[-72.706,19.811],[-72.676,19.807],[-72.664,19.783],[-72.643,19.767],[-72.64,19.745],[-72.619,19.748],[-72.598,19.733],[-72.607,19.699],[-72.595,19.682],[-72.571,19.672],[-72.557,19.633],[-72.54,19.592],[-72.513,19.566],[-72.482,19.543],[-72.447,19.529],[-72.417,19.538],[-72.417,19.564],[-72.397,19.563],[-72.378,19.58],[-72.361,19.581],[-72.346,19.574],[-72.327,19.565],[-72.322,19.502],[-72.284,19.468],[-72.244,19.449],[-72.227,19.413],[-72.232,19.386],[-72.227,19.357],[-72.211,19.329],[-72.2,19.302],[-72.246,19.241],[-72.252,19.168],[-72.225,19.143],[-72.234,19.122],[-72.232,19.097],[-72.225,19.068],[-72.239,19.017],[-72.233,18.967],[-72.23,18.941],[-72.244,18.908],[-72.247,18.877],[-72.271,18.864],[-72.318,18.87],[-72.365,18.867],[-72.389,18.89],[-72.416,18.909],[-72.442,18.919],[-72.467,18.929],[-72.477,18.944],[-72.488,18.959],[-72.512,18.958],[-72.536,18.96],[-72.612,18.971],[-72.675,18.973],[-72.692,18.961],[-72.706,18.944]]]}},{"type":"Feature","id":"HT-CE","properties":{"id":"HT-CE","countryCode":"HT","isoSubdivision":"HT-CE","name":"Centre","name_en":"Centre","name_ko":"중앙","type":"Department","labelLongitude":-72.002,"labelLatitude":19.029,"minZoom":7.7},"geometry":{"type":"Polygon","coordinates":[[[-71.75,19.28],[-71.717,19.248],[-71.652,19.218],[-71.639,19.212],[-71.644,19.152],[-71.649,19.135],[-71.661,19.118],[-71.695,19.095],[-71.71,19.082],[-71.74,19.042],[-71.784,18.996],[-71.797,18.989],[-71.848,18.975],[-71.865,18.964],[-71.862,18.947],[-71.845,18.95],[-71.82,18.958],[-71.796,18.957],[-71.787,18.95],[-71.773,18.922],[-71.764,18.912],[-71.741,18.892],[-71.733,18.883],[-71.728,18.864],[-71.727,18.824],[-71.719,18.784],[-71.72,18.765],[-71.725,18.747],[-71.732,18.73],[-71.744,18.711],[-71.758,18.701],[-71.785,18.685],[-71.792,18.681],[-71.799,18.689],[-71.837,18.71],[-71.879,18.721],[-71.912,18.732],[-71.946,18.744],[-72.027,18.73],[-72.106,18.705],[-72.182,18.73],[-72.242,18.787],[-72.272,18.806],[-72.306,18.814],[-72.339,18.834],[-72.365,18.867],[-72.318,18.87],[-72.271,18.864],[-72.247,18.877],[-72.244,18.908],[-72.23,18.941],[-72.233,18.967],[-72.239,19.017],[-72.225,19.068],[-72.232,19.097],[-72.234,19.122],[-72.225,19.143],[-72.252,19.168],[-72.246,19.241],[-72.2,19.302],[-72.171,19.292],[-72.149,19.271],[-72.139,19.258],[-72.12,19.26],[-72.051,19.301],[-71.979,19.336],[-71.943,19.316],[-71.906,19.3],[-71.888,19.285],[-71.86,19.281],[-71.838,19.277],[-71.819,19.278],[-71.784,19.275],[-71.75,19.28]]]}},{"type":"Feature","id":"HT-GA","properties":{"id":"HT-GA","countryCode":"HT","isoSubdivision":"HT-GA","name":"Grand'Anse","name_en":"Grand'Anse","name_ko":"그랑당스","type":"Department","labelLongitude":-74.127,"labelLatitude":18.514,"minZoom":7.7},"geometry":{"type":"MultiPolygon","coordinates":[[[[-73.796,18.629],[-73.773,18.639],[-73.74,18.637],[-73.715,18.623],[-73.715,18.601],[-73.738,18.588],[-73.77,18.588],[-73.794,18.602],[-73.796,18.629]]],[[[-74.453,18.361],[-74.454,18.365],[-74.457,18.384],[-74.463,18.398],[-74.489,18.429],[-74.454,18.478],[-74.457,18.482],[-74.462,18.491],[-74.444,18.504],[-74.432,18.55],[-74.417,18.56],[-74.414,18.566],[-74.416,18.577],[-74.42,18.59],[-74.424,18.598],[-74.426,18.608],[-74.419,18.617],[-74.385,18.636],[-74.34,18.653],[-74.321,18.657],[-74.298,18.651],[-74.288,18.652],[-74.284,18.66],[-74.279,18.667],[-74.268,18.67],[-74.256,18.67],[-74.2,18.667],[-74.16,18.659],[-74.029,18.604],[-73.972,18.601],[-73.969,18.6],[-73.963,18.593],[-73.962,18.591],[-73.959,18.583],[-73.954,18.584],[-73.947,18.587],[-73.94,18.588],[-73.911,18.573],[-73.899,18.569],[-73.854,18.567],[-73.843,18.565],[-73.831,18.56],[-73.81,18.543],[-73.803,18.539],[-73.793,18.539],[-73.788,18.541],[-73.785,18.545],[-73.779,18.547],[-73.769,18.545],[-73.757,18.539],[-73.748,18.539],[-73.742,18.542],[-73.739,18.544],[-73.748,18.527],[-73.765,18.508],[-73.76,18.495],[-73.744,18.487],[-73.766,18.463],[-73.784,18.425],[-73.816,18.416],[-73.848,18.408],[-73.871,18.408],[-73.894,18.407],[-73.908,18.388],[-73.906,18.364],[-73.954,18.368],[-74.001,18.38],[-74.043,18.394],[-74.085,18.404],[-74.187,18.396],[-74.287,18.376],[-74.342,18.365],[-74.397,18.36],[-74.425,18.365],[-74.449,18.363],[-74.453,18.361]]]]}},{"type":"Feature","id":"HT-ND","properties":{"id":"HT-ND","countryCode":"HT","isoSubdivision":"HT-ND","name":"Nord","name_en":"Nord","name_ko":"북부","type":"Department","labelLongitude":-72.327,"labelLatitude":19.641,"minZoom":7.7},"geometry":{"type":"Polygon","coordinates":[[[-72.565,19.876],[-72.544,19.851],[-72.518,19.834],[-72.49,19.825],[-72.474,19.834],[-72.456,19.825],[-72.426,19.814],[-72.398,19.807],[-72.385,19.81],[-72.379,19.795],[-72.33,19.752],[-72.33,19.746],[-72.335,19.748],[-72.351,19.752],[-72.338,19.723],[-72.334,19.719],[-72.316,19.715],[-72.312,19.716],[-72.316,19.725],[-72.303,19.739],[-72.306,19.739],[-72.313,19.739],[-72.316,19.739],[-72.316,19.74],[-72.314,19.745],[-72.311,19.748],[-72.31,19.746],[-72.31,19.752],[-72.312,19.755],[-72.316,19.766],[-72.31,19.766],[-72.295,19.758],[-72.275,19.756],[-72.256,19.762],[-72.248,19.777],[-72.238,19.786],[-72.219,19.787],[-72.205,19.776],[-72.214,19.752],[-72.197,19.742],[-72.18,19.741],[-72.141,19.747],[-72.137,19.747],[-72.132,19.746],[-72.125,19.741],[-72.111,19.728],[-72.101,19.725],[-72.066,19.725],[-72.058,19.723],[-72.054,19.718],[-72.051,19.713],[-72.048,19.712],[-72.053,19.703],[-72.057,19.695],[-72.061,19.657],[-72.082,19.627],[-72.098,19.624],[-72.111,19.616],[-72.11,19.602],[-72.114,19.59],[-72.111,19.566],[-72.097,19.543],[-72.087,19.513],[-72.07,19.487],[-72.073,19.46],[-72.083,19.446],[-72.065,19.441],[-72.046,19.436],[-71.996,19.387],[-71.979,19.336],[-72.051,19.301],[-72.12,19.26],[-72.139,19.258],[-72.149,19.271],[-72.171,19.292],[-72.2,19.302],[-72.211,19.329],[-72.227,19.357],[-72.232,19.386],[-72.227,19.413],[-72.244,19.449],[-72.284,19.468],[-72.322,19.502],[-72.327,19.565],[-72.346,19.574],[-72.361,19.581],[-72.378,19.58],[-72.397,19.563],[-72.417,19.564],[-72.417,19.538],[-72.447,19.529],[-72.482,19.543],[-72.513,19.566],[-72.54,19.592],[-72.557,19.633],[-72.571,19.672],[-72.595,19.682],[-72.607,19.699],[-72.598,19.733],[-72.619,19.748],[-72.64,19.745],[-72.643,19.767],[-72.664,19.783],[-72.676,19.807],[-72.676,19.813],[-72.673,19.825],[-72.659,19.828],[-72.643,19.824],[-72.633,19.818],[-72.622,19.817],[-72.609,19.828],[-72.598,19.838],[-72.59,19.844],[-72.583,19.856],[-72.573,19.87],[-72.565,19.876]]]}},{"type":"Feature","id":"HT-NE","properties":{"id":"HT-NE","countryCode":"HT","isoSubdivision":"HT-NE","name":"Nord-Est","name_en":"Nord-Est","name_ko":"북동부","type":"Department","labelLongitude":-71.909,"labelLatitude":19.493,"minZoom":7.7},"geometry":{"type":"Polygon","coordinates":[[[-71.757,19.71],[-71.749,19.683],[-71.745,19.665],[-71.746,19.649],[-71.748,19.623],[-71.743,19.6],[-71.715,19.537],[-71.703,19.459],[-71.704,19.415],[-71.715,19.392],[-71.721,19.386],[-71.733,19.355],[-71.743,19.348],[-71.77,19.334],[-71.777,19.328],[-71.772,19.308],[-71.754,19.284],[-71.75,19.28],[-71.784,19.275],[-71.819,19.278],[-71.838,19.277],[-71.86,19.281],[-71.888,19.285],[-71.906,19.3],[-71.943,19.316],[-71.979,19.336],[-71.996,19.387],[-72.046,19.436],[-72.065,19.441],[-72.083,19.446],[-72.073,19.46],[-72.07,19.487],[-72.087,19.513],[-72.097,19.543],[-72.111,19.566],[-72.114,19.59],[-72.11,19.602],[-72.111,19.616],[-72.098,19.624],[-72.082,19.627],[-72.061,19.657],[-72.057,19.695],[-72.053,19.703],[-72.048,19.712],[-72.041,19.709],[-72.028,19.7],[-72.019,19.697],[-72.011,19.701],[-72.006,19.708],[-71.999,19.716],[-71.988,19.719],[-71.969,19.732],[-71.94,19.732],[-71.892,19.719],[-71.865,19.715],[-71.858,19.71],[-71.864,19.697],[-71.872,19.692],[-71.884,19.69],[-71.912,19.691],[-71.902,19.672],[-71.884,19.67],[-71.865,19.675],[-71.851,19.678],[-71.833,19.663],[-71.821,19.657],[-71.817,19.66],[-71.811,19.674],[-71.813,19.681],[-71.835,19.686],[-71.842,19.692],[-71.846,19.701],[-71.844,19.711],[-71.837,19.717],[-71.825,19.717],[-71.799,19.711],[-71.757,19.71]]]}},{"type":"Feature","id":"HT-NI","properties":{"id":"HT-NI","countryCode":"HT","isoSubdivision":"HT-NI","name":"Nippes","name_en":"Nippes","name_ko":"니프","type":"Department","labelLongitude":-73.391,"labelLatitude":18.43,"minZoom":7.7},"geometry":{"type":"Polygon","coordinates":[[[-73.739,18.544],[-73.729,18.551],[-73.725,18.553],[-73.724,18.555],[-73.711,18.57],[-73.704,18.573],[-73.697,18.574],[-73.688,18.573],[-73.68,18.573],[-73.635,18.586],[-73.622,18.588],[-73.586,18.579],[-73.586,18.562],[-73.606,18.549],[-73.633,18.553],[-73.633,18.547],[-73.654,18.554],[-73.673,18.556],[-73.693,18.554],[-73.715,18.547],[-73.708,18.542],[-73.691,18.534],[-73.675,18.53],[-73.674,18.524],[-73.674,18.517],[-73.67,18.509],[-73.652,18.501],[-73.62,18.506],[-73.605,18.498],[-73.57,18.518],[-73.527,18.524],[-73.369,18.512],[-73.348,18.508],[-73.308,18.488],[-73.286,18.484],[-73.206,18.487],[-73.167,18.484],[-73.132,18.471],[-73.113,18.461],[-73.098,18.455],[-73.081,18.454],[-73.056,18.458],[-73.05,18.447],[-73.05,18.435],[-73.065,18.41],[-73.063,18.383],[-73.038,18.382],[-73.021,18.366],[-73.013,18.342],[-72.998,18.323],[-73.002,18.293],[-73.015,18.265],[-73.014,18.243],[-73.012,18.221],[-73.038,18.254],[-73.046,18.297],[-73.078,18.326],[-73.116,18.355],[-73.14,18.362],[-73.163,18.355],[-73.188,18.358],[-73.214,18.361],[-73.267,18.36],[-73.319,18.367],[-73.351,18.354],[-73.386,18.346],[-73.418,18.347],[-73.45,18.344],[-73.513,18.334],[-73.564,18.346],[-73.554,18.368],[-73.545,18.385],[-73.567,18.396],[-73.582,18.413],[-73.599,18.427],[-73.627,18.429],[-73.659,18.425],[-73.681,18.407],[-73.698,18.412],[-73.718,18.422],[-73.752,18.42],[-73.784,18.425],[-73.766,18.463],[-73.744,18.487],[-73.76,18.495],[-73.765,18.508],[-73.748,18.527],[-73.739,18.544]]]}},{"type":"Feature","id":"HT-NO","properties":{"id":"HT-NO","countryCode":"HT","isoSubdivision":"HT-NO","name":"Nord-Ouest","name_en":"Nord-Ouest","name_ko":"북서부","type":"Department","labelLongitude":-73.017,"labelLatitude":19.826,"minZoom":7.7},"geometry":{"type":"MultiPolygon","coordinates":[[[[-72.851,20.089],[-72.822,20.09],[-72.802,20.087],[-72.785,20.08],[-72.762,20.067],[-72.668,20.032],[-72.628,20.008],[-72.639,19.985],[-72.655,19.991],[-72.74,20.002],[-72.779,20.017],[-72.828,20.027],[-72.844,20.034],[-72.856,20.032],[-72.868,20.028],[-72.878,20.026],[-72.899,20.03],[-72.924,20.038],[-72.946,20.049],[-72.96,20.061],[-72.956,20.061],[-72.953,20.062],[-72.947,20.067],[-72.901,20.082],[-72.851,20.089]]],[[[-73.121,19.629],[-73.122,19.629],[-73.127,19.627],[-73.132,19.622],[-73.138,19.617],[-73.149,19.615],[-73.164,19.618],[-73.186,19.627],[-73.208,19.638],[-73.221,19.65],[-73.241,19.631],[-73.284,19.626],[-73.38,19.63],[-73.398,19.635],[-73.409,19.636],[-73.417,19.64],[-73.434,19.659],[-73.444,19.663],[-73.458,19.672],[-73.463,19.692],[-73.465,19.713],[-73.468,19.725],[-73.432,19.779],[-73.427,19.79],[-73.417,19.791],[-73.365,19.814],[-73.365,19.821],[-73.42,19.821],[-73.404,19.833],[-73.385,19.834],[-73.365,19.833],[-73.345,19.834],[-73.223,19.887],[-73.187,19.911],[-73.167,19.938],[-73.155,19.924],[-73.144,19.92],[-73.115,19.923],[-73.101,19.921],[-73.074,19.912],[-73.06,19.91],[-73.048,19.911],[-73.042,19.912],[-73.022,19.917],[-73.007,19.918],[-72.992,19.917],[-72.978,19.912],[-72.967,19.903],[-72.96,19.918],[-72.941,19.928],[-72.918,19.93],[-72.899,19.923],[-72.872,19.934],[-72.84,19.942],[-72.807,19.946],[-72.776,19.944],[-72.674,19.921],[-72.649,19.907],[-72.628,19.897],[-72.569,19.88],[-72.565,19.876],[-72.573,19.87],[-72.583,19.856],[-72.59,19.844],[-72.598,19.838],[-72.609,19.828],[-72.622,19.817],[-72.633,19.818],[-72.643,19.824],[-72.659,19.828],[-72.673,19.825],[-72.676,19.813],[-72.676,19.807],[-72.706,19.811],[-72.731,19.794],[-72.747,19.785],[-72.768,19.78],[-72.83,19.73],[-72.906,19.717],[-72.947,19.724],[-72.988,19.727],[-73.028,19.737],[-73.067,19.733],[-73.114,19.686],[-73.122,19.632],[-73.121,19.629]]]]}},{"type":"Feature","id":"HT-OU","properties":{"id":"HT-OU","countryCode":"HT","isoSubdivision":"HT-OU","name":"Ouest","name_en":"Ouest","name_ko":"서부","type":"Department","labelLongitude":-72.24,"labelLatitude":18.55,"minZoom":7.7},"geometry":{"type":"MultiPolygon","coordinates":[[[[-71.792,18.681],[-71.794,18.679],[-71.808,18.665],[-71.829,18.631],[-71.842,18.618],[-71.88,18.605],[-71.955,18.619],[-71.993,18.611],[-72.01,18.599],[-72.001,18.582],[-71.911,18.494],[-71.904,18.485],[-71.902,18.47],[-71.907,18.464],[-71.914,18.46],[-71.918,18.449],[-71.912,18.431],[-71.897,18.423],[-71.858,18.414],[-71.85,18.406],[-71.835,18.385],[-71.826,18.376],[-71.789,18.352],[-71.735,18.333],[-71.721,18.324],[-71.712,18.316],[-71.709,18.313],[-71.721,18.294],[-71.722,18.294],[-71.81,18.279],[-71.861,18.31],[-71.929,18.315],[-72.013,18.314],[-72.099,18.333],[-72.186,18.35],[-72.271,18.345],[-72.354,18.349],[-72.368,18.364],[-72.38,18.38],[-72.409,18.378],[-72.428,18.387],[-72.454,18.399],[-72.49,18.402],[-72.523,18.387],[-72.548,18.359],[-72.558,18.351],[-72.57,18.351],[-72.595,18.341],[-72.618,18.338],[-72.631,18.337],[-72.643,18.327],[-72.662,18.325],[-72.681,18.324],[-72.693,18.315],[-72.704,18.305],[-72.721,18.307],[-72.737,18.315],[-72.74,18.301],[-72.745,18.288],[-72.757,18.279],[-72.765,18.265],[-72.798,18.273],[-72.832,18.284],[-72.849,18.275],[-72.86,18.263],[-72.882,18.273],[-72.893,18.289],[-72.908,18.29],[-72.923,18.291],[-72.95,18.285],[-72.971,18.283],[-72.983,18.305],[-72.998,18.323],[-73.013,18.342],[-73.021,18.366],[-73.038,18.382],[-73.063,18.383],[-73.065,18.41],[-73.05,18.435],[-73.05,18.447],[-73.056,18.458],[-72.986,18.47],[-72.899,18.451],[-72.904,18.434],[-72.885,18.438],[-72.858,18.447],[-72.841,18.447],[-72.826,18.441],[-72.755,18.429],[-72.716,18.438],[-72.689,18.46],[-72.669,18.49],[-72.653,18.526],[-72.628,18.554],[-72.597,18.561],[-72.43,18.547],[-72.424,18.549],[-72.421,18.554],[-72.42,18.558],[-72.416,18.56],[-72.41,18.559],[-72.407,18.557],[-72.405,18.554],[-72.402,18.553],[-72.381,18.531],[-72.371,18.526],[-72.354,18.53],[-72.346,18.547],[-72.343,18.57],[-72.345,18.631],[-72.343,18.642],[-72.336,18.656],[-72.329,18.664],[-72.325,18.671],[-72.33,18.683],[-72.339,18.689],[-72.385,18.711],[-72.397,18.713],[-72.422,18.713],[-72.433,18.717],[-72.454,18.733],[-72.472,18.754],[-72.491,18.769],[-72.515,18.766],[-72.55,18.786],[-72.558,18.795],[-72.567,18.814],[-72.618,18.889],[-72.632,18.903],[-72.652,18.919],[-72.673,18.931],[-72.69,18.937],[-72.706,18.944],[-72.692,18.961],[-72.675,18.973],[-72.612,18.971],[-72.536,18.96],[-72.512,18.958],[-72.488,18.959],[-72.477,18.944],[-72.467,18.929],[-72.442,18.919],[-72.416,18.909],[-72.389,18.89],[-72.365,18.867],[-72.339,18.834],[-72.306,18.814],[-72.272,18.806],[-72.242,18.787],[-72.182,18.73],[-72.106,18.705],[-72.027,18.73],[-71.946,18.744],[-71.912,18.732],[-71.879,18.721],[-71.837,18.71],[-71.799,18.689],[-71.792,18.681]]],[[[-73.259,18.878],[-73.277,18.891],[-73.283,18.895],[-73.29,18.904],[-73.297,18.914],[-73.3,18.926],[-73.296,18.937],[-73.284,18.95],[-73.266,18.961],[-73.246,18.968],[-73.224,18.971],[-73.201,18.969],[-73.062,18.913],[-72.993,18.892],[-72.917,18.855],[-72.846,18.827],[-72.817,18.793],[-72.809,18.771],[-72.806,18.746],[-72.809,18.72],[-72.82,18.701],[-72.831,18.696],[-72.838,18.703],[-72.847,18.721],[-72.856,18.728],[-72.863,18.73],[-72.886,18.731],[-72.975,18.75],[-73.005,18.752],[-73.037,18.76],[-73.126,18.814],[-73.215,18.837],[-73.239,18.852],[-73.259,18.878]]]]}},{"type":"Feature","id":"HT-SD","properties":{"id":"HT-SD","countryCode":"HT","isoSubdivision":"HT-SD","name":"Sud","name_en":"Sud","name_ko":"남부","type":"Department","labelLongitude":-73.785,"labelLatitude":18.293,"minZoom":7.7},"geometry":{"type":"MultiPolygon","coordinates":[[[[-73.629,18.094],[-73.612,18.093],[-73.592,18.089],[-73.578,18.081],[-73.578,18.067],[-73.59,18.059],[-73.611,18.058],[-73.65,18.059],[-73.667,18.063],[-73.683,18.072],[-73.708,18.094],[-73.704,18.104],[-73.7,18.108],[-73.694,18.107],[-73.688,18.1],[-73.676,18.108],[-73.671,18.105],[-73.667,18.099],[-73.66,18.094],[-73.629,18.094]]],[[[-73.008,18.181],[-73.091,18.19],[-73.117,18.189],[-73.126,18.19],[-73.155,18.208],[-73.163,18.21],[-73.296,18.231],[-73.356,18.225],[-73.365,18.227],[-73.36,18.24],[-73.347,18.245],[-73.31,18.245],[-73.31,18.251],[-73.377,18.258],[-73.458,18.258],[-73.482,18.251],[-73.514,18.233],[-73.526,18.231],[-73.534,18.235],[-73.543,18.253],[-73.55,18.259],[-73.563,18.251],[-73.571,18.232],[-73.578,18.217],[-73.592,18.224],[-73.598,18.224],[-73.61,18.217],[-73.62,18.222],[-73.624,18.235],[-73.619,18.251],[-73.633,18.247],[-73.646,18.221],[-73.66,18.21],[-73.659,18.224],[-73.656,18.236],[-73.646,18.259],[-73.654,18.253],[-73.665,18.239],[-73.674,18.231],[-73.674,18.233],[-73.68,18.235],[-73.691,18.238],[-73.695,18.236],[-73.694,18.232],[-73.693,18.227],[-73.694,18.224],[-73.738,18.191],[-73.809,18.159],[-73.827,18.142],[-73.845,18.115],[-73.803,18.072],[-73.796,18.056],[-73.791,18.037],[-73.794,18.029],[-73.807,18.026],[-73.873,18.026],[-73.883,18.028],[-73.893,18.032],[-73.9,18.039],[-73.904,18.054],[-73.968,18.141],[-73.971,18.144],[-73.979,18.147],[-73.982,18.149],[-73.986,18.153],[-73.986,18.156],[-73.987,18.159],[-73.99,18.163],[-74.008,18.18],[-74.105,18.248],[-74.122,18.256],[-74.153,18.261],[-74.166,18.266],[-74.177,18.273],[-74.181,18.283],[-74.183,18.293],[-74.189,18.297],[-74.198,18.297],[-74.208,18.3],[-74.234,18.309],[-74.242,18.314],[-74.249,18.307],[-74.268,18.313],[-74.288,18.305],[-74.309,18.292],[-74.331,18.286],[-74.349,18.29],[-74.372,18.298],[-74.392,18.309],[-74.4,18.317],[-74.408,18.328],[-74.446,18.346],[-74.453,18.361],[-74.449,18.363],[-74.425,18.365],[-74.397,18.36],[-74.342,18.365],[-74.287,18.376],[-74.187,18.396],[-74.085,18.404],[-74.043,18.394],[-74.001,18.38],[-73.954,18.368],[-73.906,18.364],[-73.908,18.388],[-73.894,18.407],[-73.871,18.408],[-73.848,18.408],[-73.816,18.416],[-73.784,18.425],[-73.752,18.42],[-73.718,18.422],[-73.698,18.412],[-73.681,18.407],[-73.659,18.425],[-73.627,18.429],[-73.599,18.427],[-73.582,18.413],[-73.567,18.396],[-73.545,18.385],[-73.554,18.368],[-73.564,18.346],[-73.513,18.334],[-73.45,18.344],[-73.418,18.347],[-73.386,18.346],[-73.351,18.354],[-73.319,18.367],[-73.267,18.36],[-73.214,18.361],[-73.188,18.358],[-73.163,18.355],[-73.14,18.362],[-73.116,18.355],[-73.078,18.326],[-73.046,18.297],[-73.038,18.254],[-73.012,18.221],[-73.01,18.203],[-73.007,18.186],[-73.008,18.181]]]]}},{"type":"Feature","id":"HT-SE","properties":{"id":"HT-SE","countryCode":"HT","isoSubdivision":"HT-SE","name":"Sud-Est","name_en":"Sud-Est","name_ko":"남동부","type":"Department","labelLongitude":-72.368,"labelLatitude":18.295,"minZoom":7.7},"geometry":{"type":"Polygon","coordinates":[[[-71.721,18.294],[-71.722,18.293],[-71.766,18.22],[-71.774,18.201],[-71.777,18.182],[-71.775,18.172],[-71.765,18.144],[-71.762,18.132],[-71.763,18.116],[-71.761,18.087],[-71.764,18.069],[-71.776,18.039],[-71.793,18.05],[-71.862,18.137],[-71.893,18.163],[-71.928,18.184],[-72.007,18.209],[-72.039,18.226],[-72.072,18.238],[-72.111,18.238],[-72.191,18.225],[-72.295,18.226],[-72.44,18.224],[-72.519,18.21],[-72.539,18.22],[-72.551,18.225],[-72.556,18.221],[-72.55,18.182],[-72.559,18.173],[-72.571,18.172],[-72.598,18.182],[-72.613,18.185],[-72.731,18.175],[-72.755,18.176],[-72.753,18.172],[-72.75,18.16],[-72.748,18.156],[-72.763,18.157],[-72.769,18.158],[-72.776,18.163],[-72.804,18.146],[-72.859,18.151],[-72.886,18.141],[-72.912,18.156],[-72.947,18.169],[-72.985,18.179],[-73.008,18.181],[-73.007,18.186],[-73.01,18.203],[-73.012,18.221],[-73.014,18.243],[-73.015,18.265],[-73.002,18.293],[-72.998,18.323],[-72.983,18.305],[-72.971,18.283],[-72.95,18.285],[-72.923,18.291],[-72.908,18.29],[-72.893,18.289],[-72.882,18.273],[-72.86,18.263],[-72.849,18.275],[-72.832,18.284],[-72.798,18.273],[-72.765,18.265],[-72.757,18.279],[-72.745,18.288],[-72.74,18.301],[-72.737,18.315],[-72.721,18.307],[-72.704,18.305],[-72.693,18.315],[-72.681,18.324],[-72.662,18.325],[-72.643,18.327],[-72.631,18.337],[-72.618,18.338],[-72.595,18.341],[-72.57,18.351],[-72.558,18.351],[-72.548,18.359],[-72.523,18.387],[-72.49,18.402],[-72.454,18.399],[-72.428,18.387],[-72.409,18.378],[-72.38,18.38],[-72.368,18.364],[-72.354,18.349],[-72.271,18.345],[-72.186,18.35],[-72.099,18.333],[-72.013,18.314],[-71.929,18.315],[-71.861,18.31],[-71.81,18.279],[-71.722,18.294],[-71.721,18.294]]]}}]}
