{"type":"FeatureCollection","features":[{"type":"Feature","id":"IL-D","properties":{"id":"IL-D","countryCode":"IL","isoSubdivision":"IL-D","name":"Southern","name_en":"Southern","name_ko":"남부구","type":"District","labelLongitude":34.842,"labelLatitude":30.935,"minZoom":8},"geometry":{"type":"Polygon","coordinates":[[[34.248,31.211],[34.264,31.224],[34.316,31.257],[34.351,31.289],[34.354,31.306],[34.346,31.341],[34.346,31.358],[34.367,31.393],[34.48,31.486],[34.495,31.494],[34.496,31.494],[34.528,31.52],[34.556,31.54],[34.52,31.558],[34.481,31.583],[34.49,31.6],[34.514,31.627],[34.603,31.758],[34.61,31.766],[34.666,31.874],[34.67,31.875],[34.679,31.877],[34.681,31.878],[34.685,31.878],[34.689,31.877],[34.697,31.874],[34.701,31.874],[34.705,31.874],[34.707,31.875],[34.709,31.874],[34.71,31.872],[34.711,31.868],[34.711,31.865],[34.71,31.863],[34.707,31.861],[34.706,31.86],[34.706,31.858],[34.706,31.857],[34.707,31.851],[34.707,31.849],[34.706,31.847],[34.705,31.844],[34.705,31.835],[34.704,31.833],[34.703,31.832],[34.702,31.831],[34.7,31.831],[34.698,31.831],[34.697,31.831],[34.692,31.831],[34.686,31.833],[34.682,31.834],[34.68,31.834],[34.678,31.833],[34.677,31.832],[34.676,31.832],[34.675,31.83],[34.674,31.828],[34.674,31.827],[34.673,31.826],[34.674,31.824],[34.674,31.823],[34.674,31.822],[34.676,31.82],[34.679,31.817],[34.686,31.813],[34.69,31.81],[34.69,31.808],[34.69,31.807],[34.69,31.805],[34.689,31.803],[34.687,31.802],[34.686,31.801],[34.684,31.8],[34.679,31.798],[34.675,31.797],[34.674,31.795],[34.673,31.794],[34.672,31.793],[34.672,31.791],[34.672,31.789],[34.672,31.788],[34.673,31.787],[34.674,31.786],[34.698,31.779],[34.702,31.779],[34.706,31.78],[34.716,31.787],[34.72,31.789],[34.726,31.79],[34.727,31.792],[34.727,31.793],[34.726,31.794],[34.724,31.795],[34.724,31.797],[34.723,31.798],[34.722,31.8],[34.721,31.801],[34.719,31.802],[34.717,31.803],[34.715,31.804],[34.714,31.805],[34.713,31.806],[34.713,31.807],[34.716,31.808],[34.733,31.81],[34.735,31.811],[34.738,31.814],[34.741,31.814],[34.746,31.812],[34.763,31.804],[34.766,31.801],[34.77,31.797],[34.772,31.792],[34.779,31.775],[34.781,31.771],[34.783,31.769],[34.785,31.767],[34.787,31.766],[34.795,31.77],[34.828,31.792],[34.855,31.763],[34.864,31.757],[34.866,31.756],[34.87,31.755],[34.871,31.754],[34.873,31.752],[34.873,31.75],[34.873,31.745],[34.872,31.742],[34.871,31.739],[34.87,31.737],[34.87,31.735],[34.871,31.733],[34.875,31.723],[34.875,31.719],[34.875,31.717],[34.875,31.715],[34.875,31.713],[34.872,31.708],[34.872,31.706],[34.871,31.704],[34.871,31.702],[34.873,31.689],[34.872,31.683],[34.872,31.681],[34.874,31.676],[34.874,31.674],[34.874,31.665],[34.873,31.659],[34.882,31.652],[34.953,31.609],[34.953,31.608],[34.937,31.582],[34.933,31.555],[34.932,31.527],[34.927,31.494],[34.882,31.43],[34.867,31.396],[34.879,31.363],[34.901,31.348],[34.927,31.345],[34.955,31.349],[34.98,31.356],[35.04,31.363],[35.165,31.362],[35.223,31.381],[35.332,31.459],[35.39,31.487],[35.458,31.492],[35.459,31.492],[35.457,31.434],[35.457,31.424],[35.453,31.401],[35.435,31.361],[35.416,31.332],[35.424,31.325],[35.422,31.303],[35.408,31.282],[35.396,31.258],[35.401,31.23],[35.411,31.205],[35.421,31.185],[35.436,31.16],[35.443,31.132],[35.438,31.104],[35.392,31.024],[35.385,30.995],[35.385,30.963],[35.374,30.945],[35.347,30.923],[35.335,30.913],[35.322,30.89],[35.32,30.867],[35.32,30.845],[35.317,30.823],[35.311,30.813],[35.294,30.8],[35.286,30.792],[35.28,30.78],[35.276,30.769],[35.272,30.744],[35.264,30.72],[35.205,30.617],[35.162,30.495],[35.157,30.471],[35.14,30.43],[35.14,30.406],[35.145,30.396],[35.159,30.376],[35.162,30.361],[35.16,30.348],[35.154,30.337],[35.148,30.326],[35.142,30.314],[35.132,30.262],[35.125,30.245],[35.125,30.216],[35.145,30.155],[35.145,30.123],[35.129,30.09],[35.086,30.034],[35.075,29.995],[35.074,29.983],[35.07,29.974],[35.065,29.966],[35.061,29.957],[35.054,29.923],[35.053,29.863],[35.049,29.842],[35.003,29.733],[34.995,29.708],[34.99,29.652],[34.98,29.627],[34.967,29.608],[34.96,29.586],[34.956,29.559],[34.951,29.546],[34.945,29.537],[34.928,29.518],[34.92,29.507],[34.916,29.5],[34.914,29.494],[34.911,29.49],[34.903,29.49],[34.894,29.491],[34.887,29.49],[34.878,29.504],[34.855,29.546],[34.848,29.57],[34.85,29.639],[34.824,29.742],[34.785,29.836],[34.741,29.94],[34.735,29.995],[34.736,30.001],[34.735,30.007],[34.733,30.013],[34.73,30.018],[34.692,30.115],[34.633,30.262],[34.599,30.345],[34.588,30.359],[34.534,30.4],[34.527,30.41],[34.525,30.421],[34.527,30.439],[34.536,30.469],[34.536,30.482],[34.526,30.495],[34.51,30.513],[34.504,30.53],[34.502,30.572],[34.48,30.651],[34.419,30.791],[34.368,30.907],[34.33,30.994],[34.298,31.079],[34.259,31.184],[34.248,31.211]]]}},{"type":"Feature","id":"IL-HA","properties":{"id":"IL-HA","countryCode":"IL","isoSubdivision":"IL-HA","name":"Haifa","name_en":"Haifa","name_ko":"하이파구","type":"District","labelLongitude":34.973,"labelLatitude":32.552,"minZoom":8},"geometry":{"type":"Polygon","coordinates":[[[35.21,32.542],[35.209,32.543],[35.191,32.542],[35.177,32.533],[35.152,32.508],[35.121,32.491],[35.091,32.479],[35.064,32.463],[35.045,32.434],[35.033,32.382],[35.032,32.382],[35.021,32.381],[35.014,32.383],[35.013,32.384],[35.012,32.385],[35.011,32.387],[35.009,32.388],[35.006,32.39],[34.99,32.402],[34.986,32.404],[34.982,32.406],[34.933,32.409],[34.923,32.408],[34.921,32.407],[34.909,32.407],[34.868,32.408],[34.873,32.43],[34.904,32.561],[34.91,32.57],[34.916,32.615],[34.921,32.628],[34.919,32.643],[34.942,32.725],[34.948,32.814],[34.956,32.834],[34.97,32.841],[34.983,32.839],[35.003,32.828],[35.019,32.825],[35.028,32.827],[35.063,32.858],[35.067,32.867],[35.075,32.893],[35.078,32.892],[35.085,32.891],[35.087,32.889],[35.09,32.886],[35.093,32.879],[35.095,32.876],[35.097,32.874],[35.101,32.872],[35.102,32.87],[35.102,32.867],[35.1,32.855],[35.1,32.853],[35.102,32.851],[35.11,32.846],[35.113,32.844],[35.114,32.843],[35.118,32.841],[35.119,32.84],[35.123,32.838],[35.138,32.835],[35.141,32.833],[35.143,32.832],[35.144,32.83],[35.144,32.827],[35.141,32.814],[35.141,32.812],[35.142,32.809],[35.144,32.804],[35.154,32.785],[35.155,32.782],[35.155,32.778],[35.154,32.77],[35.152,32.766],[35.151,32.763],[35.141,32.75],[35.14,32.749],[35.139,32.746],[35.139,32.744],[35.14,32.73],[35.14,32.727],[35.138,32.725],[35.133,32.723],[35.132,32.721],[35.132,32.718],[35.132,32.713],[35.132,32.711],[35.132,32.709],[35.131,32.706],[35.128,32.703],[35.126,32.701],[35.124,32.7],[35.122,32.699],[35.121,32.699],[35.119,32.7],[35.118,32.701],[35.117,32.702],[35.114,32.706],[35.112,32.708],[35.111,32.708],[35.109,32.708],[35.107,32.707],[35.106,32.706],[35.105,32.703],[35.104,32.697],[35.104,32.695],[35.109,32.677],[35.109,32.673],[35.108,32.671],[35.094,32.664],[35.092,32.663],[35.091,32.662],[35.089,32.659],[35.082,32.645],[35.078,32.641],[35.077,32.64],[35.075,32.639],[35.073,32.638],[35.071,32.639],[35.058,32.643],[35.054,32.644],[35.051,32.644],[35.049,32.644],[35.047,32.644],[35.045,32.643],[35.043,32.642],[35.041,32.64],[35.039,32.639],[35.037,32.636],[35.037,32.634],[35.036,32.63],[35.036,32.628],[35.037,32.625],[35.04,32.621],[35.048,32.614],[35.05,32.611],[35.05,32.61],[35.045,32.61],[35.039,32.612],[35.037,32.613],[35.034,32.613],[35.03,32.613],[35.028,32.612],[35.026,32.611],[35.025,32.61],[35.025,32.608],[35.026,32.605],[35.031,32.599],[35.032,32.595],[35.033,32.592],[35.033,32.59],[35.033,32.588],[35.034,32.587],[35.035,32.585],[35.039,32.582],[35.052,32.575],[35.054,32.573],[35.055,32.571],[35.054,32.567],[35.052,32.56],[35.051,32.558],[35.051,32.556],[35.052,32.554],[35.054,32.553],[35.06,32.549],[35.062,32.547],[35.063,32.545],[35.065,32.543],[35.068,32.541],[35.075,32.538],[35.078,32.536],[35.082,32.534],[35.111,32.53],[35.113,32.529],[35.116,32.529],[35.119,32.529],[35.123,32.53],[35.129,32.535],[35.132,32.537],[35.134,32.539],[35.135,32.541],[35.136,32.542],[35.138,32.543],[35.143,32.546],[35.145,32.548],[35.146,32.55],[35.146,32.552],[35.147,32.553],[35.148,32.555],[35.149,32.556],[35.151,32.557],[35.16,32.561],[35.161,32.562],[35.162,32.563],[35.163,32.565],[35.166,32.569],[35.169,32.572],[35.17,32.573],[35.172,32.573],[35.176,32.571],[35.18,32.569],[35.208,32.546],[35.21,32.542]]]}},{"type":"Feature","id":"IL-JM","properties":{"id":"IL-JM","countryCode":"IL","isoSubdivision":"IL-JM","name":"Jerusalem","name_en":"Jerusalem","name_ko":"예루살렘구","type":"District","labelLongitude":35.018,"labelLatitude":31.74,"minZoom":8},"geometry":{"type":"Polygon","coordinates":[[[35.186,31.809],[35.186,31.814],[35.182,31.82],[35.184,31.825],[35.19,31.827],[35.197,31.826],[35.213,31.819],[35.216,31.82],[35.216,31.824],[35.216,31.839],[35.213,31.853],[35.209,31.863],[35.205,31.871],[35.205,31.877],[35.212,31.881],[35.222,31.879],[35.227,31.867],[35.226,31.857],[35.227,31.85],[35.233,31.843],[35.245,31.845],[35.25,31.844],[35.254,31.841],[35.257,31.839],[35.252,31.831],[35.254,31.829],[35.26,31.829],[35.265,31.826],[35.261,31.819],[35.256,31.812],[35.259,31.801],[35.26,31.793],[35.263,31.79],[35.258,31.784],[35.253,31.77],[35.253,31.763],[35.26,31.757],[35.263,31.749],[35.258,31.742],[35.252,31.738],[35.249,31.724],[35.244,31.719],[35.242,31.711],[35.238,31.709],[35.231,31.713],[35.228,31.717],[35.224,31.719],[35.219,31.715],[35.205,31.723],[35.179,31.72],[35.167,31.732],[35.154,31.733],[35.149,31.737],[35.126,31.733],[35.114,31.718],[35.093,31.702],[35.059,31.677],[34.974,31.63],[34.955,31.612],[34.953,31.608],[34.953,31.609],[34.882,31.652],[34.873,31.659],[34.874,31.665],[34.874,31.674],[34.874,31.676],[34.872,31.681],[34.872,31.683],[34.873,31.689],[34.871,31.702],[34.871,31.704],[34.872,31.706],[34.872,31.708],[34.875,31.713],[34.875,31.715],[34.875,31.717],[34.875,31.719],[34.875,31.723],[34.871,31.733],[34.87,31.735],[34.87,31.737],[34.871,31.739],[34.872,31.742],[34.873,31.745],[34.873,31.75],[34.873,31.752],[34.871,31.754],[34.87,31.755],[34.866,31.756],[34.864,31.757],[34.855,31.763],[34.828,31.792],[34.889,31.806],[34.895,31.809],[34.901,31.815],[34.909,31.829],[34.911,31.832],[34.921,31.841],[34.931,31.84],[34.943,31.847],[34.959,31.854],[34.971,31.855],[34.992,31.855],[34.999,31.854],[34.99,31.846],[34.979,31.837],[34.977,31.833],[34.98,31.831],[35.002,31.828],[35.013,31.829],[35.027,31.833],[35.046,31.848],[35.056,31.853],[35.064,31.855],[35.076,31.854],[35.088,31.848],[35.098,31.831],[35.112,31.824],[35.121,31.825],[35.137,31.814],[35.174,31.808],[35.186,31.809]]]}},{"type":"Feature","id":"IL-M","properties":{"id":"IL-M","countryCode":"IL","isoSubdivision":"IL-M","name":"Central","name_en":"Central","name_ko":"중부구","type":"District","labelLongitude":34.849,"labelLatitude":31.907,"minZoom":8},"geometry":{"type":"Polygon","coordinates":[[[35.033,32.382],[35.029,32.365],[35.022,32.345],[35.018,32.342],[35.005,32.338],[35.001,32.336],[34.997,32.323],[34.993,32.292],[34.99,32.278],[35.002,32.275],[35.009,32.268],[35.011,32.257],[35.008,32.244],[35,32.232],[34.961,32.202],[34.958,32.186],[34.963,32.173],[34.977,32.15],[34.987,32.124],[34.984,32.09],[35.007,32.021],[34.997,32.011],[34.999,31.994],[34.998,31.979],[34.987,31.967],[35.001,31.95],[35.008,31.945],[35.004,31.939],[35.005,31.934],[35.016,31.927],[35.03,31.924],[35.039,31.909],[35.034,31.861],[35.03,31.857],[35.007,31.856],[34.999,31.854],[34.992,31.855],[34.971,31.855],[34.959,31.854],[34.943,31.847],[34.931,31.84],[34.921,31.841],[34.911,31.832],[34.909,31.829],[34.901,31.815],[34.895,31.809],[34.889,31.806],[34.828,31.792],[34.795,31.77],[34.787,31.766],[34.785,31.767],[34.783,31.769],[34.781,31.771],[34.779,31.775],[34.772,31.792],[34.77,31.797],[34.766,31.801],[34.763,31.804],[34.746,31.812],[34.741,31.814],[34.738,31.814],[34.735,31.811],[34.733,31.81],[34.716,31.808],[34.713,31.807],[34.713,31.806],[34.714,31.805],[34.715,31.804],[34.717,31.803],[34.719,31.802],[34.721,31.801],[34.722,31.8],[34.723,31.798],[34.724,31.797],[34.724,31.795],[34.726,31.794],[34.727,31.793],[34.727,31.792],[34.726,31.79],[34.72,31.789],[34.716,31.787],[34.706,31.78],[34.702,31.779],[34.698,31.779],[34.674,31.786],[34.673,31.787],[34.672,31.788],[34.672,31.789],[34.672,31.791],[34.672,31.793],[34.673,31.794],[34.674,31.795],[34.675,31.797],[34.679,31.798],[34.684,31.8],[34.686,31.801],[34.687,31.802],[34.689,31.803],[34.69,31.805],[34.69,31.807],[34.69,31.808],[34.69,31.81],[34.686,31.813],[34.679,31.817],[34.676,31.82],[34.674,31.822],[34.674,31.823],[34.674,31.824],[34.673,31.826],[34.674,31.827],[34.674,31.828],[34.675,31.83],[34.676,31.832],[34.677,31.832],[34.678,31.833],[34.68,31.834],[34.682,31.834],[34.686,31.833],[34.692,31.831],[34.697,31.831],[34.698,31.831],[34.7,31.831],[34.702,31.831],[34.703,31.832],[34.704,31.833],[34.705,31.835],[34.705,31.844],[34.706,31.847],[34.707,31.849],[34.707,31.851],[34.706,31.857],[34.706,31.858],[34.706,31.86],[34.707,31.861],[34.71,31.863],[34.711,31.865],[34.711,31.868],[34.71,31.872],[34.709,31.874],[34.707,31.875],[34.705,31.874],[34.701,31.874],[34.697,31.874],[34.689,31.877],[34.685,31.878],[34.681,31.878],[34.679,31.877],[34.67,31.875],[34.666,31.874],[34.693,31.926],[34.712,31.952],[34.734,32.013],[34.743,32.005],[34.748,32.002],[34.78,31.998],[34.8,31.998],[34.804,31.999],[34.807,32],[34.808,32],[34.809,32],[34.824,32.014],[34.825,32.015],[34.826,32.016],[34.829,32.018],[34.835,32.021],[34.839,32.022],[34.842,32.022],[34.844,32.021],[34.845,32.02],[34.849,32.017],[34.853,32.014],[34.856,32.013],[34.86,32.014],[34.878,32.02],[34.882,32.023],[34.884,32.025],[34.884,32.027],[34.883,32.028],[34.883,32.029],[34.88,32.031],[34.879,32.032],[34.87,32.036],[34.868,32.037],[34.868,32.038],[34.867,32.04],[34.863,32.064],[34.862,32.066],[34.861,32.067],[34.86,32.068],[34.857,32.071],[34.852,32.073],[34.851,32.075],[34.848,32.076],[34.847,32.077],[34.846,32.078],[34.845,32.079],[34.845,32.08],[34.844,32.082],[34.844,32.084],[34.844,32.086],[34.845,32.09],[34.846,32.093],[34.846,32.103],[34.847,32.108],[34.848,32.11],[34.854,32.117],[34.857,32.12],[34.863,32.132],[34.866,32.139],[34.866,32.141],[34.866,32.143],[34.864,32.148],[34.864,32.149],[34.864,32.151],[34.865,32.155],[34.866,32.159],[34.866,32.166],[34.865,32.168],[34.865,32.17],[34.864,32.172],[34.863,32.173],[34.857,32.175],[34.856,32.176],[34.854,32.177],[34.852,32.18],[34.847,32.183],[34.841,32.187],[34.84,32.188],[34.836,32.189],[34.832,32.19],[34.811,32.193],[34.804,32.193],[34.838,32.281],[34.868,32.408],[34.909,32.407],[34.921,32.407],[34.923,32.408],[34.933,32.409],[34.982,32.406],[34.986,32.404],[34.99,32.402],[35.006,32.39],[35.009,32.388],[35.011,32.387],[35.012,32.385],[35.013,32.384],[35.014,32.383],[35.021,32.381],[35.032,32.382],[35.033,32.382]]]}},{"type":"Feature","id":"IL-TA","properties":{"id":"IL-TA","countryCode":"IL","isoSubdivision":"IL-TA","name":"Tel Aviv","name_en":"Tel Aviv","name_ko":"텔아비브구","type":"District","labelLongitude":34.809,"labelLatitude":32.097,"minZoom":8},"geometry":{"type":"Polygon","coordinates":[[[34.734,32.013],[34.743,32.04],[34.744,32.045],[34.743,32.056],[34.743,32.06],[34.757,32.067],[34.804,32.193],[34.811,32.193],[34.832,32.19],[34.836,32.189],[34.84,32.188],[34.841,32.187],[34.847,32.183],[34.852,32.18],[34.854,32.177],[34.856,32.176],[34.857,32.175],[34.863,32.173],[34.864,32.172],[34.865,32.17],[34.865,32.168],[34.866,32.166],[34.866,32.159],[34.865,32.155],[34.864,32.151],[34.864,32.149],[34.864,32.148],[34.866,32.143],[34.866,32.141],[34.866,32.139],[34.863,32.132],[34.857,32.12],[34.854,32.117],[34.848,32.11],[34.847,32.108],[34.846,32.103],[34.846,32.093],[34.845,32.09],[34.844,32.086],[34.844,32.084],[34.844,32.082],[34.845,32.08],[34.845,32.079],[34.846,32.078],[34.847,32.077],[34.848,32.076],[34.851,32.075],[34.852,32.073],[34.857,32.071],[34.86,32.068],[34.861,32.067],[34.862,32.066],[34.863,32.064],[34.867,32.04],[34.868,32.038],[34.868,32.037],[34.87,32.036],[34.879,32.032],[34.88,32.031],[34.883,32.029],[34.883,32.028],[34.884,32.027],[34.884,32.025],[34.882,32.023],[34.878,32.02],[34.86,32.014],[34.856,32.013],[34.853,32.014],[34.849,32.017],[34.845,32.02],[34.844,32.021],[34.842,32.022],[34.839,32.022],[34.835,32.021],[34.829,32.018],[34.826,32.016],[34.825,32.015],[34.824,32.014],[34.809,32],[34.808,32],[34.807,32],[34.804,31.999],[34.8,31.998],[34.78,31.998],[34.748,32.002],[34.743,32.005],[34.734,32.013]]]}},{"type":"Feature","id":"IL-Z","properties":{"id":"IL-Z","countryCode":"IL","isoSubdivision":"IL-Z","name":"Northern","name_en":"Northern","name_ko":"북부구","type":"District","labelLongitude":35.42,"labelLatitude":32.824,"minZoom":8},"geometry":{"type":"Polygon","coordinates":[[[35.561,32.385],[35.48,32.402],[35.457,32.408],[35.433,32.408],[35.407,32.415],[35.401,32.44],[35.402,32.471],[35.393,32.494],[35.363,32.51],[35.333,32.513],[35.27,32.51],[35.252,32.516],[35.224,32.536],[35.21,32.542],[35.208,32.546],[35.18,32.569],[35.176,32.571],[35.172,32.573],[35.17,32.573],[35.169,32.572],[35.166,32.569],[35.163,32.565],[35.162,32.563],[35.161,32.562],[35.16,32.561],[35.151,32.557],[35.149,32.556],[35.148,32.555],[35.147,32.553],[35.146,32.552],[35.146,32.55],[35.145,32.548],[35.143,32.546],[35.138,32.543],[35.136,32.542],[35.135,32.541],[35.134,32.539],[35.132,32.537],[35.129,32.535],[35.123,32.53],[35.119,32.529],[35.116,32.529],[35.113,32.529],[35.111,32.53],[35.082,32.534],[35.078,32.536],[35.075,32.538],[35.068,32.541],[35.065,32.543],[35.063,32.545],[35.062,32.547],[35.06,32.549],[35.054,32.553],[35.052,32.554],[35.051,32.556],[35.051,32.558],[35.052,32.56],[35.054,32.567],[35.055,32.571],[35.054,32.573],[35.052,32.575],[35.039,32.582],[35.035,32.585],[35.034,32.587],[35.033,32.588],[35.033,32.59],[35.033,32.592],[35.032,32.595],[35.031,32.599],[35.026,32.605],[35.025,32.608],[35.025,32.61],[35.026,32.611],[35.028,32.612],[35.03,32.613],[35.034,32.613],[35.037,32.613],[35.039,32.612],[35.045,32.61],[35.05,32.61],[35.05,32.611],[35.048,32.614],[35.04,32.621],[35.037,32.625],[35.036,32.628],[35.036,32.63],[35.037,32.634],[35.037,32.636],[35.039,32.639],[35.041,32.64],[35.043,32.642],[35.045,32.643],[35.047,32.644],[35.049,32.644],[35.051,32.644],[35.054,32.644],[35.058,32.643],[35.071,32.639],[35.073,32.638],[35.075,32.639],[35.077,32.64],[35.078,32.641],[35.082,32.645],[35.089,32.659],[35.091,32.662],[35.092,32.663],[35.094,32.664],[35.108,32.671],[35.109,32.673],[35.109,32.677],[35.104,32.695],[35.104,32.697],[35.105,32.703],[35.106,32.706],[35.107,32.707],[35.109,32.708],[35.111,32.708],[35.112,32.708],[35.114,32.706],[35.117,32.702],[35.118,32.701],[35.119,32.7],[35.121,32.699],[35.122,32.699],[35.124,32.7],[35.126,32.701],[35.128,32.703],[35.131,32.706],[35.132,32.709],[35.132,32.711],[35.132,32.713],[35.132,32.718],[35.132,32.721],[35.133,32.723],[35.138,32.725],[35.14,32.727],[35.14,32.73],[35.139,32.744],[35.139,32.746],[35.14,32.749],[35.141,32.75],[35.151,32.763],[35.152,32.766],[35.154,32.77],[35.155,32.778],[35.155,32.782],[35.154,32.785],[35.144,32.804],[35.142,32.809],[35.141,32.812],[35.141,32.814],[35.144,32.827],[35.144,32.83],[35.143,32.832],[35.141,32.833],[35.138,32.835],[35.123,32.838],[35.119,32.84],[35.118,32.841],[35.114,32.843],[35.113,32.844],[35.11,32.846],[35.102,32.851],[35.1,32.853],[35.1,32.855],[35.102,32.867],[35.102,32.87],[35.101,32.872],[35.097,32.874],[35.095,32.876],[35.093,32.879],[35.09,32.886],[35.087,32.889],[35.085,32.891],[35.078,32.892],[35.075,32.893],[35.08,32.906],[35.078,32.918],[35.065,32.923],[35.072,32.938],[35.078,32.999],[35.092,33.031],[35.096,33.05],[35.092,33.068],[35.096,33.071],[35.102,33.078],[35.106,33.081],[35.1,33.088],[35.104,33.089],[35.105,33.089],[35.185,33.084],[35.19,33.086],[35.201,33.093],[35.207,33.095],[35.213,33.094],[35.227,33.091],[35.234,33.091],[35.271,33.101],[35.284,33.101],[35.289,33.099],[35.295,33.097],[35.306,33.089],[35.316,33.079],[35.323,33.067],[35.332,33.057],[35.345,33.056],[35.402,33.068],[35.449,33.085],[35.48,33.087],[35.485,33.103],[35.504,33.131],[35.512,33.147],[35.518,33.173],[35.52,33.222],[35.528,33.244],[35.537,33.258],[35.543,33.272],[35.549,33.281],[35.561,33.282],[35.567,33.276],[35.585,33.252],[35.598,33.244],[35.604,33.24],[35.605,33.244],[35.618,33.256],[35.62,33.27],[35.631,33.275],[35.652,33.277],[35.66,33.289],[35.699,33.323],[35.716,33.327],[35.729,33.328],[35.744,33.331],[35.758,33.336],[35.769,33.343],[35.786,33.358],[35.806,33.391],[35.821,33.407],[35.822,33.401],[35.817,33.395],[35.815,33.379],[35.812,33.373],[35.81,33.36],[35.794,33.35],[35.786,33.343],[35.764,33.334],[35.802,33.312],[35.769,33.273],[35.776,33.265],[35.804,33.248],[35.808,33.202],[35.83,33.19],[35.833,33.161],[35.822,33.142],[35.811,33.127],[35.811,33.112],[35.849,33.099],[35.846,33.085],[35.859,32.99],[35.865,32.978],[35.888,32.945],[35.874,32.922],[35.867,32.921],[35.85,32.896],[35.838,32.866],[35.842,32.854],[35.834,32.828],[35.784,32.778],[35.758,32.744],[35.757,32.744],[35.74,32.741],[35.685,32.711],[35.652,32.686],[35.636,32.679],[35.612,32.682],[35.594,32.67],[35.579,32.653],[35.57,32.647],[35.563,32.644],[35.561,32.641],[35.56,32.633],[35.564,32.625],[35.573,32.621],[35.573,32.615],[35.566,32.615],[35.566,32.608],[35.571,32.599],[35.574,32.573],[35.58,32.56],[35.576,32.555],[35.574,32.554],[35.574,32.557],[35.573,32.56],[35.57,32.557],[35.566,32.546],[35.559,32.553],[35.563,32.532],[35.566,32.526],[35.552,32.526],[35.552,32.519],[35.557,32.519],[35.561,32.519],[35.569,32.51],[35.571,32.506],[35.58,32.498],[35.58,32.491],[35.571,32.489],[35.565,32.484],[35.561,32.477],[35.559,32.47],[35.563,32.468],[35.565,32.466],[35.568,32.465],[35.573,32.464],[35.573,32.457],[35.566,32.453],[35.559,32.451],[35.566,32.444],[35.552,32.436],[35.554,32.434],[35.556,32.435],[35.558,32.434],[35.559,32.429],[35.552,32.429],[35.552,32.423],[35.558,32.418],[35.559,32.414],[35.555,32.411],[35.545,32.41],[35.55,32.399],[35.552,32.395],[35.557,32.391],[35.561,32.385]]]}}]}
