{"type":"FeatureCollection","features":[{"type":"Feature","id":"IM-X01~","properties":{"id":"IM-X01~","countryCode":"IM","isoSubdivision":"IM-X01~","name":"Isle of Man","name_en":"Isle of Man","name_ko":"아일 오브 맨","type":"Principal subdivision","labelLongitude":-4.533,"labelLatitude":54.227,"minZoom":18},"geometry":{"type":"MultiPolygon","coordinates":[[[[-4.612,54.057],[-4.621,54.07],[-4.631,54.071],[-4.643,54.067],[-4.656,54.064],[-4.671,54.067],[-4.69,54.082],[-4.704,54.085],[-4.726,54.079],[-4.746,54.067],[-4.766,54.059],[-4.79,54.064],[-4.79,54.071],[-4.785,54.073],[-4.781,54.075],[-4.777,54.076],[-4.77,54.077],[-4.771,54.097],[-4.737,54.125],[-4.728,54.143],[-4.728,54.173],[-4.724,54.185],[-4.714,54.2],[-4.711,54.21],[-4.712,54.217],[-4.71,54.221],[-4.688,54.224],[-4.664,54.234],[-4.643,54.249],[-4.612,54.265],[-4.598,54.277],[-4.555,54.339],[-4.531,54.366],[-4.495,54.386],[-4.442,54.404],[-4.404,54.41],[-4.386,54.416],[-4.368,54.419],[-4.351,54.414],[-4.357,54.399],[-4.378,54.362],[-4.376,54.348],[-4.37,54.341],[-4.364,54.324],[-4.358,54.318],[-4.35,54.315],[-4.332,54.313],[-4.325,54.31],[-4.319,54.305],[-4.313,54.296],[-4.312,54.287],[-4.321,54.284],[-4.327,54.28],[-4.341,54.263],[-4.348,54.26],[-4.354,54.252],[-4.36,54.242],[-4.366,54.235],[-4.372,54.231],[-4.399,54.222],[-4.391,54.195],[-4.413,54.18],[-4.447,54.169],[-4.475,54.153],[-4.475,54.141],[-4.529,54.119],[-4.544,54.108],[-4.55,54.101],[-4.564,54.097],[-4.58,54.094],[-4.591,54.091],[-4.599,54.084],[-4.612,54.057]]],[[[-4.81,54.06],[-4.801,54.058],[-4.808,54.046],[-4.812,54.04],[-4.817,54.044],[-4.824,54.043],[-4.831,54.05],[-4.828,54.055],[-4.81,54.06]]]]}}]}
