{"type":"FeatureCollection","features":[{"type":"Feature","id":"IS-0","properties":{"id":"IS-0","countryCode":"IS","isoSubdivision":"IS-0","name":"Reykjavík","name_en":"Reykjavík","name_ko":"레이캬비크","type":"Region","labelLongitude":-21.865,"labelLatitude":64.083,"minZoom":6},"geometry":{"type":"Polygon","coordinates":[[[-22.124,64.044],[-22.041,64.051],[-22.014,64.059],[-21.99,64.076],[-21.982,64.07],[-21.975,64.069],[-21.969,64.071],[-21.963,64.076],[-21.963,64.082],[-21.981,64.09],[-22.005,64.098],[-22.029,64.101],[-22.045,64.097],[-22.035,64.113],[-22.01,64.121],[-21.982,64.122],[-21.963,64.117],[-21.971,64.116],[-21.99,64.11],[-21.972,64.105],[-21.952,64.104],[-21.932,64.106],[-21.915,64.11],[-21.915,64.117],[-21.935,64.117],[-21.921,64.123],[-21.915,64.124],[-21.977,64.149],[-22.011,64.157],[-22.045,64.158],[-22.015,64.168],[-21.865,64.156],[-21.858,64.152],[-21.852,64.148],[-21.847,64.144],[-21.816,64.137],[-21.8,64.137],[-21.785,64.144],[-21.796,64.143],[-21.807,64.144],[-21.817,64.146],[-21.826,64.151],[-21.814,64.159],[-21.807,64.162],[-21.798,64.165],[-21.819,64.172],[-21.793,64.176],[-21.757,64.171],[-21.744,64.171],[-21.724,64.171],[-21.703,64.192],[-21.737,64.183],[-21.756,64.182],[-21.764,64.188],[-21.757,64.2],[-21.741,64.206],[-21.71,64.213],[-21.73,64.219],[-21.76,64.22],[-21.791,64.218],[-21.813,64.213],[-21.806,64.23],[-21.818,64.238],[-21.838,64.24],[-21.866,64.24],[-21.875,64.238],[-21.884,64.235],[-21.891,64.23],[-21.929,64.234],[-21.899,64.245],[-21.89,64.253],[-21.895,64.268],[-21.876,64.274],[-21.736,64.276],[-21.616,64.257],[-21.606,64.186],[-21.655,64.082],[-21.837,64.047],[-21.93,64.004],[-22.036,64.001],[-22.124,64.044]]]}},{"type":"Feature","id":"IS-1","properties":{"id":"IS-1","countryCode":"IS","isoSubdivision":"IS-1","name":"Capital","name_en":"Capital","name_ko":"회뷔드보르가르스바이디","type":"Region","labelLongitude":-21.536,"labelLatitude":64.228,"minZoom":6},"geometry":{"type":"Polygon","coordinates":[[[-21.876,64.274],[-21.833,64.287],[-21.803,64.302],[-21.781,64.319],[-21.764,64.339],[-21.755,64.345],[-21.737,64.35],[-21.716,64.352],[-21.671,64.349],[-21.653,64.349],[-21.672,64.353],[-21.681,64.357],[-21.689,64.357],[-21.649,64.371],[-21.627,64.376],[-21.603,64.378],[-21.465,64.362],[-21.442,64.364],[-21.425,64.376],[-21.363,64.385],[-21.27,64.387],[-21.229,64.398],[-21.217,64.399],[-21.173,64.396],[-21.163,64.393],[-21.15,64.389],[-21.146,64.386],[-21.143,64.381],[-21.146,64.378],[-21.149,64.364],[-21.388,64.258],[-21.4,64.248],[-21.414,64.233],[-21.417,64.227],[-21.417,64.22],[-21.415,64.213],[-21.401,64.188],[-21.409,64.174],[-21.417,64.163],[-21.505,64.087],[-21.546,64.052],[-21.57,64.036],[-21.594,64.024],[-21.599,64.018],[-21.606,64.002],[-21.607,64.001],[-21.614,63.999],[-21.652,64],[-21.8,64.007],[-21.93,64.004],[-21.837,64.047],[-21.655,64.082],[-21.606,64.186],[-21.616,64.257],[-21.736,64.276],[-21.876,64.274]]]}},{"type":"Feature","id":"IS-2","properties":{"id":"IS-2","countryCode":"IS","isoSubdivision":"IS-2","name":"Southern Peninsula","name_en":"Southern Peninsula","name_ko":"쉬뒤르네스","type":"Independent Town","labelLongitude":-22.121,"labelLatitude":63.943,"minZoom":6},"geometry":{"type":"Polygon","coordinates":[[[-21.932,63.848],[-21.959,63.844],[-22,63.843],[-22.014,63.843],[-22.066,63.836],[-22.336,63.863],[-22.357,63.857],[-22.376,63.844],[-22.394,63.836],[-22.416,63.843],[-22.402,63.85],[-22.425,63.85],[-22.463,63.839],[-22.495,63.834],[-22.514,63.826],[-22.525,63.822],[-22.536,63.821],[-22.633,63.826],[-22.655,63.822],[-22.66,63.819],[-22.665,63.815],[-22.671,63.811],[-22.679,63.809],[-22.691,63.812],[-22.706,63.825],[-22.718,63.828],[-22.711,63.839],[-22.703,63.845],[-22.697,63.852],[-22.696,63.863],[-22.7,63.874],[-22.708,63.879],[-22.719,63.883],[-22.731,63.891],[-22.715,63.901],[-22.695,63.938],[-22.686,63.946],[-22.642,63.946],[-22.635,63.949],[-22.639,63.96],[-22.649,63.96],[-22.673,63.953],[-22.692,63.955],[-22.713,63.962],[-22.73,63.975],[-22.737,63.993],[-22.721,64.013],[-22.718,64.021],[-22.716,64.032],[-22.718,64.053],[-22.718,64.062],[-22.719,64.071],[-22.713,64.079],[-22.702,64.086],[-22.69,64.09],[-22.675,64.087],[-22.645,64.072],[-22.61,64.062],[-22.583,64.044],[-22.558,64.019],[-22.545,63.993],[-22.559,63.993],[-22.543,63.983],[-22.518,63.979],[-22.421,63.977],[-22.397,63.98],[-22.381,63.987],[-22.392,63.994],[-22.386,64.002],[-22.373,64.009],[-22.361,64.014],[-22.346,64.017],[-22.299,64.021],[-22.262,64.033],[-22.251,64.035],[-22.238,64.033],[-22.212,64.023],[-22.199,64.021],[-22.173,64.025],[-22.124,64.044],[-22.036,64.001],[-21.93,64.004],[-21.8,64.007],[-21.652,64],[-21.894,63.88],[-21.912,63.866],[-21.932,63.848]]]}},{"type":"Feature","id":"IS-3","properties":{"id":"IS-3","countryCode":"IS","isoSubdivision":"IS-3","name":"Western","name_en":"Western","name_ko":"베스튀를란드","type":"Region","labelLongitude":-21.357,"labelLatitude":64.818,"minZoom":6},"geometry":{"type":"Polygon","coordinates":[[[-21.425,64.376],[-21.414,64.384],[-21.459,64.373],[-21.483,64.378],[-21.483,64.384],[-21.473,64.384],[-21.465,64.385],[-21.449,64.391],[-21.449,64.395],[-21.45,64.397],[-21.453,64.397],[-21.456,64.398],[-21.449,64.398],[-21.631,64.403],[-21.717,64.394],[-21.792,64.364],[-21.796,64.36],[-21.799,64.354],[-21.804,64.348],[-21.813,64.343],[-21.821,64.34],[-21.841,64.337],[-21.85,64.337],[-21.866,64.334],[-21.911,64.32],[-21.925,64.312],[-21.963,64.297],[-22.01,64.3],[-22.1,64.315],[-22.1,64.322],[-22.058,64.333],[-22.018,64.35],[-21.985,64.37],[-21.963,64.376],[-21.942,64.37],[-21.923,64.379],[-21.879,64.385],[-21.86,64.391],[-21.949,64.395],[-21.976,64.391],[-21.996,64.385],[-22.011,64.383],[-22.027,64.388],[-22.045,64.405],[-22.032,64.414],[-22.03,64.426],[-22.029,64.441],[-22.021,64.456],[-22.015,64.457],[-22.007,64.454],[-22,64.454],[-21.995,64.471],[-21.989,64.479],[-21.976,64.493],[-21.975,64.504],[-21.95,64.514],[-21.837,64.539],[-21.778,64.542],[-21.783,64.55],[-21.792,64.555],[-21.805,64.557],[-21.819,64.556],[-21.819,64.562],[-21.801,64.57],[-21.762,64.592],[-21.729,64.599],[-21.713,64.607],[-21.703,64.611],[-21.689,64.612],[-21.647,64.611],[-21.651,64.593],[-21.631,64.59],[-21.606,64.589],[-21.593,64.579],[-21.58,64.572],[-21.497,64.57],[-21.513,64.575],[-21.548,64.574],[-21.566,64.576],[-21.58,64.583],[-21.602,64.598],[-21.62,64.603],[-21.579,64.611],[-21.579,64.617],[-21.682,64.617],[-21.682,64.624],[-21.625,64.639],[-21.607,64.648],[-21.59,64.65],[-21.511,64.644],[-21.511,64.651],[-21.589,64.659],[-21.613,64.658],[-21.677,64.633],[-21.703,64.631],[-21.703,64.638],[-21.677,64.649],[-21.667,64.656],[-21.661,64.666],[-21.701,64.647],[-21.713,64.644],[-21.722,64.639],[-21.728,64.616],[-21.741,64.611],[-21.75,64.608],[-21.792,64.59],[-21.844,64.581],[-21.86,64.576],[-21.854,64.562],[-21.883,64.567],[-21.911,64.563],[-21.97,64.542],[-21.993,64.529],[-22.009,64.525],[-22.025,64.528],[-22.036,64.538],[-22.034,64.548],[-22.018,64.57],[-22.039,64.567],[-22.049,64.555],[-22.052,64.54],[-22.052,64.525],[-22.055,64.52],[-22.079,64.501],[-22.084,64.492],[-22.084,64.485],[-22.085,64.479],[-22.093,64.473],[-22.129,64.473],[-22.135,64.469],[-22.138,64.466],[-22.147,64.463],[-22.157,64.46],[-22.165,64.46],[-22.181,64.463],[-22.199,64.472],[-22.215,64.485],[-22.223,64.501],[-22.232,64.495],[-22.24,64.491],[-22.248,64.488],[-22.258,64.487],[-22.243,64.5],[-22.231,64.515],[-22.227,64.53],[-22.237,64.542],[-22.233,64.543],[-22.223,64.548],[-22.231,64.552],[-22.239,64.555],[-22.248,64.556],[-22.258,64.556],[-22.253,64.559],[-22.243,64.57],[-22.243,64.576],[-22.289,64.561],[-22.318,64.555],[-22.34,64.556],[-22.358,64.568],[-22.365,64.584],[-22.361,64.6],[-22.347,64.611],[-22.347,64.617],[-22.364,64.618],[-22.377,64.626],[-22.386,64.634],[-22.391,64.638],[-22.404,64.641],[-22.418,64.648],[-22.432,64.657],[-22.443,64.666],[-22.418,64.661],[-22.392,64.65],[-22.365,64.643],[-22.34,64.651],[-22.361,64.651],[-22.355,64.663],[-22.345,64.67],[-22.333,64.675],[-22.32,64.679],[-22.329,64.684],[-22.333,64.686],[-22.333,64.692],[-22.218,64.717],[-22.189,64.733],[-22.189,64.74],[-22.251,64.717],[-22.284,64.71],[-22.316,64.707],[-22.343,64.699],[-22.374,64.685],[-22.402,64.676],[-22.422,64.686],[-22.409,64.69],[-22.381,64.707],[-22.361,64.716],[-22.349,64.723],[-22.34,64.733],[-22.347,64.74],[-22.338,64.742],[-22.332,64.745],[-22.32,64.754],[-22.342,64.765],[-22.372,64.769],[-22.436,64.768],[-22.422,64.781],[-22.443,64.781],[-22.436,64.791],[-22.417,64.811],[-22.408,64.823],[-22.419,64.822],[-22.428,64.818],[-22.436,64.811],[-22.443,64.802],[-22.449,64.812],[-22.457,64.815],[-22.466,64.814],[-22.477,64.809],[-22.477,64.802],[-22.532,64.809],[-22.547,64.806],[-22.577,64.792],[-22.593,64.789],[-22.593,64.781],[-22.586,64.78],[-22.566,64.774],[-22.658,64.767],[-22.682,64.774],[-22.659,64.773],[-22.647,64.774],[-22.638,64.778],[-22.641,64.783],[-22.651,64.792],[-22.664,64.799],[-22.673,64.802],[-22.778,64.802],[-22.763,64.795],[-22.71,64.781],[-22.71,64.774],[-22.737,64.775],[-22.784,64.793],[-22.813,64.795],[-22.806,64.795],[-22.931,64.8],[-23.05,64.8],[-23.188,64.804],[-23.246,64.83],[-23.302,64.832],[-23.398,64.823],[-23.399,64.82],[-23.416,64.806],[-23.423,64.802],[-23.434,64.798],[-23.445,64.795],[-23.457,64.794],[-23.573,64.809],[-23.563,64.813],[-23.551,64.816],[-23.538,64.817],[-23.555,64.82],[-23.593,64.811],[-23.624,64.794],[-23.628,64.774],[-23.647,64.751],[-23.674,64.741],[-23.748,64.74],[-23.77,64.738],[-23.813,64.727],[-23.834,64.726],[-23.906,64.744],[-23.921,64.754],[-23.936,64.756],[-23.946,64.761],[-23.95,64.778],[-23.956,64.787],[-23.999,64.816],[-24.017,64.832],[-24.032,64.849],[-24.06,64.891],[-24.053,64.899],[-24.033,64.89],[-24.014,64.893],[-23.978,64.912],[-23.958,64.917],[-23.85,64.931],[-23.829,64.93],[-23.748,64.907],[-23.638,64.899],[-23.629,64.901],[-23.61,64.914],[-23.601,64.918],[-23.559,64.917],[-23.549,64.922],[-23.513,64.946],[-23.472,64.952],[-23.381,64.946],[-23.381,64.953],[-23.387,64.956],[-23.39,64.959],[-23.392,64.962],[-23.395,64.967],[-23.353,64.968],[-23.34,64.963],[-23.347,64.946],[-23.334,64.941],[-23.325,64.947],[-23.317,64.953],[-23.306,64.953],[-23.302,64.944],[-23.302,64.93],[-23.297,64.922],[-23.279,64.933],[-23.263,64.926],[-23.245,64.93],[-23.23,64.94],[-23.224,64.949],[-23.228,64.96],[-23.235,64.973],[-23.241,64.987],[-23.238,65.001],[-23.21,65.017],[-23.169,65.02],[-23.087,65.015],[-23.094,65.003],[-23.107,64.995],[-23.135,64.987],[-23.132,64.983],[-23.128,64.973],[-23.14,64.972],[-23.148,64.968],[-23.155,64.962],[-23.163,64.953],[-23.107,64.918],[-23.113,64.934],[-23.114,64.946],[-23.11,64.957],[-23.1,64.967],[-23.093,64.969],[-23.074,64.971],[-23.066,64.973],[-23.06,64.979],[-23.054,64.991],[-23.049,64.998],[-23.021,65.013],[-22.993,65.014],[-22.966,65.004],[-22.943,64.987],[-22.927,64.997],[-22.906,65.003],[-22.845,65.01],[-22.785,65.028],[-22.801,65.032],[-22.874,65.028],[-22.874,65.035],[-22.832,65.039],[-22.757,65.072],[-22.718,65.076],[-22.723,65.072],[-22.731,65.069],[-22.713,65.067],[-22.696,65.062],[-22.697,65.055],[-22.698,65.053],[-22.697,65.053],[-22.696,65.049],[-22.71,65.041],[-22.74,65.033],[-22.751,65.028],[-22.738,65.026],[-22.721,65.027],[-22.704,65.029],[-22.69,65.035],[-22.683,65.016],[-22.674,65.008],[-22.641,65.001],[-22.597,64.983],[-22.58,64.98],[-22.58,64.987],[-22.592,64.99],[-22.603,64.996],[-22.628,65.015],[-22.601,65.03],[-22.586,65.035],[-22.566,65.035],[-22.564,65.048],[-22.545,65.052],[-22.462,65.05],[-22.38,65.059],[-22.245,65.047],[-22.155,65.028],[-22.145,65.03],[-22.13,65.039],[-22.12,65.042],[-22.045,65.042],[-22.025,65.038],[-22.004,65.031],[-21.983,65.028],[-21.981,65.028],[-21.963,65.035],[-21.937,65.028],[-21.826,65.035],[-21.8,65.045],[-21.799,65.057],[-21.816,65.067],[-21.847,65.069],[-21.837,65.082],[-21.825,65.087],[-21.81,65.089],[-21.792,65.097],[-21.779,65.108],[-21.737,65.159],[-21.734,65.194],[-21.766,65.208],[-21.809,65.206],[-21.84,65.193],[-21.84,65.186],[-21.833,65.186],[-21.833,65.178],[-21.984,65.124],[-22.034,65.115],[-22.319,65.138],[-22.391,65.163],[-22.402,65.165],[-22.406,65.165],[-22.421,65.16],[-22.512,65.154],[-22.539,65.159],[-22.558,65.169],[-22.542,65.173],[-22.513,65.177],[-22.49,65.186],[-22.483,65.181],[-22.475,65.179],[-22.457,65.178],[-22.457,65.186],[-22.479,65.193],[-22.504,65.194],[-22.552,65.186],[-22.542,65.201],[-22.524,65.215],[-22.49,65.234],[-22.444,65.243],[-22.426,65.251],[-22.429,65.268],[-22.414,65.27],[-22.378,65.268],[-22.369,65.272],[-22.34,65.296],[-22.313,65.304],[-22.201,65.318],[-22.107,65.348],[-22.071,65.367],[-22.007,65.381],[-21.984,65.392],[-21.986,65.393],[-21.989,65.393],[-21.99,65.394],[-21.99,65.398],[-21.975,65.397],[-21.951,65.386],[-21.935,65.385],[-21.944,65.401],[-21.949,65.406],[-21.887,65.421],[-21.757,65.438],[-21.719,65.447],[-21.695,65.453],[-21.678,65.46],[-21.653,65.486],[-21.641,65.494],[-21.615,65.502],[-21.603,65.488],[-21.603,65.459],[-21.606,65.447],[-21.612,65.432],[-21.611,65.427],[-21.608,65.421],[-21.61,65.417],[-21.618,65.413],[-21.643,65.404],[-21.654,65.395],[-21.657,65.389],[-21.655,65.383],[-21.648,65.377],[-21.628,65.367],[-21.621,65.362],[-21.618,65.362],[-21.532,65.372],[-21.495,65.372],[-21.484,65.369],[-21.477,65.364],[-21.459,65.341],[-21.401,65.291],[-21.372,65.276],[-21.365,65.269],[-21.358,65.265],[-21.352,65.263],[-21.343,65.262],[-21.335,65.259],[-21.283,65.232],[-21.276,65.225],[-21.271,65.218],[-21.268,65.211],[-21.249,65.185],[-21.246,65.177],[-21.247,65.17],[-21.254,65.163],[-21.279,65.141],[-21.284,65.136],[-21.287,65.131],[-21.288,65.126],[-21.289,65.12],[-21.289,65.112],[-21.287,65.103],[-21.27,65.08],[-21.265,65.07],[-21.258,65.065],[-21.24,65.059],[-21.23,65.054],[-21.212,65.041],[-21.206,65.038],[-21.194,65.033],[-21.191,65.029],[-21.19,65.025],[-21.19,65.022],[-21.191,65.015],[-21.113,64.985],[-21.084,64.978],[-21.051,64.973],[-20.984,64.972],[-20.975,64.962],[-20.889,64.937],[-20.875,64.935],[-20.792,64.933],[-20.781,64.931],[-20.743,64.915],[-20.727,64.914],[-20.406,64.955],[-20.391,64.954],[-20.344,64.944],[-20.105,64.941],[-19.81,64.936],[-19.801,64.934],[-19.796,64.929],[-19.793,64.924],[-19.793,64.917],[-19.794,64.91],[-19.799,64.901],[-19.809,64.895],[-19.924,64.841],[-19.977,64.802],[-19.992,64.778],[-19.993,64.772],[-19.994,64.765],[-19.991,64.75],[-19.991,64.738],[-19.993,64.73],[-19.997,64.724],[-20.001,64.72],[-20.017,64.71],[-20.045,64.698],[-20.314,64.644],[-20.628,64.557],[-20.79,64.531],[-20.814,64.524],[-20.93,64.464],[-21.078,64.404],[-21.149,64.364],[-21.146,64.378],[-21.143,64.381],[-21.146,64.386],[-21.15,64.389],[-21.163,64.393],[-21.173,64.396],[-21.217,64.399],[-21.229,64.398],[-21.27,64.387],[-21.363,64.385],[-21.425,64.376]]]}},{"type":"Feature","id":"IS-4","properties":{"id":"IS-4","countryCode":"IS","isoSubdivision":"IS-4","name":"Westfjords","name_en":"Westfjords","name_ko":"베스트피르디르","type":"Region","labelLongitude":-22.156,"labelLatitude":65.707,"minZoom":6},"geometry":{"type":"Polygon","coordinates":[[[-21.695,65.453],[-21.791,65.44],[-21.826,65.44],[-21.898,65.447],[-21.957,65.439],[-21.976,65.44],[-21.957,65.455],[-21.935,65.467],[-21.972,65.482],[-21.985,65.493],[-21.99,65.508],[-22.003,65.504],[-22.017,65.501],[-22.031,65.5],[-22.045,65.501],[-22.04,65.487],[-22.049,65.483],[-22.063,65.484],[-22.073,65.487],[-22.082,65.496],[-22.101,65.52],[-22.114,65.529],[-22.109,65.512],[-22.111,65.497],[-22.12,65.485],[-22.135,65.474],[-22.152,65.465],[-22.163,65.461],[-22.172,65.46],[-22.175,65.455],[-22.182,65.446],[-22.19,65.437],[-22.199,65.432],[-22.237,65.431],[-22.254,65.434],[-22.281,65.451],[-22.34,65.474],[-22.382,65.483],[-22.387,65.492],[-22.368,65.508],[-22.346,65.515],[-22.235,65.525],[-22.189,65.538],[-22.165,65.541],[-22.154,65.546],[-22.151,65.556],[-22.151,65.568],[-22.148,65.577],[-22.14,65.584],[-22.129,65.589],[-22.107,65.597],[-22.136,65.593],[-22.21,65.549],[-22.244,65.537],[-22.276,65.531],[-22.347,65.529],[-22.347,65.535],[-22.305,65.548],[-22.292,65.555],[-22.292,65.563],[-22.312,65.562],[-22.327,65.556],[-22.353,65.541],[-22.374,65.538],[-22.387,65.542],[-22.398,65.548],[-22.416,65.549],[-22.416,65.541],[-22.404,65.534],[-22.409,65.525],[-22.423,65.517],[-22.479,65.508],[-22.493,65.511],[-22.504,65.529],[-22.505,65.545],[-22.501,65.557],[-22.501,65.57],[-22.515,65.587],[-22.534,65.622],[-22.546,65.634],[-22.558,65.625],[-22.558,65.619],[-22.558,65.609],[-22.557,65.598],[-22.541,65.577],[-22.541,65.568],[-22.547,65.561],[-22.566,65.543],[-22.577,65.536],[-22.589,65.536],[-22.604,65.545],[-22.623,65.564],[-22.631,65.566],[-22.638,65.54],[-22.645,65.532],[-22.656,65.528],[-22.669,65.529],[-22.677,65.533],[-22.685,65.541],[-22.708,65.572],[-22.712,65.589],[-22.705,65.605],[-22.682,65.624],[-22.691,65.63],[-22.696,65.628],[-22.701,65.625],[-22.71,65.624],[-22.737,65.632],[-22.754,65.632],[-22.759,65.63],[-22.764,65.624],[-22.763,65.618],[-22.754,65.597],[-22.745,65.584],[-22.718,65.508],[-22.732,65.502],[-22.749,65.503],[-22.767,65.507],[-22.785,65.508],[-22.785,65.514],[-22.78,65.523],[-22.784,65.529],[-22.796,65.534],[-22.809,65.535],[-22.842,65.531],[-22.853,65.532],[-22.854,65.541],[-22.862,65.541],[-22.888,65.541],[-22.888,65.549],[-22.863,65.559],[-22.819,65.585],[-22.792,65.59],[-22.802,65.601],[-22.819,65.609],[-22.854,65.618],[-22.86,65.596],[-22.88,65.576],[-22.905,65.567],[-22.926,65.573],[-22.932,65.584],[-22.937,65.596],[-22.943,65.606],[-22.953,65.61],[-22.956,65.604],[-22.961,65.572],[-22.964,65.563],[-22.985,65.551],[-23.045,65.545],[-23.073,65.538],[-23.129,65.55],[-23.158,65.562],[-23.155,65.577],[-23.155,65.583],[-23.183,65.576],[-23.2,65.557],[-23.201,65.535],[-23.182,65.522],[-23.182,65.514],[-23.195,65.509],[-23.218,65.493],[-23.231,65.487],[-23.247,65.485],[-23.314,65.489],[-23.341,65.494],[-23.357,65.495],[-23.373,65.498],[-23.385,65.506],[-23.396,65.514],[-23.402,65.514],[-23.408,65.514],[-23.413,65.512],[-23.423,65.508],[-23.419,65.507],[-23.416,65.505],[-23.409,65.501],[-23.438,65.496],[-23.49,65.478],[-23.625,65.466],[-23.656,65.474],[-23.657,65.462],[-23.661,65.458],[-23.668,65.457],[-23.677,65.453],[-23.714,65.426],[-23.898,65.405],[-23.944,65.407],[-23.984,65.419],[-23.984,65.426],[-23.979,65.434],[-23.983,65.441],[-23.993,65.448],[-24.005,65.453],[-23.987,65.453],[-23.979,65.451],[-23.971,65.447],[-23.968,65.465],[-23.986,65.474],[-24.009,65.473],[-24.019,65.46],[-24.043,65.475],[-24.197,65.501],[-24.482,65.488],[-24.518,65.491],[-24.54,65.508],[-24.496,65.519],[-24.474,65.528],[-24.464,65.538],[-24.452,65.545],[-24.393,65.561],[-24.375,65.569],[-24.371,65.585],[-24.371,65.603],[-24.366,65.618],[-24.335,65.626],[-24.318,65.636],[-24.303,65.638],[-24.278,65.636],[-24.181,65.612],[-24.153,65.61],[-24.135,65.606],[-24.081,65.577],[-24.041,65.566],[-23.971,65.559],[-23.955,65.549],[-23.94,65.538],[-23.923,65.529],[-23.893,65.522],[-23.864,65.523],[-23.807,65.535],[-23.852,65.535],[-23.876,65.537],[-23.895,65.541],[-23.911,65.55],[-23.925,65.562],[-23.941,65.572],[-23.961,65.577],[-24.01,65.599],[-24.037,65.619],[-24.069,65.637],[-24.087,65.651],[-23.936,65.638],[-23.838,65.614],[-23.807,65.61],[-23.826,65.626],[-23.853,65.639],[-23.881,65.648],[-23.925,65.655],[-23.977,65.669],[-24.023,65.676],[-24.045,65.685],[-24.081,65.706],[-24.122,65.741],[-24.125,65.753],[-24.124,65.766],[-24.125,65.777],[-24.135,65.789],[-24.093,65.805],[-24.05,65.804],[-23.628,65.706],[-23.619,65.701],[-23.601,65.686],[-23.574,65.677],[-23.567,65.673],[-23.556,65.655],[-23.561,65.643],[-23.571,65.633],[-23.58,65.618],[-23.562,65.614],[-23.539,65.621],[-23.498,65.645],[-23.494,65.64],[-23.478,65.632],[-23.467,65.641],[-23.413,65.635],[-23.389,65.638],[-23.389,65.645],[-23.397,65.647],[-23.401,65.649],[-23.409,65.659],[-23.392,65.659],[-23.347,65.673],[-23.331,65.673],[-23.315,65.672],[-23.299,65.673],[-23.285,65.679],[-23.404,65.675],[-23.458,65.682],[-23.498,65.693],[-23.512,65.7],[-23.529,65.711],[-23.539,65.723],[-23.529,65.728],[-23.467,65.74],[-23.453,65.737],[-23.438,65.732],[-23.356,65.736],[-23.33,65.746],[-23.31,65.748],[-23.266,65.741],[-23.245,65.74],[-23.224,65.748],[-23.237,65.753],[-23.243,65.755],[-23.251,65.755],[-23.251,65.761],[-23.204,65.775],[-23.19,65.782],[-23.245,65.779],[-23.276,65.773],[-23.319,65.757],[-23.589,65.76],[-23.642,65.769],[-23.677,65.782],[-23.729,65.774],[-23.741,65.779],[-23.755,65.789],[-23.813,65.816],[-23.845,65.843],[-23.867,65.876],[-23.863,65.906],[-23.821,65.926],[-23.801,65.926],[-23.744,65.912],[-23.67,65.905],[-23.651,65.9],[-23.619,65.884],[-23.601,65.878],[-23.582,65.877],[-23.519,65.885],[-23.395,65.864],[-23.354,65.864],[-23.283,65.843],[-23.245,65.836],[-23.21,65.843],[-23.292,65.854],[-23.319,65.868],[-23.402,65.871],[-23.427,65.877],[-23.474,65.895],[-23.578,65.905],[-23.601,65.912],[-23.655,65.943],[-23.683,65.949],[-23.696,65.958],[-23.718,65.962],[-23.763,65.98],[-23.804,66.003],[-23.813,66.011],[-23.813,66.042],[-23.807,66.058],[-23.793,66.07],[-23.751,66.077],[-23.7,66.072],[-23.518,66.027],[-23.465,66.021],[-23.429,66.029],[-23.425,66.014],[-23.413,66],[-23.395,65.991],[-23.375,65.988],[-23.375,65.994],[-23.392,66.005],[-23.423,66.036],[-23.443,66.042],[-23.466,66.045],[-23.512,66.054],[-23.536,66.056],[-23.547,66.06],[-23.578,66.077],[-23.636,66.098],[-23.67,66.117],[-23.637,66.128],[-23.55,66.132],[-23.484,66.128],[-23.395,66.098],[-23.419,66.107],[-23.458,66.133],[-23.481,66.139],[-23.577,66.138],[-23.601,66.145],[-23.601,66.152],[-23.591,66.16],[-23.576,66.169],[-23.56,66.176],[-23.55,66.178],[-23.543,66.18],[-23.501,66.18],[-23.486,66.186],[-23.484,66.199],[-23.461,66.204],[-23.304,66.186],[-23.203,66.155],[-23.172,66.152],[-23.153,66.146],[-23.127,66.131],[-23.11,66.113],[-23.114,66.098],[-23.107,66.076],[-23.058,66.108],[-23.038,66.111],[-23.028,66.109],[-23.018,66.103],[-23.004,66.09],[-22.986,66.08],[-22.984,66.074],[-22.984,66.06],[-22.978,66.043],[-22.977,66.034],[-22.984,66.026],[-23,66.013],[-23.004,66.011],[-23.049,65.977],[-23.059,65.967],[-23.053,65.967],[-23.031,65.981],[-22.977,66.008],[-22.957,66.022],[-22.951,66.03],[-22.946,66.039],[-22.94,66.046],[-22.929,66.049],[-22.917,66.046],[-22.91,66.039],[-22.895,66.015],[-22.9,66.011],[-22.902,66.008],[-22.887,66.013],[-22.872,66.023],[-22.856,66.029],[-22.84,66.022],[-22.857,65.999],[-22.881,65.975],[-22.91,65.956],[-22.943,65.947],[-22.903,65.948],[-22.884,65.952],[-22.868,65.961],[-22.849,65.986],[-22.834,66.001],[-22.823,66.005],[-22.809,65.978],[-22.816,65.95],[-22.825,65.926],[-22.819,65.912],[-22.785,65.961],[-22.787,65.983],[-22.783,66.009],[-22.775,66.033],[-22.764,66.049],[-22.756,66.057],[-22.75,66.058],[-22.683,66.056],[-22.676,66.053],[-22.674,66.039],[-22.667,66.031],[-22.659,66.026],[-22.62,66.009],[-22.584,65.981],[-22.578,65.978],[-22.577,65.973],[-22.582,65.951],[-22.586,65.94],[-22.592,65.931],[-22.6,65.926],[-22.598,65.922],[-22.593,65.92],[-22.645,65.861],[-22.655,65.842],[-22.648,65.834],[-22.635,65.835],[-22.612,65.874],[-22.545,65.947],[-22.539,65.967],[-22.539,65.974],[-22.517,65.976],[-22.504,65.966],[-22.492,65.952],[-22.477,65.939],[-22.469,65.939],[-22.464,65.941],[-22.458,65.941],[-22.449,65.933],[-22.45,65.925],[-22.455,65.917],[-22.456,65.91],[-22.443,65.905],[-22.441,65.91],[-22.436,65.92],[-22.429,65.928],[-22.422,65.926],[-22.422,65.919],[-22.429,65.885],[-22.437,65.874],[-22.46,65.854],[-22.47,65.843],[-22.47,65.837],[-22.432,65.846],[-22.393,65.902],[-22.361,65.912],[-22.361,65.92],[-22.381,65.929],[-22.393,65.948],[-22.4,65.97],[-22.408,65.988],[-22.423,66.002],[-22.442,66.015],[-22.463,66.025],[-22.484,66.029],[-22.474,66.042],[-22.469,66.055],[-22.464,66.066],[-22.449,66.076],[-22.43,66.08],[-22.41,66.08],[-22.393,66.084],[-22.381,66.098],[-22.402,66.097],[-22.451,66.087],[-22.47,66.08],[-22.488,66.077],[-22.572,66.094],[-22.628,66.117],[-22.866,66.159],[-22.936,66.19],[-22.978,66.234],[-22.931,66.246],[-22.782,66.263],[-22.751,66.262],[-22.645,66.248],[-22.617,66.248],[-22.607,66.247],[-22.601,66.243],[-22.598,66.238],[-22.593,66.234],[-22.567,66.223],[-22.552,66.221],[-22.539,66.227],[-22.545,66.231],[-22.55,66.235],[-22.559,66.248],[-22.51,66.248],[-22.484,66.251],[-22.441,66.265],[-22.391,66.268],[-22.368,66.275],[-22.503,66.266],[-22.545,66.275],[-22.565,66.284],[-22.56,66.285],[-22.544,66.286],[-22.528,66.293],[-22.518,66.3],[-22.503,66.306],[-22.486,66.31],[-22.47,66.309],[-22.47,66.317],[-22.492,66.322],[-22.505,66.32],[-22.545,66.303],[-22.596,66.292],[-22.655,66.289],[-22.702,66.293],[-22.71,66.296],[-22.711,66.306],[-22.703,66.314],[-22.682,66.324],[-22.678,66.331],[-22.673,66.351],[-22.669,66.357],[-22.655,66.363],[-22.608,66.371],[-22.651,66.368],[-22.684,66.358],[-22.763,66.324],[-22.782,66.32],[-22.823,66.317],[-22.835,66.323],[-22.829,66.336],[-22.813,66.35],[-22.799,66.357],[-22.799,66.365],[-22.834,66.359],[-22.851,66.353],[-22.868,66.344],[-22.908,66.315],[-22.916,66.313],[-22.94,66.301],[-23.098,66.318],[-23.139,66.328],[-23.166,66.342],[-23.183,66.349],[-23.19,66.355],[-23.176,66.365],[-23.138,66.366],[-23.09,66.358],[-23.047,66.361],[-23.025,66.392],[-23.053,66.394],[-23.085,66.403],[-23.114,66.417],[-23.135,66.433],[-23.105,66.443],[-23.073,66.437],[-23.042,66.426],[-23.012,66.419],[-23.019,66.43],[-23.024,66.435],[-23.032,66.44],[-22.923,66.448],[-22.916,66.446],[-22.909,66.442],[-22.901,66.43],[-22.895,66.426],[-22.874,66.424],[-22.864,66.431],[-22.868,66.441],[-22.885,66.446],[-22.901,66.449],[-22.95,66.467],[-22.85,66.467],[-22.833,66.464],[-22.797,66.45],[-22.752,66.443],[-22.716,66.425],[-22.696,66.419],[-22.67,66.421],[-22.631,66.44],[-22.608,66.446],[-22.61,66.45],[-22.614,66.46],[-22.575,66.466],[-22.542,66.455],[-22.511,66.44],[-22.442,66.427],[-22.427,66.428],[-22.422,66.44],[-22.429,66.45],[-22.456,66.457],[-22.463,66.467],[-22.431,66.465],[-22.4,66.452],[-22.377,66.433],[-22.368,66.409],[-22.35,66.394],[-22.269,66.376],[-22.243,66.357],[-22.258,66.347],[-22.245,66.341],[-22.202,66.337],[-22.202,66.33],[-22.221,66.333],[-22.228,66.329],[-22.23,66.32],[-22.23,66.309],[-22.225,66.304],[-22.216,66.297],[-22.214,66.29],[-22.23,66.283],[-22.23,66.275],[-22.217,66.268],[-22.203,66.274],[-22.187,66.279],[-22.171,66.283],[-22.155,66.283],[-22.146,66.278],[-22.138,66.271],[-22.128,66.268],[-22.12,66.275],[-22.106,66.288],[-22.09,66.29],[-22.08,66.283],[-22.086,66.268],[-22.015,66.271],[-21.997,66.268],[-21.988,66.275],[-21.979,66.275],[-21.971,66.272],[-21.963,66.268],[-21.958,66.265],[-21.922,66.241],[-21.931,66.234],[-21.99,66.214],[-21.977,66.21],[-21.964,66.213],[-21.951,66.218],[-21.935,66.221],[-21.921,66.22],[-21.874,66.204],[-21.861,66.196],[-21.854,66.193],[-21.844,66.193],[-21.823,66.198],[-21.813,66.199],[-21.75,66.186],[-21.753,66.182],[-21.757,66.173],[-21.74,66.168],[-21.73,66.156],[-21.73,66.144],[-21.744,66.139],[-21.74,66.132],[-21.732,66.123],[-21.73,66.117],[-21.73,66.118],[-21.728,66.101],[-21.723,66.082],[-21.716,66.076],[-21.703,66.07],[-21.689,66.071],[-21.671,66.076],[-21.654,66.078],[-21.641,66.07],[-21.639,66.057],[-21.648,66.044],[-21.66,66.033],[-21.668,66.022],[-21.655,66.023],[-21.639,66.028],[-21.626,66.034],[-21.62,66.039],[-21.62,66.056],[-21.621,66.063],[-21.641,66.083],[-21.629,66.089],[-21.593,66.096],[-21.549,66.098],[-21.541,66.094],[-21.536,66.087],[-21.532,66.079],[-21.528,66.076],[-21.509,66.072],[-21.521,66.065],[-21.543,66.057],[-21.552,66.056],[-21.558,66.047],[-21.554,66.039],[-21.535,66.026],[-21.509,66.017],[-21.401,66.029],[-21.372,66.026],[-21.349,66.021],[-21.331,66.009],[-21.319,65.988],[-21.459,65.982],[-21.486,65.973],[-21.592,65.96],[-21.607,65.961],[-21.588,65.946],[-21.56,65.948],[-21.504,65.961],[-21.41,65.967],[-21.381,65.961],[-21.393,65.952],[-21.436,65.939],[-21.436,65.933],[-21.328,65.945],[-21.302,65.936],[-21.287,65.916],[-21.284,65.899],[-21.296,65.886],[-21.326,65.878],[-21.278,65.864],[-21.278,65.857],[-21.328,65.809],[-21.346,65.796],[-21.375,65.785],[-21.477,65.769],[-21.477,65.761],[-21.455,65.761],[-21.418,65.763],[-21.401,65.761],[-21.348,65.747],[-21.332,65.741],[-21.414,65.7],[-21.444,65.69],[-21.579,65.693],[-21.589,65.698],[-21.605,65.711],[-21.61,65.713],[-21.629,65.719],[-21.647,65.733],[-21.659,65.747],[-21.661,65.755],[-21.686,65.769],[-21.717,65.776],[-21.749,65.776],[-21.778,65.769],[-21.758,65.767],[-21.711,65.755],[-21.695,65.748],[-21.693,65.746],[-21.672,65.729],[-21.668,65.728],[-21.665,65.716],[-21.669,65.708],[-21.677,65.701],[-21.689,65.693],[-21.673,65.686],[-21.665,65.681],[-21.661,65.676],[-21.656,65.663],[-21.644,65.655],[-21.633,65.651],[-21.628,65.648],[-21.61,65.642],[-21.443,65.643],[-21.414,65.637],[-21.401,65.624],[-21.411,65.613],[-21.463,65.579],[-21.483,65.569],[-21.483,65.563],[-21.435,65.574],[-21.373,65.597],[-21.321,65.602],[-21.299,65.559],[-21.32,65.522],[-21.37,65.487],[-21.429,65.461],[-21.477,65.453],[-21.477,65.447],[-21.376,65.463],[-21.337,65.477],[-21.315,65.481],[-21.293,65.479],[-21.278,65.473],[-21.25,65.453],[-21.212,65.438],[-21.202,65.428],[-21.209,65.412],[-21.195,65.408],[-21.193,65.401],[-21.195,65.39],[-21.195,65.378],[-21.189,65.356],[-21.189,65.34],[-21.193,65.32],[-21.193,65.31],[-21.154,65.258],[-21.14,65.247],[-21.144,65.246],[-21.145,65.245],[-21.146,65.244],[-21.148,65.241],[-21.128,65.232],[-21.108,65.216],[-21.097,65.196],[-21.106,65.178],[-21.106,65.172],[-21.09,65.166],[-21.084,65.168],[-21.084,65.159],[-21.074,65.146],[-21.073,65.128],[-21.076,65.11],[-21.075,65.101],[-21.071,65.091],[-21.063,65.079],[-21.048,65.065],[-21.023,65.037],[-21.007,64.999],[-21.001,64.988],[-20.984,64.972],[-21.051,64.973],[-21.084,64.978],[-21.113,64.985],[-21.191,65.015],[-21.19,65.022],[-21.19,65.025],[-21.191,65.029],[-21.194,65.033],[-21.206,65.038],[-21.212,65.041],[-21.23,65.054],[-21.24,65.059],[-21.258,65.065],[-21.265,65.07],[-21.27,65.08],[-21.287,65.103],[-21.289,65.112],[-21.289,65.12],[-21.288,65.126],[-21.287,65.131],[-21.284,65.136],[-21.279,65.141],[-21.254,65.163],[-21.247,65.17],[-21.246,65.177],[-21.249,65.185],[-21.268,65.211],[-21.271,65.218],[-21.276,65.225],[-21.283,65.232],[-21.335,65.259],[-21.343,65.262],[-21.352,65.263],[-21.358,65.265],[-21.365,65.269],[-21.372,65.276],[-21.401,65.291],[-21.459,65.341],[-21.477,65.364],[-21.484,65.369],[-21.495,65.372],[-21.532,65.372],[-21.618,65.362],[-21.621,65.362],[-21.628,65.367],[-21.648,65.377],[-21.655,65.383],[-21.657,65.389],[-21.654,65.395],[-21.643,65.404],[-21.618,65.413],[-21.61,65.417],[-21.608,65.421],[-21.611,65.427],[-21.612,65.432],[-21.606,65.447],[-21.603,65.459],[-21.603,65.488],[-21.615,65.502],[-21.641,65.494],[-21.653,65.486],[-21.678,65.46],[-21.695,65.453]]]}},{"type":"Feature","id":"IS-5","properties":{"id":"IS-5","countryCode":"IS","isoSubdivision":"IS-5","name":"Northwestern","name_en":"Northwestern","name_ko":"노르뒤를란드 베스트라","type":"Region","labelLongitude":-19.701,"labelLatitude":65.152,"minZoom":6},"geometry":{"type":"Polygon","coordinates":[[[-21.084,65.168],[-21.073,65.172],[-21.065,65.186],[-21.08,65.21],[-21.083,65.226],[-21.086,65.234],[-21.094,65.244],[-21.112,65.259],[-21.12,65.268],[-21.105,65.279],[-21.099,65.282],[-21.103,65.291],[-21.097,65.297],[-21.086,65.303],[-21.079,65.309],[-21.074,65.324],[-21.074,65.338],[-21.095,65.414],[-21.099,65.445],[-21.086,65.46],[-21.055,65.452],[-21.034,65.434],[-21.003,65.392],[-20.974,65.367],[-20.97,65.361],[-20.963,65.353],[-20.929,65.349],[-20.915,65.343],[-20.908,65.351],[-20.934,65.374],[-20.957,65.405],[-20.975,65.438],[-20.983,65.467],[-20.987,65.491],[-20.987,65.507],[-20.983,65.522],[-20.979,65.527],[-20.967,65.537],[-20.962,65.541],[-20.952,65.57],[-20.949,65.577],[-20.918,65.601],[-20.805,65.638],[-20.744,65.673],[-20.725,65.677],[-20.706,65.679],[-20.692,65.683],[-20.689,65.693],[-20.675,65.694],[-20.666,65.691],[-20.647,65.679],[-20.643,65.679],[-20.63,65.68],[-20.626,65.679],[-20.623,65.671],[-20.626,65.668],[-20.631,65.667],[-20.634,65.665],[-20.641,65.625],[-20.642,65.605],[-20.634,65.59],[-20.646,65.573],[-20.646,65.556],[-20.636,65.545],[-20.613,65.549],[-20.624,65.567],[-20.622,65.583],[-20.609,65.591],[-20.586,65.583],[-20.577,65.577],[-20.576,65.573],[-20.576,65.567],[-20.572,65.555],[-20.577,65.548],[-20.579,65.541],[-20.579,65.535],[-20.575,65.536],[-20.557,65.531],[-20.551,65.529],[-20.544,65.52],[-20.54,65.513],[-20.535,65.507],[-20.524,65.501],[-20.513,65.497],[-20.501,65.495],[-20.488,65.494],[-20.476,65.495],[-20.472,65.496],[-20.453,65.501],[-20.445,65.512],[-20.44,65.528],[-20.428,65.549],[-20.439,65.553],[-20.455,65.567],[-20.466,65.569],[-20.5,65.568],[-20.517,65.57],[-20.531,65.577],[-20.498,65.582],[-20.466,65.583],[-20.453,65.585],[-20.425,65.595],[-20.411,65.597],[-20.398,65.587],[-20.402,65.543],[-20.388,65.529],[-20.391,65.545],[-20.382,65.557],[-20.376,65.568],[-20.388,65.583],[-20.376,65.596],[-20.344,65.616],[-20.329,65.628],[-20.325,65.635],[-20.324,65.651],[-20.319,65.659],[-20.309,65.663],[-20.291,65.663],[-20.27,65.665],[-20.292,65.667],[-20.306,65.679],[-20.308,65.693],[-20.294,65.7],[-20.281,65.704],[-20.272,65.714],[-20.265,65.728],[-20.263,65.745],[-20.271,65.77],[-20.291,65.794],[-20.315,65.812],[-20.339,65.823],[-20.339,65.83],[-20.312,65.84],[-20.323,65.869],[-20.348,65.902],[-20.386,65.937],[-20.393,65.947],[-20.4,65.981],[-20.406,65.998],[-20.417,66.01],[-20.432,66.021],[-20.449,66.029],[-20.434,66.039],[-20.42,66.054],[-20.415,66.071],[-20.428,66.083],[-20.408,66.091],[-20.384,66.092],[-20.342,66.09],[-20.332,66.092],[-20.314,66.101],[-20.304,66.104],[-20.291,66.106],[-20.256,66.104],[-20.237,66.108],[-20.201,66.127],[-20.185,66.131],[-20.136,66.124],[-20.125,66.123],[-20.113,66.123],[-20.092,66.131],[-20.087,66.11],[-20.074,66.097],[-20.054,66.09],[-20.031,66.083],[-20.037,66.076],[-20.027,66.072],[-20.02,66.064],[-20.01,66.049],[-19.997,66.034],[-19.955,66.001],[-19.949,65.993],[-19.945,65.985],[-19.94,65.978],[-19.928,65.974],[-19.932,65.971],[-19.938,65.964],[-19.941,65.961],[-19.922,65.947],[-19.896,65.936],[-19.878,65.924],[-19.88,65.905],[-19.862,65.898],[-19.808,65.894],[-19.768,65.883],[-19.756,65.884],[-19.745,65.883],[-19.732,65.874],[-19.727,65.872],[-19.714,65.873],[-19.708,65.871],[-19.702,65.864],[-19.699,65.857],[-19.698,65.85],[-19.695,65.843],[-19.673,65.823],[-19.667,65.816],[-19.663,65.803],[-19.657,65.776],[-19.65,65.765],[-19.629,65.753],[-19.578,65.746],[-19.558,65.734],[-19.551,65.755],[-19.544,65.763],[-19.514,65.761],[-19.51,65.759],[-19.496,65.751],[-19.489,65.748],[-19.477,65.747],[-19.449,65.748],[-19.458,65.745],[-19.465,65.742],[-19.468,65.737],[-19.465,65.729],[-19.456,65.729],[-19.438,65.734],[-19.427,65.74],[-19.418,65.754],[-19.407,65.782],[-19.4,65.812],[-19.399,65.837],[-19.406,65.86],[-19.42,65.885],[-19.449,65.919],[-19.452,65.926],[-19.51,65.953],[-19.511,65.96],[-19.506,65.97],[-19.498,65.978],[-19.486,65.981],[-19.467,65.983],[-19.447,65.988],[-19.429,65.996],[-19.414,66.008],[-19.425,66.013],[-19.434,66.021],[-19.442,66.031],[-19.452,66.053],[-19.452,66.056],[-19.448,66.059],[-19.438,66.067],[-19.42,66.076],[-19.363,66.088],[-19.229,66.098],[-19.182,66.083],[-19.158,66.081],[-19.16,66.098],[-19.152,66.102],[-19.144,66.104],[-19.135,66.105],[-19.126,66.104],[-19.128,66.1],[-19.132,66.09],[-19.112,66.087],[-19.078,66.072],[-19.058,66.07],[-19.071,66.075],[-19.08,66.081],[-19.086,66.088],[-19.091,66.098],[-19.085,66.098],[-19.085,66.104],[-19.09,66.106],[-19.1,66.11],[-19.105,66.111],[-19.105,66.117],[-19.096,66.124],[-19.085,66.148],[-19.079,66.158],[-19.074,66.157],[-19.027,66.139],[-19.02,66.135],[-19.011,66.128],[-18.995,66.108],[-18.961,66.08],[-18.949,66.072],[-18.866,66.031],[-18.854,66.019],[-18.853,66.011],[-18.871,66.005],[-18.875,66.003],[-18.878,66.001],[-18.879,66],[-18.88,65.998],[-18.88,65.995],[-18.88,65.991],[-18.879,65.984],[-18.879,65.981],[-18.881,65.978],[-18.883,65.975],[-18.888,65.973],[-18.895,65.971],[-18.901,65.969],[-18.906,65.966],[-18.908,65.962],[-18.906,65.959],[-18.903,65.958],[-18.886,65.954],[-18.874,65.949],[-18.867,65.944],[-18.863,65.938],[-18.86,65.929],[-18.859,65.92],[-18.861,65.913],[-18.865,65.907],[-18.872,65.9],[-18.897,65.882],[-18.905,65.879],[-18.913,65.877],[-18.921,65.875],[-18.957,65.874],[-18.963,65.873],[-18.969,65.871],[-18.974,65.867],[-18.979,65.863],[-18.983,65.858],[-18.985,65.851],[-18.987,65.84],[-18.984,65.834],[-18.978,65.828],[-18.97,65.824],[-18.931,65.812],[-18.883,65.791],[-18.862,65.788],[-18.853,65.784],[-18.843,65.777],[-18.828,65.76],[-18.821,65.751],[-18.819,65.745],[-18.821,65.741],[-18.823,65.737],[-18.825,65.73],[-18.821,65.724],[-18.814,65.719],[-18.807,65.715],[-18.8,65.709],[-18.798,65.703],[-18.796,65.694],[-18.8,65.688],[-18.806,65.684],[-18.848,65.67],[-18.855,65.667],[-18.859,65.664],[-18.861,65.659],[-18.861,65.646],[-18.864,65.642],[-18.868,65.638],[-18.879,65.632],[-18.882,65.629],[-18.884,65.625],[-18.886,65.618],[-18.888,65.614],[-18.893,65.61],[-18.899,65.607],[-18.91,65.603],[-18.914,65.601],[-18.916,65.598],[-18.917,65.593],[-18.916,65.589],[-18.914,65.586],[-18.908,65.582],[-18.906,65.581],[-18.902,65.579],[-18.9,65.579],[-18.886,65.577],[-18.879,65.575],[-18.871,65.571],[-18.852,65.558],[-18.848,65.556],[-18.842,65.555],[-18.809,65.553],[-18.8,65.55],[-18.785,65.544],[-18.763,65.537],[-18.749,65.529],[-18.73,65.521],[-18.724,65.516],[-18.722,65.512],[-18.722,65.508],[-18.723,65.505],[-18.726,65.501],[-18.731,65.497],[-18.753,65.486],[-18.756,65.484],[-18.758,65.482],[-18.758,65.479],[-18.758,65.47],[-18.758,65.467],[-18.76,65.462],[-18.763,65.458],[-18.774,65.448],[-18.779,65.442],[-18.78,65.433],[-18.774,65.429],[-18.764,65.425],[-18.749,65.422],[-18.734,65.417],[-18.721,65.411],[-18.711,65.4],[-18.708,65.391],[-18.705,65.38],[-18.697,65.372],[-18.687,65.367],[-18.673,65.364],[-18.604,65.36],[-18.595,65.358],[-18.588,65.352],[-18.582,65.342],[-18.57,65.308],[-18.557,65.292],[-18.54,65.279],[-18.496,65.258],[-18.414,65.236],[-18.399,65.23],[-18.383,65.218],[-18.375,65.208],[-18.366,65.185],[-18.355,65.146],[-18.351,65.096],[-18.352,65.069],[-18.354,65.046],[-18.358,65.028],[-18.383,64.962],[-18.427,64.881],[-18.872,64.839],[-19.155,64.785],[-19.405,64.785],[-19.667,64.751],[-19.696,64.75],[-19.72,64.752],[-19.977,64.802],[-19.924,64.841],[-19.809,64.895],[-19.799,64.901],[-19.794,64.91],[-19.793,64.917],[-19.793,64.924],[-19.796,64.929],[-19.801,64.934],[-19.81,64.936],[-20.105,64.941],[-20.344,64.944],[-20.391,64.954],[-20.406,64.955],[-20.727,64.914],[-20.743,64.915],[-20.781,64.931],[-20.792,64.933],[-20.875,64.935],[-20.889,64.937],[-20.975,64.962],[-20.984,64.972],[-21.001,64.988],[-21.007,64.999],[-21.023,65.037],[-21.048,65.065],[-21.063,65.079],[-21.071,65.091],[-21.075,65.101],[-21.076,65.11],[-21.073,65.128],[-21.074,65.146],[-21.084,65.159],[-21.084,65.168]]]}},{"type":"Feature","id":"IS-6","properties":{"id":"IS-6","countryCode":"IS","isoSubdivision":"IS-6","name":"Northeastern","name_en":"Northeastern","name_ko":"노르뒤를란드 에이스트라","type":"Region","labelLongitude":-17.178,"labelLatitude":65.375,"minZoom":6},"geometry":{"type":"MultiPolygon","coordinates":[[[[-19.079,66.158],[-19.078,66.159],[-19.069,66.165],[-19.034,66.177],[-18.945,66.191],[-18.913,66.184],[-18.92,66.152],[-18.901,66.155],[-18.888,66.164],[-18.865,66.186],[-18.869,66.196],[-18.872,66.199],[-18.854,66.205],[-18.827,66.203],[-18.777,66.193],[-18.785,66.178],[-18.802,66.157],[-18.805,66.142],[-18.794,66.142],[-18.722,66.173],[-18.692,66.17],[-18.668,66.158],[-18.648,66.145],[-18.629,66.139],[-18.62,66.131],[-18.631,66.116],[-18.66,66.09],[-18.647,66.09],[-18.633,66.091],[-18.619,66.095],[-18.609,66.101],[-18.597,66.105],[-18.584,66.1],[-18.571,66.094],[-18.56,66.09],[-18.545,66.083],[-18.535,66.065],[-18.527,66.045],[-18.516,66.029],[-18.535,65.999],[-18.542,65.982],[-18.54,65.974],[-18.468,65.967],[-18.422,65.955],[-18.348,65.95],[-18.338,65.947],[-18.327,65.939],[-18.31,65.923],[-18.287,65.915],[-18.28,65.905],[-18.274,65.893],[-18.266,65.88],[-18.264,65.876],[-18.26,65.872],[-18.252,65.871],[-18.234,65.872],[-18.225,65.871],[-18.218,65.868],[-18.208,65.855],[-18.205,65.847],[-18.208,65.819],[-18.204,65.808],[-18.185,65.79],[-18.18,65.782],[-18.18,65.74],[-18.177,65.734],[-18.168,65.731],[-18.139,65.713],[-18.092,65.693],[-18.097,65.68],[-18.092,65.662],[-18.08,65.648],[-18.064,65.645],[-18.051,65.658],[-18.052,65.676],[-18.06,65.694],[-18.07,65.706],[-18.078,65.71],[-18.099,65.716],[-18.105,65.72],[-18.109,65.732],[-18.107,65.738],[-18.101,65.743],[-18.098,65.748],[-18.098,65.758],[-18.101,65.765],[-18.102,65.772],[-18.098,65.782],[-18.093,65.786],[-18.075,65.793],[-18.07,65.796],[-18.065,65.815],[-18.068,65.831],[-18.098,65.878],[-18.098,65.881],[-18.098,65.895],[-18.1,65.899],[-18.106,65.899],[-18.114,65.897],[-18.119,65.898],[-18.139,65.916],[-18.146,65.92],[-18.147,65.921],[-18.149,65.923],[-18.152,65.925],[-18.157,65.926],[-18.162,65.924],[-18.17,65.914],[-18.173,65.912],[-18.187,65.916],[-18.218,65.932],[-18.228,65.939],[-18.219,65.954],[-18.223,65.967],[-18.235,65.977],[-18.264,65.985],[-18.284,66.006],[-18.297,66.015],[-18.297,66.022],[-18.29,66.022],[-18.29,66.029],[-18.317,66.057],[-18.329,66.104],[-18.324,66.151],[-18.297,66.18],[-18.284,66.182],[-18.194,66.18],[-18.18,66.176],[-18.156,66.168],[-18.142,66.166],[-18.1,66.168],[-18.084,66.166],[-18.086,66.162],[-18.086,66.161],[-18.087,66.16],[-18.092,66.159],[-18.054,66.15],[-17.955,66.16],[-17.913,66.152],[-17.905,66.145],[-17.894,66.125],[-17.885,66.117],[-17.874,66.115],[-17.834,66.117],[-17.816,66.113],[-17.784,66.094],[-17.766,66.09],[-17.752,66.085],[-17.713,66.06],[-17.701,66.049],[-17.684,66.02],[-17.673,66.007],[-17.641,65.997],[-17.624,65.987],[-17.598,65.967],[-17.564,65.925],[-17.55,65.912],[-17.546,65.931],[-17.554,65.946],[-17.567,65.959],[-17.578,65.974],[-17.558,65.974],[-17.535,65.976],[-17.513,65.981],[-17.495,65.988],[-17.587,65.986],[-17.611,65.994],[-17.452,65.995],[-17.44,65.99],[-17.434,65.979],[-17.419,65.961],[-17.413,65.961],[-17.408,65.968],[-17.407,65.975],[-17.41,65.982],[-17.419,65.988],[-17.419,65.994],[-17.406,65.999],[-17.395,66.006],[-17.389,66.016],[-17.392,66.029],[-17.376,66.037],[-17.37,66.042],[-17.365,66.049],[-17.364,66.055],[-17.366,66.071],[-17.365,66.083],[-17.352,66.097],[-17.327,66.11],[-17.297,66.12],[-17.272,66.124],[-17.261,66.13],[-17.256,66.141],[-17.255,66.153],[-17.259,66.159],[-17.27,66.162],[-17.265,66.169],[-17.245,66.183],[-17.217,66.194],[-17.156,66.204],[-17.146,66.221],[-17.119,66.211],[-17.019,66.207],[-16.992,66.2],[-16.992,66.199],[-16.972,66.181],[-16.933,66.139],[-16.934,66.133],[-16.934,66.131],[-16.934,66.129],[-16.933,66.124],[-16.947,66.124],[-16.947,66.117],[-16.935,66.113],[-16.923,66.111],[-16.91,66.112],[-16.899,66.117],[-16.905,66.118],[-16.92,66.124],[-16.884,66.135],[-16.758,66.15],[-16.721,66.145],[-16.737,66.145],[-16.753,66.143],[-16.768,66.138],[-16.783,66.131],[-16.77,66.128],[-16.752,66.113],[-16.745,66.114],[-16.724,66.134],[-16.713,66.142],[-16.701,66.145],[-16.672,66.134],[-16.652,66.116],[-16.63,66.101],[-16.597,66.098],[-16.597,66.104],[-16.629,66.113],[-16.645,66.121],[-16.656,66.128],[-16.663,66.141],[-16.664,66.151],[-16.668,66.159],[-16.686,66.166],[-16.641,66.179],[-16.572,66.189],[-16.531,66.199],[-16.508,66.199],[-16.597,66.178],[-16.624,66.166],[-16.537,66.18],[-16.516,66.18],[-16.491,66.171],[-16.452,66.146],[-16.426,66.145],[-16.426,66.152],[-16.462,66.167],[-16.479,66.178],[-16.487,66.19],[-16.483,66.205],[-16.473,66.218],[-16.458,66.228],[-16.44,66.234],[-16.439,66.239],[-16.441,66.24],[-16.437,66.245],[-16.429,66.253],[-16.422,66.262],[-16.419,66.272],[-16.422,66.287],[-16.429,66.295],[-16.438,66.302],[-16.454,66.317],[-16.459,66.321],[-16.465,66.323],[-16.471,66.324],[-16.476,66.327],[-16.478,66.336],[-16.479,66.345],[-16.481,66.35],[-16.509,66.359],[-16.515,66.367],[-16.508,66.385],[-16.511,66.385],[-16.522,66.385],[-16.518,66.388],[-16.512,66.396],[-16.508,66.399],[-16.515,66.402],[-16.52,66.406],[-16.529,66.419],[-16.508,66.419],[-16.508,66.426],[-16.526,66.436],[-16.545,66.468],[-16.573,66.481],[-16.564,66.495],[-16.543,66.507],[-16.522,66.509],[-16.516,66.503],[-16.515,66.495],[-16.513,66.489],[-16.501,66.487],[-16.499,66.492],[-16.494,66.502],[-16.487,66.511],[-16.474,66.515],[-16.446,66.52],[-16.43,66.52],[-16.429,66.512],[-16.434,66.501],[-16.431,66.492],[-16.422,66.485],[-16.412,66.481],[-16.414,66.487],[-16.415,66.491],[-16.416,66.496],[-16.419,66.501],[-16.404,66.504],[-16.374,66.514],[-16.365,66.515],[-16.35,66.51],[-16.339,66.503],[-16.327,66.496],[-16.31,66.495],[-16.324,66.489],[-16.33,66.487],[-16.313,66.481],[-16.294,66.483],[-16.275,66.487],[-16.269,66.487],[-16.269,66.495],[-16.258,66.502],[-16.247,66.512],[-16.236,66.518],[-16.234,66.515],[-16.227,66.504],[-16.215,66.502],[-16.204,66.508],[-16.196,66.527],[-16.188,66.531],[-16.166,66.536],[-16.138,66.536],[-16.081,66.526],[-16.069,66.528],[-16.023,66.537],[-15.939,66.503],[-15.891,66.495],[-15.905,66.486],[-15.92,66.482],[-15.933,66.475],[-15.94,66.46],[-15.929,66.46],[-15.926,66.46],[-15.926,66.454],[-15.946,66.446],[-15.941,66.444],[-15.931,66.436],[-15.926,66.433],[-15.938,66.424],[-15.924,66.422],[-15.888,66.426],[-15.848,66.422],[-15.83,66.426],[-15.832,66.421],[-15.835,66.41],[-15.837,66.406],[-15.741,66.406],[-15.723,66.403],[-15.707,66.396],[-15.697,66.387],[-15.699,66.378],[-15.699,66.371],[-15.68,66.344],[-15.721,66.312],[-15.745,66.3],[-15.775,66.289],[-15.761,66.275],[-15.75,66.281],[-15.737,66.278],[-15.723,66.272],[-15.691,66.266],[-15.687,66.259],[-15.691,66.248],[-15.699,66.234],[-15.684,66.229],[-15.611,66.227],[-15.575,66.234],[-15.564,66.233],[-15.559,66.228],[-15.549,66.221],[-15.544,66.221],[-15.538,66.223],[-15.529,66.227],[-15.526,66.216],[-15.52,66.208],[-15.51,66.202],[-15.482,66.196],[-15.452,66.183],[-15.42,66.172],[-15.4,66.159],[-15.38,66.15],[-15.357,66.159],[-15.365,66.16],[-15.368,66.162],[-15.371,66.166],[-15.354,66.171],[-15.34,66.182],[-15.332,66.198],[-15.329,66.217],[-15.333,66.238],[-15.338,66.252],[-15.331,66.261],[-15.302,66.268],[-15.179,66.268],[-15.109,66.278],[-15.103,66.286],[-15.102,66.295],[-15.097,66.303],[-15.026,66.322],[-15.015,66.334],[-15.008,66.349],[-14.991,66.361],[-14.952,66.378],[-14.925,66.385],[-14.84,66.392],[-14.816,66.389],[-14.778,66.376],[-14.754,66.371],[-14.564,66.385],[-14.611,66.363],[-14.788,66.33],[-14.867,66.306],[-14.959,66.296],[-14.991,66.286],[-15.015,66.268],[-14.99,66.265],[-14.978,66.26],[-14.973,66.252],[-14.968,66.25],[-14.946,66.232],[-14.942,66.227],[-14.935,66.222],[-14.94,66.21],[-14.952,66.193],[-14.96,66.186],[-15.056,66.148],[-15.073,66.145],[-15.135,66.143],[-15.161,66.134],[-15.179,66.111],[-15.149,66.101],[-15.133,66.099],[-15.074,66.097],[-15.061,66.089],[-15.056,66.07],[-15.066,66.067],[-15.085,66.06],[-15.097,66.056],[-15.076,66.05],[-14.963,66.048],[-14.898,66.036],[-14.853,66.037],[-14.77,66.068],[-14.719,66.07],[-14.697,66.065],[-14.677,66.056],[-14.663,66.041],[-14.658,66.019],[-14.651,66.007],[-14.637,66.003],[-14.623,66.001],[-14.617,65.998],[-14.615,65.986],[-14.663,65.981],[-14.694,65.944],[-15.101,65.922],[-15.126,65.9],[-15.167,65.882],[-15.226,65.863],[-15.315,65.857],[-15.328,65.834],[-15.338,65.827],[-15.35,65.821],[-15.404,65.808],[-15.418,65.803],[-15.434,65.795],[-15.442,65.789],[-15.445,65.783],[-15.445,65.779],[-15.448,65.774],[-15.456,65.772],[-15.664,65.748],[-15.675,65.745],[-15.68,65.739],[-15.683,65.732],[-15.685,65.716],[-15.684,65.709],[-15.683,65.704],[-15.675,65.697],[-15.672,65.691],[-15.67,65.684],[-15.67,65.658],[-15.668,65.648],[-15.664,65.64],[-15.66,65.632],[-15.658,65.624],[-15.66,65.616],[-15.683,65.583],[-15.687,65.574],[-15.689,65.567],[-15.69,65.555],[-15.692,65.55],[-15.703,65.55],[-16.014,65.576],[-16.028,65.575],[-16.036,65.57],[-16.042,65.563],[-16.044,65.557],[-16.048,65.539],[-16.051,65.532],[-16.061,65.516],[-16.076,65.497],[-16.09,65.484],[-16.102,65.477],[-16.112,65.473],[-16.13,65.47],[-16.151,65.454],[-16.163,65.447],[-16.168,65.443],[-16.172,65.437],[-16.176,65.426],[-16.177,65.42],[-16.176,65.417],[-16.174,65.414],[-16.166,65.408],[-16.162,65.405],[-16.085,65.383],[-16.066,65.373],[-16.038,65.352],[-16.033,65.345],[-16.027,65.333],[-16.029,65.327],[-16.033,65.318],[-16.046,65.302],[-16.055,65.294],[-16.066,65.289],[-16.118,65.273],[-16.128,65.268],[-16.158,65.242],[-16.186,65.224],[-16.192,65.219],[-16.198,65.21],[-16.205,65.196],[-16.205,65.189],[-16.204,65.184],[-16.202,65.182],[-16.202,65.18],[-16.204,65.173],[-16.206,65.165],[-16.206,65.156],[-16.203,65.144],[-16.202,65.126],[-16.203,65.122],[-16.217,65.088],[-16.219,65.084],[-16.224,65.074],[-16.224,65.07],[-16.223,65.066],[-16.219,65.063],[-16.201,65.057],[-16.202,65.051],[-16.209,65.043],[-16.234,65.026],[-16.249,65.019],[-16.261,65.015],[-16.328,65.006],[-16.339,65.002],[-16.382,64.983],[-16.435,64.951],[-16.446,64.946],[-16.453,64.944],[-16.471,64.943],[-16.511,64.942],[-16.528,64.94],[-16.586,64.928],[-16.612,64.927],[-16.617,64.924],[-16.622,64.918],[-16.628,64.903],[-16.63,64.896],[-16.63,64.891],[-16.628,64.887],[-16.624,64.879],[-16.624,64.875],[-16.626,64.87],[-16.633,64.864],[-16.648,64.855],[-16.674,64.83],[-16.677,64.826],[-16.678,64.821],[-16.676,64.814],[-16.652,64.786],[-16.648,64.778],[-16.645,64.77],[-16.639,64.762],[-16.635,64.754],[-16.633,64.745],[-16.633,64.737],[-16.636,64.728],[-16.641,64.714],[-16.663,64.675],[-16.687,64.639],[-16.877,64.472],[-17.443,64.619],[-17.948,64.747],[-18.234,64.818],[-18.333,64.843],[-18.427,64.881],[-18.383,64.962],[-18.358,65.028],[-18.354,65.046],[-18.352,65.069],[-18.351,65.096],[-18.355,65.146],[-18.366,65.185],[-18.375,65.208],[-18.383,65.218],[-18.399,65.23],[-18.414,65.236],[-18.496,65.258],[-18.54,65.279],[-18.557,65.292],[-18.57,65.308],[-18.582,65.342],[-18.588,65.352],[-18.595,65.358],[-18.604,65.36],[-18.673,65.364],[-18.687,65.367],[-18.697,65.372],[-18.705,65.38],[-18.708,65.391],[-18.711,65.4],[-18.721,65.411],[-18.734,65.417],[-18.749,65.422],[-18.764,65.425],[-18.774,65.429],[-18.78,65.433],[-18.779,65.442],[-18.774,65.448],[-18.763,65.458],[-18.76,65.462],[-18.758,65.467],[-18.758,65.47],[-18.758,65.479],[-18.758,65.482],[-18.756,65.484],[-18.753,65.486],[-18.731,65.497],[-18.726,65.501],[-18.723,65.505],[-18.722,65.508],[-18.722,65.512],[-18.724,65.516],[-18.73,65.521],[-18.749,65.529],[-18.763,65.537],[-18.785,65.544],[-18.8,65.55],[-18.809,65.553],[-18.842,65.555],[-18.848,65.556],[-18.852,65.558],[-18.871,65.571],[-18.879,65.575],[-18.886,65.577],[-18.9,65.579],[-18.902,65.579],[-18.906,65.581],[-18.908,65.582],[-18.914,65.586],[-18.916,65.589],[-18.917,65.593],[-18.916,65.598],[-18.914,65.601],[-18.91,65.603],[-18.899,65.607],[-18.893,65.61],[-18.888,65.614],[-18.886,65.618],[-18.884,65.625],[-18.882,65.629],[-18.879,65.632],[-18.868,65.638],[-18.864,65.642],[-18.861,65.646],[-18.861,65.659],[-18.859,65.664],[-18.855,65.667],[-18.848,65.67],[-18.806,65.684],[-18.8,65.688],[-18.796,65.694],[-18.798,65.703],[-18.8,65.709],[-18.807,65.715],[-18.814,65.719],[-18.821,65.724],[-18.825,65.73],[-18.823,65.737],[-18.821,65.741],[-18.819,65.745],[-18.821,65.751],[-18.828,65.76],[-18.843,65.777],[-18.853,65.784],[-18.862,65.788],[-18.883,65.791],[-18.931,65.812],[-18.97,65.824],[-18.978,65.828],[-18.984,65.834],[-18.987,65.84],[-18.985,65.851],[-18.983,65.858],[-18.979,65.863],[-18.974,65.867],[-18.969,65.871],[-18.963,65.873],[-18.957,65.874],[-18.921,65.875],[-18.913,65.877],[-18.905,65.879],[-18.897,65.882],[-18.872,65.9],[-18.865,65.907],[-18.861,65.913],[-18.859,65.92],[-18.86,65.929],[-18.863,65.938],[-18.867,65.944],[-18.874,65.949],[-18.886,65.954],[-18.903,65.958],[-18.906,65.959],[-18.908,65.962],[-18.906,65.966],[-18.901,65.969],[-18.895,65.971],[-18.888,65.973],[-18.883,65.975],[-18.881,65.978],[-18.879,65.981],[-18.879,65.984],[-18.88,65.991],[-18.88,65.995],[-18.88,65.998],[-18.879,66],[-18.878,66.001],[-18.875,66.003],[-18.871,66.005],[-18.853,66.011],[-18.854,66.019],[-18.866,66.031],[-18.949,66.072],[-18.961,66.08],[-18.995,66.108],[-19.011,66.128],[-19.02,66.135],[-19.027,66.139],[-19.074,66.157],[-19.079,66.158]]],[[[-18.009,66.564],[-17.984,66.551],[-17.976,66.548],[-17.98,66.539],[-18,66.533],[-18.017,66.545],[-18.02,66.561],[-18.009,66.564]]],[[[-18.38,66.012],[-18.371,66.007],[-18.357,65.993],[-18.357,65.982],[-18.37,65.978],[-18.382,65.98],[-18.39,65.983],[-18.397,65.989],[-18.399,65.997],[-18.405,66.009],[-18.414,66.024],[-18.409,66.027],[-18.389,66.019],[-18.38,66.012]]]]}},{"type":"Feature","id":"IS-7","properties":{"id":"IS-7","countryCode":"IS","isoSubdivision":"IS-7","name":"Austurland","name_en":"Austurland","name_ko":"외이스튀를란드","type":"Region","labelLongitude":-15.225,"labelLatitude":65.436,"minZoom":6},"geometry":{"type":"Polygon","coordinates":[[[-14.615,65.986],[-14.605,65.964],[-14.603,65.953],[-14.606,65.949],[-14.619,65.944],[-14.624,65.939],[-14.624,65.935],[-14.623,65.924],[-14.624,65.92],[-14.647,65.895],[-14.65,65.888],[-14.662,65.884],[-14.727,65.851],[-14.801,65.828],[-14.823,65.816],[-14.821,65.798],[-14.841,65.784],[-14.891,65.761],[-14.861,65.762],[-14.835,65.771],[-14.788,65.796],[-14.804,65.776],[-14.832,65.753],[-14.844,65.735],[-14.809,65.728],[-14.773,65.732],[-14.694,65.751],[-14.48,65.775],[-14.402,65.792],[-14.362,65.797],[-14.329,65.782],[-14.373,65.74],[-14.398,65.73],[-14.395,65.722],[-14.388,65.713],[-14.384,65.71],[-14.379,65.707],[-14.356,65.7],[-14.293,65.682],[-14.274,65.673],[-14.329,65.666],[-14.358,65.656],[-14.382,65.63],[-14.434,65.605],[-14.454,65.583],[-14.53,65.545],[-14.545,65.533],[-14.557,65.518],[-14.562,65.501],[-14.55,65.509],[-14.528,65.531],[-14.518,65.535],[-14.506,65.538],[-14.473,65.552],[-14.462,65.559],[-14.444,65.575],[-14.32,65.652],[-14.298,65.659],[-14.272,65.656],[-14.192,65.632],[-14.208,65.641],[-14.236,65.654],[-14.248,65.665],[-14.028,65.61],[-14,65.609],[-13.89,65.62],[-13.871,65.619],[-13.86,65.614],[-13.852,65.602],[-13.851,65.592],[-13.857,65.585],[-13.87,65.583],[-13.87,65.577],[-13.838,65.577],[-13.824,65.575],[-13.815,65.569],[-13.814,65.562],[-13.816,65.553],[-13.821,65.541],[-13.814,65.534],[-13.806,65.529],[-13.788,65.522],[-13.741,65.55],[-13.715,65.558],[-13.685,65.555],[-13.68,65.551],[-13.679,65.545],[-13.679,65.539],[-13.678,65.535],[-13.672,65.535],[-13.657,65.536],[-13.651,65.535],[-13.616,65.519],[-13.61,65.514],[-13.608,65.492],[-13.622,65.478],[-13.641,65.469],[-13.651,65.46],[-13.649,65.454],[-13.637,65.435],[-13.637,65.426],[-13.643,65.422],[-13.678,65.412],[-13.668,65.406],[-13.668,65.398],[-13.671,65.389],[-13.671,65.378],[-13.705,65.367],[-13.796,65.373],[-13.836,65.364],[-13.811,65.355],[-13.733,65.343],[-13.73,65.327],[-13.753,65.316],[-13.785,65.31],[-13.834,65.31],[-13.855,65.307],[-13.898,65.296],[-13.981,65.289],[-14.007,65.282],[-13.991,65.273],[-13.833,65.298],[-13.784,65.296],[-13.688,65.306],[-13.657,65.303],[-13.608,65.289],[-13.582,65.277],[-13.573,65.267],[-13.568,65.261],[-13.592,65.253],[-13.632,65.226],[-13.654,65.22],[-13.781,65.206],[-13.915,65.206],[-13.973,65.2],[-14.034,65.2],[-14.003,65.19],[-13.887,65.2],[-13.733,65.193],[-13.664,65.2],[-13.627,65.2],[-13.617,65.197],[-13.621,65.189],[-13.637,65.178],[-13.639,65.172],[-13.639,65.168],[-13.639,65.164],[-13.644,65.159],[-13.682,65.152],[-13.715,65.15],[-13.747,65.145],[-13.747,65.137],[-13.669,65.144],[-13.651,65.137],[-13.651,65.131],[-13.661,65.13],[-13.67,65.127],[-13.678,65.123],[-13.685,65.117],[-13.654,65.117],[-13.644,65.115],[-13.637,65.11],[-13.631,65.106],[-13.627,65.104],[-13.617,65.107],[-13.601,65.121],[-13.592,65.124],[-13.59,65.128],[-13.561,65.152],[-13.52,65.172],[-13.517,65.158],[-13.518,65.136],[-13.521,65.116],[-13.527,65.104],[-13.527,65.097],[-13.508,65.091],[-13.503,65.081],[-13.51,65.069],[-13.527,65.055],[-13.547,65.048],[-13.59,65.042],[-13.61,65.035],[-13.592,65.021],[-13.583,65.012],[-13.585,65.008],[-13.601,65.004],[-13.632,64.99],[-13.647,64.987],[-13.719,64.994],[-13.782,64.989],[-13.802,64.994],[-13.812,65.003],[-13.82,65.017],[-13.83,65.03],[-13.846,65.035],[-13.862,65.037],[-13.895,65.047],[-13.948,65.055],[-14.003,65.078],[-14.034,65.083],[-14.028,65.072],[-14.017,65.064],[-14.005,65.058],[-13.994,65.055],[-14.03,65.038],[-14.233,65.035],[-14.233,65.028],[-13.918,65.015],[-13.908,65.011],[-13.894,65.003],[-13.882,64.993],[-13.876,64.984],[-13.868,64.978],[-13.821,64.96],[-13.718,64.94],[-13.698,64.925],[-13.74,64.911],[-13.789,64.914],[-13.876,64.933],[-13.976,64.925],[-14.037,64.936],[-14.055,64.933],[-13.996,64.914],[-13.852,64.9],[-13.788,64.877],[-13.78,64.872],[-13.77,64.862],[-13.767,64.854],[-13.778,64.85],[-13.794,64.847],[-13.819,64.833],[-13.832,64.83],[-13.937,64.847],[-13.966,64.836],[-13.858,64.817],[-13.84,64.809],[-13.839,64.799],[-13.868,64.795],[-13.982,64.797],[-14.014,64.802],[-14.02,64.798],[-14.028,64.794],[-14.048,64.789],[-14.048,64.781],[-14.018,64.765],[-14.001,64.754],[-13.986,64.74],[-14.003,64.738],[-14.048,64.72],[-14.271,64.699],[-14.306,64.704],[-14.326,64.71],[-14.339,64.716],[-14.368,64.755],[-14.394,64.767],[-14.421,64.79],[-14.435,64.795],[-14.514,64.802],[-14.504,64.797],[-14.493,64.795],[-14.47,64.795],[-14.456,64.79],[-14.457,64.78],[-14.464,64.769],[-14.466,64.761],[-14.451,64.753],[-14.4,64.741],[-14.384,64.74],[-14.384,64.733],[-14.385,64.721],[-14.371,64.705],[-14.353,64.691],[-14.339,64.686],[-14.289,64.678],[-14.27,64.67],[-14.281,64.658],[-14.274,64.651],[-14.442,64.676],[-14.493,64.658],[-14.477,64.65],[-14.437,64.641],[-14.418,64.631],[-14.408,64.62],[-14.409,64.61],[-14.42,64.602],[-14.439,64.597],[-14.572,64.597],[-14.584,64.59],[-14.572,64.577],[-14.552,64.566],[-14.542,64.566],[-14.532,64.556],[-14.51,64.549],[-14.49,64.548],[-14.487,64.556],[-14.445,64.561],[-14.384,64.601],[-14.353,64.611],[-14.346,64.606],[-14.362,64.594],[-14.453,64.546],[-14.466,64.535],[-14.47,64.525],[-14.473,64.505],[-14.477,64.497],[-14.509,64.472],[-14.514,64.463],[-14.513,64.457],[-14.512,64.453],[-14.509,64.446],[-14.51,64.442],[-14.515,64.439],[-14.521,64.437],[-14.526,64.435],[-14.528,64.428],[-14.53,64.424],[-14.541,64.408],[-14.545,64.405],[-14.649,64.4],[-14.721,64.389],[-14.747,64.384],[-14.703,64.399],[-14.614,64.41],[-14.569,64.418],[-14.594,64.426],[-14.705,64.433],[-14.713,64.432],[-14.714,64.427],[-14.713,64.414],[-14.716,64.411],[-14.724,64.409],[-14.745,64.4],[-14.757,64.398],[-14.762,64.395],[-14.782,64.378],[-14.794,64.373],[-14.849,64.357],[-14.872,64.347],[-14.892,64.335],[-14.905,64.322],[-14.899,64.334],[-14.896,64.339],[-14.891,64.343],[-14.891,64.35],[-14.898,64.35],[-14.905,64.34],[-14.92,64.331],[-14.937,64.325],[-14.949,64.322],[-14.953,64.319],[-14.95,64.312],[-14.942,64.305],[-14.932,64.301],[-14.91,64.302],[-14.901,64.305],[-14.891,64.309],[-14.886,64.295],[-14.878,64.281],[-14.9,64.282],[-14.929,64.265],[-14.949,64.26],[-14.995,64.263],[-15.016,64.267],[-15.035,64.274],[-15.067,64.291],[-15.086,64.298],[-15.107,64.301],[-15.116,64.299],[-15.134,64.285],[-15.144,64.281],[-15.156,64.283],[-15.168,64.287],[-15.179,64.288],[-15.192,64.281],[-15.179,64.274],[-15.19,64.269],[-15.202,64.267],[-15.226,64.268],[-15.207,64.295],[-15.207,64.301],[-15.239,64.298],[-15.255,64.298],[-15.261,64.305],[-15.266,64.321],[-15.277,64.331],[-15.29,64.334],[-15.302,64.329],[-15.302,64.322],[-15.294,64.318],[-15.288,64.313],[-15.284,64.306],[-15.281,64.295],[-15.295,64.299],[-15.323,64.304],[-15.336,64.309],[-15.336,64.315],[-15.327,64.329],[-15.341,64.35],[-15.366,64.369],[-15.388,64.378],[-15.408,64.388],[-15.448,64.394],[-15.473,64.398],[-15.456,64.392],[-15.422,64.385],[-15.401,64.381],[-15.391,64.37],[-15.372,64.345],[-15.364,64.337],[-15.372,64.331],[-15.381,64.33],[-15.389,64.332],[-15.398,64.337],[-15.398,64.329],[-15.378,64.321],[-15.374,64.306],[-15.382,64.288],[-15.398,64.274],[-15.422,64.269],[-15.478,64.275],[-15.501,64.268],[-15.487,64.263],[-15.472,64.26],[-15.439,64.26],[-15.464,64.251],[-15.528,64.241],[-15.586,64.239],[-15.646,64.229],[-15.672,64.219],[-15.677,64.224],[-15.683,64.229],[-15.686,64.234],[-15.714,64.217],[-15.802,64.185],[-15.719,64.198],[-15.699,64.192],[-15.733,64.179],[-15.992,64.144],[-16.028,64.13],[-15.981,64.13],[-15.981,64.124],[-16.045,64.1],[-16.066,64.097],[-16.076,64.094],[-16.11,64.076],[-16.134,64.068],[-16.144,64.064],[-16.151,64.055],[-16.162,64.065],[-16.172,64.066],[-16.182,64.062],[-16.193,64.055],[-16.193,64.048],[-16.179,64.048],[-16.179,64.042],[-16.239,64.024],[-16.261,64.021],[-16.255,64.035],[-16.309,64.017],[-16.335,64.003],[-16.35,63.987],[-16.334,63.986],[-16.321,63.992],[-16.311,63.997],[-16.337,63.974],[-16.35,63.966],[-16.422,63.938],[-16.47,63.905],[-16.501,63.897],[-16.489,63.9],[-16.476,63.905],[-16.466,63.913],[-16.46,63.925],[-16.611,63.869],[-16.745,63.852],[-16.765,63.855],[-16.783,63.863],[-16.775,63.857],[-16.767,63.853],[-16.758,63.85],[-16.748,63.85],[-16.766,63.845],[-16.783,63.843],[-16.779,63.832],[-16.78,63.818],[-16.785,63.806],[-16.796,63.802],[-16.801,63.805],[-16.803,63.812],[-16.803,63.825],[-16.806,63.829],[-16.823,63.836],[-16.861,63.859],[-16.871,63.863],[-16.887,63.866],[-16.895,63.863],[-16.898,63.854],[-16.899,63.839],[-16.895,63.821],[-16.896,63.808],[-16.902,63.802],[-16.915,63.805],[-16.917,63.814],[-16.912,63.839],[-16.916,63.848],[-16.923,63.86],[-16.93,63.866],[-16.933,63.86],[-16.933,63.833],[-16.935,63.821],[-16.94,63.809],[-16.926,63.8],[-16.931,63.793],[-16.947,63.789],[-16.967,63.788],[-16.956,63.81],[-16.955,63.82],[-16.961,63.828],[-16.957,63.837],[-16.954,63.841],[-16.95,63.843],[-16.941,63.846],[-16.941,63.851],[-16.944,63.856],[-16.947,63.856],[-16.941,63.883],[-16.94,63.898],[-16.943,63.904],[-16.947,63.908],[-16.958,63.916],[-16.969,63.92],[-16.974,63.915],[-16.977,63.889],[-16.975,63.878],[-16.967,63.869],[-16.983,63.863],[-17.002,63.863],[-17.019,63.862],[-17.029,63.85],[-17.017,63.839],[-17.011,63.828],[-17.005,63.817],[-16.988,63.809],[-17.006,63.798],[-17.043,63.794],[-17.115,63.795],[-17.13,63.797],[-17.166,63.809],[-17.18,63.805],[-17.193,63.798],[-17.203,63.798],[-17.207,63.815],[-17.331,63.781],[-17.386,63.773],[-17.388,63.784],[-17.384,63.959],[-17.378,63.978],[-17.342,64.039],[-16.877,64.472],[-16.687,64.639],[-16.663,64.675],[-16.641,64.714],[-16.636,64.728],[-16.633,64.737],[-16.633,64.745],[-16.635,64.754],[-16.639,64.762],[-16.645,64.77],[-16.648,64.778],[-16.652,64.786],[-16.676,64.814],[-16.678,64.821],[-16.677,64.826],[-16.674,64.83],[-16.648,64.855],[-16.633,64.864],[-16.626,64.87],[-16.624,64.875],[-16.624,64.879],[-16.628,64.887],[-16.63,64.891],[-16.63,64.896],[-16.628,64.903],[-16.622,64.918],[-16.617,64.924],[-16.612,64.927],[-16.586,64.928],[-16.528,64.94],[-16.511,64.942],[-16.471,64.943],[-16.453,64.944],[-16.446,64.946],[-16.435,64.951],[-16.382,64.983],[-16.339,65.002],[-16.328,65.006],[-16.261,65.015],[-16.249,65.019],[-16.234,65.026],[-16.209,65.043],[-16.202,65.051],[-16.201,65.057],[-16.219,65.063],[-16.223,65.066],[-16.224,65.07],[-16.224,65.074],[-16.219,65.084],[-16.217,65.088],[-16.203,65.122],[-16.202,65.126],[-16.203,65.144],[-16.206,65.156],[-16.206,65.165],[-16.204,65.173],[-16.202,65.18],[-16.202,65.182],[-16.204,65.184],[-16.205,65.189],[-16.205,65.196],[-16.198,65.21],[-16.192,65.219],[-16.186,65.224],[-16.158,65.242],[-16.128,65.268],[-16.118,65.273],[-16.066,65.289],[-16.055,65.294],[-16.046,65.302],[-16.033,65.318],[-16.029,65.327],[-16.027,65.333],[-16.033,65.345],[-16.038,65.352],[-16.066,65.373],[-16.085,65.383],[-16.162,65.405],[-16.166,65.408],[-16.174,65.414],[-16.176,65.417],[-16.177,65.42],[-16.176,65.426],[-16.172,65.437],[-16.168,65.443],[-16.163,65.447],[-16.151,65.454],[-16.13,65.47],[-16.112,65.473],[-16.102,65.477],[-16.09,65.484],[-16.076,65.497],[-16.061,65.516],[-16.051,65.532],[-16.048,65.539],[-16.044,65.557],[-16.042,65.563],[-16.036,65.57],[-16.028,65.575],[-16.014,65.576],[-15.703,65.55],[-15.692,65.55],[-15.69,65.555],[-15.689,65.567],[-15.687,65.574],[-15.683,65.583],[-15.66,65.616],[-15.658,65.624],[-15.66,65.632],[-15.664,65.64],[-15.668,65.648],[-15.67,65.658],[-15.67,65.684],[-15.672,65.691],[-15.675,65.697],[-15.683,65.704],[-15.684,65.709],[-15.685,65.716],[-15.683,65.732],[-15.68,65.739],[-15.675,65.745],[-15.664,65.748],[-15.456,65.772],[-15.448,65.774],[-15.445,65.779],[-15.445,65.783],[-15.442,65.789],[-15.434,65.795],[-15.418,65.803],[-15.404,65.808],[-15.35,65.821],[-15.338,65.827],[-15.328,65.834],[-15.315,65.857],[-15.226,65.863],[-15.167,65.882],[-15.126,65.9],[-15.101,65.922],[-14.694,65.944],[-14.663,65.981],[-14.615,65.986]]]}},{"type":"Feature","id":"IS-8","properties":{"id":"IS-8","countryCode":"IS","isoSubdivision":"IS-8","name":"Southern","name_en":"Southern","name_ko":"쉬뒤를란드","type":"Region","labelLongitude":-18.534,"labelLatitude":64.019,"minZoom":6},"geometry":{"type":"MultiPolygon","coordinates":[[[[-17.386,63.773],[-17.468,63.761],[-17.561,63.751],[-17.55,63.758],[-17.544,63.767],[-17.544,63.777],[-17.55,63.788],[-17.557,63.773],[-17.569,63.764],[-17.583,63.761],[-17.598,63.768],[-17.596,63.762],[-17.596,63.759],[-17.595,63.758],[-17.591,63.754],[-17.591,63.747],[-17.721,63.706],[-17.711,63.727],[-17.685,63.74],[-17.653,63.745],[-17.625,63.747],[-17.625,63.754],[-17.691,63.769],[-17.715,63.781],[-17.72,63.768],[-17.719,63.762],[-17.715,63.754],[-17.74,63.746],[-17.765,63.748],[-17.79,63.753],[-17.817,63.754],[-17.797,63.747],[-17.797,63.74],[-17.822,63.741],[-17.833,63.739],[-17.844,63.733],[-17.86,63.737],[-17.878,63.731],[-17.893,63.72],[-17.899,63.709],[-17.905,63.691],[-17.918,63.679],[-17.936,63.676],[-17.954,63.685],[-17.967,63.677],[-17.972,63.668],[-17.967,63.661],[-17.951,63.658],[-17.938,63.66],[-17.918,63.669],[-17.903,63.671],[-17.824,63.667],[-17.797,63.671],[-17.84,63.634],[-17.866,63.624],[-17.892,63.63],[-17.889,63.632],[-17.888,63.632],[-17.887,63.633],[-17.885,63.637],[-17.926,63.637],[-17.925,63.627],[-17.953,63.629],[-17.969,63.623],[-17.956,63.624],[-17.947,63.621],[-17.944,63.614],[-17.947,63.602],[-17.872,63.604],[-17.858,63.61],[-17.883,63.576],[-17.919,63.545],[-17.965,63.523],[-18.067,63.502],[-18.133,63.479],[-18.195,63.473],[-18.228,63.493],[-18.215,63.501],[-18.187,63.505],[-18.177,63.511],[-18.163,63.521],[-18.151,63.526],[-18.119,63.527],[-18.119,63.534],[-18.147,63.534],[-18.201,63.527],[-18.228,63.527],[-18.296,63.546],[-18.317,63.549],[-18.311,63.541],[-18.318,63.539],[-18.321,63.538],[-18.324,63.534],[-18.315,63.528],[-18.293,63.511],[-18.286,63.508],[-18.277,63.501],[-18.272,63.487],[-18.269,63.473],[-18.266,63.467],[-18.224,63.465],[-18.2,63.465],[-18.184,63.464],[-18.398,63.449],[-18.522,63.423],[-18.732,63.397],[-18.783,63.398],[-18.975,63.424],[-19.056,63.414],[-19.085,63.418],[-19.074,63.419],[-19.069,63.42],[-19.064,63.424],[-19.1,63.428],[-19.118,63.432],[-19.132,63.439],[-19.153,63.426],[-19.287,63.439],[-19.3,63.441],[-19.352,63.459],[-19.434,63.467],[-19.551,63.502],[-19.712,63.522],[-19.743,63.534],[-19.73,63.535],[-19.722,63.539],[-19.723,63.544],[-19.736,63.549],[-19.748,63.549],[-19.765,63.543],[-19.777,63.541],[-19.873,63.549],[-19.87,63.544],[-19.77,63.534],[-20.034,63.542],[-20.051,63.555],[-20.055,63.554],[-20.058,63.552],[-20.06,63.55],[-20.064,63.549],[-20.069,63.553],[-20.072,63.554],[-20.078,63.555],[-20.072,63.541],[-20.148,63.54],[-20.186,63.544],[-20.338,63.602],[-20.353,63.61],[-20.339,63.604],[-20.322,63.602],[-20.306,63.603],[-20.291,63.61],[-20.303,63.611],[-20.326,63.616],[-20.339,63.617],[-20.334,63.632],[-20.332,63.637],[-20.351,63.625],[-20.367,63.62],[-20.385,63.622],[-20.407,63.63],[-20.407,63.637],[-20.373,63.63],[-20.387,63.646],[-20.405,63.655],[-20.424,63.662],[-20.442,63.671],[-20.458,63.688],[-20.467,63.7],[-20.479,63.706],[-20.504,63.706],[-20.504,63.699],[-20.469,63.677],[-20.448,63.661],[-20.435,63.644],[-20.501,63.671],[-20.532,63.689],[-20.551,63.712],[-20.547,63.714],[-20.537,63.72],[-20.545,63.725],[-20.558,63.74],[-20.53,63.755],[-20.499,63.763],[-20.431,63.768],[-20.4,63.761],[-20.344,63.735],[-20.311,63.733],[-20.328,63.742],[-20.352,63.761],[-20.366,63.768],[-20.442,63.788],[-20.412,63.813],[-20.407,63.822],[-20.411,63.836],[-20.422,63.84],[-20.431,63.836],[-20.428,63.828],[-20.428,63.822],[-20.44,63.813],[-20.483,63.788],[-20.511,63.773],[-20.53,63.764],[-20.555,63.761],[-20.562,63.757],[-20.563,63.747],[-20.563,63.736],[-20.565,63.726],[-20.573,63.716],[-20.578,63.714],[-20.622,63.726],[-20.667,63.743],[-20.7,63.75],[-20.77,63.774],[-20.705,63.774],[-20.693,63.772],[-20.669,63.761],[-20.654,63.761],[-20.652,63.767],[-20.639,63.768],[-20.606,63.768],[-20.606,63.774],[-20.634,63.774],[-20.634,63.781],[-20.63,63.781],[-20.623,63.781],[-20.62,63.781],[-20.62,63.788],[-20.691,63.779],[-20.716,63.781],[-20.716,63.788],[-20.682,63.807],[-20.672,63.838],[-20.686,63.863],[-20.723,63.869],[-20.723,63.863],[-20.695,63.858],[-20.698,63.844],[-20.717,63.828],[-20.755,63.806],[-20.778,63.797],[-20.805,63.795],[-20.833,63.802],[-20.822,63.785],[-20.818,63.781],[-20.859,63.8],[-20.949,63.827],[-21.077,63.848],[-21.12,63.862],[-21.144,63.867],[-21.168,63.876],[-21.189,63.891],[-21.183,63.899],[-21.184,63.909],[-21.195,63.932],[-21.117,63.93],[-21.074,63.934],[-21.045,63.946],[-21.12,63.946],[-21.168,63.958],[-21.185,63.959],[-21.236,63.953],[-21.247,63.949],[-21.256,63.943],[-21.287,63.928],[-21.299,63.925],[-21.299,63.918],[-21.248,63.908],[-21.222,63.899],[-21.209,63.884],[-21.23,63.889],[-21.275,63.892],[-21.322,63.889],[-21.35,63.884],[-21.366,63.874],[-21.353,63.856],[-21.357,63.856],[-21.36,63.854],[-21.363,63.852],[-21.367,63.85],[-21.66,63.832],[-21.695,63.843],[-21.729,63.859],[-21.76,63.868],[-21.793,63.871],[-21.932,63.848],[-21.912,63.866],[-21.894,63.88],[-21.652,64],[-21.614,63.999],[-21.607,64.001],[-21.606,64.002],[-21.599,64.018],[-21.594,64.024],[-21.57,64.036],[-21.546,64.052],[-21.505,64.087],[-21.417,64.163],[-21.409,64.174],[-21.401,64.188],[-21.415,64.213],[-21.417,64.22],[-21.417,64.227],[-21.414,64.233],[-21.4,64.248],[-21.388,64.258],[-21.149,64.364],[-21.078,64.404],[-20.93,64.464],[-20.814,64.524],[-20.79,64.531],[-20.628,64.557],[-20.314,64.644],[-20.045,64.698],[-20.017,64.71],[-20.001,64.72],[-19.997,64.724],[-19.993,64.73],[-19.991,64.738],[-19.991,64.75],[-19.994,64.765],[-19.993,64.772],[-19.992,64.778],[-19.977,64.802],[-19.72,64.752],[-19.696,64.75],[-19.667,64.751],[-19.405,64.785],[-19.155,64.785],[-18.872,64.839],[-18.427,64.881],[-18.333,64.843],[-18.234,64.818],[-17.948,64.747],[-17.443,64.619],[-16.877,64.472],[-17.342,64.039],[-17.378,63.978],[-17.384,63.959],[-17.388,63.784],[-17.386,63.773]]],[[[-17.751,63.718],[-17.744,63.712],[-17.743,63.703],[-17.749,63.692],[-17.765,63.682],[-17.771,63.681],[-17.764,63.685],[-17.759,63.69],[-17.761,63.696],[-17.769,63.699],[-17.78,63.698],[-17.823,63.691],[-17.821,63.7],[-17.79,63.713],[-17.773,63.718],[-17.766,63.719],[-17.751,63.718]]],[[[-20.262,63.445],[-20.258,63.441],[-20.253,63.43],[-20.26,63.419],[-20.27,63.409],[-20.28,63.403],[-20.287,63.406],[-20.292,63.415],[-20.298,63.423],[-20.306,63.435],[-20.303,63.446],[-20.283,63.451],[-20.259,63.451],[-20.257,63.45],[-20.262,63.445]]]]}}]}
