{"type":"FeatureCollection","features":[{"type":"Feature","id":"JE-X01~","properties":{"id":"JE-X01~","countryCode":"JE","isoSubdivision":"JE-X01~","name":"Jersey","name_en":"Jersey","name_ko":"저지섬","type":"Principal subdivision","labelLongitude":-2.125,"labelLatitude":49.23,"minZoom":18},"geometry":{"type":"Polygon","coordinates":[[[-2.083,49.26],[-2.068,49.251],[-2.021,49.235],[-2.022,49.225],[-2.017,49.221],[-2.012,49.215],[-2.008,49.212],[-2.017,49.207],[-2.021,49.201],[-2.022,49.192],[-2.022,49.181],[-2.025,49.171],[-2.031,49.171],[-2.04,49.176],[-2.049,49.178],[-2.08,49.179],[-2.097,49.184],[-2.12,49.199],[-2.129,49.203],[-2.138,49.206],[-2.145,49.206],[-2.153,49.2],[-2.161,49.191],[-2.169,49.178],[-2.177,49.18],[-2.19,49.189],[-2.2,49.192],[-2.203,49.19],[-2.223,49.185],[-2.234,49.185],[-2.226,49.206],[-2.233,49.229],[-2.242,49.248],[-2.241,49.26],[-2.229,49.263],[-2.215,49.26],[-2.196,49.253],[-2.183,49.254],[-2.172,49.256],[-2.163,49.26],[-2.152,49.267],[-2.144,49.262],[-2.122,49.258],[-2.111,49.253],[-2.104,49.258],[-2.098,49.26],[-2.083,49.26]]]}}]}
