{"type":"FeatureCollection","features":[{"type":"Feature","id":"JO-AJ","properties":{"id":"JO-AJ","countryCode":"JO","isoSubdivision":"JO-AJ","name":"Ajloun","name_en":"Ajloun","name_ko":"아질룬","type":"Province","labelLongitude":35.761,"labelLatitude":32.293,"minZoom":8.7},"geometry":{"type":"Polygon","coordinates":[[[35.695,32.156],[35.669,32.161],[35.652,32.167],[35.636,32.184],[35.64,32.194],[35.641,32.2],[35.638,32.208],[35.624,32.235],[35.618,32.252],[35.617,32.267],[35.632,32.329],[35.639,32.345],[35.649,32.355],[35.663,32.361],[35.68,32.362],[35.706,32.36],[35.73,32.366],[35.76,32.38],[35.777,32.383],[35.806,32.382],[35.822,32.384],[35.834,32.39],[35.841,32.398],[35.848,32.402],[35.855,32.399],[35.859,32.386],[35.864,32.378],[35.884,32.365],[35.905,32.339],[35.884,32.329],[35.873,32.325],[35.858,32.316],[35.842,32.303],[35.825,32.28],[35.818,32.264],[35.815,32.25],[35.816,32.24],[35.814,32.231],[35.805,32.223],[35.737,32.197],[35.695,32.156]]]}},{"type":"Feature","id":"JO-AM","properties":{"id":"JO-AM","countryCode":"JO","isoSubdivision":"JO-AM","name":"Amman","name_en":"Amman","name_ko":"암만","type":"Province","labelLongitude":36.442,"labelLatitude":31.621,"minZoom":8.7},"geometry":{"type":"Polygon","coordinates":[[[36.998,31.501],[36.96,31.491],[37.09,31.37],[37.22,31.249],[37.222,31.247],[36.152,31.249],[35.849,31.255],[35.839,31.263],[35.836,31.275],[35.838,31.294],[35.842,31.308],[35.85,31.328],[35.852,31.337],[35.849,31.35],[35.842,31.369],[35.818,31.406],[35.829,31.415],[35.835,31.419],[35.842,31.426],[35.847,31.432],[35.864,31.477],[35.871,31.488],[35.884,31.505],[35.888,31.512],[35.886,31.518],[35.878,31.524],[35.872,31.531],[35.871,31.539],[35.874,31.546],[35.875,31.555],[35.869,31.568],[35.826,31.608],[35.818,31.624],[35.81,31.65],[35.809,31.659],[35.81,31.668],[35.815,31.676],[35.832,31.693],[35.838,31.702],[35.84,31.712],[35.838,31.784],[35.831,31.79],[35.824,31.791],[35.812,31.786],[35.796,31.783],[35.746,31.783],[35.708,31.775],[35.71,31.793],[35.712,31.803],[35.725,31.834],[35.723,31.842],[35.718,31.848],[35.695,31.851],[35.682,31.854],[35.671,31.859],[35.664,31.866],[35.662,31.875],[35.669,31.886],[35.684,31.897],[35.742,31.923],[35.767,31.938],[35.812,31.984],[35.827,31.994],[35.865,32.004],[35.881,32.012],[35.912,32.038],[35.941,32.046],[35.964,32.02],[35.988,32.001],[36.022,31.966],[36.041,31.954],[36.054,31.951],[36.074,31.961],[36.086,31.963],[36.102,31.964],[36.151,31.977],[36.216,31.977],[36.236,31.98],[36.249,31.987],[36.268,32.007],[36.28,32.015],[36.302,32.019],[36.407,32.011],[36.428,32.003],[36.449,31.989],[36.506,31.936],[36.535,31.904],[36.536,31.888],[36.527,31.876],[36.499,31.861],[36.477,31.845],[36.469,31.836],[36.468,31.827],[36.474,31.816],[36.501,31.79],[36.546,31.754],[36.589,31.729],[36.612,31.721],[36.631,31.722],[36.679,31.747],[36.696,31.751],[36.714,31.747],[36.994,31.502],[36.997,31.501],[36.998,31.501]]]}},{"type":"Feature","id":"JO-AQ","properties":{"id":"JO-AQ","countryCode":"JO","isoSubdivision":"JO-AQ","name":"Aqaba","name_en":"Aqaba","name_ko":"아카바","type":"Province","labelLongitude":35.345,"labelLatitude":29.628,"minZoom":8.7},"geometry":{"type":"Polygon","coordinates":[[[34.956,29.559],[34.96,29.586],[34.967,29.608],[34.98,29.627],[34.99,29.652],[34.995,29.708],[35.003,29.733],[35.049,29.842],[35.053,29.863],[35.054,29.923],[35.061,29.957],[35.065,29.966],[35.07,29.974],[35.074,29.983],[35.075,29.995],[35.086,30.034],[35.129,30.09],[35.145,30.123],[35.145,30.155],[35.125,30.216],[35.125,30.245],[35.132,30.262],[35.142,30.314],[35.148,30.326],[35.154,30.337],[35.16,30.348],[35.162,30.361],[35.159,30.376],[35.145,30.396],[35.14,30.406],[35.14,30.43],[35.157,30.471],[35.162,30.495],[35.205,30.617],[35.264,30.72],[35.279,30.71],[35.347,30.668],[35.363,30.661],[35.376,30.651],[35.388,30.633],[35.4,30.619],[35.414,30.613],[35.425,30.609],[35.448,30.608],[35.442,30.546],[35.422,30.467],[35.377,30.345],[35.379,30.232],[35.371,30.203],[35.313,30.103],[35.301,30.053],[35.299,30.027],[35.304,30.008],[35.309,29.999],[35.317,29.987],[35.326,29.977],[35.338,29.967],[35.352,29.96],[35.368,29.955],[35.384,29.954],[35.399,29.956],[35.412,29.96],[35.425,29.962],[35.451,29.963],[35.481,29.958],[35.499,29.952],[35.519,29.942],[35.538,29.928],[35.556,29.911],[35.571,29.891],[35.624,29.787],[35.688,29.557],[35.738,29.241],[35.74,29.232],[35.622,29.25],[35.474,29.272],[35.335,29.293],[35.179,29.317],[35.06,29.335],[34.949,29.352],[34.962,29.36],[34.969,29.451],[34.976,29.477],[34.998,29.518],[34.997,29.534],[34.976,29.552],[34.962,29.552],[34.962,29.555],[34.962,29.558],[34.96,29.56],[34.956,29.559]]]}},{"type":"Feature","id":"JO-AT","properties":{"id":"JO-AT","countryCode":"JO","isoSubdivision":"JO-AT","name":"Tafilah","name_en":"Tafilah","name_ko":"타필라","type":"Province","labelLongitude":35.644,"labelLatitude":30.788,"minZoom":8.7},"geometry":{"type":"Polygon","coordinates":[[[35.264,30.72],[35.272,30.744],[35.276,30.769],[35.28,30.78],[35.286,30.792],[35.294,30.8],[35.311,30.813],[35.317,30.823],[35.32,30.845],[35.32,30.867],[35.322,30.89],[35.335,30.913],[35.347,30.923],[35.355,30.918],[35.405,30.888],[35.419,30.885],[35.437,30.884],[35.448,30.889],[35.454,30.899],[35.461,30.94],[35.471,30.966],[35.475,30.986],[35.481,30.994],[35.491,30.997],[35.503,30.996],[35.521,30.998],[35.534,30.998],[35.545,30.995],[35.556,30.986],[35.57,30.978],[35.585,30.974],[35.67,30.97],[35.83,30.915],[35.837,30.91],[35.84,30.904],[35.844,30.897],[35.853,30.889],[35.866,30.881],[35.902,30.867],[35.912,30.861],[35.92,30.854],[35.931,30.839],[35.939,30.831],[35.981,30.804],[36.024,30.767],[35.948,30.656],[35.911,30.645],[35.884,30.654],[35.874,30.655],[35.863,30.653],[35.851,30.645],[35.841,30.637],[35.827,30.629],[35.756,30.614],[35.662,30.603],[35.628,30.606],[35.529,30.603],[35.488,30.609],[35.448,30.608],[35.425,30.609],[35.414,30.613],[35.4,30.619],[35.388,30.633],[35.376,30.651],[35.363,30.661],[35.347,30.668],[35.279,30.71],[35.264,30.72]]]}},{"type":"Feature","id":"JO-AZ","properties":{"id":"JO-AZ","countryCode":"JO","isoSubdivision":"JO-AZ","name":"Zarqa","name_en":"Zarqa","name_ko":"자르카","type":"Province","labelLongitude":36.828,"labelLatitude":31.81,"minZoom":8.7},"geometry":{"type":"Polygon","coordinates":[[[37.761,31.696],[37.703,31.681],[37.455,31.618],[37.207,31.554],[36.998,31.501],[36.997,31.501],[36.994,31.502],[36.714,31.747],[36.696,31.751],[36.679,31.747],[36.631,31.722],[36.612,31.721],[36.589,31.729],[36.546,31.754],[36.501,31.79],[36.474,31.816],[36.468,31.827],[36.469,31.836],[36.477,31.845],[36.499,31.861],[36.527,31.876],[36.536,31.888],[36.535,31.904],[36.506,31.936],[36.449,31.989],[36.428,32.003],[36.407,32.011],[36.302,32.019],[36.28,32.015],[36.268,32.007],[36.249,31.987],[36.236,31.98],[36.216,31.977],[36.151,31.977],[36.102,31.964],[36.086,31.963],[36.074,31.961],[36.054,31.951],[36.041,31.954],[36.022,31.966],[35.988,32.001],[35.964,32.02],[35.941,32.046],[35.922,32.056],[35.915,32.058],[35.907,32.065],[35.902,32.07],[35.896,32.096],[35.933,32.138],[35.945,32.146],[35.961,32.154],[35.974,32.159],[35.982,32.167],[35.987,32.176],[35.991,32.197],[36.011,32.191],[36.019,32.183],[36.023,32.176],[36.021,32.17],[36.017,32.164],[36.014,32.156],[36.015,32.147],[36.02,32.14],[36.03,32.134],[36.041,32.132],[36.052,32.134],[36.063,32.139],[36.076,32.151],[36.086,32.15],[36.099,32.143],[36.123,32.127],[36.138,32.124],[36.152,32.125],[36.173,32.132],[36.183,32.134],[36.196,32.135],[36.236,32.132],[36.277,32.115],[36.294,32.104],[36.31,32.1],[36.325,32.101],[36.338,32.106],[36.348,32.113],[36.361,32.117],[36.379,32.119],[36.433,32.114],[36.451,32.106],[36.483,32.081],[36.518,32.063],[37.759,31.697],[37.761,31.696]]]}},{"type":"Feature","id":"JO-BA","properties":{"id":"JO-BA","countryCode":"JO","isoSubdivision":"JO-BA","name":"Balqa","name_en":"Balqa","name_ko":"발카","type":"Province","labelLongitude":35.722,"labelLatitude":31.835,"minZoom":8.7},"geometry":{"type":"Polygon","coordinates":[[[35.502,31.685],[35.528,31.735],[35.559,31.765],[35.538,31.819],[35.538,31.827],[35.549,31.839],[35.525,31.919],[35.527,31.927],[35.534,31.93],[35.541,31.932],[35.545,31.937],[35.546,31.945],[35.54,31.956],[35.538,31.964],[35.538,31.978],[35.536,31.988],[35.525,32.012],[35.523,32.058],[35.528,32.075],[35.545,32.087],[35.535,32.099],[35.535,32.111],[35.552,32.135],[35.547,32.142],[35.547,32.147],[35.551,32.152],[35.559,32.155],[35.559,32.163],[35.555,32.174],[35.56,32.19],[35.566,32.191],[35.636,32.184],[35.652,32.167],[35.669,32.161],[35.695,32.156],[35.696,32.148],[35.706,32.145],[35.72,32.144],[35.807,32.145],[35.826,32.142],[35.84,32.137],[35.852,32.127],[35.859,32.119],[35.896,32.096],[35.902,32.07],[35.907,32.065],[35.915,32.058],[35.922,32.056],[35.941,32.046],[35.912,32.038],[35.881,32.012],[35.865,32.004],[35.827,31.994],[35.812,31.984],[35.767,31.938],[35.742,31.923],[35.684,31.897],[35.669,31.886],[35.662,31.875],[35.664,31.866],[35.671,31.859],[35.682,31.854],[35.695,31.851],[35.718,31.848],[35.723,31.842],[35.725,31.834],[35.712,31.803],[35.71,31.793],[35.708,31.775],[35.695,31.768],[35.669,31.766],[35.656,31.763],[35.644,31.756],[35.638,31.749],[35.626,31.722],[35.61,31.697],[35.597,31.686],[35.584,31.681],[35.515,31.684],[35.502,31.685]]]}},{"type":"Feature","id":"JO-IR","properties":{"id":"JO-IR","countryCode":"JO","isoSubdivision":"JO-IR","name":"Irbid","name_en":"Irbid","name_ko":"이르비드","type":"Province","labelLongitude":35.82,"labelLatitude":32.556,"minZoom":8.7},"geometry":{"type":"Polygon","coordinates":[[[35.574,32.554],[35.576,32.555],[35.58,32.56],[35.574,32.573],[35.571,32.599],[35.566,32.608],[35.566,32.615],[35.573,32.615],[35.573,32.621],[35.564,32.625],[35.56,32.633],[35.561,32.641],[35.563,32.644],[35.57,32.647],[35.579,32.653],[35.594,32.67],[35.612,32.682],[35.636,32.679],[35.652,32.686],[35.685,32.711],[35.74,32.741],[35.757,32.744],[35.758,32.744],[35.764,32.747],[35.77,32.748],[35.775,32.747],[35.779,32.745],[35.779,32.744],[35.788,32.734],[35.896,32.713],[35.905,32.709],[35.922,32.694],[35.927,32.692],[35.94,32.693],[35.944,32.691],[35.946,32.684],[35.944,32.678],[35.941,32.674],[35.937,32.674],[35.947,32.664],[35.955,32.657],[35.966,32.654],[35.98,32.657],[36.004,32.655],[36.008,32.644],[36.005,32.627],[36.006,32.608],[36.015,32.591],[36.06,32.533],[36.066,32.522],[36.066,32.517],[36.07,32.517],[36.082,32.516],[36.094,32.434],[36.087,32.408],[36.08,32.406],[36.071,32.408],[36.053,32.42],[36.042,32.423],[36.029,32.421],[36.015,32.411],[36.012,32.403],[36.013,32.395],[36.018,32.387],[36.023,32.377],[36.026,32.362],[36.025,32.355],[36.017,32.346],[35.984,32.347],[35.953,32.355],[35.94,32.351],[35.905,32.339],[35.884,32.365],[35.864,32.378],[35.859,32.386],[35.855,32.399],[35.848,32.402],[35.841,32.398],[35.834,32.39],[35.822,32.384],[35.806,32.382],[35.777,32.383],[35.76,32.38],[35.73,32.366],[35.706,32.36],[35.68,32.362],[35.663,32.361],[35.649,32.355],[35.639,32.345],[35.632,32.329],[35.617,32.267],[35.618,32.252],[35.624,32.235],[35.638,32.208],[35.641,32.2],[35.64,32.194],[35.636,32.184],[35.566,32.191],[35.56,32.19],[35.573,32.238],[35.559,32.238],[35.561,32.243],[35.564,32.247],[35.568,32.25],[35.573,32.252],[35.565,32.264],[35.561,32.283],[35.561,32.302],[35.566,32.313],[35.557,32.328],[35.557,32.358],[35.552,32.368],[35.552,32.375],[35.559,32.375],[35.559,32.368],[35.566,32.368],[35.564,32.377],[35.561,32.385],[35.557,32.391],[35.552,32.395],[35.55,32.399],[35.545,32.41],[35.555,32.411],[35.559,32.414],[35.558,32.418],[35.552,32.423],[35.552,32.429],[35.559,32.429],[35.558,32.434],[35.556,32.435],[35.554,32.434],[35.552,32.436],[35.566,32.444],[35.559,32.451],[35.566,32.453],[35.573,32.457],[35.573,32.464],[35.568,32.465],[35.565,32.466],[35.563,32.468],[35.559,32.47],[35.561,32.477],[35.565,32.484],[35.571,32.489],[35.58,32.491],[35.58,32.498],[35.571,32.506],[35.569,32.51],[35.561,32.519],[35.557,32.519],[35.552,32.519],[35.552,32.526],[35.566,32.526],[35.563,32.532],[35.559,32.553],[35.566,32.546],[35.57,32.557],[35.573,32.56],[35.574,32.557],[35.574,32.554]]]}},{"type":"Feature","id":"JO-JA","properties":{"id":"JO-JA","countryCode":"JO","isoSubdivision":"JO-JA","name":"Jerash","name_en":"Jerash","name_ko":"제라시","type":"Province","labelLongitude":35.856,"labelLatitude":32.219,"minZoom":8.7},"geometry":{"type":"Polygon","coordinates":[[[35.72,32.144],[35.706,32.145],[35.696,32.148],[35.695,32.156],[35.737,32.197],[35.805,32.223],[35.814,32.231],[35.816,32.24],[35.815,32.25],[35.818,32.264],[35.825,32.28],[35.842,32.303],[35.858,32.316],[35.873,32.325],[35.884,32.329],[35.905,32.339],[35.94,32.351],[35.953,32.355],[35.984,32.347],[36.017,32.346],[36.003,32.322],[35.958,32.278],[35.948,32.262],[35.947,32.253],[35.952,32.246],[35.96,32.241],[35.967,32.236],[35.98,32.217],[35.991,32.197],[35.987,32.176],[35.982,32.167],[35.974,32.159],[35.961,32.154],[35.945,32.146],[35.933,32.138],[35.896,32.096],[35.859,32.119],[35.852,32.127],[35.84,32.137],[35.826,32.142],[35.807,32.145],[35.72,32.144]]]}},{"type":"Feature","id":"JO-KA","properties":{"id":"JO-KA","countryCode":"JO","isoSubdivision":"JO-KA","name":"Karak","name_en":"Karak","name_ko":"카라크","type":"Province","labelLongitude":35.769,"labelLatitude":31.175,"minZoom":8.7},"geometry":{"type":"Polygon","coordinates":[[[35.347,30.923],[35.374,30.945],[35.385,30.963],[35.385,30.995],[35.392,31.024],[35.438,31.104],[35.443,31.132],[35.436,31.16],[35.421,31.185],[35.411,31.205],[35.401,31.23],[35.396,31.258],[35.408,31.282],[35.422,31.303],[35.424,31.325],[35.416,31.332],[35.435,31.361],[35.453,31.401],[35.457,31.424],[35.457,31.434],[35.478,31.438],[35.554,31.436],[35.654,31.407],[35.673,31.404],[35.687,31.404],[35.718,31.412],[35.752,31.415],[35.773,31.415],[35.818,31.406],[35.842,31.369],[35.849,31.35],[35.852,31.337],[35.85,31.328],[35.842,31.308],[35.838,31.294],[35.836,31.275],[35.839,31.263],[35.849,31.255],[36.152,31.249],[36.169,31.151],[36.192,31.095],[36.141,30.955],[36.024,30.767],[35.981,30.804],[35.939,30.831],[35.931,30.839],[35.92,30.854],[35.912,30.861],[35.902,30.867],[35.866,30.881],[35.853,30.889],[35.844,30.897],[35.84,30.904],[35.837,30.91],[35.83,30.915],[35.67,30.97],[35.585,30.974],[35.57,30.978],[35.556,30.986],[35.545,30.995],[35.534,30.998],[35.521,30.998],[35.503,30.996],[35.491,30.997],[35.481,30.994],[35.475,30.986],[35.471,30.966],[35.461,30.94],[35.454,30.899],[35.448,30.889],[35.437,30.884],[35.419,30.885],[35.405,30.888],[35.355,30.918],[35.347,30.923]]]}},{"type":"Feature","id":"JO-MA","properties":{"id":"JO-MA","countryCode":"JO","isoSubdivision":"JO-MA","name":"Mafraq","name_en":"Mafraq","name_ko":"마프라크","type":"Province","labelLongitude":37.62,"labelLatitude":32.248,"minZoom":8.7},"geometry":{"type":"Polygon","coordinates":[[[36.807,32.313],[36.819,32.317],[36.98,32.41],[37.133,32.495],[37.244,32.554],[37.415,32.647],[37.495,32.69],[37.587,32.74],[37.758,32.833],[37.929,32.925],[38.057,32.994],[38.231,33.086],[38.316,33.131],[38.53,33.244],[38.775,33.372],[38.821,33.229],[38.863,33.101],[38.897,32.994],[38.943,32.852],[38.99,32.706],[39.057,32.497],[38.98,32.476],[38.979,32.476],[38.978,32.475],[38.979,32.474],[38.98,32.472],[39.029,32.328],[39.036,32.313],[39.046,32.308],[39.236,32.353],[39.256,32.343],[39.271,32.312],[39.292,32.245],[39.266,32.213],[39.146,32.126],[39.146,32.118],[39.136,32.115],[39.117,32.103],[38.998,32.007],[38.963,31.994],[38.85,31.966],[38.625,31.911],[38.4,31.855],[38.175,31.8],[37.987,31.753],[37.95,31.744],[37.761,31.696],[37.759,31.697],[36.518,32.063],[36.483,32.081],[36.451,32.106],[36.433,32.114],[36.379,32.119],[36.361,32.117],[36.348,32.113],[36.338,32.106],[36.325,32.101],[36.31,32.1],[36.294,32.104],[36.277,32.115],[36.236,32.132],[36.196,32.135],[36.183,32.134],[36.173,32.132],[36.152,32.125],[36.138,32.124],[36.123,32.127],[36.099,32.143],[36.086,32.15],[36.076,32.151],[36.063,32.139],[36.052,32.134],[36.041,32.132],[36.03,32.134],[36.02,32.14],[36.015,32.147],[36.014,32.156],[36.017,32.164],[36.021,32.17],[36.023,32.176],[36.019,32.183],[36.011,32.191],[35.991,32.197],[35.98,32.217],[35.967,32.236],[35.96,32.241],[35.952,32.246],[35.947,32.253],[35.948,32.262],[35.958,32.278],[36.003,32.322],[36.017,32.346],[36.025,32.355],[36.026,32.362],[36.023,32.377],[36.018,32.387],[36.013,32.395],[36.012,32.403],[36.015,32.411],[36.029,32.421],[36.042,32.423],[36.053,32.42],[36.071,32.408],[36.08,32.406],[36.087,32.408],[36.094,32.434],[36.082,32.516],[36.096,32.516],[36.133,32.52],[36.14,32.52],[36.15,32.516],[36.156,32.515],[36.161,32.517],[36.172,32.526],[36.177,32.527],[36.188,32.522],[36.221,32.495],[36.285,32.457],[36.373,32.386],[36.388,32.379],[36.408,32.374],[36.464,32.369],[36.48,32.361],[36.517,32.357],[36.654,32.343],[36.69,32.32],[36.707,32.328],[36.729,32.328],[36.793,32.314],[36.807,32.313]]]}},{"type":"Feature","id":"JO-MD","properties":{"id":"JO-MD","countryCode":"JO","isoSubdivision":"JO-MD","name":"Madaba","name_en":"Madaba","name_ko":"마다바","type":"Province","labelLongitude":35.672,"labelLatitude":31.585,"minZoom":8.7},"geometry":{"type":"Polygon","coordinates":[[[35.457,31.434],[35.459,31.492],[35.458,31.492],[35.459,31.492],[35.459,31.493],[35.459,31.494],[35.464,31.569],[35.48,31.641],[35.502,31.685],[35.515,31.684],[35.584,31.681],[35.597,31.686],[35.61,31.697],[35.626,31.722],[35.638,31.749],[35.644,31.756],[35.656,31.763],[35.669,31.766],[35.695,31.768],[35.708,31.775],[35.746,31.783],[35.796,31.783],[35.812,31.786],[35.824,31.791],[35.831,31.79],[35.838,31.784],[35.84,31.712],[35.838,31.702],[35.832,31.693],[35.815,31.676],[35.81,31.668],[35.809,31.659],[35.81,31.65],[35.818,31.624],[35.826,31.608],[35.869,31.568],[35.875,31.555],[35.874,31.546],[35.871,31.539],[35.872,31.531],[35.878,31.524],[35.886,31.518],[35.888,31.512],[35.884,31.505],[35.871,31.488],[35.864,31.477],[35.847,31.432],[35.842,31.426],[35.835,31.419],[35.829,31.415],[35.818,31.406],[35.773,31.415],[35.752,31.415],[35.718,31.412],[35.687,31.404],[35.673,31.404],[35.654,31.407],[35.554,31.436],[35.478,31.438],[35.457,31.434]]]}},{"type":"Feature","id":"JO-MN","properties":{"id":"JO-MN","countryCode":"JO","isoSubdivision":"JO-MN","name":"Ma'an","name_en":"Ma'an","name_ko":"마안","type":"Province","labelLongitude":36.64,"labelLatitude":30.492,"minZoom":8.7},"geometry":{"type":"Polygon","coordinates":[[[37.222,31.247],[37.35,31.128],[37.48,31.007],[37.483,31.004],[37.486,31.001],[37.489,30.998],[37.493,30.994],[37.602,30.883],[37.712,30.772],[37.822,30.661],[37.932,30.55],[37.981,30.499],[37.981,30.498],[37.98,30.498],[37.973,30.495],[37.9,30.459],[37.779,30.4],[37.671,30.348],[37.648,30.331],[37.635,30.313],[37.605,30.251],[37.569,30.175],[37.536,30.105],[37.492,30.011],[37.47,29.995],[37.352,29.973],[37.219,29.949],[37.076,29.923],[36.932,29.897],[36.843,29.881],[36.756,29.866],[36.729,29.854],[36.705,29.831],[36.65,29.749],[36.604,29.681],[36.541,29.589],[36.477,29.495],[36.4,29.439],[36.284,29.355],[36.178,29.278],[36.069,29.2],[36.044,29.191],[36.016,29.19],[35.912,29.206],[35.797,29.223],[35.74,29.232],[35.738,29.241],[35.688,29.557],[35.624,29.787],[35.571,29.891],[35.556,29.911],[35.538,29.928],[35.519,29.942],[35.499,29.952],[35.481,29.958],[35.451,29.963],[35.425,29.962],[35.412,29.96],[35.399,29.956],[35.384,29.954],[35.368,29.955],[35.352,29.96],[35.338,29.967],[35.326,29.977],[35.317,29.987],[35.309,29.999],[35.304,30.008],[35.299,30.027],[35.301,30.053],[35.313,30.103],[35.371,30.203],[35.379,30.232],[35.377,30.345],[35.422,30.467],[35.442,30.546],[35.448,30.608],[35.488,30.609],[35.529,30.603],[35.628,30.606],[35.662,30.603],[35.756,30.614],[35.827,30.629],[35.841,30.637],[35.851,30.645],[35.863,30.653],[35.874,30.655],[35.884,30.654],[35.911,30.645],[35.948,30.656],[36.024,30.767],[36.141,30.955],[36.192,31.095],[36.169,31.151],[36.152,31.249],[37.222,31.247]]]}}]}
