{"type":"FeatureCollection","features":[{"type":"Feature","id":"KE-110","properties":{"id":"KE-110","countryCode":"KE","isoSubdivision":"KE-110","name":"Nairobi","name_en":"Nairobi","name_ko":"나이로비","type":"National Capital Area","labelLongitude":36.904,"labelLatitude":-1.294,"minZoom":6.6},"geometry":{"type":"Polygon","coordinates":[[[37.132,-1.237],[37.106,-1.262],[37.101,-1.269],[37.089,-1.279],[37.07,-1.299],[37.067,-1.302],[37.062,-1.303],[37.053,-1.303],[37.002,-1.293],[36.99,-1.293],[36.98,-1.29],[36.974,-1.29],[36.969,-1.292],[36.965,-1.296],[36.964,-1.312],[36.961,-1.319],[36.956,-1.326],[36.911,-1.357],[36.909,-1.359],[36.908,-1.363],[36.91,-1.368],[36.925,-1.387],[36.924,-1.391],[36.922,-1.395],[36.914,-1.403],[36.907,-1.413],[36.897,-1.417],[36.87,-1.413],[36.853,-1.398],[36.843,-1.391],[36.836,-1.388],[36.826,-1.386],[36.799,-1.388],[36.793,-1.387],[36.788,-1.386],[36.756,-1.373],[36.746,-1.366],[36.737,-1.358],[36.728,-1.345],[36.72,-1.331],[36.71,-1.32],[36.676,-1.298],[36.703,-1.269],[36.72,-1.245],[36.726,-1.239],[36.732,-1.235],[36.74,-1.233],[36.752,-1.227],[36.759,-1.222],[36.79,-1.182],[36.801,-1.174],[36.809,-1.17],[36.814,-1.171],[36.855,-1.184],[36.86,-1.185],[36.866,-1.183],[36.875,-1.18],[36.883,-1.178],[36.9,-1.175],[36.906,-1.173],[36.91,-1.169],[36.937,-1.14],[36.943,-1.139],[36.947,-1.14],[36.955,-1.144],[36.957,-1.146],[36.967,-1.149],[36.97,-1.151],[36.972,-1.154],[36.972,-1.158],[36.962,-1.175],[36.961,-1.18],[36.96,-1.185],[36.962,-1.19],[36.966,-1.194],[36.983,-1.204],[36.999,-1.212],[37.007,-1.214],[37.022,-1.216],[37.037,-1.216],[37.045,-1.216],[37.052,-1.214],[37.065,-1.209],[37.094,-1.204],[37.107,-1.211],[37.117,-1.219],[37.132,-1.237]]]}},{"type":"Feature","id":"KE-200","properties":{"id":"KE-200","countryCode":"KE","isoSubdivision":"KE-200","name":"Central","name_en":"Central","name_ko":"중부","type":"Province","labelLongitude":36.846,"labelLatitude":-0.71,"minZoom":6.6},"geometry":{"type":"Polygon","coordinates":[[[37.086,0.019],[37.11,-0.004],[37.317,-0.159],[37.324,-0.17],[37.429,-0.427],[37.433,-0.443],[37.432,-0.52],[37.434,-0.529],[37.437,-0.538],[37.469,-0.576],[37.477,-0.59],[37.477,-0.616],[37.476,-0.624],[37.478,-0.696],[37.481,-0.708],[37.485,-0.724],[37.488,-0.728],[37.491,-0.732],[37.492,-0.736],[37.491,-0.74],[37.48,-0.747],[37.348,-0.796],[37.34,-0.797],[37.334,-0.796],[37.33,-0.794],[37.31,-0.78],[37.296,-0.766],[37.288,-0.76],[37.284,-0.758],[37.279,-0.757],[37.276,-0.757],[37.271,-0.758],[37.267,-0.76],[37.258,-0.763],[37.256,-0.765],[37.253,-0.771],[37.25,-0.78],[37.241,-0.852],[37.241,-0.862],[37.243,-0.87],[37.28,-0.9],[37.283,-0.904],[37.286,-0.908],[37.288,-0.913],[37.299,-0.951],[37.308,-0.969],[37.311,-0.973],[37.314,-0.976],[37.319,-0.978],[37.325,-0.979],[37.33,-0.978],[37.335,-0.976],[37.34,-0.974],[37.357,-0.964],[37.361,-0.962],[37.365,-0.962],[37.369,-0.964],[37.372,-0.968],[37.374,-0.973],[37.374,-0.98],[37.372,-0.987],[37.368,-0.997],[37.364,-1.019],[37.364,-1.039],[37.337,-1.077],[37.326,-1.088],[37.323,-1.09],[37.321,-1.089],[37.29,-1.067],[37.285,-1.066],[37.28,-1.066],[37.269,-1.068],[37.264,-1.07],[37.255,-1.074],[37.249,-1.077],[37.239,-1.079],[37.227,-1.078],[37.222,-1.077],[37.216,-1.077],[37.21,-1.078],[37.206,-1.08],[37.187,-1.092],[37.18,-1.099],[37.176,-1.105],[37.173,-1.113],[37.174,-1.126],[37.177,-1.14],[37.177,-1.148],[37.166,-1.181],[37.145,-1.223],[37.132,-1.237],[37.117,-1.219],[37.107,-1.211],[37.094,-1.204],[37.065,-1.209],[37.052,-1.214],[37.045,-1.216],[37.037,-1.216],[37.022,-1.216],[37.007,-1.214],[36.999,-1.212],[36.983,-1.204],[36.966,-1.194],[36.962,-1.19],[36.96,-1.185],[36.961,-1.18],[36.962,-1.175],[36.972,-1.158],[36.972,-1.154],[36.97,-1.151],[36.967,-1.149],[36.957,-1.146],[36.955,-1.144],[36.947,-1.14],[36.943,-1.139],[36.937,-1.14],[36.91,-1.169],[36.906,-1.173],[36.9,-1.175],[36.883,-1.178],[36.875,-1.18],[36.866,-1.183],[36.86,-1.185],[36.855,-1.184],[36.814,-1.171],[36.809,-1.17],[36.801,-1.174],[36.79,-1.182],[36.759,-1.222],[36.752,-1.227],[36.74,-1.233],[36.732,-1.235],[36.726,-1.239],[36.72,-1.245],[36.703,-1.269],[36.676,-1.298],[36.668,-1.294],[36.651,-1.285],[36.636,-1.274],[36.632,-1.271],[36.625,-1.269],[36.508,-1.252],[36.503,-1.245],[36.501,-1.231],[36.539,-1.119],[36.542,-1.115],[36.547,-1.114],[36.565,-1.114],[36.571,-1.113],[36.576,-1.111],[36.58,-1.108],[36.583,-1.102],[36.584,-1.091],[36.584,-1.083],[36.577,-1.054],[36.577,-1.047],[36.578,-1.029],[36.585,-1.004],[36.586,-1.001],[36.586,-0.999],[36.585,-0.997],[36.571,-0.979],[36.569,-0.975],[36.561,-0.953],[36.56,-0.948],[36.56,-0.941],[36.562,-0.924],[36.562,-0.918],[36.561,-0.914],[36.526,-0.819],[36.519,-0.777],[36.52,-0.769],[36.528,-0.743],[36.53,-0.733],[36.529,-0.725],[36.517,-0.669],[36.515,-0.65],[36.509,-0.62],[36.506,-0.615],[36.503,-0.614],[36.499,-0.613],[36.495,-0.612],[36.485,-0.609],[36.476,-0.605],[36.471,-0.602],[36.468,-0.599],[36.463,-0.59],[36.461,-0.585],[36.457,-0.582],[36.452,-0.581],[36.44,-0.581],[36.427,-0.582],[36.406,-0.586],[36.404,-0.586],[36.402,-0.585],[36.4,-0.581],[36.396,-0.565],[36.392,-0.555],[36.39,-0.543],[36.389,-0.517],[36.381,-0.469],[36.383,-0.454],[36.385,-0.445],[36.387,-0.431],[36.387,-0.426],[36.382,-0.41],[36.38,-0.405],[36.377,-0.401],[36.374,-0.4],[36.37,-0.4],[36.34,-0.406],[36.335,-0.406],[36.332,-0.403],[36.33,-0.399],[36.328,-0.394],[36.325,-0.39],[36.321,-0.388],[36.316,-0.388],[36.31,-0.389],[36.288,-0.394],[36.276,-0.396],[36.27,-0.395],[36.266,-0.394],[36.261,-0.392],[36.259,-0.39],[36.256,-0.388],[36.206,-0.28],[36.203,-0.269],[36.201,-0.257],[36.2,-0.245],[36.201,-0.238],[36.202,-0.232],[36.213,-0.203],[36.215,-0.192],[36.213,-0.141],[36.216,-0.117],[36.219,-0.105],[36.222,-0.098],[36.226,-0.078],[36.241,-0.054],[36.243,-0.05],[36.257,-0.009],[36.261,0.001],[36.275,0.013],[36.284,0.019],[36.325,0.035],[36.329,0.038],[36.331,0.042],[36.334,0.052],[36.336,0.056],[36.342,0.059],[36.354,0.06],[36.376,0.059],[36.393,0.061],[36.402,0.064],[36.454,0.096],[36.458,0.099],[36.46,0.104],[36.463,0.114],[36.467,0.117],[36.471,0.118],[36.478,0.115],[36.483,0.111],[36.508,0.086],[36.511,0.082],[36.513,0.077],[36.517,0.061],[36.522,0.055],[36.53,0.05],[36.55,0.044],[36.559,0.04],[36.566,0.037],[36.589,0.011],[36.594,0.009],[36.6,0.008],[36.61,0.012],[36.617,0.015],[36.631,0.023],[36.636,0.024],[36.642,0.024],[36.647,0.019],[36.649,0.015],[36.648,0.011],[36.647,0.008],[36.644,0.005],[36.556,-0.048],[36.548,-0.054],[36.543,-0.06],[36.54,-0.065],[36.538,-0.07],[36.537,-0.075],[36.538,-0.081],[36.54,-0.092],[36.542,-0.097],[36.544,-0.102],[36.575,-0.129],[36.588,-0.138],[36.605,-0.141],[36.651,-0.144],[36.668,-0.15],[36.715,-0.143],[36.787,-0.125],[36.799,-0.124],[36.808,-0.125],[36.855,-0.142],[36.859,-0.144],[36.86,-0.145],[36.858,-0.151],[36.858,-0.164],[36.854,-0.184],[36.852,-0.191],[36.85,-0.195],[36.847,-0.199],[36.844,-0.202],[36.836,-0.206],[36.833,-0.208],[36.834,-0.212],[36.839,-0.228],[36.841,-0.232],[36.881,-0.282],[36.892,-0.291],[36.904,-0.299],[36.908,-0.301],[36.911,-0.301],[36.915,-0.301],[36.921,-0.299],[36.926,-0.295],[36.931,-0.29],[36.935,-0.287],[36.939,-0.288],[36.952,-0.294],[36.957,-0.296],[36.963,-0.296],[36.969,-0.294],[36.977,-0.286],[36.989,-0.27],[36.993,-0.264],[37.001,-0.254],[37.017,-0.239],[37.021,-0.236],[37.023,-0.232],[37.026,-0.222],[37.029,-0.209],[37.033,-0.169],[37.031,-0.16],[37.008,-0.122],[37.006,-0.117],[37.004,-0.112],[37.004,-0.099],[37.007,-0.092],[37.012,-0.083],[37.039,-0.059],[37.051,-0.041],[37.086,0.019]]]}},{"type":"Feature","id":"KE-300","properties":{"id":"KE-300","countryCode":"KE","isoSubdivision":"KE-300","name":"Coast","name_en":"Coast","name_ko":"해안","type":"Province","labelLongitude":39.582,"labelLatitude":-2.515,"minZoom":6.6},"geometry":{"type":"MultiPolygon","coordinates":[[[[41.536,-1.676],[41.535,-1.696],[41.535,-1.697],[41.458,-1.775],[41.422,-1.83],[41.418,-1.847],[41.396,-1.861],[41.339,-1.912],[41.303,-1.956],[41.283,-1.969],[41.267,-1.95],[41.249,-1.957],[41.231,-1.955],[41.22,-1.944],[41.219,-1.922],[41.199,-1.943],[41.195,-1.967],[41.186,-1.99],[41.157,-1.987],[41.118,-1.978],[41.109,-1.978],[41.097,-1.985],[41.077,-2.007],[41.05,-2.018],[41.04,-2.032],[41.029,-2.043],[41.013,-2.042],[41,-2.036],[40.99,-2.029],[40.984,-2.019],[40.98,-2.005],[40.98,-1.99],[40.99,-1.962],[40.989,-1.95],[40.987,-1.936],[40.991,-1.924],[41.006,-1.902],[40.971,-1.929],[40.967,-2.047],[40.945,-2.073],[40.927,-2.059],[40.908,-1.998],[40.89,-1.984],[40.88,-1.978],[40.87,-1.967],[40.861,-1.963],[40.849,-1.978],[40.856,-1.993],[40.859,-2.006],[40.856,-2.018],[40.872,-2.011],[40.885,-2.015],[40.894,-2.026],[40.897,-2.042],[40.895,-2.049],[40.885,-2.054],[40.883,-2.06],[40.886,-2.07],[40.894,-2.072],[40.901,-2.074],[40.904,-2.08],[40.906,-2.153],[40.912,-2.192],[40.925,-2.217],[40.934,-2.22],[40.945,-2.218],[40.957,-2.219],[40.969,-2.228],[40.979,-2.242],[40.981,-2.253],[40.969,-2.279],[40.945,-2.309],[40.923,-2.314],[40.919,-2.302],[40.952,-2.286],[40.935,-2.28],[40.921,-2.271],[40.897,-2.245],[40.893,-2.237],[40.894,-2.232],[40.894,-2.228],[40.883,-2.224],[40.884,-2.226],[40.878,-2.229],[40.863,-2.231],[40.838,-2.245],[40.816,-2.272],[40.795,-2.29],[40.774,-2.279],[40.775,-2.288],[40.777,-2.297],[40.783,-2.304],[40.791,-2.307],[40.796,-2.31],[40.794,-2.317],[40.787,-2.327],[40.793,-2.342],[40.822,-2.361],[40.829,-2.375],[40.817,-2.398],[40.789,-2.425],[40.758,-2.447],[40.712,-2.467],[40.651,-2.539],[40.616,-2.553],[40.585,-2.546],[40.555,-2.532],[40.524,-2.525],[40.491,-2.528],[40.39,-2.56],[40.348,-2.59],[40.323,-2.598],[40.294,-2.616],[40.244,-2.657],[40.232,-2.669],[40.223,-2.683],[40.205,-2.725],[40.175,-2.763],[40.171,-2.779],[40.173,-2.787],[40.188,-2.807],[40.189,-2.814],[40.185,-2.829],[40.184,-2.838],[40.165,-2.901],[40.163,-2.934],[40.184,-2.95],[40.179,-2.976],[40.191,-2.988],[40.211,-2.986],[40.232,-2.971],[40.233,-2.982],[40.225,-2.994],[40.19,-3.027],[40.169,-3.055],[40.164,-3.067],[40.16,-3.118],[40.153,-3.135],[40.119,-3.184],[40.118,-3.197],[40.129,-3.233],[40.129,-3.252],[40.123,-3.267],[40.114,-3.282],[40.102,-3.294],[40.088,-3.304],[40.04,-3.326],[40.027,-3.334],[40.003,-3.362],[39.989,-3.373],[39.971,-3.376],[39.979,-3.359],[39.99,-3.321],[39.992,-3.307],[39.974,-3.311],[39.966,-3.321],[39.964,-3.334],[39.965,-3.348],[39.964,-3.358],[39.958,-3.382],[39.96,-3.388],[39.963,-3.393],[39.965,-3.399],[39.948,-3.428],[39.927,-3.481],[39.901,-3.524],[39.89,-3.582],[39.879,-3.605],[39.866,-3.616],[39.857,-3.618],[39.836,-3.609],[39.831,-3.606],[39.818,-3.591],[39.813,-3.59],[39.786,-3.588],[39.791,-3.579],[39.791,-3.575],[39.781,-3.567],[39.773,-3.585],[39.776,-3.6],[39.788,-3.609],[39.808,-3.609],[39.796,-3.623],[39.8,-3.635],[39.814,-3.639],[39.849,-3.625],[39.86,-3.633],[39.866,-3.649],[39.869,-3.663],[39.867,-3.695],[39.786,-3.917],[39.761,-3.942],[39.732,-3.946],[39.712,-3.931],[39.712,-3.897],[39.69,-3.91],[39.684,-3.917],[39.687,-3.927],[39.694,-3.937],[39.698,-3.947],[39.702,-3.956],[39.712,-3.965],[39.734,-3.963],[39.745,-3.969],[39.742,-3.986],[39.721,-4.009],[39.718,-4.016],[39.716,-4.025],[39.708,-4.038],[39.699,-4.048],[39.691,-4.053],[39.681,-4.048],[39.674,-4.025],[39.667,-4.02],[39.66,-4.008],[39.662,-3.985],[39.66,-3.971],[39.643,-3.986],[39.617,-3.971],[39.606,-3.97],[39.595,-3.979],[39.605,-3.988],[39.616,-3.993],[39.643,-3.999],[39.636,-4.017],[39.626,-4.025],[39.595,-4.033],[39.584,-4.033],[39.573,-4.032],[39.564,-4.033],[39.561,-4.04],[39.561,-4.061],[39.563,-4.071],[39.567,-4.081],[39.582,-4.062],[39.615,-4.059],[39.65,-4.07],[39.67,-4.088],[39.666,-4.112],[39.616,-4.198],[39.584,-4.279],[39.551,-4.402],[39.54,-4.43],[39.531,-4.417],[39.522,-4.418],[39.514,-4.427],[39.506,-4.438],[39.504,-4.444],[39.505,-4.456],[39.502,-4.462],[39.488,-4.475],[39.485,-4.479],[39.451,-4.582],[39.444,-4.563],[39.447,-4.534],[39.444,-4.52],[39.431,-4.53],[39.424,-4.544],[39.418,-4.56],[39.41,-4.574],[39.405,-4.574],[39.398,-4.57],[39.391,-4.571],[39.389,-4.585],[39.391,-4.593],[39.406,-4.615],[39.396,-4.629],[39.362,-4.634],[39.324,-4.625],[39.3,-4.595],[39.3,-4.601],[39.294,-4.615],[39.264,-4.607],[39.243,-4.627],[39.224,-4.656],[39.205,-4.67],[39.201,-4.671],[39.197,-4.672],[39.194,-4.673],[39.191,-4.678],[39.106,-4.616],[39.02,-4.555],[38.935,-4.493],[38.85,-4.432],[38.764,-4.371],[38.679,-4.309],[38.594,-4.248],[38.508,-4.186],[38.423,-4.125],[38.416,-4.12],[38.338,-4.063],[38.252,-4.002],[38.167,-3.94],[38.082,-3.879],[37.996,-3.817],[37.911,-3.756],[37.825,-3.695],[37.771,-3.655],[37.757,-3.637],[37.747,-3.617],[37.73,-3.555],[37.722,-3.54],[37.708,-3.527],[37.689,-3.518],[37.668,-3.512],[37.647,-3.511],[37.599,-3.513],[37.596,-3.5],[37.604,-3.48],[37.608,-3.464],[37.603,-3.456],[37.587,-3.454],[37.579,-3.446],[37.578,-3.436],[37.58,-3.424],[37.585,-3.413],[37.59,-3.404],[37.605,-3.388],[37.627,-3.37],[37.651,-3.358],[37.67,-3.356],[37.668,-3.338],[37.672,-3.324],[37.682,-3.316],[37.7,-3.314],[37.68,-3.192],[37.698,-3.187],[37.79,-3.174],[37.799,-3.175],[37.808,-3.175],[37.824,-3.174],[37.831,-3.165],[37.835,-3.153],[37.85,-3.01],[37.918,-2.78],[37.944,-2.788],[37.968,-2.78],[38.089,-2.723],[38.114,-2.707],[38.122,-2.696],[38.129,-2.692],[38.135,-2.69],[38.14,-2.692],[38.144,-2.694],[38.148,-2.697],[38.151,-2.7],[38.169,-2.724],[38.173,-2.727],[38.203,-2.75],[38.237,-2.765],[38.242,-2.766],[38.256,-2.772],[38.26,-2.775],[38.278,-2.791],[38.322,-2.857],[38.342,-2.898],[38.347,-2.914],[38.349,-2.918],[38.352,-2.922],[38.359,-2.928],[38.364,-2.931],[38.407,-2.948],[38.411,-2.951],[38.425,-2.963],[38.438,-2.978],[38.444,-2.985],[38.447,-2.987],[38.449,-2.986],[38.455,-2.978],[38.457,-2.976],[38.463,-2.973],[38.474,-2.971],[38.486,-2.97],[38.501,-2.971],[38.504,-2.971],[38.508,-2.968],[38.512,-2.965],[38.517,-2.961],[38.523,-2.961],[38.528,-2.961],[38.539,-2.964],[38.544,-2.966],[38.553,-2.97],[38.57,-2.98],[38.585,-2.986],[38.589,-2.988],[38.597,-2.994],[38.6,-2.997],[38.604,-3.002],[38.607,-3.005],[38.61,-3.007],[38.615,-3.009],[38.626,-3.012],[38.636,-3.015],[38.652,-3.027],[38.657,-3.029],[38.662,-3.03],[38.667,-3.03],[38.697,-3.025],[38.703,-3.025],[38.709,-3.026],[38.714,-3.027],[38.744,-3.039],[38.792,-3.043],[38.796,-3.046],[38.797,-3.05],[38.795,-3.058],[38.794,-3.063],[38.794,-3.066],[38.797,-3.067],[38.799,-3.068],[38.804,-3.067],[38.819,-3.062],[38.824,-3.06],[38.828,-3.058],[38.832,-3.055],[38.837,-3.054],[38.854,-3.053],[38.859,-3.051],[38.863,-3.048],[38.878,-3.036],[38.883,-3.034],[38.888,-3.032],[38.894,-3.031],[38.9,-3.03],[38.917,-3.033],[38.923,-3.033],[38.929,-3.032],[38.934,-3.03],[38.944,-3.028],[38.95,-3.028],[38.955,-3.03],[38.965,-3.034],[38.97,-3.035],[38.975,-3.034],[38.979,-3.032],[38.989,-3.021],[38.996,-3.015],[39,-3.013],[39.002,-3.012],[39.007,-3.012],[39.012,-3.013],[39.02,-3.018],[39.024,-3.02],[39.03,-3.022],[39.04,-3.022],[39.042,-3.02],[39.042,-3.018],[38.63,-2.411],[38.629,-2.407],[38.633,-2.406],[38.649,-2.41],[38.665,-2.412],[38.677,-2.413],[38.689,-2.411],[38.695,-2.41],[38.7,-2.408],[38.717,-2.397],[38.721,-2.394],[38.74,-2.366],[38.744,-2.362],[38.752,-2.357],[38.756,-2.355],[38.773,-2.351],[38.778,-2.349],[38.782,-2.346],[38.793,-2.338],[38.797,-2.334],[38.979,-1.969],[38.984,-1.947],[38.986,-1.92],[38.96,-1.764],[38.959,-1.751],[38.962,-1.737],[38.972,-1.724],[38.995,-1.701],[38.999,-1.693],[39,-1.687],[38.997,-1.146],[38.989,-1.124],[38.871,-0.865],[38.416,-0.081],[38.415,-0.068],[38.425,-0.069],[38.434,-0.069],[38.444,-0.065],[38.466,-0.075],[38.496,-0.061],[38.547,-0.024],[38.574,-0.024],[38.633,-0.044],[38.656,-0.038],[38.67,-0.045],[38.686,-0.046],[38.699,-0.043],[38.704,-0.041],[38.709,-0.05],[38.721,-0.056],[38.746,-0.065],[38.934,-0.093],[38.946,-0.089],[38.954,-0.079],[38.96,-0.066],[38.968,-0.055],[38.979,-0.049],[38.995,-0.044],[39.026,-0.038],[39.057,-0.038],[39.065,-0.04],[39.07,-0.045],[39.073,-0.05],[39.078,-0.052],[39.09,-0.062],[39.143,-0.127],[39.229,-0.131],[39.247,-0.139],[39.266,-0.137],[39.285,-0.133],[39.307,-0.134],[39.323,-0.142],[39.332,-0.151],[39.343,-0.159],[39.373,-0.164],[39.38,-0.168],[39.386,-0.173],[39.389,-0.179],[39.395,-0.181],[39.43,-0.189],[39.443,-0.195],[39.459,-0.205],[39.472,-0.216],[39.481,-0.232],[39.496,-0.242],[39.501,-0.25],[39.512,-0.278],[39.523,-0.284],[39.538,-0.282],[39.547,-0.285],[39.551,-0.29],[39.561,-0.308],[39.564,-0.312],[39.581,-0.322],[39.594,-0.346],[39.633,-0.49],[39.64,-0.505],[39.652,-0.508],[39.659,-0.515],[39.663,-0.527],[39.664,-0.542],[39.67,-0.543],[39.695,-0.573],[39.699,-0.579],[39.71,-0.584],[39.737,-0.586],[39.753,-0.593],[39.765,-0.602],[39.774,-0.612],[39.779,-0.627],[39.781,-0.645],[39.812,-0.69],[39.813,-0.696],[39.811,-0.711],[39.812,-0.727],[39.821,-0.737],[39.813,-0.751],[39.815,-0.766],[39.828,-0.799],[39.831,-0.83],[39.834,-0.84],[39.842,-0.839],[39.849,-0.839],[39.847,-0.854],[39.846,-0.86],[39.842,-0.867],[39.847,-0.877],[39.862,-0.922],[39.863,-0.929],[39.862,-0.949],[39.875,-0.97],[39.881,-0.987],[39.888,-1.015],[39.923,-1.086],[39.937,-1.101],[39.93,-1.108],[39.925,-1.117],[39.917,-1.135],[39.939,-1.137],[39.956,-1.151],[39.968,-1.172],[39.972,-1.193],[39.994,-1.219],[40.006,-1.258],[40.01,-1.342],[40.017,-1.381],[40.027,-1.416],[40.033,-1.48],[40.037,-1.491],[40.043,-1.5],[40.084,-1.586],[40.092,-1.598],[40.106,-1.611],[40.113,-1.626],[40.116,-1.69],[40.122,-1.717],[40.123,-1.717],[40.12,-1.726],[40.116,-1.731],[40.112,-1.735],[40.109,-1.738],[40.109,-1.755],[40.116,-1.799],[40.114,-1.808],[40.109,-1.818],[40.109,-1.826],[40.114,-1.835],[40.125,-1.847],[40.129,-1.854],[40.137,-1.901],[40.144,-1.915],[40.14,-1.918],[40.133,-1.926],[40.129,-1.929],[40.137,-1.943],[40.15,-1.998],[40.164,-2.028],[40.168,-2.043],[40.164,-2.053],[40.164,-2.059],[40.168,-2.078],[40.223,-2.057],[40.997,-1.711],[41.003,-1.71],[41.536,-1.676]]],[[[41.054,-2.05],[41.066,-2.036],[41.093,-2.038],[41.123,-2.048],[41.143,-2.06],[41.163,-2.091],[41.155,-2.112],[41.137,-2.115],[41.123,-2.094],[41.124,-2.105],[41.123,-2.116],[41.119,-2.124],[41.113,-2.128],[41.11,-2.129],[41.108,-2.132],[41.105,-2.134],[41.099,-2.135],[41.092,-2.133],[41.086,-2.128],[41.083,-2.124],[41.082,-2.122],[41.069,-2.123],[41.051,-2.129],[41.014,-2.149],[41.004,-2.142],[40.996,-2.144],[40.989,-2.152],[40.986,-2.166],[40.992,-2.174],[41.002,-2.18],[41.01,-2.187],[41.006,-2.197],[40.994,-2.197],[40.986,-2.191],[40.981,-2.182],[40.98,-2.169],[40.957,-2.174],[40.957,-2.151],[40.969,-2.12],[40.983,-2.097],[41.001,-2.087],[41.025,-2.08],[41.045,-2.07],[41.054,-2.05]]]]}},{"type":"Feature","id":"KE-400","properties":{"id":"KE-400","countryCode":"KE","isoSubdivision":"KE-400","name":"Eastern","name_en":"Eastern","name_ko":"동부","type":"National Capital Area","labelLongitude":37.792,"labelLatitude":2.607,"minZoom":6.6},"geometry":{"type":"Polygon","coordinates":[[[36.236,4.45],[36.246,4.447],[36.264,4.438],[36.277,4.436],[36.463,4.44],[36.62,4.443],[36.628,4.441],[36.643,4.433],[36.649,4.431],[36.651,4.431],[36.844,4.432],[36.904,4.416],[36.975,4.38],[37.016,4.371],[37.025,4.363],[37.041,4.337],[37.048,4.332],[37.068,4.333],[37.076,4.331],[37.083,4.322],[37.086,4.312],[37.092,4.29],[37.095,4.285],[37.1,4.284],[37.106,4.284],[37.112,4.282],[37.166,4.248],[37.263,4.185],[37.361,4.122],[37.475,4.049],[37.556,3.997],[37.648,3.938],[37.751,3.872],[37.846,3.81],[37.946,3.746],[37.977,3.726],[37.995,3.708],[38.021,3.667],[38.036,3.649],[38.049,3.642],[38.079,3.633],[38.102,3.613],[38.114,3.611],[38.146,3.618],[38.177,3.621],[38.283,3.609],[38.39,3.597],[38.446,3.602],[38.497,3.624],[38.498,3.63],[38.497,3.639],[38.499,3.647],[38.509,3.651],[38.514,3.649],[38.533,3.633],[38.541,3.623],[38.543,3.615],[38.547,3.61],[38.561,3.606],[38.574,3.605],[38.58,3.605],[38.594,3.611],[38.596,3.608],[38.597,3.602],[38.602,3.599],[38.66,3.594],[38.66,3.601],[38.661,3.615],[38.661,3.622],[38.688,3.586],[38.704,3.57],[38.722,3.56],[38.821,3.534],[38.895,3.514],[38.921,3.514],[38.963,3.522],[38.98,3.52],[38.995,3.514],[39.01,3.514],[39.068,3.527],[39.078,3.524],[39.09,3.518],[39.18,3.477],[39.219,3.469],[39.258,3.47],[39.296,3.492],[39.296,3.476],[39.31,3.291],[39.32,3.256],[39.327,3.2],[39.328,3.068],[39.326,3.052],[39.323,3.042],[39.32,3.039],[39.298,3.023],[39.293,3.018],[39.282,3.001],[39.275,2.995],[39.267,2.99],[39.216,2.973],[39.207,2.969],[39.199,2.963],[39.184,2.947],[39.181,2.944],[39.176,2.941],[39.167,2.937],[39.14,2.931],[39.131,2.926],[39.126,2.923],[39.12,2.918],[39.113,2.909],[39.11,2.902],[39.109,2.895],[39.109,2.881],[39.106,2.861],[39.102,2.856],[39.095,2.852],[38.971,2.574],[38.95,2.543],[38.897,2.526],[38.885,2.52],[38.882,2.514],[38.882,2.508],[38.88,2.504],[38.88,2.5],[38.883,2.494],[38.888,2.478],[38.902,2.45],[38.916,2.388],[38.919,2.333],[38.931,2.272],[38.935,2.261],[38.937,2.256],[38.942,2.22],[38.944,2.215],[38.945,2.19],[38.942,2.158],[38.942,2.143],[38.943,2.133],[38.95,2.125],[38.953,2.121],[38.955,2.117],[38.96,2.101],[38.963,2.097],[38.967,2.094],[38.97,2.091],[38.977,2.084],[38.982,2.075],[38.996,2.033],[39.026,1.974],[39.068,1.911],[39.075,1.904],[39.107,1.882],[39.122,1.869],[39.125,1.865],[39.136,1.848],[39.144,1.829],[39.147,1.825],[39.15,1.821],[39.16,1.81],[39.166,1.802],[39.175,1.783],[39.186,1.738],[39.188,1.734],[39.19,1.73],[39.193,1.726],[39.207,1.712],[39.211,1.709],[39.216,1.707],[39.24,1.698],[39.255,1.691],[39.259,1.688],[39.272,1.675],[39.28,1.669],[39.341,1.634],[39.348,1.628],[39.355,1.62],[39.36,1.612],[39.363,1.608],[39.365,1.603],[39.37,1.594],[39.392,1.568],[39.396,1.565],[39.401,1.563],[39.411,1.56],[39.415,1.557],[39.422,1.551],[39.425,1.547],[39.429,1.544],[39.447,1.535],[39.451,1.533],[39.452,1.531],[39.451,1.528],[39.294,1.465],[39.283,1.459],[39.278,1.453],[39.279,1.442],[39.445,0.999],[39.447,0.992],[39.446,0.984],[39.438,0.977],[39.426,0.972],[39.308,0.926],[39.305,0.923],[39.302,0.919],[39.269,0.863],[39.257,0.848],[39.246,0.838],[39.223,0.82],[39.21,0.805],[39.182,0.765],[39.171,0.743],[39.168,0.735],[39.165,0.72],[39.163,0.715],[39.159,0.711],[38.826,0.586],[38.819,0.582],[38.815,0.58],[38.811,0.576],[38.809,0.573],[38.796,0.545],[38.783,0.524],[38.779,0.521],[38.776,0.517],[38.771,0.515],[38.766,0.514],[38.704,0.506],[38.699,0.504],[38.695,0.503],[38.677,0.493],[38.674,0.491],[38.67,0.487],[38.666,0.48],[38.665,0.475],[38.667,0.47],[38.67,0.466],[38.689,0.453],[38.691,0.451],[38.693,0.447],[38.747,0.215],[38.75,0.177],[38.749,0.17],[38.746,0.163],[38.738,0.149],[38.737,0.142],[38.746,-0.065],[38.721,-0.056],[38.709,-0.05],[38.704,-0.041],[38.699,-0.043],[38.686,-0.046],[38.67,-0.045],[38.656,-0.038],[38.633,-0.044],[38.574,-0.024],[38.547,-0.024],[38.496,-0.061],[38.466,-0.075],[38.444,-0.065],[38.434,-0.069],[38.425,-0.069],[38.415,-0.068],[38.416,-0.081],[38.871,-0.865],[38.989,-1.124],[38.997,-1.146],[39,-1.687],[38.999,-1.693],[38.995,-1.701],[38.972,-1.724],[38.962,-1.737],[38.959,-1.751],[38.96,-1.764],[38.986,-1.92],[38.984,-1.947],[38.979,-1.969],[38.797,-2.334],[38.793,-2.338],[38.782,-2.346],[38.778,-2.349],[38.773,-2.351],[38.756,-2.355],[38.752,-2.357],[38.744,-2.362],[38.74,-2.366],[38.721,-2.394],[38.717,-2.397],[38.7,-2.408],[38.695,-2.41],[38.689,-2.411],[38.677,-2.413],[38.665,-2.412],[38.649,-2.41],[38.633,-2.406],[38.629,-2.407],[38.63,-2.411],[39.042,-3.018],[39.042,-3.02],[39.04,-3.022],[39.03,-3.022],[39.024,-3.02],[39.02,-3.018],[39.012,-3.013],[39.007,-3.012],[39.002,-3.012],[39,-3.013],[38.996,-3.015],[38.989,-3.021],[38.979,-3.032],[38.975,-3.034],[38.97,-3.035],[38.965,-3.034],[38.955,-3.03],[38.95,-3.028],[38.944,-3.028],[38.934,-3.03],[38.929,-3.032],[38.923,-3.033],[38.917,-3.033],[38.9,-3.03],[38.894,-3.031],[38.888,-3.032],[38.883,-3.034],[38.878,-3.036],[38.863,-3.048],[38.859,-3.051],[38.854,-3.053],[38.837,-3.054],[38.832,-3.055],[38.828,-3.058],[38.824,-3.06],[38.819,-3.062],[38.804,-3.067],[38.799,-3.068],[38.797,-3.067],[38.794,-3.066],[38.794,-3.063],[38.795,-3.058],[38.797,-3.05],[38.796,-3.046],[38.792,-3.043],[38.744,-3.039],[38.714,-3.027],[38.709,-3.026],[38.703,-3.025],[38.697,-3.025],[38.667,-3.03],[38.662,-3.03],[38.657,-3.029],[38.652,-3.027],[38.636,-3.015],[38.626,-3.012],[38.615,-3.009],[38.61,-3.007],[38.607,-3.005],[38.604,-3.002],[38.6,-2.997],[38.597,-2.994],[38.589,-2.988],[38.585,-2.986],[38.57,-2.98],[38.553,-2.97],[38.544,-2.966],[38.539,-2.964],[38.528,-2.961],[38.523,-2.961],[38.517,-2.961],[38.512,-2.965],[38.508,-2.968],[38.504,-2.971],[38.501,-2.971],[38.486,-2.97],[38.474,-2.971],[38.463,-2.973],[38.457,-2.976],[38.455,-2.978],[38.449,-2.986],[38.447,-2.987],[38.444,-2.985],[38.438,-2.978],[38.425,-2.963],[38.411,-2.951],[38.407,-2.948],[38.364,-2.931],[38.359,-2.928],[38.352,-2.922],[38.349,-2.918],[38.347,-2.914],[38.342,-2.898],[38.322,-2.857],[38.278,-2.791],[38.26,-2.775],[38.256,-2.772],[38.242,-2.766],[38.237,-2.765],[38.203,-2.75],[38.173,-2.727],[38.169,-2.724],[38.151,-2.7],[38.148,-2.697],[38.144,-2.694],[38.14,-2.692],[38.135,-2.69],[38.129,-2.692],[38.122,-2.696],[38.114,-2.707],[38.089,-2.723],[37.968,-2.78],[37.944,-2.788],[37.918,-2.78],[37.907,-2.728],[37.897,-2.704],[37.6,-2.362],[37.596,-2.355],[37.593,-2.344],[37.594,-2.337],[37.596,-2.332],[37.602,-2.325],[37.613,-2.315],[37.617,-2.312],[37.621,-2.31],[37.626,-2.308],[37.643,-2.304],[37.648,-2.302],[37.652,-2.299],[37.656,-2.296],[37.661,-2.287],[37.663,-2.282],[37.672,-2.23],[37.673,-2.225],[37.676,-2.221],[37.679,-2.217],[37.682,-2.213],[37.686,-2.211],[37.691,-2.208],[37.699,-2.204],[37.717,-2.2],[37.721,-2.199],[37.719,-2.194],[37.713,-2.186],[37.69,-2.172],[37.675,-2.165],[37.661,-2.163],[37.654,-2.163],[37.642,-2.165],[37.629,-2.166],[37.623,-2.165],[37.593,-2.155],[37.531,-2.106],[37.525,-2.102],[37.504,-2.097],[37.499,-2.094],[37.477,-2.08],[37.458,-2.064],[37.431,-2.046],[37.375,-2.018],[37.347,-2.008],[37.298,-2],[37.255,-1.957],[37.235,-1.942],[37.22,-1.934],[37.198,-1.927],[37.188,-1.919],[37.179,-1.907],[37.168,-1.885],[37.163,-1.869],[37.162,-1.864],[37.15,-1.838],[37.149,-1.826],[37.149,-1.815],[37.158,-1.78],[37.144,-1.758],[36.997,-1.583],[36.973,-1.541],[36.966,-1.524],[36.963,-1.513],[36.964,-1.508],[36.965,-1.505],[36.974,-1.484],[36.98,-1.461],[36.976,-1.454],[36.967,-1.451],[36.941,-1.445],[36.928,-1.445],[36.919,-1.446],[36.886,-1.461],[36.881,-1.463],[36.875,-1.463],[36.869,-1.461],[36.864,-1.454],[36.862,-1.448],[36.87,-1.413],[36.897,-1.417],[36.907,-1.413],[36.914,-1.403],[36.922,-1.395],[36.924,-1.391],[36.925,-1.387],[36.91,-1.368],[36.908,-1.363],[36.909,-1.359],[36.911,-1.357],[36.956,-1.326],[36.961,-1.319],[36.964,-1.312],[36.965,-1.296],[36.969,-1.292],[36.974,-1.29],[36.98,-1.29],[36.99,-1.293],[37.002,-1.293],[37.053,-1.303],[37.062,-1.303],[37.067,-1.302],[37.07,-1.299],[37.089,-1.279],[37.101,-1.269],[37.106,-1.262],[37.132,-1.237],[37.145,-1.223],[37.166,-1.181],[37.177,-1.148],[37.177,-1.14],[37.174,-1.126],[37.173,-1.113],[37.176,-1.105],[37.18,-1.099],[37.187,-1.092],[37.206,-1.08],[37.21,-1.078],[37.216,-1.077],[37.222,-1.077],[37.227,-1.078],[37.239,-1.079],[37.249,-1.077],[37.255,-1.074],[37.264,-1.07],[37.269,-1.068],[37.28,-1.066],[37.285,-1.066],[37.29,-1.067],[37.321,-1.089],[37.323,-1.09],[37.326,-1.088],[37.337,-1.077],[37.364,-1.039],[37.364,-1.019],[37.368,-0.997],[37.372,-0.987],[37.374,-0.98],[37.374,-0.973],[37.372,-0.968],[37.369,-0.964],[37.365,-0.962],[37.361,-0.962],[37.357,-0.964],[37.34,-0.974],[37.335,-0.976],[37.33,-0.978],[37.325,-0.979],[37.319,-0.978],[37.314,-0.976],[37.311,-0.973],[37.308,-0.969],[37.299,-0.951],[37.288,-0.913],[37.286,-0.908],[37.283,-0.904],[37.28,-0.9],[37.243,-0.87],[37.241,-0.862],[37.241,-0.852],[37.25,-0.78],[37.253,-0.771],[37.256,-0.765],[37.258,-0.763],[37.267,-0.76],[37.271,-0.758],[37.276,-0.757],[37.279,-0.757],[37.284,-0.758],[37.288,-0.76],[37.296,-0.766],[37.31,-0.78],[37.33,-0.794],[37.334,-0.796],[37.34,-0.797],[37.348,-0.796],[37.48,-0.747],[37.491,-0.74],[37.492,-0.736],[37.491,-0.732],[37.488,-0.728],[37.485,-0.724],[37.481,-0.708],[37.478,-0.696],[37.476,-0.624],[37.477,-0.616],[37.477,-0.59],[37.469,-0.576],[37.437,-0.538],[37.434,-0.529],[37.432,-0.52],[37.433,-0.443],[37.429,-0.427],[37.324,-0.17],[37.317,-0.159],[37.11,-0.004],[37.086,0.019],[37.116,0.034],[37.212,0.068],[37.247,0.092],[37.255,0.098],[37.358,0.205],[37.361,0.211],[37.362,0.216],[37.365,0.26],[37.367,0.265],[37.369,0.272],[37.374,0.279],[37.387,0.296],[37.391,0.302],[37.394,0.313],[37.396,0.337],[37.395,0.344],[37.394,0.349],[37.382,0.379],[37.38,0.384],[37.368,0.399],[37.365,0.403],[37.36,0.412],[37.352,0.432],[37.35,0.443],[37.351,0.494],[37.35,0.507],[37.349,0.513],[37.346,0.519],[37.341,0.525],[37.331,0.528],[36.879,0.586],[36.867,0.59],[36.863,0.593],[36.861,0.598],[36.862,0.603],[36.863,0.609],[36.865,0.613],[36.881,0.625],[36.887,0.632],[36.89,0.637],[36.899,0.648],[36.902,0.652],[36.904,0.663],[36.906,0.668],[36.909,0.672],[36.916,0.679],[36.919,0.683],[36.92,0.689],[36.92,0.697],[36.918,0.719],[36.919,0.733],[36.923,0.752],[36.927,0.757],[36.932,0.76],[36.937,0.76],[36.949,0.758],[36.955,0.757],[36.961,0.757],[37.036,0.773],[37.058,0.78],[37.065,0.783],[37.074,0.789],[37.079,0.791],[37.085,0.792],[37.096,0.793],[37.105,0.793],[37.11,0.792],[37.114,0.79],[37.127,0.782],[37.131,0.78],[37.141,0.776],[37.159,0.774],[37.162,0.771],[37.167,0.765],[37.173,0.76],[37.177,0.758],[37.181,0.755],[37.186,0.754],[37.197,0.753],[37.209,0.752],[37.214,0.753],[37.219,0.756],[37.23,0.766],[37.234,0.769],[37.239,0.77],[37.244,0.771],[37.249,0.77],[37.253,0.768],[37.257,0.765],[37.271,0.751],[37.287,0.74],[37.291,0.737],[37.294,0.733],[37.325,0.688],[37.334,0.67],[37.343,0.658],[37.348,0.649],[37.35,0.644],[37.353,0.626],[37.354,0.621],[37.358,0.617],[37.365,0.611],[37.371,0.603],[37.377,0.596],[37.381,0.593],[37.391,0.589],[37.401,0.586],[37.407,0.586],[37.447,0.594],[37.462,0.599],[37.467,0.601],[37.473,0.601],[37.478,0.601],[37.483,0.599],[37.491,0.594],[37.501,0.587],[37.504,0.585],[37.512,0.581],[37.519,0.581],[37.526,0.581],[37.544,0.587],[37.551,0.587],[37.555,0.585],[37.567,0.577],[37.571,0.578],[37.574,0.581],[37.579,0.59],[37.584,0.594],[37.59,0.597],[37.609,0.605],[37.623,0.616],[37.644,0.635],[37.65,0.639],[37.663,0.646],[37.674,0.653],[37.681,0.659],[37.687,0.668],[37.692,0.672],[37.698,0.673],[37.703,0.671],[37.707,0.669],[37.714,0.668],[37.722,0.67],[37.746,0.683],[37.754,0.686],[37.76,0.687],[37.772,0.686],[37.784,0.684],[37.79,0.684],[37.796,0.685],[37.82,0.692],[37.829,0.696],[37.834,0.7],[37.838,0.706],[37.846,0.721],[37.85,0.725],[37.856,0.73],[37.875,0.741],[37.882,0.742],[37.889,0.742],[37.897,0.737],[37.901,0.735],[37.907,0.733],[37.914,0.734],[37.953,0.756],[37.969,0.769],[37.986,0.787],[37.993,0.795],[37.997,0.799],[38.001,0.801],[38.009,0.803],[38.015,0.803],[38.02,0.802],[38.035,0.796],[38.051,0.792],[38.056,0.791],[38.057,0.795],[38.036,1.137],[38.031,1.153],[38.02,1.168],[37.959,1.239],[37.947,1.256],[37.943,1.273],[37.932,1.408],[37.927,1.424],[37.915,1.438],[37.861,1.489],[37.853,1.498],[37.851,1.5],[37.849,1.5],[37.846,1.501],[37.842,1.501],[37.838,1.501],[37.836,1.5],[37.831,1.498],[37.824,1.493],[37.81,1.48],[37.806,1.477],[37.801,1.475],[37.796,1.474],[37.79,1.473],[37.773,1.476],[37.767,1.476],[37.761,1.475],[37.756,1.474],[37.752,1.472],[37.736,1.462],[37.718,1.453],[37.713,1.451],[37.701,1.45],[37.684,1.453],[37.679,1.452],[37.674,1.451],[37.665,1.446],[37.662,1.443],[37.653,1.438],[37.648,1.436],[37.638,1.433],[37.609,1.429],[37.598,1.426],[37.584,1.42],[37.579,1.419],[37.574,1.418],[37.568,1.418],[37.562,1.419],[37.557,1.421],[37.553,1.423],[37.549,1.427],[37.546,1.431],[37.479,1.591],[37.468,1.607],[37.461,1.614],[37.419,1.647],[37.393,1.675],[37.388,1.684],[37.385,1.694],[37.375,1.762],[37.373,1.768],[37.371,1.773],[37.368,1.776],[37.364,1.778],[37.324,1.799],[37.312,1.808],[37.305,1.815],[37.303,1.82],[37.286,1.864],[37.262,1.907],[37.251,1.922],[37.244,1.929],[37.229,1.941],[37.215,1.95],[37.201,1.961],[37.197,1.965],[37.195,1.969],[37.193,1.974],[37.189,1.983],[37.187,1.988],[37.175,2.001],[37.17,2.004],[37.152,2.013],[37.141,2.016],[37.042,2.024],[36.995,2.024],[36.967,2.02],[36.961,2.021],[36.957,2.022],[36.956,2.026],[36.959,2.053],[36.951,2.086],[36.907,2.201],[36.902,2.213],[36.893,2.226],[36.835,2.277],[36.827,2.29],[36.746,2.519],[36.74,2.532],[36.733,2.539],[36.72,2.542],[36.708,2.542],[36.697,2.538],[36.708,2.508],[36.703,2.486],[36.691,2.467],[36.636,2.409],[36.628,2.405],[36.622,2.403],[36.597,2.407],[36.594,2.408],[36.582,2.407],[36.572,2.405],[36.565,2.401],[36.558,2.395],[36.532,2.423],[36.526,2.464],[36.526,2.51],[36.518,2.552],[36.495,2.591],[36.477,2.612],[36.444,2.631],[36.437,2.654],[36.437,2.724],[36.436,2.73],[36.431,2.741],[36.418,2.764],[36.411,2.791],[36.4,2.814],[36.381,2.846],[36.358,2.866],[36.303,2.902],[36.261,2.938],[36.258,2.943],[36.252,2.973],[36.248,2.981],[36.24,2.982],[36.223,2.967],[36.213,2.963],[36.203,2.966],[36.19,2.979],[36.182,2.984],[36.142,2.982],[36.127,2.988],[36.121,3.008],[36.148,3.117],[36.148,3.128],[36.145,3.14],[36.136,3.161],[36.135,3.172],[36.137,3.182],[36.146,3.203],[36.148,3.213],[36.143,3.22],[36.131,3.22],[36.107,3.216],[36.072,3.231],[36.065,3.235],[36.06,3.239],[36.053,3.243],[36.045,3.268],[36.045,4.444],[36.191,4.445],[36.226,4.45],[36.236,4.45]]]}},{"type":"Feature","id":"KE-500","properties":{"id":"KE-500","countryCode":"KE","isoSubdivision":"KE-500","name":"North Eastern","name_en":"North Eastern","name_ko":"북동부","type":"Province","labelLongitude":40.275,"labelLatitude":1.015,"minZoom":6.6},"geometry":{"type":"Polygon","coordinates":[[[40.764,4.285],[40.786,4.256],[40.846,4.215],[40.871,4.187],[40.887,4.156],[40.898,4.146],[40.916,4.137],[40.964,4.12],[40.98,4.111],[41.006,4.087],[41.07,3.997],[41.115,3.962],[41.163,3.943],[41.215,3.937],[41.317,3.942],[41.43,3.949],[41.48,3.963],[41.506,3.964],[41.586,3.984],[41.602,3.983],[41.629,3.972],[41.643,3.969],[41.657,3.973],[41.7,3.997],[41.747,3.981],[41.791,3.958],[41.836,3.949],[41.885,3.977],[41.801,3.857],[41.717,3.737],[41.634,3.617],[41.55,3.497],[41.498,3.423],[41.446,3.349],[41.395,3.275],[41.343,3.201],[41.261,3.12],[41.178,3.038],[41.096,2.957],[41.014,2.876],[40.98,2.842],[40.965,2.814],[40.966,2.761],[40.967,2.632],[40.968,2.497],[40.968,2.423],[40.968,2.317],[40.968,2.21],[40.968,2.104],[40.968,1.997],[40.968,1.872],[40.968,1.747],[40.968,1.622],[40.968,1.497],[40.968,1.372],[40.968,1.247],[40.968,1.23],[40.968,1.122],[40.968,0.997],[40.968,0.872],[40.968,0.747],[40.968,0.622],[40.968,0.497],[40.968,0.372],[40.968,0.247],[40.968,0.122],[40.968,-0.003],[40.97,-0.085],[40.97,-0.152],[40.971,-0.22],[40.973,-0.328],[40.974,-0.437],[40.976,-0.545],[40.977,-0.654],[40.978,-0.724],[40.979,-0.795],[40.98,-0.871],[41.005,-0.904],[41.031,-0.937],[41.056,-0.97],[41.082,-1.003],[41.131,-1.066],[41.182,-1.133],[41.237,-1.204],[41.283,-1.263],[41.332,-1.326],[41.384,-1.393],[41.434,-1.458],[41.485,-1.523],[41.523,-1.573],[41.535,-1.595],[41.539,-1.614],[41.536,-1.676],[41.003,-1.71],[40.997,-1.711],[40.223,-2.057],[40.168,-2.078],[40.164,-2.059],[40.164,-2.053],[40.168,-2.043],[40.164,-2.028],[40.15,-1.998],[40.137,-1.943],[40.129,-1.929],[40.133,-1.926],[40.14,-1.918],[40.144,-1.915],[40.137,-1.901],[40.129,-1.854],[40.125,-1.847],[40.114,-1.835],[40.109,-1.826],[40.109,-1.818],[40.114,-1.808],[40.116,-1.799],[40.109,-1.755],[40.109,-1.738],[40.112,-1.735],[40.116,-1.731],[40.12,-1.726],[40.123,-1.717],[40.122,-1.717],[40.116,-1.69],[40.113,-1.626],[40.106,-1.611],[40.092,-1.598],[40.084,-1.586],[40.043,-1.5],[40.037,-1.491],[40.033,-1.48],[40.027,-1.416],[40.017,-1.381],[40.01,-1.342],[40.006,-1.258],[39.994,-1.219],[39.972,-1.193],[39.968,-1.172],[39.956,-1.151],[39.939,-1.137],[39.917,-1.135],[39.925,-1.117],[39.93,-1.108],[39.937,-1.101],[39.923,-1.086],[39.888,-1.015],[39.881,-0.987],[39.875,-0.97],[39.862,-0.949],[39.863,-0.929],[39.862,-0.922],[39.847,-0.877],[39.842,-0.867],[39.846,-0.86],[39.847,-0.854],[39.849,-0.839],[39.842,-0.839],[39.834,-0.84],[39.831,-0.83],[39.828,-0.799],[39.815,-0.766],[39.813,-0.751],[39.821,-0.737],[39.812,-0.727],[39.811,-0.711],[39.813,-0.696],[39.812,-0.69],[39.781,-0.645],[39.779,-0.627],[39.774,-0.612],[39.765,-0.602],[39.753,-0.593],[39.737,-0.586],[39.71,-0.584],[39.699,-0.579],[39.695,-0.573],[39.67,-0.543],[39.664,-0.542],[39.663,-0.527],[39.659,-0.515],[39.652,-0.508],[39.64,-0.505],[39.633,-0.49],[39.594,-0.346],[39.581,-0.322],[39.564,-0.312],[39.561,-0.308],[39.551,-0.29],[39.547,-0.285],[39.538,-0.282],[39.523,-0.284],[39.512,-0.278],[39.501,-0.25],[39.496,-0.242],[39.481,-0.232],[39.472,-0.216],[39.459,-0.205],[39.443,-0.195],[39.43,-0.189],[39.395,-0.181],[39.389,-0.179],[39.386,-0.173],[39.38,-0.168],[39.373,-0.164],[39.343,-0.159],[39.332,-0.151],[39.323,-0.142],[39.307,-0.134],[39.285,-0.133],[39.266,-0.137],[39.247,-0.139],[39.229,-0.131],[39.143,-0.127],[39.09,-0.062],[39.078,-0.052],[39.073,-0.05],[39.07,-0.045],[39.065,-0.04],[39.057,-0.038],[39.026,-0.038],[38.995,-0.044],[38.979,-0.049],[38.968,-0.055],[38.96,-0.066],[38.954,-0.079],[38.946,-0.089],[38.934,-0.093],[38.746,-0.065],[38.737,0.142],[38.738,0.149],[38.746,0.163],[38.749,0.17],[38.75,0.177],[38.747,0.215],[38.693,0.447],[38.691,0.451],[38.689,0.453],[38.67,0.466],[38.667,0.47],[38.665,0.475],[38.666,0.48],[38.67,0.487],[38.674,0.491],[38.677,0.493],[38.695,0.503],[38.699,0.504],[38.704,0.506],[38.766,0.514],[38.771,0.515],[38.776,0.517],[38.779,0.521],[38.783,0.524],[38.796,0.545],[38.809,0.573],[38.811,0.576],[38.815,0.58],[38.819,0.582],[38.826,0.586],[39.159,0.711],[39.163,0.715],[39.165,0.72],[39.168,0.735],[39.171,0.743],[39.182,0.765],[39.21,0.805],[39.223,0.82],[39.246,0.838],[39.257,0.848],[39.269,0.863],[39.302,0.919],[39.305,0.923],[39.308,0.926],[39.426,0.972],[39.438,0.977],[39.446,0.984],[39.447,0.992],[39.445,0.999],[39.279,1.442],[39.278,1.453],[39.283,1.459],[39.294,1.465],[39.451,1.528],[39.452,1.531],[39.451,1.533],[39.447,1.535],[39.429,1.544],[39.425,1.547],[39.422,1.551],[39.415,1.557],[39.411,1.56],[39.401,1.563],[39.396,1.565],[39.392,1.568],[39.37,1.594],[39.365,1.603],[39.363,1.608],[39.36,1.612],[39.355,1.62],[39.348,1.628],[39.341,1.634],[39.28,1.669],[39.272,1.675],[39.259,1.688],[39.255,1.691],[39.24,1.698],[39.216,1.707],[39.211,1.709],[39.207,1.712],[39.193,1.726],[39.19,1.73],[39.188,1.734],[39.186,1.738],[39.175,1.783],[39.166,1.802],[39.16,1.81],[39.15,1.821],[39.147,1.825],[39.144,1.829],[39.136,1.848],[39.125,1.865],[39.122,1.869],[39.107,1.882],[39.075,1.904],[39.068,1.911],[39.026,1.974],[38.996,2.033],[38.982,2.075],[38.977,2.084],[38.97,2.091],[38.967,2.094],[38.963,2.097],[38.96,2.101],[38.955,2.117],[38.953,2.121],[38.95,2.125],[38.943,2.133],[38.942,2.143],[38.942,2.158],[38.945,2.19],[38.944,2.215],[38.942,2.22],[38.937,2.256],[38.935,2.261],[38.931,2.272],[38.919,2.333],[38.916,2.388],[38.902,2.45],[38.888,2.478],[38.883,2.494],[38.88,2.5],[38.88,2.504],[38.882,2.508],[38.882,2.514],[38.885,2.52],[38.897,2.526],[38.95,2.543],[38.971,2.574],[39.095,2.852],[39.102,2.856],[39.106,2.861],[39.109,2.881],[39.109,2.895],[39.11,2.902],[39.113,2.909],[39.12,2.918],[39.126,2.923],[39.131,2.926],[39.14,2.931],[39.167,2.937],[39.176,2.941],[39.181,2.944],[39.184,2.947],[39.199,2.963],[39.207,2.969],[39.216,2.973],[39.267,2.99],[39.275,2.995],[39.282,3.001],[39.293,3.018],[39.298,3.023],[39.32,3.039],[39.323,3.042],[39.326,3.052],[39.328,3.068],[39.327,3.2],[39.32,3.256],[39.31,3.291],[39.296,3.476],[39.296,3.492],[39.303,3.496],[39.316,3.495],[39.321,3.485],[39.311,3.466],[39.436,3.462],[39.467,3.452],[39.476,3.441],[39.481,3.427],[39.488,3.414],[39.504,3.403],[39.536,3.405],[39.553,3.431],[39.575,3.498],[39.601,3.529],[39.666,3.589],[39.745,3.661],[39.764,3.686],[39.781,3.717],[39.809,3.79],[39.828,3.843],[39.848,3.867],[39.934,3.909],[40.02,3.95],[40.117,3.997],[40.162,4.019],[40.167,4.025],[40.166,4.031],[40.167,4.035],[40.177,4.035],[40.18,4.033],[40.183,4.032],[40.186,4.032],[40.287,4.067],[40.366,4.095],[40.371,4.1],[40.377,4.116],[40.383,4.121],[40.512,4.171],[40.618,4.212],[40.701,4.244],[40.764,4.285]]]}},{"type":"Feature","id":"KE-600","properties":{"id":"KE-600","countryCode":"KE","isoSubdivision":"KE-600","name":"Nyanza","name_en":"Nyanza","name_ko":"니안자","type":"Province","labelLongitude":34.424,"labelLatitude":-0.511,"minZoom":6.6},"geometry":{"type":"Polygon","coordinates":[[[34.719,-1.412],[34.557,-1.322],[34.342,-1.202],[34.127,-1.082],[34.053,-1.04],[34.015,-1.038],[34.002,-1.029],[34,-1.003],[33.985,-1.002],[33.98,-1.003],[33.904,-1.003],[33.899,-0.799],[33.895,-0.663],[33.911,-0.519],[33.935,-0.313],[33.954,-0.154],[33.952,-0.116],[34,0.002],[34.003,0.009],[34.018,0.034],[34.02,0.039],[34.021,0.044],[34.021,0.05],[34.019,0.068],[34.019,0.074],[34.02,0.079],[34.021,0.084],[34.024,0.088],[34.026,0.09],[34.036,0.099],[34.048,0.108],[34.057,0.112],[34.076,0.119],[34.078,0.121],[34.08,0.124],[34.083,0.132],[34.083,0.136],[34.084,0.169],[34.088,0.191],[34.092,0.207],[34.094,0.211],[34.096,0.214],[34.113,0.233],[34.143,0.251],[34.15,0.253],[34.159,0.253],[34.177,0.252],[34.186,0.253],[34.192,0.255],[34.196,0.259],[34.199,0.263],[34.202,0.267],[34.209,0.286],[34.211,0.29],[34.214,0.293],[34.216,0.295],[34.223,0.3],[34.228,0.302],[34.233,0.304],[34.239,0.305],[34.246,0.305],[34.254,0.305],[34.308,0.295],[34.32,0.293],[34.326,0.294],[34.331,0.296],[34.339,0.301],[34.349,0.305],[34.354,0.307],[34.362,0.306],[34.37,0.302],[34.388,0.283],[34.392,0.278],[34.395,0.268],[34.398,0.25],[34.399,0.23],[34.4,0.225],[34.402,0.22],[34.404,0.215],[34.459,0.16],[34.461,0.156],[34.461,0.151],[34.458,0.135],[34.461,0.129],[34.468,0.122],[34.487,0.115],[34.513,0.098],[34.518,0.094],[34.52,0.089],[34.521,0.084],[34.521,0.079],[34.519,0.067],[34.518,0.037],[34.515,0.027],[34.51,0.018],[34.508,0.013],[34.506,0.004],[34.505,0],[34.506,-0.004],[34.508,-0.008],[34.511,-0.012],[34.515,-0.016],[34.522,-0.02],[34.529,-0.021],[34.537,-0.02],[34.55,-0.016],[34.577,-0.005],[34.593,-0.001],[34.599,-0.001],[34.622,-0.007],[34.646,-0.019],[34.653,-0.02],[34.661,-0.019],[34.684,-0.011],[34.692,-0.009],[34.7,-0.008],[34.72,-0.013],[34.735,-0.014],[34.759,-0.007],[34.766,-0.007],[34.771,-0.007],[34.776,-0.008],[34.781,-0.01],[34.785,-0.013],[34.8,-0.027],[34.807,-0.033],[34.812,-0.035],[34.816,-0.037],[34.827,-0.039],[34.84,-0.039],[34.859,-0.037],[34.886,-0.037],[34.933,-0.042],[34.939,-0.042],[34.951,-0.039],[34.955,-0.037],[34.968,-0.029],[34.973,-0.027],[34.979,-0.026],[34.985,-0.025],[34.991,-0.026],[34.996,-0.028],[35,-0.03],[35.01,-0.041],[35.013,-0.043],[35.018,-0.044],[35.022,-0.044],[35.027,-0.046],[35.038,-0.055],[35.042,-0.057],[35.047,-0.059],[35.052,-0.06],[35.058,-0.059],[35.068,-0.055],[35.073,-0.053],[35.077,-0.05],[35.08,-0.047],[35.087,-0.032],[35.089,-0.028],[35.092,-0.024],[35.096,-0.022],[35.101,-0.02],[35.107,-0.019],[35.113,-0.019],[35.124,-0.022],[35.139,-0.027],[35.156,-0.038],[35.16,-0.04],[35.165,-0.042],[35.171,-0.042],[35.176,-0.041],[35.181,-0.039],[35.189,-0.034],[35.193,-0.032],[35.196,-0.031],[35.2,-0.032],[35.205,-0.033],[35.209,-0.035],[35.213,-0.037],[35.22,-0.045],[35.222,-0.049],[35.226,-0.06],[35.23,-0.09],[35.234,-0.093],[35.237,-0.096],[35.242,-0.099],[35.261,-0.107],[35.265,-0.111],[35.268,-0.116],[35.268,-0.129],[35.27,-0.135],[35.272,-0.14],[35.318,-0.176],[35.321,-0.18],[35.324,-0.184],[35.326,-0.189],[35.327,-0.198],[35.326,-0.204],[35.321,-0.237],[35.319,-0.242],[35.315,-0.247],[35.307,-0.249],[35.3,-0.25],[35.294,-0.249],[35.288,-0.248],[35.283,-0.246],[35.279,-0.244],[35.275,-0.241],[35.268,-0.235],[35.265,-0.231],[35.262,-0.226],[35.259,-0.216],[35.257,-0.211],[35.253,-0.208],[35.248,-0.207],[35.236,-0.206],[35.23,-0.204],[35.226,-0.201],[35.223,-0.198],[35.22,-0.194],[35.214,-0.179],[35.211,-0.175],[35.207,-0.172],[35.203,-0.17],[35.198,-0.169],[35.193,-0.17],[35.184,-0.175],[35.179,-0.176],[35.174,-0.176],[35.169,-0.175],[35.164,-0.172],[35.153,-0.163],[35.142,-0.154],[35.138,-0.151],[35.135,-0.147],[35.128,-0.134],[35.124,-0.13],[35.121,-0.128],[35.115,-0.131],[35.108,-0.141],[35.085,-0.185],[35.075,-0.196],[35.071,-0.198],[35.061,-0.202],[35.056,-0.205],[35.052,-0.208],[35.049,-0.212],[35.047,-0.218],[35.045,-0.225],[35.044,-0.27],[35.041,-0.287],[35.041,-0.293],[35.04,-0.299],[35.038,-0.306],[35.029,-0.319],[35.025,-0.323],[35.014,-0.332],[35.01,-0.336],[35.001,-0.348],[35,-0.35],[34.999,-0.361],[34.999,-0.371],[35,-0.377],[35.001,-0.381],[35.008,-0.396],[35.011,-0.406],[35.013,-0.411],[35.029,-0.435],[35.031,-0.44],[35.032,-0.446],[35.028,-0.48],[35.028,-0.485],[35.031,-0.499],[35.031,-0.501],[35.033,-0.504],[35.04,-0.516],[35.042,-0.52],[35.042,-0.524],[35.054,-0.632],[35.053,-0.66],[35.046,-0.676],[35.046,-0.689],[35.049,-0.7],[35.069,-0.756],[35.072,-0.769],[35.072,-0.781],[35.065,-0.79],[35.053,-0.799],[35.04,-0.807],[35.027,-0.817],[35.016,-0.828],[35.004,-0.858],[34.999,-0.877],[34.994,-0.886],[34.987,-0.89],[34.976,-0.895],[34.708,-0.971],[34.701,-0.972],[34.664,-0.969],[34.658,-0.968],[34.654,-0.966],[34.649,-0.964],[34.644,-0.963],[34.639,-0.964],[34.634,-0.966],[34.614,-0.98],[34.596,-0.989],[34.579,-1.002],[34.576,-1.005],[34.573,-1.01],[34.572,-1.019],[34.575,-1.029],[34.592,-1.059],[34.595,-1.065],[34.596,-1.076],[34.599,-1.086],[34.604,-1.098],[34.618,-1.117],[34.63,-1.165],[34.635,-1.172],[34.659,-1.189],[34.673,-1.215],[34.68,-1.232],[34.717,-1.399],[34.719,-1.412]]]}},{"type":"Feature","id":"KE-700","properties":{"id":"KE-700","countryCode":"KE","isoSubdivision":"KE-700","name":"Rift Valley","name_en":"Rift Valley","name_ko":"리프트밸리","type":"Province","labelLongitude":36.017,"labelLatitude":1.157,"minZoom":6.6},"geometry":{"type":"Polygon","coordinates":[[[35.739,4.681],[35.778,4.678],[35.781,4.62],[35.857,4.62],[35.921,4.619],[35.923,4.602],[35.936,4.579],[35.937,4.559],[35.934,4.539],[35.934,4.522],[35.94,4.508],[35.958,4.497],[35.997,4.463],[36.018,4.449],[36.041,4.444],[36.045,4.444],[36.045,3.268],[36.053,3.243],[36.06,3.239],[36.065,3.235],[36.072,3.231],[36.107,3.216],[36.131,3.22],[36.143,3.22],[36.148,3.213],[36.146,3.203],[36.137,3.182],[36.135,3.172],[36.136,3.161],[36.145,3.14],[36.148,3.128],[36.148,3.117],[36.121,3.008],[36.127,2.988],[36.142,2.982],[36.182,2.984],[36.19,2.979],[36.203,2.966],[36.213,2.963],[36.223,2.967],[36.24,2.982],[36.248,2.981],[36.252,2.973],[36.258,2.943],[36.261,2.938],[36.303,2.902],[36.358,2.866],[36.381,2.846],[36.4,2.814],[36.411,2.791],[36.418,2.764],[36.431,2.741],[36.436,2.73],[36.437,2.724],[36.437,2.654],[36.444,2.631],[36.477,2.612],[36.495,2.591],[36.518,2.552],[36.526,2.51],[36.526,2.464],[36.532,2.423],[36.558,2.395],[36.565,2.401],[36.572,2.405],[36.582,2.407],[36.594,2.408],[36.597,2.407],[36.622,2.403],[36.628,2.405],[36.636,2.409],[36.691,2.467],[36.703,2.486],[36.708,2.508],[36.697,2.538],[36.708,2.542],[36.72,2.542],[36.733,2.539],[36.74,2.532],[36.746,2.519],[36.827,2.29],[36.835,2.277],[36.893,2.226],[36.902,2.213],[36.907,2.201],[36.951,2.086],[36.959,2.053],[36.956,2.026],[36.957,2.022],[36.961,2.021],[36.967,2.02],[36.995,2.024],[37.042,2.024],[37.141,2.016],[37.152,2.013],[37.17,2.004],[37.175,2.001],[37.187,1.988],[37.189,1.983],[37.193,1.974],[37.195,1.969],[37.197,1.965],[37.201,1.961],[37.215,1.95],[37.229,1.941],[37.244,1.929],[37.251,1.922],[37.262,1.907],[37.286,1.864],[37.303,1.82],[37.305,1.815],[37.312,1.808],[37.324,1.799],[37.364,1.778],[37.368,1.776],[37.371,1.773],[37.373,1.768],[37.375,1.762],[37.385,1.694],[37.388,1.684],[37.393,1.675],[37.419,1.647],[37.461,1.614],[37.468,1.607],[37.479,1.591],[37.546,1.431],[37.549,1.427],[37.553,1.423],[37.557,1.421],[37.562,1.419],[37.568,1.418],[37.574,1.418],[37.579,1.419],[37.584,1.42],[37.598,1.426],[37.609,1.429],[37.638,1.433],[37.648,1.436],[37.653,1.438],[37.662,1.443],[37.665,1.446],[37.674,1.451],[37.679,1.452],[37.684,1.453],[37.701,1.45],[37.713,1.451],[37.718,1.453],[37.736,1.462],[37.752,1.472],[37.756,1.474],[37.761,1.475],[37.767,1.476],[37.773,1.476],[37.79,1.473],[37.796,1.474],[37.801,1.475],[37.806,1.477],[37.81,1.48],[37.824,1.493],[37.831,1.498],[37.836,1.5],[37.838,1.501],[37.842,1.501],[37.846,1.501],[37.849,1.5],[37.851,1.5],[37.853,1.498],[37.861,1.489],[37.915,1.438],[37.927,1.424],[37.932,1.408],[37.943,1.273],[37.947,1.256],[37.959,1.239],[38.02,1.168],[38.031,1.153],[38.036,1.137],[38.057,0.795],[38.056,0.791],[38.051,0.792],[38.035,0.796],[38.02,0.802],[38.015,0.803],[38.009,0.803],[38.001,0.801],[37.997,0.799],[37.993,0.795],[37.986,0.787],[37.969,0.769],[37.953,0.756],[37.914,0.734],[37.907,0.733],[37.901,0.735],[37.897,0.737],[37.889,0.742],[37.882,0.742],[37.875,0.741],[37.856,0.73],[37.85,0.725],[37.846,0.721],[37.838,0.706],[37.834,0.7],[37.829,0.696],[37.82,0.692],[37.796,0.685],[37.79,0.684],[37.784,0.684],[37.772,0.686],[37.76,0.687],[37.754,0.686],[37.746,0.683],[37.722,0.67],[37.714,0.668],[37.707,0.669],[37.703,0.671],[37.698,0.673],[37.692,0.672],[37.687,0.668],[37.681,0.659],[37.674,0.653],[37.663,0.646],[37.65,0.639],[37.644,0.635],[37.623,0.616],[37.609,0.605],[37.59,0.597],[37.584,0.594],[37.579,0.59],[37.574,0.581],[37.571,0.578],[37.567,0.577],[37.555,0.585],[37.551,0.587],[37.544,0.587],[37.526,0.581],[37.519,0.581],[37.512,0.581],[37.504,0.585],[37.501,0.587],[37.491,0.594],[37.483,0.599],[37.478,0.601],[37.473,0.601],[37.467,0.601],[37.462,0.599],[37.447,0.594],[37.407,0.586],[37.401,0.586],[37.391,0.589],[37.381,0.593],[37.377,0.596],[37.371,0.603],[37.365,0.611],[37.358,0.617],[37.354,0.621],[37.353,0.626],[37.35,0.644],[37.348,0.649],[37.343,0.658],[37.334,0.67],[37.325,0.688],[37.294,0.733],[37.291,0.737],[37.287,0.74],[37.271,0.751],[37.257,0.765],[37.253,0.768],[37.249,0.77],[37.244,0.771],[37.239,0.77],[37.234,0.769],[37.23,0.766],[37.219,0.756],[37.214,0.753],[37.209,0.752],[37.197,0.753],[37.186,0.754],[37.181,0.755],[37.177,0.758],[37.173,0.76],[37.167,0.765],[37.162,0.771],[37.159,0.774],[37.141,0.776],[37.131,0.78],[37.127,0.782],[37.114,0.79],[37.11,0.792],[37.105,0.793],[37.096,0.793],[37.085,0.792],[37.079,0.791],[37.074,0.789],[37.065,0.783],[37.058,0.78],[37.036,0.773],[36.961,0.757],[36.955,0.757],[36.949,0.758],[36.937,0.76],[36.932,0.76],[36.927,0.757],[36.923,0.752],[36.919,0.733],[36.918,0.719],[36.92,0.697],[36.92,0.689],[36.919,0.683],[36.916,0.679],[36.909,0.672],[36.906,0.668],[36.904,0.663],[36.902,0.652],[36.899,0.648],[36.89,0.637],[36.887,0.632],[36.881,0.625],[36.865,0.613],[36.863,0.609],[36.862,0.603],[36.861,0.598],[36.863,0.593],[36.867,0.59],[36.879,0.586],[37.331,0.528],[37.341,0.525],[37.346,0.519],[37.349,0.513],[37.35,0.507],[37.351,0.494],[37.35,0.443],[37.352,0.432],[37.36,0.412],[37.365,0.403],[37.368,0.399],[37.38,0.384],[37.382,0.379],[37.394,0.349],[37.395,0.344],[37.396,0.337],[37.394,0.313],[37.391,0.302],[37.387,0.296],[37.374,0.279],[37.369,0.272],[37.367,0.265],[37.365,0.26],[37.362,0.216],[37.361,0.211],[37.358,0.205],[37.255,0.098],[37.247,0.092],[37.212,0.068],[37.116,0.034],[37.086,0.019],[37.051,-0.041],[37.039,-0.059],[37.012,-0.083],[37.007,-0.092],[37.004,-0.099],[37.004,-0.112],[37.006,-0.117],[37.008,-0.122],[37.031,-0.16],[37.033,-0.169],[37.029,-0.209],[37.026,-0.222],[37.023,-0.232],[37.021,-0.236],[37.017,-0.239],[37.001,-0.254],[36.993,-0.264],[36.989,-0.27],[36.977,-0.286],[36.969,-0.294],[36.963,-0.296],[36.957,-0.296],[36.952,-0.294],[36.939,-0.288],[36.935,-0.287],[36.931,-0.29],[36.926,-0.295],[36.921,-0.299],[36.915,-0.301],[36.911,-0.301],[36.908,-0.301],[36.904,-0.299],[36.892,-0.291],[36.881,-0.282],[36.841,-0.232],[36.839,-0.228],[36.834,-0.212],[36.833,-0.208],[36.836,-0.206],[36.844,-0.202],[36.847,-0.199],[36.85,-0.195],[36.852,-0.191],[36.854,-0.184],[36.858,-0.164],[36.858,-0.151],[36.86,-0.145],[36.859,-0.144],[36.855,-0.142],[36.808,-0.125],[36.799,-0.124],[36.787,-0.125],[36.715,-0.143],[36.668,-0.15],[36.651,-0.144],[36.605,-0.141],[36.588,-0.138],[36.575,-0.129],[36.544,-0.102],[36.542,-0.097],[36.54,-0.092],[36.538,-0.081],[36.537,-0.075],[36.538,-0.07],[36.54,-0.065],[36.543,-0.06],[36.548,-0.054],[36.556,-0.048],[36.644,0.005],[36.647,0.008],[36.648,0.011],[36.649,0.015],[36.647,0.019],[36.642,0.024],[36.636,0.024],[36.631,0.023],[36.617,0.015],[36.61,0.012],[36.6,0.008],[36.594,0.009],[36.589,0.011],[36.566,0.037],[36.559,0.04],[36.55,0.044],[36.53,0.05],[36.522,0.055],[36.517,0.061],[36.513,0.077],[36.511,0.082],[36.508,0.086],[36.483,0.111],[36.478,0.115],[36.471,0.118],[36.467,0.117],[36.463,0.114],[36.46,0.104],[36.458,0.099],[36.454,0.096],[36.402,0.064],[36.393,0.061],[36.376,0.059],[36.354,0.06],[36.342,0.059],[36.336,0.056],[36.334,0.052],[36.331,0.042],[36.329,0.038],[36.325,0.035],[36.284,0.019],[36.275,0.013],[36.261,0.001],[36.257,-0.009],[36.243,-0.05],[36.241,-0.054],[36.226,-0.078],[36.222,-0.098],[36.219,-0.105],[36.216,-0.117],[36.213,-0.141],[36.215,-0.192],[36.213,-0.203],[36.202,-0.232],[36.201,-0.238],[36.2,-0.245],[36.201,-0.257],[36.203,-0.269],[36.206,-0.28],[36.256,-0.388],[36.259,-0.39],[36.261,-0.392],[36.266,-0.394],[36.27,-0.395],[36.276,-0.396],[36.288,-0.394],[36.31,-0.389],[36.316,-0.388],[36.321,-0.388],[36.325,-0.39],[36.328,-0.394],[36.33,-0.399],[36.332,-0.403],[36.335,-0.406],[36.34,-0.406],[36.37,-0.4],[36.374,-0.4],[36.377,-0.401],[36.38,-0.405],[36.382,-0.41],[36.387,-0.426],[36.387,-0.431],[36.385,-0.445],[36.383,-0.454],[36.381,-0.469],[36.389,-0.517],[36.39,-0.543],[36.392,-0.555],[36.396,-0.565],[36.4,-0.581],[36.402,-0.585],[36.404,-0.586],[36.406,-0.586],[36.427,-0.582],[36.44,-0.581],[36.452,-0.581],[36.457,-0.582],[36.461,-0.585],[36.463,-0.59],[36.468,-0.599],[36.471,-0.602],[36.476,-0.605],[36.485,-0.609],[36.495,-0.612],[36.499,-0.613],[36.503,-0.614],[36.506,-0.615],[36.509,-0.62],[36.515,-0.65],[36.517,-0.669],[36.529,-0.725],[36.53,-0.733],[36.528,-0.743],[36.52,-0.769],[36.519,-0.777],[36.526,-0.819],[36.561,-0.914],[36.562,-0.918],[36.562,-0.924],[36.56,-0.941],[36.56,-0.948],[36.561,-0.953],[36.569,-0.975],[36.571,-0.979],[36.585,-0.997],[36.586,-0.999],[36.586,-1.001],[36.585,-1.004],[36.578,-1.029],[36.577,-1.047],[36.577,-1.054],[36.584,-1.083],[36.584,-1.091],[36.583,-1.102],[36.58,-1.108],[36.576,-1.111],[36.571,-1.113],[36.565,-1.114],[36.547,-1.114],[36.542,-1.115],[36.539,-1.119],[36.501,-1.231],[36.503,-1.245],[36.508,-1.252],[36.625,-1.269],[36.632,-1.271],[36.636,-1.274],[36.651,-1.285],[36.668,-1.294],[36.676,-1.298],[36.71,-1.32],[36.72,-1.331],[36.728,-1.345],[36.737,-1.358],[36.746,-1.366],[36.756,-1.373],[36.788,-1.386],[36.793,-1.387],[36.799,-1.388],[36.826,-1.386],[36.836,-1.388],[36.843,-1.391],[36.853,-1.398],[36.87,-1.413],[36.862,-1.448],[36.864,-1.454],[36.869,-1.461],[36.875,-1.463],[36.881,-1.463],[36.886,-1.461],[36.919,-1.446],[36.928,-1.445],[36.941,-1.445],[36.967,-1.451],[36.976,-1.454],[36.98,-1.461],[36.974,-1.484],[36.965,-1.505],[36.964,-1.508],[36.963,-1.513],[36.966,-1.524],[36.973,-1.541],[36.997,-1.583],[37.144,-1.758],[37.158,-1.78],[37.149,-1.815],[37.149,-1.826],[37.15,-1.838],[37.162,-1.864],[37.163,-1.869],[37.168,-1.885],[37.179,-1.907],[37.188,-1.919],[37.198,-1.927],[37.22,-1.934],[37.235,-1.942],[37.255,-1.957],[37.298,-2],[37.347,-2.008],[37.375,-2.018],[37.431,-2.046],[37.458,-2.064],[37.477,-2.08],[37.499,-2.094],[37.504,-2.097],[37.525,-2.102],[37.531,-2.106],[37.593,-2.155],[37.623,-2.165],[37.629,-2.166],[37.642,-2.165],[37.654,-2.163],[37.661,-2.163],[37.675,-2.165],[37.69,-2.172],[37.713,-2.186],[37.719,-2.194],[37.721,-2.199],[37.717,-2.2],[37.699,-2.204],[37.691,-2.208],[37.686,-2.211],[37.682,-2.213],[37.679,-2.217],[37.676,-2.221],[37.673,-2.225],[37.672,-2.23],[37.663,-2.282],[37.661,-2.287],[37.656,-2.296],[37.652,-2.299],[37.648,-2.302],[37.643,-2.304],[37.626,-2.308],[37.621,-2.31],[37.617,-2.312],[37.613,-2.315],[37.602,-2.325],[37.596,-2.332],[37.594,-2.337],[37.593,-2.344],[37.596,-2.355],[37.6,-2.362],[37.897,-2.704],[37.907,-2.728],[37.918,-2.78],[37.85,-3.01],[37.835,-3.153],[37.831,-3.165],[37.824,-3.174],[37.808,-3.175],[37.799,-3.175],[37.79,-3.174],[37.698,-3.187],[37.68,-3.192],[37.678,-3.179],[37.66,-3.071],[37.645,-3.046],[37.562,-3],[37.424,-2.923],[37.348,-2.88],[37.133,-2.76],[36.918,-2.64],[36.704,-2.52],[36.489,-2.401],[36.274,-2.281],[36.06,-2.161],[35.845,-2.041],[35.63,-1.921],[35.416,-1.801],[35.246,-1.707],[35.201,-1.681],[34.986,-1.562],[34.772,-1.442],[34.719,-1.412],[34.717,-1.399],[34.68,-1.232],[34.673,-1.215],[34.659,-1.189],[34.635,-1.172],[34.63,-1.165],[34.618,-1.117],[34.604,-1.098],[34.599,-1.086],[34.596,-1.076],[34.595,-1.065],[34.592,-1.059],[34.575,-1.029],[34.572,-1.019],[34.573,-1.01],[34.576,-1.005],[34.579,-1.002],[34.596,-0.989],[34.614,-0.98],[34.634,-0.966],[34.639,-0.964],[34.644,-0.963],[34.649,-0.964],[34.654,-0.966],[34.658,-0.968],[34.664,-0.969],[34.701,-0.972],[34.708,-0.971],[34.976,-0.895],[34.987,-0.89],[34.994,-0.886],[34.999,-0.877],[35.004,-0.858],[35.016,-0.828],[35.027,-0.817],[35.04,-0.807],[35.053,-0.799],[35.065,-0.79],[35.072,-0.781],[35.072,-0.769],[35.069,-0.756],[35.049,-0.7],[35.046,-0.689],[35.046,-0.676],[35.053,-0.66],[35.054,-0.632],[35.042,-0.524],[35.042,-0.52],[35.04,-0.516],[35.033,-0.504],[35.031,-0.501],[35.031,-0.499],[35.028,-0.485],[35.028,-0.48],[35.032,-0.446],[35.031,-0.44],[35.029,-0.435],[35.013,-0.411],[35.011,-0.406],[35.008,-0.396],[35.001,-0.381],[35,-0.377],[34.999,-0.371],[34.999,-0.361],[35,-0.35],[35.001,-0.348],[35.01,-0.336],[35.014,-0.332],[35.025,-0.323],[35.029,-0.319],[35.038,-0.306],[35.04,-0.299],[35.041,-0.293],[35.041,-0.287],[35.044,-0.27],[35.045,-0.225],[35.047,-0.218],[35.049,-0.212],[35.052,-0.208],[35.056,-0.205],[35.061,-0.202],[35.071,-0.198],[35.075,-0.196],[35.085,-0.185],[35.108,-0.141],[35.115,-0.131],[35.121,-0.128],[35.124,-0.13],[35.128,-0.134],[35.135,-0.147],[35.138,-0.151],[35.142,-0.154],[35.153,-0.163],[35.164,-0.172],[35.169,-0.175],[35.174,-0.176],[35.179,-0.176],[35.184,-0.175],[35.193,-0.17],[35.198,-0.169],[35.203,-0.17],[35.207,-0.172],[35.211,-0.175],[35.214,-0.179],[35.22,-0.194],[35.223,-0.198],[35.226,-0.201],[35.23,-0.204],[35.236,-0.206],[35.248,-0.207],[35.253,-0.208],[35.257,-0.211],[35.259,-0.216],[35.262,-0.226],[35.265,-0.231],[35.268,-0.235],[35.275,-0.241],[35.279,-0.244],[35.283,-0.246],[35.288,-0.248],[35.294,-0.249],[35.3,-0.25],[35.307,-0.249],[35.315,-0.247],[35.319,-0.242],[35.321,-0.237],[35.326,-0.204],[35.327,-0.198],[35.326,-0.189],[35.324,-0.184],[35.321,-0.18],[35.318,-0.176],[35.272,-0.14],[35.27,-0.135],[35.268,-0.129],[35.268,-0.116],[35.265,-0.111],[35.261,-0.107],[35.242,-0.099],[35.237,-0.096],[35.234,-0.093],[35.23,-0.09],[35.226,-0.06],[35.222,-0.049],[35.22,-0.045],[35.213,-0.037],[35.209,-0.035],[35.205,-0.033],[35.2,-0.032],[35.196,-0.031],[35.193,-0.032],[35.189,-0.034],[35.181,-0.039],[35.176,-0.041],[35.171,-0.042],[35.165,-0.042],[35.16,-0.04],[35.156,-0.038],[35.139,-0.027],[35.124,-0.022],[35.113,-0.019],[35.107,-0.019],[35.101,-0.02],[35.096,-0.022],[35.092,-0.024],[35.089,-0.028],[35.087,-0.032],[35.08,-0.047],[35.077,-0.05],[35.073,-0.053],[35.068,-0.055],[35.058,-0.059],[35.052,-0.06],[35.047,-0.059],[35.042,-0.057],[35.038,-0.055],[35.027,-0.046],[35.022,-0.044],[35.018,-0.044],[35.013,-0.043],[35.01,-0.041],[35,-0.03],[34.996,-0.028],[34.991,-0.026],[34.985,-0.025],[34.979,-0.026],[34.973,-0.027],[34.968,-0.029],[34.955,-0.037],[34.951,-0.039],[34.939,-0.042],[34.933,-0.042],[34.886,-0.037],[34.859,-0.037],[34.84,-0.039],[34.827,-0.039],[34.816,-0.037],[34.812,-0.035],[34.807,-0.033],[34.8,-0.027],[34.785,-0.013],[34.781,-0.01],[34.776,-0.008],[34.771,-0.007],[34.766,-0.007],[34.759,-0.007],[34.775,0.017],[34.817,0.06],[34.836,0.083],[34.844,0.105],[34.851,0.121],[34.856,0.129],[34.86,0.134],[34.871,0.144],[34.9,0.167],[34.91,0.179],[34.914,0.189],[34.923,0.223],[34.931,0.243],[34.934,0.252],[34.934,0.26],[34.932,0.265],[34.929,0.269],[34.925,0.279],[34.92,0.295],[34.92,0.307],[34.928,0.372],[34.928,0.378],[34.927,0.384],[34.917,0.415],[34.914,0.433],[34.9,0.461],[34.898,0.465],[34.894,0.469],[34.89,0.471],[34.849,0.491],[34.838,0.498],[34.836,0.506],[34.838,0.549],[34.841,0.562],[34.845,0.571],[34.858,0.578],[34.863,0.58],[34.869,0.581],[34.875,0.582],[34.881,0.582],[34.886,0.58],[34.9,0.573],[34.905,0.572],[34.911,0.571],[34.916,0.572],[34.923,0.575],[34.931,0.582],[34.956,0.621],[34.96,0.625],[34.964,0.627],[34.968,0.629],[34.97,0.629],[34.973,0.629],[34.986,0.626],[34.992,0.625],[34.997,0.625],[35.001,0.626],[35.004,0.627],[35.022,0.636],[35.033,0.639],[35.039,0.639],[35.044,0.639],[35.05,0.637],[35.059,0.632],[35.064,0.631],[35.075,0.63],[35.08,0.63],[35.084,0.631],[35.087,0.633],[35.105,0.645],[35.112,0.651],[35.116,0.658],[35.122,0.676],[35.125,0.681],[35.129,0.685],[35.152,0.698],[35.156,0.701],[35.164,0.708],[35.168,0.714],[35.17,0.721],[35.171,0.728],[35.17,0.737],[35.168,0.743],[35.165,0.748],[35.159,0.754],[35.157,0.758],[35.157,0.761],[35.157,0.786],[35.155,0.802],[35.153,0.807],[35.135,0.831],[35.13,0.845],[35.128,0.849],[35.126,0.851],[35.124,0.854],[35.121,0.856],[35.114,0.859],[35.095,0.866],[35.084,0.869],[35.079,0.871],[35.07,0.876],[35.062,0.881],[35.057,0.883],[35.051,0.884],[34.994,0.886],[34.962,0.882],[34.957,0.88],[34.952,0.878],[34.948,0.876],[34.944,0.872],[34.941,0.869],[34.923,0.845],[34.92,0.842],[34.915,0.84],[34.91,0.84],[34.904,0.841],[34.899,0.844],[34.894,0.845],[34.888,0.845],[34.883,0.845],[34.855,0.838],[34.834,0.831],[34.797,0.827],[34.791,0.828],[34.786,0.829],[34.781,0.831],[34.773,0.836],[34.768,0.841],[34.765,0.847],[34.76,0.859],[34.76,0.869],[34.76,0.879],[34.762,0.891],[34.761,0.897],[34.758,0.902],[34.754,0.905],[34.748,0.906],[34.742,0.907],[34.737,0.908],[34.732,0.91],[34.727,0.913],[34.624,1.021],[34.606,1.049],[34.605,1.067],[34.576,1.093],[34.567,1.103],[34.572,1.112],[34.574,1.134],[34.58,1.153],[34.629,1.164],[34.663,1.196],[34.684,1.209],[34.766,1.217],[34.798,1.232],[34.811,1.273],[34.8,1.312],[34.783,1.353],[34.781,1.372],[34.779,1.389],[34.838,1.437],[34.86,1.518],[34.883,1.552],[34.893,1.557],[34.914,1.562],[34.923,1.566],[34.934,1.576],[34.941,1.587],[34.973,1.654],[34.979,1.676],[34.98,1.87],[34.984,1.882],[35.003,1.906],[35.006,1.917],[35.001,1.928],[34.978,1.95],[34.969,1.96],[34.962,1.978],[34.958,1.998],[34.957,2.019],[34.958,2.038],[34.968,2.083],[34.968,2.102],[34.922,2.211],[34.904,2.254],[34.866,2.348],[34.859,2.387],[34.868,2.411],[34.886,2.425],[34.906,2.437],[34.921,2.455],[34.924,2.477],[34.914,2.494],[34.887,2.522],[34.881,2.541],[34.876,2.591],[34.866,2.605],[34.857,2.603],[34.85,2.595],[34.842,2.588],[34.828,2.589],[34.819,2.598],[34.777,2.686],[34.761,2.772],[34.741,2.836],[34.737,2.844],[34.73,2.853],[34.725,2.854],[34.697,2.868],[34.695,2.87],[34.693,2.872],[34.691,2.876],[34.689,2.879],[34.685,2.881],[34.683,2.879],[34.678,2.872],[34.676,2.87],[34.672,2.868],[34.66,2.859],[34.654,2.857],[34.641,2.86],[34.631,2.87],[34.616,2.893],[34.585,2.929],[34.575,2.946],[34.546,3.097],[34.546,3.098],[34.534,3.118],[34.513,3.132],[34.466,3.146],[34.445,3.159],[34.434,3.182],[34.424,3.305],[34.411,3.345],[34.404,3.355],[34.394,3.366],[34.387,3.376],[34.384,3.388],[34.387,3.4],[34.397,3.424],[34.399,3.434],[34.394,3.445],[34.382,3.466],[34.381,3.477],[34.387,3.486],[34.396,3.49],[34.406,3.492],[34.416,3.497],[34.435,3.526],[34.444,3.566],[34.446,3.647],[34.44,3.668],[34.425,3.677],[34.406,3.683],[34.387,3.693],[34.355,3.727],[34.337,3.735],[34.31,3.727],[34.299,3.717],[34.295,3.707],[34.29,3.703],[34.279,3.71],[34.264,3.75],[34.242,3.779],[34.241,3.784],[34.23,3.783],[34.211,3.777],[34.191,3.776],[34.174,3.771],[34.165,3.771],[34.152,3.776],[34.159,3.783],[34.179,3.796],[34.167,3.811],[34.151,3.817],[34.149,3.823],[34.197,3.847],[34.208,3.861],[34.205,3.875],[34.183,3.886],[34.163,3.886],[34.124,3.872],[34.108,3.869],[34.085,3.877],[34.086,3.895],[34.099,3.918],[34.11,3.943],[34.107,3.96],[34.096,3.971],[34.081,3.981],[34.069,3.992],[34.061,4.008],[34.062,4.018],[34.066,4.027],[34.07,4.041],[34.073,4.065],[34.072,4.076],[34.069,4.088],[34.061,4.099],[34.05,4.109],[34.041,4.12],[34.04,4.134],[34.041,4.165],[34.029,4.188],[34.006,4.206],[33.977,4.22],[34.078,4.32],[34.179,4.42],[34.28,4.52],[34.381,4.62],[34.46,4.661],[34.529,4.696],[34.598,4.731],[34.666,4.765],[34.764,4.8],[34.845,4.831],[34.921,4.86],[35.003,4.89],[35.094,4.925],[35.176,4.956],[35.246,4.982],[35.263,4.949],[35.334,4.987],[35.412,5.03],[35.434,5.004],[35.396,4.926],[35.496,4.926],[35.571,4.904],[35.522,4.78],[35.563,4.707],[35.61,4.621],[35.611,4.62],[35.612,4.619],[35.7,4.589],[35.706,4.619],[35.706,4.62],[35.712,4.662],[35.739,4.681]]]}},{"type":"Feature","id":"KE-800","properties":{"id":"KE-800","countryCode":"KE","isoSubdivision":"KE-800","name":"Western","name_en":"Western","name_ko":"서부","type":"Province","labelLongitude":34.531,"labelLatitude":0.537,"minZoom":6.6},"geometry":{"type":"Polygon","coordinates":[[[34.54,1.089],[34.56,1.093],[34.561,1.093],[34.567,1.103],[34.576,1.093],[34.605,1.067],[34.606,1.049],[34.624,1.021],[34.727,0.913],[34.732,0.91],[34.737,0.908],[34.742,0.907],[34.748,0.906],[34.754,0.905],[34.758,0.902],[34.761,0.897],[34.762,0.891],[34.76,0.879],[34.76,0.869],[34.76,0.859],[34.765,0.847],[34.768,0.841],[34.773,0.836],[34.781,0.831],[34.786,0.829],[34.791,0.828],[34.797,0.827],[34.834,0.831],[34.855,0.838],[34.883,0.845],[34.888,0.845],[34.894,0.845],[34.899,0.844],[34.904,0.841],[34.91,0.84],[34.915,0.84],[34.92,0.842],[34.923,0.845],[34.941,0.869],[34.944,0.872],[34.948,0.876],[34.952,0.878],[34.957,0.88],[34.962,0.882],[34.994,0.886],[35.051,0.884],[35.057,0.883],[35.062,0.881],[35.07,0.876],[35.079,0.871],[35.084,0.869],[35.095,0.866],[35.114,0.859],[35.121,0.856],[35.124,0.854],[35.126,0.851],[35.128,0.849],[35.13,0.845],[35.135,0.831],[35.153,0.807],[35.155,0.802],[35.157,0.786],[35.157,0.761],[35.157,0.758],[35.159,0.754],[35.165,0.748],[35.168,0.743],[35.17,0.737],[35.171,0.728],[35.17,0.721],[35.168,0.714],[35.164,0.708],[35.156,0.701],[35.152,0.698],[35.129,0.685],[35.125,0.681],[35.122,0.676],[35.116,0.658],[35.112,0.651],[35.105,0.645],[35.087,0.633],[35.084,0.631],[35.08,0.63],[35.075,0.63],[35.064,0.631],[35.059,0.632],[35.05,0.637],[35.044,0.639],[35.039,0.639],[35.033,0.639],[35.022,0.636],[35.004,0.627],[35.001,0.626],[34.997,0.625],[34.992,0.625],[34.986,0.626],[34.973,0.629],[34.97,0.629],[34.968,0.629],[34.964,0.627],[34.96,0.625],[34.956,0.621],[34.931,0.582],[34.923,0.575],[34.916,0.572],[34.911,0.571],[34.905,0.572],[34.9,0.573],[34.886,0.58],[34.881,0.582],[34.875,0.582],[34.869,0.581],[34.863,0.58],[34.858,0.578],[34.845,0.571],[34.841,0.562],[34.838,0.549],[34.836,0.506],[34.838,0.498],[34.849,0.491],[34.89,0.471],[34.894,0.469],[34.898,0.465],[34.9,0.461],[34.914,0.433],[34.917,0.415],[34.927,0.384],[34.928,0.378],[34.928,0.372],[34.92,0.307],[34.92,0.295],[34.925,0.279],[34.929,0.269],[34.932,0.265],[34.934,0.26],[34.934,0.252],[34.931,0.243],[34.923,0.223],[34.914,0.189],[34.91,0.179],[34.9,0.167],[34.871,0.144],[34.86,0.134],[34.856,0.129],[34.851,0.121],[34.844,0.105],[34.836,0.083],[34.817,0.06],[34.775,0.017],[34.759,-0.007],[34.735,-0.014],[34.72,-0.013],[34.7,-0.008],[34.692,-0.009],[34.684,-0.011],[34.661,-0.019],[34.653,-0.02],[34.646,-0.019],[34.622,-0.007],[34.599,-0.001],[34.593,-0.001],[34.577,-0.005],[34.55,-0.016],[34.537,-0.02],[34.529,-0.021],[34.522,-0.02],[34.515,-0.016],[34.511,-0.012],[34.508,-0.008],[34.506,-0.004],[34.505,0],[34.506,0.004],[34.508,0.013],[34.51,0.018],[34.515,0.027],[34.518,0.037],[34.519,0.067],[34.521,0.079],[34.521,0.084],[34.52,0.089],[34.518,0.094],[34.513,0.098],[34.487,0.115],[34.468,0.122],[34.461,0.129],[34.458,0.135],[34.461,0.151],[34.461,0.156],[34.459,0.16],[34.404,0.215],[34.402,0.22],[34.4,0.225],[34.399,0.23],[34.398,0.25],[34.395,0.268],[34.392,0.278],[34.388,0.283],[34.37,0.302],[34.362,0.306],[34.354,0.307],[34.349,0.305],[34.339,0.301],[34.331,0.296],[34.326,0.294],[34.32,0.293],[34.308,0.295],[34.254,0.305],[34.246,0.305],[34.239,0.305],[34.233,0.304],[34.228,0.302],[34.223,0.3],[34.216,0.295],[34.214,0.293],[34.211,0.29],[34.209,0.286],[34.202,0.267],[34.199,0.263],[34.196,0.259],[34.192,0.255],[34.186,0.253],[34.177,0.252],[34.159,0.253],[34.15,0.253],[34.143,0.251],[34.113,0.233],[34.096,0.214],[34.094,0.211],[34.092,0.207],[34.088,0.191],[34.084,0.169],[34.083,0.136],[34.083,0.132],[34.08,0.124],[34.078,0.121],[34.076,0.119],[34.057,0.112],[34.048,0.108],[34.036,0.099],[34.026,0.09],[34.024,0.088],[34.021,0.084],[34.02,0.079],[34.019,0.074],[34.019,0.068],[34.021,0.05],[34.021,0.044],[34.02,0.039],[34.018,0.034],[34.003,0.009],[34,0.002],[33.952,-0.116],[33.922,-0.013],[33.89,0.09],[33.894,0.11],[33.952,0.187],[33.96,0.199],[34.041,0.306],[34.077,0.334],[34.085,0.347],[34.088,0.367],[34.077,0.404],[34.076,0.422],[34.08,0.431],[34.097,0.452],[34.104,0.462],[34.108,0.471],[34.132,0.569],[34.132,0.573],[34.15,0.604],[34.179,0.624],[34.22,0.639],[34.252,0.655],[34.276,0.681],[34.292,0.724],[34.296,0.747],[34.298,0.759],[34.307,0.768],[34.371,0.8],[34.388,0.816],[34.402,0.856],[34.431,0.894],[34.457,0.958],[34.463,0.978],[34.463,1],[34.464,1.023],[34.469,1.044],[34.477,1.065],[34.487,1.082],[34.507,1.103],[34.524,1.099],[34.54,1.089]]]}}]}
