{"type":"FeatureCollection","features":[{"type":"Feature","id":"KG-B","properties":{"id":"KG-B","countryCode":"KG","isoSubdivision":"KG-B","name":"Batken","name_en":"Batken","name_ko":"밧켄","type":"Region","labelLongitude":70.888,"labelLatitude":39.79,"minZoom":6.7},"geometry":{"type":"Polygon","coordinates":[[[72.005,40.237],[72.019,40.24],[72.025,40.251],[72.02,40.259],[72.013,40.262],[72.014,40.262],[72.049,40.263],[72.098,40.278],[72.186,40.297],[72.202,40.294],[72.212,40.288],[72.219,40.272],[72.218,40.262],[72.212,40.244],[72.212,40.233],[72.214,40.225],[72.221,40.214],[72.218,40.204],[72.211,40.198],[72.202,40.194],[72.197,40.189],[72.199,40.183],[72.209,40.176],[72.25,40.162],[72.265,40.154],[72.272,40.143],[72.273,40.128],[72.266,40.117],[72.245,40.102],[72.241,40.098],[72.243,40.093],[72.275,40.081],[72.284,40.074],[72.29,40.067],[72.291,40.057],[72.289,40.05],[72.283,40.044],[72.283,40.035],[72.286,40.026],[72.295,40.01],[72.296,40],[72.294,39.99],[72.288,39.982],[72.283,39.972],[72.282,39.964],[72.283,39.957],[72.286,39.951],[72.297,39.947],[72.323,39.943],[72.337,39.939],[72.353,39.93],[72.364,39.923],[72.374,39.911],[72.389,39.887],[72.411,39.862],[72.427,39.855],[72.437,39.856],[72.455,39.866],[72.465,39.869],[72.475,39.867],[72.481,39.861],[72.487,39.84],[72.493,39.831],[72.506,39.821],[72.527,39.8],[72.55,39.768],[72.537,39.756],[72.532,39.744],[72.528,39.739],[72.522,39.735],[72.513,39.731],[72.478,39.716],[72.428,39.704],[72.38,39.687],[72.354,39.669],[72.343,39.663],[72.328,39.658],[72.296,39.651],[72.273,39.643],[72.238,39.639],[72.175,39.647],[72.144,39.644],[72.128,39.641],[72.106,39.634],[72.096,39.633],[72.085,39.633],[72.066,39.643],[72.058,39.646],[72.044,39.644],[72.029,39.645],[72.007,39.649],[71.994,39.653],[71.972,39.666],[71.965,39.669],[71.958,39.673],[71.943,39.679],[71.796,39.702],[71.781,39.707],[71.766,39.713],[71.759,39.719],[71.753,39.732],[71.745,39.736],[71.731,39.739],[71.713,39.738],[71.701,39.735],[71.693,39.73],[71.683,39.718],[71.671,39.709],[71.653,39.7],[71.575,39.686],[71.551,39.669],[71.53,39.636],[71.527,39.63],[71.518,39.602],[71.51,39.585],[71.493,39.596],[71.46,39.612],[71.441,39.611],[71.407,39.598],[71.378,39.594],[71.369,39.591],[71.362,39.588],[71.348,39.576],[71.341,39.572],[71.306,39.557],[71.292,39.549],[71.26,39.521],[71.249,39.514],[71.237,39.514],[71.18,39.523],[71.137,39.521],[71.096,39.512],[71.063,39.496],[71.042,39.468],[71.028,39.435],[71.009,39.408],[70.977,39.395],[70.95,39.401],[70.925,39.413],[70.903,39.421],[70.884,39.414],[70.872,39.403],[70.864,39.401],[70.855,39.402],[70.84,39.401],[70.828,39.399],[70.798,39.385],[70.77,39.382],[70.74,39.386],[70.713,39.398],[70.698,39.419],[70.699,39.431],[70.703,39.445],[70.705,39.459],[70.7,39.472],[70.69,39.479],[70.667,39.487],[70.656,39.494],[70.656,39.495],[70.636,39.542],[70.622,39.564],[70.598,39.578],[70.58,39.58],[70.544,39.574],[70.526,39.576],[70.514,39.582],[70.491,39.597],[70.477,39.601],[70.46,39.6],[70.428,39.59],[70.411,39.587],[70.401,39.585],[70.395,39.579],[70.39,39.574],[70.384,39.571],[70.374,39.571],[70.353,39.576],[70.343,39.577],[70.33,39.573],[70.241,39.522],[70.223,39.519],[70.206,39.524],[70.204,39.538],[70.215,39.574],[70.215,39.591],[70.21,39.61],[70.201,39.619],[70.185,39.61],[70.157,39.564],[70.149,39.554],[70.132,39.55],[70.116,39.555],[70.083,39.57],[70.062,39.573],[70.04,39.574],[70.02,39.569],[70.003,39.557],[69.987,39.54],[69.979,39.534],[69.949,39.545],[69.908,39.548],[69.83,39.536],[69.792,39.545],[69.75,39.564],[69.71,39.574],[69.669,39.578],[69.582,39.574],[69.565,39.568],[69.531,39.546],[69.514,39.538],[69.496,39.533],[69.477,39.53],[69.455,39.53],[69.412,39.525],[69.391,39.531],[69.367,39.55],[69.362,39.553],[69.352,39.55],[69.348,39.543],[69.346,39.535],[69.34,39.528],[69.3,39.516],[69.286,39.54],[69.291,39.659],[69.288,39.678],[69.28,39.694],[69.266,39.708],[69.248,39.719],[69.233,39.733],[69.226,39.751],[69.23,39.791],[69.241,39.829],[69.286,39.936],[69.306,39.969],[69.31,39.979],[69.31,39.985],[69.314,39.987],[69.328,39.985],[69.357,39.959],[69.405,39.896],[69.502,39.922],[69.5,39.936],[69.477,39.968],[69.478,39.975],[69.477,39.982],[69.475,39.988],[69.471,39.994],[69.463,40.025],[69.47,40.051],[69.486,40.074],[69.506,40.097],[69.509,40.103],[69.513,40.121],[69.518,40.125],[69.526,40.123],[69.537,40.108],[69.543,40.103],[69.559,40.102],[69.575,40.104],[69.97,40.212],[70.005,40.209],[70.147,40.137],[70.169,40.132],[70.219,40.134],[70.242,40.133],[70.263,40.124],[70.278,40.112],[70.29,40.098],[70.306,40.085],[70.324,40.078],[70.36,40.074],[70.398,40.061],[70.477,40.052],[70.502,40.046],[70.525,40.034],[70.536,40.016],[70.521,39.994],[70.505,39.985],[70.488,39.979],[70.473,39.97],[70.46,39.956],[70.451,39.937],[70.448,39.92],[70.456,39.907],[70.477,39.901],[70.486,39.91],[70.494,39.932],[70.501,39.941],[70.513,39.945],[70.555,39.946],[70.577,39.952],[70.597,39.962],[70.614,39.976],[70.627,39.994],[70.636,40.029],[70.635,40.059],[70.639,40.085],[70.666,40.104],[70.73,40.121],[70.743,40.127],[70.783,40.153],[70.789,40.159],[70.792,40.161],[70.798,40.162],[70.803,40.16],[70.806,40.158],[70.807,40.156],[70.825,40.164],[70.832,40.168],[70.845,40.172],[70.899,40.163],[70.929,40.171],[70.963,40.19],[70.98,40.214],[70.959,40.238],[70.995,40.267],[71.053,40.274],[71.169,40.261],[71.201,40.264],[71.215,40.281],[71.224,40.303],[71.24,40.321],[71.254,40.324],[71.264,40.318],[71.273,40.308],[71.283,40.298],[71.297,40.294],[71.314,40.293],[71.345,40.295],[71.365,40.294],[71.397,40.272],[71.441,40.261],[71.451,40.249],[71.459,40.234],[71.477,40.221],[71.498,40.211],[71.521,40.204],[71.568,40.197],[71.593,40.198],[71.602,40.21],[71.604,40.227],[71.61,40.246],[71.628,40.259],[71.646,40.247],[71.66,40.224],[71.667,40.204],[71.667,40.163],[71.673,40.148],[71.693,40.141],[71.707,40.144],[71.76,40.168],[71.776,40.18],[71.787,40.194],[71.805,40.225],[71.836,40.249],[71.873,40.251],[71.912,40.243],[71.952,40.241],[71.963,40.244],[71.969,40.244],[71.977,40.243],[71.989,40.239],[72.005,40.237]],[[71.742,39.901],[71.757,39.903],[71.767,39.915],[71.79,39.979],[71.786,39.99],[71.761,39.984],[71.724,39.963],[71.707,39.956],[71.682,39.955],[71.666,39.94],[71.675,39.926],[71.697,39.914],[71.716,39.907],[71.742,39.901]],[[71.177,40.042],[71.169,40.043],[71.165,40.045],[71.162,40.047],[71.106,40.065],[71.079,40.079],[71.062,40.095],[71.048,40.123],[71.031,40.147],[71.009,40.158],[70.977,40.145],[70.96,40.113],[70.954,40.096],[70.953,40.079],[70.958,40.063],[70.983,40.021],[70.995,40.009],[71.008,40.004],[71.034,39.999],[71.046,39.992],[71.05,39.963],[71.008,39.911],[71.009,39.886],[71.022,39.881],[71.036,39.888],[71.05,39.898],[71.061,39.904],[71.08,39.903],[71.085,39.895],[71.087,39.884],[71.099,39.876],[71.114,39.874],[71.161,39.884],[71.195,39.885],[71.208,39.889],[71.219,39.901],[71.221,39.932],[71.177,39.968],[71.175,39.994],[71.191,40.006],[71.237,40.031],[71.244,40.047],[71.236,40.056],[71.224,40.058],[71.198,40.053],[71.193,40.05],[71.182,40.043],[71.177,40.042]],[[70.499,39.882],[70.484,39.882],[70.483,39.867],[70.49,39.85],[70.503,39.836],[70.537,39.817],[70.547,39.808],[70.576,39.77],[70.582,39.767],[70.633,39.798],[70.662,39.81],[70.695,39.815],[70.705,39.822],[70.706,39.84],[70.699,39.858],[70.687,39.861],[70.655,39.85],[70.62,39.851],[70.499,39.882]]]}},{"type":"Feature","id":"KG-C","properties":{"id":"KG-C","countryCode":"KG","isoSubdivision":"KG-C","name":"Chuy","name_en":"Chuy","name_ko":"추이","type":"Region","labelLongitude":75.146,"labelLatitude":42.651,"minZoom":6.7},"geometry":{"type":"Polygon","coordinates":[[[74.179,43.262],[74.208,43.25],[74.259,43.216],[74.287,43.207],[74.32,43.202],[74.349,43.191],[74.401,43.16],[74.421,43.152],[74.463,43.149],[74.498,43.131],[74.539,43.123],[74.558,43.115],[74.572,43.102],[74.597,43.07],[74.611,43.058],[74.714,43],[74.749,42.99],[74.863,42.976],[74.949,42.945],[74.977,42.926],[75.005,42.916],[75.066,42.903],[75.094,42.89],[75.118,42.877],[75.179,42.85],[75.205,42.845],[75.271,42.846],[75.497,42.824],[75.536,42.827],[75.556,42.825],[75.62,42.805],[75.646,42.806],[75.675,42.815],[75.704,42.83],[75.728,42.849],[75.738,42.862],[75.771,42.926],[75.782,42.933],[75.797,42.936],[75.807,42.937],[75.859,42.94],[75.898,42.936],[75.977,42.919],[75.999,42.918],[76.065,42.934],[76.091,42.934],[76.164,42.921],[76.254,42.921],[76.34,42.902],[76.351,42.903],[76.371,42.91],[76.383,42.91],[76.393,42.905],[76.404,42.889],[76.414,42.885],[76.432,42.89],[76.462,42.911],[76.481,42.917],[76.507,42.914],[76.559,42.898],[76.585,42.895],[76.606,42.898],[76.644,42.911],[76.689,42.91],[76.708,42.914],[76.746,42.929],[76.75,42.933],[76.752,42.937],[76.754,42.941],[76.761,42.942],[76.78,42.939],[76.785,42.94],[76.793,42.943],[76.814,42.961],[76.833,42.972],[76.853,42.974],[76.898,42.975],[76.937,42.986],[76.957,42.989],[76.976,42.982],[77.09,42.968],[77.124,42.959],[77.135,42.952],[77.164,42.922],[77.179,42.913],[77.195,42.91],[77.212,42.91],[77.222,42.885],[77.22,42.876],[77.217,42.869],[77.211,42.867],[77.204,42.868],[77.19,42.871],[77.184,42.871],[77.179,42.869],[77.174,42.865],[77.148,42.845],[77.144,42.837],[77.139,42.819],[77.133,42.813],[77.125,42.808],[77.098,42.801],[77.078,42.798],[76.842,42.802],[76.83,42.8],[76.824,42.796],[76.82,42.79],[76.817,42.784],[76.814,42.778],[76.81,42.772],[76.804,42.765],[76.797,42.763],[76.789,42.762],[76.757,42.766],[76.71,42.78],[76.7,42.782],[76.693,42.78],[76.64,42.759],[76.626,42.757],[76.614,42.757],[76.583,42.765],[76.557,42.764],[76.494,42.775],[76.484,42.775],[76.477,42.773],[76.472,42.768],[76.453,42.738],[76.447,42.734],[76.441,42.732],[76.366,42.719],[76.297,42.696],[76.274,42.686],[76.253,42.674],[76.199,42.625],[76.193,42.62],[76.168,42.607],[76.158,42.604],[76.149,42.603],[76.142,42.603],[76.135,42.603],[76.123,42.606],[76.106,42.613],[76.083,42.613],[75.944,42.588],[75.926,42.587],[75.85,42.592],[75.837,42.59],[75.828,42.586],[75.818,42.569],[75.812,42.565],[75.802,42.56],[75.777,42.552],[75.764,42.546],[75.74,42.531],[75.727,42.527],[75.716,42.525],[75.702,42.524],[75.696,42.52],[75.693,42.516],[75.693,42.5],[75.692,42.497],[75.688,42.487],[75.684,42.483],[75.676,42.478],[75.637,42.46],[75.619,42.453],[75.615,42.449],[75.602,42.437],[75.55,42.412],[75.536,42.409],[75.529,42.41],[75.529,42.415],[75.532,42.433],[75.532,42.439],[75.53,42.443],[75.527,42.448],[75.523,42.452],[75.517,42.455],[75.512,42.455],[75.496,42.449],[75.423,42.436],[75.409,42.435],[75.401,42.437],[75.359,42.451],[75.352,42.451],[75.346,42.449],[75.341,42.446],[75.333,42.442],[75.305,42.435],[75.293,42.433],[75.141,42.438],[75.101,42.448],[75.093,42.447],[75.086,42.445],[75.082,42.441],[75.068,42.433],[75.036,42.425],[75.009,42.449],[74.999,42.453],[74.99,42.454],[74.985,42.45],[74.977,42.445],[74.964,42.44],[74.819,42.424],[74.808,42.419],[74.828,42.383],[74.874,42.328],[74.881,42.314],[74.882,42.304],[74.877,42.301],[74.87,42.3],[74.862,42.301],[74.84,42.307],[74.832,42.308],[74.755,42.302],[74.735,42.295],[74.696,42.255],[74.673,42.23],[74.667,42.229],[74.661,42.23],[74.658,42.234],[74.656,42.239],[74.653,42.244],[74.647,42.248],[74.624,42.249],[74.446,42.228],[74.436,42.231],[74.429,42.234],[74.419,42.236],[74.38,42.241],[74.355,42.242],[74.349,42.241],[74.343,42.239],[74.341,42.238],[74.338,42.228],[74.319,42.145],[74.32,42.134],[74.323,42.122],[74.348,42.117],[74.357,42.114],[74.364,42.107],[74.366,42.103],[74.364,42.1],[74.352,42.094],[74.342,42.087],[74.33,42.074],[74.325,42.069],[74.321,42.062],[74.317,42.053],[74.316,42.047],[74.317,42.041],[74.321,42.024],[74.32,42.016],[74.315,42.008],[74.29,41.987],[74.282,41.978],[74.279,41.971],[74.278,41.964],[74.28,41.947],[74.277,41.94],[74.27,41.933],[74.259,41.926],[74.248,41.923],[74.24,41.922],[74.233,41.924],[74.228,41.926],[74.219,41.932],[74.215,41.935],[74.21,41.936],[74.205,41.936],[74.199,41.934],[74.17,41.92],[74.161,41.913],[74.157,41.907],[74.155,41.899],[74.15,41.874],[74.145,41.868],[74.139,41.864],[74.133,41.865],[74.129,41.867],[74.126,41.87],[74.124,41.875],[74.122,41.88],[74.122,41.887],[74.127,41.909],[74.128,41.916],[74.126,41.922],[74.124,41.925],[74.119,41.927],[74.114,41.927],[74.09,41.921],[74.082,41.92],[74.074,41.92],[74.066,41.922],[74.058,41.925],[74.051,41.929],[74.046,41.934],[74.035,41.95],[74.03,41.955],[74.02,41.961],[74.016,41.966],[74.013,41.971],[74.007,41.984],[74.004,41.988],[73.997,41.996],[73.956,41.971],[73.937,41.966],[73.921,41.967],[73.801,41.958],[73.785,42],[73.775,42.013],[73.761,42.019],[73.752,42.021],[73.731,42.024],[73.722,42.025],[73.715,42.024],[73.709,42.022],[73.686,42.013],[73.681,42.01],[73.673,42.004],[73.667,41.997],[73.662,41.994],[73.653,41.991],[73.637,41.989],[73.627,41.99],[73.535,42.017],[73.521,42.019],[73.508,42.018],[73.478,42.013],[73.463,42.012],[73.431,42.022],[73.419,42.024],[73.41,42.025],[73.382,42.019],[73.378,42.021],[73.375,42.024],[73.368,42.043],[73.364,42.053],[73.36,42.057],[73.354,42.062],[73.345,42.067],[73.327,42.076],[73.315,42.079],[73.304,42.081],[73.287,42.081],[73.28,42.084],[73.266,42.095],[73.255,42.098],[73.21,42.105],[73.159,42.119],[73.144,42.121],[73.134,42.122],[73.127,42.12],[73.122,42.122],[73.119,42.126],[73.112,42.139],[73.123,42.155],[73.126,42.16],[73.126,42.164],[73.124,42.167],[73.12,42.169],[73.116,42.171],[73.079,42.179],[73.073,42.183],[73.07,42.188],[73.069,42.195],[73.07,42.2],[73.078,42.23],[73.081,42.238],[73.088,42.243],[73.099,42.246],[73.132,42.246],[73.145,42.248],[73.157,42.254],[73.168,42.265],[73.172,42.269],[73.176,42.27],[73.204,42.281],[73.228,42.286],[73.246,42.287],[73.265,42.292],[73.28,42.293],[73.298,42.291],[73.31,42.287],[73.325,42.285],[73.34,42.286],[73.379,42.299],[73.396,42.302],[73.42,42.303],[73.458,42.299],[73.465,42.297],[73.493,42.285],[73.509,42.285],[73.531,42.289],[73.592,42.308],[73.606,42.315],[73.635,42.343],[73.637,42.359],[73.643,42.368],[73.659,42.385],[73.686,42.404],[73.69,42.41],[73.693,42.418],[73.692,42.429],[73.689,42.437],[73.677,42.45],[73.666,42.453],[73.661,42.453],[73.633,42.45],[73.623,42.45],[73.613,42.452],[73.606,42.455],[73.6,42.458],[73.596,42.461],[73.592,42.465],[73.59,42.47],[73.584,42.487],[73.58,42.491],[73.576,42.491],[73.568,42.483],[73.563,42.474],[73.561,42.462],[73.563,42.456],[73.565,42.451],[73.565,42.447],[73.559,42.436],[73.534,42.419],[73.505,42.422],[73.433,42.525],[73.418,42.556],[73.41,42.59],[73.413,42.627],[73.424,42.663],[73.477,42.751],[73.504,42.794],[73.507,42.809],[73.504,42.828],[73.492,42.861],[73.489,42.878],[73.493,42.895],[73.501,42.909],[73.522,42.936],[73.56,43.017],[73.571,43.032],[73.587,43.042],[73.634,43.062],[73.806,43.115],[73.823,43.117],[73.864,43.116],[73.902,43.131],[73.935,43.2],[73.965,43.217],[73.985,43.212],[74.021,43.186],[74.04,43.182],[74.197,43.196],[74.214,43.203],[74.217,43.217],[74.206,43.234],[74.179,43.262]],[[74.63,42.806],[74.639,42.806],[74.643,42.808],[74.639,42.82],[74.639,42.832],[74.641,42.844],[74.652,42.85],[74.658,42.859],[74.669,42.864],[74.672,42.869],[74.669,42.874],[74.666,42.879],[74.653,42.891],[74.637,42.904],[74.628,42.918],[74.621,42.936],[74.618,42.938],[74.614,42.937],[74.604,42.92],[74.591,42.908],[74.573,42.897],[74.519,42.888],[74.504,42.875],[74.515,42.859],[74.555,42.834],[74.57,42.827],[74.571,42.814],[74.569,42.806],[74.569,42.792],[74.575,42.784],[74.582,42.779],[74.588,42.779],[74.594,42.784],[74.601,42.797],[74.614,42.807],[74.63,42.806]]]}},{"type":"Feature","id":"KG-GB","properties":{"id":"KG-GB","countryCode":"KG","isoSubdivision":"KG-GB","name":"Bishkek","name_en":"Bishkek","name_ko":"비슈케크","type":"Region","labelLongitude":74.588,"labelLatitude":42.842,"minZoom":6.7},"geometry":{"type":"Polygon","coordinates":[[[74.618,42.938],[74.621,42.936],[74.628,42.918],[74.637,42.904],[74.653,42.891],[74.666,42.879],[74.669,42.874],[74.672,42.869],[74.669,42.864],[74.658,42.859],[74.652,42.85],[74.641,42.844],[74.639,42.832],[74.639,42.82],[74.643,42.808],[74.639,42.806],[74.63,42.806],[74.614,42.807],[74.601,42.797],[74.594,42.784],[74.588,42.779],[74.582,42.779],[74.575,42.784],[74.569,42.792],[74.569,42.806],[74.571,42.814],[74.57,42.827],[74.555,42.834],[74.515,42.859],[74.504,42.875],[74.519,42.888],[74.573,42.897],[74.591,42.908],[74.604,42.92],[74.614,42.937],[74.618,42.938]]]}},{"type":"Feature","id":"KG-J","properties":{"id":"KG-J","countryCode":"KG","isoSubdivision":"KG-J","name":"Jalal-Abad","name_en":"Jalal-Abad","name_ko":"잘랄아바트","type":"Region","labelLongitude":72.451,"labelLatitude":41.589,"minZoom":6.7},"geometry":{"type":"Polygon","coordinates":[[[70.936,42.037],[70.977,42.044],[71.118,42.123],[71.201,42.141],[71.238,42.16],[71.253,42.198],[71.25,42.198],[71.251,42.199],[71.275,42.204],[71.408,42.182],[71.421,42.181],[71.435,42.181],[71.471,42.19],[71.492,42.197],[71.502,42.2],[71.627,42.203],[71.655,42.197],[71.822,42.141],[71.836,42.138],[71.848,42.14],[71.855,42.142],[71.888,42.137],[72,42.102],[72.019,42.097],[72.037,42.088],[72.062,42.072],[72.127,42.07],[72.145,42.073],[72.164,42.081],[72.186,42.101],[72.197,42.12],[72.207,42.151],[72.213,42.164],[72.222,42.176],[72.235,42.186],[72.258,42.194],[72.276,42.198],[72.351,42.206],[72.383,42.206],[72.396,42.203],[72.411,42.193],[72.419,42.182],[72.424,42.172],[72.436,42.166],[72.454,42.163],[72.486,42.164],[72.52,42.162],[72.555,42.146],[72.572,42.142],[72.612,42.152],[72.628,42.152],[72.661,42.138],[72.715,42.123],[72.737,42.114],[72.756,42.103],[72.803,42.066],[72.818,42.061],[72.835,42.06],[72.866,42.063],[72.886,42.069],[72.898,42.079],[72.901,42.087],[72.901,42.098],[72.904,42.109],[72.92,42.12],[72.946,42.128],[73.043,42.146],[73.051,42.145],[73.059,42.139],[73.071,42.134],[73.081,42.132],[73.112,42.139],[73.119,42.126],[73.122,42.122],[73.127,42.12],[73.134,42.122],[73.144,42.121],[73.159,42.119],[73.21,42.105],[73.255,42.098],[73.266,42.095],[73.28,42.084],[73.287,42.081],[73.304,42.081],[73.315,42.079],[73.327,42.076],[73.345,42.067],[73.354,42.062],[73.36,42.057],[73.364,42.053],[73.368,42.043],[73.375,42.024],[73.378,42.021],[73.382,42.019],[73.41,42.025],[73.419,42.024],[73.431,42.022],[73.463,42.012],[73.478,42.013],[73.508,42.018],[73.521,42.019],[73.535,42.017],[73.627,41.99],[73.637,41.989],[73.653,41.991],[73.662,41.994],[73.667,41.997],[73.673,42.004],[73.681,42.01],[73.686,42.013],[73.709,42.022],[73.715,42.024],[73.722,42.025],[73.731,42.024],[73.752,42.021],[73.761,42.019],[73.775,42.013],[73.785,42],[73.801,41.958],[73.795,41.946],[73.772,41.92],[73.765,41.91],[73.762,41.906],[73.756,41.902],[73.751,41.9],[73.744,41.899],[73.73,41.898],[73.726,41.898],[73.723,41.896],[73.722,41.892],[73.725,41.887],[73.733,41.883],[73.739,41.879],[73.747,41.874],[73.769,41.853],[73.781,41.845],[73.792,41.841],[73.801,41.84],[73.81,41.842],[73.817,41.847],[73.824,41.852],[73.827,41.858],[73.828,41.865],[73.827,41.875],[73.827,41.877],[73.83,41.877],[73.863,41.865],[73.87,41.862],[73.882,41.854],[73.888,41.852],[73.894,41.852],[73.921,41.863],[73.924,41.864],[73.928,41.863],[73.94,41.858],[73.963,41.852],[73.968,41.85],[73.972,41.847],[73.976,41.841],[73.979,41.833],[73.982,41.819],[73.982,41.803],[73.977,41.749],[73.977,41.744],[73.979,41.741],[73.982,41.74],[74.018,41.734],[74.061,41.732],[74.093,41.727],[74.1,41.724],[74.105,41.719],[74.108,41.711],[74.114,41.69],[74.127,41.61],[74.126,41.603],[74.119,41.6],[74.106,41.6],[74.074,41.609],[74.061,41.615],[74.055,41.623],[74.057,41.638],[74.058,41.644],[74.057,41.652],[74.055,41.659],[74.051,41.668],[74.045,41.676],[74.037,41.682],[74.028,41.687],[74.019,41.69],[74,41.694],[73.959,41.698],[73.952,41.698],[73.946,41.696],[73.94,41.693],[73.916,41.676],[73.91,41.673],[73.912,41.667],[73.916,41.666],[73.926,41.654],[73.941,41.627],[73.946,41.619],[73.964,41.621],[73.976,41.618],[73.986,41.614],[73.993,41.609],[74.003,41.599],[74.009,41.596],[74.015,41.594],[74.023,41.593],[74.029,41.592],[74.034,41.589],[74.055,41.573],[74.066,41.568],[74.076,41.565],[74.088,41.564],[74.1,41.564],[74.131,41.572],[74.148,41.573],[74.171,41.57],[74.185,41.566],[74.196,41.56],[74.211,41.55],[74.217,41.546],[74.224,41.546],[74.231,41.547],[74.24,41.552],[74.256,41.556],[74.278,41.559],[74.329,41.56],[74.383,41.555],[74.39,41.553],[74.397,41.549],[74.407,41.546],[74.42,41.547],[74.441,41.555],[74.462,41.569],[74.472,41.572],[74.492,41.573],[74.504,41.572],[74.514,41.569],[74.521,41.567],[74.537,41.569],[74.662,41.608],[74.671,41.613],[74.673,41.614],[74.674,41.616],[74.675,41.618],[74.678,41.625],[74.681,41.628],[74.686,41.631],[74.694,41.633],[74.707,41.633],[74.715,41.633],[74.743,41.618],[74.752,41.612],[74.753,41.608],[74.753,41.603],[74.749,41.595],[74.736,41.573],[74.734,41.563],[74.732,41.53],[74.729,41.52],[74.72,41.499],[74.708,41.461],[74.695,41.433],[74.69,41.424],[74.655,41.387],[74.647,41.381],[74.639,41.377],[74.609,41.369],[74.573,41.355],[74.557,41.352],[74.494,41.344],[74.479,41.341],[74.464,41.336],[74.438,41.324],[74.358,41.303],[74.348,41.299],[74.343,41.294],[74.343,41.287],[74.356,41.261],[74.361,41.254],[74.388,41.225],[74.394,41.22],[74.398,41.217],[74.4,41.214],[74.399,41.212],[74.394,41.209],[74.38,41.207],[74.369,41.209],[74.351,41.215],[74.343,41.216],[74.336,41.216],[74.256,41.203],[74.206,41.202],[74.202,41.201],[74.175,41.187],[74.167,41.184],[74.15,41.181],[74.143,41.179],[74.136,41.174],[74.126,41.164],[74.116,41.161],[74.107,41.161],[74.099,41.162],[74.09,41.162],[74.083,41.159],[74.077,41.153],[74.068,41.139],[74.066,41.132],[74.069,41.125],[74.146,41.077],[74.144,41.069],[74.13,41.053],[74.042,40.972],[73.928,41.017],[73.923,41.022],[73.919,41.03],[73.916,41.045],[73.917,41.057],[73.917,41.067],[73.912,41.074],[73.891,41.086],[73.885,41.092],[73.883,41.101],[73.886,41.115],[73.885,41.12],[73.88,41.123],[73.87,41.127],[73.854,41.125],[73.838,41.111],[73.784,41.044],[73.778,41.039],[73.74,41.019],[73.728,41.011],[73.72,41.002],[73.716,40.994],[73.715,40.986],[73.715,40.979],[73.717,40.965],[73.717,40.96],[73.715,40.956],[73.712,40.953],[73.706,40.953],[73.692,40.956],[73.684,40.96],[73.672,40.968],[73.667,40.97],[73.66,40.972],[73.643,40.974],[73.636,40.976],[73.632,40.98],[73.63,40.986],[73.63,40.992],[73.628,40.997],[73.626,41.001],[73.621,41.003],[73.596,41.005],[73.591,41.007],[73.59,41.01],[73.592,41.015],[73.596,41.02],[73.608,41.031],[73.693,41.092],[73.698,41.098],[73.7,41.104],[73.699,41.109],[73.697,41.112],[73.694,41.116],[73.681,41.128],[73.674,41.137],[73.67,41.139],[73.665,41.14],[73.635,41.135],[73.628,41.133],[73.624,41.13],[73.62,41.121],[73.621,41.116],[73.624,41.111],[73.626,41.107],[73.627,41.102],[73.627,41.099],[73.624,41.094],[73.618,41.092],[73.604,41.089],[73.593,41.088],[73.508,41.093],[73.474,41.092],[73.469,41.093],[73.463,41.095],[73.459,41.092],[73.453,41.087],[73.435,41.064],[73.427,41.057],[73.415,41.051],[73.408,41.046],[73.401,41.036],[73.392,41.022],[73.383,41.019],[73.376,41.018],[73.37,41.018],[73.366,41.02],[73.364,41.022],[73.357,41.031],[73.353,41.036],[73.347,41.04],[73.342,41.043],[73.337,41.042],[73.331,41.04],[73.278,41.011],[73.269,41.004],[73.262,40.996],[73.258,40.985],[73.258,40.976],[73.261,40.962],[73.26,40.956],[73.257,40.944],[73.257,40.939],[73.259,40.934],[73.262,40.929],[73.264,40.922],[73.265,40.917],[73.264,40.911],[73.261,40.904],[73.252,40.897],[73.239,40.889],[73.18,40.869],[73.153,40.847],[73.135,40.835],[73.112,40.839],[73.054,40.836],[73.033,40.847],[73.019,40.862],[73.003,40.87],[72.929,40.844],[72.883,40.82],[72.87,40.818],[72.873,40.835],[72.869,40.864],[72.83,40.872],[72.701,40.863],[72.658,40.867],[72.619,40.88],[72.588,40.906],[72.546,40.957],[72.526,40.962],[72.501,40.963],[72.483,40.971],[72.484,40.994],[72.485,41],[72.485,41.005],[72.482,41.009],[72.477,41.012],[72.424,41.016],[72.395,41.022],[72.374,41.032],[72.346,41.066],[72.332,41.073],[72.314,41.062],[72.309,41.054],[72.297,41.028],[72.29,41.024],[72.253,41.02],[72.195,41.006],[72.165,40.999],[72.179,41.023],[72.186,41.041],[72.186,41.061],[72.176,41.113],[72.175,41.141],[72.17,41.169],[72.158,41.188],[72.133,41.199],[72.108,41.196],[72.085,41.185],[72.064,41.17],[72.034,41.157],[72.017,41.164],[72.001,41.18],[71.977,41.195],[71.898,41.185],[71.872,41.194],[71.866,41.237],[71.869,41.279],[71.863,41.312],[71.847,41.342],[71.753,41.447],[71.745,41.453],[71.737,41.455],[71.73,41.451],[71.73,41.43],[71.722,41.425],[71.712,41.428],[71.707,41.444],[71.696,41.447],[71.691,41.442],[71.687,41.431],[71.681,41.423],[71.672,41.425],[71.671,41.438],[71.69,41.494],[71.689,41.515],[71.684,41.534],[71.671,41.547],[71.65,41.55],[71.627,41.543],[71.615,41.532],[71.595,41.494],[71.596,41.494],[71.596,41.493],[71.606,41.477],[71.634,41.45],[71.637,41.431],[71.633,41.411],[71.619,41.378],[71.586,41.324],[71.558,41.302],[71.524,41.297],[71.481,41.311],[71.432,41.345],[71.419,41.347],[71.413,41.335],[71.421,41.162],[71.416,41.127],[71.394,41.113],[71.325,41.157],[71.3,41.133],[71.289,41.114],[71.276,41.113],[71.263,41.123],[71.254,41.137],[71.242,41.175],[71.23,41.187],[71.206,41.189],[71.186,41.18],[71.183,41.166],[71.188,41.148],[71.19,41.127],[71.18,41.108],[71.164,41.116],[71.139,41.148],[71.123,41.158],[71.086,41.162],[71.068,41.17],[71.047,41.182],[71.025,41.19],[70.977,41.196],[70.934,41.191],[70.914,41.193],[70.896,41.206],[70.882,41.22],[70.866,41.233],[70.848,41.243],[70.829,41.249],[70.806,41.247],[70.787,41.24],[70.77,41.239],[70.758,41.252],[70.756,41.27],[70.771,41.331],[70.769,41.352],[70.76,41.373],[70.704,41.445],[70.687,41.462],[70.668,41.471],[70.634,41.467],[70.511,41.414],[70.477,41.405],[70.471,41.405],[70.453,41.405],[70.438,41.416],[70.414,41.451],[70.399,41.465],[70.382,41.476],[70.345,41.493],[70.345,41.494],[70.344,41.494],[70.203,41.506],[70.167,41.52],[70.148,41.552],[70.169,41.578],[70.331,41.65],[70.391,41.685],[70.423,41.697],[70.454,41.712],[70.477,41.738],[70.506,41.786],[70.55,41.824],[70.649,41.887],[70.68,41.901],[70.779,41.91],[70.814,41.92],[70.825,41.936],[70.828,41.994],[70.845,42.03],[70.887,42.038],[70.936,42.037]]]}},{"type":"Feature","id":"KG-N","properties":{"id":"KG-N","countryCode":"KG","isoSubdivision":"KG-N","name":"Naryn","name_en":"Naryn","name_ko":"나린","type":"Region","labelLongitude":75.977,"labelLatitude":41.344,"minZoom":6.7},"geometry":{"type":"Polygon","coordinates":[[[78.231,41.173],[78.204,41.134],[78.191,41.118],[78.176,41.106],[78.075,41.04],[78.057,41.034],[78.037,41.036],[77.998,41.05],[77.867,41.064],[77.831,41.063],[77.798,41.055],[77.666,41.001],[77.65,40.997],[77.632,40.996],[77.581,40.998],[77.504,40.981],[77.475,40.982],[77.445,40.994],[77.389,41.012],[77.333,41.021],[77.301,41.019],[77.243,41.006],[77.119,41.012],[77.089,41.02],[77.035,41.04],[77.008,41.044],[76.9,41.026],[76.861,41.013],[76.835,40.994],[76.821,40.978],[76.784,40.957],[76.767,40.945],[76.757,40.926],[76.761,40.907],[76.768,40.887],[76.771,40.867],[76.762,40.847],[76.747,40.834],[76.707,40.818],[76.674,40.795],[76.648,40.765],[76.631,40.729],[76.624,40.628],[76.621,40.611],[76.609,40.597],[76.556,40.566],[76.531,40.535],[76.499,40.465],[76.476,40.436],[76.449,40.416],[76.362,40.372],[76.33,40.348],[76.314,40.343],[76.299,40.356],[76.283,40.417],[76.273,40.434],[76.244,40.441],[76.215,40.417],[76.185,40.384],[76.151,40.368],[76.133,40.372],[76.095,40.387],[76.076,40.392],[76.052,40.39],[75.962,40.357],[75.949,40.343],[75.938,40.326],[75.921,40.309],[75.902,40.299],[75.88,40.295],[75.859,40.296],[75.794,40.309],[75.772,40.31],[75.751,40.308],[75.704,40.293],[75.682,40.292],[75.665,40.306],[75.656,40.323],[75.64,40.367],[75.638,40.386],[75.646,40.405],[75.66,40.419],[75.669,40.432],[75.667,40.45],[75.657,40.461],[75.629,40.481],[75.618,40.494],[75.611,40.513],[75.606,40.569],[75.588,40.612],[75.56,40.633],[75.524,40.633],[75.482,40.614],[75.263,40.48],[75.253,40.476],[75.242,40.474],[75.229,40.47],[75.224,40.462],[75.22,40.453],[75.212,40.445],[75.194,40.441],[75.175,40.448],[75.157,40.458],[75.138,40.464],[75.113,40.461],[75.064,40.444],[75.039,40.441],[75.002,40.447],[74.966,40.459],[74.879,40.505],[74.856,40.513],[74.835,40.512],[74.832,40.508],[74.806,40.517],[74.728,40.515],[74.711,40.517],[74.698,40.519],[74.694,40.523],[74.685,40.533],[74.677,40.539],[74.604,40.549],[74.589,40.554],[74.582,40.56],[74.586,40.572],[74.589,40.577],[74.591,40.583],[74.593,40.589],[74.593,40.594],[74.593,40.6],[74.589,40.606],[74.584,40.613],[74.571,40.623],[74.56,40.628],[74.421,40.667],[74.4,40.676],[74.36,40.703],[74.343,40.718],[74.335,40.726],[74.327,40.739],[74.319,40.746],[74.286,40.771],[74.249,40.798],[74.233,40.806],[74.222,40.813],[74.217,40.818],[74.216,40.823],[74.215,40.836],[74.212,40.844],[74.207,40.855],[74.202,40.861],[74.194,40.866],[74.169,40.879],[74.059,40.952],[74.055,40.956],[74.042,40.972],[74.13,41.053],[74.144,41.069],[74.146,41.077],[74.069,41.125],[74.066,41.132],[74.068,41.139],[74.077,41.153],[74.083,41.159],[74.09,41.162],[74.099,41.162],[74.107,41.161],[74.116,41.161],[74.126,41.164],[74.136,41.174],[74.143,41.179],[74.15,41.181],[74.167,41.184],[74.175,41.187],[74.202,41.201],[74.206,41.202],[74.256,41.203],[74.336,41.216],[74.343,41.216],[74.351,41.215],[74.369,41.209],[74.38,41.207],[74.394,41.209],[74.399,41.212],[74.4,41.214],[74.398,41.217],[74.394,41.22],[74.388,41.225],[74.361,41.254],[74.356,41.261],[74.343,41.287],[74.343,41.294],[74.348,41.299],[74.358,41.303],[74.438,41.324],[74.464,41.336],[74.479,41.341],[74.494,41.344],[74.557,41.352],[74.573,41.355],[74.609,41.369],[74.639,41.377],[74.647,41.381],[74.655,41.387],[74.69,41.424],[74.695,41.433],[74.708,41.461],[74.72,41.499],[74.729,41.52],[74.732,41.53],[74.734,41.563],[74.736,41.573],[74.749,41.595],[74.753,41.603],[74.753,41.608],[74.752,41.612],[74.743,41.618],[74.715,41.633],[74.707,41.633],[74.694,41.633],[74.686,41.631],[74.681,41.628],[74.678,41.625],[74.675,41.618],[74.674,41.616],[74.673,41.614],[74.671,41.613],[74.662,41.608],[74.537,41.569],[74.521,41.567],[74.514,41.569],[74.504,41.572],[74.492,41.573],[74.472,41.572],[74.462,41.569],[74.441,41.555],[74.42,41.547],[74.407,41.546],[74.397,41.549],[74.39,41.553],[74.383,41.555],[74.329,41.56],[74.278,41.559],[74.256,41.556],[74.24,41.552],[74.231,41.547],[74.224,41.546],[74.217,41.546],[74.211,41.55],[74.196,41.56],[74.185,41.566],[74.171,41.57],[74.148,41.573],[74.131,41.572],[74.1,41.564],[74.088,41.564],[74.076,41.565],[74.066,41.568],[74.055,41.573],[74.034,41.589],[74.029,41.592],[74.023,41.593],[74.015,41.594],[74.009,41.596],[74.003,41.599],[73.993,41.609],[73.986,41.614],[73.976,41.618],[73.964,41.621],[73.946,41.619],[73.941,41.627],[73.926,41.654],[73.916,41.666],[73.912,41.667],[73.91,41.673],[73.916,41.676],[73.94,41.693],[73.946,41.696],[73.952,41.698],[73.959,41.698],[74,41.694],[74.019,41.69],[74.028,41.687],[74.037,41.682],[74.045,41.676],[74.051,41.668],[74.055,41.659],[74.057,41.652],[74.058,41.644],[74.057,41.638],[74.055,41.623],[74.061,41.615],[74.074,41.609],[74.106,41.6],[74.119,41.6],[74.126,41.603],[74.127,41.61],[74.114,41.69],[74.108,41.711],[74.105,41.719],[74.1,41.724],[74.093,41.727],[74.061,41.732],[74.018,41.734],[73.982,41.74],[73.979,41.741],[73.977,41.744],[73.977,41.749],[73.982,41.803],[73.982,41.819],[73.979,41.833],[73.976,41.841],[73.972,41.847],[73.968,41.85],[73.963,41.852],[73.94,41.858],[73.928,41.863],[73.924,41.864],[73.921,41.863],[73.894,41.852],[73.888,41.852],[73.882,41.854],[73.87,41.862],[73.863,41.865],[73.83,41.877],[73.827,41.877],[73.827,41.875],[73.828,41.865],[73.827,41.858],[73.824,41.852],[73.817,41.847],[73.81,41.842],[73.801,41.84],[73.792,41.841],[73.781,41.845],[73.769,41.853],[73.747,41.874],[73.739,41.879],[73.733,41.883],[73.725,41.887],[73.722,41.892],[73.723,41.896],[73.726,41.898],[73.73,41.898],[73.744,41.899],[73.751,41.9],[73.756,41.902],[73.762,41.906],[73.765,41.91],[73.772,41.92],[73.795,41.946],[73.801,41.958],[73.921,41.967],[73.937,41.966],[73.956,41.971],[73.997,41.996],[74.004,41.988],[74.007,41.984],[74.013,41.971],[74.016,41.966],[74.02,41.961],[74.03,41.955],[74.035,41.95],[74.046,41.934],[74.051,41.929],[74.058,41.925],[74.066,41.922],[74.074,41.92],[74.082,41.92],[74.09,41.921],[74.114,41.927],[74.119,41.927],[74.124,41.925],[74.126,41.922],[74.128,41.916],[74.127,41.909],[74.122,41.887],[74.122,41.88],[74.124,41.875],[74.126,41.87],[74.129,41.867],[74.133,41.865],[74.139,41.864],[74.145,41.868],[74.15,41.874],[74.155,41.899],[74.157,41.907],[74.161,41.913],[74.17,41.92],[74.199,41.934],[74.205,41.936],[74.21,41.936],[74.215,41.935],[74.219,41.932],[74.228,41.926],[74.233,41.924],[74.24,41.922],[74.248,41.923],[74.259,41.926],[74.27,41.933],[74.277,41.94],[74.28,41.947],[74.278,41.964],[74.279,41.971],[74.282,41.978],[74.29,41.987],[74.315,42.008],[74.32,42.016],[74.321,42.024],[74.317,42.041],[74.316,42.047],[74.317,42.053],[74.321,42.062],[74.325,42.069],[74.33,42.074],[74.342,42.087],[74.352,42.094],[74.364,42.1],[74.366,42.103],[74.364,42.107],[74.357,42.114],[74.348,42.117],[74.323,42.122],[74.32,42.134],[74.319,42.145],[74.338,42.228],[74.341,42.238],[74.343,42.239],[74.349,42.241],[74.355,42.242],[74.38,42.241],[74.419,42.236],[74.429,42.234],[74.436,42.231],[74.446,42.228],[74.624,42.249],[74.647,42.248],[74.653,42.244],[74.656,42.239],[74.658,42.234],[74.661,42.23],[74.667,42.229],[74.673,42.23],[74.696,42.255],[74.735,42.295],[74.755,42.302],[74.832,42.308],[74.84,42.307],[74.862,42.301],[74.87,42.3],[74.877,42.301],[74.882,42.304],[74.881,42.314],[74.874,42.328],[74.828,42.383],[74.808,42.419],[74.819,42.424],[74.964,42.44],[74.977,42.445],[74.985,42.45],[74.99,42.454],[74.999,42.453],[75.009,42.449],[75.036,42.425],[75.068,42.433],[75.082,42.441],[75.086,42.445],[75.093,42.447],[75.101,42.448],[75.141,42.438],[75.293,42.433],[75.305,42.435],[75.333,42.442],[75.341,42.446],[75.346,42.449],[75.352,42.451],[75.359,42.451],[75.401,42.437],[75.409,42.435],[75.423,42.436],[75.496,42.449],[75.512,42.455],[75.517,42.455],[75.523,42.452],[75.527,42.448],[75.53,42.443],[75.532,42.439],[75.532,42.433],[75.529,42.415],[75.529,42.41],[75.536,42.409],[75.55,42.412],[75.602,42.437],[75.615,42.449],[75.619,42.453],[75.637,42.46],[75.639,42.451],[75.653,42.418],[75.656,42.414],[75.66,42.411],[75.686,42.409],[75.693,42.407],[75.7,42.405],[75.706,42.402],[75.735,42.391],[75.742,42.388],[75.748,42.383],[75.764,42.359],[75.767,42.355],[75.773,42.352],[75.781,42.351],[75.854,42.355],[75.866,42.358],[75.871,42.36],[75.881,42.366],[75.885,42.37],[75.888,42.375],[75.891,42.381],[75.894,42.386],[75.899,42.39],[75.906,42.39],[75.914,42.39],[75.939,42.385],[75.947,42.381],[75.954,42.375],[75.959,42.364],[75.962,42.35],[75.962,42.344],[75.963,42.339],[75.964,42.334],[75.968,42.329],[75.985,42.32],[75.997,42.31],[76,42.306],[76.003,42.301],[76.007,42.29],[76.008,42.284],[76.007,42.279],[75.99,42.244],[75.988,42.237],[75.982,42.213],[75.982,42.207],[75.983,42.202],[75.987,42.198],[75.995,42.196],[76.006,42.194],[76.012,42.192],[76.016,42.188],[76.017,42.181],[76.015,42.167],[76.019,42.161],[76.026,42.155],[76.063,42.137],[76.071,42.133],[76.078,42.126],[76.088,42.114],[76.09,42.106],[76.091,42.099],[76.089,42.093],[76.085,42.081],[76.082,42.076],[76.078,42.071],[76.068,42.063],[76.048,42.05],[76.026,42.04],[76.022,42.036],[76.017,42.032],[76.015,42.027],[76.013,42.021],[76.016,42.016],[76.022,42.011],[76.037,42.008],[76.047,42.008],[76.055,42.008],[76.132,42.025],[76.155,42.033],[76.161,42.034],[76.171,42.031],[76.185,42.025],[76.209,42.012],[76.223,42.006],[76.234,42.003],[76.241,42.003],[76.248,42.004],[76.273,42.01],[76.28,42.01],[76.288,42.009],[76.327,42.001],[76.35,41.991],[76.379,41.982],[76.387,41.98],[76.461,41.979],[76.477,41.976],[76.558,41.944],[76.59,41.934],[76.606,41.932],[76.613,41.931],[76.62,41.932],[76.643,41.941],[76.649,41.942],[76.654,41.941],[76.657,41.938],[76.638,41.905],[76.628,41.881],[76.627,41.875],[76.625,41.859],[76.621,41.853],[76.613,41.849],[76.582,41.847],[76.518,41.85],[76.496,41.848],[76.488,41.847],[76.477,41.842],[76.466,41.835],[76.451,41.814],[76.467,41.799],[76.468,41.794],[76.472,41.788],[76.476,41.785],[76.61,41.78],[76.63,41.783],[76.647,41.79],[76.653,41.792],[76.664,41.79],[76.679,41.786],[76.706,41.776],[76.728,41.765],[76.732,41.761],[76.735,41.757],[76.736,41.751],[76.735,41.746],[76.73,41.728],[76.727,41.722],[76.711,41.703],[76.708,41.698],[76.705,41.692],[76.703,41.686],[76.701,41.668],[76.699,41.662],[76.694,41.65],[76.683,41.635],[76.667,41.616],[76.663,41.612],[76.661,41.606],[76.664,41.602],[76.671,41.601],[76.688,41.604],[76.706,41.61],[76.714,41.609],[76.726,41.606],[76.732,41.602],[76.737,41.597],[76.739,41.593],[76.743,41.589],[76.749,41.585],[76.757,41.583],[76.807,41.578],[76.83,41.58],[76.851,41.584],[76.882,41.595],[76.895,41.598],[76.906,41.598],[76.977,41.593],[77.034,41.582],[77.214,41.585],[77.224,41.587],[77.237,41.592],[77.246,41.596],[77.257,41.603],[77.266,41.606],[77.299,41.613],[77.319,41.618],[77.334,41.627],[77.34,41.627],[77.344,41.627],[77.352,41.608],[77.346,41.566],[77.339,41.541],[77.321,41.506],[77.313,41.501],[77.306,41.499],[77.3,41.499],[77.297,41.5],[77.296,41.5],[77.295,41.5],[77.287,41.504],[77.283,41.503],[77.283,41.5],[77.288,41.489],[77.293,41.48],[77.298,41.468],[77.303,41.448],[77.303,41.443],[77.305,41.438],[77.318,41.427],[77.37,41.409],[77.403,41.394],[77.409,41.39],[77.415,41.385],[77.417,41.381],[77.416,41.377],[77.413,41.372],[77.397,41.354],[77.395,41.349],[77.393,41.343],[77.392,41.332],[77.38,41.3],[77.377,41.294],[77.373,41.289],[77.368,41.286],[77.359,41.279],[77.354,41.276],[77.35,41.271],[77.35,41.266],[77.355,41.263],[77.387,41.266],[77.552,41.301],[77.586,41.314],[77.597,41.315],[77.631,41.314],[77.646,41.312],[77.655,41.306],[77.658,41.3],[77.658,41.294],[77.656,41.289],[77.643,41.267],[77.641,41.261],[77.639,41.255],[77.639,41.244],[77.642,41.234],[77.645,41.23],[77.655,41.227],[77.668,41.225],[77.762,41.226],[77.89,41.2],[77.964,41.2],[78.011,41.204],[78.036,41.209],[78.081,41.228],[78.096,41.237],[78.117,41.248],[78.129,41.252],[78.136,41.252],[78.145,41.251],[78.156,41.249],[78.164,41.246],[78.171,41.24],[78.178,41.233],[78.187,41.218],[78.194,41.203],[78.199,41.194],[78.211,41.183],[78.231,41.173]]]}},{"type":"Feature","id":"KG-O","properties":{"id":"KG-O","countryCode":"KG","isoSubdivision":"KG-O","name":"Osh","name_en":"Osh","name_ko":"오시","type":"Region","labelLongitude":73.177,"labelLatitude":40.112,"minZoom":6.7},"geometry":{"type":"Polygon","coordinates":[[[74.832,40.508],[74.82,40.494],[74.816,40.484],[74.815,40.48],[74.807,40.462],[74.795,40.441],[74.787,40.421],[74.795,40.406],[74.842,40.372],[74.854,40.359],[74.862,40.326],[74.831,40.32],[74.747,40.337],[74.725,40.338],[74.706,40.331],[74.654,40.292],[74.638,40.282],[74.599,40.266],[74.565,40.247],[74.477,40.172],[74.37,40.106],[74.334,40.094],[74.303,40.09],[74.272,40.094],[74.238,40.104],[74.203,40.11],[74.168,40.106],[74.133,40.095],[74.101,40.079],[74.07,40.068],[74.004,40.061],[73.977,40.044],[73.966,40.033],[73.958,40.021],[73.952,40.008],[73.95,39.994],[73.944,39.97],[73.927,39.953],[73.908,39.938],[73.893,39.918],[73.885,39.877],[73.881,39.865],[73.873,39.857],[73.844,39.838],[73.832,39.824],[73.823,39.806],[73.819,39.786],[73.82,39.767],[73.83,39.747],[73.843,39.74],[73.86,39.737],[73.879,39.728],[73.894,39.71],[73.9,39.689],[73.904,39.646],[73.927,39.593],[73.922,39.582],[73.899,39.572],[73.883,39.561],[73.87,39.547],[73.859,39.524],[73.848,39.49],[73.838,39.476],[73.821,39.468],[73.633,39.448],[73.604,39.46],[73.512,39.467],[73.477,39.465],[73.368,39.444],[73.343,39.431],[73.336,39.415],[73.333,39.401],[73.326,39.391],[73.269,39.383],[73.168,39.355],[73.136,39.353],[73.101,39.361],[73.083,39.368],[73.071,39.371],[73.058,39.369],[73.009,39.349],[72.994,39.348],[72.977,39.352],[72.914,39.363],[72.894,39.364],[72.85,39.357],[72.835,39.356],[72.65,39.394],[72.634,39.394],[72.616,39.39],[72.606,39.383],[72.587,39.365],[72.576,39.359],[72.559,39.36],[72.534,39.372],[72.519,39.376],[72.508,39.372],[72.477,39.346],[72.46,39.344],[72.444,39.345],[72.411,39.351],[72.393,39.351],[72.356,39.336],[72.334,39.334],[72.316,39.329],[72.304,39.314],[72.281,39.26],[72.24,39.19],[72.229,39.189],[72.229,39.19],[72.219,39.201],[72.209,39.217],[72.206,39.227],[72.206,39.235],[72.203,39.241],[72.182,39.249],[72.167,39.259],[72.159,39.263],[72.116,39.268],[72.095,39.275],[72.086,39.29],[72.084,39.311],[72.078,39.337],[72.067,39.358],[72.05,39.369],[72.031,39.367],[71.996,39.352],[71.959,39.346],[71.942,39.339],[71.844,39.285],[71.807,39.273],[71.77,39.27],[71.751,39.274],[71.733,39.285],[71.718,39.301],[71.711,39.321],[71.713,39.342],[71.723,39.354],[71.737,39.365],[71.748,39.38],[71.752,39.4],[71.749,39.426],[71.74,39.448],[71.724,39.459],[71.705,39.459],[71.603,39.442],[71.554,39.444],[71.513,39.459],[71.492,39.494],[71.501,39.509],[71.526,39.538],[71.531,39.553],[71.525,39.569],[71.511,39.584],[71.51,39.585],[71.518,39.602],[71.527,39.63],[71.53,39.636],[71.551,39.669],[71.575,39.686],[71.653,39.7],[71.671,39.709],[71.683,39.718],[71.693,39.73],[71.701,39.735],[71.713,39.738],[71.731,39.739],[71.745,39.736],[71.753,39.732],[71.759,39.719],[71.766,39.713],[71.781,39.707],[71.796,39.702],[71.943,39.679],[71.958,39.673],[71.965,39.669],[71.972,39.666],[71.994,39.653],[72.007,39.649],[72.029,39.645],[72.044,39.644],[72.058,39.646],[72.066,39.643],[72.085,39.633],[72.096,39.633],[72.106,39.634],[72.128,39.641],[72.144,39.644],[72.175,39.647],[72.238,39.639],[72.273,39.643],[72.296,39.651],[72.328,39.658],[72.343,39.663],[72.354,39.669],[72.38,39.687],[72.428,39.704],[72.478,39.716],[72.513,39.731],[72.522,39.735],[72.528,39.739],[72.532,39.744],[72.537,39.756],[72.55,39.768],[72.527,39.8],[72.506,39.821],[72.493,39.831],[72.487,39.84],[72.481,39.861],[72.475,39.867],[72.465,39.869],[72.455,39.866],[72.437,39.856],[72.427,39.855],[72.411,39.862],[72.389,39.887],[72.374,39.911],[72.364,39.923],[72.353,39.93],[72.337,39.939],[72.323,39.943],[72.297,39.947],[72.286,39.951],[72.283,39.957],[72.282,39.964],[72.283,39.972],[72.288,39.982],[72.294,39.99],[72.296,40],[72.295,40.01],[72.286,40.026],[72.283,40.035],[72.283,40.044],[72.289,40.05],[72.291,40.057],[72.29,40.067],[72.284,40.074],[72.275,40.081],[72.243,40.093],[72.241,40.098],[72.245,40.102],[72.266,40.117],[72.273,40.128],[72.272,40.143],[72.265,40.154],[72.25,40.162],[72.209,40.176],[72.199,40.183],[72.197,40.189],[72.202,40.194],[72.211,40.198],[72.218,40.204],[72.221,40.214],[72.214,40.225],[72.212,40.233],[72.212,40.244],[72.218,40.262],[72.219,40.272],[72.212,40.288],[72.202,40.294],[72.186,40.297],[72.098,40.278],[72.049,40.263],[72.014,40.262],[72.013,40.262],[72.006,40.266],[71.977,40.276],[71.958,40.287],[71.951,40.302],[71.957,40.316],[72.043,40.349],[72.07,40.369],[72.084,40.397],[72.09,40.416],[72.099,40.426],[72.166,40.454],[72.183,40.458],[72.228,40.46],[72.236,40.46],[72.254,40.458],[72.263,40.453],[72.264,40.453],[72.26,40.442],[72.245,40.439],[72.228,40.438],[72.217,40.435],[72.212,40.426],[72.224,40.422],[72.27,40.424],[72.284,40.42],[72.343,40.393],[72.37,40.386],[72.394,40.389],[72.414,40.411],[72.425,40.436],[72.426,40.459],[72.426,40.46],[72.42,40.471],[72.416,40.479],[72.372,40.503],[72.363,40.512],[72.363,40.524],[72.37,40.54],[72.37,40.558],[72.348,40.585],[72.349,40.586],[72.352,40.602],[72.382,40.612],[72.415,40.59],[72.448,40.56],[72.477,40.55],[72.515,40.546],[72.586,40.509],[72.625,40.511],[72.641,40.52],[72.65,40.532],[72.655,40.546],[72.656,40.561],[72.664,40.578],[72.682,40.578],[72.719,40.565],[72.748,40.575],[72.76,40.642],[72.784,40.67],[72.819,40.681],[72.891,40.695],[72.977,40.736],[73.071,40.762],[73.118,40.783],[73.149,40.814],[73.143,40.834],[73.135,40.835],[73.153,40.847],[73.18,40.869],[73.239,40.889],[73.252,40.897],[73.261,40.904],[73.264,40.911],[73.265,40.917],[73.264,40.922],[73.262,40.929],[73.259,40.934],[73.257,40.939],[73.257,40.944],[73.26,40.956],[73.261,40.962],[73.258,40.976],[73.258,40.985],[73.262,40.996],[73.269,41.004],[73.278,41.011],[73.331,41.04],[73.337,41.042],[73.342,41.043],[73.347,41.04],[73.353,41.036],[73.357,41.031],[73.364,41.022],[73.366,41.02],[73.37,41.018],[73.376,41.018],[73.383,41.019],[73.392,41.022],[73.401,41.036],[73.408,41.046],[73.415,41.051],[73.427,41.057],[73.435,41.064],[73.453,41.087],[73.459,41.092],[73.463,41.095],[73.469,41.093],[73.474,41.092],[73.508,41.093],[73.593,41.088],[73.604,41.089],[73.618,41.092],[73.624,41.094],[73.627,41.099],[73.627,41.102],[73.626,41.107],[73.624,41.111],[73.621,41.116],[73.62,41.121],[73.624,41.13],[73.628,41.133],[73.635,41.135],[73.665,41.14],[73.67,41.139],[73.674,41.137],[73.681,41.128],[73.694,41.116],[73.697,41.112],[73.699,41.109],[73.7,41.104],[73.698,41.098],[73.693,41.092],[73.608,41.031],[73.596,41.02],[73.592,41.015],[73.59,41.01],[73.591,41.007],[73.596,41.005],[73.621,41.003],[73.626,41.001],[73.628,40.997],[73.63,40.992],[73.63,40.986],[73.632,40.98],[73.636,40.976],[73.643,40.974],[73.66,40.972],[73.667,40.97],[73.672,40.968],[73.684,40.96],[73.692,40.956],[73.706,40.953],[73.712,40.953],[73.715,40.956],[73.717,40.96],[73.717,40.965],[73.715,40.979],[73.715,40.986],[73.716,40.994],[73.72,41.002],[73.728,41.011],[73.74,41.019],[73.778,41.039],[73.784,41.044],[73.838,41.111],[73.854,41.125],[73.87,41.127],[73.88,41.123],[73.885,41.12],[73.886,41.115],[73.883,41.101],[73.885,41.092],[73.891,41.086],[73.912,41.074],[73.917,41.067],[73.917,41.057],[73.916,41.045],[73.919,41.03],[73.923,41.022],[73.928,41.017],[74.042,40.972],[74.055,40.956],[74.059,40.952],[74.169,40.879],[74.194,40.866],[74.202,40.861],[74.207,40.855],[74.212,40.844],[74.215,40.836],[74.216,40.823],[74.217,40.818],[74.222,40.813],[74.233,40.806],[74.249,40.798],[74.286,40.771],[74.319,40.746],[74.327,40.739],[74.335,40.726],[74.343,40.718],[74.36,40.703],[74.4,40.676],[74.421,40.667],[74.56,40.628],[74.571,40.623],[74.584,40.613],[74.589,40.606],[74.593,40.6],[74.593,40.594],[74.593,40.589],[74.591,40.583],[74.589,40.577],[74.586,40.572],[74.582,40.56],[74.589,40.554],[74.604,40.549],[74.677,40.539],[74.685,40.533],[74.694,40.523],[74.698,40.519],[74.711,40.517],[74.728,40.515],[74.806,40.517],[74.832,40.508]]]}},{"type":"Feature","id":"KG-T","properties":{"id":"KG-T","countryCode":"KG","isoSubdivision":"KG-T","name":"Talas","name_en":"Talas","name_ko":"탈라스","type":"Region","labelLongitude":72.273,"labelLatitude":42.48,"minZoom":6.7},"geometry":{"type":"Polygon","coordinates":[[[73.477,42.399],[73.505,42.403],[73.506,42.421],[73.505,42.422],[73.534,42.419],[73.559,42.436],[73.565,42.447],[73.565,42.451],[73.563,42.456],[73.561,42.462],[73.563,42.474],[73.568,42.483],[73.576,42.491],[73.58,42.491],[73.584,42.487],[73.59,42.47],[73.592,42.465],[73.596,42.461],[73.6,42.458],[73.606,42.455],[73.613,42.452],[73.623,42.45],[73.633,42.45],[73.661,42.453],[73.666,42.453],[73.677,42.45],[73.689,42.437],[73.692,42.429],[73.693,42.418],[73.69,42.41],[73.686,42.404],[73.659,42.385],[73.643,42.368],[73.637,42.359],[73.635,42.343],[73.606,42.315],[73.592,42.308],[73.531,42.289],[73.509,42.285],[73.493,42.285],[73.465,42.297],[73.458,42.299],[73.42,42.303],[73.396,42.302],[73.379,42.299],[73.34,42.286],[73.325,42.285],[73.31,42.287],[73.298,42.291],[73.28,42.293],[73.265,42.292],[73.246,42.287],[73.228,42.286],[73.204,42.281],[73.176,42.27],[73.172,42.269],[73.168,42.265],[73.157,42.254],[73.145,42.248],[73.132,42.246],[73.099,42.246],[73.088,42.243],[73.081,42.238],[73.078,42.23],[73.07,42.2],[73.069,42.195],[73.07,42.188],[73.073,42.183],[73.079,42.179],[73.116,42.171],[73.12,42.169],[73.124,42.167],[73.126,42.164],[73.126,42.16],[73.123,42.155],[73.112,42.139],[73.081,42.132],[73.071,42.134],[73.059,42.139],[73.051,42.145],[73.043,42.146],[72.946,42.128],[72.92,42.12],[72.904,42.109],[72.901,42.098],[72.901,42.087],[72.898,42.079],[72.886,42.069],[72.866,42.063],[72.835,42.06],[72.818,42.061],[72.803,42.066],[72.756,42.103],[72.737,42.114],[72.715,42.123],[72.661,42.138],[72.628,42.152],[72.612,42.152],[72.572,42.142],[72.555,42.146],[72.52,42.162],[72.486,42.164],[72.454,42.163],[72.436,42.166],[72.424,42.172],[72.419,42.182],[72.411,42.193],[72.396,42.203],[72.383,42.206],[72.351,42.206],[72.276,42.198],[72.258,42.194],[72.235,42.186],[72.222,42.176],[72.213,42.164],[72.207,42.151],[72.197,42.12],[72.186,42.101],[72.164,42.081],[72.145,42.073],[72.127,42.07],[72.062,42.072],[72.037,42.088],[72.019,42.097],[72,42.102],[71.888,42.137],[71.855,42.142],[71.848,42.14],[71.836,42.138],[71.822,42.141],[71.655,42.197],[71.627,42.203],[71.502,42.2],[71.492,42.197],[71.471,42.19],[71.435,42.181],[71.421,42.181],[71.408,42.182],[71.275,42.204],[71.251,42.199],[71.25,42.198],[71.218,42.206],[71.078,42.281],[71.046,42.291],[71.014,42.288],[70.97,42.263],[70.948,42.248],[70.919,42.253],[70.898,42.262],[70.858,42.291],[70.853,42.306],[70.865,42.322],[70.889,42.339],[70.9,42.347],[70.933,42.376],[70.94,42.388],[70.937,42.395],[70.932,42.401],[70.93,42.412],[70.936,42.432],[70.948,42.451],[70.962,42.468],[70.977,42.479],[71.025,42.456],[71.041,42.455],[71.055,42.46],[71.064,42.47],[71.066,42.482],[71.058,42.493],[71.058,42.494],[71.023,42.516],[71.013,42.526],[71.003,42.564],[71.041,42.581],[71.127,42.591],[71.143,42.603],[71.148,42.617],[71.146,42.657],[71.149,42.678],[71.158,42.688],[71.195,42.697],[71.211,42.705],[71.224,42.718],[71.245,42.747],[71.263,42.754],[71.285,42.748],[71.308,42.74],[71.33,42.737],[71.348,42.743],[71.363,42.754],[71.376,42.768],[71.387,42.783],[71.405,42.795],[71.429,42.796],[71.477,42.784],[71.494,42.789],[71.504,42.79],[71.514,42.786],[71.554,42.761],[71.566,42.757],[71.584,42.76],[71.694,42.812],[71.726,42.82],[71.797,42.822],[71.831,42.832],[71.848,42.834],[71.863,42.829],[71.879,42.821],[71.895,42.816],[71.957,42.805],[72.073,42.757],[72.105,42.75],[72.12,42.752],[72.149,42.762],[72.164,42.765],[72.292,42.761],[72.358,42.741],[72.477,42.683],[72.512,42.678],[72.584,42.678],[72.726,42.653],[72.757,42.64],[72.781,42.62],[72.815,42.573],[72.841,42.556],[72.875,42.544],[72.908,42.537],[72.942,42.536],[73.071,42.552],[73.115,42.551],[73.153,42.539],[73.173,42.528],[73.189,42.521],[73.207,42.517],[73.278,42.513],[73.301,42.507],[73.317,42.494],[73.313,42.463],[73.314,42.442],[73.326,42.429],[73.417,42.417],[73.477,42.399]]]}},{"type":"Feature","id":"KG-Y","properties":{"id":"KG-Y","countryCode":"KG","isoSubdivision":"KG-Y","name":"Issyk-Kul","name_en":"Issyk-Kul","name_ko":"이식쿨","type":"Region","labelLongitude":77.947,"labelLatitude":42.039,"minZoom":6.7},"geometry":{"type":"Polygon","coordinates":[[[80.21,42.19],[80.217,42.174],[80.22,42.142],[80.225,42.126],[80.235,42.111],[80.247,42.098],[80.257,42.084],[80.258,42.065],[80.231,42.034],[80.182,42.021],[79.931,42.023],[79.879,42.013],[79.843,42.002],[79.827,41.992],[79.813,41.978],[79.804,41.96],[79.793,41.923],[79.783,41.905],[79.748,41.88],[79.703,41.875],[79.656,41.876],[79.611,41.868],[79.555,41.838],[79.49,41.819],[79.411,41.779],[79.391,41.773],[79.367,41.772],[79.304,41.788],[79.282,41.783],[79.265,41.775],[79.218,41.741],[79.196,41.73],[79.175,41.723],[79.128,41.714],[79.089,41.703],[78.976,41.642],[78.916,41.633],[78.897,41.626],[78.807,41.578],[78.672,41.538],[78.658,41.532],[78.645,41.524],[78.637,41.513],[78.629,41.488],[78.619,41.478],[78.584,41.466],[78.51,41.454],[78.418,41.4],[78.378,41.387],[78.36,41.378],[78.343,41.362],[78.339,41.344],[78.357,41.306],[78.36,41.287],[78.349,41.27],[78.331,41.259],[78.292,41.241],[78.275,41.229],[78.25,41.201],[78.231,41.173],[78.211,41.183],[78.199,41.194],[78.194,41.203],[78.187,41.218],[78.178,41.233],[78.171,41.24],[78.164,41.246],[78.156,41.249],[78.145,41.251],[78.136,41.252],[78.129,41.252],[78.117,41.248],[78.096,41.237],[78.081,41.228],[78.036,41.209],[78.011,41.204],[77.964,41.2],[77.89,41.2],[77.762,41.226],[77.668,41.225],[77.655,41.227],[77.645,41.23],[77.642,41.234],[77.639,41.244],[77.639,41.255],[77.641,41.261],[77.643,41.267],[77.656,41.289],[77.658,41.294],[77.658,41.3],[77.655,41.306],[77.646,41.312],[77.631,41.314],[77.597,41.315],[77.586,41.314],[77.552,41.301],[77.387,41.266],[77.355,41.263],[77.35,41.266],[77.35,41.271],[77.354,41.276],[77.359,41.279],[77.368,41.286],[77.373,41.289],[77.377,41.294],[77.38,41.3],[77.392,41.332],[77.393,41.343],[77.395,41.349],[77.397,41.354],[77.413,41.372],[77.416,41.377],[77.417,41.381],[77.415,41.385],[77.409,41.39],[77.403,41.394],[77.37,41.409],[77.318,41.427],[77.305,41.438],[77.303,41.443],[77.303,41.448],[77.298,41.468],[77.293,41.48],[77.288,41.489],[77.283,41.5],[77.283,41.503],[77.287,41.504],[77.295,41.5],[77.296,41.5],[77.297,41.5],[77.3,41.499],[77.306,41.499],[77.313,41.501],[77.321,41.506],[77.339,41.541],[77.346,41.566],[77.352,41.608],[77.344,41.627],[77.34,41.627],[77.334,41.627],[77.319,41.618],[77.299,41.613],[77.266,41.606],[77.257,41.603],[77.246,41.596],[77.237,41.592],[77.224,41.587],[77.214,41.585],[77.034,41.582],[76.977,41.593],[76.906,41.598],[76.895,41.598],[76.882,41.595],[76.851,41.584],[76.83,41.58],[76.807,41.578],[76.757,41.583],[76.749,41.585],[76.743,41.589],[76.739,41.593],[76.737,41.597],[76.732,41.602],[76.726,41.606],[76.714,41.609],[76.706,41.61],[76.688,41.604],[76.671,41.601],[76.664,41.602],[76.661,41.606],[76.663,41.612],[76.667,41.616],[76.683,41.635],[76.694,41.65],[76.699,41.662],[76.701,41.668],[76.703,41.686],[76.705,41.692],[76.708,41.698],[76.711,41.703],[76.727,41.722],[76.73,41.728],[76.735,41.746],[76.736,41.751],[76.735,41.757],[76.732,41.761],[76.728,41.765],[76.706,41.776],[76.679,41.786],[76.664,41.79],[76.653,41.792],[76.647,41.79],[76.63,41.783],[76.61,41.78],[76.476,41.785],[76.472,41.788],[76.468,41.794],[76.467,41.799],[76.451,41.814],[76.466,41.835],[76.477,41.842],[76.488,41.847],[76.496,41.848],[76.518,41.85],[76.582,41.847],[76.613,41.849],[76.621,41.853],[76.625,41.859],[76.627,41.875],[76.628,41.881],[76.638,41.905],[76.657,41.938],[76.654,41.941],[76.649,41.942],[76.643,41.941],[76.62,41.932],[76.613,41.931],[76.606,41.932],[76.59,41.934],[76.558,41.944],[76.477,41.976],[76.461,41.979],[76.387,41.98],[76.379,41.982],[76.35,41.991],[76.327,42.001],[76.288,42.009],[76.28,42.01],[76.273,42.01],[76.248,42.004],[76.241,42.003],[76.234,42.003],[76.223,42.006],[76.209,42.012],[76.185,42.025],[76.171,42.031],[76.161,42.034],[76.155,42.033],[76.132,42.025],[76.055,42.008],[76.047,42.008],[76.037,42.008],[76.022,42.011],[76.016,42.016],[76.013,42.021],[76.015,42.027],[76.017,42.032],[76.022,42.036],[76.026,42.04],[76.048,42.05],[76.068,42.063],[76.078,42.071],[76.082,42.076],[76.085,42.081],[76.089,42.093],[76.091,42.099],[76.09,42.106],[76.088,42.114],[76.078,42.126],[76.071,42.133],[76.063,42.137],[76.026,42.155],[76.019,42.161],[76.015,42.167],[76.017,42.181],[76.016,42.188],[76.012,42.192],[76.006,42.194],[75.995,42.196],[75.987,42.198],[75.983,42.202],[75.982,42.207],[75.982,42.213],[75.988,42.237],[75.99,42.244],[76.007,42.279],[76.008,42.284],[76.007,42.29],[76.003,42.301],[76,42.306],[75.997,42.31],[75.985,42.32],[75.968,42.329],[75.964,42.334],[75.963,42.339],[75.962,42.344],[75.962,42.35],[75.959,42.364],[75.954,42.375],[75.947,42.381],[75.939,42.385],[75.914,42.39],[75.906,42.39],[75.899,42.39],[75.894,42.386],[75.891,42.381],[75.888,42.375],[75.885,42.37],[75.881,42.366],[75.871,42.36],[75.866,42.358],[75.854,42.355],[75.781,42.351],[75.773,42.352],[75.767,42.355],[75.764,42.359],[75.748,42.383],[75.742,42.388],[75.735,42.391],[75.706,42.402],[75.7,42.405],[75.693,42.407],[75.686,42.409],[75.66,42.411],[75.656,42.414],[75.653,42.418],[75.639,42.451],[75.637,42.46],[75.676,42.478],[75.684,42.483],[75.688,42.487],[75.692,42.497],[75.693,42.5],[75.693,42.516],[75.696,42.52],[75.702,42.524],[75.716,42.525],[75.727,42.527],[75.74,42.531],[75.764,42.546],[75.777,42.552],[75.802,42.56],[75.812,42.565],[75.818,42.569],[75.828,42.586],[75.837,42.59],[75.85,42.592],[75.926,42.587],[75.944,42.588],[76.083,42.613],[76.106,42.613],[76.123,42.606],[76.135,42.603],[76.142,42.603],[76.149,42.603],[76.158,42.604],[76.168,42.607],[76.193,42.62],[76.199,42.625],[76.253,42.674],[76.274,42.686],[76.297,42.696],[76.366,42.719],[76.441,42.732],[76.447,42.734],[76.453,42.738],[76.472,42.768],[76.477,42.773],[76.484,42.775],[76.494,42.775],[76.557,42.764],[76.583,42.765],[76.614,42.757],[76.626,42.757],[76.64,42.759],[76.693,42.78],[76.7,42.782],[76.71,42.78],[76.757,42.766],[76.789,42.762],[76.797,42.763],[76.804,42.765],[76.81,42.772],[76.814,42.778],[76.817,42.784],[76.82,42.79],[76.824,42.796],[76.83,42.8],[76.842,42.802],[77.078,42.798],[77.098,42.801],[77.125,42.808],[77.133,42.813],[77.139,42.819],[77.144,42.837],[77.148,42.845],[77.174,42.865],[77.179,42.869],[77.184,42.871],[77.19,42.871],[77.204,42.868],[77.211,42.867],[77.217,42.869],[77.22,42.876],[77.222,42.885],[77.212,42.91],[77.23,42.91],[77.328,42.898],[77.361,42.905],[77.403,42.92],[77.419,42.922],[77.434,42.921],[77.462,42.914],[77.502,42.915],[77.521,42.907],[77.538,42.896],[77.558,42.888],[77.574,42.888],[77.627,42.907],[77.648,42.91],[77.714,42.908],[77.781,42.896],[77.788,42.89],[77.792,42.883],[77.798,42.878],[77.81,42.871],[77.836,42.88],[77.852,42.888],[77.861,42.891],[77.884,42.893],[77.907,42.891],[77.929,42.885],[77.986,42.86],[78.031,42.855],[78.138,42.862],[78.184,42.86],[78.23,42.865],[78.249,42.862],[78.29,42.851],[78.311,42.851],[78.328,42.855],[78.365,42.873],[78.386,42.878],[78.43,42.881],[78.496,42.876],[78.594,42.85],[78.635,42.832],[78.67,42.811],[78.687,42.805],[78.808,42.796],[78.888,42.771],[78.954,42.768],[78.993,42.757],[79.031,42.756],[79.109,42.785],[79.148,42.791],[79.173,42.786],[79.181,42.776],[79.175,42.737],[79.176,42.714],[79.182,42.694],[79.192,42.675],[79.206,42.656],[79.242,42.63],[79.321,42.602],[79.353,42.577],[79.398,42.497],[79.426,42.47],[79.476,42.454],[79.572,42.45],[79.653,42.461],[79.696,42.46],[79.918,42.424],[79.96,42.404],[79.974,42.391],[80.012,42.35],[80.077,42.306],[80.11,42.273],[80.137,42.239],[80.167,42.209],[80.21,42.19]]]}}]}
