{"type":"FeatureCollection","features":[{"type":"Feature","id":"KH-1","properties":{"id":"KH-1","countryCode":"KH","isoSubdivision":"KH-1","name":"Banteay Meanchey","name_en":"Banteay Meanchey","name_ko":"반테아이메안체이","type":"Province","labelLongitude":102.873,"labelLatitude":13.736,"minZoom":8},"geometry":{"type":"Polygon","coordinates":[[[102.452,13.562],[102.513,13.567],[102.533,13.574],[102.58,13.6],[102.598,13.605],[102.563,13.628],[102.541,13.649],[102.542,13.67],[102.574,13.694],[102.675,13.742],[102.699,13.762],[102.703,13.771],[102.704,13.792],[102.706,13.802],[102.711,13.81],[102.729,13.832],[102.737,13.85],[102.754,13.904],[102.773,13.936],[102.797,13.96],[102.855,14.004],[102.87,14.021],[102.873,14.033],[102.873,14.048],[102.876,14.071],[102.883,14.087],[102.904,14.116],[102.911,14.132],[102.914,14.152],[102.914,14.165],[102.914,14.169],[102.919,14.185],[102.934,14.201],[102.951,14.209],[102.988,14.219],[103.005,14.229],[103.017,14.239],[103.031,14.233],[103.077,14.2],[103.089,14.194],[103.094,14.19],[103.099,14.185],[103.107,14.171],[103.116,14.149],[103.122,14.137],[103.126,14.134],[103.131,14.13],[103.142,14.127],[103.191,14.121],[103.193,14.119],[103.193,14.114],[103.193,14.11],[103.184,14.06],[103.184,14.054],[103.19,14.053],[103.195,14.053],[103.2,14.054],[103.209,14.055],[103.212,14.054],[103.224,14.044],[103.264,14.001],[103.292,14.035],[103.306,14.049],[103.33,14.064],[103.342,14.004],[103.343,14.001],[103.35,13.995],[103.41,13.948],[103.417,13.941],[103.431,13.919],[103.433,13.887],[103.42,13.872],[103.418,13.85],[103.42,13.807],[103.417,13.774],[103.432,13.716],[103.43,13.697],[103.419,13.676],[103.409,13.663],[103.404,13.648],[103.406,13.428],[103.252,13.423],[103.222,13.429],[103.195,13.441],[103.173,13.455],[103.161,13.458],[103.11,13.453],[102.978,13.413],[102.964,13.408],[102.897,13.414],[102.811,13.435],[102.779,13.451],[102.763,13.467],[102.746,13.452],[102.738,13.441],[102.716,13.417],[102.708,13.417],[102.669,13.425],[102.641,13.461],[102.357,13.484],[102.33,13.485],[102.33,13.496],[102.329,13.504],[102.326,13.513],[102.315,13.53],[102.313,13.541],[102.332,13.565],[102.371,13.569],[102.452,13.562]]]}},{"type":"Feature","id":"KH-10","properties":{"id":"KH-10","countryCode":"KH","isoSubdivision":"KH-10","name":"Kratié","name_en":"Kratié","name_ko":"크라티에","type":"Province","labelLongitude":106.184,"labelLatitude":12.66,"minZoom":8},"geometry":{"type":"Polygon","coordinates":[[[106.791,12.067],[106.772,12.066],[106.749,12.052],[106.733,12.029],[106.721,11.996],[106.702,11.971],[106.68,11.965],[106.631,11.976],[106.639,11.961],[106.552,11.973],[106.505,11.973],[106.474,11.952],[106.461,11.953],[106.455,11.96],[106.451,11.968],[106.442,11.975],[106.429,11.977],[106.417,11.976],[106.394,11.97],[106.395,11.966],[106.389,11.966],[106.319,11.95],[106.31,11.949],[106.287,11.954],[106.281,11.954],[106.276,11.954],[106.248,11.943],[106.241,11.942],[106.236,11.942],[106.232,11.944],[106.23,11.945],[106.227,11.948],[106.222,11.955],[106.174,11.955],[106.163,11.96],[106.162,11.963],[106.162,11.967],[106.162,11.971],[106.164,11.974],[106.165,11.977],[106.167,11.98],[106.17,11.982],[106.172,11.984],[106.177,11.989],[106.18,11.994],[106.181,11.997],[106.182,12],[106.182,12.001],[106.166,12.031],[106.159,12.04],[106.154,12.046],[106.151,12.048],[106.145,12.05],[106.133,12.057],[106.115,12.07],[106.11,12.072],[106.106,12.073],[106.094,12.073],[106.089,12.075],[106.072,12.084],[106.061,12.088],[106.057,12.091],[106.055,12.094],[106.056,12.097],[106.058,12.099],[106.06,12.102],[106.064,12.108],[106.065,12.111],[106.066,12.114],[106.067,12.119],[106.065,12.124],[106.062,12.131],[106.055,12.143],[106.05,12.148],[106.046,12.15],[106.041,12.15],[106.038,12.149],[106.024,12.153],[106.019,12.172],[106.017,12.175],[106.014,12.179],[105.988,12.197],[105.974,12.203],[105.94,12.21],[105.909,12.221],[105.902,12.224],[105.896,12.224],[105.891,12.224],[105.887,12.224],[105.884,12.223],[105.876,12.216],[105.873,12.215],[105.845,12.21],[105.836,12.251],[105.831,12.255],[105.827,12.254],[105.809,12.255],[105.759,12.266],[105.754,12.263],[105.75,12.264],[105.752,12.294],[105.754,12.298],[105.757,12.303],[105.761,12.307],[105.767,12.313],[105.776,12.326],[105.779,12.335],[105.781,12.343],[105.778,12.393],[105.764,12.47],[105.752,12.508],[105.725,12.626],[105.694,12.715],[105.693,12.737],[105.681,12.778],[105.683,12.798],[105.681,12.831],[105.683,12.842],[105.685,12.845],[105.688,12.851],[105.689,12.855],[105.69,12.859],[105.689,12.865],[105.687,12.872],[105.681,12.885],[105.674,12.896],[105.662,12.907],[105.66,12.91],[105.66,12.914],[105.662,12.92],[105.664,12.924],[105.67,12.933],[105.673,12.939],[105.674,12.943],[105.674,12.947],[105.672,12.953],[105.666,12.96],[105.662,12.964],[105.659,12.967],[105.653,12.971],[105.651,12.973],[105.649,12.979],[105.638,13.048],[105.638,13.055],[105.639,13.061],[105.645,13.078],[105.647,13.085],[105.646,13.092],[105.643,13.099],[105.635,13.112],[105.627,13.123],[105.612,13.136],[105.61,13.139],[105.578,13.27],[105.665,13.229],[105.703,13.22],[105.717,13.213],[105.807,13.144],[105.839,13.127],[105.861,13.118],[105.869,13.116],[105.88,13.116],[105.895,13.117],[105.935,13.13],[105.938,13.132],[105.943,13.137],[105.949,13.147],[105.968,13.18],[105.971,13.188],[105.971,13.201],[105.972,13.205],[105.975,13.209],[105.982,13.212],[105.986,13.211],[105.989,13.211],[105.99,13.21],[106.007,13.204],[106.009,13.204],[106.012,13.203],[106.016,13.204],[106.02,13.204],[106.023,13.206],[106.025,13.207],[106.027,13.21],[106.029,13.215],[106.035,13.248],[106.038,13.254],[106.1,13.343],[106.112,13.352],[106.118,13.356],[106.126,13.36],[106.135,13.362],[106.181,13.366],[106.207,13.361],[106.215,13.361],[106.221,13.364],[106.228,13.37],[106.238,13.383],[106.244,13.387],[106.251,13.391],[106.308,13.415],[106.325,13.419],[106.362,13.422],[106.364,13.312],[106.36,13.294],[106.359,13.289],[106.365,13.268],[106.379,13.23],[106.389,13.218],[106.419,13.201],[106.429,13.193],[106.434,13.187],[106.436,13.183],[106.438,13.18],[106.439,13.176],[106.44,13.172],[106.44,13.167],[106.439,13.163],[106.436,13.16],[106.433,13.159],[106.429,13.158],[106.372,13.159],[106.367,13.157],[106.362,13.153],[106.354,13.143],[106.35,13.137],[106.348,13.132],[106.348,13.128],[106.349,13.101],[106.351,13.095],[106.353,13.091],[106.358,13.086],[106.388,13.045],[106.391,13.041],[106.394,13.039],[106.396,13.038],[106.409,13.032],[106.412,13.029],[106.415,13.026],[106.422,13.016],[106.428,13.009],[106.437,13.004],[106.448,12.999],[106.451,12.998],[106.454,12.998],[106.471,12.997],[106.476,12.997],[106.483,12.995],[106.487,12.994],[106.49,12.992],[106.502,12.977],[106.562,12.942],[106.598,12.927],[106.606,12.923],[106.609,12.92],[106.612,12.916],[106.614,12.909],[106.615,12.897],[106.62,12.86],[106.618,12.848],[106.616,12.845],[106.613,12.843],[106.61,12.841],[106.604,12.839],[106.598,12.835],[106.591,12.827],[106.579,12.809],[106.572,12.801],[106.567,12.797],[106.538,12.784],[106.517,12.778],[106.498,12.768],[106.474,12.762],[106.434,12.738],[106.419,12.723],[106.397,12.687],[106.371,12.592],[106.367,12.566],[106.37,12.551],[106.369,12.529],[106.37,12.525],[106.371,12.522],[106.375,12.517],[106.38,12.514],[106.409,12.5],[106.456,12.47],[106.469,12.465],[106.489,12.453],[106.497,12.447],[106.502,12.445],[106.508,12.442],[106.522,12.437],[106.525,12.436],[106.528,12.434],[106.553,12.412],[106.556,12.408],[106.561,12.4],[106.572,12.376],[106.585,12.332],[106.589,12.323],[106.592,12.319],[106.597,12.315],[106.612,12.306],[106.628,12.3],[106.653,12.297],[106.695,12.285],[106.708,12.28],[106.72,12.272],[106.729,12.268],[106.733,12.265],[106.736,12.262],[106.747,12.251],[106.754,12.245],[106.761,12.237],[106.769,12.226],[106.774,12.215],[106.788,12.193],[106.789,12.184],[106.784,12.118],[106.789,12.074],[106.791,12.068],[106.791,12.067]]]}},{"type":"Feature","id":"KH-11","properties":{"id":"KH-11","countryCode":"KH","isoSubdivision":"KH-11","name":"Mondulkiri","name_en":"Mondulkiri","name_ko":"몬둘키리","type":"Province","labelLongitude":106.961,"labelLatitude":12.628,"minZoom":8},"geometry":{"type":"Polygon","coordinates":[[[107.54,12.717],[107.565,12.606],[107.567,12.574],[107.563,12.544],[107.558,12.531],[107.552,12.52],[107.55,12.509],[107.557,12.496],[107.557,12.473],[107.527,12.391],[107.522,12.367],[107.514,12.344],[107.5,12.326],[107.474,12.315],[107.45,12.299],[107.416,12.254],[107.393,12.253],[107.374,12.269],[107.344,12.315],[107.32,12.329],[107.276,12.325],[107.228,12.311],[107.212,12.306],[107.153,12.277],[107.123,12.246],[107.116,12.232],[107.104,12.221],[107.078,12.203],[107.046,12.164],[106.978,12.097],[106.953,12.081],[106.916,12.067],[106.879,12.063],[106.803,12.068],[106.791,12.067],[106.791,12.068],[106.789,12.074],[106.784,12.118],[106.789,12.184],[106.788,12.193],[106.774,12.215],[106.769,12.226],[106.761,12.237],[106.754,12.245],[106.747,12.251],[106.736,12.262],[106.733,12.265],[106.729,12.268],[106.72,12.272],[106.708,12.28],[106.695,12.285],[106.653,12.297],[106.628,12.3],[106.612,12.306],[106.597,12.315],[106.592,12.319],[106.589,12.323],[106.585,12.332],[106.572,12.376],[106.561,12.4],[106.556,12.408],[106.553,12.412],[106.528,12.434],[106.525,12.436],[106.522,12.437],[106.508,12.442],[106.502,12.445],[106.497,12.447],[106.489,12.453],[106.469,12.465],[106.456,12.47],[106.409,12.5],[106.38,12.514],[106.375,12.517],[106.371,12.522],[106.37,12.525],[106.369,12.529],[106.37,12.551],[106.367,12.566],[106.371,12.592],[106.397,12.687],[106.419,12.723],[106.434,12.738],[106.474,12.762],[106.498,12.768],[106.517,12.778],[106.538,12.784],[106.567,12.797],[106.572,12.801],[106.579,12.809],[106.591,12.827],[106.598,12.835],[106.604,12.839],[106.61,12.841],[106.613,12.843],[106.616,12.845],[106.618,12.848],[106.62,12.86],[106.615,12.897],[106.614,12.909],[106.612,12.916],[106.609,12.92],[106.606,12.923],[106.598,12.927],[106.562,12.942],[106.502,12.977],[106.49,12.992],[106.487,12.994],[106.483,12.995],[106.476,12.997],[106.471,12.997],[106.454,12.998],[106.451,12.998],[106.448,12.999],[106.437,13.004],[106.428,13.009],[106.422,13.016],[106.415,13.026],[106.412,13.029],[106.409,13.032],[106.396,13.038],[106.394,13.039],[106.391,13.041],[106.388,13.045],[106.358,13.086],[106.353,13.091],[106.351,13.095],[106.349,13.101],[106.348,13.128],[106.348,13.132],[106.35,13.137],[106.354,13.143],[106.362,13.153],[106.367,13.157],[106.372,13.159],[106.429,13.158],[106.433,13.159],[106.436,13.16],[106.439,13.163],[106.44,13.167],[106.44,13.172],[106.439,13.176],[106.438,13.18],[106.436,13.183],[106.434,13.187],[106.429,13.193],[106.419,13.201],[106.389,13.218],[106.379,13.23],[106.365,13.268],[106.359,13.289],[106.36,13.294],[106.364,13.312],[106.362,13.422],[106.418,13.425],[106.439,13.421],[106.501,13.378],[106.519,13.369],[106.531,13.365],[106.545,13.363],[106.609,13.336],[106.659,13.288],[106.665,13.283],[106.703,13.259],[106.739,13.223],[106.787,13.191],[106.851,13.167],[106.868,13.165],[106.909,13.165],[106.925,13.164],[106.955,13.17],[106.967,13.17],[106.971,13.169],[106.978,13.169],[107.003,13.174],[107.018,13.175],[107.022,13.174],[107.024,13.172],[107.027,13.17],[107.029,13.168],[107.033,13.167],[107.038,13.168],[107.045,13.172],[107.066,13.189],[107.071,13.193],[107.073,13.196],[107.075,13.199],[107.077,13.218],[107.079,13.223],[107.082,13.229],[107.083,13.232],[107.084,13.236],[107.085,13.24],[107.085,13.243],[107.084,13.249],[107.083,13.25],[107.079,13.265],[107.078,13.268],[107.075,13.274],[107.071,13.279],[107.068,13.284],[107.065,13.291],[107.065,13.295],[107.066,13.299],[107.067,13.302],[107.069,13.305],[107.082,13.318],[107.084,13.319],[107.087,13.319],[107.1,13.319],[107.108,13.311],[107.142,13.323],[107.203,13.315],[107.231,13.331],[107.24,13.346],[107.245,13.361],[107.254,13.37],[107.272,13.366],[107.283,13.355],[107.296,13.323],[107.307,13.311],[107.317,13.316],[107.328,13.318],[107.351,13.317],[107.356,13.313],[107.366,13.294],[107.371,13.29],[107.37,13.284],[107.38,13.278],[107.399,13.287],[107.404,13.29],[107.41,13.296],[107.416,13.303],[107.42,13.307],[107.423,13.308],[107.426,13.31],[107.438,13.313],[107.445,13.316],[107.457,13.32],[107.461,13.322],[107.463,13.325],[107.466,13.33],[107.469,13.331],[107.472,13.331],[107.478,13.328],[107.488,13.319],[107.495,13.314],[107.499,13.311],[107.504,13.306],[107.506,13.305],[107.51,13.303],[107.52,13.3],[107.524,13.298],[107.529,13.297],[107.557,13.293],[107.565,13.291],[107.575,13.294],[107.562,13.262],[107.46,13.022],[107.463,13.007],[107.479,12.996],[107.481,12.989],[107.481,12.982],[107.479,12.977],[107.474,12.973],[107.468,12.963],[107.466,12.952],[107.468,12.941],[107.48,12.916],[107.483,12.886],[107.487,12.871],[107.494,12.859],[107.522,12.827],[107.536,12.8],[107.539,12.773],[107.538,12.747],[107.54,12.717]]]}},{"type":"Feature","id":"KH-12","properties":{"id":"KH-12","countryCode":"KH","isoSubdivision":"KH-12","name":"Phnom Penh","name_en":"Phnom Penh","name_ko":"프놈펜","type":"Municipality","labelLongitude":104.874,"labelLatitude":11.573,"minZoom":8},"geometry":{"type":"Polygon","coordinates":[[[104.872,11.681],[104.916,11.678],[104.921,11.677],[104.924,11.673],[104.925,11.653],[104.934,11.624],[104.941,11.594],[104.944,11.565],[104.946,11.561],[104.948,11.559],[104.968,11.551],[104.965,11.507],[104.963,11.496],[104.951,11.483],[104.938,11.473],[104.929,11.45],[104.926,11.448],[104.923,11.446],[104.91,11.45],[104.889,11.467],[104.883,11.468],[104.877,11.467],[104.868,11.461],[104.857,11.447],[104.853,11.444],[104.847,11.441],[104.826,11.435],[104.815,11.434],[104.808,11.435],[104.781,11.459],[104.796,11.511],[104.797,11.521],[104.794,11.528],[104.787,11.537],[104.785,11.544],[104.784,11.552],[104.784,11.578],[104.789,11.598],[104.815,11.646],[104.87,11.647],[104.865,11.661],[104.861,11.67],[104.86,11.675],[104.86,11.678],[104.872,11.681]]]}},{"type":"Feature","id":"KH-13","properties":{"id":"KH-13","countryCode":"KH","isoSubdivision":"KH-13","name":"Preah Vihear","name_en":"Preah Vihear","name_ko":"프레아비헤아르","type":"Province","labelLongitude":105.125,"labelLatitude":13.728,"minZoom":8},"geometry":{"type":"Polygon","coordinates":[[[104.772,14.44],[104.788,14.438],[104.802,14.43],[104.815,14.42],[104.831,14.412],[104.838,14.411],[104.857,14.414],[104.867,14.414],[104.874,14.411],[104.89,14.4],[104.898,14.396],[104.916,14.393],[104.955,14.386],[104.974,14.381],[104.979,14.369],[104.979,14.355],[104.974,14.31],[104.976,14.301],[105.008,14.244],[105.025,14.224],[105.047,14.214],[105.101,14.231],[105.132,14.281],[105.155,14.33],[105.184,14.346],[105.184,14.314],[105.188,14.291],[105.197,14.27],[105.257,14.182],[105.275,14.165],[105.282,14.161],[105.297,14.157],[105.304,14.152],[105.329,14.118],[105.338,14.11],[105.348,14.106],[105.364,14.104],[105.392,14.104],[105.422,14.108],[105.45,14.117],[105.474,14.133],[105.49,14.137],[105.505,14.145],[105.533,14.164],[105.541,14.159],[105.549,14.153],[105.556,14.146],[105.561,14.138],[105.577,14.144],[105.595,14.136],[105.61,14.121],[105.617,14.103],[105.633,14.114],[105.643,14.113],[105.653,14.107],[105.669,14.1],[105.684,14.099],[105.705,14.102],[105.716,14.102],[105.744,14.087],[105.759,14.062],[105.77,14.035],[105.787,14.01],[105.873,13.937],[105.896,13.925],[105.889,13.921],[105.879,13.918],[105.86,13.915],[105.742,13.914],[105.725,13.912],[105.718,13.91],[105.714,13.909],[105.711,13.906],[105.709,13.901],[105.707,13.891],[105.708,13.886],[105.709,13.881],[105.711,13.879],[105.713,13.872],[105.712,13.868],[105.71,13.864],[105.703,13.86],[105.693,13.857],[105.69,13.856],[105.686,13.857],[105.683,13.858],[105.681,13.86],[105.676,13.864],[105.673,13.866],[105.67,13.867],[105.666,13.866],[105.659,13.864],[105.647,13.863],[105.642,13.862],[105.638,13.86],[105.631,13.853],[105.627,13.85],[105.624,13.849],[105.621,13.849],[105.618,13.851],[105.615,13.853],[105.613,13.856],[105.605,13.869],[105.602,13.872],[105.6,13.874],[105.597,13.876],[105.593,13.877],[105.589,13.878],[105.585,13.878],[105.577,13.877],[105.574,13.876],[105.571,13.875],[105.568,13.873],[105.562,13.869],[105.548,13.856],[105.546,13.854],[105.54,13.85],[105.533,13.845],[105.529,13.84],[105.527,13.836],[105.525,13.832],[105.525,13.826],[105.529,13.783],[105.527,13.771],[105.527,13.767],[105.529,13.762],[105.532,13.756],[105.539,13.746],[105.544,13.741],[105.548,13.738],[105.551,13.736],[105.553,13.734],[105.557,13.73],[105.561,13.723],[105.571,13.691],[105.58,13.637],[105.567,13.496],[105.546,13.469],[105.41,13.399],[105.387,13.391],[105.189,13.255],[105.185,13.25],[105.172,13.23],[105.164,13.222],[105.095,13.163],[104.997,13.115],[104.938,13.121],[104.916,13.129],[104.904,13.139],[104.9,13.144],[104.894,13.151],[104.886,13.171],[104.882,13.192],[104.878,13.23],[104.884,13.276],[104.889,13.295],[104.899,13.315],[104.902,13.323],[104.901,13.331],[104.895,13.336],[104.885,13.339],[104.789,13.357],[104.727,13.359],[104.694,13.349],[104.66,13.336],[104.563,13.284],[104.578,13.414],[104.584,13.434],[104.596,13.455],[104.68,13.566],[104.682,13.572],[104.681,13.576],[104.68,13.578],[104.673,13.577],[104.663,13.57],[104.659,13.568],[104.634,13.559],[104.622,13.56],[104.536,13.582],[104.448,13.595],[104.43,13.599],[104.426,13.601],[104.422,13.604],[104.418,13.609],[104.414,13.616],[104.412,13.623],[104.41,13.629],[104.409,13.638],[104.41,13.647],[104.414,13.661],[104.425,13.683],[104.428,13.693],[104.429,13.704],[104.423,13.754],[104.42,13.763],[104.416,13.77],[104.413,13.776],[104.409,13.782],[104.407,13.791],[104.403,13.811],[104.399,13.815],[104.395,13.818],[104.391,13.82],[104.389,13.823],[104.382,13.841],[104.379,13.848],[104.374,13.851],[104.369,13.853],[104.357,13.854],[104.353,13.858],[104.354,13.863],[104.391,13.913],[104.395,13.921],[104.398,13.93],[104.399,13.943],[104.398,13.95],[104.401,13.961],[104.446,14.086],[104.451,14.133],[104.459,14.151],[104.469,14.166],[104.475,14.172],[104.493,14.185],[104.497,14.189],[104.498,14.193],[104.497,14.195],[104.492,14.2],[104.472,14.215],[104.441,14.252],[104.439,14.256],[104.438,14.261],[104.442,14.267],[104.446,14.27],[104.451,14.273],[104.453,14.278],[104.454,14.286],[104.454,14.319],[104.458,14.339],[104.459,14.357],[104.462,14.357],[104.468,14.36],[104.474,14.366],[104.482,14.371],[104.493,14.374],[104.511,14.371],[104.527,14.364],[104.543,14.36],[104.563,14.368],[104.574,14.381],[104.583,14.396],[104.595,14.41],[104.61,14.419],[104.627,14.419],[104.651,14.409],[104.668,14.41],[104.675,14.415],[104.685,14.431],[104.693,14.434],[104.701,14.43],[104.706,14.412],[104.713,14.407],[104.728,14.41],[104.758,14.433],[104.772,14.44]]]}},{"type":"Feature","id":"KH-14","properties":{"id":"KH-14","countryCode":"KH","isoSubdivision":"KH-14","name":"Prey Veng","name_en":"Prey Veng","name_ko":"프레이벵","type":"Province","labelLongitude":105.473,"labelLatitude":11.356,"minZoom":8},"geometry":{"type":"Polygon","coordinates":[[[105.821,11.641],[105.818,11.639],[105.805,11.625],[105.793,11.607],[105.79,11.587],[105.793,11.583],[105.787,11.579],[105.783,11.577],[105.78,11.576],[105.776,11.575],[105.768,11.574],[105.751,11.574],[105.747,11.574],[105.743,11.572],[105.732,11.566],[105.706,11.561],[105.7,11.558],[105.696,11.554],[105.691,11.548],[105.678,11.515],[105.665,11.453],[105.658,11.431],[105.653,11.418],[105.652,11.414],[105.651,11.408],[105.651,11.328],[105.658,11.277],[105.66,11.27],[105.661,11.267],[105.664,11.26],[105.662,11.256],[105.646,11.258],[105.64,11.254],[105.638,11.251],[105.633,11.243],[105.626,11.236],[105.624,11.234],[105.622,11.231],[105.617,11.205],[105.614,11.197],[105.61,11.187],[105.61,11.179],[105.61,11.166],[105.618,11.124],[105.621,11.116],[105.624,11.114],[105.626,11.111],[105.627,11.108],[105.626,11.103],[105.623,11.095],[105.62,11.091],[105.618,11.088],[105.607,11.076],[105.605,11.073],[105.602,11.066],[105.6,11.059],[105.596,11.026],[105.593,11.02],[105.589,11.012],[105.589,11.009],[105.592,11.005],[105.6,10.999],[105.61,10.988],[105.617,10.971],[105.524,10.951],[105.474,10.941],[105.466,10.942],[105.443,10.953],[105.415,10.961],[105.41,10.963],[105.398,10.955],[105.357,10.908],[105.328,10.848],[105.318,10.839],[105.303,10.844],[105.269,10.874],[105.253,10.884],[105.209,10.892],[105.194,10.994],[105.194,11.022],[105.199,11.05],[105.222,11.104],[105.237,11.155],[105.25,11.176],[105.282,11.21],[105.29,11.233],[105.289,11.261],[105.269,11.341],[105.263,11.384],[105.272,11.392],[105.295,11.404],[105.295,11.426],[105.286,11.437],[105.272,11.446],[105.199,11.505],[105.149,11.532],[105.142,11.538],[105.137,11.544],[105.117,11.579],[105.115,11.586],[105.112,11.595],[105.134,11.633],[105.137,11.648],[105.136,11.652],[105.133,11.659],[105.131,11.668],[105.13,11.677],[105.131,11.682],[105.133,11.685],[105.134,11.687],[105.135,11.688],[105.152,11.712],[105.156,11.72],[105.157,11.726],[105.157,11.734],[105.157,11.737],[105.155,11.747],[105.234,11.8],[105.273,11.834],[105.282,11.843],[105.3,11.857],[105.31,11.863],[105.319,11.867],[105.329,11.869],[105.348,11.865],[105.407,11.842],[105.423,11.82],[105.434,11.793],[105.437,11.788],[105.442,11.782],[105.445,11.78],[105.449,11.778],[105.46,11.773],[105.467,11.772],[105.503,11.768],[105.627,11.747],[105.7,11.746],[105.728,11.72],[105.752,11.702],[105.76,11.697],[105.767,11.694],[105.776,11.691],[105.787,11.689],[105.79,11.689],[105.826,11.695],[105.831,11.693],[105.833,11.686],[105.832,11.671],[105.822,11.646],[105.821,11.642],[105.821,11.641]]]}},{"type":"Feature","id":"KH-15","properties":{"id":"KH-15","countryCode":"KH","isoSubdivision":"KH-15","name":"Pursat","name_en":"Pursat","name_ko":"푸르사트","type":"Province","labelLongitude":103.549,"labelLatitude":12.339,"minZoom":8},"geometry":{"type":"Polygon","coordinates":[[[102.765,12.045],[102.751,12.061],[102.7,12.139],[102.692,12.178],[102.715,12.342],[102.72,12.361],[102.731,12.38],[102.756,12.402],[102.765,12.416],[102.764,12.425],[102.788,12.416],[102.792,12.413],[102.794,12.412],[102.796,12.41],[102.8,12.409],[102.804,12.409],[102.811,12.41],[102.818,12.413],[102.836,12.428],[102.843,12.432],[102.853,12.433],[102.863,12.436],[102.878,12.441],[102.896,12.452],[102.95,12.473],[102.958,12.478],[102.969,12.492],[102.988,12.514],[102.992,12.516],[102.998,12.517],[103,12.515],[103.006,12.509],[103.02,12.498],[103.031,12.493],[103.037,12.492],[103.044,12.492],[103.052,12.492],[103.062,12.493],[103.069,12.496],[103.074,12.498],[103.076,12.501],[103.08,12.506],[103.084,12.509],[103.092,12.513],[103.111,12.517],[103.14,12.517],[103.151,12.519],[103.169,12.529],[103.191,12.544],[103.235,12.562],[103.319,12.585],[103.34,12.588],[103.436,12.576],[103.506,12.559],[103.54,12.562],[103.57,12.572],[103.586,12.581],[103.596,12.589],[103.602,12.596],[103.612,12.616],[103.612,12.618],[103.614,12.623],[103.635,12.654],[103.642,12.669],[103.642,12.674],[103.642,12.677],[103.636,12.703],[103.629,12.717],[103.623,12.743],[103.623,12.751],[103.642,12.805],[103.643,12.809],[103.643,12.811],[103.642,12.814],[103.641,12.816],[103.639,12.818],[103.637,12.82],[103.63,12.823],[103.625,12.829],[103.623,12.838],[103.624,12.852],[103.628,12.861],[103.633,12.867],[103.636,12.869],[103.656,12.877],[103.663,12.881],[103.669,12.886],[103.678,12.896],[103.681,12.904],[103.681,12.912],[103.68,12.92],[103.68,12.926],[103.681,12.938],[103.686,12.947],[103.703,12.971],[103.706,12.982],[103.703,12.99],[103.697,12.995],[103.691,12.999],[103.687,13.003],[103.682,13.01],[103.679,13.019],[103.681,13.027],[103.685,13.033],[103.69,13.037],[103.731,13.068],[103.809,13.145],[104.156,12.798],[104.192,12.749],[104.241,12.691],[104.405,12.551],[104.402,12.511],[104.402,12.5],[104.394,12.464],[104.394,12.451],[104.399,12.434],[104.397,12.428],[104.393,12.421],[104.365,12.395],[104.359,12.387],[104.35,12.36],[104.344,12.347],[104.342,12.344],[104.337,12.338],[104.33,12.332],[104.312,12.321],[104.307,12.319],[104.303,12.318],[104.296,12.316],[104.287,12.311],[104.271,12.296],[104.266,12.293],[104.262,12.29],[104.232,12.284],[104.225,12.282],[104.223,12.281],[104.22,12.277],[104.192,12.239],[104.187,12.225],[104.18,12.183],[104.199,12.108],[104.182,12.09],[104.176,12.086],[104.168,12.083],[104.15,12.087],[104.142,12.087],[104.12,12.085],[104.112,12.081],[104.103,12.072],[104.098,12.063],[104.087,12.032],[104.082,12.024],[104.062,12.004],[104.059,11.999],[104.06,11.993],[104.072,11.981],[104.074,11.978],[104.071,11.975],[104.018,11.948],[104.007,11.945],[103.995,11.946],[103.989,11.947],[103.983,11.952],[103.97,11.968],[103.965,11.973],[103.958,11.978],[103.951,11.981],[103.945,11.982],[103.938,11.979],[103.931,11.972],[103.915,11.953],[103.906,11.943],[103.897,11.938],[103.893,11.937],[103.887,11.934],[103.884,11.931],[103.864,11.908],[103.853,11.917],[103.814,11.94],[103.793,11.957],[103.783,11.963],[103.753,11.976],[103.75,11.979],[103.733,11.986],[103.716,11.99],[103.688,12.001],[103.671,12.008],[103.65,12.021],[103.641,12.028],[103.634,12.036],[103.617,12.06],[103.577,12.1],[103.574,12.101],[103.55,12.112],[103.544,12.116],[103.533,12.126],[103.526,12.131],[103.519,12.134],[103.491,12.142],[103.467,12.142],[103.439,12.137],[103.412,12.137],[103.404,12.134],[103.395,12.124],[103.382,12.103],[103.353,12.068],[103.333,12.051],[103.294,12.029],[103.2,12.004],[103.184,11.998],[103.158,11.983],[103.146,11.98],[103.129,11.98],[103.111,11.983],[103.085,11.991],[103.06,12.002],[103.04,12.013],[103.001,12.029],[102.781,12.044],[102.765,12.045]]]}},{"type":"Feature","id":"KH-16","properties":{"id":"KH-16","countryCode":"KH","isoSubdivision":"KH-16","name":"Ratanakiri","name_en":"Ratanakiri","name_ko":"라타나키리","type":"Province","labelLongitude":107.082,"labelLatitude":13.242,"minZoom":8},"geometry":{"type":"Polygon","coordinates":[[[107.52,14.705],[107.532,14.678],[107.527,14.653],[107.504,14.602],[107.503,14.587],[107.506,14.557],[107.505,14.541],[107.5,14.53],[107.486,14.51],[107.481,14.496],[107.48,14.489],[107.477,14.475],[107.465,14.449],[107.456,14.434],[107.443,14.424],[107.424,14.419],[107.417,14.422],[107.414,14.429],[107.408,14.433],[107.395,14.429],[107.387,14.422],[107.384,14.414],[107.382,14.405],[107.379,14.395],[107.359,14.36],[107.352,14.342],[107.35,14.322],[107.352,14.313],[107.361,14.293],[107.364,14.283],[107.364,14.274],[107.359,14.239],[107.325,14.144],[107.32,14.12],[107.324,14.108],[107.334,14.099],[107.345,14.081],[107.347,14.062],[107.344,14.041],[107.343,14.021],[107.355,14.002],[107.372,13.996],[107.409,14],[107.424,13.994],[107.431,13.984],[107.431,13.975],[107.43,13.965],[107.431,13.956],[107.445,13.927],[107.446,13.922],[107.448,13.909],[107.445,13.898],[107.44,13.886],[107.435,13.87],[107.446,13.839],[107.445,13.83],[107.439,13.809],[107.438,13.798],[107.443,13.783],[107.462,13.761],[107.472,13.746],[107.474,13.742],[107.497,13.717],[107.514,13.693],[107.597,13.535],[107.604,13.499],[107.611,13.4],[107.607,13.37],[107.575,13.294],[107.565,13.291],[107.557,13.293],[107.529,13.297],[107.524,13.298],[107.52,13.3],[107.51,13.303],[107.506,13.305],[107.504,13.306],[107.499,13.311],[107.495,13.314],[107.488,13.319],[107.478,13.328],[107.472,13.331],[107.469,13.331],[107.466,13.33],[107.463,13.325],[107.461,13.322],[107.457,13.32],[107.445,13.316],[107.438,13.313],[107.426,13.31],[107.423,13.308],[107.42,13.307],[107.416,13.303],[107.41,13.296],[107.404,13.29],[107.399,13.287],[107.38,13.278],[107.37,13.284],[107.371,13.29],[107.366,13.294],[107.356,13.313],[107.351,13.317],[107.328,13.318],[107.317,13.316],[107.307,13.311],[107.296,13.323],[107.283,13.355],[107.272,13.366],[107.254,13.37],[107.245,13.361],[107.24,13.346],[107.231,13.331],[107.203,13.315],[107.142,13.323],[107.108,13.311],[107.1,13.319],[107.087,13.319],[107.084,13.319],[107.082,13.318],[107.069,13.305],[107.067,13.302],[107.066,13.299],[107.065,13.295],[107.065,13.291],[107.068,13.284],[107.071,13.279],[107.075,13.274],[107.078,13.268],[107.079,13.265],[107.083,13.25],[107.084,13.249],[107.085,13.243],[107.085,13.24],[107.084,13.236],[107.083,13.232],[107.082,13.229],[107.079,13.223],[107.077,13.218],[107.075,13.199],[107.073,13.196],[107.071,13.193],[107.066,13.189],[107.045,13.172],[107.038,13.168],[107.033,13.167],[107.029,13.168],[107.027,13.17],[107.024,13.172],[107.022,13.174],[107.018,13.175],[107.003,13.174],[106.978,13.169],[106.971,13.169],[106.967,13.17],[106.955,13.17],[106.925,13.164],[106.909,13.165],[106.868,13.165],[106.851,13.167],[106.787,13.191],[106.739,13.223],[106.703,13.259],[106.665,13.283],[106.659,13.288],[106.609,13.336],[106.616,13.352],[106.617,13.364],[106.616,13.368],[106.615,13.373],[106.614,13.376],[106.612,13.379],[106.606,13.386],[106.601,13.394],[106.601,13.404],[106.603,13.441],[106.602,13.452],[106.6,13.463],[106.59,13.478],[106.581,13.516],[106.565,13.541],[106.562,13.549],[106.558,13.555],[106.554,13.562],[106.556,13.586],[106.562,13.613],[106.657,13.786],[106.659,13.793],[106.658,13.816],[106.665,13.826],[106.662,13.839],[106.645,13.889],[106.629,14.027],[106.617,14.072],[106.61,14.081],[106.602,14.09],[106.595,14.099],[106.589,14.112],[106.587,14.124],[106.588,14.137],[106.6,14.213],[106.601,14.22],[106.607,14.235],[106.609,14.247],[106.62,14.275],[106.625,14.298],[106.624,14.316],[106.622,14.333],[106.617,14.347],[106.613,14.364],[106.604,14.386],[106.604,14.396],[106.606,14.407],[106.618,14.449],[106.62,14.454],[106.622,14.458],[106.634,14.451],[106.707,14.429],[106.712,14.426],[106.719,14.418],[106.724,14.412],[106.732,14.397],[106.767,14.348],[106.793,14.323],[106.807,14.313],[106.821,14.308],[106.836,14.307],[106.875,14.328],[106.879,14.333],[106.885,14.336],[106.896,14.336],[106.905,14.333],[106.923,14.322],[106.934,14.32],[106.946,14.324],[106.95,14.329],[106.95,14.335],[106.961,14.36],[106.974,14.363],[106.978,14.365],[106.997,14.395],[107.027,14.43],[107.027,14.435],[107.03,14.436],[107.043,14.431],[107.059,14.418],[107.068,14.406],[107.079,14.401],[107.101,14.408],[107.131,14.428],[107.159,14.452],[107.167,14.467],[107.172,14.484],[107.181,14.496],[107.196,14.496],[107.211,14.493],[107.22,14.498],[107.23,14.518],[107.232,14.538],[107.234,14.545],[107.238,14.55],[107.249,14.557],[107.255,14.561],[107.272,14.585],[107.287,14.599],[107.306,14.597],[107.333,14.578],[107.352,14.562],[107.361,14.558],[107.38,14.554],[107.403,14.544],[107.415,14.543],[107.428,14.554],[107.431,14.561],[107.431,14.57],[107.43,14.578],[107.43,14.586],[107.433,14.594],[107.44,14.604],[107.444,14.61],[107.452,14.632],[107.458,14.639],[107.474,14.646],[107.507,14.693],[107.52,14.705]]]}},{"type":"Feature","id":"KH-17","properties":{"id":"KH-17","countryCode":"KH","isoSubdivision":"KH-17","name":"Siem Reap","name_en":"Siem Reap","name_ko":"시엠레아프","type":"Province","labelLongitude":104.043,"labelLatitude":13.571,"minZoom":8},"geometry":{"type":"Polygon","coordinates":[[[104.177,14.404],[104.186,14.404],[104.183,14.4],[104.183,14.391],[104.189,14.382],[104.201,14.378],[104.219,14.383],[104.232,14.393],[104.247,14.401],[104.271,14.399],[104.325,14.378],[104.439,14.361],[104.446,14.359],[104.453,14.357],[104.459,14.357],[104.458,14.339],[104.454,14.319],[104.454,14.286],[104.453,14.278],[104.451,14.273],[104.446,14.27],[104.442,14.267],[104.438,14.261],[104.439,14.256],[104.441,14.252],[104.472,14.215],[104.492,14.2],[104.497,14.195],[104.498,14.193],[104.497,14.189],[104.493,14.185],[104.475,14.172],[104.469,14.166],[104.459,14.151],[104.451,14.133],[104.446,14.086],[104.401,13.961],[104.398,13.95],[104.399,13.943],[104.398,13.93],[104.395,13.921],[104.391,13.913],[104.354,13.863],[104.353,13.858],[104.357,13.854],[104.369,13.853],[104.374,13.851],[104.379,13.848],[104.382,13.841],[104.389,13.823],[104.391,13.82],[104.395,13.818],[104.399,13.815],[104.403,13.811],[104.407,13.791],[104.409,13.782],[104.413,13.776],[104.416,13.77],[104.42,13.763],[104.423,13.754],[104.429,13.704],[104.428,13.693],[104.425,13.683],[104.414,13.661],[104.41,13.647],[104.409,13.638],[104.41,13.629],[104.412,13.623],[104.414,13.616],[104.418,13.609],[104.422,13.604],[104.426,13.601],[104.43,13.599],[104.448,13.595],[104.536,13.582],[104.622,13.56],[104.634,13.559],[104.659,13.568],[104.663,13.57],[104.673,13.577],[104.68,13.578],[104.681,13.576],[104.682,13.572],[104.68,13.566],[104.596,13.455],[104.584,13.434],[104.578,13.414],[104.563,13.284],[104.556,13.265],[104.55,13.258],[104.538,13.247],[104.529,13.242],[104.493,13.23],[104.487,13.227],[104.484,13.222],[104.482,13.216],[104.477,13.2],[104.469,13.113],[104.471,13.087],[104.47,13.082],[104.467,13.078],[104.458,13.078],[104.453,13.08],[104.447,13.08],[104.445,13.078],[104.443,13.072],[104.442,13.056],[104.44,13.049],[104.406,12.991],[104.392,12.939],[104.384,12.918],[104.379,12.914],[104.372,12.908],[104.355,12.898],[104.328,12.886],[104.325,12.884],[104.312,12.875],[104.286,12.861],[104.274,12.852],[104.231,12.806],[104.226,12.796],[104.217,12.765],[104.192,12.749],[104.156,12.798],[103.809,13.145],[103.749,13.208],[103.711,13.266],[103.684,13.316],[103.67,13.329],[103.59,13.344],[103.575,13.349],[103.566,13.354],[103.56,13.359],[103.548,13.375],[103.543,13.379],[103.538,13.381],[103.523,13.384],[103.489,13.397],[103.456,13.392],[103.441,13.394],[103.432,13.399],[103.425,13.405],[103.406,13.428],[103.404,13.648],[103.409,13.663],[103.419,13.676],[103.43,13.697],[103.432,13.716],[103.417,13.774],[103.42,13.807],[103.418,13.85],[103.42,13.872],[103.433,13.887],[103.461,13.9],[103.48,13.905],[103.519,13.909],[103.539,13.914],[103.555,13.923],[103.598,13.958],[103.616,13.967],[103.673,13.986],[103.687,13.995],[103.813,14.125],[103.85,14.148],[103.919,14.177],[104.074,14.245],[104.078,14.257],[104.082,14.264],[104.083,14.27],[104.081,14.276],[104.073,14.284],[104.059,14.293],[104.053,14.302],[104.049,14.31],[104.045,14.354],[104.045,14.357],[104.046,14.357],[104.074,14.371],[104.11,14.38],[104.116,14.377],[104.121,14.371],[104.128,14.366],[104.141,14.366],[104.148,14.37],[104.173,14.396],[104.175,14.401],[104.177,14.404]]]}},{"type":"Feature","id":"KH-18","properties":{"id":"KH-18","countryCode":"KH","isoSubdivision":"KH-18","name":"Sihanoukville","name_en":"Sihanoukville","name_ko":"시아누크빌","type":"Municipality","labelLongitude":103.775,"labelLatitude":10.485,"minZoom":8},"geometry":{"type":"MultiPolygon","coordinates":[[[[103.784,10.515],[103.799,10.505],[103.806,10.484],[103.805,10.463],[103.795,10.454],[103.778,10.454],[103.764,10.457],[103.752,10.465],[103.743,10.481],[103.752,10.483],[103.756,10.486],[103.764,10.495],[103.757,10.506],[103.76,10.514],[103.77,10.517],[103.784,10.515]]],[[[103.917,10.616],[103.916,10.619],[103.894,10.658],[103.891,10.659],[103.877,10.658],[103.873,10.66],[103.874,10.664],[103.875,10.669],[103.874,10.673],[103.871,10.679],[103.869,10.694],[103.866,10.699],[103.859,10.68],[103.86,10.658],[103.866,10.621],[103.863,10.604],[103.854,10.586],[103.832,10.556],[103.821,10.544],[103.808,10.538],[103.791,10.536],[103.767,10.535],[103.754,10.538],[103.748,10.543],[103.744,10.55],[103.736,10.556],[103.726,10.559],[103.709,10.559],[103.702,10.563],[103.702,10.556],[103.723,10.545],[103.742,10.526],[103.747,10.509],[103.726,10.501],[103.693,10.503],[103.656,10.495],[103.637,10.495],[103.624,10.501],[103.617,10.515],[103.615,10.529],[103.616,10.535],[103.613,10.538],[103.611,10.551],[103.606,10.556],[103.598,10.557],[103.594,10.554],[103.591,10.55],[103.586,10.549],[103.579,10.551],[103.57,10.555],[103.562,10.562],[103.554,10.586],[103.544,10.596],[103.524,10.611],[103.507,10.604],[103.502,10.617],[103.507,10.635],[103.52,10.645],[103.528,10.652],[103.538,10.67],[103.547,10.689],[103.551,10.703],[103.567,10.727],[103.606,10.738],[103.684,10.741],[103.685,10.741],[103.689,10.741],[103.689,10.743],[103.716,10.758],[103.739,10.779],[103.744,10.785],[103.746,10.789],[103.747,10.793],[103.754,10.808],[103.769,10.831],[103.772,10.837],[103.773,10.841],[103.774,10.849],[103.775,10.862],[103.777,10.869],[103.78,10.877],[103.787,10.894],[103.793,10.9],[103.799,10.904],[103.821,10.902],[103.825,10.903],[103.833,10.904],[103.84,10.906],[103.856,10.917],[103.942,10.989],[103.951,10.955],[103.95,10.852],[103.944,10.805],[103.944,10.797],[103.954,10.713],[103.955,10.693],[103.954,10.678],[103.951,10.67],[103.942,10.652],[103.924,10.624],[103.919,10.618],[103.917,10.616]]]]}},{"type":"Feature","id":"KH-19","properties":{"id":"KH-19","countryCode":"KH","isoSubdivision":"KH-19","name":"Stung Treng","name_en":"Stung Treng","name_ko":"스퉁트렝","type":"Province","labelLongitude":106.095,"labelLatitude":13.666,"minZoom":8},"geometry":{"type":"Polygon","coordinates":[[[106.512,14.59],[106.518,14.585],[106.531,14.566],[106.535,14.553],[106.54,14.522],[106.544,14.512],[106.552,14.507],[106.575,14.502],[106.586,14.496],[106.605,14.467],[106.622,14.458],[106.62,14.454],[106.618,14.449],[106.606,14.407],[106.604,14.396],[106.604,14.386],[106.613,14.364],[106.617,14.347],[106.622,14.333],[106.624,14.316],[106.625,14.298],[106.62,14.275],[106.609,14.247],[106.607,14.235],[106.601,14.22],[106.6,14.213],[106.588,14.137],[106.587,14.124],[106.589,14.112],[106.595,14.099],[106.602,14.09],[106.61,14.081],[106.617,14.072],[106.629,14.027],[106.645,13.889],[106.662,13.839],[106.665,13.826],[106.658,13.816],[106.659,13.793],[106.657,13.786],[106.562,13.613],[106.556,13.586],[106.554,13.562],[106.558,13.555],[106.562,13.549],[106.565,13.541],[106.581,13.516],[106.59,13.478],[106.6,13.463],[106.602,13.452],[106.603,13.441],[106.601,13.404],[106.601,13.394],[106.606,13.386],[106.612,13.379],[106.614,13.376],[106.615,13.373],[106.616,13.368],[106.617,13.364],[106.616,13.352],[106.609,13.336],[106.545,13.363],[106.531,13.365],[106.519,13.369],[106.501,13.378],[106.439,13.421],[106.418,13.425],[106.362,13.422],[106.325,13.419],[106.308,13.415],[106.251,13.391],[106.244,13.387],[106.238,13.383],[106.228,13.37],[106.221,13.364],[106.215,13.361],[106.207,13.361],[106.181,13.366],[106.135,13.362],[106.126,13.36],[106.118,13.356],[106.112,13.352],[106.1,13.343],[106.038,13.254],[106.035,13.248],[106.029,13.215],[106.027,13.21],[106.025,13.207],[106.023,13.206],[106.02,13.204],[106.016,13.204],[106.012,13.203],[106.009,13.204],[106.007,13.204],[105.99,13.21],[105.989,13.211],[105.986,13.211],[105.982,13.212],[105.975,13.209],[105.972,13.205],[105.971,13.201],[105.971,13.188],[105.968,13.18],[105.949,13.147],[105.943,13.137],[105.938,13.132],[105.935,13.13],[105.895,13.117],[105.88,13.116],[105.869,13.116],[105.861,13.118],[105.839,13.127],[105.807,13.144],[105.717,13.213],[105.703,13.22],[105.665,13.229],[105.578,13.27],[105.551,13.335],[105.546,13.369],[105.548,13.393],[105.546,13.469],[105.567,13.496],[105.58,13.637],[105.571,13.691],[105.561,13.723],[105.557,13.73],[105.553,13.734],[105.551,13.736],[105.548,13.738],[105.544,13.741],[105.539,13.746],[105.532,13.756],[105.529,13.762],[105.527,13.767],[105.527,13.771],[105.529,13.783],[105.525,13.826],[105.525,13.832],[105.527,13.836],[105.529,13.84],[105.533,13.845],[105.54,13.85],[105.546,13.854],[105.548,13.856],[105.562,13.869],[105.568,13.873],[105.571,13.875],[105.574,13.876],[105.577,13.877],[105.585,13.878],[105.589,13.878],[105.593,13.877],[105.597,13.876],[105.6,13.874],[105.602,13.872],[105.605,13.869],[105.613,13.856],[105.615,13.853],[105.618,13.851],[105.621,13.849],[105.624,13.849],[105.627,13.85],[105.631,13.853],[105.638,13.86],[105.642,13.862],[105.647,13.863],[105.659,13.864],[105.666,13.866],[105.67,13.867],[105.673,13.866],[105.676,13.864],[105.681,13.86],[105.683,13.858],[105.686,13.857],[105.69,13.856],[105.693,13.857],[105.703,13.86],[105.71,13.864],[105.712,13.868],[105.713,13.872],[105.711,13.879],[105.709,13.881],[105.708,13.886],[105.707,13.891],[105.709,13.901],[105.711,13.906],[105.714,13.909],[105.718,13.91],[105.725,13.912],[105.742,13.914],[105.86,13.915],[105.879,13.918],[105.889,13.921],[105.896,13.925],[105.9,13.923],[105.925,13.917],[105.949,13.92],[105.974,13.929],[105.997,13.928],[106.049,13.915],[106.069,13.917],[106.084,13.934],[106.082,13.981],[106.094,13.996],[106.108,14.01],[106.126,14.022],[106.142,14.035],[106.149,14.054],[106.145,14.072],[106.131,14.087],[106.115,14.1],[106.102,14.115],[106.076,14.175],[106.061,14.192],[106.026,14.213],[106.012,14.226],[106.004,14.246],[106.008,14.271],[106.005,14.29],[105.993,14.306],[105.974,14.321],[105.969,14.332],[105.968,14.343],[105.969,14.355],[105.974,14.366],[105.994,14.362],[106.038,14.348],[106.055,14.348],[106.058,14.353],[106.061,14.369],[106.064,14.373],[106.069,14.373],[106.079,14.373],[106.095,14.374],[106.119,14.37],[106.154,14.368],[106.173,14.37],[106.189,14.379],[106.204,14.4],[106.211,14.421],[106.221,14.473],[106.23,14.49],[106.236,14.484],[106.297,14.448],[106.306,14.445],[106.32,14.444],[106.333,14.448],[106.34,14.449],[106.394,14.456],[106.419,14.466],[106.43,14.486],[106.433,14.487],[106.441,14.493],[106.445,14.499],[106.434,14.506],[106.433,14.512],[106.434,14.52],[106.436,14.524],[106.446,14.529],[106.457,14.528],[106.469,14.525],[106.485,14.524],[106.485,14.53],[106.478,14.533],[106.473,14.537],[106.471,14.545],[106.471,14.554],[106.472,14.564],[106.477,14.567],[106.484,14.567],[106.491,14.571],[106.512,14.59]]]}},{"type":"Feature","id":"KH-2","properties":{"id":"KH-2","countryCode":"KH","isoSubdivision":"KH-2","name":"Battambang","name_en":"Battambang","name_ko":"바탐방","type":"Province","labelLongitude":103.068,"labelLatitude":12.968,"minZoom":8},"geometry":{"type":"Polygon","coordinates":[[[102.764,12.425],[102.762,12.436],[102.751,12.449],[102.718,12.466],[102.705,12.48],[102.702,12.488],[102.7,12.505],[102.697,12.513],[102.69,12.52],[102.665,12.534],[102.589,12.61],[102.559,12.631],[102.502,12.65],[102.496,12.654],[102.517,12.661],[102.66,12.694],[102.739,12.742],[102.754,12.768],[102.758,12.809],[102.758,12.939],[102.752,13],[102.741,13.043],[102.721,13.076],[102.698,13.101],[102.674,13.113],[102.65,13.116],[102.629,13.108],[102.609,13.096],[102.595,13.077],[102.59,13.06],[102.59,13.041],[102.586,13.019],[102.577,13.006],[102.56,13.001],[102.547,12.998],[102.516,12.998],[102.49,12.995],[102.49,12.996],[102.473,13.006],[102.463,13.019],[102.447,13.051],[102.402,13.103],[102.382,13.137],[102.329,13.273],[102.328,13.275],[102.327,13.345],[102.334,13.406],[102.329,13.482],[102.33,13.485],[102.357,13.484],[102.641,13.461],[102.669,13.425],[102.708,13.417],[102.716,13.417],[102.738,13.441],[102.746,13.452],[102.763,13.467],[102.779,13.451],[102.811,13.435],[102.897,13.414],[102.964,13.408],[102.978,13.413],[103.11,13.453],[103.161,13.458],[103.173,13.455],[103.195,13.441],[103.222,13.429],[103.252,13.423],[103.406,13.428],[103.425,13.405],[103.432,13.399],[103.441,13.394],[103.456,13.392],[103.489,13.397],[103.523,13.384],[103.538,13.381],[103.543,13.379],[103.548,13.375],[103.56,13.359],[103.566,13.354],[103.575,13.349],[103.59,13.344],[103.67,13.329],[103.684,13.316],[103.711,13.266],[103.749,13.208],[103.809,13.145],[103.731,13.068],[103.69,13.037],[103.685,13.033],[103.681,13.027],[103.679,13.019],[103.682,13.01],[103.687,13.003],[103.691,12.999],[103.697,12.995],[103.703,12.99],[103.706,12.982],[103.703,12.971],[103.686,12.947],[103.681,12.938],[103.68,12.926],[103.68,12.92],[103.681,12.912],[103.681,12.904],[103.678,12.896],[103.669,12.886],[103.663,12.881],[103.656,12.877],[103.636,12.869],[103.633,12.867],[103.628,12.861],[103.624,12.852],[103.623,12.838],[103.625,12.829],[103.63,12.823],[103.637,12.82],[103.639,12.818],[103.641,12.816],[103.642,12.814],[103.643,12.811],[103.643,12.809],[103.642,12.805],[103.623,12.751],[103.623,12.743],[103.629,12.717],[103.636,12.703],[103.642,12.677],[103.642,12.674],[103.642,12.669],[103.635,12.654],[103.614,12.623],[103.612,12.618],[103.612,12.616],[103.602,12.596],[103.596,12.589],[103.586,12.581],[103.57,12.572],[103.54,12.562],[103.506,12.559],[103.436,12.576],[103.34,12.588],[103.319,12.585],[103.235,12.562],[103.191,12.544],[103.169,12.529],[103.151,12.519],[103.14,12.517],[103.111,12.517],[103.092,12.513],[103.084,12.509],[103.08,12.506],[103.076,12.501],[103.074,12.498],[103.069,12.496],[103.062,12.493],[103.052,12.492],[103.044,12.492],[103.037,12.492],[103.031,12.493],[103.02,12.498],[103.006,12.509],[103,12.515],[102.998,12.517],[102.992,12.516],[102.988,12.514],[102.969,12.492],[102.958,12.478],[102.95,12.473],[102.896,12.452],[102.878,12.441],[102.863,12.436],[102.853,12.433],[102.843,12.432],[102.836,12.428],[102.818,12.413],[102.811,12.41],[102.804,12.409],[102.8,12.409],[102.796,12.41],[102.794,12.412],[102.792,12.413],[102.788,12.416],[102.764,12.425]]]}},{"type":"Feature","id":"KH-20","properties":{"id":"KH-20","countryCode":"KH","isoSubdivision":"KH-20","name":"Svay Rieng","name_en":"Svay Rieng","name_ko":"스바이리엥","type":"Province","labelLongitude":105.888,"labelLatitude":11.042,"minZoom":8},"geometry":{"type":"Polygon","coordinates":[[[105.793,11.583],[105.803,11.566],[105.816,11.56],[105.842,11.555],[105.853,11.547],[105.858,11.536],[105.859,11.522],[105.857,11.496],[105.872,11.443],[105.874,11.428],[105.871,11.413],[105.86,11.379],[105.843,11.304],[105.844,11.29],[105.857,11.28],[105.874,11.276],[105.887,11.268],[105.889,11.246],[105.9,11.219],[105.92,11.203],[105.974,11.19],[105.989,11.177],[106.013,11.139],[106.028,11.123],[106.063,11.093],[106.077,11.077],[106.087,11.056],[106.098,11.078],[106.114,11.087],[106.131,11.084],[106.149,11.071],[106.16,11.054],[106.177,10.996],[106.188,10.976],[106.181,10.97],[106.17,10.971],[106.149,10.971],[106.131,10.969],[106.128,10.966],[106.122,10.956],[106.125,10.953],[106.123,10.927],[106.122,10.925],[106.127,10.909],[106.152,10.863],[106.177,10.767],[106.155,10.785],[106.129,10.791],[106.072,10.797],[106.046,10.806],[106.018,10.82],[105.993,10.838],[105.974,10.859],[105.965,10.87],[105.931,10.896],[105.93,10.88],[105.92,10.858],[105.909,10.838],[105.899,10.828],[105.879,10.828],[105.861,10.839],[105.848,10.855],[105.84,10.87],[105.829,10.905],[105.821,10.92],[105.787,10.966],[105.77,10.996],[105.753,11.016],[105.726,11.018],[105.697,11.01],[105.674,10.996],[105.655,10.984],[105.632,10.974],[105.617,10.971],[105.61,10.988],[105.6,10.999],[105.592,11.005],[105.589,11.009],[105.589,11.012],[105.593,11.02],[105.596,11.026],[105.6,11.059],[105.602,11.066],[105.605,11.073],[105.607,11.076],[105.618,11.088],[105.62,11.091],[105.623,11.095],[105.626,11.103],[105.627,11.108],[105.626,11.111],[105.624,11.114],[105.621,11.116],[105.618,11.124],[105.61,11.166],[105.61,11.179],[105.61,11.187],[105.614,11.197],[105.617,11.205],[105.622,11.231],[105.624,11.234],[105.626,11.236],[105.633,11.243],[105.638,11.251],[105.64,11.254],[105.646,11.258],[105.662,11.256],[105.664,11.26],[105.661,11.267],[105.66,11.27],[105.658,11.277],[105.651,11.328],[105.651,11.408],[105.652,11.414],[105.653,11.418],[105.658,11.431],[105.665,11.453],[105.678,11.515],[105.691,11.548],[105.696,11.554],[105.7,11.558],[105.706,11.561],[105.732,11.566],[105.743,11.572],[105.747,11.574],[105.751,11.574],[105.768,11.574],[105.776,11.575],[105.78,11.576],[105.783,11.577],[105.787,11.579],[105.793,11.583]]]}},{"type":"Feature","id":"KH-21","properties":{"id":"KH-21","countryCode":"KH","isoSubdivision":"KH-21","name":"Takéo","name_en":"Takéo","name_ko":"타케오","type":"Province","labelLongitude":104.751,"labelLatitude":10.935,"minZoom":8},"geometry":{"type":"Polygon","coordinates":[[[105.039,10.923],[105.029,10.914],[105.018,10.9],[105.011,10.884],[105.015,10.849],[105.03,10.812],[105.066,10.746],[105.067,10.714],[105.042,10.691],[104.944,10.642],[104.931,10.631],[104.92,10.618],[104.879,10.556],[104.854,10.531],[104.819,10.517],[104.774,10.515],[104.724,10.521],[104.701,10.524],[104.702,10.531],[104.71,10.619],[104.708,10.641],[104.706,10.644],[104.703,10.646],[104.7,10.647],[104.696,10.648],[104.688,10.658],[104.676,10.696],[104.679,10.713],[104.697,10.748],[104.705,10.761],[104.714,10.772],[104.739,10.793],[104.703,10.889],[104.646,10.903],[104.63,10.905],[104.61,10.898],[104.578,10.889],[104.547,10.901],[104.545,10.903],[104.544,10.909],[104.554,10.942],[104.556,10.954],[104.553,10.96],[104.551,10.963],[104.539,11.018],[104.537,11.026],[104.525,11.036],[104.514,11.042],[104.495,11.049],[104.462,11.055],[104.454,11.058],[104.444,11.064],[104.439,11.072],[104.436,11.079],[104.435,11.089],[104.438,11.121],[104.471,11.109],[104.483,11.106],[104.512,11.106],[104.523,11.104],[104.533,11.102],[104.556,11.089],[104.561,11.087],[104.613,11.088],[104.617,11.089],[104.623,11.091],[104.629,11.094],[104.64,11.097],[104.674,11.1],[104.673,11.148],[104.683,11.194],[104.689,11.223],[104.703,11.308],[104.705,11.319],[104.713,11.328],[104.744,11.355],[104.77,11.338],[104.78,11.336],[104.782,11.337],[104.79,11.341],[104.803,11.343],[104.834,11.345],[104.865,11.353],[104.871,11.353],[104.876,11.353],[104.879,11.351],[104.882,11.349],[104.888,11.346],[104.923,11.339],[104.929,11.336],[104.931,11.335],[104.935,11.329],[104.933,11.283],[104.935,11.268],[104.936,11.265],[104.938,11.263],[104.943,11.259],[104.949,11.255],[104.969,11.225],[104.981,11.214],[105,11.199],[105.02,11.185],[105.027,11.17],[105.027,11.161],[105.014,11.113],[105.013,11.089],[105.017,11.041],[105.009,11.01],[105.01,10.989],[105.012,10.984],[105.014,10.982],[105.016,10.979],[105.019,10.975],[105.022,10.968],[105.031,10.936],[105.033,10.933],[105.034,10.93],[105.038,10.923],[105.039,10.923]]]}},{"type":"Feature","id":"KH-22","properties":{"id":"KH-22","countryCode":"KH","isoSubdivision":"KH-22","name":"Oddar Meanchey","name_en":"Oddar Meanchey","name_ko":"오다르메안체이","type":"Province","labelLongitude":103.55,"labelLatitude":14.171,"minZoom":8},"geometry":{"type":"Polygon","coordinates":[[[103.647,14.444],[103.657,14.441],[103.665,14.436],[103.671,14.43],[103.674,14.419],[103.672,14.396],[103.675,14.386],[103.682,14.384],[103.717,14.382],[103.775,14.367],[103.794,14.365],[103.807,14.366],[103.816,14.368],[103.824,14.368],[103.838,14.363],[103.849,14.357],[103.859,14.35],[103.87,14.343],[103.885,14.34],[103.903,14.342],[103.908,14.348],[103.911,14.356],[103.92,14.365],[103.974,14.367],[104.001,14.345],[104.036,14.353],[104.045,14.357],[104.045,14.354],[104.049,14.31],[104.053,14.302],[104.059,14.293],[104.073,14.284],[104.081,14.276],[104.083,14.27],[104.082,14.264],[104.078,14.257],[104.074,14.245],[103.919,14.177],[103.85,14.148],[103.813,14.125],[103.687,13.995],[103.673,13.986],[103.616,13.967],[103.598,13.958],[103.555,13.923],[103.539,13.914],[103.519,13.909],[103.48,13.905],[103.461,13.9],[103.433,13.887],[103.431,13.919],[103.417,13.941],[103.41,13.948],[103.35,13.995],[103.343,14.001],[103.342,14.004],[103.33,14.064],[103.306,14.049],[103.292,14.035],[103.264,14.001],[103.224,14.044],[103.212,14.054],[103.209,14.055],[103.2,14.054],[103.195,14.053],[103.19,14.053],[103.184,14.054],[103.184,14.06],[103.193,14.11],[103.193,14.114],[103.193,14.119],[103.191,14.121],[103.142,14.127],[103.131,14.13],[103.126,14.134],[103.122,14.137],[103.116,14.149],[103.107,14.171],[103.099,14.185],[103.094,14.19],[103.089,14.194],[103.077,14.2],[103.031,14.233],[103.017,14.239],[103.085,14.296],[103.118,14.313],[103.138,14.32],[103.199,14.329],[103.243,14.342],[103.274,14.351],[103.341,14.351],[103.363,14.353],[103.38,14.361],[103.408,14.381],[103.423,14.385],[103.426,14.383],[103.431,14.378],[103.439,14.373],[103.45,14.372],[103.457,14.374],[103.495,14.4],[103.533,14.419],[103.55,14.422],[103.568,14.416],[103.582,14.407],[103.596,14.404],[103.617,14.415],[103.623,14.422],[103.624,14.431],[103.627,14.438],[103.637,14.443],[103.647,14.444]]]}},{"type":"Feature","id":"KH-23","properties":{"id":"KH-23","countryCode":"KH","isoSubdivision":"KH-23","name":"Kep","name_en":"Kep","name_ko":"케프","type":"Province","labelLongitude":104.346,"labelLatitude":10.531,"minZoom":8},"geometry":{"type":"Polygon","coordinates":[[[104.424,10.451],[104.422,10.452],[104.408,10.446],[104.372,10.482],[104.363,10.488],[104.333,10.488],[104.316,10.481],[104.306,10.479],[104.298,10.481],[104.29,10.498],[104.286,10.54],[104.274,10.549],[104.269,10.552],[104.283,10.576],[104.29,10.574],[104.303,10.574],[104.312,10.572],[104.354,10.574],[104.376,10.566],[104.388,10.554],[104.404,10.526],[104.411,10.507],[104.41,10.477],[104.412,10.469],[104.418,10.464],[104.422,10.46],[104.424,10.451]]]}},{"type":"Feature","id":"KH-24","properties":{"id":"KH-24","countryCode":"KH","isoSubdivision":"KH-24","name":"Pailin","name_en":"Pailin","name_ko":"파일린","type":"Municipality","labelLongitude":102.611,"labelLatitude":12.89,"minZoom":8},"geometry":{"type":"Polygon","coordinates":[[[102.496,12.654],[102.486,12.661],[102.479,12.677],[102.477,12.698],[102.478,12.72],[102.483,12.735],[102.495,12.746],[102.506,12.778],[102.507,12.788],[102.504,12.8],[102.5,12.807],[102.496,12.813],[102.49,12.823],[102.483,12.844],[102.479,12.882],[102.474,12.905],[102.468,12.916],[102.465,12.928],[102.466,12.938],[102.478,12.95],[102.479,12.954],[102.478,12.957],[102.469,12.965],[102.467,12.969],[102.469,12.973],[102.474,12.977],[102.481,12.981],[102.487,12.985],[102.49,12.99],[102.49,12.995],[102.516,12.998],[102.547,12.998],[102.56,13.001],[102.577,13.006],[102.586,13.019],[102.59,13.041],[102.59,13.06],[102.595,13.077],[102.609,13.096],[102.629,13.108],[102.65,13.116],[102.674,13.113],[102.698,13.101],[102.721,13.076],[102.741,13.043],[102.752,13],[102.758,12.939],[102.758,12.809],[102.754,12.768],[102.739,12.742],[102.66,12.694],[102.517,12.661],[102.496,12.654]]]}},{"type":"Feature","id":"KH-3","properties":{"id":"KH-3","countryCode":"KH","isoSubdivision":"KH-3","name":"Kampong Cham","name_en":"Kampong Cham","name_ko":"캄퐁참","type":"Province","labelLongitude":105.629,"labelLatitude":12.121,"minZoom":8},"geometry":{"type":"Polygon","coordinates":[[[106.435,11.678],[106.435,11.677],[106.426,11.662],[106.413,11.662],[106.4,11.669],[106.378,11.684],[106.364,11.689],[106.354,11.69],[106.344,11.689],[106.287,11.675],[106.274,11.677],[106.265,11.684],[106.251,11.706],[106.243,11.715],[106.224,11.725],[106.155,11.746],[106.113,11.747],[106.061,11.763],[106.015,11.77],[105.992,11.746],[105.991,11.732],[105.989,11.719],[105.983,11.707],[105.955,11.678],[105.946,11.657],[105.934,11.643],[105.906,11.644],[105.858,11.662],[105.841,11.658],[105.821,11.641],[105.821,11.642],[105.822,11.646],[105.832,11.671],[105.833,11.686],[105.831,11.693],[105.826,11.695],[105.79,11.689],[105.787,11.689],[105.776,11.691],[105.767,11.694],[105.76,11.697],[105.752,11.702],[105.728,11.72],[105.7,11.746],[105.627,11.747],[105.503,11.768],[105.467,11.772],[105.46,11.773],[105.449,11.778],[105.445,11.78],[105.442,11.782],[105.437,11.788],[105.434,11.793],[105.423,11.82],[105.407,11.842],[105.348,11.865],[105.329,11.869],[105.319,11.867],[105.31,11.863],[105.3,11.857],[105.282,11.843],[105.273,11.834],[105.234,11.8],[105.155,11.747],[105.073,11.763],[105.053,11.772],[105.052,11.777],[105.051,11.794],[105.052,11.799],[105.053,11.802],[105.055,11.806],[105.058,11.808],[105.061,11.809],[105.07,11.81],[105.074,11.812],[105.075,11.816],[105.074,11.822],[105.071,11.826],[105.068,11.828],[105.03,11.846],[104.999,11.889],[104.98,11.893],[104.976,11.872],[104.972,11.868],[104.967,11.871],[104.964,11.872],[104.957,11.871],[104.953,11.867],[104.949,11.862],[104.934,11.824],[104.93,11.819],[104.926,11.816],[104.922,11.817],[104.917,11.817],[104.912,11.816],[104.904,11.811],[104.899,11.81],[104.895,11.81],[104.888,11.816],[104.869,11.82],[104.866,11.823],[104.861,11.829],[104.858,11.83],[104.856,11.829],[104.854,11.827],[104.852,11.825],[104.846,11.824],[104.843,11.827],[104.842,11.833],[104.842,11.84],[104.84,11.858],[104.819,11.892],[104.851,11.963],[104.858,11.975],[104.863,11.98],[104.867,11.983],[104.872,11.985],[104.877,11.987],[104.881,11.987],[104.905,11.983],[104.91,11.984],[104.912,11.986],[104.911,11.99],[104.906,11.994],[104.897,11.996],[104.896,11.999],[104.895,12.003],[104.894,12.044],[104.892,12.049],[104.891,12.054],[104.876,12.07],[104.869,12.077],[104.867,12.081],[104.867,12.086],[104.876,12.107],[104.883,12.137],[104.9,12.175],[104.901,12.18],[104.9,12.194],[104.887,12.235],[104.911,12.254],[104.924,12.261],[104.932,12.261],[104.969,12.259],[104.974,12.258],[104.978,12.257],[104.98,12.255],[105,12.233],[105.031,12.224],[105.098,12.218],[105.101,12.217],[105.112,12.207],[105.116,12.206],[105.12,12.205],[105.125,12.205],[105.13,12.208],[105.14,12.211],[105.165,12.213],[105.19,12.194],[105.199,12.192],[105.203,12.195],[105.204,12.197],[105.204,12.199],[105.204,12.203],[105.203,12.21],[105.2,12.216],[105.167,12.291],[105.166,12.312],[105.165,12.318],[105.163,12.322],[105.14,12.357],[105.137,12.365],[105.137,12.371],[105.14,12.373],[105.153,12.379],[105.168,12.39],[105.171,12.392],[105.175,12.393],[105.191,12.391],[105.199,12.391],[105.207,12.393],[105.215,12.393],[105.223,12.393],[105.227,12.392],[105.236,12.391],[105.265,12.392],[105.269,12.391],[105.273,12.39],[105.276,12.389],[105.284,12.382],[105.287,12.381],[105.29,12.379],[105.294,12.379],[105.308,12.378],[105.312,12.377],[105.315,12.376],[105.318,12.374],[105.321,12.372],[105.323,12.37],[105.325,12.367],[105.328,12.361],[105.33,12.359],[105.332,12.356],[105.334,12.354],[105.337,12.352],[105.342,12.351],[105.347,12.352],[105.355,12.356],[105.359,12.359],[105.367,12.372],[105.4,12.484],[105.434,12.487],[105.447,12.486],[105.459,12.481],[105.464,12.478],[105.466,12.476],[105.478,12.469],[105.494,12.461],[105.502,12.459],[105.508,12.458],[105.518,12.46],[105.524,12.463],[105.529,12.466],[105.542,12.478],[105.556,12.486],[105.562,12.488],[105.752,12.508],[105.764,12.47],[105.778,12.393],[105.781,12.343],[105.779,12.335],[105.776,12.326],[105.767,12.313],[105.761,12.307],[105.757,12.303],[105.754,12.298],[105.752,12.294],[105.75,12.264],[105.754,12.263],[105.759,12.266],[105.809,12.255],[105.827,12.254],[105.831,12.255],[105.836,12.251],[105.845,12.21],[105.873,12.215],[105.876,12.216],[105.884,12.223],[105.887,12.224],[105.891,12.224],[105.896,12.224],[105.902,12.224],[105.909,12.221],[105.94,12.21],[105.974,12.203],[105.988,12.197],[106.014,12.179],[106.017,12.175],[106.019,12.172],[106.024,12.153],[106.038,12.149],[106.041,12.15],[106.046,12.15],[106.05,12.148],[106.055,12.143],[106.062,12.131],[106.065,12.124],[106.067,12.119],[106.066,12.114],[106.065,12.111],[106.064,12.108],[106.06,12.102],[106.058,12.099],[106.056,12.097],[106.055,12.094],[106.057,12.091],[106.061,12.088],[106.072,12.084],[106.089,12.075],[106.094,12.073],[106.106,12.073],[106.11,12.072],[106.115,12.07],[106.133,12.057],[106.145,12.05],[106.151,12.048],[106.154,12.046],[106.159,12.04],[106.166,12.031],[106.182,12.001],[106.182,12],[106.181,11.997],[106.18,11.994],[106.177,11.989],[106.172,11.984],[106.17,11.982],[106.167,11.98],[106.165,11.977],[106.164,11.974],[106.162,11.971],[106.162,11.967],[106.162,11.963],[106.163,11.96],[106.174,11.955],[106.222,11.955],[106.227,11.948],[106.23,11.945],[106.232,11.944],[106.236,11.942],[106.241,11.942],[106.248,11.943],[106.276,11.954],[106.281,11.954],[106.287,11.954],[106.31,11.949],[106.319,11.95],[106.389,11.966],[106.395,11.966],[106.404,11.943],[106.433,11.888],[106.439,11.864],[106.436,11.861],[106.421,11.838],[106.42,11.831],[106.42,11.812],[106.418,11.803],[106.411,11.789],[106.403,11.776],[106.398,11.762],[106.399,11.746],[106.426,11.7],[106.435,11.678]]]}},{"type":"Feature","id":"KH-4","properties":{"id":"KH-4","countryCode":"KH","isoSubdivision":"KH-4","name":"Kampong Chhnang","name_en":"Kampong Chhnang","name_ko":"캄퐁치낭","type":"Province","labelLongitude":104.548,"labelLatitude":12.162,"minZoom":8},"geometry":{"type":"Polygon","coordinates":[[[104.199,12.108],[104.18,12.183],[104.187,12.225],[104.192,12.239],[104.22,12.277],[104.223,12.281],[104.225,12.282],[104.232,12.284],[104.262,12.29],[104.266,12.293],[104.271,12.296],[104.287,12.311],[104.296,12.316],[104.303,12.318],[104.307,12.319],[104.312,12.321],[104.33,12.332],[104.337,12.338],[104.342,12.344],[104.344,12.347],[104.35,12.36],[104.359,12.387],[104.365,12.395],[104.393,12.421],[104.397,12.428],[104.399,12.434],[104.394,12.451],[104.394,12.464],[104.402,12.5],[104.402,12.511],[104.405,12.551],[104.434,12.53],[104.446,12.526],[104.462,12.523],[104.504,12.519],[104.52,12.541],[104.525,12.548],[104.528,12.555],[104.53,12.558],[104.535,12.562],[104.555,12.574],[104.571,12.581],[104.585,12.589],[104.602,12.596],[104.624,12.601],[104.63,12.601],[104.667,12.591],[104.771,12.545],[104.83,12.533],[104.824,12.5],[104.823,12.491],[104.828,12.48],[104.835,12.468],[104.841,12.453],[104.865,12.413],[104.867,12.406],[104.867,12.399],[104.864,12.377],[104.867,12.377],[104.869,12.378],[104.895,12.391],[104.905,12.392],[104.908,12.391],[104.911,12.389],[104.912,12.386],[104.915,12.375],[104.915,12.371],[104.914,12.367],[104.909,12.354],[104.905,12.346],[104.898,12.336],[104.87,12.307],[104.852,12.3],[104.857,12.281],[104.859,12.274],[104.871,12.251],[104.887,12.235],[104.9,12.194],[104.901,12.18],[104.9,12.175],[104.883,12.137],[104.876,12.107],[104.867,12.086],[104.867,12.081],[104.869,12.077],[104.876,12.07],[104.891,12.054],[104.892,12.049],[104.894,12.044],[104.895,12.003],[104.896,11.999],[104.897,11.996],[104.906,11.994],[104.911,11.99],[104.912,11.986],[104.91,11.984],[104.905,11.983],[104.881,11.987],[104.877,11.987],[104.872,11.985],[104.867,11.983],[104.863,11.98],[104.858,11.975],[104.851,11.963],[104.819,11.892],[104.802,11.885],[104.787,11.882],[104.782,11.877],[104.768,11.849],[104.761,11.823],[104.739,11.818],[104.722,11.811],[104.718,11.81],[104.71,11.81],[104.703,11.811],[104.685,11.811],[104.675,11.81],[104.628,11.795],[104.557,11.763],[104.528,11.74],[104.522,11.737],[104.518,11.736],[104.513,11.74],[104.511,11.741],[104.5,11.746],[104.465,11.757],[104.461,11.759],[104.433,11.778],[104.421,11.785],[104.385,11.787],[104.374,11.791],[104.366,11.802],[104.324,11.841],[104.321,11.845],[104.32,11.848],[104.318,11.868],[104.316,11.875],[104.28,11.926],[104.273,11.942],[104.267,11.963],[104.264,11.982],[104.255,11.997],[104.254,11.998],[104.249,12.003],[104.224,12.02],[104.216,12.026],[104.212,12.031],[104.211,12.035],[104.21,12.043],[104.21,12.067],[104.208,12.08],[104.199,12.108]]]}},{"type":"Feature","id":"KH-5","properties":{"id":"KH-5","countryCode":"KH","isoSubdivision":"KH-5","name":"Kam","name_en":"Kam","name_ko":"캄퐁스페우","type":"Province","labelLongitude":104.282,"labelLatitude":11.522,"minZoom":8},"geometry":{"type":"Polygon","coordinates":[[[103.956,11.556],[103.942,11.559],[103.939,11.56],[103.935,11.563],[103.927,11.576],[103.918,11.585],[103.847,11.629],[103.827,11.648],[103.819,11.65],[103.809,11.654],[103.805,11.656],[103.803,11.659],[103.8,11.665],[103.798,11.671],[103.798,11.68],[103.799,11.697],[103.797,11.707],[103.779,11.778],[103.777,11.796],[103.778,11.807],[103.781,11.819],[103.787,11.839],[103.788,11.851],[103.787,11.86],[103.785,11.867],[103.783,11.875],[103.783,11.882],[103.784,11.889],[103.785,11.893],[103.787,11.895],[103.789,11.896],[103.793,11.898],[103.864,11.908],[103.884,11.931],[103.887,11.934],[103.893,11.937],[103.897,11.938],[103.906,11.943],[103.915,11.953],[103.931,11.972],[103.938,11.979],[103.945,11.982],[103.951,11.981],[103.958,11.978],[103.965,11.973],[103.97,11.968],[103.983,11.952],[103.989,11.947],[103.995,11.946],[104.007,11.945],[104.018,11.948],[104.071,11.975],[104.074,11.978],[104.072,11.981],[104.06,11.993],[104.059,11.999],[104.062,12.004],[104.082,12.024],[104.087,12.032],[104.098,12.063],[104.103,12.072],[104.112,12.081],[104.12,12.085],[104.142,12.087],[104.15,12.087],[104.168,12.083],[104.176,12.086],[104.182,12.09],[104.199,12.108],[104.208,12.08],[104.21,12.067],[104.21,12.043],[104.211,12.035],[104.212,12.031],[104.216,12.026],[104.224,12.02],[104.249,12.003],[104.254,11.998],[104.255,11.997],[104.264,11.982],[104.267,11.963],[104.273,11.942],[104.28,11.926],[104.316,11.875],[104.318,11.868],[104.32,11.848],[104.321,11.845],[104.324,11.841],[104.366,11.802],[104.374,11.791],[104.385,11.787],[104.421,11.785],[104.433,11.778],[104.461,11.759],[104.465,11.757],[104.5,11.746],[104.511,11.741],[104.513,11.74],[104.518,11.736],[104.522,11.737],[104.528,11.74],[104.557,11.763],[104.628,11.795],[104.675,11.81],[104.685,11.811],[104.703,11.811],[104.71,11.81],[104.718,11.81],[104.722,11.811],[104.739,11.818],[104.761,11.823],[104.761,11.782],[104.759,11.77],[104.754,11.765],[104.749,11.761],[104.743,11.758],[104.734,11.754],[104.724,11.746],[104.715,11.735],[104.711,11.729],[104.708,11.724],[104.7,11.683],[104.67,11.612],[104.666,11.571],[104.651,11.446],[104.666,11.424],[104.693,11.414],[104.773,11.416],[104.784,11.415],[104.787,11.411],[104.744,11.355],[104.713,11.328],[104.705,11.319],[104.703,11.308],[104.689,11.223],[104.683,11.194],[104.673,11.148],[104.674,11.1],[104.64,11.097],[104.629,11.094],[104.623,11.091],[104.617,11.089],[104.613,11.088],[104.561,11.087],[104.556,11.089],[104.533,11.102],[104.523,11.104],[104.512,11.106],[104.483,11.106],[104.471,11.109],[104.438,11.121],[104.411,11.132],[104.338,11.129],[104.262,11.119],[104.183,11.136],[104.17,11.142],[104.161,11.147],[104.145,11.161],[104.113,11.25],[104.107,11.258],[104.098,11.267],[104.096,11.27],[104.093,11.276],[104.092,11.283],[104.093,11.293],[104.097,11.317],[104.101,11.328],[104.105,11.335],[104.113,11.342],[104.116,11.347],[104.118,11.352],[104.116,11.362],[104.112,11.376],[104.098,11.401],[104.089,11.414],[104.076,11.427],[104.072,11.433],[104.058,11.463],[104.056,11.471],[104.056,11.479],[104.062,11.491],[104.073,11.507],[104.073,11.514],[104.073,11.519],[104.054,11.537],[104.026,11.547],[104.008,11.556],[103.991,11.561],[103.979,11.561],[103.971,11.56],[103.961,11.556],[103.956,11.556]]]}},{"type":"Feature","id":"KH-6","properties":{"id":"KH-6","countryCode":"KH","isoSubdivision":"KH-6","name":"Kampong Thom","name_en":"Kampong Thom","name_ko":"캄퐁톰","type":"Province","labelLongitude":104.972,"labelLatitude":12.688,"minZoom":8},"geometry":{"type":"Polygon","coordinates":[[[104.405,12.551],[104.241,12.691],[104.192,12.749],[104.217,12.765],[104.226,12.796],[104.231,12.806],[104.274,12.852],[104.286,12.861],[104.312,12.875],[104.325,12.884],[104.328,12.886],[104.355,12.898],[104.372,12.908],[104.379,12.914],[104.384,12.918],[104.392,12.939],[104.406,12.991],[104.44,13.049],[104.442,13.056],[104.443,13.072],[104.445,13.078],[104.447,13.08],[104.453,13.08],[104.458,13.078],[104.467,13.078],[104.47,13.082],[104.471,13.087],[104.469,13.113],[104.477,13.2],[104.482,13.216],[104.484,13.222],[104.487,13.227],[104.493,13.23],[104.529,13.242],[104.538,13.247],[104.55,13.258],[104.556,13.265],[104.563,13.284],[104.66,13.336],[104.694,13.349],[104.727,13.359],[104.789,13.357],[104.885,13.339],[104.895,13.336],[104.901,13.331],[104.902,13.323],[104.899,13.315],[104.889,13.295],[104.884,13.276],[104.878,13.23],[104.882,13.192],[104.886,13.171],[104.894,13.151],[104.9,13.144],[104.904,13.139],[104.916,13.129],[104.938,13.121],[104.997,13.115],[105.095,13.163],[105.164,13.222],[105.172,13.23],[105.185,13.25],[105.189,13.255],[105.387,13.391],[105.41,13.399],[105.546,13.469],[105.548,13.393],[105.546,13.369],[105.551,13.335],[105.578,13.27],[105.61,13.139],[105.612,13.136],[105.627,13.123],[105.635,13.112],[105.643,13.099],[105.646,13.092],[105.647,13.085],[105.645,13.078],[105.639,13.061],[105.638,13.055],[105.638,13.048],[105.649,12.979],[105.651,12.973],[105.653,12.971],[105.659,12.967],[105.662,12.964],[105.666,12.96],[105.672,12.953],[105.674,12.947],[105.674,12.943],[105.673,12.939],[105.67,12.933],[105.664,12.924],[105.662,12.92],[105.66,12.914],[105.66,12.91],[105.662,12.907],[105.674,12.896],[105.681,12.885],[105.687,12.872],[105.689,12.865],[105.69,12.859],[105.689,12.855],[105.688,12.851],[105.685,12.845],[105.683,12.842],[105.681,12.831],[105.683,12.798],[105.681,12.778],[105.693,12.737],[105.694,12.715],[105.725,12.626],[105.752,12.508],[105.562,12.488],[105.556,12.486],[105.542,12.478],[105.529,12.466],[105.524,12.463],[105.518,12.46],[105.508,12.458],[105.502,12.459],[105.494,12.461],[105.478,12.469],[105.466,12.476],[105.464,12.478],[105.459,12.481],[105.447,12.486],[105.434,12.487],[105.4,12.484],[105.367,12.372],[105.359,12.359],[105.355,12.356],[105.347,12.352],[105.342,12.351],[105.337,12.352],[105.334,12.354],[105.332,12.356],[105.33,12.359],[105.328,12.361],[105.325,12.367],[105.323,12.37],[105.321,12.372],[105.318,12.374],[105.315,12.376],[105.312,12.377],[105.308,12.378],[105.294,12.379],[105.29,12.379],[105.287,12.381],[105.284,12.382],[105.276,12.389],[105.273,12.39],[105.269,12.391],[105.265,12.392],[105.236,12.391],[105.227,12.392],[105.223,12.393],[105.215,12.393],[105.207,12.393],[105.199,12.391],[105.191,12.391],[105.175,12.393],[105.171,12.392],[105.168,12.39],[105.153,12.379],[105.14,12.373],[105.137,12.371],[105.137,12.365],[105.14,12.357],[105.163,12.322],[105.165,12.318],[105.166,12.312],[105.167,12.291],[105.2,12.216],[105.203,12.21],[105.204,12.203],[105.204,12.199],[105.204,12.197],[105.203,12.195],[105.199,12.192],[105.19,12.194],[105.165,12.213],[105.14,12.211],[105.13,12.208],[105.125,12.205],[105.12,12.205],[105.116,12.206],[105.112,12.207],[105.101,12.217],[105.098,12.218],[105.031,12.224],[105,12.233],[104.98,12.255],[104.978,12.257],[104.974,12.258],[104.969,12.259],[104.932,12.261],[104.924,12.261],[104.911,12.254],[104.887,12.235],[104.871,12.251],[104.859,12.274],[104.857,12.281],[104.852,12.3],[104.87,12.307],[104.898,12.336],[104.905,12.346],[104.909,12.354],[104.914,12.367],[104.915,12.371],[104.915,12.375],[104.912,12.386],[104.911,12.389],[104.908,12.391],[104.905,12.392],[104.895,12.391],[104.869,12.378],[104.867,12.377],[104.864,12.377],[104.867,12.399],[104.867,12.406],[104.865,12.413],[104.841,12.453],[104.835,12.468],[104.828,12.48],[104.823,12.491],[104.824,12.5],[104.83,12.533],[104.771,12.545],[104.667,12.591],[104.63,12.601],[104.624,12.601],[104.602,12.596],[104.585,12.589],[104.571,12.581],[104.555,12.574],[104.535,12.562],[104.53,12.558],[104.528,12.555],[104.525,12.548],[104.52,12.541],[104.504,12.519],[104.462,12.523],[104.446,12.526],[104.434,12.53],[104.405,12.551]]]}},{"type":"Feature","id":"KH-7","properties":{"id":"KH-7","countryCode":"KH","isoSubdivision":"KH-7","name":"Kampot","name_en":"Kampot","name_ko":"캄포트","type":"Province","labelLongitude":104.328,"labelLatitude":10.85,"minZoom":8},"geometry":{"type":"Polygon","coordinates":[[[104.701,10.524],[104.626,10.533],[104.583,10.532],[104.567,10.528],[104.554,10.518],[104.544,10.504],[104.536,10.488],[104.494,10.428],[104.484,10.418],[104.47,10.416],[104.451,10.42],[104.449,10.426],[104.432,10.446],[104.424,10.451],[104.422,10.46],[104.418,10.464],[104.412,10.469],[104.41,10.477],[104.411,10.507],[104.404,10.526],[104.388,10.554],[104.376,10.566],[104.354,10.574],[104.312,10.572],[104.303,10.574],[104.29,10.574],[104.283,10.576],[104.269,10.552],[104.257,10.566],[104.25,10.57],[104.243,10.569],[104.237,10.565],[104.23,10.563],[104.223,10.57],[104.207,10.55],[104.181,10.55],[104.13,10.563],[104.113,10.561],[104.089,10.555],[104.072,10.556],[103.976,10.583],[103.959,10.584],[103.946,10.588],[103.918,10.611],[103.917,10.616],[103.919,10.618],[103.924,10.624],[103.942,10.652],[103.951,10.67],[103.954,10.678],[103.955,10.693],[103.954,10.713],[103.944,10.797],[103.944,10.805],[103.95,10.852],[103.951,10.955],[103.942,10.989],[103.986,11.043],[103.995,11.053],[104,11.056],[104.006,11.057],[104.013,11.054],[104.019,11.051],[104.027,11.048],[104.035,11.048],[104.046,11.052],[104.051,11.055],[104.065,11.072],[104.094,11.121],[104.095,11.124],[104.101,11.148],[104.107,11.151],[104.111,11.153],[104.145,11.161],[104.161,11.147],[104.17,11.142],[104.183,11.136],[104.262,11.119],[104.338,11.129],[104.411,11.132],[104.438,11.121],[104.435,11.089],[104.436,11.079],[104.439,11.072],[104.444,11.064],[104.454,11.058],[104.462,11.055],[104.495,11.049],[104.514,11.042],[104.525,11.036],[104.537,11.026],[104.539,11.018],[104.551,10.963],[104.553,10.96],[104.556,10.954],[104.554,10.942],[104.544,10.909],[104.545,10.903],[104.547,10.901],[104.578,10.889],[104.61,10.898],[104.63,10.905],[104.646,10.903],[104.703,10.889],[104.739,10.793],[104.714,10.772],[104.705,10.761],[104.697,10.748],[104.679,10.713],[104.676,10.696],[104.688,10.658],[104.696,10.648],[104.7,10.647],[104.703,10.646],[104.706,10.644],[104.708,10.641],[104.71,10.619],[104.702,10.531],[104.701,10.524]]]}},{"type":"Feature","id":"KH-8","properties":{"id":"KH-8","countryCode":"KH","isoSubdivision":"KH-8","name":"Kandal","name_en":"Kandal","name_ko":"칸달","type":"Province","labelLongitude":104.973,"labelLatitude":11.545,"minZoom":8},"geometry":{"type":"Polygon","coordinates":[[[105.209,10.892],[105.112,10.91],[105.098,10.914],[105.086,10.93],[105.084,10.943],[105.078,10.947],[105.056,10.935],[105.043,10.926],[105.039,10.923],[105.038,10.923],[105.034,10.93],[105.033,10.933],[105.031,10.936],[105.022,10.968],[105.019,10.975],[105.016,10.979],[105.014,10.982],[105.012,10.984],[105.01,10.989],[105.009,11.01],[105.017,11.041],[105.013,11.089],[105.014,11.113],[105.027,11.161],[105.027,11.17],[105.02,11.185],[105,11.199],[104.981,11.214],[104.969,11.225],[104.949,11.255],[104.943,11.259],[104.938,11.263],[104.936,11.265],[104.935,11.268],[104.933,11.283],[104.935,11.329],[104.931,11.335],[104.929,11.336],[104.923,11.339],[104.888,11.346],[104.882,11.349],[104.879,11.351],[104.876,11.353],[104.871,11.353],[104.865,11.353],[104.834,11.345],[104.803,11.343],[104.79,11.341],[104.782,11.337],[104.78,11.336],[104.77,11.338],[104.744,11.355],[104.787,11.411],[104.784,11.415],[104.773,11.416],[104.693,11.414],[104.666,11.424],[104.651,11.446],[104.666,11.571],[104.67,11.612],[104.7,11.683],[104.708,11.724],[104.711,11.729],[104.715,11.735],[104.724,11.746],[104.734,11.754],[104.743,11.758],[104.749,11.761],[104.754,11.765],[104.759,11.77],[104.761,11.782],[104.761,11.823],[104.768,11.849],[104.782,11.877],[104.787,11.882],[104.802,11.885],[104.819,11.892],[104.84,11.858],[104.842,11.84],[104.842,11.833],[104.843,11.827],[104.846,11.824],[104.852,11.825],[104.854,11.827],[104.856,11.829],[104.858,11.83],[104.861,11.829],[104.866,11.823],[104.869,11.82],[104.888,11.816],[104.895,11.81],[104.899,11.81],[104.904,11.811],[104.912,11.816],[104.917,11.817],[104.922,11.817],[104.926,11.816],[104.93,11.819],[104.934,11.824],[104.949,11.862],[104.953,11.867],[104.957,11.871],[104.964,11.872],[104.967,11.871],[104.972,11.868],[104.976,11.872],[104.98,11.893],[104.999,11.889],[105.03,11.846],[105.068,11.828],[105.071,11.826],[105.074,11.822],[105.075,11.816],[105.074,11.812],[105.07,11.81],[105.061,11.809],[105.058,11.808],[105.055,11.806],[105.053,11.802],[105.052,11.799],[105.051,11.794],[105.052,11.777],[105.053,11.772],[105.073,11.763],[105.155,11.747],[105.157,11.737],[105.157,11.734],[105.157,11.726],[105.156,11.72],[105.152,11.712],[105.135,11.688],[105.134,11.687],[105.133,11.685],[105.131,11.682],[105.13,11.677],[105.131,11.668],[105.133,11.659],[105.136,11.652],[105.137,11.648],[105.134,11.633],[105.112,11.595],[105.115,11.586],[105.117,11.579],[105.137,11.544],[105.142,11.538],[105.149,11.532],[105.199,11.505],[105.272,11.446],[105.286,11.437],[105.295,11.426],[105.295,11.404],[105.272,11.392],[105.263,11.384],[105.269,11.341],[105.289,11.261],[105.29,11.233],[105.282,11.21],[105.25,11.176],[105.237,11.155],[105.222,11.104],[105.199,11.05],[105.194,11.022],[105.194,10.994],[105.209,10.892]],[[104.923,11.446],[104.926,11.448],[104.929,11.45],[104.938,11.473],[104.951,11.483],[104.963,11.496],[104.965,11.507],[104.968,11.551],[104.948,11.559],[104.946,11.561],[104.944,11.565],[104.941,11.594],[104.934,11.624],[104.925,11.653],[104.924,11.673],[104.921,11.677],[104.916,11.678],[104.872,11.681],[104.86,11.678],[104.86,11.675],[104.861,11.67],[104.865,11.661],[104.87,11.647],[104.815,11.646],[104.789,11.598],[104.784,11.578],[104.784,11.552],[104.785,11.544],[104.787,11.537],[104.794,11.528],[104.797,11.521],[104.796,11.511],[104.781,11.459],[104.808,11.435],[104.815,11.434],[104.826,11.435],[104.847,11.441],[104.853,11.444],[104.857,11.447],[104.868,11.461],[104.877,11.467],[104.883,11.468],[104.889,11.467],[104.91,11.45],[104.923,11.446]]]}},{"type":"Feature","id":"KH-9","properties":{"id":"KH-9","countryCode":"KH","isoSubdivision":"KH-9","name":"Koh Kong","name_en":"Koh Kong","name_ko":"코콩","type":"Province","labelLongitude":103.466,"labelLatitude":11.561,"minZoom":8},"geometry":{"type":"MultiPolygon","coordinates":[[[[102.914,11.646],[102.929,11.669],[102.925,11.726],[102.914,11.766],[102.885,11.808],[102.843,11.866],[102.797,11.953],[102.787,12.003],[102.771,12.037],[102.765,12.045],[102.781,12.044],[103.001,12.029],[103.04,12.013],[103.06,12.002],[103.085,11.991],[103.111,11.983],[103.129,11.98],[103.146,11.98],[103.158,11.983],[103.184,11.998],[103.2,12.004],[103.294,12.029],[103.333,12.051],[103.353,12.068],[103.382,12.103],[103.395,12.124],[103.404,12.134],[103.412,12.137],[103.439,12.137],[103.467,12.142],[103.491,12.142],[103.519,12.134],[103.526,12.131],[103.533,12.126],[103.544,12.116],[103.55,12.112],[103.574,12.101],[103.577,12.1],[103.617,12.06],[103.634,12.036],[103.641,12.028],[103.65,12.021],[103.671,12.008],[103.688,12.001],[103.716,11.99],[103.733,11.986],[103.75,11.979],[103.753,11.976],[103.783,11.963],[103.793,11.957],[103.814,11.94],[103.853,11.917],[103.864,11.908],[103.793,11.898],[103.789,11.896],[103.787,11.895],[103.785,11.893],[103.784,11.889],[103.783,11.882],[103.783,11.875],[103.785,11.867],[103.787,11.86],[103.788,11.851],[103.787,11.839],[103.781,11.819],[103.778,11.807],[103.777,11.796],[103.779,11.778],[103.797,11.707],[103.799,11.697],[103.798,11.68],[103.798,11.671],[103.8,11.665],[103.803,11.659],[103.805,11.656],[103.809,11.654],[103.819,11.65],[103.827,11.648],[103.847,11.629],[103.918,11.585],[103.927,11.576],[103.935,11.563],[103.939,11.56],[103.942,11.559],[103.956,11.556],[103.961,11.556],[103.971,11.56],[103.979,11.561],[103.991,11.561],[104.008,11.556],[104.026,11.547],[104.054,11.537],[104.073,11.519],[104.073,11.514],[104.073,11.507],[104.062,11.491],[104.056,11.479],[104.056,11.471],[104.058,11.463],[104.072,11.433],[104.076,11.427],[104.089,11.414],[104.098,11.401],[104.112,11.376],[104.116,11.362],[104.118,11.352],[104.116,11.347],[104.113,11.342],[104.105,11.335],[104.101,11.328],[104.097,11.317],[104.093,11.293],[104.092,11.283],[104.093,11.276],[104.096,11.27],[104.098,11.267],[104.107,11.258],[104.113,11.25],[104.145,11.161],[104.111,11.153],[104.107,11.151],[104.101,11.148],[104.095,11.124],[104.094,11.121],[104.065,11.072],[104.051,11.055],[104.046,11.052],[104.035,11.048],[104.027,11.048],[104.019,11.051],[104.013,11.054],[104.006,11.057],[104,11.056],[103.995,11.053],[103.986,11.043],[103.942,10.989],[103.856,10.917],[103.84,10.906],[103.833,10.904],[103.825,10.903],[103.821,10.902],[103.799,10.904],[103.793,10.9],[103.787,10.894],[103.78,10.877],[103.777,10.869],[103.775,10.862],[103.774,10.849],[103.773,10.841],[103.772,10.837],[103.769,10.831],[103.754,10.808],[103.747,10.793],[103.746,10.789],[103.744,10.785],[103.739,10.779],[103.716,10.758],[103.689,10.743],[103.689,10.748],[103.676,10.752],[103.672,10.758],[103.678,10.801],[103.681,10.809],[103.69,10.816],[103.701,10.822],[103.713,10.831],[103.722,10.845],[103.724,10.856],[103.722,10.895],[103.707,10.93],[103.679,10.98],[103.66,11.03],[103.675,11.064],[103.655,11.078],[103.646,11.082],[103.616,11.085],[103.604,11.091],[103.595,11.098],[103.584,11.134],[103.562,11.152],[103.533,11.163],[103.503,11.166],[103.505,11.163],[103.505,11.162],[103.506,11.161],[103.51,11.159],[103.496,11.139],[103.489,11.139],[103.484,11.146],[103.481,11.148],[103.469,11.152],[103.469,11.146],[103.474,11.134],[103.468,11.119],[103.448,11.09],[103.468,11.099],[103.47,11.089],[103.463,11.071],[103.437,11.025],[103.431,11.006],[103.428,10.984],[103.417,10.958],[103.415,10.946],[103.415,10.937],[103.42,10.921],[103.421,10.909],[103.416,10.894],[103.402,10.884],[103.386,10.881],[103.373,10.885],[103.369,10.88],[103.364,10.877],[103.352,10.872],[103.344,10.895],[103.323,10.91],[103.298,10.92],[103.277,10.933],[103.236,10.908],[103.219,10.892],[103.223,10.878],[103.209,10.879],[103.197,10.877],[103.188,10.872],[103.181,10.864],[103.162,10.874],[103.139,10.876],[103.127,10.881],[103.14,10.899],[103.109,10.922],[103.102,10.926],[103.096,10.934],[103.1,10.951],[103.108,10.967],[103.113,10.971],[103.111,11.002],[103.101,11.053],[103.098,11.08],[103.102,11.09],[103.109,11.1],[103.116,11.114],[103.119,11.132],[103.118,11.149],[103.114,11.161],[103.098,11.187],[103.096,11.194],[103.095,11.203],[103.093,11.211],[103.089,11.218],[103.082,11.219],[103.062,11.22],[103.058,11.221],[103.06,11.232],[103.071,11.239],[103.079,11.245],[103.071,11.256],[103.071,11.262],[103.079,11.274],[103.106,11.299],[103.134,11.316],[103.147,11.303],[103.153,11.303],[103.152,11.318],[103.142,11.344],[103.14,11.358],[103.126,11.352],[103.119,11.349],[103.113,11.344],[103.1,11.356],[103.097,11.367],[103.096,11.38],[103.092,11.399],[103.086,11.414],[103.071,11.435],[103.064,11.447],[103.073,11.445],[103.076,11.444],[103.077,11.442],[103.079,11.433],[103.085,11.433],[103.091,11.444],[103.102,11.453],[103.115,11.458],[103.13,11.46],[103.143,11.455],[103.159,11.431],[103.174,11.426],[103.143,11.485],[103.133,11.494],[103.138,11.505],[103.14,11.509],[103.133,11.509],[103.131,11.505],[103.126,11.494],[103.131,11.487],[103.129,11.477],[103.122,11.47],[103.113,11.468],[103.103,11.473],[103.091,11.491],[103.064,11.504],[103.057,11.525],[103.056,11.55],[103.058,11.57],[103.051,11.563],[103.054,11.584],[103.058,11.591],[103.048,11.592],[103.043,11.594],[103.037,11.605],[103.037,11.57],[103.036,11.555],[103.03,11.543],[103.023,11.543],[103.013,11.546],[102.999,11.543],[102.985,11.536],[102.975,11.529],[102.955,11.557],[102.975,11.57],[102.98,11.564],[102.995,11.55],[103.003,11.55],[102.999,11.56],[102.988,11.573],[102.982,11.584],[102.982,11.625],[102.994,11.636],[103.008,11.631],[103.024,11.623],[103.043,11.625],[103.043,11.632],[103.031,11.631],[103.021,11.634],[103.014,11.639],[103.009,11.646],[103.009,11.653],[103.017,11.653],[103.017,11.66],[103.006,11.655],[103.003,11.653],[102.995,11.653],[102.994,11.66],[102.989,11.673],[102.982,11.673],[102.982,11.653],[102.975,11.66],[102.975,11.638],[102.969,11.638],[102.97,11.666],[102.976,11.687],[102.986,11.703],[103.003,11.714],[103.013,11.719],[103.022,11.721],[103.03,11.718],[103.04,11.711],[103.053,11.706],[103.067,11.708],[103.079,11.716],[103.085,11.728],[103.079,11.728],[103.07,11.715],[103.056,11.716],[103.041,11.725],[103.03,11.735],[103.023,11.735],[102.982,11.714],[102.977,11.72],[102.97,11.733],[102.964,11.747],[102.961,11.759],[102.956,11.767],[102.933,11.779],[102.899,11.83],[102.893,11.83],[102.908,11.798],[102.957,11.747],[102.969,11.714],[102.967,11.697],[102.955,11.668],[102.955,11.653],[102.965,11.61],[102.964,11.592],[102.955,11.57],[102.953,11.583],[102.943,11.601],[102.941,11.615],[102.937,11.622],[102.92,11.638],[102.914,11.646]]],[[[103.297,10.731],[103.301,10.727],[103.31,10.726],[103.318,10.721],[103.318,10.707],[103.305,10.702],[103.293,10.697],[103.284,10.688],[103.277,10.673],[103.269,10.68],[103.264,10.691],[103.262,10.702],[103.26,10.707],[103.261,10.709],[103.229,10.721],[103.214,10.733],[103.202,10.748],[103.198,10.762],[103.208,10.776],[103.229,10.783],[103.245,10.778],[103.259,10.767],[103.271,10.755],[103.273,10.751],[103.275,10.744],[103.277,10.741],[103.283,10.739],[103.289,10.74],[103.295,10.738],[103.297,10.731]]],[[[103.037,11.358],[103.042,11.347],[103.047,11.338],[103.049,11.331],[103.043,11.324],[103.049,11.31],[103.048,11.291],[103.043,11.273],[103.037,11.262],[103.023,11.255],[103.008,11.255],[102.998,11.26],[103.003,11.269],[102.992,11.28],[102.989,11.301],[102.989,11.337],[102.982,11.38],[102.981,11.405],[102.989,11.426],[102.991,11.422],[102.994,11.417],[102.995,11.413],[103.007,11.422],[103.016,11.423],[103.024,11.417],[103.037,11.392],[103.037,11.381],[103.036,11.371],[103.037,11.358]]],[[[103.03,11.502],[103.035,11.492],[103.047,11.476],[103.051,11.468],[103.051,11.46],[103.046,11.453],[103.035,11.432],[103.03,11.426],[103.02,11.427],[103.02,11.437],[103.023,11.46],[103.014,11.477],[103.001,11.495],[102.996,11.514],[103.009,11.529],[103.026,11.519],[103.03,11.516],[103.032,11.51],[103.032,11.506],[103.031,11.502],[103.03,11.502]]],[[[103.334,10.584],[103.336,10.583],[103.339,10.58],[103.339,10.572],[103.335,10.565],[103.33,10.554],[103.323,10.545],[103.313,10.552],[103.292,10.583],[103.285,10.599],[103.289,10.613],[103.303,10.618],[103.314,10.619],[103.32,10.617],[103.322,10.61],[103.312,10.597],[103.311,10.592],[103.311,10.587],[103.313,10.579],[103.318,10.574],[103.325,10.574],[103.332,10.58],[103.334,10.584]]]]}}]}
