{"type":"FeatureCollection","features":[{"type":"Feature","id":"KM-A","properties":{"id":"KM-A","countryCode":"KM","isoSubdivision":"KM-A","name":"Anjouan","name_en":"Anjouan","name_ko":"앙주앙섬","type":"Principal subdivision","labelLongitude":44.452,"labelLatitude":-12.226,"minZoom":11},"geometry":{"type":"Polygon","coordinates":[[[44.529,-12.233],[44.528,-12.355],[44.523,-12.373],[44.511,-12.38],[44.503,-12.377],[44.492,-12.368],[44.484,-12.358],[44.481,-12.349],[44.479,-12.337],[44.473,-12.33],[44.4,-12.28],[44.391,-12.267],[44.385,-12.252],[44.37,-12.244],[44.331,-12.236],[44.268,-12.205],[44.26,-12.198],[44.22,-12.175],[44.206,-12.161],[44.223,-12.16],[44.236,-12.163],[44.262,-12.174],[44.279,-12.179],[44.311,-12.183],[44.323,-12.188],[44.328,-12.184],[44.338,-12.179],[44.344,-12.174],[44.374,-12.18],[44.4,-12.157],[44.415,-12.119],[44.412,-12.086],[44.422,-12.083],[44.435,-12.075],[44.446,-12.072],[44.451,-12.07],[44.455,-12.067],[44.46,-12.064],[44.467,-12.064],[44.473,-12.069],[44.481,-12.082],[44.484,-12.086],[44.526,-12.219],[44.529,-12.233]]]}},{"type":"Feature","id":"KM-G","properties":{"id":"KM-G","countryCode":"KM","isoSubdivision":"KM-G","name":"Andjazîdja","name_en":"Andjazîdja","name_ko":"안자지자","type":"Principal subdivision","labelLongitude":43.338,"labelLatitude":-11.695,"minZoom":11},"geometry":{"type":"Polygon","coordinates":[[[43.467,-11.822],[43.469,-11.832],[43.475,-11.843],[43.499,-11.874],[43.498,-11.882],[43.487,-11.9],[43.484,-11.91],[43.483,-11.917],[43.48,-11.923],[43.473,-11.928],[43.463,-11.931],[43.45,-11.933],[43.438,-11.932],[43.432,-11.924],[43.426,-11.912],[43.37,-11.861],[43.355,-11.855],[43.312,-11.852],[43.302,-11.85],[43.29,-11.843],[43.271,-11.828],[43.263,-11.818],[43.26,-11.809],[43.259,-11.8],[43.254,-11.791],[43.229,-11.766],[43.218,-11.75],[43.213,-11.726],[43.216,-11.716],[43.223,-11.704],[43.244,-11.673],[43.244,-11.662],[43.242,-11.652],[43.241,-11.64],[43.254,-11.463],[43.252,-11.451],[43.247,-11.441],[43.257,-11.423],[43.266,-11.399],[43.277,-11.38],[43.288,-11.379],[43.331,-11.365],[43.356,-11.361],[43.374,-11.369],[43.386,-11.384],[43.395,-11.4],[43.399,-11.418],[43.377,-11.605],[43.386,-11.646],[43.431,-11.708],[43.447,-11.749],[43.447,-11.759],[43.446,-11.781],[43.447,-11.791],[43.451,-11.798],[43.458,-11.804],[43.464,-11.812],[43.467,-11.822]]]}},{"type":"Feature","id":"KM-M","properties":{"id":"KM-M","countryCode":"KM","isoSubdivision":"KM-M","name":"Mohéli","name_en":"Mohéli","name_ko":"모엘리섬","type":"Principal subdivision","labelLongitude":43.746,"labelLatitude":-12.318,"minZoom":11},"geometry":{"type":"Polygon","coordinates":[[[43.789,-12.308],[43.797,-12.312],[43.85,-12.346],[43.862,-12.363],[43.858,-12.371],[43.843,-12.373],[43.819,-12.373],[43.751,-12.36],[43.681,-12.358],[43.665,-12.352],[43.661,-12.345],[43.662,-12.328],[43.659,-12.318],[43.65,-12.31],[43.641,-12.306],[43.634,-12.301],[43.631,-12.288],[43.63,-12.252],[43.636,-12.237],[43.652,-12.243],[43.666,-12.25],[43.708,-12.258],[43.727,-12.264],[43.779,-12.298],[43.789,-12.308]]]}}]}
