{"type":"FeatureCollection","features":[{"type":"Feature","id":"KP-01","properties":{"id":"KP-01","countryCode":"KP","isoSubdivision":"KP-01","name":"Pyongyang","name_en":"Pyongyang","name_ko":"평양직할시","type":"Special City","labelLongitude":125.955,"labelLatitude":38.981,"minZoom":8},"geometry":{"type":"Polygon","coordinates":[[[125.722,39.283],[125.728,39.281],[125.737,39.276],[125.768,39.255],[125.769,39.254],[125.773,39.248],[125.774,39.247],[125.782,39.236],[125.785,39.232],[125.788,39.23],[125.792,39.228],[125.798,39.226],[125.828,39.22],[125.831,39.218],[125.835,39.215],[125.841,39.209],[125.843,39.206],[125.845,39.203],[125.848,39.196],[125.853,39.181],[125.856,39.171],[125.857,39.167],[125.859,39.162],[125.861,39.161],[125.864,39.16],[125.87,39.161],[125.873,39.162],[125.874,39.164],[125.875,39.166],[125.875,39.172],[125.871,39.188],[125.871,39.192],[125.871,39.196],[125.871,39.198],[125.874,39.206],[125.877,39.212],[125.879,39.215],[125.886,39.222],[125.893,39.227],[125.897,39.229],[125.901,39.231],[125.92,39.234],[125.925,39.234],[125.93,39.234],[125.937,39.232],[125.944,39.229],[125.953,39.222],[125.968,39.207],[125.973,39.204],[126.012,39.21],[126.023,39.214],[126.027,39.217],[126.03,39.218],[126.031,39.22],[126.033,39.222],[126.034,39.226],[126.036,39.23],[126.038,39.231],[126.04,39.233],[126.043,39.234],[126.045,39.234],[126.053,39.233],[126.059,39.231],[126.064,39.228],[126.069,39.222],[126.079,39.209],[126.083,39.203],[126.085,39.198],[126.086,39.193],[126.087,39.191],[126.088,39.189],[126.09,39.187],[126.093,39.185],[126.097,39.183],[126.105,39.182],[126.138,39.183],[126.143,39.181],[126.165,39.163],[126.176,39.156],[126.179,39.156],[126.185,39.156],[126.215,39.159],[126.224,39.158],[126.23,39.157],[126.233,39.154],[126.237,39.149],[126.242,39.136],[126.243,39.129],[126.242,39.123],[126.24,39.118],[126.239,39.114],[126.24,39.108],[126.241,39.105],[126.242,39.101],[126.245,39.095],[126.256,39.084],[126.281,39.064],[126.288,39.06],[126.33,39.054],[126.337,39.053],[126.34,39.051],[126.344,39.045],[126.37,39.001],[126.371,39],[126.376,38.993],[126.382,38.982],[126.385,38.97],[126.387,38.931],[126.378,38.934],[126.373,38.936],[126.367,38.938],[126.361,38.942],[126.329,38.953],[126.323,38.955],[126.303,38.958],[126.296,38.957],[126.289,38.955],[126.27,38.959],[126.258,38.965],[126.254,38.969],[126.243,38.976],[126.236,38.983],[126.231,38.985],[126.2,38.988],[126.195,38.99],[126.187,38.989],[126.182,38.984],[126.173,38.981],[126.166,38.974],[126.155,38.97],[126.147,38.97],[126.14,38.976],[126.135,38.974],[126.126,38.967],[126.121,38.96],[126.119,38.954],[126.118,38.949],[126.115,38.929],[126.115,38.924],[126.116,38.919],[126.118,38.913],[126.121,38.909],[126.125,38.904],[126.13,38.899],[126.142,38.893],[126.166,38.883],[126.172,38.88],[126.175,38.877],[126.211,38.836],[126.214,38.831],[126.216,38.826],[126.218,38.821],[126.219,38.816],[126.219,38.783],[126.218,38.778],[126.216,38.773],[126.212,38.769],[126.206,38.765],[126.2,38.762],[126.162,38.754],[126.151,38.75],[126.143,38.745],[126.138,38.74],[126.12,38.72],[126.115,38.716],[126.108,38.712],[126.1,38.709],[126.078,38.706],[126.064,38.705],[126.038,38.709],[125.998,38.723],[125.981,38.731],[125.943,38.746],[125.938,38.751],[125.935,38.756],[125.936,38.772],[125.935,38.777],[125.933,38.782],[125.929,38.787],[125.923,38.791],[125.918,38.794],[125.817,38.835],[125.801,38.838],[125.736,38.841],[125.709,38.839],[125.677,38.826],[125.605,38.789],[125.575,38.781],[125.568,38.798],[125.562,38.803],[125.552,38.807],[125.54,38.812],[125.533,38.817],[125.528,38.822],[125.525,38.829],[125.522,38.839],[125.522,38.846],[125.524,38.853],[125.527,38.857],[125.532,38.861],[125.537,38.864],[125.568,38.873],[125.578,38.878],[125.583,38.884],[125.588,38.893],[125.604,38.938],[125.604,38.945],[125.604,38.949],[125.597,38.966],[125.592,38.976],[125.585,38.984],[125.58,38.999],[125.575,39.054],[125.576,39.058],[125.577,39.062],[125.579,39.065],[125.583,39.07],[125.655,39.115],[125.657,39.116],[125.661,39.118],[125.665,39.121],[125.666,39.123],[125.666,39.125],[125.666,39.126],[125.665,39.127],[125.664,39.128],[125.661,39.131],[125.653,39.134],[125.637,39.143],[125.636,39.145],[125.634,39.147],[125.634,39.149],[125.634,39.151],[125.635,39.157],[125.636,39.159],[125.64,39.174],[125.641,39.178],[125.641,39.184],[125.64,39.187],[125.639,39.19],[125.629,39.212],[125.621,39.224],[125.619,39.227],[125.619,39.231],[125.62,39.235],[125.62,39.237],[125.621,39.239],[125.622,39.24],[125.627,39.245],[125.631,39.247],[125.672,39.258],[125.702,39.274],[125.709,39.279],[125.713,39.281],[125.717,39.282],[125.722,39.283]]]}},{"type":"Feature","id":"KP-02","properties":{"id":"KP-02","countryCode":"KP","isoSubdivision":"KP-02","name":"South Pyongan","name_en":"South Pyongan","name_ko":"평안남도","type":"Province","labelLongitude":126.158,"labelLatitude":39.501,"minZoom":8},"geometry":{"type":"Polygon","coordinates":[[[125.63,38.659],[125.62,38.661],[125.6,38.662],[125.589,38.666],[125.544,38.711],[125.528,38.721],[125.515,38.723],[125.491,38.723],[125.479,38.728],[125.473,38.734],[125.447,38.772],[125.448,38.776],[125.448,38.777],[125.439,38.776],[125.436,38.771],[125.432,38.763],[125.425,38.756],[125.411,38.755],[125.42,38.75],[125.428,38.744],[125.434,38.737],[125.419,38.729],[125.389,38.717],[125.373,38.721],[125.363,38.735],[125.356,38.735],[125.35,38.721],[125.341,38.717],[125.315,38.721],[125.313,38.724],[125.31,38.73],[125.306,38.735],[125.301,38.735],[125.296,38.728],[125.298,38.722],[125.303,38.717],[125.308,38.714],[125.308,38.707],[125.294,38.703],[125.278,38.703],[125.262,38.708],[125.25,38.717],[125.244,38.728],[125.247,38.737],[125.267,38.755],[125.26,38.758],[125.253,38.763],[125.258,38.772],[125.253,38.784],[125.241,38.793],[125.225,38.796],[125.23,38.772],[125.217,38.74],[125.188,38.739],[125.177,38.751],[125.172,38.763],[125.157,38.769],[125.145,38.777],[125.137,38.804],[125.143,38.82],[125.148,38.837],[125.151,38.875],[125.152,38.892],[125.164,38.915],[125.173,38.939],[125.19,38.959],[125.201,38.975],[125.199,38.986],[125.212,39.002],[125.233,39.03],[125.252,39.05],[125.26,39.066],[125.271,39.081],[125.291,39.08],[125.316,39.08],[125.335,39.083],[125.284,39.09],[125.287,39.097],[125.291,39.105],[125.29,39.111],[125.286,39.117],[125.288,39.124],[125.287,39.132],[125.289,39.139],[125.293,39.144],[125.294,39.147],[125.287,39.152],[125.297,39.162],[125.307,39.165],[125.332,39.166],[125.344,39.169],[125.34,39.176],[125.332,39.185],[125.329,39.193],[125.344,39.213],[125.365,39.221],[125.389,39.22],[125.411,39.214],[125.405,39.229],[125.396,39.237],[125.394,39.246],[125.432,39.301],[125.445,39.311],[125.429,39.312],[125.416,39.32],[125.411,39.333],[125.418,39.351],[125.413,39.354],[125.405,39.365],[125.415,39.362],[125.419,39.361],[125.424,39.357],[125.446,39.367],[125.454,39.374],[125.459,39.385],[125.438,39.385],[125.376,39.393],[125.357,39.399],[125.36,39.413],[125.384,39.44],[125.373,39.441],[125.362,39.44],[125.352,39.437],[125.343,39.434],[125.346,39.46],[125.36,39.475],[125.379,39.486],[125.397,39.502],[125.403,39.514],[125.407,39.527],[125.414,39.539],[125.442,39.548],[125.45,39.558],[125.452,39.571],[125.451,39.573],[125.504,39.579],[125.562,39.597],[125.613,39.62],[125.633,39.634],[125.641,39.636],[125.649,39.636],[125.67,39.633],[125.688,39.633],[125.705,39.637],[125.767,39.661],[125.814,39.687],[125.847,39.72],[125.852,39.727],[125.854,39.732],[125.854,39.735],[125.855,39.738],[125.857,39.742],[125.862,39.747],[125.894,39.752],[125.903,39.755],[125.91,39.76],[125.928,39.775],[125.947,39.788],[125.956,39.796],[125.967,39.812],[125.979,39.822],[125.992,39.827],[125.998,39.83],[126,39.832],[126.002,39.836],[126.003,39.841],[126.005,39.847],[126.009,39.853],[126.015,39.859],[126.021,39.859],[126.027,39.857],[126.051,39.837],[126.057,39.832],[126.071,39.825],[126.078,39.823],[126.085,39.821],[126.092,39.82],[126.101,39.82],[126.259,39.853],[126.33,39.882],[126.353,39.889],[126.363,39.894],[126.369,39.899],[126.37,39.905],[126.371,39.911],[126.37,39.917],[126.368,39.923],[126.365,39.929],[126.344,39.957],[126.341,39.963],[126.34,39.968],[126.341,39.981],[126.343,39.992],[126.346,39.999],[126.346,40],[126.36,40.017],[126.404,39.994],[126.411,39.993],[126.418,39.991],[126.426,39.991],[126.439,39.995],[126.498,40.027],[126.509,40.031],[126.539,40.033],[126.546,40.036],[126.554,40.041],[126.56,40.051],[126.562,40.059],[126.565,40.078],[126.568,40.084],[126.57,40.089],[126.578,40.096],[126.59,40.104],[126.653,40.139],[126.663,40.143],[126.671,40.145],[126.694,40.148],[126.701,40.152],[126.71,40.159],[126.722,40.172],[126.732,40.18],[126.745,40.188],[126.754,40.191],[126.762,40.194],[126.776,40.196],[126.793,40.197],[126.8,40.201],[126.807,40.207],[126.814,40.22],[126.822,40.243],[126.827,40.249],[126.835,40.256],[126.872,40.28],[126.887,40.295],[126.911,40.335],[126.912,40.335],[127.003,40.337],[127.016,40.335],[127.035,40.33],[127.048,40.326],[127.057,40.321],[127.105,40.285],[127.11,40.279],[127.112,40.274],[127.113,40.269],[127.112,40.263],[127.11,40.258],[127.105,40.247],[127.102,40.241],[127.102,40.24],[127.106,40.211],[127.11,40.197],[127.116,40.187],[127.126,40.181],[127.163,40.163],[127.173,40.155],[127.178,40.148],[127.178,40.142],[127.178,40.136],[127.176,40.13],[127.172,40.125],[127.162,40.115],[127.093,40.073],[127.089,40.07],[127.085,40.066],[127.083,40.06],[127.083,40.052],[127.085,40.042],[127.086,40.035],[127.082,40.03],[127.077,40.028],[127.069,40.026],[127.063,40.024],[127.059,40.02],[127.058,40.014],[127.058,40.008],[127.061,39.996],[127.073,39.956],[127.077,39.947],[127.107,39.905],[127.111,39.896],[127.113,39.886],[127.111,39.879],[127.109,39.873],[127.103,39.864],[127.1,39.859],[127.095,39.854],[127.089,39.85],[127.083,39.848],[127.043,39.845],[127.035,39.844],[127.029,39.841],[127.021,39.832],[127.015,39.828],[127.008,39.826],[127.002,39.826],[126.998,39.827],[126.994,39.831],[126.98,39.848],[126.976,39.853],[126.97,39.857],[126.964,39.859],[126.951,39.863],[126.935,39.866],[126.871,39.866],[126.816,39.855],[126.802,39.851],[126.795,39.848],[126.788,39.844],[126.782,39.84],[126.776,39.833],[126.771,39.824],[126.758,39.788],[126.755,39.782],[126.751,39.777],[126.735,39.758],[126.721,39.737],[126.719,39.729],[126.722,39.723],[126.728,39.72],[126.735,39.719],[126.742,39.718],[126.748,39.716],[126.751,39.714],[126.754,39.707],[126.753,39.702],[126.75,39.697],[126.711,39.665],[126.704,39.655],[126.702,39.647],[126.703,39.641],[126.711,39.625],[126.713,39.619],[126.714,39.611],[126.713,39.6],[126.71,39.592],[126.705,39.586],[126.698,39.582],[126.691,39.575],[126.684,39.566],[126.675,39.548],[126.673,39.537],[126.673,39.529],[126.675,39.524],[126.679,39.519],[126.69,39.509],[126.714,39.491],[126.721,39.487],[126.728,39.482],[126.734,39.475],[126.738,39.464],[126.738,39.457],[126.737,39.451],[126.722,39.42],[126.701,39.354],[126.698,39.337],[126.698,39.325],[126.7,39.32],[126.704,39.314],[126.709,39.309],[126.716,39.304],[126.723,39.301],[126.73,39.298],[126.737,39.298],[126.744,39.298],[126.749,39.299],[126.782,39.312],[126.789,39.313],[126.796,39.314],[126.81,39.314],[126.814,39.313],[126.818,39.312],[126.821,39.311],[126.826,39.309],[126.831,39.305],[126.835,39.3],[126.838,39.295],[126.84,39.29],[126.844,39.279],[126.846,39.274],[126.85,39.27],[126.856,39.27],[126.862,39.273],[126.873,39.282],[126.879,39.285],[126.887,39.287],[126.894,39.287],[126.902,39.286],[126.909,39.285],[126.915,39.282],[126.921,39.277],[126.926,39.27],[126.93,39.26],[126.931,39.252],[126.93,39.245],[126.925,39.233],[126.923,39.226],[126.924,39.22],[126.929,39.215],[126.936,39.213],[126.944,39.211],[126.951,39.211],[126.979,39.216],[126.994,39.215],[126.999,39.215],[127.004,39.213],[127.025,39.204],[127.057,39.175],[127.061,39.169],[127.063,39.161],[127.061,39.156],[127.055,39.151],[127.021,39.138],[127.014,39.134],[126.994,39.111],[126.982,39.069],[126.926,39.063],[126.904,39.066],[126.891,39.073],[126.839,39.107],[126.824,39.113],[126.81,39.118],[126.778,39.122],[126.771,39.124],[126.764,39.128],[126.749,39.138],[126.738,39.143],[126.73,39.146],[126.722,39.147],[126.714,39.147],[126.666,39.137],[126.652,39.135],[126.635,39.136],[126.628,39.137],[126.62,39.14],[126.613,39.144],[126.607,39.148],[126.592,39.164],[126.585,39.168],[126.577,39.166],[126.567,39.16],[126.561,39.147],[126.558,39.139],[126.558,39.131],[126.559,39.125],[126.561,39.12],[126.564,39.115],[126.577,39.099],[126.581,39.093],[126.585,39.083],[126.588,39.078],[126.593,39.072],[126.616,39.054],[126.62,39.049],[126.623,39.044],[126.63,39.028],[126.632,39.023],[126.636,39.018],[126.645,39.007],[126.653,39],[126.656,38.995],[126.658,38.991],[126.66,38.986],[126.652,38.981],[126.638,38.977],[126.602,38.974],[126.584,38.974],[126.571,38.975],[126.522,39],[126.515,39.002],[126.507,39.001],[126.499,38.997],[126.487,38.985],[126.485,38.977],[126.486,38.97],[126.493,38.961],[126.497,38.951],[126.499,38.942],[126.5,38.935],[126.5,38.932],[126.5,38.928],[126.499,38.925],[126.496,38.92],[126.492,38.916],[126.485,38.912],[126.469,38.911],[126.458,38.912],[126.387,38.931],[126.385,38.97],[126.382,38.982],[126.376,38.993],[126.371,39],[126.37,39.001],[126.344,39.045],[126.34,39.051],[126.337,39.053],[126.33,39.054],[126.288,39.06],[126.281,39.064],[126.256,39.084],[126.245,39.095],[126.242,39.101],[126.241,39.105],[126.24,39.108],[126.239,39.114],[126.24,39.118],[126.242,39.123],[126.243,39.129],[126.242,39.136],[126.237,39.149],[126.233,39.154],[126.23,39.157],[126.224,39.158],[126.215,39.159],[126.185,39.156],[126.179,39.156],[126.176,39.156],[126.165,39.163],[126.143,39.181],[126.138,39.183],[126.105,39.182],[126.097,39.183],[126.093,39.185],[126.09,39.187],[126.088,39.189],[126.087,39.191],[126.086,39.193],[126.085,39.198],[126.083,39.203],[126.079,39.209],[126.069,39.222],[126.064,39.228],[126.059,39.231],[126.053,39.233],[126.045,39.234],[126.043,39.234],[126.04,39.233],[126.038,39.231],[126.036,39.23],[126.034,39.226],[126.033,39.222],[126.031,39.22],[126.03,39.218],[126.027,39.217],[126.023,39.214],[126.012,39.21],[125.973,39.204],[125.968,39.207],[125.953,39.222],[125.944,39.229],[125.937,39.232],[125.93,39.234],[125.925,39.234],[125.92,39.234],[125.901,39.231],[125.897,39.229],[125.893,39.227],[125.886,39.222],[125.879,39.215],[125.877,39.212],[125.874,39.206],[125.871,39.198],[125.871,39.196],[125.871,39.192],[125.871,39.188],[125.875,39.172],[125.875,39.166],[125.874,39.164],[125.873,39.162],[125.87,39.161],[125.864,39.16],[125.861,39.161],[125.859,39.162],[125.857,39.167],[125.856,39.171],[125.853,39.181],[125.848,39.196],[125.845,39.203],[125.843,39.206],[125.841,39.209],[125.835,39.215],[125.831,39.218],[125.828,39.22],[125.798,39.226],[125.792,39.228],[125.788,39.23],[125.785,39.232],[125.782,39.236],[125.774,39.247],[125.773,39.248],[125.769,39.254],[125.768,39.255],[125.737,39.276],[125.728,39.281],[125.722,39.283],[125.717,39.282],[125.713,39.281],[125.709,39.279],[125.702,39.274],[125.672,39.258],[125.631,39.247],[125.627,39.245],[125.622,39.24],[125.621,39.239],[125.62,39.237],[125.62,39.235],[125.619,39.231],[125.619,39.227],[125.621,39.224],[125.629,39.212],[125.639,39.19],[125.64,39.187],[125.641,39.184],[125.641,39.178],[125.64,39.174],[125.636,39.159],[125.635,39.157],[125.634,39.151],[125.634,39.149],[125.634,39.147],[125.636,39.145],[125.637,39.143],[125.653,39.134],[125.661,39.131],[125.664,39.128],[125.665,39.127],[125.666,39.126],[125.666,39.125],[125.666,39.123],[125.665,39.121],[125.661,39.118],[125.657,39.116],[125.655,39.115],[125.583,39.07],[125.579,39.065],[125.577,39.062],[125.576,39.058],[125.575,39.054],[125.58,38.999],[125.585,38.984],[125.592,38.976],[125.597,38.966],[125.604,38.949],[125.604,38.945],[125.604,38.938],[125.588,38.893],[125.583,38.884],[125.578,38.878],[125.568,38.873],[125.537,38.864],[125.532,38.861],[125.527,38.857],[125.524,38.853],[125.522,38.846],[125.522,38.839],[125.525,38.829],[125.528,38.822],[125.533,38.817],[125.54,38.812],[125.552,38.807],[125.562,38.803],[125.568,38.798],[125.575,38.781],[125.574,38.767],[125.576,38.761],[125.581,38.753],[125.592,38.742],[125.61,38.727],[125.614,38.722],[125.616,38.714],[125.618,38.688],[125.63,38.659]]]}},{"type":"Feature","id":"KP-03","properties":{"id":"KP-03","countryCode":"KP","isoSubdivision":"KP-03","name":"North Pyongan","name_en":"North Pyongan","name_ko":"평안북도","type":"Province","labelLongitude":124.698,"labelLatitude":39.518,"minZoom":8},"geometry":{"type":"MultiPolygon","coordinates":[[[[125.413,40.632],[125.417,40.639],[125.415,40.652],[125.415,40.653],[125.486,40.622],[125.494,40.617],[125.504,40.609],[125.535,40.579],[125.542,40.574],[125.552,40.571],[125.561,40.571],[125.577,40.574],[125.585,40.574],[125.591,40.571],[125.595,40.564],[125.601,40.541],[125.603,40.538],[125.61,40.525],[125.612,40.52],[125.612,40.514],[125.611,40.509],[125.608,40.503],[125.605,40.498],[125.594,40.484],[125.593,40.481],[125.592,40.48],[125.588,40.452],[125.585,40.446],[125.578,40.435],[125.576,40.43],[125.576,40.424],[125.577,40.418],[125.579,40.413],[125.583,40.408],[125.624,40.375],[125.629,40.37],[125.63,40.364],[125.629,40.359],[125.624,40.354],[125.619,40.349],[125.615,40.344],[125.614,40.338],[125.618,40.332],[125.625,40.325],[125.657,40.302],[125.774,40.242],[125.79,40.231],[125.797,40.227],[125.807,40.224],[125.822,40.222],[125.831,40.222],[125.839,40.224],[125.853,40.231],[125.867,40.236],[125.882,40.238],[125.896,40.238],[125.905,40.237],[125.914,40.235],[125.926,40.227],[125.936,40.222],[125.949,40.22],[125.962,40.22],[125.969,40.22],[125.977,40.216],[125.995,40.202],[126.021,40.174],[126.087,40.127],[126.13,40.085],[126.144,40.074],[126.189,40.051],[126.21,40.045],[126.302,40.036],[126.322,40.032],[126.36,40.017],[126.346,40],[126.346,39.999],[126.343,39.992],[126.341,39.981],[126.34,39.968],[126.341,39.963],[126.344,39.957],[126.365,39.929],[126.368,39.923],[126.37,39.917],[126.371,39.911],[126.37,39.905],[126.369,39.899],[126.363,39.894],[126.353,39.889],[126.33,39.882],[126.259,39.853],[126.101,39.82],[126.092,39.82],[126.085,39.821],[126.078,39.823],[126.071,39.825],[126.057,39.832],[126.051,39.837],[126.027,39.857],[126.021,39.859],[126.015,39.859],[126.009,39.853],[126.005,39.847],[126.003,39.841],[126.002,39.836],[126,39.832],[125.998,39.83],[125.992,39.827],[125.979,39.822],[125.967,39.812],[125.956,39.796],[125.947,39.788],[125.928,39.775],[125.91,39.76],[125.903,39.755],[125.894,39.752],[125.862,39.747],[125.857,39.742],[125.855,39.738],[125.854,39.735],[125.854,39.732],[125.852,39.727],[125.847,39.72],[125.814,39.687],[125.767,39.661],[125.705,39.637],[125.688,39.633],[125.67,39.633],[125.649,39.636],[125.641,39.636],[125.633,39.634],[125.613,39.62],[125.562,39.597],[125.504,39.579],[125.451,39.573],[125.452,39.571],[125.445,39.584],[125.43,39.575],[125.326,39.533],[125.304,39.527],[125.295,39.523],[125.286,39.521],[125.277,39.526],[125.251,39.551],[125.246,39.554],[125.237,39.563],[125.22,39.566],[125.21,39.573],[125.225,39.591],[125.158,39.591],[125.161,39.585],[125.168,39.57],[125.171,39.564],[125.127,39.564],[125.117,39.566],[125.114,39.571],[125.114,39.578],[125.11,39.584],[125.104,39.592],[125.102,39.599],[125.098,39.603],[125.086,39.604],[125.07,39.602],[125.06,39.601],[125.048,39.604],[125.04,39.609],[125.018,39.624],[125.014,39.629],[125.011,39.635],[125.003,39.637],[124.994,39.637],[124.986,39.639],[124.958,39.662],[124.947,39.663],[124.938,39.646],[124.927,39.653],[124.913,39.656],[124.902,39.662],[124.893,39.692],[124.882,39.704],[124.866,39.714],[124.849,39.722],[124.834,39.726],[124.811,39.728],[124.803,39.73],[124.799,39.74],[124.771,39.742],[124.76,39.748],[124.756,39.771],[124.746,39.783],[124.74,39.772],[124.74,39.762],[124.743,39.753],[124.75,39.745],[124.755,39.734],[124.75,39.722],[124.75,39.71],[124.744,39.701],[124.745,39.691],[124.757,39.688],[124.753,39.672],[124.741,39.672],[124.73,39.665],[124.734,39.655],[124.744,39.644],[124.735,39.642],[124.716,39.647],[124.695,39.638],[124.675,39.622],[124.649,39.612],[124.641,39.595],[124.637,39.59],[124.624,39.598],[124.624,39.602],[124.625,39.605],[124.629,39.612],[124.622,39.613],[124.619,39.615],[124.616,39.618],[124.611,39.629],[124.629,39.645],[124.632,39.663],[124.645,39.669],[124.65,39.684],[124.647,39.698],[124.64,39.698],[124.631,39.694],[124.624,39.694],[124.62,39.698],[124.613,39.71],[124.609,39.715],[124.6,39.719],[124.592,39.721],[124.585,39.724],[124.582,39.732],[124.583,39.741],[124.588,39.756],[124.589,39.766],[124.585,39.771],[124.566,39.779],[124.562,39.787],[124.565,39.807],[124.564,39.814],[124.555,39.817],[124.52,39.818],[124.434,39.831],[124.43,39.829],[124.426,39.826],[124.423,39.824],[124.418,39.825],[124.414,39.828],[124.41,39.836],[124.407,39.838],[124.404,39.841],[124.399,39.86],[124.397,39.866],[124.39,39.868],[124.363,39.872],[124.349,39.893],[124.342,39.9],[124.335,39.906],[124.328,39.91],[124.322,39.913],[124.332,39.925],[124.346,39.93],[124.359,39.934],[124.37,39.94],[124.376,39.954],[124.383,40.003],[124.406,40.028],[124.434,40.025],[124.466,40.015],[124.5,40.023],[124.479,40.031],[124.433,40.033],[124.41,40.036],[124.391,40.048],[124.384,40.065],[124.38,40.083],[124.37,40.098],[124.386,40.11],[124.528,40.214],[124.532,40.216],[124.543,40.218],[124.549,40.221],[124.55,40.225],[124.552,40.236],[124.555,40.241],[124.571,40.252],[124.611,40.272],[124.627,40.286],[124.643,40.294],[124.693,40.303],[124.712,40.31],[124.723,40.327],[124.731,40.35],[124.741,40.37],[124.757,40.379],[124.78,40.383],[124.801,40.394],[124.85,40.432],[124.884,40.466],[124.891,40.478],[124.896,40.484],[124.906,40.476],[124.915,40.466],[124.918,40.461],[124.926,40.458],[124.935,40.456],[124.96,40.454],[124.987,40.457],[125.007,40.456],[125.026,40.457],[125.041,40.461],[125.046,40.471],[125.039,40.483],[125.028,40.496],[125.015,40.508],[125.015,40.522],[125.025,40.534],[125.05,40.542],[125.074,40.548],[125.09,40.556],[125.115,40.564],[125.133,40.573],[125.153,40.584],[125.182,40.594],[125.216,40.603],[125.242,40.611],[125.256,40.615],[125.265,40.622],[125.271,40.632],[125.277,40.644],[125.293,40.649],[125.308,40.65],[125.323,40.645],[125.337,40.641],[125.356,40.646],[125.364,40.647],[125.372,40.644],[125.385,40.635],[125.391,40.632],[125.413,40.632]]],[[[124.927,39.605],[124.922,39.598],[124.91,39.594],[124.92,39.572],[124.934,39.551],[124.912,39.541],[124.883,39.527],[124.862,39.508],[124.843,39.505],[124.819,39.495],[124.837,39.521],[124.85,39.517],[124.857,39.528],[124.843,39.538],[124.845,39.543],[124.857,39.544],[124.857,39.548],[124.86,39.553],[124.854,39.557],[124.854,39.574],[124.871,39.581],[124.87,39.596],[124.882,39.604],[124.88,39.612],[124.899,39.614],[124.927,39.605]]],[[[124.688,39.527],[124.694,39.535],[124.705,39.537],[124.708,39.53],[124.708,39.519],[124.705,39.509],[124.698,39.503],[124.685,39.503],[124.68,39.508],[124.684,39.516],[124.682,39.521],[124.688,39.527]]],[[[124.687,39.545],[124.676,39.539],[124.662,39.538],[124.645,39.548],[124.604,39.539],[124.6,39.536],[124.596,39.538],[124.597,39.545],[124.605,39.549],[124.614,39.553],[124.631,39.565],[124.635,39.564],[124.649,39.565],[124.674,39.571],[124.691,39.57],[124.698,39.563],[124.696,39.554],[124.687,39.545]]],[[[124.596,39.43],[124.593,39.439],[124.593,39.447],[124.602,39.449],[124.613,39.457],[124.614,39.449],[124.615,39.447],[124.618,39.444],[124.619,39.433],[124.607,39.428],[124.602,39.427],[124.596,39.43]]],[[[124.215,39.807],[124.219,39.811],[124.218,39.815],[124.22,39.815],[124.223,39.817],[124.221,39.819],[124.223,39.82],[124.227,39.821],[124.23,39.821],[124.232,39.819],[124.234,39.818],[124.236,39.813],[124.24,39.813],[124.24,39.81],[124.24,39.808],[124.243,39.807],[124.243,39.805],[124.242,39.802],[124.238,39.801],[124.235,39.798],[124.23,39.798],[124.227,39.795],[124.226,39.791],[124.223,39.792],[124.221,39.794],[124.216,39.795],[124.212,39.795],[124.212,39.796],[124.211,39.8],[124.213,39.804],[124.215,39.807]]]]}},{"type":"Feature","id":"KP-04","properties":{"id":"KP-04","countryCode":"KP","isoSubdivision":"KP-04","name":"Chagang","name_en":"Chagang","name_ko":"자강도","type":"Province","labelLongitude":126.404,"labelLatitude":40.655,"minZoom":8},"geometry":{"type":"Polygon","coordinates":[[[126.93,41.801],[126.94,41.794],[126.941,41.772],[126.946,41.766],[126.959,41.767],[126.981,41.763],[127,41.752],[126.996,41.746],[126.978,41.721],[126.963,41.694],[126.956,41.663],[126.957,41.64],[126.961,41.618],[126.967,41.603],[126.969,41.596],[126.968,41.588],[126.96,41.573],[126.944,41.564],[126.927,41.558],[126.911,41.548],[126.901,41.535],[126.895,41.523],[126.886,41.515],[126.868,41.512],[126.839,41.515],[126.826,41.513],[126.815,41.502],[126.812,41.489],[126.815,41.473],[126.821,41.458],[126.828,41.447],[126.846,41.436],[126.864,41.436],[126.9,41.449],[126.909,41.45],[126.92,41.451],[126.929,41.448],[126.934,41.44],[126.932,41.432],[126.919,41.421],[126.916,41.414],[126.919,41.408],[126.937,41.385],[126.944,41.369],[126.949,41.352],[126.956,41.317],[126.966,41.298],[127,41.277],[127.007,41.261],[127.004,41.251],[127,41.245],[127.001,41.238],[127.013,41.228],[127.023,41.217],[127.028,41.205],[127.033,41.177],[127.046,41.158],[127.065,41.145],[127.122,41.116],[127.135,41.113],[127.166,41.11],[127.205,41.102],[127.218,41.103],[127.239,41.113],[127.251,41.126],[127.261,41.141],[127.275,41.156],[127.298,41.168],[127.327,41.176],[127.356,41.176],[127.377,41.164],[127.386,41.145],[127.391,41.119],[127.393,41.093],[127.392,41.071],[127.387,41.034],[127.373,41.01],[127.323,40.968],[127.306,40.942],[127.299,40.905],[127.304,40.871],[127.326,40.849],[127.364,40.835],[127.376,40.823],[127.377,40.802],[127.372,40.789],[127.364,40.778],[127.354,40.77],[127.342,40.764],[127.298,40.753],[127.22,40.718],[127.199,40.695],[127.184,40.636],[127.166,40.614],[127.154,40.609],[127.109,40.604],[127.091,40.6],[127.076,40.594],[127.062,40.586],[127.047,40.575],[127.017,40.558],[126.992,40.548],[126.98,40.531],[126.986,40.494],[126.985,40.466],[126.967,40.445],[126.943,40.425],[126.924,40.401],[126.918,40.385],[126.914,40.367],[126.912,40.348],[126.912,40.335],[126.911,40.335],[126.887,40.295],[126.872,40.28],[126.835,40.256],[126.827,40.249],[126.822,40.243],[126.814,40.22],[126.807,40.207],[126.8,40.201],[126.793,40.197],[126.776,40.196],[126.762,40.194],[126.754,40.191],[126.745,40.188],[126.732,40.18],[126.722,40.172],[126.71,40.159],[126.701,40.152],[126.694,40.148],[126.671,40.145],[126.663,40.143],[126.653,40.139],[126.59,40.104],[126.578,40.096],[126.57,40.089],[126.568,40.084],[126.565,40.078],[126.562,40.059],[126.56,40.051],[126.554,40.041],[126.546,40.036],[126.539,40.033],[126.509,40.031],[126.498,40.027],[126.439,39.995],[126.426,39.991],[126.418,39.991],[126.411,39.993],[126.404,39.994],[126.36,40.017],[126.322,40.032],[126.302,40.036],[126.21,40.045],[126.189,40.051],[126.144,40.074],[126.13,40.085],[126.087,40.127],[126.021,40.174],[125.995,40.202],[125.977,40.216],[125.969,40.22],[125.962,40.22],[125.949,40.22],[125.936,40.222],[125.926,40.227],[125.914,40.235],[125.905,40.237],[125.896,40.238],[125.882,40.238],[125.867,40.236],[125.853,40.231],[125.839,40.224],[125.831,40.222],[125.822,40.222],[125.807,40.224],[125.797,40.227],[125.79,40.231],[125.774,40.242],[125.657,40.302],[125.625,40.325],[125.618,40.332],[125.614,40.338],[125.615,40.344],[125.619,40.349],[125.624,40.354],[125.629,40.359],[125.63,40.364],[125.629,40.37],[125.624,40.375],[125.583,40.408],[125.579,40.413],[125.577,40.418],[125.576,40.424],[125.576,40.43],[125.578,40.435],[125.585,40.446],[125.588,40.452],[125.592,40.48],[125.593,40.481],[125.594,40.484],[125.605,40.498],[125.608,40.503],[125.611,40.509],[125.612,40.514],[125.612,40.52],[125.61,40.525],[125.603,40.538],[125.601,40.541],[125.595,40.564],[125.591,40.571],[125.585,40.574],[125.577,40.574],[125.561,40.571],[125.552,40.571],[125.542,40.574],[125.535,40.579],[125.504,40.609],[125.494,40.617],[125.486,40.622],[125.415,40.653],[125.419,40.667],[125.426,40.671],[125.444,40.669],[125.453,40.673],[125.456,40.68],[125.457,40.694],[125.46,40.701],[125.469,40.713],[125.479,40.719],[125.492,40.721],[125.533,40.722],[125.546,40.726],[125.553,40.737],[125.555,40.759],[125.56,40.778],[125.572,40.785],[125.587,40.782],[125.6,40.773],[125.608,40.764],[125.61,40.761],[125.669,40.762],[125.683,40.769],[125.673,40.784],[125.645,40.811],[125.683,40.848],[125.704,40.859],[125.706,40.86],[125.737,40.865],[125.746,40.868],[125.751,40.875],[125.755,40.882],[125.761,40.886],[125.771,40.886],[125.779,40.885],[125.822,40.87],[125.832,40.871],[125.873,40.893],[125.885,40.898],[125.902,40.899],[125.912,40.894],[125.924,40.884],[125.936,40.877],[125.95,40.883],[125.964,40.891],[125.995,40.894],[126.008,40.899],[126.015,40.909],[126.01,40.914],[125.997,40.915],[125.981,40.914],[125.992,40.928],[126.01,40.933],[126.029,40.935],[126.046,40.945],[126.066,40.969],[126.072,40.981],[126.069,40.989],[126.076,40.997],[126.084,41.003],[126.093,41.006],[126.104,41.009],[126.101,41.022],[126.112,41.032],[126.126,41.043],[126.138,41.057],[126.124,41.076],[126.147,41.092],[126.261,41.143],[126.275,41.153],[126.284,41.164],[126.31,41.208],[126.321,41.219],[126.346,41.238],[126.357,41.249],[126.381,41.291],[126.391,41.303],[126.441,41.348],[126.473,41.367],[126.501,41.366],[126.498,41.362],[126.496,41.358],[126.494,41.355],[126.488,41.352],[126.488,41.344],[126.522,41.352],[126.522,41.378],[126.508,41.409],[126.501,41.434],[126.508,41.447],[126.542,41.489],[126.559,41.534],[126.577,41.562],[126.581,41.575],[126.577,41.588],[126.567,41.602],[126.567,41.614],[126.602,41.642],[126.618,41.666],[126.634,41.669],[126.669,41.667],[126.68,41.672],[126.712,41.694],[126.728,41.701],[126.714,41.71],[126.7,41.716],[126.687,41.724],[126.679,41.736],[126.697,41.741],[126.713,41.741],[126.727,41.737],[126.742,41.729],[126.771,41.704],[126.789,41.696],[126.796,41.705],[126.809,41.73],[126.865,41.747],[126.877,41.774],[126.887,41.785],[126.909,41.796],[126.93,41.801]]]}},{"type":"Feature","id":"KP-05","properties":{"id":"KP-05","countryCode":"KP","isoSubdivision":"KP-05","name":"South Hwanghae","name_en":"South Hwanghae","name_ko":"황해남도","type":"Province","labelLongitude":125.279,"labelLatitude":37.734,"minZoom":8},"geometry":{"type":"MultiPolygon","coordinates":[[[[126.402,37.889],[126.398,37.892],[126.379,37.89],[126.358,37.884],[126.28,37.851],[126.26,37.845],[126.237,37.843],[126.2,37.844],[126.178,37.841],[126.158,37.83],[126.149,37.822],[126.148,37.819],[126.15,37.815],[126.153,37.8],[126.16,37.779],[126.165,37.768],[126.164,37.755],[126.161,37.741],[126.158,37.733],[126.11,37.741],[126.097,37.781],[126.087,37.8],[126.072,37.799],[126.063,37.802],[126.059,37.825],[126.056,37.871],[126.026,37.854],[126.013,37.854],[126.007,37.874],[126.001,37.886],[125.986,37.898],[125.97,37.909],[125.959,37.912],[125.944,37.902],[125.951,37.889],[125.965,37.879],[125.973,37.874],[125.974,37.864],[125.984,37.837],[125.986,37.823],[125.978,37.829],[125.967,37.835],[125.956,37.84],[125.946,37.843],[125.933,37.845],[125.927,37.844],[125.922,37.845],[125.912,37.851],[125.896,37.865],[125.845,37.927],[125.841,37.936],[125.835,37.944],[125.811,37.948],[125.805,37.952],[125.803,37.959],[125.802,37.97],[125.804,37.989],[125.799,37.993],[125.784,37.994],[125.774,37.996],[125.756,38.005],[125.747,38.008],[125.705,38.009],[125.687,38.012],[125.647,38.027],[125.622,38.032],[125.597,38.032],[125.579,38.025],[125.578,38.009],[125.597,37.992],[125.621,37.979],[125.641,37.974],[125.675,37.978],[125.685,37.972],[125.678,37.953],[125.689,37.956],[125.699,37.958],[125.709,37.957],[125.719,37.953],[125.708,37.94],[125.699,37.925],[125.718,37.925],[125.725,37.927],[125.733,37.933],[125.74,37.925],[125.728,37.916],[125.715,37.908],[125.702,37.902],[125.685,37.899],[125.669,37.899],[125.657,37.906],[125.646,37.915],[125.631,37.925],[125.627,37.902],[125.637,37.879],[125.641,37.856],[125.623,37.837],[125.638,37.825],[125.644,37.823],[125.64,37.813],[125.634,37.81],[125.614,37.809],[125.609,37.806],[125.611,37.8],[125.617,37.789],[125.62,37.774],[125.62,37.765],[125.614,37.761],[125.603,37.762],[125.593,37.764],[125.584,37.768],[125.575,37.774],[125.579,37.777],[125.58,37.778],[125.58,37.779],[125.583,37.782],[125.571,37.787],[125.56,37.788],[125.552,37.783],[125.549,37.771],[125.542,37.77],[125.529,37.773],[125.521,37.78],[125.528,37.796],[125.504,37.779],[125.491,37.754],[125.475,37.731],[125.439,37.72],[125.404,37.719],[125.385,37.716],[125.377,37.71],[125.373,37.694],[125.362,37.68],[125.348,37.676],[125.335,37.686],[125.349,37.738],[125.364,37.761],[125.39,37.755],[125.445,37.774],[125.429,37.782],[125.395,37.776],[125.377,37.782],[125.39,37.796],[125.411,37.809],[125.435,37.819],[125.456,37.823],[125.505,37.813],[125.524,37.818],[125.528,37.843],[125.511,37.838],[125.497,37.84],[125.487,37.847],[125.479,37.858],[125.509,37.884],[125.51,37.894],[125.483,37.899],[125.464,37.904],[125.455,37.915],[125.446,37.92],[125.424,37.912],[125.428,37.908],[125.43,37.902],[125.432,37.899],[125.406,37.899],[125.395,37.897],[125.384,37.892],[125.403,37.886],[125.428,37.874],[125.446,37.86],[125.445,37.843],[125.426,37.856],[125.4,37.865],[125.372,37.869],[125.349,37.864],[125.354,37.857],[125.36,37.851],[125.368,37.847],[125.377,37.843],[125.346,37.823],[125.327,37.813],[125.308,37.809],[125.309,37.811],[125.308,37.815],[125.305,37.82],[125.301,37.823],[125.24,37.823],[125.252,37.838],[125.295,37.86],[125.308,37.878],[125.301,37.895],[125.257,37.915],[125.26,37.933],[125.24,37.93],[125.229,37.915],[125.22,37.897],[125.209,37.881],[125.193,37.872],[125.177,37.868],[125.158,37.868],[125.1,37.875],[125.089,37.878],[125.062,37.896],[125.052,37.899],[125.029,37.9],[125.013,37.906],[125.007,37.918],[125.014,37.94],[124.989,37.927],[124.98,37.925],[124.984,37.942],[124.992,37.953],[125.005,37.958],[125.024,37.96],[125.037,37.964],[125.062,37.979],[125.076,37.98],[125.09,37.976],[125.116,37.963],[125.134,37.96],[125.15,37.961],[125.164,37.964],[125.175,37.97],[125.185,37.98],[125.178,37.988],[125.167,37.981],[125.155,37.98],[125.144,37.983],[125.123,37.998],[125.119,37.999],[125.115,38.002],[125.11,38.015],[125.107,38.035],[125.116,38.042],[125.158,38.043],[125.202,38.049],[125.213,38.046],[125.217,38.037],[125.22,38.028],[125.225,38.021],[125.246,38.02],[125.253,38.054],[125.274,38.062],[125.265,38.078],[125.248,38.084],[125.209,38.083],[125.19,38.086],[125.156,38.096],[125.141,38.098],[125.125,38.095],[125.076,38.076],[125.027,38.069],[125.014,38.062],[124.938,38.098],[124.905,38.125],[124.885,38.132],[124.876,38.114],[124.865,38.107],[124.84,38.102],[124.794,38.098],[124.677,38.115],[124.667,38.126],[124.674,38.137],[124.698,38.145],[124.745,38.148],[124.765,38.156],[124.773,38.176],[124.78,38.179],[124.822,38.186],[124.829,38.194],[124.845,38.218],[124.856,38.227],[124.879,38.231],[124.895,38.222],[124.921,38.189],[124.931,38.193],[124.993,38.227],[124.968,38.235],[124.915,38.229],[124.887,38.245],[124.872,38.258],[124.87,38.265],[124.87,38.282],[124.88,38.345],[124.884,38.355],[124.928,38.409],[124.935,38.421],[124.947,38.451],[124.959,38.461],[124.967,38.463],[124.972,38.462],[124.975,38.455],[124.973,38.44],[124.985,38.451],[125.002,38.474],[125.016,38.498],[125.021,38.515],[125.015,38.525],[124.997,38.536],[124.993,38.546],[124.995,38.558],[124.997,38.566],[124.996,38.574],[124.981,38.584],[124.984,38.592],[124.998,38.593],[125.018,38.584],[125.029,38.589],[125.038,38.591],[125.043,38.582],[125.058,38.568],[125.08,38.584],[125.103,38.594],[125.128,38.58],[125.135,38.591],[125.134,38.61],[125.137,38.625],[125.126,38.633],[125.118,38.645],[125.117,38.657],[125.123,38.666],[125.138,38.662],[125.148,38.646],[125.157,38.632],[125.18,38.635],[125.183,38.642],[125.178,38.657],[125.18,38.67],[125.189,38.667],[125.194,38.657],[125.203,38.653],[125.22,38.656],[125.236,38.658],[125.26,38.67],[125.267,38.67],[125.278,38.663],[125.301,38.657],[125.311,38.665],[125.32,38.669],[125.331,38.679],[125.346,38.687],[125.369,38.695],[125.397,38.694],[125.407,38.693],[125.43,38.687],[125.442,38.686],[125.444,38.69],[125.446,38.697],[125.451,38.704],[125.463,38.707],[125.507,38.686],[125.512,38.677],[125.515,38.658],[125.521,38.653],[125.533,38.654],[125.538,38.664],[125.541,38.674],[125.545,38.679],[125.555,38.677],[125.565,38.67],[125.572,38.662],[125.575,38.656],[125.586,38.642],[125.61,38.631],[125.638,38.626],[125.647,38.629],[125.652,38.624],[125.656,38.612],[125.656,38.585],[125.657,38.579],[125.663,38.569],[125.664,38.564],[125.665,38.558],[125.663,38.537],[125.665,38.531],[125.669,38.524],[125.677,38.514],[125.681,38.506],[125.684,38.497],[125.692,38.486],[125.7,38.473],[125.701,38.468],[125.7,38.462],[125.698,38.457],[125.697,38.452],[125.696,38.446],[125.697,38.43],[125.698,38.421],[125.7,38.416],[125.702,38.413],[125.704,38.41],[125.722,38.392],[125.724,38.389],[125.725,38.385],[125.724,38.381],[125.721,38.376],[125.717,38.371],[125.712,38.368],[125.704,38.363],[125.704,38.36],[125.711,38.354],[125.731,38.346],[125.743,38.337],[125.749,38.332],[125.751,38.327],[125.75,38.324],[125.748,38.321],[125.743,38.318],[125.741,38.314],[125.744,38.311],[125.758,38.309],[125.775,38.314],[125.783,38.315],[125.805,38.311],[125.811,38.313],[125.816,38.316],[125.821,38.318],[125.827,38.319],[125.833,38.317],[125.838,38.311],[125.843,38.3],[125.855,38.288],[125.857,38.283],[125.858,38.278],[125.863,38.271],[125.871,38.264],[125.898,38.246],[125.904,38.24],[125.908,38.23],[125.917,38.191],[125.919,38.186],[125.922,38.181],[125.928,38.177],[125.936,38.173],[125.952,38.17],[125.962,38.17],[125.97,38.17],[126.007,38.177],[126.032,38.188],[126.038,38.19],[126.048,38.19],[126.079,38.184],[126.09,38.185],[126.099,38.188],[126.108,38.198],[126.114,38.202],[126.12,38.205],[126.126,38.207],[126.132,38.207],[126.145,38.204],[126.151,38.203],[126.158,38.205],[126.164,38.208],[126.195,38.228],[126.201,38.231],[126.206,38.233],[126.25,38.24],[126.272,38.241],[126.285,38.239],[126.308,38.231],[126.337,38.219],[126.388,38.201],[126.394,38.198],[126.4,38.194],[126.406,38.19],[126.415,38.18],[126.422,38.17],[126.429,38.155],[126.436,38.144],[126.439,38.137],[126.439,38.127],[126.438,38.122],[126.433,38.119],[126.43,38.121],[126.426,38.125],[126.424,38.129],[126.418,38.144],[126.416,38.147],[126.411,38.147],[126.406,38.145],[126.402,38.14],[126.396,38.136],[126.384,38.129],[126.378,38.123],[126.375,38.111],[126.375,38.104],[126.382,38.098],[126.387,38.094],[126.39,38.086],[126.387,38.06],[126.398,38.039],[126.39,38.023],[126.394,38.007],[126.401,37.996],[126.401,37.988],[126.4,37.982],[126.397,37.977],[126.395,37.97],[126.391,37.938],[126.392,37.928],[126.397,37.922],[126.403,37.918],[126.409,37.913],[126.411,37.908],[126.41,37.902],[126.408,37.898],[126.402,37.889]]],[[[124.883,38.529],[124.9,38.505],[124.904,38.494],[124.861,38.504],[124.841,38.511],[124.822,38.522],[124.799,38.508],[124.79,38.517],[124.794,38.534],[124.832,38.553],[124.844,38.555],[124.849,38.546],[124.866,38.541],[124.877,38.536],[124.883,38.529]]],[[[125.329,37.767],[125.338,37.769],[125.313,37.741],[125.296,37.728],[125.269,37.714],[125.261,37.707],[125.247,37.7],[125.226,37.696],[125.221,37.704],[125.25,37.732],[125.264,37.737],[125.275,37.734],[125.277,37.74],[125.279,37.749],[125.285,37.749],[125.287,37.751],[125.289,37.754],[125.293,37.755],[125.299,37.756],[125.329,37.767]]],[[[125.148,37.786],[125.143,37.794],[125.141,37.8],[125.146,37.802],[125.166,37.814],[125.184,37.819],[125.188,37.819],[125.191,37.815],[125.193,37.811],[125.19,37.809],[125.185,37.808],[125.172,37.797],[125.156,37.787],[125.148,37.786]]],[[[125.03,37.836],[125.041,37.834],[125.045,37.825],[125.042,37.817],[125.04,37.818],[125.036,37.817],[125.026,37.808],[125.016,37.806],[125.005,37.806],[124.998,37.808],[124.998,37.813],[125.003,37.815],[125.007,37.819],[125.012,37.822],[125.019,37.82],[125.025,37.818],[125.028,37.819],[125.029,37.823],[125.03,37.825],[125.028,37.83],[125.03,37.836]]]]}},{"type":"Feature","id":"KP-06","properties":{"id":"KP-06","countryCode":"KP","isoSubdivision":"KP-06","name":"North Hwanghae","name_en":"North Hwanghae","name_ko":"황해북도","type":"Province","labelLongitude":126.297,"labelLatitude":38.596,"minZoom":8},"geometry":{"type":"Polygon","coordinates":[[[126.94,38.174],[126.92,38.135],[126.903,38.12],[126.865,38.096],[126.847,38.082],[126.762,37.979],[126.722,37.954],[126.696,37.946],[126.678,37.945],[126.666,37.938],[126.661,37.914],[126.667,37.828],[126.656,37.815],[126.652,37.799],[126.642,37.798],[126.621,37.788],[126.593,37.774],[126.576,37.778],[126.437,37.848],[126.428,37.854],[126.404,37.887],[126.402,37.889],[126.408,37.898],[126.41,37.902],[126.411,37.908],[126.409,37.913],[126.403,37.918],[126.397,37.922],[126.392,37.928],[126.391,37.938],[126.395,37.97],[126.397,37.977],[126.4,37.982],[126.401,37.988],[126.401,37.996],[126.394,38.007],[126.39,38.023],[126.398,38.039],[126.387,38.06],[126.39,38.086],[126.387,38.094],[126.382,38.098],[126.375,38.104],[126.375,38.111],[126.378,38.123],[126.384,38.129],[126.396,38.136],[126.402,38.14],[126.406,38.145],[126.411,38.147],[126.416,38.147],[126.418,38.144],[126.424,38.129],[126.426,38.125],[126.43,38.121],[126.433,38.119],[126.438,38.122],[126.439,38.127],[126.439,38.137],[126.436,38.144],[126.429,38.155],[126.422,38.17],[126.415,38.18],[126.406,38.19],[126.4,38.194],[126.394,38.198],[126.388,38.201],[126.337,38.219],[126.308,38.231],[126.285,38.239],[126.272,38.241],[126.25,38.24],[126.206,38.233],[126.201,38.231],[126.195,38.228],[126.164,38.208],[126.158,38.205],[126.151,38.203],[126.145,38.204],[126.132,38.207],[126.126,38.207],[126.12,38.205],[126.114,38.202],[126.108,38.198],[126.099,38.188],[126.09,38.185],[126.079,38.184],[126.048,38.19],[126.038,38.19],[126.032,38.188],[126.007,38.177],[125.97,38.17],[125.962,38.17],[125.952,38.17],[125.936,38.173],[125.928,38.177],[125.922,38.181],[125.919,38.186],[125.917,38.191],[125.908,38.23],[125.904,38.24],[125.898,38.246],[125.871,38.264],[125.863,38.271],[125.858,38.278],[125.857,38.283],[125.855,38.288],[125.843,38.3],[125.838,38.311],[125.833,38.317],[125.827,38.319],[125.821,38.318],[125.816,38.316],[125.811,38.313],[125.805,38.311],[125.783,38.315],[125.775,38.314],[125.758,38.309],[125.744,38.311],[125.741,38.314],[125.743,38.318],[125.748,38.321],[125.75,38.324],[125.751,38.327],[125.749,38.332],[125.743,38.337],[125.731,38.346],[125.711,38.354],[125.704,38.36],[125.704,38.363],[125.712,38.368],[125.717,38.371],[125.721,38.376],[125.724,38.381],[125.725,38.385],[125.724,38.389],[125.722,38.392],[125.704,38.41],[125.702,38.413],[125.7,38.416],[125.698,38.421],[125.697,38.43],[125.696,38.446],[125.697,38.452],[125.698,38.457],[125.7,38.462],[125.701,38.468],[125.7,38.473],[125.692,38.486],[125.684,38.497],[125.681,38.506],[125.677,38.514],[125.669,38.524],[125.665,38.531],[125.663,38.537],[125.665,38.558],[125.664,38.564],[125.663,38.569],[125.657,38.579],[125.656,38.585],[125.656,38.612],[125.652,38.624],[125.647,38.629],[125.658,38.631],[125.649,38.638],[125.637,38.654],[125.631,38.659],[125.63,38.659],[125.618,38.688],[125.616,38.714],[125.614,38.722],[125.61,38.727],[125.592,38.742],[125.581,38.753],[125.576,38.761],[125.574,38.767],[125.575,38.781],[125.605,38.789],[125.677,38.826],[125.709,38.839],[125.736,38.841],[125.801,38.838],[125.817,38.835],[125.918,38.794],[125.923,38.791],[125.929,38.787],[125.933,38.782],[125.935,38.777],[125.936,38.772],[125.935,38.756],[125.938,38.751],[125.943,38.746],[125.981,38.731],[125.998,38.723],[126.038,38.709],[126.064,38.705],[126.078,38.706],[126.1,38.709],[126.108,38.712],[126.115,38.716],[126.12,38.72],[126.138,38.74],[126.143,38.745],[126.151,38.75],[126.162,38.754],[126.2,38.762],[126.206,38.765],[126.212,38.769],[126.216,38.773],[126.218,38.778],[126.219,38.783],[126.219,38.816],[126.218,38.821],[126.216,38.826],[126.214,38.831],[126.211,38.836],[126.175,38.877],[126.172,38.88],[126.166,38.883],[126.142,38.893],[126.13,38.899],[126.125,38.904],[126.121,38.909],[126.118,38.913],[126.116,38.919],[126.115,38.924],[126.115,38.929],[126.118,38.949],[126.119,38.954],[126.121,38.96],[126.126,38.967],[126.135,38.974],[126.14,38.976],[126.147,38.97],[126.155,38.97],[126.166,38.974],[126.173,38.981],[126.182,38.984],[126.187,38.989],[126.195,38.99],[126.2,38.988],[126.231,38.985],[126.236,38.983],[126.243,38.976],[126.254,38.969],[126.258,38.965],[126.27,38.959],[126.289,38.955],[126.296,38.957],[126.303,38.958],[126.323,38.955],[126.329,38.953],[126.361,38.942],[126.367,38.938],[126.373,38.936],[126.378,38.934],[126.387,38.931],[126.458,38.912],[126.469,38.911],[126.485,38.912],[126.492,38.916],[126.496,38.92],[126.499,38.925],[126.5,38.928],[126.5,38.932],[126.5,38.935],[126.499,38.942],[126.497,38.951],[126.493,38.961],[126.486,38.97],[126.485,38.977],[126.487,38.985],[126.499,38.997],[126.507,39.001],[126.515,39.002],[126.522,39],[126.571,38.975],[126.584,38.974],[126.602,38.974],[126.638,38.977],[126.652,38.981],[126.66,38.986],[126.658,38.991],[126.656,38.995],[126.653,39],[126.645,39.007],[126.636,39.018],[126.632,39.023],[126.63,39.028],[126.623,39.044],[126.62,39.049],[126.616,39.054],[126.593,39.072],[126.588,39.078],[126.585,39.083],[126.581,39.093],[126.577,39.099],[126.564,39.115],[126.561,39.12],[126.559,39.125],[126.558,39.131],[126.558,39.139],[126.561,39.147],[126.567,39.16],[126.577,39.166],[126.585,39.168],[126.592,39.164],[126.607,39.148],[126.613,39.144],[126.62,39.14],[126.628,39.137],[126.635,39.136],[126.652,39.135],[126.666,39.137],[126.714,39.147],[126.722,39.147],[126.73,39.146],[126.738,39.143],[126.749,39.138],[126.764,39.128],[126.771,39.124],[126.778,39.122],[126.81,39.118],[126.824,39.113],[126.839,39.107],[126.891,39.073],[126.904,39.066],[126.926,39.063],[126.982,39.069],[126.986,39.032],[126.993,39.016],[127.003,39.005],[127.009,39],[127.011,38.999],[127.015,38.992],[127.017,38.987],[127.019,38.982],[127.019,38.977],[127.018,38.97],[127.015,38.962],[127.009,38.948],[127,38.935],[126.983,38.918],[126.978,38.914],[126.972,38.911],[126.965,38.909],[126.959,38.908],[126.912,38.905],[126.906,38.904],[126.9,38.902],[126.893,38.898],[126.888,38.894],[126.882,38.889],[126.878,38.884],[126.874,38.879],[126.873,38.871],[126.872,38.861],[126.875,38.843],[126.875,38.816],[126.872,38.796],[126.87,38.785],[126.867,38.777],[126.852,38.757],[126.818,38.717],[126.8,38.686],[126.791,38.676],[126.785,38.671],[126.773,38.663],[126.76,38.657],[126.701,38.643],[126.694,38.64],[126.688,38.637],[126.683,38.632],[126.68,38.627],[126.678,38.619],[126.678,38.618],[126.683,38.609],[126.705,38.583],[126.709,38.577],[126.712,38.57],[126.713,38.558],[126.711,38.55],[126.709,38.544],[126.707,38.539],[126.703,38.529],[126.701,38.518],[126.7,38.513],[126.701,38.498],[126.707,38.479],[126.714,38.466],[126.781,38.375],[126.785,38.368],[126.786,38.361],[126.789,38.355],[126.796,38.35],[126.803,38.347],[126.81,38.345],[126.819,38.342],[126.828,38.338],[126.84,38.329],[126.848,38.327],[126.853,38.328],[126.864,38.335],[126.869,38.338],[126.874,38.339],[126.881,38.339],[126.884,38.335],[126.885,38.328],[126.879,38.313],[126.873,38.306],[126.869,38.299],[126.868,38.294],[126.871,38.287],[126.873,38.283],[126.881,38.274],[126.882,38.268],[126.881,38.262],[126.876,38.251],[126.871,38.24],[126.873,38.226],[126.89,38.208],[126.896,38.205],[126.905,38.201],[126.922,38.199],[126.926,38.195],[126.929,38.191],[126.931,38.187],[126.94,38.175],[126.94,38.174]]]}},{"type":"Feature","id":"KP-07","properties":{"id":"KP-07","countryCode":"KP","isoSubdivision":"KP-07","name":"Kangwon","name_en":"Kangwon","name_ko":"강원도","type":"Province","labelLongitude":127.521,"labelLatitude":38.727,"minZoom":8},"geometry":{"type":"Polygon","coordinates":[[[128.365,38.624],[128.308,38.601],[128.281,38.584],[128.275,38.571],[128.277,38.554],[128.285,38.52],[128.281,38.484],[128.268,38.454],[128.249,38.426],[128.226,38.4],[128.172,38.356],[128.108,38.324],[128.04,38.304],[127.972,38.3],[127.867,38.305],[127.801,38.294],[127.787,38.297],[127.775,38.306],[127.762,38.321],[127.754,38.325],[127.561,38.312],[127.502,38.298],[127.472,38.296],[127.377,38.319],[127.254,38.31],[127.222,38.313],[127.157,38.307],[127.09,38.286],[127.027,38.254],[126.972,38.219],[126.966,38.213],[126.954,38.201],[126.94,38.174],[126.94,38.175],[126.931,38.187],[126.929,38.191],[126.926,38.195],[126.922,38.199],[126.905,38.201],[126.896,38.205],[126.89,38.208],[126.873,38.226],[126.871,38.24],[126.876,38.251],[126.881,38.262],[126.882,38.268],[126.881,38.274],[126.873,38.283],[126.871,38.287],[126.868,38.294],[126.869,38.299],[126.873,38.306],[126.879,38.313],[126.885,38.328],[126.884,38.335],[126.881,38.339],[126.874,38.339],[126.869,38.338],[126.864,38.335],[126.853,38.328],[126.848,38.327],[126.84,38.329],[126.828,38.338],[126.819,38.342],[126.81,38.345],[126.803,38.347],[126.796,38.35],[126.789,38.355],[126.786,38.361],[126.785,38.368],[126.781,38.375],[126.714,38.466],[126.707,38.479],[126.701,38.498],[126.7,38.513],[126.701,38.518],[126.703,38.529],[126.707,38.539],[126.709,38.544],[126.711,38.55],[126.713,38.558],[126.712,38.57],[126.709,38.577],[126.705,38.583],[126.683,38.609],[126.678,38.618],[126.678,38.619],[126.68,38.627],[126.683,38.632],[126.688,38.637],[126.694,38.64],[126.701,38.643],[126.76,38.657],[126.773,38.663],[126.785,38.671],[126.791,38.676],[126.8,38.686],[126.818,38.717],[126.852,38.757],[126.867,38.777],[126.87,38.785],[126.872,38.796],[126.875,38.816],[126.875,38.843],[126.872,38.861],[126.873,38.871],[126.874,38.879],[126.878,38.884],[126.882,38.889],[126.888,38.894],[126.893,38.898],[126.9,38.902],[126.906,38.904],[126.912,38.905],[126.959,38.908],[126.965,38.909],[126.972,38.911],[126.978,38.914],[126.983,38.918],[127,38.935],[127.009,38.948],[127.015,38.962],[127.018,38.97],[127.019,38.977],[127.019,38.982],[127.017,38.987],[127.015,38.992],[127.011,38.999],[127.009,39],[127.003,39.005],[126.993,39.016],[126.986,39.032],[126.982,39.069],[126.994,39.111],[127.014,39.134],[127.021,39.138],[127.055,39.151],[127.061,39.156],[127.063,39.161],[127.061,39.169],[127.057,39.175],[127.025,39.204],[127.038,39.212],[127.039,39.219],[127.039,39.225],[127.032,39.242],[127.029,39.258],[127.032,39.266],[127.037,39.272],[127.067,39.278],[127.075,39.282],[127.086,39.289],[127.09,39.295],[127.092,39.302],[127.093,39.315],[127.094,39.322],[127.101,39.343],[127.106,39.375],[127.109,39.383],[127.115,39.391],[127.121,39.397],[127.131,39.404],[127.139,39.408],[127.146,39.411],[127.153,39.412],[127.16,39.412],[127.197,39.408],[127.247,39.414],[127.28,39.413],[127.33,39.405],[127.378,39.41],[127.403,39.409],[127.411,39.411],[127.418,39.411],[127.424,39.41],[127.438,39.405],[127.431,39.397],[127.426,39.393],[127.378,39.379],[127.378,39.371],[127.39,39.367],[127.414,39.362],[127.426,39.357],[127.438,39.364],[127.454,39.368],[127.468,39.364],[127.473,39.348],[127.467,39.34],[127.435,39.335],[127.426,39.33],[127.42,39.336],[127.415,39.341],[127.408,39.343],[127.401,39.344],[127.392,39.342],[127.393,39.336],[127.397,39.33],[127.398,39.324],[127.387,39.297],[127.378,39.269],[127.372,39.24],[127.383,39.222],[127.393,39.202],[127.409,39.193],[127.42,39.189],[127.441,39.171],[127.452,39.166],[127.472,39.168],[127.476,39.177],[127.474,39.187],[127.473,39.193],[127.491,39.195],[127.512,39.156],[127.532,39.146],[127.607,39.152],[127.632,39.146],[127.643,39.139],[127.652,39.129],[127.661,39.121],[127.676,39.118],[127.744,39.119],[127.759,39.117],[127.77,39.109],[127.793,39.078],[127.824,39.043],[127.83,39.033],[127.837,39.019],[127.852,39.001],[127.886,38.974],[127.889,38.961],[127.893,38.957],[127.902,38.964],[127.909,38.967],[127.914,38.964],[127.918,38.958],[127.921,38.942],[127.926,38.934],[127.934,38.929],[127.944,38.926],[127.962,38.918],[127.995,38.875],[128.015,38.858],[128.091,38.844],[128.21,38.728],[128.225,38.732],[128.27,38.752],[128.283,38.755],[128.313,38.717],[128.321,38.711],[128.338,38.704],[128.348,38.697],[128.36,38.679],[128.36,38.675],[128.361,38.661],[128.36,38.643],[128.365,38.625],[128.365,38.624]]]}},{"type":"Feature","id":"KP-08","properties":{"id":"KP-08","countryCode":"KP","isoSubdivision":"KP-08","name":"South Hamgyong","name_en":"South Hamgyong","name_ko":"함경남도","type":"Province","labelLongitude":127.922,"labelLatitude":40.234,"minZoom":8},"geometry":{"type":"Polygon","coordinates":[[[129.161,40.565],[129.155,40.557],[129.151,40.546],[129.115,40.511],[129.078,40.473],[129.03,40.474],[128.976,40.46],[128.9,40.398],[128.861,40.372],[128.831,40.367],[128.814,40.355],[128.781,40.347],[128.764,40.347],[128.752,40.335],[128.722,40.339],[128.688,40.331],[128.67,40.311],[128.657,40.311],[128.655,40.32],[128.636,40.313],[128.619,40.297],[128.616,40.271],[128.629,40.266],[128.657,40.257],[128.661,40.248],[128.668,40.24],[128.663,40.225],[128.665,40.201],[128.651,40.197],[128.642,40.191],[128.635,40.184],[128.629,40.18],[128.622,40.181],[128.608,40.186],[128.589,40.187],[128.578,40.18],[128.543,40.167],[128.536,40.151],[128.528,40.143],[128.51,40.135],[128.48,40.135],[128.466,40.124],[128.449,40.11],[128.435,40.104],[128.411,40.096],[128.392,40.1],[128.365,40.097],[128.338,40.067],[128.328,40.028],[128.302,40.033],[128.28,40.065],[128.263,40.077],[128.236,40.068],[128.228,40.056],[128.234,40.029],[128.225,40.028],[128.203,40.03],[128.193,40.029],[128.182,40.026],[128.164,40.018],[128.155,40.016],[128.147,40.018],[128.144,40.023],[128.139,40.027],[128.007,40.045],[128.002,40.04],[128.001,40.026],[127.998,40.02],[127.99,40.015],[127.98,40.011],[127.971,40.009],[127.964,40.004],[127.947,39.982],[127.94,39.975],[127.93,39.972],[127.907,39.984],[127.891,39.961],[127.891,39.944],[127.884,39.902],[127.875,39.893],[127.782,39.885],[127.796,39.876],[127.794,39.866],[127.762,39.854],[127.727,39.857],[127.696,39.848],[127.68,39.816],[127.663,39.807],[127.649,39.821],[127.624,39.831],[127.607,39.81],[127.593,39.806],[127.576,39.796],[127.562,39.784],[127.549,39.761],[127.521,39.747],[127.514,39.739],[127.512,39.731],[127.504,39.716],[127.501,39.707],[127.502,39.698],[127.506,39.684],[127.509,39.66],[127.512,39.649],[127.519,39.645],[127.528,39.646],[127.553,39.637],[127.57,39.618],[127.575,39.595],[127.537,39.552],[127.52,39.51],[127.535,39.444],[127.563,39.344],[127.562,39.316],[127.554,39.306],[127.543,39.302],[127.532,39.305],[127.522,39.316],[127.521,39.329],[127.527,39.344],[127.542,39.371],[127.508,39.409],[127.504,39.423],[127.495,39.433],[127.483,39.437],[127.47,39.43],[127.44,39.408],[127.438,39.405],[127.424,39.41],[127.418,39.411],[127.411,39.411],[127.403,39.409],[127.378,39.41],[127.33,39.405],[127.28,39.413],[127.247,39.414],[127.197,39.408],[127.16,39.412],[127.153,39.412],[127.146,39.411],[127.139,39.408],[127.131,39.404],[127.121,39.397],[127.115,39.391],[127.109,39.383],[127.106,39.375],[127.101,39.343],[127.094,39.322],[127.093,39.315],[127.092,39.302],[127.09,39.295],[127.086,39.289],[127.075,39.282],[127.067,39.278],[127.037,39.272],[127.032,39.266],[127.029,39.258],[127.032,39.242],[127.039,39.225],[127.039,39.219],[127.038,39.212],[127.025,39.204],[127.004,39.213],[126.999,39.215],[126.994,39.215],[126.979,39.216],[126.951,39.211],[126.944,39.211],[126.936,39.213],[126.929,39.215],[126.924,39.22],[126.923,39.226],[126.925,39.233],[126.93,39.245],[126.931,39.252],[126.93,39.26],[126.926,39.27],[126.921,39.277],[126.915,39.282],[126.909,39.285],[126.902,39.286],[126.894,39.287],[126.887,39.287],[126.879,39.285],[126.873,39.282],[126.862,39.273],[126.856,39.27],[126.85,39.27],[126.846,39.274],[126.844,39.279],[126.84,39.29],[126.838,39.295],[126.835,39.3],[126.831,39.305],[126.826,39.309],[126.821,39.311],[126.818,39.312],[126.814,39.313],[126.81,39.314],[126.796,39.314],[126.789,39.313],[126.782,39.312],[126.749,39.299],[126.744,39.298],[126.737,39.298],[126.73,39.298],[126.723,39.301],[126.716,39.304],[126.709,39.309],[126.704,39.314],[126.7,39.32],[126.698,39.325],[126.698,39.337],[126.701,39.354],[126.722,39.42],[126.737,39.451],[126.738,39.457],[126.738,39.464],[126.734,39.475],[126.728,39.482],[126.721,39.487],[126.714,39.491],[126.69,39.509],[126.679,39.519],[126.675,39.524],[126.673,39.529],[126.673,39.537],[126.675,39.548],[126.684,39.566],[126.691,39.575],[126.698,39.582],[126.705,39.586],[126.71,39.592],[126.713,39.6],[126.714,39.611],[126.713,39.619],[126.711,39.625],[126.703,39.641],[126.702,39.647],[126.704,39.655],[126.711,39.665],[126.75,39.697],[126.753,39.702],[126.754,39.707],[126.751,39.714],[126.748,39.716],[126.742,39.718],[126.735,39.719],[126.728,39.72],[126.722,39.723],[126.719,39.729],[126.721,39.737],[126.735,39.758],[126.751,39.777],[126.755,39.782],[126.758,39.788],[126.771,39.824],[126.776,39.833],[126.782,39.84],[126.788,39.844],[126.795,39.848],[126.802,39.851],[126.816,39.855],[126.871,39.866],[126.935,39.866],[126.951,39.863],[126.964,39.859],[126.97,39.857],[126.976,39.853],[126.98,39.848],[126.994,39.831],[126.998,39.827],[127.002,39.826],[127.008,39.826],[127.015,39.828],[127.021,39.832],[127.029,39.841],[127.035,39.844],[127.043,39.845],[127.083,39.848],[127.089,39.85],[127.095,39.854],[127.1,39.859],[127.103,39.864],[127.109,39.873],[127.111,39.879],[127.113,39.886],[127.111,39.896],[127.107,39.905],[127.077,39.947],[127.073,39.956],[127.061,39.996],[127.058,40.008],[127.058,40.014],[127.059,40.02],[127.063,40.024],[127.069,40.026],[127.077,40.028],[127.082,40.03],[127.086,40.035],[127.085,40.042],[127.083,40.052],[127.083,40.06],[127.085,40.066],[127.089,40.07],[127.093,40.073],[127.162,40.115],[127.172,40.125],[127.176,40.13],[127.178,40.136],[127.178,40.142],[127.178,40.148],[127.173,40.155],[127.163,40.163],[127.126,40.181],[127.116,40.187],[127.11,40.197],[127.106,40.211],[127.102,40.24],[127.102,40.241],[127.105,40.247],[127.11,40.258],[127.112,40.263],[127.113,40.269],[127.112,40.274],[127.11,40.279],[127.105,40.285],[127.057,40.321],[127.048,40.326],[127.035,40.33],[127.016,40.335],[127.003,40.337],[126.912,40.335],[126.912,40.348],[126.914,40.367],[126.918,40.385],[126.924,40.401],[126.943,40.425],[126.967,40.445],[126.985,40.466],[126.986,40.494],[126.98,40.531],[126.992,40.548],[127.017,40.558],[127.047,40.575],[127.062,40.586],[127.076,40.594],[127.091,40.6],[127.109,40.604],[127.154,40.609],[127.166,40.614],[127.184,40.636],[127.199,40.695],[127.22,40.718],[127.298,40.753],[127.342,40.764],[127.354,40.77],[127.364,40.778],[127.372,40.789],[127.377,40.802],[127.376,40.823],[127.364,40.835],[127.326,40.849],[127.304,40.871],[127.299,40.905],[127.306,40.942],[127.323,40.968],[127.373,41.01],[127.387,41.034],[127.392,41.071],[127.433,41.064],[127.475,41.062],[127.494,41.067],[127.505,41.079],[127.511,41.096],[127.515,41.116],[127.532,41.145],[127.558,41.154],[127.625,41.143],[127.661,41.129],[127.675,41.105],[127.673,41.072],[127.667,41.034],[127.663,41.02],[127.655,41.009],[127.644,41.001],[127.629,40.997],[127.599,40.995],[127.585,40.99],[127.59,40.978],[127.615,40.948],[127.618,40.922],[127.601,40.899],[127.539,40.862],[127.526,40.852],[127.517,40.841],[127.519,40.828],[127.533,40.823],[127.551,40.819],[127.565,40.81],[127.57,40.797],[127.576,40.77],[127.581,40.758],[127.621,40.703],[127.632,40.692],[127.643,40.686],[127.655,40.681],[127.667,40.673],[127.676,40.659],[127.682,40.622],[127.688,40.606],[127.695,40.596],[127.704,40.59],[127.715,40.587],[127.727,40.585],[127.759,40.584],[127.772,40.58],[127.765,40.569],[127.755,40.558],[127.755,40.548],[127.759,40.537],[127.761,40.523],[127.759,40.509],[127.753,40.501],[127.734,40.485],[127.726,40.472],[127.722,40.46],[127.722,40.433],[127.723,40.414],[127.729,40.404],[127.741,40.402],[127.759,40.406],[127.823,40.434],[127.914,40.489],[127.927,40.502],[127.936,40.518],[127.942,40.533],[127.949,40.547],[127.958,40.558],[127.973,40.567],[128.051,40.588],[128.066,40.589],[128.08,40.586],[128.093,40.579],[128.118,40.56],[128.147,40.549],[128.176,40.552],[128.202,40.572],[128.241,40.619],[128.256,40.632],[128.303,40.663],[128.315,40.675],[128.32,40.687],[128.326,40.725],[128.331,40.738],[128.347,40.758],[128.354,40.769],[128.359,40.787],[128.362,40.804],[128.365,40.84],[128.369,40.857],[128.381,40.891],[128.384,40.908],[128.376,40.934],[128.364,40.965],[128.359,40.992],[128.375,41.007],[128.407,41.008],[128.443,41.006],[128.479,41.007],[128.508,41.018],[128.52,41.031],[128.538,41.059],[128.549,41.072],[128.566,41.08],[128.607,41.091],[128.62,41.101],[128.623,41.114],[128.627,41.131],[128.628,41.148],[128.627,41.16],[128.63,41.172],[128.645,41.174],[128.687,41.164],[128.699,41.164],[128.723,41.169],[128.738,41.17],[128.753,41.167],[128.858,41.131],[128.896,41.113],[128.923,41.088],[128.948,41.041],[128.955,41.015],[128.956,40.988],[128.949,40.97],[128.927,40.941],[128.917,40.924],[128.919,40.908],[128.931,40.891],[128.939,40.875],[128.933,40.861],[128.92,40.847],[128.918,40.831],[128.924,40.815],[128.937,40.8],[128.956,40.783],[128.964,40.773],[128.97,40.762],[128.972,40.749],[128.973,40.724],[128.976,40.711],[128.988,40.693],[129.007,40.678],[129.047,40.654],[129.062,40.638],[129.063,40.624],[129.06,40.61],[129.062,40.592],[129.073,40.579],[129.09,40.571],[129.108,40.567],[129.161,40.565]]]}},{"type":"Feature","id":"KP-09","properties":{"id":"KP-09","countryCode":"KP","isoSubdivision":"KP-09","name":"North Hamgyong","name_en":"North Hamgyong","name_ko":"함경북도","type":"Province","labelLongitude":129.417,"labelLatitude":41.867,"minZoom":8},"geometry":{"type":"Polygon","coordinates":[[[129.921,43.01],[129.934,43.008],[129.942,43.004],[129.972,42.974],[129.981,42.967],[129.996,42.962],[130.008,42.961],[130.047,42.962],[130.094,42.977],[130.121,42.982],[130.134,42.973],[130.13,42.959],[130.123,42.943],[130.112,42.929],[130.099,42.922],[130.14,42.907],[130.194,42.908],[130.239,42.902],[130.256,42.867],[130.242,42.782],[130.243,42.743],[130.263,42.709],[130.317,42.667],[130.325,42.65],[130.393,42.606],[130.404,42.604],[130.413,42.605],[130.42,42.604],[130.428,42.599],[130.43,42.591],[130.426,42.572],[130.431,42.562],[130.452,42.55],[130.449,42.503],[130.433,42.453],[130.39,42.437],[130.316,42.422],[130.262,42.418],[130.258,42.39],[130.281,42.371],[130.273,42.332],[130.219,42.281],[130.192,42.235],[130.202,42.174],[130.204,42.16],[130.199,42.101],[130.194,42.101],[130.185,42.104],[130.174,42.099],[130.16,42.085],[130.164,42.083],[130.167,42.077],[130.159,42.073],[130.15,42.074],[130.133,42.085],[130.12,42.09],[130.093,42.09],[130.073,42.078],[130.068,42.059],[130.067,42.052],[130.052,42.05],[130.05,42.042],[130.045,42.036],[130.036,42.012],[130.034,41.996],[130.027,41.993],[130.015,42.014],[130.003,42.011],[130.001,41.99],[129.982,41.983],[129.989,41.978],[129.994,41.973],[130.003,41.962],[129.993,41.96],[129.986,41.955],[129.975,41.942],[129.978,41.944],[129.976,41.934],[129.971,41.922],[129.969,41.917],[129.965,41.899],[129.954,41.892],[129.947,41.895],[129.937,41.904],[129.914,41.911],[129.897,41.904],[129.89,41.883],[129.883,41.857],[129.885,41.824],[129.87,41.791],[129.855,41.782],[129.852,41.765],[129.843,41.759],[129.827,41.778],[129.813,41.778],[129.775,41.759],[129.763,41.731],[129.75,41.696],[129.741,41.684],[129.715,41.675],[129.691,41.65],[129.683,41.618],[129.669,41.576],[129.649,41.549],[129.661,41.526],[129.658,41.509],[129.653,41.494],[129.659,41.465],[129.682,41.443],[129.702,41.429],[129.715,41.42],[129.736,41.421],[129.744,41.407],[129.758,41.393],[129.769,41.386],[129.776,41.385],[129.791,41.388],[129.797,41.386],[129.806,41.376],[129.805,41.373],[129.8,41.369],[129.797,41.355],[129.795,41.352],[129.787,41.33],[129.786,41.325],[129.77,41.315],[129.759,41.293],[129.72,41.167],[129.712,41.123],[129.728,41.085],[129.722,41.072],[129.72,41.056],[129.721,41.024],[129.728,40.979],[129.733,40.969],[129.751,40.952],[129.765,40.944],[129.756,40.939],[129.749,40.917],[129.753,40.91],[129.734,40.891],[129.737,40.871],[129.725,40.848],[129.717,40.835],[129.706,40.836],[129.698,40.846],[129.685,40.842],[129.663,40.839],[129.644,40.842],[129.626,40.838],[129.61,40.841],[129.598,40.839],[129.572,40.84],[129.554,40.829],[129.551,40.81],[129.532,40.807],[129.518,40.795],[129.506,40.792],[129.477,40.794],[129.427,40.781],[129.389,40.761],[129.352,40.745],[129.34,40.734],[129.328,40.718],[129.311,40.687],[129.303,40.674],[129.296,40.676],[129.287,40.684],[129.278,40.698],[129.27,40.708],[129.253,40.709],[129.233,40.706],[129.218,40.696],[129.212,40.686],[129.206,40.676],[129.206,40.67],[129.207,40.664],[129.202,40.656],[129.2,40.651],[129.198,40.638],[129.193,40.633],[129.191,40.623],[129.187,40.617],[129.179,40.61],[129.175,40.604],[129.174,40.593],[129.173,40.569],[129.161,40.566],[129.161,40.565],[129.108,40.567],[129.09,40.571],[129.073,40.579],[129.062,40.592],[129.06,40.61],[129.063,40.624],[129.062,40.638],[129.047,40.654],[129.007,40.678],[128.988,40.693],[128.976,40.711],[128.973,40.724],[128.972,40.749],[128.97,40.762],[128.964,40.773],[128.956,40.783],[128.937,40.8],[128.924,40.815],[128.918,40.831],[128.92,40.847],[128.933,40.861],[128.939,40.875],[128.931,40.891],[128.919,40.908],[128.917,40.924],[128.927,40.941],[128.949,40.97],[128.956,40.988],[128.955,41.015],[128.948,41.041],[128.923,41.088],[128.937,41.115],[128.926,41.142],[128.91,41.169],[128.905,41.198],[128.913,41.212],[128.935,41.238],[128.939,41.254],[128.933,41.269],[128.921,41.281],[128.907,41.291],[128.894,41.301],[128.851,41.355],[128.835,41.387],[128.828,41.42],[128.839,41.453],[128.866,41.473],[128.895,41.491],[128.915,41.517],[128.914,41.545],[128.898,41.574],[128.874,41.598],[128.847,41.612],[128.794,41.615],[128.781,41.621],[128.776,41.633],[128.784,41.643],[128.795,41.653],[128.802,41.666],[128.8,41.678],[128.785,41.697],[128.779,41.708],[128.777,41.721],[128.777,41.756],[128.778,41.769],[128.784,41.796],[128.783,41.807],[128.775,41.815],[128.766,41.816],[128.742,41.809],[128.734,41.811],[128.729,41.818],[128.728,41.827],[128.728,41.844],[128.726,41.853],[128.723,41.861],[128.71,41.888],[128.708,41.897],[128.705,41.919],[128.719,41.922],[128.745,41.914],[128.759,41.915],[128.769,41.921],[128.776,41.93],[128.788,41.949],[128.806,41.965],[128.85,41.985],[128.869,42],[128.881,42.022],[128.883,42.03],[128.903,42.026],[128.94,42.035],[128.955,42.075],[128.964,42.089],[128.985,42.093],[129.009,42.095],[129.027,42.102],[129.053,42.123],[129.063,42.136],[129.065,42.154],[129.088,42.143],[129.106,42.142],[129.12,42.149],[129.148,42.174],[129.178,42.193],[129.196,42.209],[129.204,42.214],[129.211,42.22],[129.214,42.226],[129.209,42.235],[129.187,42.236],[129.181,42.243],[129.183,42.255],[129.192,42.26],[129.203,42.263],[129.211,42.267],[129.215,42.276],[129.214,42.284],[129.216,42.291],[129.228,42.298],[129.221,42.304],[129.212,42.308],[129.204,42.31],[129.194,42.311],[129.194,42.318],[129.226,42.318],[129.236,42.324],[129.242,42.339],[129.24,42.344],[129.234,42.347],[129.229,42.35],[129.228,42.359],[129.231,42.368],[129.236,42.374],[129.243,42.379],[129.297,42.387],[129.304,42.39],[129.307,42.408],[129.315,42.422],[129.327,42.427],[129.338,42.414],[129.352,42.421],[129.344,42.429],[129.339,42.438],[129.34,42.445],[129.352,42.448],[129.363,42.445],[129.372,42.433],[129.386,42.428],[129.395,42.43],[129.406,42.436],[129.419,42.441],[129.434,42.441],[129.482,42.411],[129.489,42.403],[129.517,42.391],[129.523,42.383],[129.527,42.373],[129.535,42.37],[129.545,42.371],[129.554,42.377],[129.559,42.387],[129.56,42.397],[129.563,42.404],[129.588,42.411],[129.594,42.422],[129.596,42.436],[129.592,42.448],[129.633,42.445],[129.671,42.438],[129.703,42.442],[129.729,42.476],[129.734,42.512],[129.731,42.551],[129.737,42.585],[129.763,42.606],[129.763,42.612],[129.746,42.616],[129.742,42.629],[129.751,42.643],[129.777,42.647],[129.772,42.662],[129.779,42.67],[129.788,42.677],[129.787,42.685],[129.775,42.693],[129.764,42.697],[129.758,42.704],[129.756,42.722],[129.757,42.735],[129.761,42.746],[129.774,42.767],[129.79,42.792],[129.795,42.806],[129.799,42.837],[129.834,42.907],[129.842,42.918],[129.847,42.928],[129.848,42.951],[129.852,42.962],[129.863,42.969],[129.893,42.972],[129.907,42.976],[129.898,42.979],[129.89,42.983],[129.884,42.989],[129.88,42.996],[129.891,42.999],[129.909,43.008],[129.921,43.01]]]}},{"type":"Feature","id":"KP-10","properties":{"id":"KP-10","countryCode":"KP","isoSubdivision":"KP-10","name":"Ryanggang","name_en":"Ryanggang","name_ko":"량강도","type":"Province","labelLongitude":127.875,"labelLatitude":40.961,"minZoom":8},"geometry":{"type":"Polygon","coordinates":[[[128.721,42.048],[128.817,42.044],[128.883,42.03],[128.881,42.022],[128.869,42],[128.85,41.985],[128.806,41.965],[128.788,41.949],[128.776,41.93],[128.769,41.921],[128.759,41.915],[128.745,41.914],[128.719,41.922],[128.705,41.919],[128.708,41.897],[128.71,41.888],[128.723,41.861],[128.726,41.853],[128.728,41.844],[128.728,41.827],[128.729,41.818],[128.734,41.811],[128.742,41.809],[128.766,41.816],[128.775,41.815],[128.783,41.807],[128.784,41.796],[128.778,41.769],[128.777,41.756],[128.777,41.721],[128.779,41.708],[128.785,41.697],[128.8,41.678],[128.802,41.666],[128.795,41.653],[128.784,41.643],[128.776,41.633],[128.781,41.621],[128.794,41.615],[128.847,41.612],[128.874,41.598],[128.898,41.574],[128.914,41.545],[128.915,41.517],[128.895,41.491],[128.866,41.473],[128.839,41.453],[128.828,41.42],[128.835,41.387],[128.851,41.355],[128.894,41.301],[128.907,41.291],[128.921,41.281],[128.933,41.269],[128.939,41.254],[128.935,41.238],[128.913,41.212],[128.905,41.198],[128.91,41.169],[128.926,41.142],[128.937,41.115],[128.923,41.088],[128.896,41.113],[128.858,41.131],[128.753,41.167],[128.738,41.17],[128.723,41.169],[128.699,41.164],[128.687,41.164],[128.645,41.174],[128.63,41.172],[128.627,41.16],[128.628,41.148],[128.627,41.131],[128.623,41.114],[128.62,41.101],[128.607,41.091],[128.566,41.08],[128.549,41.072],[128.538,41.059],[128.52,41.031],[128.508,41.018],[128.479,41.007],[128.443,41.006],[128.407,41.008],[128.375,41.007],[128.359,40.992],[128.364,40.965],[128.376,40.934],[128.384,40.908],[128.381,40.891],[128.369,40.857],[128.365,40.84],[128.362,40.804],[128.359,40.787],[128.354,40.769],[128.347,40.758],[128.331,40.738],[128.326,40.725],[128.32,40.687],[128.315,40.675],[128.303,40.663],[128.256,40.632],[128.241,40.619],[128.202,40.572],[128.176,40.552],[128.147,40.549],[128.118,40.56],[128.093,40.579],[128.08,40.586],[128.066,40.589],[128.051,40.588],[127.973,40.567],[127.958,40.558],[127.949,40.547],[127.942,40.533],[127.936,40.518],[127.927,40.502],[127.914,40.489],[127.823,40.434],[127.759,40.406],[127.741,40.402],[127.729,40.404],[127.723,40.414],[127.722,40.433],[127.722,40.46],[127.726,40.472],[127.734,40.485],[127.753,40.501],[127.759,40.509],[127.761,40.523],[127.759,40.537],[127.755,40.548],[127.755,40.558],[127.765,40.569],[127.772,40.58],[127.759,40.584],[127.727,40.585],[127.715,40.587],[127.704,40.59],[127.695,40.596],[127.688,40.606],[127.682,40.622],[127.676,40.659],[127.667,40.673],[127.655,40.681],[127.643,40.686],[127.632,40.692],[127.621,40.703],[127.581,40.758],[127.576,40.77],[127.57,40.797],[127.565,40.81],[127.551,40.819],[127.533,40.823],[127.519,40.828],[127.517,40.841],[127.526,40.852],[127.539,40.862],[127.601,40.899],[127.618,40.922],[127.615,40.948],[127.59,40.978],[127.585,40.99],[127.599,40.995],[127.629,40.997],[127.644,41.001],[127.655,41.009],[127.663,41.02],[127.667,41.034],[127.673,41.072],[127.675,41.105],[127.661,41.129],[127.625,41.143],[127.558,41.154],[127.532,41.145],[127.515,41.116],[127.511,41.096],[127.505,41.079],[127.494,41.067],[127.475,41.062],[127.433,41.064],[127.392,41.071],[127.393,41.093],[127.391,41.119],[127.386,41.145],[127.377,41.164],[127.356,41.176],[127.327,41.176],[127.298,41.168],[127.275,41.156],[127.261,41.141],[127.251,41.126],[127.239,41.113],[127.218,41.103],[127.205,41.102],[127.166,41.11],[127.135,41.113],[127.122,41.116],[127.065,41.145],[127.046,41.158],[127.033,41.177],[127.028,41.205],[127.023,41.217],[127.013,41.228],[127.001,41.238],[127,41.245],[127.004,41.251],[127.007,41.261],[127,41.277],[126.966,41.298],[126.956,41.317],[126.949,41.352],[126.944,41.369],[126.937,41.385],[126.919,41.408],[126.916,41.414],[126.919,41.421],[126.932,41.432],[126.934,41.44],[126.929,41.448],[126.92,41.451],[126.909,41.45],[126.9,41.449],[126.864,41.436],[126.846,41.436],[126.828,41.447],[126.821,41.458],[126.815,41.473],[126.812,41.489],[126.815,41.502],[126.826,41.513],[126.839,41.515],[126.868,41.512],[126.886,41.515],[126.895,41.523],[126.901,41.535],[126.911,41.548],[126.927,41.558],[126.944,41.564],[126.96,41.573],[126.968,41.588],[126.969,41.596],[126.967,41.603],[126.961,41.618],[126.957,41.64],[126.956,41.663],[126.963,41.694],[126.978,41.721],[126.996,41.746],[127,41.752],[127.033,41.732],[127.043,41.733],[127.047,41.719],[127.068,41.694],[127.077,41.681],[127.06,41.682],[127.049,41.678],[127.045,41.668],[127.049,41.653],[127.059,41.643],[127.074,41.636],[127.105,41.626],[127.102,41.622],[127.097,41.612],[127.114,41.61],[127.166,41.595],[127.18,41.585],[127.158,41.579],[127.137,41.569],[127.118,41.556],[127.105,41.537],[127.112,41.537],[127.121,41.535],[127.128,41.532],[127.135,41.522],[127.142,41.524],[127.156,41.531],[127.165,41.529],[127.17,41.524],[127.174,41.519],[127.18,41.517],[127.187,41.521],[127.2,41.542],[127.207,41.546],[127.222,41.541],[127.245,41.528],[127.258,41.525],[127.267,41.527],[127.275,41.53],[127.281,41.531],[127.289,41.525],[127.29,41.519],[127.284,41.512],[127.275,41.507],[127.269,41.505],[127.286,41.499],[127.305,41.495],[127.344,41.491],[127.354,41.493],[127.371,41.498],[127.379,41.499],[127.388,41.496],[127.396,41.491],[127.401,41.487],[127.405,41.484],[127.427,41.483],[127.443,41.488],[127.457,41.495],[127.474,41.499],[127.491,41.495],[127.508,41.488],[127.526,41.484],[127.543,41.491],[127.545,41.469],[127.559,41.458],[127.598,41.45],[127.631,41.433],[127.638,41.43],[127.647,41.433],[127.658,41.447],[127.663,41.447],[127.69,41.439],[127.785,41.437],[127.81,41.444],[127.829,41.434],[127.849,41.431],[127.865,41.437],[127.872,41.454],[127.881,41.461],[127.904,41.466],[127.944,41.471],[127.974,41.45],[127.984,41.454],[127.993,41.461],[128.001,41.471],[128.012,41.46],[128.013,41.442],[128.012,41.424],[128.015,41.413],[128.024,41.411],[128.034,41.414],[128.051,41.421],[128.047,41.399],[128.064,41.388],[128.088,41.389],[128.104,41.4],[128.118,41.393],[128.104,41.379],[128.146,41.376],[128.186,41.404],[128.288,41.545],[128.303,41.583],[128.283,41.605],[128.281,41.623],[128.269,41.643],[128.251,41.66],[128.224,41.669],[128.186,41.693],[128.159,41.712],[128.155,41.734],[128.144,41.755],[128.097,41.823],[128.091,41.842],[128.058,41.85],[128.048,41.864],[128.04,41.88],[128.02,41.965],[128.021,41.98],[128.035,41.994],[128.055,41.998],[128.101,41.999],[128.262,42.033],[128.364,42.026],[128.387,42.021],[128.408,42.008],[128.454,42.01],[128.488,41.998],[128.502,41.996],[128.544,42.008],[128.553,42.007],[128.564,42.001],[128.574,42.004],[128.588,42.02],[128.598,42.027],[128.608,42.03],[128.683,42.026],[128.709,42.03],[128.721,42.048]]]}},{"type":"Feature","id":"KP-13","properties":{"id":"KP-13","countryCode":"KP","isoSubdivision":"KP-13","name":"Rason","name_en":"Rason","name_ko":"라선특별시","type":"Province","labelLongitude":130.373,"labelLatitude":42.341,"minZoom":8},"geometry":{"type":"Polygon","coordinates":[[[130.501,42.611],[130.517,42.599],[130.52,42.589],[130.525,42.549],[130.531,42.53],[130.543,42.511],[130.545,42.506],[130.546,42.495],[130.55,42.49],[130.555,42.488],[130.559,42.483],[130.576,42.446],[130.587,42.432],[130.606,42.421],[130.629,42.415],[130.646,42.401],[130.657,42.383],[130.661,42.359],[130.66,42.334],[130.663,42.321],[130.673,42.311],[130.7,42.295],[130.696,42.289],[130.667,42.283],[130.632,42.274],[130.617,42.272],[130.604,42.263],[130.598,42.263],[130.598,42.281],[130.598,42.292],[130.595,42.298],[130.582,42.308],[130.569,42.315],[130.541,42.318],[130.519,42.328],[130.51,42.336],[130.481,42.34],[130.466,42.335],[130.469,42.322],[130.456,42.312],[130.44,42.309],[130.432,42.318],[130.419,42.324],[130.407,42.325],[130.407,42.316],[130.406,42.307],[130.394,42.3],[130.384,42.291],[130.386,42.278],[130.386,42.271],[130.391,42.264],[130.399,42.263],[130.406,42.261],[130.406,42.25],[130.401,42.242],[130.393,42.244],[130.378,42.258],[130.368,42.256],[130.361,42.244],[130.37,42.232],[130.359,42.229],[130.352,42.216],[130.335,42.214],[130.331,42.192],[130.319,42.185],[130.307,42.183],[130.308,42.198],[130.316,42.219],[130.307,42.236],[130.294,42.237],[130.251,42.205],[130.229,42.182],[130.215,42.175],[130.202,42.174],[130.192,42.235],[130.219,42.281],[130.273,42.332],[130.281,42.371],[130.258,42.39],[130.262,42.418],[130.316,42.422],[130.39,42.437],[130.433,42.453],[130.449,42.503],[130.452,42.55],[130.453,42.549],[130.468,42.555],[130.471,42.57],[130.455,42.585],[130.468,42.6],[130.484,42.61],[130.501,42.611]]]}}]}
