{"type":"FeatureCollection","features":[{"type":"Feature","id":"KY-X01~","properties":{"id":"KY-X01~","countryCode":"KY","isoSubdivision":"KY-X01~","name":"Cayman Islands","name_en":"Cayman Islands","name_ko":"케이맨 아일랜즈","type":"Principal subdivision","labelLongitude":-81.259,"labelLatitude":19.317,"minZoom":11},"geometry":{"type":"MultiPolygon","coordinates":[[[[-81.136,19.355],[-81.118,19.353],[-81.1,19.347],[-81.09,19.335],[-81.087,19.31],[-81.107,19.295],[-81.135,19.291],[-81.17,19.3],[-81.193,19.296],[-81.215,19.293],[-81.233,19.289],[-81.249,19.279],[-81.266,19.266],[-81.276,19.265],[-81.341,19.273],[-81.358,19.274],[-81.376,19.272],[-81.387,19.264],[-81.398,19.274],[-81.396,19.29],[-81.392,19.296],[-81.389,19.308],[-81.385,19.324],[-81.386,19.339],[-81.39,19.352],[-81.406,19.363],[-81.417,19.37],[-81.414,19.382],[-81.408,19.39],[-81.394,19.395],[-81.376,19.389],[-81.379,19.376],[-81.369,19.359],[-81.361,19.34],[-81.364,19.32],[-81.35,19.302],[-81.322,19.302],[-81.303,19.309],[-81.301,19.321],[-81.294,19.334],[-81.288,19.331],[-81.273,19.328],[-81.273,19.332],[-81.275,19.335],[-81.28,19.342],[-81.273,19.334],[-81.275,19.339],[-81.278,19.341],[-81.278,19.344],[-81.273,19.348],[-81.278,19.352],[-81.281,19.356],[-81.286,19.368],[-81.268,19.366],[-81.232,19.352],[-81.212,19.348],[-81.158,19.355],[-81.136,19.355]]],[[[-80.038,19.704],[-80.009,19.704],[-79.981,19.714],[-79.964,19.705],[-79.968,19.703],[-79.978,19.697],[-80.004,19.69],[-80.078,19.654],[-80.113,19.659],[-80.099,19.677],[-80.082,19.686],[-80.062,19.701],[-80.038,19.704]]],[[[-79.872,19.705],[-79.803,19.733],[-79.769,19.752],[-79.746,19.758],[-79.732,19.752],[-79.727,19.737],[-79.774,19.713],[-79.855,19.691],[-79.894,19.68],[-79.872,19.705]]]]}}]}
