{"type":"FeatureCollection","features":[{"type":"Feature","id":"LA-AT","properties":{"id":"LA-AT","countryCode":"LA","isoSubdivision":"LA-AT","name":"Attapeu","name_en":"Attapeu","name_ko":"앗타푸","type":"Province","labelLongitude":106.866,"labelLatitude":14.785,"minZoom":8},"geometry":{"type":"Polygon","coordinates":[[[107.502,15.044],[107.474,15.036],[107.455,15.034],[107.446,15.025],[107.445,15.012],[107.451,14.996],[107.45,14.981],[107.454,14.968],[107.462,14.957],[107.474,14.948],[107.489,14.94],[107.55,14.895],[107.558,14.887],[107.555,14.876],[107.541,14.857],[107.499,14.818],[107.491,14.804],[107.494,14.789],[107.504,14.773],[107.509,14.759],[107.498,14.746],[107.504,14.736],[107.515,14.728],[107.522,14.719],[107.52,14.705],[107.507,14.693],[107.474,14.646],[107.458,14.639],[107.452,14.632],[107.444,14.61],[107.44,14.604],[107.433,14.594],[107.43,14.586],[107.43,14.578],[107.431,14.57],[107.431,14.561],[107.428,14.554],[107.415,14.543],[107.403,14.544],[107.38,14.554],[107.361,14.558],[107.352,14.562],[107.333,14.578],[107.306,14.597],[107.287,14.599],[107.272,14.585],[107.255,14.561],[107.249,14.557],[107.238,14.55],[107.234,14.545],[107.232,14.538],[107.23,14.518],[107.22,14.498],[107.211,14.493],[107.196,14.496],[107.181,14.496],[107.172,14.484],[107.167,14.467],[107.159,14.452],[107.131,14.428],[107.101,14.408],[107.079,14.401],[107.068,14.406],[107.059,14.418],[107.043,14.431],[107.03,14.436],[107.027,14.435],[107.027,14.43],[106.997,14.395],[106.978,14.365],[106.974,14.363],[106.961,14.36],[106.95,14.335],[106.95,14.329],[106.946,14.324],[106.934,14.32],[106.923,14.322],[106.905,14.333],[106.896,14.336],[106.885,14.336],[106.879,14.333],[106.875,14.328],[106.836,14.307],[106.821,14.308],[106.807,14.313],[106.793,14.323],[106.767,14.348],[106.732,14.397],[106.724,14.412],[106.719,14.418],[106.712,14.426],[106.707,14.429],[106.634,14.451],[106.622,14.458],[106.605,14.467],[106.586,14.496],[106.575,14.502],[106.552,14.507],[106.544,14.512],[106.54,14.522],[106.535,14.553],[106.531,14.566],[106.518,14.585],[106.512,14.59],[106.491,14.571],[106.484,14.567],[106.477,14.567],[106.472,14.564],[106.471,14.554],[106.471,14.545],[106.473,14.537],[106.478,14.533],[106.485,14.53],[106.485,14.524],[106.469,14.525],[106.457,14.528],[106.446,14.529],[106.436,14.524],[106.434,14.52],[106.433,14.512],[106.434,14.506],[106.445,14.499],[106.441,14.493],[106.433,14.487],[106.43,14.486],[106.419,14.466],[106.394,14.456],[106.34,14.449],[106.352,14.475],[106.345,14.487],[106.345,14.5],[106.341,14.528],[106.323,14.553],[106.302,14.57],[106.284,14.589],[106.263,14.669],[106.239,14.688],[106.21,14.704],[106.191,14.726],[106.176,14.753],[106.173,14.827],[106.215,14.889],[106.261,14.934],[106.304,14.967],[106.318,14.992],[106.342,15.006],[106.371,15.006],[106.396,14.993],[106.408,14.966],[106.432,14.954],[106.455,14.972],[106.482,14.982],[106.502,14.962],[106.499,14.931],[106.487,14.906],[106.486,14.892],[106.489,14.879],[106.484,14.853],[106.485,14.827],[106.505,14.802],[106.532,14.786],[106.56,14.785],[106.611,14.768],[106.631,14.782],[106.661,14.781],[106.691,14.786],[106.706,14.81],[106.708,14.838],[106.727,14.859],[106.745,14.873],[106.756,14.886],[106.797,14.897],[106.819,14.895],[106.804,14.935],[106.822,14.965],[106.822,15.016],[106.812,15.066],[106.8,15.082],[106.786,15.093],[106.776,15.111],[106.761,15.124],[106.72,15.115],[106.698,15.119],[106.681,15.131],[106.683,15.134],[106.684,15.138],[106.706,15.147],[106.718,15.171],[106.728,15.182],[106.737,15.194],[106.739,15.207],[106.743,15.221],[106.764,15.239],[106.791,15.255],[106.823,15.258],[106.856,15.253],[106.881,15.235],[106.91,15.228],[106.945,15.229],[106.978,15.242],[106.999,15.248],[107.022,15.249],[107.05,15.242],[107.074,15.255],[107.097,15.271],[107.169,15.276],[107.238,15.254],[107.257,15.235],[107.275,15.211],[107.293,15.192],[107.316,15.178],[107.347,15.166],[107.378,15.158],[107.399,15.169],[107.417,15.188],[107.461,15.181],[107.488,15.127],[107.51,15.109],[107.52,15.085],[107.504,15.057],[107.502,15.044]]]}},{"type":"Feature","id":"LA-BK","properties":{"id":"LA-BK","countryCode":"LA","isoSubdivision":"LA-BK","name":"Bokeo","name_en":"Bokeo","name_ko":"보케오","type":"Province","labelLongitude":100.672,"labelLatitude":20.304,"minZoom":8},"geometry":{"type":"Polygon","coordinates":[[[100.513,20.807],[100.537,20.808],[100.569,20.818],[100.599,20.833],[100.608,20.84],[100.609,20.838],[100.635,20.803],[100.681,20.79],[100.718,20.761],[100.734,20.716],[100.752,20.698],[100.774,20.682],[100.789,20.662],[100.799,20.639],[100.824,20.594],[100.824,20.552],[100.832,20.5],[100.864,20.488],[100.938,20.496],[100.966,20.476],[100.988,20.445],[101.004,20.409],[101.004,20.377],[101.007,20.351],[101.044,20.322],[101.066,20.314],[101.127,20.299],[101.197,20.316],[101.229,20.308],[101.235,20.285],[101.244,20.263],[101.247,20.247],[101.244,20.136],[101.229,20.111],[101.207,20.089],[101.175,20.074],[101.141,20.078],[101.082,20.118],[101.043,20.112],[101.012,20.092],[101.002,20.057],[100.982,20.032],[100.958,20.009],[100.937,19.997],[100.914,19.988],[100.823,19.985],[100.742,19.957],[100.743,19.916],[100.763,19.871],[100.749,19.858],[100.678,19.819],[100.669,19.815],[100.655,19.813],[100.642,19.816],[100.632,19.816],[100.622,19.81],[100.602,19.803],[100.58,19.804],[100.55,19.786],[100.517,19.78],[100.483,19.779],[100.44,19.789],[100.408,19.794],[100.421,19.81],[100.431,19.838],[100.438,19.847],[100.446,19.852],[100.466,19.86],[100.474,19.865],[100.484,19.881],[100.488,19.897],[100.493,19.932],[100.519,19.995],[100.543,20.067],[100.551,20.107],[100.549,20.158],[100.547,20.168],[100.542,20.167],[100.537,20.153],[100.529,20.15],[100.513,20.155],[100.496,20.165],[100.489,20.173],[100.486,20.179],[100.469,20.186],[100.461,20.191],[100.457,20.196],[100.452,20.21],[100.447,20.218],[100.422,20.25],[100.364,20.369],[100.344,20.39],[100.307,20.4],[100.27,20.392],[100.24,20.373],[100.221,20.349],[100.209,20.313],[100.207,20.311],[100.202,20.31],[100.179,20.302],[100.176,20.301],[100.167,20.293],[100.168,20.254],[100.153,20.239],[100.135,20.239],[100.117,20.248],[100.103,20.264],[100.097,20.283],[100.099,20.318],[100.098,20.335],[100.097,20.348],[100.1,20.362],[100.111,20.375],[100.121,20.389],[100.125,20.406],[100.127,20.428],[100.137,20.459],[100.149,20.548],[100.16,20.583],[100.173,20.609],[100.173,20.622],[100.18,20.638],[100.202,20.668],[100.207,20.681],[100.211,20.697],[100.222,20.71],[100.249,20.732],[100.275,20.762],[100.29,20.775],[100.33,20.786],[100.342,20.8],[100.351,20.815],[100.365,20.828],[100.384,20.832],[100.471,20.818],[100.513,20.807]]]}},{"type":"Feature","id":"LA-BL","properties":{"id":"LA-BL","countryCode":"LA","isoSubdivision":"LA-BL","name":"Bolikhamsai","name_en":"Bolikhamsai","name_ko":"볼리캄사이","type":"Province","labelLongitude":104.039,"labelLatitude":18.538,"minZoom":8},"geometry":{"type":"Polygon","coordinates":[[[103.47,18.422],[103.452,18.425],[103.397,18.441],[103.387,18.441],[103.307,18.426],[103.283,18.416],[103.261,18.4],[103.244,18.38],[103.234,18.356],[103.234,18.349],[103.235,18.345],[103.238,18.342],[103.24,18.336],[103.249,18.333],[103.29,18.305],[103.297,18.297],[103.296,18.295],[103.295,18.288],[103.286,18.28],[103.274,18.276],[103.237,18.27],[103.215,18.262],[103.185,18.258],[103.177,18.255],[103.168,18.25],[103.157,18.237],[103.151,18.221],[103.145,18.188],[103.139,18.167],[103.127,18.152],[103.11,18.142],[103.089,18.135],[103.09,18.136],[103.091,18.137],[103.093,18.141],[103.092,18.141],[103.088,18.139],[103.087,18.14],[103.068,18.168],[103.057,18.164],[103.047,18.144],[103.035,18.126],[103.024,18.12],[103.014,18.12],[103.005,18.125],[102.998,18.137],[102.997,18.148],[103.001,18.155],[103.005,18.161],[103.008,18.168],[103.01,18.178],[103.013,18.187],[103.011,18.194],[103.01,18.213],[103.004,18.23],[102.996,18.251],[102.954,18.277],[102.904,18.294],[102.914,18.343],[102.902,18.393],[102.879,18.413],[102.858,18.436],[102.822,18.511],[102.888,18.525],[103.084,18.513],[103.169,18.527],[103.289,18.533],[103.368,18.551],[103.438,18.59],[103.465,18.611],[103.488,18.633],[103.499,18.669],[103.499,18.711],[103.494,18.744],[103.486,18.776],[103.482,18.808],[103.492,18.832],[103.507,18.832],[103.518,18.839],[103.514,18.847],[103.502,18.849],[103.49,18.876],[103.484,18.905],[103.484,18.93],[103.538,18.948],[103.571,18.95],[103.611,18.911],[103.642,18.902],[103.671,18.888],[103.696,18.869],[103.725,18.853],[103.749,18.837],[103.775,18.827],[103.803,18.834],[103.824,18.851],[103.854,18.865],[103.885,18.877],[103.922,18.869],[104.01,18.829],[104.023,18.819],[104.037,18.812],[104.063,18.812],[104.089,18.814],[104.122,18.826],[104.144,18.856],[104.166,18.881],[104.191,18.899],[104.204,18.922],[104.21,18.948],[104.233,18.965],[104.253,18.984],[104.254,19.019],[104.248,19.053],[104.258,19.085],[104.26,19.104],[104.274,19.093],[104.287,19.08],[104.303,19.069],[104.322,19.06],[104.339,19.055],[104.355,19.048],[104.372,19.034],[104.401,18.992],[104.413,18.983],[104.431,18.979],[104.462,18.982],[104.481,18.978],[104.498,18.968],[104.51,18.956],[104.544,18.907],[104.556,18.896],[104.59,18.879],[104.604,18.869],[104.631,18.842],[104.646,18.833],[104.656,18.83],[104.676,18.828],[104.686,18.825],[104.691,18.819],[104.703,18.802],[104.71,18.796],[104.722,18.792],[104.763,18.786],[104.802,18.775],[104.815,18.774],[104.873,18.778],[104.899,18.771],[104.909,18.746],[104.92,18.736],[104.937,18.731],[104.957,18.732],[104.974,18.736],[104.99,18.733],[105.04,18.705],[105.065,18.697],[105.077,18.698],[105.089,18.701],[105.1,18.702],[105.113,18.698],[105.141,18.653],[105.163,18.639],[105.169,18.631],[105.169,18.618],[105.169,18.615],[105.162,18.598],[105.152,18.597],[105.14,18.6],[105.128,18.599],[105.114,18.581],[105.1,18.551],[105.085,18.496],[105.08,18.454],[105.091,18.427],[105.114,18.405],[105.145,18.383],[105.163,18.366],[105.162,18.354],[105.156,18.341],[105.157,18.32],[105.166,18.307],[105.215,18.278],[105.22,18.271],[105.229,18.255],[105.236,18.249],[105.246,18.246],[105.257,18.247],[105.241,18.176],[105.192,18.112],[105.159,18.054],[105.132,17.991],[105.094,17.95],[105.04,17.941],[104.928,17.957],[104.904,17.977],[104.871,17.998],[104.831,18.004],[104.824,18.04],[104.793,18.076],[104.694,18.129],[104.616,18.186],[104.578,18.202],[104.55,18.23],[104.529,18.217],[104.52,18.215],[104.512,18.212],[104.511,18.2],[104.473,18.19],[104.433,18.185],[104.402,18.135],[104.383,18.074],[104.371,18.046],[104.363,18.017],[104.298,17.913],[104.282,17.861],[104.278,17.865],[104.27,17.874],[104.264,17.885],[104.255,17.915],[104.211,18.009],[104.203,18.019],[104.198,18.026],[104.136,18.08],[104.122,18.095],[104.111,18.115],[104.068,18.215],[104.019,18.299],[104,18.318],[103.975,18.331],[103.951,18.333],[103.929,18.328],[103.91,18.315],[103.894,18.297],[103.89,18.291],[103.886,18.287],[103.881,18.284],[103.874,18.283],[103.858,18.286],[103.849,18.296],[103.842,18.309],[103.832,18.321],[103.817,18.33],[103.801,18.338],[103.785,18.344],[103.767,18.347],[103.709,18.35],[103.696,18.353],[103.639,18.378],[103.63,18.383],[103.621,18.391],[103.607,18.4],[103.549,18.415],[103.523,18.418],[103.498,18.424],[103.489,18.424],[103.475,18.422],[103.47,18.422]]]}},{"type":"Feature","id":"LA-CH","properties":{"id":"LA-CH","countryCode":"LA","isoSubdivision":"LA-CH","name":"Champasak","name_en":"Champasak","name_ko":"참빠삭","type":"Province","labelLongitude":106.003,"labelLatitude":14.109,"minZoom":8},"geometry":{"type":"Polygon","coordinates":[[[105.519,15.321],[105.499,15.325],[105.483,15.335],[105.477,15.353],[105.486,15.375],[105.506,15.388],[105.553,15.402],[105.588,15.424],[105.592,15.428],[105.596,15.427],[105.619,15.437],[105.634,15.454],[105.661,15.457],[105.685,15.447],[105.709,15.442],[105.732,15.447],[105.741,15.456],[105.754,15.459],[105.762,15.451],[105.771,15.443],[105.783,15.436],[105.794,15.432],[105.805,15.436],[105.815,15.443],[105.825,15.443],[105.834,15.441],[105.897,15.442],[105.931,15.45],[105.957,15.458],[105.981,15.445],[106.004,15.454],[106.028,15.455],[106.051,15.46],[106.073,15.46],[106.092,15.437],[106.102,15.413],[106.081,15.391],[106.075,15.362],[106.134,15.299],[106.161,15.288],[106.21,15.318],[106.254,15.36],[106.279,15.376],[106.307,15.386],[106.342,15.391],[106.373,15.4],[106.425,15.381],[106.471,15.325],[106.505,15.311],[106.54,15.31],[106.562,15.303],[106.666,15.222],[106.672,15.138],[106.677,15.137],[106.684,15.138],[106.683,15.134],[106.681,15.131],[106.698,15.119],[106.72,15.115],[106.761,15.124],[106.776,15.111],[106.786,15.093],[106.8,15.082],[106.812,15.066],[106.822,15.016],[106.822,14.965],[106.804,14.935],[106.819,14.895],[106.797,14.897],[106.756,14.886],[106.745,14.873],[106.727,14.859],[106.708,14.838],[106.706,14.81],[106.691,14.786],[106.661,14.781],[106.631,14.782],[106.611,14.768],[106.56,14.785],[106.532,14.786],[106.505,14.802],[106.485,14.827],[106.484,14.853],[106.489,14.879],[106.486,14.892],[106.487,14.906],[106.499,14.931],[106.502,14.962],[106.482,14.982],[106.455,14.972],[106.432,14.954],[106.408,14.966],[106.396,14.993],[106.371,15.006],[106.342,15.006],[106.318,14.992],[106.304,14.967],[106.261,14.934],[106.215,14.889],[106.173,14.827],[106.176,14.753],[106.191,14.726],[106.21,14.704],[106.239,14.688],[106.263,14.669],[106.284,14.589],[106.302,14.57],[106.323,14.553],[106.341,14.528],[106.345,14.5],[106.345,14.487],[106.352,14.475],[106.34,14.449],[106.333,14.448],[106.32,14.444],[106.306,14.445],[106.297,14.448],[106.236,14.484],[106.23,14.49],[106.221,14.473],[106.211,14.421],[106.204,14.4],[106.189,14.379],[106.173,14.37],[106.154,14.368],[106.119,14.37],[106.095,14.374],[106.079,14.373],[106.069,14.373],[106.064,14.373],[106.061,14.369],[106.058,14.353],[106.055,14.348],[106.038,14.348],[105.994,14.362],[105.974,14.366],[105.969,14.355],[105.968,14.343],[105.969,14.332],[105.974,14.321],[105.993,14.306],[106.005,14.29],[106.008,14.271],[106.004,14.246],[106.012,14.226],[106.026,14.213],[106.061,14.192],[106.076,14.175],[106.102,14.115],[106.115,14.1],[106.131,14.087],[106.145,14.072],[106.149,14.054],[106.142,14.035],[106.126,14.022],[106.108,14.01],[106.094,13.996],[106.082,13.981],[106.084,13.934],[106.069,13.917],[106.049,13.915],[105.997,13.928],[105.974,13.929],[105.949,13.92],[105.925,13.917],[105.9,13.923],[105.896,13.925],[105.873,13.937],[105.787,14.01],[105.77,14.035],[105.759,14.062],[105.744,14.087],[105.716,14.102],[105.705,14.102],[105.684,14.099],[105.669,14.1],[105.653,14.107],[105.643,14.113],[105.633,14.114],[105.617,14.103],[105.61,14.121],[105.595,14.136],[105.577,14.144],[105.561,14.138],[105.556,14.146],[105.549,14.153],[105.541,14.159],[105.533,14.164],[105.505,14.145],[105.49,14.137],[105.474,14.133],[105.45,14.117],[105.422,14.108],[105.392,14.104],[105.364,14.104],[105.348,14.106],[105.338,14.11],[105.329,14.118],[105.304,14.152],[105.297,14.157],[105.282,14.161],[105.275,14.165],[105.257,14.182],[105.197,14.27],[105.188,14.291],[105.184,14.314],[105.184,14.346],[105.198,14.345],[105.25,14.357],[105.269,14.364],[105.276,14.372],[105.288,14.393],[105.295,14.399],[105.305,14.398],[105.322,14.386],[105.335,14.386],[105.341,14.39],[105.36,14.408],[105.368,14.415],[105.379,14.418],[105.406,14.423],[105.416,14.428],[105.42,14.435],[105.429,14.458],[105.434,14.468],[105.44,14.475],[105.464,14.496],[105.495,14.537],[105.508,14.564],[105.51,14.594],[105.496,14.66],[105.497,14.69],[105.505,14.736],[105.502,14.746],[105.491,14.764],[105.489,14.786],[105.494,14.809],[105.502,14.827],[105.506,14.83],[105.52,14.833],[105.524,14.837],[105.524,14.843],[105.517,14.857],[105.516,14.872],[105.518,14.878],[105.522,14.879],[105.538,14.878],[105.543,14.88],[105.551,14.902],[105.534,14.934],[105.544,14.953],[105.584,14.978],[105.593,14.991],[105.566,14.996],[105.554,15.005],[105.524,15.046],[105.523,15.05],[105.523,15.061],[105.521,15.066],[105.517,15.067],[105.504,15.065],[105.498,15.066],[105.474,15.091],[105.452,15.095],[105.444,15.111],[105.444,15.134],[105.448,15.155],[105.454,15.176],[105.463,15.189],[105.504,15.231],[105.532,15.253],[105.56,15.271],[105.564,15.273],[105.565,15.299],[105.561,15.321],[105.558,15.325],[105.539,15.322],[105.519,15.321]]]}},{"type":"Feature","id":"LA-HO","properties":{"id":"LA-HO","countryCode":"LA","isoSubdivision":"LA-HO","name":"Houaphanh","name_en":"Houaphanh","name_ko":"후아판","type":"Province","labelLongitude":104.039,"labelLatitude":20.373,"minZoom":8},"geometry":{"type":"Polygon","coordinates":[[[104.092,20.961],[104.099,20.958],[104.114,20.947],[104.123,20.943],[104.132,20.942],[104.155,20.941],[104.165,20.94],[104.194,20.93],[104.201,20.925],[104.207,20.918],[104.218,20.897],[104.221,20.892],[104.228,20.892],[104.251,20.898],[104.26,20.899],[104.269,20.896],[104.279,20.892],[104.288,20.886],[104.295,20.88],[104.307,20.865],[104.323,20.834],[104.336,20.819],[104.345,20.814],[104.36,20.808],[104.368,20.803],[104.373,20.796],[104.382,20.778],[104.389,20.771],[104.409,20.765],[104.432,20.766],[104.453,20.764],[104.466,20.75],[104.476,20.718],[104.492,20.702],[104.544,20.679],[104.601,20.661],[104.615,20.646],[104.614,20.643],[104.607,20.619],[104.543,20.536],[104.521,20.519],[104.496,20.512],[104.47,20.516],[104.445,20.535],[104.424,20.495],[104.366,20.458],[104.36,20.44],[104.392,20.421],[104.432,20.411],[104.576,20.414],[104.589,20.407],[104.612,20.377],[104.628,20.366],[104.666,20.352],[104.681,20.341],[104.685,20.333],[104.688,20.322],[104.689,20.31],[104.689,20.301],[104.682,20.287],[104.674,20.285],[104.666,20.286],[104.657,20.28],[104.654,20.266],[104.652,20.246],[104.653,20.226],[104.657,20.213],[104.691,20.197],[104.734,20.205],[104.779,20.219],[104.819,20.221],[104.908,20.175],[104.909,20.168],[104.903,20.157],[104.905,20.135],[104.918,20.116],[104.957,20.092],[104.964,20.076],[104.961,20.072],[104.947,20.07],[104.944,20.067],[104.944,20.061],[104.946,20.052],[104.948,20.034],[104.951,20.022],[104.953,20.009],[104.949,19.995],[104.946,19.992],[104.936,19.984],[104.922,19.982],[104.893,19.986],[104.874,19.983],[104.869,19.978],[104.867,19.969],[104.858,19.955],[104.835,19.939],[104.781,19.908],[104.762,19.886],[104.756,19.867],[104.761,19.861],[104.79,19.86],[104.809,19.854],[104.817,19.848],[104.817,19.839],[104.815,19.822],[104.805,19.791],[104.785,19.777],[104.761,19.767],[104.737,19.746],[104.718,19.74],[104.704,19.739],[104.692,19.735],[104.676,19.725],[104.663,19.711],[104.655,19.698],[104.623,19.618],[104.614,19.607],[104.605,19.606],[104.588,19.616],[104.579,19.618],[104.57,19.615],[104.555,19.605],[104.546,19.602],[104.523,19.599],[104.506,19.603],[104.449,19.635],[104.424,19.646],[104.415,19.651],[104.401,19.664],[104.392,19.677],[104.38,19.685],[104.36,19.687],[104.342,19.683],[104.295,19.655],[104.277,19.684],[104.242,19.695],[104.229,19.706],[104.2,19.699],[104.198,19.733],[104.189,19.763],[104.186,19.787],[104.209,19.855],[104.205,19.902],[104.195,19.885],[104.192,19.863],[104.174,19.849],[104.153,19.841],[104.115,19.844],[104.083,19.864],[104.067,19.852],[104.056,19.835],[104.051,19.816],[104.038,19.805],[103.952,19.783],[103.938,19.788],[103.928,19.794],[103.909,19.826],[103.9,19.834],[103.875,19.846],[103.885,19.873],[103.892,19.902],[103.887,19.926],[103.888,19.95],[103.849,19.998],[103.795,20.028],[103.768,20.029],[103.741,20.025],[103.695,19.992],[103.688,19.959],[103.687,19.93],[103.659,19.926],[103.63,19.939],[103.608,19.912],[103.573,19.904],[103.545,19.901],[103.518,19.892],[103.496,19.875],[103.471,19.868],[103.419,19.883],[103.368,19.888],[103.347,19.903],[103.325,19.915],[103.276,19.896],[103.249,19.91],[103.228,19.931],[103.182,19.928],[103.138,19.915],[103.133,19.958],[103.137,20.029],[103.141,20.051],[103.14,20.066],[103.147,20.08],[103.159,20.088],[103.169,20.1],[103.162,20.113],[103.127,20.153],[103.114,20.176],[103.147,20.223],[103.215,20.286],[103.236,20.312],[103.237,20.351],[103.232,20.388],[103.239,20.4],[103.245,20.414],[103.227,20.415],[103.209,20.42],[103.19,20.448],[103.177,20.475],[103.201,20.501],[103.215,20.559],[103.21,20.619],[103.214,20.666],[103.227,20.707],[103.25,20.723],[103.275,20.735],[103.333,20.752],[103.385,20.778],[103.388,20.783],[103.39,20.789],[103.389,20.794],[103.391,20.795],[103.411,20.806],[103.418,20.812],[103.421,20.818],[103.427,20.821],[103.44,20.816],[103.453,20.804],[103.471,20.771],[103.482,20.758],[103.489,20.752],[103.497,20.748],[103.506,20.746],[103.516,20.746],[103.516,20.745],[103.578,20.733],[103.597,20.722],[103.636,20.683],[103.658,20.665],[103.661,20.661],[103.665,20.658],[103.676,20.657],[103.685,20.658],[103.698,20.662],[103.708,20.667],[103.714,20.672],[103.714,20.68],[103.704,20.699],[103.702,20.709],[103.707,20.722],[103.713,20.726],[103.722,20.727],[103.734,20.731],[103.755,20.743],[103.759,20.75],[103.755,20.759],[103.753,20.78],[103.757,20.796],[103.765,20.816],[103.776,20.835],[103.785,20.846],[103.796,20.85],[103.817,20.847],[103.827,20.848],[103.836,20.852],[103.85,20.865],[103.859,20.87],[103.932,20.892],[103.952,20.9],[103.962,20.903],[103.974,20.902],[104.011,20.908],[104.057,20.959],[104.092,20.961]]]}},{"type":"Feature","id":"LA-KH","properties":{"id":"LA-KH","countryCode":"LA","isoSubdivision":"LA-KH","name":"Khammouane","name_en":"Khammouane","name_ko":"캄무안","type":"Province","labelLongitude":105.343,"labelLatitude":17.615,"minZoom":8},"geometry":{"type":"Polygon","coordinates":[[[104.746,16.944],[104.74,17.003],[104.745,17.025],[104.81,17.172],[104.814,17.194],[104.818,17.24],[104.816,17.3],[104.82,17.349],[104.819,17.361],[104.816,17.373],[104.793,17.423],[104.789,17.429],[104.782,17.435],[104.765,17.444],[104.757,17.45],[104.75,17.458],[104.734,17.487],[104.715,17.515],[104.703,17.527],[104.655,17.556],[104.636,17.562],[104.481,17.64],[104.452,17.666],[104.422,17.7],[104.418,17.708],[104.412,17.727],[104.409,17.734],[104.405,17.74],[104.39,17.757],[104.368,17.801],[104.353,17.819],[104.288,17.857],[104.282,17.861],[104.298,17.913],[104.363,18.017],[104.371,18.046],[104.383,18.074],[104.402,18.135],[104.433,18.185],[104.473,18.19],[104.511,18.2],[104.512,18.212],[104.52,18.215],[104.529,18.217],[104.55,18.23],[104.578,18.202],[104.616,18.186],[104.694,18.129],[104.793,18.076],[104.824,18.04],[104.831,18.004],[104.871,17.998],[104.904,17.977],[104.928,17.957],[105.04,17.941],[105.094,17.95],[105.132,17.991],[105.159,18.054],[105.192,18.112],[105.241,18.176],[105.257,18.247],[105.283,18.25],[105.288,18.253],[105.293,18.253],[105.299,18.242],[105.301,18.231],[105.294,18.207],[105.295,18.196],[105.306,18.181],[105.322,18.17],[105.34,18.163],[105.356,18.159],[105.363,18.155],[105.366,18.151],[105.368,18.15],[105.377,18.156],[105.382,18.163],[105.386,18.185],[105.392,18.194],[105.41,18.202],[105.431,18.201],[105.451,18.193],[105.467,18.181],[105.473,18.172],[105.481,18.145],[105.481,18.139],[105.479,18.133],[105.477,18.13],[105.476,18.127],[105.481,18.124],[105.492,18.121],[105.496,18.118],[105.513,18.083],[105.521,18.076],[105.538,18.067],[105.547,18.059],[105.552,18.048],[105.556,18.025],[105.559,18.015],[105.566,18.008],[105.59,17.996],[105.603,17.969],[105.606,17.964],[105.594,17.888],[105.605,17.854],[105.644,17.82],[105.67,17.773],[105.692,17.744],[105.701,17.728],[105.714,17.689],[105.723,17.673],[105.735,17.664],[105.787,17.642],[105.82,17.622],[105.846,17.598],[105.911,17.517],[105.932,17.496],[106.019,17.394],[106.185,17.257],[106.207,17.246],[106.222,17.245],[106.233,17.252],[106.248,17.266],[106.252,17.275],[106.255,17.283],[106.26,17.289],[106.273,17.29],[106.285,17.285],[106.287,17.277],[106.286,17.266],[106.288,17.254],[106.293,17.247],[106.307,17.233],[106.311,17.227],[106.31,17.218],[106.302,17.202],[106.301,17.192],[106.306,17.177],[106.337,17.129],[106.385,17.085],[106.395,17.068],[106.394,17.062],[106.388,17.052],[106.387,17.047],[106.404,17.015],[106.341,17.009],[106.285,17.028],[106.255,17.032],[106.227,17.044],[106.181,17.089],[106.154,17.104],[106.126,17.107],[106.121,17.092],[106.117,17.077],[106.106,17.067],[106.094,17.059],[105.993,17.045],[105.888,17.051],[105.808,17.076],[105.729,17.109],[105.691,17.117],[105.655,17.111],[105.648,17.069],[105.634,17.043],[105.594,17.053],[105.484,17.1],[105.423,17.094],[105.372,17.097],[105.345,17.069],[105.307,17.053],[105.282,17.062],[105.27,17.059],[105.258,17.054],[105.228,17.056],[105.204,17.072],[105.188,17.096],[105.165,17.111],[105.141,17.101],[105.117,17.085],[105.087,17.075],[105.053,17.079],[105.031,17.099],[104.979,17.087],[104.951,17.098],[104.929,17.088],[104.914,17.071],[104.889,17.077],[104.863,17.086],[104.84,17.077],[104.837,17.048],[104.816,17.034],[104.795,17.012],[104.794,16.994],[104.814,17.007],[104.831,16.99],[104.846,16.932],[104.832,16.907],[104.776,16.914],[104.746,16.944]]]}},{"type":"Feature","id":"LA-LM","properties":{"id":"LA-LM","countryCode":"LA","isoSubdivision":"LA-LM","name":"Luang Namtha","name_en":"Luang Namtha","name_ko":"루앙남타","type":"Province","labelLongitude":101.148,"labelLatitude":20.91,"minZoom":8},"geometry":{"type":"Polygon","coordinates":[[[101.159,21.553],[101.175,21.552],[101.187,21.535],[101.188,21.506],[101.168,21.425],[101.171,21.403],[101.179,21.398],[101.208,21.384],[101.226,21.371],[101.231,21.372],[101.233,21.372],[101.235,21.364],[101.223,21.335],[101.207,21.315],[101.21,21.309],[101.218,21.3],[101.22,21.296],[101.219,21.282],[101.209,21.246],[101.22,21.234],[101.235,21.206],[101.244,21.193],[101.26,21.179],[101.275,21.174],[101.293,21.176],[101.314,21.185],[101.362,21.216],[101.381,21.222],[101.495,21.243],[101.518,21.243],[101.539,21.239],[101.573,21.228],[101.58,21.228],[101.584,21.224],[101.588,21.213],[101.587,21.204],[101.581,21.195],[101.577,21.185],[101.582,21.176],[101.597,21.173],[101.636,21.189],[101.655,21.189],[101.67,21.177],[101.688,21.146],[101.704,21.135],[101.718,21.134],[101.737,21.138],[101.756,21.143],[101.767,21.151],[101.768,21.16],[101.78,21.142],[101.768,21.065],[101.753,21.03],[101.731,20.999],[101.692,20.985],[101.653,20.966],[101.62,20.939],[101.617,20.901],[101.629,20.886],[101.623,20.87],[101.58,20.87],[101.565,20.863],[101.526,20.855],[101.481,20.816],[101.444,20.749],[101.409,20.732],[101.505,20.701],[101.516,20.676],[101.552,20.649],[101.561,20.633],[101.568,20.555],[101.54,20.476],[101.525,20.455],[101.506,20.438],[101.488,20.415],[101.455,20.356],[101.377,20.322],[101.277,20.316],[101.227,20.319],[101.229,20.308],[101.197,20.316],[101.127,20.299],[101.066,20.314],[101.044,20.322],[101.007,20.351],[101.004,20.377],[101.004,20.409],[100.988,20.445],[100.966,20.476],[100.938,20.496],[100.864,20.488],[100.832,20.5],[100.824,20.552],[100.824,20.594],[100.799,20.639],[100.789,20.662],[100.774,20.682],[100.752,20.698],[100.734,20.716],[100.718,20.761],[100.681,20.79],[100.635,20.803],[100.609,20.838],[100.608,20.84],[100.627,20.854],[100.652,20.877],[100.652,20.883],[100.623,20.889],[100.534,20.874],[100.516,20.886],[100.518,20.906],[100.527,20.947],[100.529,20.968],[100.533,20.973],[100.552,20.985],[100.557,20.992],[100.556,21],[100.543,21.027],[100.562,21.035],[100.607,21.044],[100.626,21.054],[100.638,21.07],[100.689,21.159],[100.721,21.281],[100.723,21.293],[100.722,21.304],[100.725,21.312],[100.738,21.315],[100.748,21.314],[100.757,21.312],[100.765,21.309],[100.773,21.304],[100.792,21.297],[100.815,21.3],[100.851,21.315],[100.862,21.323],[100.896,21.356],[100.91,21.36],[101.003,21.406],[101.143,21.513],[101.157,21.52],[101.161,21.535],[101.159,21.553]]]}},{"type":"Feature","id":"LA-LP","properties":{"id":"LA-LP","countryCode":"LA","isoSubdivision":"LA-LP","name":"Luang Prabang","name_en":"Luang Prabang","name_ko":"루앙프라방","type":"Province","labelLongitude":102.549,"labelLatitude":20.079,"minZoom":8},"geometry":{"type":"Polygon","coordinates":[[[102.926,21.141],[102.935,21.102],[102.942,21.085],[102.947,21.076],[102.952,21.069],[102.959,21.066],[102.974,21.068],[102.999,21.057],[103.015,21.041],[103.037,20.995],[103.068,20.931],[103.087,20.902],[103.115,20.868],[103.13,20.855],[103.136,20.85],[103.147,20.846],[103.165,20.844],[103.175,20.841],[103.184,20.837],[103.197,20.828],[103.207,20.825],[103.219,20.824],[103.226,20.826],[103.238,20.83],[103.247,20.831],[103.263,20.826],[103.32,20.798],[103.348,20.789],[103.358,20.788],[103.364,20.788],[103.389,20.794],[103.39,20.789],[103.388,20.783],[103.385,20.778],[103.333,20.752],[103.275,20.735],[103.25,20.723],[103.227,20.707],[103.214,20.666],[103.21,20.619],[103.215,20.559],[103.201,20.501],[103.177,20.475],[103.19,20.448],[103.209,20.42],[103.227,20.415],[103.245,20.414],[103.239,20.4],[103.232,20.388],[103.237,20.351],[103.236,20.312],[103.215,20.286],[103.147,20.223],[103.114,20.176],[103.127,20.153],[103.162,20.113],[103.169,20.1],[103.159,20.088],[103.147,20.08],[103.14,20.066],[103.141,20.051],[103.137,20.029],[103.133,19.958],[103.138,19.915],[103.125,19.893],[103.106,19.877],[103.056,19.874],[103.031,19.864],[103.01,19.849],[102.979,19.836],[102.953,19.819],[102.951,19.772],[102.944,19.725],[102.907,19.717],[102.867,19.719],[102.871,19.696],[102.858,19.677],[102.812,19.638],[102.752,19.599],[102.733,19.581],[102.717,19.559],[102.671,19.526],[102.661,19.473],[102.673,19.422],[102.701,19.399],[102.725,19.372],[102.746,19.314],[102.704,19.274],[102.649,19.258],[102.576,19.224],[102.541,19.249],[102.509,19.278],[102.5,19.301],[102.488,19.321],[102.467,19.326],[102.446,19.335],[102.454,19.351],[102.46,19.368],[102.431,19.366],[102.402,19.368],[102.386,19.378],[102.371,19.389],[102.342,19.379],[102.309,19.362],[102.279,19.383],[102.245,19.376],[102.229,19.388],[102.215,19.403],[102.19,19.409],[102.163,19.408],[102.127,19.402],[102.097,19.384],[102.082,19.323],[102.068,19.31],[102.052,19.298],[102.041,19.284],[102.027,19.274],[102.008,19.268],[101.997,19.254],[101.987,19.213],[101.957,19.153],[101.908,19.11],[101.878,19.105],[101.869,19.097],[101.86,19.086],[101.839,19.072],[101.81,19.05],[101.82,19.147],[101.829,19.181],[101.831,19.201],[101.824,19.26],[101.824,19.279],[101.83,19.292],[101.853,19.325],[101.858,19.345],[101.866,19.36],[101.899,19.393],[101.906,19.403],[101.896,19.414],[101.857,19.431],[101.841,19.441],[101.829,19.454],[101.821,19.467],[101.817,19.481],[101.815,19.615],[101.824,19.65],[101.815,19.657],[101.786,19.654],[101.758,19.655],[101.747,19.681],[101.746,19.741],[101.755,19.76],[101.773,19.806],[101.772,19.853],[101.761,19.872],[101.745,19.887],[101.73,19.904],[101.708,19.931],[101.748,19.941],[101.829,19.948],[101.865,19.957],[101.899,19.979],[101.95,20.034],[101.974,20.054],[101.992,20.06],[102.047,20.054],[102.064,20.058],[102.119,20.088],[102.152,20.092],[102.168,20.122],[102.195,20.145],[102.202,20.179],[102.188,20.212],[102.158,20.249],[102.16,20.292],[102.174,20.319],[102.171,20.347],[102.153,20.362],[102.14,20.38],[102.143,20.409],[102.187,20.499],[102.206,20.553],[102.232,20.606],[102.236,20.63],[102.304,20.639],[102.339,20.675],[102.354,20.721],[102.355,20.741],[102.348,20.758],[102.34,20.771],[102.341,20.784],[102.336,20.808],[102.352,20.848],[102.351,20.869],[102.343,20.895],[102.31,20.935],[102.309,20.962],[102.346,20.946],[102.378,20.927],[102.408,20.925],[102.437,20.92],[102.45,20.909],[102.454,20.889],[102.509,20.869],[102.566,20.934],[102.588,20.948],[102.613,20.953],[102.647,20.948],[102.663,20.979],[102.677,20.987],[102.744,21.013],[102.745,21.018],[102.749,21.026],[102.758,21.029],[102.787,21.032],[102.796,21.048],[102.796,21.074],[102.804,21.121],[102.814,21.14],[102.829,21.14],[102.845,21.135],[102.926,21.141]]]}},{"type":"Feature","id":"LA-OU","properties":{"id":"LA-OU","countryCode":"LA","isoSubdivision":"LA-OU","name":"Oudomxay","name_en":"Oudomxay","name_ko":"우돔싸이","type":"Province","labelLongitude":101.548,"labelLatitude":20.161,"minZoom":8},"geometry":{"type":"Polygon","coordinates":[[[101.796,21.203],[101.805,21.204],[101.813,21.21],[101.819,21.216],[101.821,21.221],[101.84,21.212],[101.885,21.179],[101.903,21.174],[101.919,21.165],[101.93,21.154],[102.007,21.134],[102.038,21.118],[102.085,21.06],[102.113,21.034],[102.148,21.015],[102.182,21.013],[102.216,21.021],[102.25,21.009],[102.285,20.989],[102.309,20.962],[102.31,20.935],[102.343,20.895],[102.351,20.869],[102.352,20.848],[102.336,20.808],[102.341,20.784],[102.34,20.771],[102.348,20.758],[102.355,20.741],[102.354,20.721],[102.339,20.675],[102.304,20.639],[102.236,20.63],[102.232,20.606],[102.206,20.553],[102.187,20.499],[102.143,20.409],[102.14,20.38],[102.153,20.362],[102.171,20.347],[102.174,20.319],[102.16,20.292],[102.158,20.249],[102.188,20.212],[102.202,20.179],[102.195,20.145],[102.168,20.122],[102.152,20.092],[102.119,20.088],[102.064,20.058],[102.047,20.054],[101.992,20.06],[101.974,20.054],[101.95,20.034],[101.899,19.979],[101.865,19.957],[101.829,19.948],[101.748,19.941],[101.708,19.931],[101.696,19.922],[101.666,19.895],[101.656,19.889],[101.641,19.885],[101.619,19.874],[101.607,19.863],[101.619,19.856],[101.597,19.831],[101.559,19.823],[101.258,19.821],[101.235,19.828],[101.17,19.869],[101.15,19.878],[101.142,19.884],[101.131,19.889],[101.119,19.889],[101.109,19.886],[101.084,19.869],[101.06,19.846],[101.043,19.841],[101.03,19.856],[101.022,19.856],[101.02,19.85],[101.013,19.841],[101.009,19.834],[100.975,19.86],[100.928,19.873],[100.806,19.892],[100.792,19.891],[100.78,19.885],[100.763,19.871],[100.743,19.916],[100.742,19.957],[100.823,19.985],[100.914,19.988],[100.937,19.997],[100.958,20.009],[100.982,20.032],[101.002,20.057],[101.012,20.092],[101.043,20.112],[101.082,20.118],[101.141,20.078],[101.175,20.074],[101.207,20.089],[101.229,20.111],[101.244,20.136],[101.247,20.247],[101.244,20.263],[101.235,20.285],[101.229,20.308],[101.227,20.319],[101.277,20.316],[101.377,20.322],[101.455,20.356],[101.488,20.415],[101.506,20.438],[101.525,20.455],[101.54,20.476],[101.568,20.555],[101.561,20.633],[101.552,20.649],[101.516,20.676],[101.505,20.701],[101.409,20.732],[101.444,20.749],[101.481,20.816],[101.526,20.855],[101.565,20.863],[101.58,20.87],[101.623,20.87],[101.629,20.886],[101.617,20.901],[101.62,20.939],[101.653,20.966],[101.692,20.985],[101.731,20.999],[101.753,21.03],[101.768,21.065],[101.78,21.142],[101.768,21.16],[101.77,21.17],[101.764,21.185],[101.76,21.196],[101.774,21.207],[101.796,21.203]]]}},{"type":"Feature","id":"LA-PH","properties":{"id":"LA-PH","countryCode":"LA","isoSubdivision":"LA-PH","name":"Phongsaly","name_en":"Phongsaly","name_ko":"퐁살리","type":"Province","labelLongitude":102.245,"labelLatitude":21.615,"minZoom":8},"geometry":{"type":"Polygon","coordinates":[[[101.751,22.496],[101.755,22.496],[101.785,22.472],[101.818,22.406],[101.843,22.383],[101.868,22.379],[101.877,22.392],[101.882,22.412],[101.892,22.43],[101.909,22.436],[101.953,22.437],[101.974,22.445],[101.995,22.447],[102.015,22.446],[102.076,22.432],[102.086,22.429],[102.095,22.423],[102.1,22.415],[102.101,22.406],[102.107,22.398],[102.119,22.398],[102.125,22.384],[102.131,22.374],[102.141,22.342],[102.144,22.339],[102.153,22.332],[102.156,22.328],[102.156,22.323],[102.153,22.311],[102.154,22.305],[102.169,22.29],[102.186,22.278],[102.201,22.265],[102.207,22.245],[102.226,22.228],[102.286,22.2],[102.358,22.135],[102.389,22.117],[102.399,22.109],[102.405,22.098],[102.415,22.073],[102.422,22.062],[102.443,22.047],[102.468,22.034],[102.483,22.021],[102.474,22.009],[102.471,22.006],[102.469,22.003],[102.467,21.999],[102.466,21.995],[102.478,21.958],[102.516,21.939],[102.56,21.925],[102.591,21.901],[102.625,21.829],[102.635,21.788],[102.63,21.729],[102.632,21.706],[102.637,21.684],[102.643,21.668],[102.651,21.658],[102.653,21.656],[102.657,21.658],[102.71,21.659],[102.721,21.662],[102.752,21.681],[102.775,21.708],[102.787,21.74],[102.789,21.82],[102.807,21.836],[102.826,21.821],[102.835,21.776],[102.832,21.736],[102.835,21.716],[102.847,21.704],[102.865,21.706],[102.937,21.735],[102.943,21.739],[102.948,21.737],[102.956,21.724],[102.96,21.713],[102.962,21.702],[102.961,21.633],[102.964,21.609],[102.974,21.587],[102.975,21.584],[102.975,21.581],[102.975,21.578],[102.974,21.575],[102.954,21.557],[102.917,21.514],[102.895,21.495],[102.85,21.425],[102.865,21.432],[102.885,21.444],[102.904,21.453],[102.918,21.45],[102.917,21.439],[102.884,21.388],[102.88,21.368],[102.879,21.322],[102.875,21.305],[102.863,21.294],[102.829,21.286],[102.813,21.274],[102.801,21.255],[102.809,21.251],[102.828,21.252],[102.85,21.252],[102.865,21.246],[102.878,21.238],[102.888,21.227],[102.893,21.215],[102.892,21.206],[102.883,21.186],[102.883,21.176],[102.889,21.166],[102.896,21.165],[102.904,21.164],[102.914,21.158],[102.926,21.142],[102.926,21.141],[102.845,21.135],[102.829,21.14],[102.814,21.14],[102.804,21.121],[102.796,21.074],[102.796,21.048],[102.787,21.032],[102.758,21.029],[102.749,21.026],[102.745,21.018],[102.744,21.013],[102.677,20.987],[102.663,20.979],[102.647,20.948],[102.613,20.953],[102.588,20.948],[102.566,20.934],[102.509,20.869],[102.454,20.889],[102.45,20.909],[102.437,20.92],[102.408,20.925],[102.378,20.927],[102.346,20.946],[102.309,20.962],[102.285,20.989],[102.25,21.009],[102.216,21.021],[102.182,21.013],[102.148,21.015],[102.113,21.034],[102.085,21.06],[102.038,21.118],[102.007,21.134],[101.93,21.154],[101.919,21.165],[101.903,21.174],[101.885,21.179],[101.84,21.212],[101.821,21.221],[101.823,21.224],[101.824,21.234],[101.82,21.247],[101.812,21.258],[101.801,21.267],[101.789,21.274],[101.737,21.292],[101.723,21.304],[101.715,21.321],[101.716,21.338],[101.726,21.375],[101.73,21.474],[101.744,21.496],[101.748,21.515],[101.735,21.554],[101.736,21.571],[101.751,21.58],[101.773,21.583],[101.794,21.588],[101.806,21.606],[101.804,21.626],[101.79,21.634],[101.771,21.639],[101.756,21.649],[101.752,21.659],[101.756,21.68],[101.755,21.69],[101.749,21.698],[101.733,21.711],[101.729,21.718],[101.728,21.733],[101.732,21.751],[101.752,21.806],[101.751,21.816],[101.726,21.837],[101.721,21.844],[101.709,21.87],[101.686,21.899],[101.683,21.907],[101.682,21.915],[101.681,21.923],[101.674,21.931],[101.638,21.941],[101.616,21.954],[101.607,21.968],[101.6,22.007],[101.592,22.028],[101.565,22.07],[101.555,22.09],[101.555,22.112],[101.562,22.13],[101.567,22.149],[101.562,22.176],[101.549,22.194],[101.518,22.228],[101.516,22.245],[101.532,22.263],[101.541,22.271],[101.551,22.277],[101.564,22.277],[101.576,22.273],[101.588,22.271],[101.601,22.277],[101.606,22.285],[101.62,22.326],[101.623,22.342],[101.624,22.347],[101.641,22.363],[101.644,22.365],[101.646,22.385],[101.644,22.404],[101.645,22.424],[101.655,22.446],[101.669,22.462],[101.689,22.479],[101.713,22.492],[101.742,22.496],[101.751,22.496]]]}},{"type":"Feature","id":"LA-SL","properties":{"id":"LA-SL","countryCode":"LA","isoSubdivision":"LA-SL","name":"Salavan","name_en":"Salavan","name_ko":"살라완","type":"Province","labelLongitude":106.248,"labelLatitude":15.761,"minZoom":8},"geometry":{"type":"Polygon","coordinates":[[[105.462,15.763],[105.448,15.765],[105.436,15.772],[105.423,15.784],[105.412,15.8],[105.373,15.882],[105.361,15.919],[105.362,15.955],[105.387,15.981],[105.407,15.989],[105.418,15.995],[105.424,16.002],[105.423,16.005],[105.424,16.005],[105.5,15.998],[105.56,15.97],[105.626,15.952],[105.689,15.928],[105.699,15.919],[105.71,15.912],[105.74,15.912],[105.79,15.885],[105.842,15.892],[105.867,15.883],[105.893,15.88],[105.939,15.915],[105.983,15.958],[106.011,15.959],[106.04,15.951],[106.069,15.952],[106.12,15.974],[106.14,15.991],[106.139,16.016],[106.128,16.041],[106.127,16.093],[106.119,16.117],[106.121,16.143],[106.128,16.154],[106.139,16.161],[106.156,16.164],[106.161,16.17],[106.164,16.177],[106.195,16.179],[106.227,16.174],[106.251,16.167],[106.271,16.154],[106.284,16.123],[106.304,16.1],[106.311,16.118],[106.315,16.142],[106.333,16.146],[106.387,16.136],[106.412,16.147],[106.448,16.148],[106.483,16.158],[106.506,16.179],[106.534,16.186],[106.558,16.174],[106.582,16.172],[106.6,16.183],[106.63,16.193],[106.644,16.217],[106.637,16.25],[106.64,16.274],[106.665,16.32],[106.681,16.334],[106.704,16.32],[106.73,16.322],[106.779,16.343],[106.792,16.368],[106.796,16.398],[106.783,16.423],[106.771,16.424],[106.758,16.424],[106.752,16.428],[106.753,16.429],[106.754,16.437],[106.755,16.444],[106.759,16.452],[106.786,16.469],[106.797,16.479],[106.801,16.496],[106.823,16.531],[106.847,16.53],[106.864,16.504],[106.867,16.464],[106.863,16.431],[106.861,16.428],[106.858,16.425],[106.856,16.42],[106.856,16.415],[106.86,16.412],[106.867,16.414],[106.873,16.417],[106.876,16.418],[106.888,16.391],[106.898,16.379],[106.915,16.365],[106.939,16.352],[106.946,16.346],[106.951,16.336],[106.954,16.314],[106.957,16.307],[106.967,16.3],[106.98,16.298],[107.014,16.299],[107.053,16.295],[107.068,16.291],[107.071,16.29],[107.089,16.281],[107.108,16.267],[107.117,16.255],[107.127,16.201],[107.133,16.188],[107.136,16.185],[107.135,16.182],[107.121,16.156],[107.1,16.137],[107.082,16.114],[107.076,16.095],[107.069,16.078],[107.033,16.067],[107.009,16.05],[106.984,16.039],[106.957,16.046],[106.948,16.036],[106.935,16.029],[106.899,16.03],[106.865,16.035],[106.842,16.047],[106.818,16.049],[106.801,16.023],[106.793,15.993],[106.8,15.978],[106.804,15.962],[106.794,15.953],[106.782,15.945],[106.735,15.897],[106.7,15.847],[106.674,15.793],[106.652,15.776],[106.655,15.753],[106.68,15.736],[106.699,15.716],[106.684,15.704],[106.673,15.682],[106.691,15.656],[106.698,15.624],[106.692,15.618],[106.686,15.607],[106.686,15.594],[106.688,15.582],[106.691,15.559],[106.679,15.545],[106.628,15.553],[106.592,15.531],[106.533,15.53],[106.496,15.536],[106.462,15.531],[106.452,15.506],[106.431,15.492],[106.403,15.497],[106.378,15.51],[106.351,15.513],[106.328,15.504],[106.322,15.479],[106.311,15.476],[106.3,15.468],[106.317,15.42],[106.373,15.4],[106.342,15.391],[106.307,15.386],[106.279,15.376],[106.254,15.36],[106.21,15.318],[106.161,15.288],[106.134,15.299],[106.075,15.362],[106.081,15.391],[106.102,15.413],[106.092,15.437],[106.073,15.46],[106.051,15.46],[106.028,15.455],[106.004,15.454],[105.981,15.445],[105.957,15.458],[105.931,15.45],[105.897,15.442],[105.834,15.441],[105.825,15.443],[105.815,15.443],[105.805,15.436],[105.794,15.432],[105.783,15.436],[105.771,15.443],[105.762,15.451],[105.754,15.459],[105.741,15.456],[105.732,15.447],[105.709,15.442],[105.685,15.447],[105.661,15.457],[105.634,15.454],[105.619,15.437],[105.596,15.427],[105.592,15.428],[105.604,15.439],[105.61,15.457],[105.612,15.499],[105.616,15.521],[105.641,15.583],[105.651,15.635],[105.641,15.682],[105.613,15.721],[105.569,15.749],[105.525,15.763],[105.503,15.766],[105.462,15.763]]]}},{"type":"Feature","id":"LA-SV","properties":{"id":"LA-SV","countryCode":"LA","isoSubdivision":"LA-SV","name":"Savannakhet","name_en":"Savannakhet","name_ko":"사완나켓","type":"Province","labelLongitude":105.771,"labelLatitude":16.494,"minZoom":8},"geometry":{"type":"Polygon","coordinates":[[[104.758,16.819],[104.758,16.822],[104.765,16.845],[104.767,16.856],[104.766,16.868],[104.763,16.879],[104.753,16.9],[104.75,16.911],[104.746,16.944],[104.776,16.914],[104.832,16.907],[104.846,16.932],[104.831,16.99],[104.814,17.007],[104.794,16.994],[104.795,17.012],[104.816,17.034],[104.837,17.048],[104.84,17.077],[104.863,17.086],[104.889,17.077],[104.914,17.071],[104.929,17.088],[104.951,17.098],[104.979,17.087],[105.031,17.099],[105.053,17.079],[105.087,17.075],[105.117,17.085],[105.141,17.101],[105.165,17.111],[105.188,17.096],[105.204,17.072],[105.228,17.056],[105.258,17.054],[105.27,17.059],[105.282,17.062],[105.307,17.053],[105.345,17.069],[105.372,17.097],[105.423,17.094],[105.484,17.1],[105.594,17.053],[105.634,17.043],[105.648,17.069],[105.655,17.111],[105.691,17.117],[105.729,17.109],[105.808,17.076],[105.888,17.051],[105.993,17.045],[106.094,17.059],[106.106,17.067],[106.117,17.077],[106.121,17.092],[106.126,17.107],[106.154,17.104],[106.181,17.089],[106.227,17.044],[106.255,17.032],[106.285,17.028],[106.341,17.009],[106.404,17.015],[106.409,17.005],[106.411,16.996],[106.42,16.989],[106.437,16.98],[106.457,16.974],[106.474,16.971],[106.497,16.964],[106.525,16.989],[106.533,16.973],[106.534,16.951],[106.535,16.684],[106.541,16.659],[106.55,16.638],[106.572,16.614],[106.591,16.602],[106.612,16.595],[106.625,16.594],[106.64,16.587],[106.644,16.575],[106.64,16.522],[106.641,16.51],[106.655,16.471],[106.671,16.444],[106.693,16.428],[106.723,16.432],[106.723,16.422],[106.726,16.417],[106.732,16.418],[106.742,16.422],[106.752,16.428],[106.758,16.424],[106.771,16.424],[106.783,16.423],[106.796,16.398],[106.792,16.368],[106.779,16.343],[106.73,16.322],[106.704,16.32],[106.681,16.334],[106.665,16.32],[106.64,16.274],[106.637,16.25],[106.644,16.217],[106.63,16.193],[106.6,16.183],[106.582,16.172],[106.558,16.174],[106.534,16.186],[106.506,16.179],[106.483,16.158],[106.448,16.148],[106.412,16.147],[106.387,16.136],[106.333,16.146],[106.315,16.142],[106.311,16.118],[106.304,16.1],[106.284,16.123],[106.271,16.154],[106.251,16.167],[106.227,16.174],[106.195,16.179],[106.164,16.177],[106.161,16.17],[106.156,16.164],[106.139,16.161],[106.128,16.154],[106.121,16.143],[106.119,16.117],[106.127,16.093],[106.128,16.041],[106.139,16.016],[106.14,15.991],[106.12,15.974],[106.069,15.952],[106.04,15.951],[106.011,15.959],[105.983,15.958],[105.939,15.915],[105.893,15.88],[105.867,15.883],[105.842,15.892],[105.79,15.885],[105.74,15.912],[105.71,15.912],[105.699,15.919],[105.689,15.928],[105.626,15.952],[105.56,15.97],[105.5,15.998],[105.424,16.005],[105.423,16.005],[105.422,16.01],[105.414,16.015],[105.405,16.019],[105.289,16.047],[105.247,16.049],[105.237,16.051],[105.107,16.096],[105.079,16.105],[105.058,16.121],[105.042,16.141],[105.033,16.165],[105.029,16.191],[105.03,16.236],[105.026,16.258],[105.015,16.277],[105.007,16.284],[104.988,16.294],[104.979,16.299],[104.972,16.304],[104.952,16.324],[104.944,16.331],[104.917,16.346],[104.908,16.353],[104.902,16.362],[104.897,16.373],[104.888,16.404],[104.879,16.422],[104.869,16.438],[104.855,16.454],[104.839,16.468],[104.783,16.497],[104.765,16.511],[104.755,16.529],[104.75,16.549],[104.748,16.572],[104.753,16.615],[104.764,16.657],[104.778,16.694],[104.779,16.705],[104.778,16.716],[104.757,16.798],[104.756,16.81],[104.758,16.819]]]}},{"type":"Feature","id":"LA-VI","properties":{"id":"LA-VI","countryCode":"LA","isoSubdivision":"LA-VI","name":"Vientiane Prefecture","name_en":"Vientiane Prefecture","name_ko":"비엔티안 도","type":"Municipality|Prefecture","labelLongitude":102.563,"labelLatitude":18.103,"minZoom":8},"geometry":{"type":"MultiPolygon","coordinates":[[[[102.107,18.212],[102.079,18.214],[102.071,18.209],[102.056,18.192],[102.055,18.193],[102.051,18.197],[102.046,18.207],[102.041,18.216],[102.039,18.267],[102.058,18.347],[102.059,18.374],[102.043,18.396],[102.051,18.417],[102.075,18.411],[102.102,18.397],[102.125,18.408],[102.145,18.428],[102.175,18.435],[102.207,18.433],[102.227,18.414],[102.244,18.391],[102.255,18.358],[102.288,18.336],[102.331,18.324],[102.372,18.309],[102.401,18.304],[102.43,18.308],[102.443,18.303],[102.456,18.295],[102.489,18.298],[102.506,18.282],[102.511,18.277],[102.522,18.275],[102.533,18.271],[102.538,18.259],[102.538,18.242],[102.539,18.237],[102.542,18.238],[102.569,18.234],[102.584,18.238],[102.598,18.226],[102.619,18.225],[102.665,18.264],[102.705,18.268],[102.742,18.28],[102.769,18.293],[102.851,18.309],[102.904,18.294],[102.954,18.277],[102.996,18.251],[103.004,18.23],[103.01,18.213],[103.011,18.194],[103.013,18.187],[103.01,18.178],[103.008,18.168],[103.005,18.161],[103.001,18.155],[102.997,18.148],[102.998,18.137],[103.005,18.125],[103.014,18.12],[103.024,18.12],[103.035,18.126],[103.047,18.144],[103.057,18.164],[103.068,18.168],[103.087,18.14],[103.088,18.139],[103.08,18.135],[103.071,18.126],[103.066,18.112],[103.065,18.094],[103.073,18.036],[103.068,18.026],[103.058,18.019],[103.049,18.005],[103.038,17.991],[103.02,17.984],[103.004,17.989],[102.973,18.008],[102.955,18.012],[102.939,18.009],[102.853,17.972],[102.838,17.964],[102.832,17.953],[102.774,17.923],[102.737,17.89],[102.722,17.882],[102.687,17.874],[102.673,17.865],[102.668,17.85],[102.673,17.832],[102.683,17.817],[102.683,17.81],[102.661,17.813],[102.609,17.837],[102.595,17.841],[102.596,17.85],[102.612,17.915],[102.6,17.955],[102.568,17.971],[102.482,17.971],[102.446,17.978],[102.412,17.994],[102.385,18.016],[102.366,18.039],[102.337,18.037],[102.307,18.051],[102.257,18.094],[102.233,18.124],[102.226,18.128],[102.222,18.132],[102.192,18.152],[102.182,18.169],[102.178,18.186],[102.172,18.2],[102.154,18.21],[102.107,18.212]]],[[[102.056,18.192],[101.904,18.037],[101.884,18.031],[101.845,18.052],[101.806,18.062],[101.797,18.074],[101.79,18.074],[101.774,18.059],[101.766,18.04],[101.757,17.998],[101.733,17.932],[101.729,17.912],[101.636,17.895],[101.62,17.885],[101.611,17.866],[101.6,17.854],[101.578,17.868],[101.578,17.853],[101.575,17.84],[101.571,17.829],[101.564,17.82],[101.546,17.814],[101.545,17.814],[101.543,17.816],[101.537,17.82],[101.537,17.827],[101.555,17.857],[101.557,17.865],[101.551,17.875],[101.537,17.874],[101.523,17.867],[101.516,17.861],[101.509,17.861],[101.504,17.876],[101.495,17.879],[101.471,17.874],[101.456,17.877],[101.449,17.885],[101.445,17.895],[101.424,17.929],[101.425,17.955],[101.431,17.983],[101.433,18.012],[101.427,18.084],[101.423,18.096],[101.404,18.128],[101.399,18.141],[101.403,18.182],[101.421,18.215],[101.467,18.266],[101.476,18.281],[101.481,18.294],[101.49,18.303],[101.512,18.306],[101.53,18.312],[101.547,18.325],[101.561,18.341],[101.571,18.355],[101.573,18.364],[101.574,18.376],[101.578,18.385],[101.593,18.391],[101.615,18.405],[101.626,18.421],[101.645,18.458],[101.66,18.471],[101.671,18.465],[101.683,18.464],[101.696,18.467],[101.708,18.471],[101.73,18.488],[101.732,18.491],[101.743,18.502],[101.764,18.55],[101.779,18.569],[101.811,18.622],[101.815,18.641],[101.82,18.683],[101.824,18.704],[101.854,18.763],[101.862,18.793],[101.851,18.827],[101.809,18.87],[101.803,18.886],[101.806,18.904],[101.816,18.941],[101.817,18.964],[101.815,18.985],[101.812,18.994],[101.807,19.002],[101.803,19.011],[101.805,19.021],[101.809,19.033],[101.81,19.05],[101.839,19.072],[101.86,19.086],[101.869,19.097],[101.878,19.105],[101.908,19.11],[101.957,19.153],[101.987,19.213],[101.997,19.254],[102.008,19.268],[102.027,19.274],[102.041,19.284],[102.052,19.298],[102.068,19.31],[102.082,19.323],[102.097,19.384],[102.127,19.402],[102.163,19.408],[102.19,19.409],[102.215,19.403],[102.229,19.388],[102.245,19.376],[102.279,19.383],[102.309,19.362],[102.342,19.379],[102.371,19.389],[102.386,19.378],[102.402,19.368],[102.431,19.366],[102.46,19.368],[102.454,19.351],[102.446,19.335],[102.467,19.326],[102.488,19.321],[102.5,19.301],[102.509,19.278],[102.541,19.249],[102.576,19.224],[102.649,19.258],[102.704,19.274],[102.746,19.314],[102.759,19.291],[102.794,19.276],[102.809,19.267],[102.822,19.264],[102.853,19.233],[102.881,19.219],[102.905,19.202],[102.921,19.198],[102.936,19.201],[102.956,19.203],[103.041,19.185],[103.062,19.176],[103.092,19.148],[103.127,19.143],[103.164,19.141],[103.263,19.122],[103.276,19.125],[103.286,19.13],[103.321,19.132],[103.348,19.144],[103.37,19.14],[103.392,19.138],[103.413,19.123],[103.437,19.122],[103.445,19.144],[103.46,19.151],[103.477,19.154],[103.508,19.149],[103.534,19.131],[103.557,19.106],[103.582,19.086],[103.613,19.084],[103.656,19.068],[103.721,19.071],[103.761,19.051],[103.792,19.039],[103.829,19.041],[103.861,19.031],[103.886,19.009],[103.894,18.944],[103.885,18.877],[103.854,18.865],[103.824,18.851],[103.803,18.834],[103.775,18.827],[103.749,18.837],[103.725,18.853],[103.696,18.869],[103.671,18.888],[103.642,18.902],[103.611,18.911],[103.571,18.95],[103.538,18.948],[103.484,18.93],[103.484,18.905],[103.49,18.876],[103.502,18.849],[103.514,18.847],[103.518,18.839],[103.507,18.832],[103.492,18.832],[103.482,18.808],[103.486,18.776],[103.494,18.744],[103.499,18.711],[103.499,18.669],[103.488,18.633],[103.465,18.611],[103.438,18.59],[103.368,18.551],[103.289,18.533],[103.169,18.527],[103.084,18.513],[102.888,18.525],[102.822,18.511],[102.858,18.436],[102.879,18.413],[102.902,18.393],[102.914,18.343],[102.904,18.294],[102.851,18.309],[102.769,18.293],[102.742,18.28],[102.705,18.268],[102.665,18.264],[102.619,18.225],[102.598,18.226],[102.584,18.238],[102.569,18.234],[102.542,18.238],[102.539,18.237],[102.538,18.242],[102.538,18.259],[102.533,18.271],[102.522,18.275],[102.511,18.277],[102.506,18.282],[102.489,18.298],[102.456,18.295],[102.443,18.303],[102.43,18.308],[102.401,18.304],[102.372,18.309],[102.331,18.324],[102.288,18.336],[102.255,18.358],[102.244,18.391],[102.227,18.414],[102.207,18.433],[102.175,18.435],[102.145,18.428],[102.125,18.408],[102.102,18.397],[102.075,18.411],[102.051,18.417],[102.043,18.396],[102.059,18.374],[102.058,18.347],[102.039,18.267],[102.041,18.216],[102.046,18.207],[102.051,18.197],[102.055,18.193],[102.056,18.192]]]]}},{"type":"Feature","id":"LA-XA","properties":{"id":"LA-XA","countryCode":"LA","isoSubdivision":"LA-XA","name":"Sainyabuli","name_en":"Sainyabuli","name_ko":"사이냐불리","type":"Province","labelLongitude":101.143,"labelLatitude":17.75,"minZoom":8},"geometry":{"type":"Polygon","coordinates":[[[100.39,19.724],[100.384,19.732],[100.379,19.746],[100.384,19.764],[100.408,19.794],[100.44,19.789],[100.483,19.779],[100.517,19.78],[100.55,19.786],[100.58,19.804],[100.602,19.803],[100.622,19.81],[100.632,19.816],[100.642,19.816],[100.655,19.813],[100.669,19.815],[100.678,19.819],[100.749,19.858],[100.763,19.871],[100.78,19.885],[100.792,19.891],[100.806,19.892],[100.928,19.873],[100.975,19.86],[101.009,19.834],[101.013,19.841],[101.02,19.85],[101.022,19.856],[101.03,19.856],[101.043,19.841],[101.06,19.846],[101.084,19.869],[101.109,19.886],[101.119,19.889],[101.131,19.889],[101.142,19.884],[101.15,19.878],[101.17,19.869],[101.235,19.828],[101.258,19.821],[101.559,19.823],[101.597,19.831],[101.619,19.856],[101.607,19.863],[101.619,19.874],[101.641,19.885],[101.656,19.889],[101.666,19.895],[101.696,19.922],[101.708,19.931],[101.73,19.904],[101.745,19.887],[101.761,19.872],[101.772,19.853],[101.773,19.806],[101.755,19.76],[101.746,19.741],[101.747,19.681],[101.758,19.655],[101.786,19.654],[101.815,19.657],[101.824,19.65],[101.815,19.615],[101.817,19.481],[101.821,19.467],[101.829,19.454],[101.841,19.441],[101.857,19.431],[101.896,19.414],[101.906,19.403],[101.899,19.393],[101.866,19.36],[101.858,19.345],[101.853,19.325],[101.83,19.292],[101.824,19.279],[101.824,19.26],[101.831,19.201],[101.829,19.181],[101.82,19.147],[101.81,19.05],[101.809,19.033],[101.805,19.021],[101.803,19.011],[101.807,19.002],[101.812,18.994],[101.815,18.985],[101.817,18.964],[101.816,18.941],[101.806,18.904],[101.803,18.886],[101.809,18.87],[101.851,18.827],[101.862,18.793],[101.854,18.763],[101.824,18.704],[101.82,18.683],[101.815,18.641],[101.811,18.622],[101.779,18.569],[101.764,18.55],[101.743,18.502],[101.732,18.491],[101.73,18.488],[101.708,18.471],[101.696,18.467],[101.683,18.464],[101.671,18.465],[101.66,18.471],[101.645,18.458],[101.626,18.421],[101.615,18.405],[101.593,18.391],[101.578,18.385],[101.574,18.376],[101.573,18.364],[101.571,18.355],[101.561,18.341],[101.547,18.325],[101.53,18.312],[101.512,18.306],[101.49,18.303],[101.481,18.294],[101.476,18.281],[101.467,18.266],[101.421,18.215],[101.403,18.182],[101.399,18.141],[101.404,18.128],[101.423,18.096],[101.427,18.084],[101.433,18.012],[101.431,17.983],[101.425,17.955],[101.424,17.929],[101.445,17.895],[101.449,17.885],[101.456,17.877],[101.471,17.874],[101.495,17.879],[101.504,17.876],[101.509,17.861],[101.516,17.861],[101.523,17.867],[101.537,17.874],[101.551,17.875],[101.557,17.865],[101.555,17.857],[101.537,17.827],[101.537,17.82],[101.543,17.816],[101.545,17.814],[101.546,17.814],[101.534,17.81],[101.556,17.792],[101.537,17.779],[101.503,17.765],[101.483,17.746],[101.479,17.738],[101.474,17.731],[101.47,17.723],[101.468,17.72],[101.459,17.739],[101.457,17.746],[101.456,17.75],[101.453,17.751],[101.45,17.749],[101.445,17.746],[101.432,17.734],[101.417,17.732],[101.402,17.734],[101.388,17.729],[101.382,17.721],[101.388,17.718],[101.399,17.717],[101.404,17.716],[101.403,17.709],[101.402,17.707],[101.384,17.685],[101.377,17.683],[101.37,17.683],[101.357,17.679],[101.247,17.592],[101.229,17.568],[101.209,17.531],[101.202,17.523],[101.19,17.519],[101.177,17.516],[101.167,17.511],[101.164,17.496],[101.147,17.472],[101.142,17.467],[101.132,17.462],[101.129,17.461],[101.125,17.464],[101.096,17.475],[101.066,17.492],[101.049,17.496],[101.035,17.513],[101.019,17.527],[101.001,17.538],[100.982,17.548],[100.938,17.555],[100.902,17.562],[100.886,17.574],[100.886,17.596],[100.899,17.617],[100.933,17.655],[100.954,17.7],[100.956,17.708],[100.961,17.726],[100.959,17.746],[100.956,17.756],[100.959,17.764],[100.965,17.771],[100.974,17.776],[100.975,17.778],[100.976,17.78],[100.975,17.782],[100.974,17.784],[100.968,17.791],[100.965,17.798],[100.967,17.804],[100.974,17.809],[100.995,17.818],[101,17.83],[100.997,17.865],[101.001,17.885],[101.008,17.895],[101.04,17.912],[101.066,17.934],[101.082,17.958],[101.095,17.984],[101.112,18.011],[101.125,18.021],[101.158,18.04],[101.165,18.053],[101.162,18.067],[101.145,18.105],[101.142,18.124],[101.146,18.142],[101.161,18.18],[101.163,18.195],[101.159,18.204],[101.153,18.209],[101.146,18.213],[101.14,18.219],[101.132,18.239],[101.128,18.246],[101.128,18.281],[101.13,18.291],[101.135,18.298],[101.152,18.316],[101.155,18.323],[101.146,18.336],[101.082,18.364],[101.074,18.372],[101.051,18.392],[101.037,18.41],[101.03,18.428],[101.036,18.448],[101.065,18.476],[101.072,18.496],[101.074,18.506],[101.078,18.51],[101.142,18.544],[101.155,18.557],[101.159,18.568],[101.158,18.59],[101.161,18.6],[101.168,18.606],[101.185,18.613],[101.194,18.617],[101.222,18.642],[101.235,18.658],[101.24,18.674],[101.235,18.689],[101.211,18.712],[101.206,18.73],[101.209,18.746],[101.224,18.779],[101.229,18.796],[101.223,18.855],[101.225,18.875],[101.233,18.893],[101.257,18.919],[101.267,18.934],[101.277,18.967],[101.284,18.981],[101.326,19.021],[101.318,19.05],[101.291,19.079],[101.247,19.116],[101.236,19.128],[101.229,19.144],[101.227,19.167],[101.23,19.226],[101.21,19.309],[101.209,19.316],[101.211,19.321],[101.211,19.326],[101.208,19.335],[101.202,19.339],[101.185,19.342],[101.178,19.347],[101.172,19.376],[101.178,19.417],[101.193,19.453],[101.215,19.466],[101.238,19.472],[101.252,19.494],[101.257,19.523],[101.255,19.547],[101.251,19.56],[101.246,19.57],[101.238,19.578],[101.225,19.585],[101.208,19.59],[101.197,19.587],[101.188,19.581],[101.177,19.575],[101.153,19.568],[101.125,19.565],[101.096,19.567],[101.068,19.577],[101.024,19.603],[101.003,19.611],[100.974,19.613],[100.886,19.612],[100.88,19.614],[100.875,19.613],[100.865,19.607],[100.861,19.603],[100.849,19.583],[100.808,19.537],[100.763,19.495],[100.753,19.482],[100.746,19.485],[100.738,19.495],[100.729,19.505],[100.715,19.512],[100.633,19.542],[100.607,19.541],[100.586,19.526],[100.575,19.508],[100.567,19.496],[100.549,19.495],[100.521,19.503],[100.492,19.514],[100.474,19.525],[100.462,19.537],[100.459,19.552],[100.459,19.568],[100.456,19.585],[100.447,19.598],[100.427,19.622],[100.419,19.634],[100.413,19.652],[100.41,19.684],[100.407,19.7],[100.4,19.712],[100.39,19.724]]]}},{"type":"Feature","id":"LA-XE","properties":{"id":"LA-XE","countryCode":"LA","isoSubdivision":"LA-XE","name":"Sekong","name_en":"Sekong","name_ko":"세콩","type":"Province","labelLongitude":106.982,"labelLatitude":15.641,"minZoom":8},"geometry":{"type":"Polygon","coordinates":[[[107.136,16.185],[107.142,16.177],[107.154,16.166],[107.17,16.157],[107.183,16.153],[107.197,16.151],[107.213,16.147],[107.239,16.13],[107.276,16.084],[107.299,16.064],[107.327,16.056],[107.356,16.059],[107.412,16.073],[107.431,16.074],[107.436,16.069],[107.433,16.057],[107.433,16.055],[107.432,16.038],[107.437,16.027],[107.444,16.019],[107.445,16.01],[107.433,15.996],[107.418,15.984],[107.391,15.936],[107.376,15.919],[107.361,15.912],[107.323,15.906],[107.305,15.899],[107.236,15.856],[107.227,15.853],[107.218,15.855],[107.209,15.859],[107.199,15.862],[107.186,15.859],[107.175,15.849],[107.15,15.794],[107.149,15.773],[107.16,15.759],[107.215,15.728],[107.226,15.717],[107.23,15.702],[107.235,15.661],[107.239,15.645],[107.249,15.631],[107.265,15.619],[107.304,15.6],[107.316,15.589],[107.369,15.496],[107.382,15.489],[107.389,15.493],[107.395,15.501],[107.405,15.509],[107.412,15.509],[107.432,15.504],[107.438,15.506],[107.443,15.509],[107.448,15.508],[107.453,15.496],[107.456,15.488],[107.461,15.484],[107.467,15.484],[107.474,15.488],[107.487,15.481],[107.49,15.462],[107.49,15.438],[107.494,15.42],[107.513,15.409],[107.556,15.416],[107.573,15.411],[107.576,15.403],[107.578,15.4],[107.58,15.361],[107.587,15.343],[107.598,15.331],[107.643,15.298],[107.658,15.282],[107.664,15.269],[107.664,15.253],[107.657,15.206],[107.654,15.2],[107.647,15.198],[107.643,15.202],[107.637,15.205],[107.627,15.197],[107.624,15.187],[107.621,15.155],[107.616,15.136],[107.605,15.121],[107.599,15.115],[107.585,15.104],[107.58,15.097],[107.581,15.087],[107.59,15.069],[107.589,15.058],[107.578,15.047],[107.563,15.046],[107.535,15.05],[107.519,15.049],[107.502,15.044],[107.504,15.057],[107.52,15.085],[107.51,15.109],[107.488,15.127],[107.461,15.181],[107.417,15.188],[107.399,15.169],[107.378,15.158],[107.347,15.166],[107.316,15.178],[107.293,15.192],[107.275,15.211],[107.257,15.235],[107.238,15.254],[107.169,15.276],[107.097,15.271],[107.074,15.255],[107.05,15.242],[107.022,15.249],[106.999,15.248],[106.978,15.242],[106.945,15.229],[106.91,15.228],[106.881,15.235],[106.856,15.253],[106.823,15.258],[106.791,15.255],[106.764,15.239],[106.743,15.221],[106.739,15.207],[106.737,15.194],[106.728,15.182],[106.718,15.171],[106.706,15.147],[106.684,15.138],[106.677,15.137],[106.672,15.138],[106.666,15.222],[106.562,15.303],[106.54,15.31],[106.505,15.311],[106.471,15.325],[106.425,15.381],[106.373,15.4],[106.317,15.42],[106.3,15.468],[106.311,15.476],[106.322,15.479],[106.328,15.504],[106.351,15.513],[106.378,15.51],[106.403,15.497],[106.431,15.492],[106.452,15.506],[106.462,15.531],[106.496,15.536],[106.533,15.53],[106.592,15.531],[106.628,15.553],[106.679,15.545],[106.691,15.559],[106.688,15.582],[106.686,15.594],[106.686,15.607],[106.692,15.618],[106.698,15.624],[106.691,15.656],[106.673,15.682],[106.684,15.704],[106.699,15.716],[106.68,15.736],[106.655,15.753],[106.652,15.776],[106.674,15.793],[106.7,15.847],[106.735,15.897],[106.782,15.945],[106.794,15.953],[106.804,15.962],[106.8,15.978],[106.793,15.993],[106.801,16.023],[106.818,16.049],[106.842,16.047],[106.865,16.035],[106.899,16.03],[106.935,16.029],[106.948,16.036],[106.957,16.046],[106.984,16.039],[107.009,16.05],[107.033,16.067],[107.069,16.078],[107.076,16.095],[107.082,16.114],[107.1,16.137],[107.121,16.156],[107.135,16.182],[107.136,16.185]]]}},{"type":"Feature","id":"LA-XI","properties":{"id":"LA-XI","countryCode":"LA","isoSubdivision":"LA-XI","name":"Xiangkhouang","name_en":"Xiangkhouang","name_ko":"씨앙쿠앙","type":"Province","labelLongitude":103.46,"labelLatitude":19.511,"minZoom":8},"geometry":{"type":"Polygon","coordinates":[[[104.2,19.699],[104.158,19.688],[104.136,19.687],[104.131,19.682],[104.124,19.676],[104.117,19.661],[104.109,19.655],[104.089,19.652],[104.07,19.658],[104.022,19.681],[104.01,19.685],[104.001,19.681],[103.995,19.665],[103.998,19.653],[104.017,19.6],[104.029,19.586],[104.06,19.568],[104.072,19.559],[104.078,19.543],[104.079,19.526],[104.083,19.509],[104.094,19.496],[104.094,19.495],[104.09,19.484],[104.081,19.479],[104.071,19.477],[104.061,19.471],[104.054,19.461],[104.05,19.437],[104.047,19.427],[104.039,19.413],[104.038,19.413],[104.035,19.417],[104.02,19.415],[103.997,19.407],[103.974,19.396],[103.953,19.391],[103.941,19.381],[103.921,19.353],[103.906,19.342],[103.87,19.327],[103.857,19.317],[103.848,19.3],[103.859,19.295],[103.877,19.296],[103.893,19.294],[103.906,19.27],[103.911,19.263],[103.918,19.258],[103.943,19.246],[103.973,19.225],[103.974,19.225],[103.995,19.234],[104.016,19.235],[104.037,19.23],[104.148,19.183],[104.188,19.157],[104.198,19.147],[104.202,19.127],[104.202,19.109],[104.211,19.101],[104.24,19.109],[104.26,19.104],[104.258,19.085],[104.248,19.053],[104.254,19.019],[104.253,18.984],[104.233,18.965],[104.21,18.948],[104.204,18.922],[104.191,18.899],[104.166,18.881],[104.144,18.856],[104.122,18.826],[104.089,18.814],[104.063,18.812],[104.037,18.812],[104.023,18.819],[104.01,18.829],[103.922,18.869],[103.885,18.877],[103.894,18.944],[103.886,19.009],[103.861,19.031],[103.829,19.041],[103.792,19.039],[103.761,19.051],[103.721,19.071],[103.656,19.068],[103.613,19.084],[103.582,19.086],[103.557,19.106],[103.534,19.131],[103.508,19.149],[103.477,19.154],[103.46,19.151],[103.445,19.144],[103.437,19.122],[103.413,19.123],[103.392,19.138],[103.37,19.14],[103.348,19.144],[103.321,19.132],[103.286,19.13],[103.276,19.125],[103.263,19.122],[103.164,19.141],[103.127,19.143],[103.092,19.148],[103.062,19.176],[103.041,19.185],[102.956,19.203],[102.936,19.201],[102.921,19.198],[102.905,19.202],[102.881,19.219],[102.853,19.233],[102.822,19.264],[102.809,19.267],[102.794,19.276],[102.759,19.291],[102.746,19.314],[102.725,19.372],[102.701,19.399],[102.673,19.422],[102.661,19.473],[102.671,19.526],[102.717,19.559],[102.733,19.581],[102.752,19.599],[102.812,19.638],[102.858,19.677],[102.871,19.696],[102.867,19.719],[102.907,19.717],[102.944,19.725],[102.951,19.772],[102.953,19.819],[102.979,19.836],[103.01,19.849],[103.031,19.864],[103.056,19.874],[103.106,19.877],[103.125,19.893],[103.138,19.915],[103.182,19.928],[103.228,19.931],[103.249,19.91],[103.276,19.896],[103.325,19.915],[103.347,19.903],[103.368,19.888],[103.419,19.883],[103.471,19.868],[103.496,19.875],[103.518,19.892],[103.545,19.901],[103.573,19.904],[103.608,19.912],[103.63,19.939],[103.659,19.926],[103.687,19.93],[103.688,19.959],[103.695,19.992],[103.741,20.025],[103.768,20.029],[103.795,20.028],[103.849,19.998],[103.888,19.95],[103.887,19.926],[103.892,19.902],[103.885,19.873],[103.875,19.846],[103.9,19.834],[103.909,19.826],[103.928,19.794],[103.938,19.788],[103.952,19.783],[104.038,19.805],[104.051,19.816],[104.056,19.835],[104.067,19.852],[104.083,19.864],[104.115,19.844],[104.153,19.841],[104.174,19.849],[104.192,19.863],[104.195,19.885],[104.205,19.902],[104.209,19.855],[104.186,19.787],[104.189,19.763],[104.198,19.733],[104.2,19.699]]]}}]}
