{"type":"FeatureCollection","features":[{"type":"Feature","id":"LC-01","properties":{"id":"LC-01","countryCode":"LC","isoSubdivision":"LC-01","name":"Anse la Raye Quarter","name_en":"Anse la Raye Quarter","name_ko":"앙스라레 구","type":"Quarter","labelLongitude":-61.019,"labelLatitude":13.935,"minZoom":11},"geometry":{"type":"Polygon","coordinates":[[[-61.067,13.909],[-61.065,13.917],[-61.059,13.931],[-61.036,13.965],[-61.027,13.987],[-61.009,13.982],[-60.992,13.978],[-60.984,13.965],[-60.982,13.945],[-60.981,13.924],[-60.981,13.912],[-60.981,13.893],[-60.983,13.874],[-60.991,13.866],[-61.011,13.871],[-61.024,13.894],[-61.041,13.905],[-61.056,13.909],[-61.067,13.909]]]}},{"type":"Feature","id":"LC-02","properties":{"id":"LC-02","countryCode":"LC","isoSubdivision":"LC-02","name":"Castries Quarter","name_en":"Castries Quarter","name_ko":"캐스트리스 구","type":"Quarter","labelLongitude":-60.975,"labelLatitude":14,"minZoom":11},"geometry":{"type":"Polygon","coordinates":[[[-61.027,13.987],[-61.002,14.023],[-60.997,14.027],[-60.987,14.033],[-60.982,14.037],[-60.98,14.044],[-60.966,14.034],[-60.958,14.022],[-60.936,14.018],[-60.937,14.009],[-60.941,13.979],[-60.947,13.954],[-60.957,13.928],[-60.961,13.9],[-60.961,13.879],[-60.972,13.883],[-60.981,13.893],[-60.981,13.912],[-60.981,13.924],[-60.982,13.945],[-60.984,13.965],[-60.992,13.978],[-61.009,13.982],[-61.027,13.987]]]}},{"type":"Feature","id":"LC-03","properties":{"id":"LC-03","countryCode":"LC","isoSubdivision":"LC-03","name":"Choiseul Quarter","name_en":"Choiseul Quarter","name_ko":"슈아죌 구","type":"Quarter","labelLongitude":-61.03,"labelLatitude":13.791,"minZoom":11},"geometry":{"type":"Polygon","coordinates":[[[-61.019,13.756],[-61.048,13.767],[-61.065,13.787],[-61.068,13.792],[-61.05,13.806],[-61.026,13.818],[-60.992,13.83],[-60.982,13.836],[-60.981,13.831],[-60.986,13.828],[-60.989,13.819],[-61.001,13.792],[-61.012,13.771],[-61.019,13.756]]]}},{"type":"Feature","id":"LC-04","properties":{"id":"LC-04","countryCode":"LC","isoSubdivision":"LC-04","name":"Dauphin Quarter","name_en":"Dauphin Quarter","name_ko":"도팽 구","type":"Quarter","labelLongitude":-60.906,"labelLatitude":14.018,"minZoom":11},"geometry":{"type":"Polygon","coordinates":[[[-60.901,14.073],[-60.893,14.065],[-60.89,14.052],[-60.887,14.01],[-60.883,13.981],[-60.902,13.983],[-60.92,13.982],[-60.941,13.979],[-60.937,14.009],[-60.936,14.018],[-60.933,14.037],[-60.928,14.053],[-60.915,14.064],[-60.901,14.073]]]}},{"type":"Feature","id":"LC-05","properties":{"id":"LC-05","countryCode":"LC","isoSubdivision":"LC-05","name":"Dennery Quarter","name_en":"Dennery Quarter","name_ko":"데네리 구","type":"Quarter","labelLongitude":-60.905,"labelLatitude":13.943,"minZoom":11},"geometry":{"type":"Polygon","coordinates":[[[-60.883,13.981],[-60.883,13.954],[-60.89,13.908],[-60.907,13.905],[-60.922,13.898],[-60.939,13.904],[-60.961,13.9],[-60.957,13.928],[-60.947,13.954],[-60.941,13.979],[-60.92,13.982],[-60.902,13.983],[-60.883,13.981]]]}},{"type":"Feature","id":"LC-06","properties":{"id":"LC-06","countryCode":"LC","isoSubdivision":"LC-06","name":"Gros Islet Quarter","name_en":"Gros Islet Quarter","name_ko":"그로스아일렛 구","type":"Quarter","labelLongitude":-60.945,"labelLatitude":14.066,"minZoom":11},"geometry":{"type":"Polygon","coordinates":[[[-60.98,14.044],[-60.976,14.061],[-60.972,14.068],[-60.948,14.102],[-60.933,14.112],[-60.914,14.106],[-60.919,14.088],[-60.912,14.079],[-60.901,14.073],[-60.915,14.064],[-60.928,14.053],[-60.933,14.037],[-60.936,14.018],[-60.958,14.022],[-60.966,14.034],[-60.98,14.044]]]}},{"type":"Feature","id":"LC-07","properties":{"id":"LC-07","countryCode":"LC","isoSubdivision":"LC-07","name":"Laborie Quarter","name_en":"Laborie Quarter","name_ko":"라보리 구","type":"Quarter","labelLongitude":-60.987,"labelLatitude":13.768,"minZoom":11},"geometry":{"type":"Polygon","coordinates":[[[-60.967,13.731],[-60.973,13.739],[-61.019,13.756],[-61.012,13.771],[-61.001,13.792],[-60.989,13.819],[-60.986,13.828],[-60.981,13.831],[-60.98,13.826],[-60.977,13.813],[-60.97,13.791],[-60.964,13.776],[-60.963,13.755],[-60.962,13.742],[-60.967,13.731]]]}},{"type":"Feature","id":"LC-08","properties":{"id":"LC-08","countryCode":"LC","isoSubdivision":"LC-08","name":"Micoud Quarter","name_en":"Micoud Quarter","name_ko":"미쿠 구","type":"Quarter","labelLongitude":-60.918,"labelLatitude":13.816,"minZoom":11},"geometry":{"type":"Polygon","coordinates":[[[-60.892,13.833],[-60.905,13.784],[-60.907,13.777],[-60.91,13.776],[-60.918,13.774],[-60.929,13.789],[-60.942,13.803],[-60.962,13.824],[-60.975,13.839],[-60.964,13.845],[-60.943,13.84],[-60.915,13.833],[-60.892,13.833]]]}},{"type":"Feature","id":"LC-09","properties":{"id":"LC-09","countryCode":"LC","isoSubdivision":"LC-09","name":"Praslin Quarter","name_en":"Praslin Quarter","name_ko":"프라슬랭 구","type":"Quarter","labelLongitude":-60.918,"labelLatitude":13.867,"minZoom":11},"geometry":{"type":"Polygon","coordinates":[[[-60.89,13.908],[-60.895,13.877],[-60.892,13.833],[-60.915,13.833],[-60.943,13.84],[-60.964,13.845],[-60.961,13.869],[-60.961,13.879],[-60.961,13.9],[-60.939,13.904],[-60.922,13.898],[-60.907,13.905],[-60.89,13.908]]]}},{"type":"Feature","id":"LC-10","properties":{"id":"LC-10","countryCode":"LC","isoSubdivision":"LC-10","name":"Soufrière Quarter","name_en":"Soufrière Quarter","name_ko":"수프리에르 구","type":"Quarter","labelLongitude":-61.045,"labelLatitude":13.855,"minZoom":11},"geometry":{"type":"Polygon","coordinates":[[[-61.068,13.792],[-61.074,13.799],[-61.078,13.806],[-61.071,13.822],[-61.07,13.832],[-61.071,13.852],[-61.073,13.858],[-61.076,13.863],[-61.078,13.87],[-61.079,13.88],[-61.076,13.89],[-61.067,13.909],[-61.056,13.909],[-61.041,13.905],[-61.024,13.894],[-61.011,13.871],[-60.991,13.866],[-60.983,13.874],[-60.981,13.893],[-60.972,13.883],[-60.961,13.879],[-60.961,13.869],[-60.964,13.845],[-60.975,13.839],[-60.982,13.836],[-60.992,13.83],[-61.026,13.818],[-61.05,13.806],[-61.068,13.792]]]}},{"type":"Feature","id":"LC-11","properties":{"id":"LC-11","countryCode":"LC","isoSubdivision":"LC-11","name":"Vieux Fort Quarter","name_en":"Vieux Fort Quarter","name_ko":"비외포르 구","type":"Quarter","labelLongitude":-60.944,"labelLatitude":13.776,"minZoom":11},"geometry":{"type":"Polygon","coordinates":[[[-60.918,13.774],[-60.923,13.773],[-60.927,13.77],[-60.932,13.76],[-60.941,13.722],[-60.947,13.716],[-60.95,13.715],[-60.955,13.715],[-60.967,13.731],[-60.962,13.742],[-60.963,13.755],[-60.964,13.776],[-60.97,13.791],[-60.977,13.813],[-60.98,13.826],[-60.981,13.831],[-60.982,13.836],[-60.975,13.839],[-60.962,13.824],[-60.942,13.803],[-60.929,13.789],[-60.918,13.774]]]}}]}
