{"type":"FeatureCollection","features":[{"type":"Feature","id":"LK-11","properties":{"id":"LK-11","countryCode":"LK","isoSubdivision":"LK-11","name":"Colombo","name_en":"Colombo","name_ko":"콜롬보 구","type":"District","labelLongitude":80.035,"labelLatitude":6.86,"minZoom":8.7},"geometry":{"type":"Polygon","coordinates":[[[79.9,6.712],[79.863,6.807],[79.849,6.883],[79.848,6.89],[79.848,6.962],[79.849,6.965],[79.871,6.957],[79.887,6.948],[79.905,6.944],[79.913,6.948],[79.922,6.952],[79.972,6.937],[79.989,6.941],[80.006,6.942],[80.02,6.934],[80.031,6.923],[80.043,6.917],[80.054,6.912],[80.072,6.91],[80.093,6.911],[80.095,6.931],[80.099,6.949],[80.115,6.965],[80.134,6.974],[80.161,6.971],[80.18,6.978],[80.201,6.976],[80.218,6.968],[80.222,6.949],[80.208,6.937],[80.21,6.927],[80.21,6.918],[80.197,6.902],[80.186,6.885],[80.182,6.871],[80.177,6.859],[80.202,6.833],[80.18,6.814],[80.15,6.82],[80.118,6.807],[80.124,6.778],[80.105,6.783],[80.092,6.813],[80.087,6.816],[80.08,6.817],[80.068,6.803],[80.052,6.795],[80.041,6.8],[80.03,6.799],[79.992,6.766],[79.981,6.761],[79.969,6.758],[79.94,6.747],[79.894,6.776],[79.893,6.759],[79.899,6.741],[79.902,6.728],[79.902,6.715],[79.9,6.712]]]}},{"type":"Feature","id":"LK-12","properties":{"id":"LK-12","countryCode":"LK","isoSubdivision":"LK-12","name":"Gampaha","name_en":"Gampaha","name_ko":"감파하 구","type":"District","labelLongitude":80.011,"labelLatitude":7.126,"minZoom":8.7},"geometry":{"type":"Polygon","coordinates":[[[79.849,6.965],[79.859,6.989],[79.862,7],[79.862,7.012],[79.814,7.181],[79.82,7.206],[79.82,7.19],[79.824,7.181],[79.829,7.173],[79.834,7.164],[79.843,7.131],[79.848,7.123],[79.854,7.123],[79.856,7.133],[79.859,7.137],[79.861,7.137],[79.862,7.137],[79.862,7.167],[79.859,7.181],[79.854,7.192],[79.85,7.195],[79.836,7.198],[79.831,7.202],[79.83,7.203],[79.826,7.21],[79.828,7.218],[79.832,7.226],[79.834,7.233],[79.828,7.276],[79.852,7.275],[79.87,7.28],[79.89,7.282],[79.897,7.274],[79.909,7.272],[79.924,7.281],[79.941,7.274],[79.963,7.283],[80.001,7.312],[80.025,7.313],[80.052,7.294],[80.081,7.303],[80.106,7.32],[80.134,7.325],[80.143,7.315],[80.145,7.306],[80.151,7.298],[80.176,7.27],[80.194,7.257],[80.195,7.244],[80.185,7.236],[80.183,7.202],[80.17,7.19],[80.154,7.181],[80.15,7.153],[80.162,7.128],[80.186,7.134],[80.207,7.128],[80.2,7.111],[80.185,7.101],[80.173,7.072],[80.167,7.043],[80.182,6.995],[80.183,6.986],[80.18,6.978],[80.161,6.971],[80.134,6.974],[80.115,6.965],[80.099,6.949],[80.095,6.931],[80.093,6.911],[80.072,6.91],[80.054,6.912],[80.043,6.917],[80.031,6.923],[80.02,6.934],[80.006,6.942],[79.989,6.941],[79.972,6.937],[79.922,6.952],[79.913,6.948],[79.905,6.944],[79.887,6.948],[79.871,6.957],[79.849,6.965]]]}},{"type":"Feature","id":"LK-13","properties":{"id":"LK-13","countryCode":"LK","isoSubdivision":"LK-13","name":"Kalutara","name_en":"Kalutara","name_ko":"칼루타라 구","type":"District","labelLongitude":80.137,"labelLatitude":6.59,"minZoom":8.7},"geometry":{"type":"Polygon","coordinates":[[[79.982,6.441],[79.978,6.458],[79.976,6.46],[79.971,6.462],[79.967,6.466],[79.964,6.472],[79.965,6.478],[79.97,6.479],[79.975,6.479],[79.978,6.479],[79.97,6.531],[79.97,6.535],[79.949,6.589],[79.9,6.712],[79.902,6.715],[79.902,6.728],[79.899,6.741],[79.893,6.759],[79.894,6.776],[79.94,6.747],[79.969,6.758],[79.981,6.761],[79.992,6.766],[80.03,6.799],[80.041,6.8],[80.052,6.795],[80.068,6.803],[80.08,6.817],[80.087,6.816],[80.092,6.813],[80.105,6.783],[80.124,6.778],[80.118,6.807],[80.15,6.82],[80.18,6.814],[80.183,6.793],[80.2,6.747],[80.199,6.731],[80.205,6.712],[80.215,6.692],[80.246,6.663],[80.251,6.634],[80.263,6.623],[80.276,6.618],[80.299,6.598],[80.313,6.57],[80.298,6.564],[80.303,6.547],[80.346,6.488],[80.382,6.426],[80.346,6.418],[80.311,6.396],[80.293,6.388],[80.293,6.367],[80.3,6.345],[80.298,6.325],[80.283,6.337],[80.267,6.352],[80.238,6.375],[80.207,6.372],[80.18,6.357],[80.137,6.365],[80.12,6.376],[80.104,6.39],[80.084,6.399],[80.066,6.403],[80.029,6.42],[80.024,6.428],[80.017,6.435],[80.007,6.431],[80,6.427],[79.994,6.432],[79.989,6.44],[79.982,6.441]]]}},{"type":"Feature","id":"LK-21","properties":{"id":"LK-21","countryCode":"LK","isoSubdivision":"LK-21","name":"Kandy","name_en":"Kandy","name_ko":"마하누바라","type":"District","labelLongitude":80.718,"labelLatitude":7.302,"minZoom":8.7},"geometry":{"type":"Polygon","coordinates":[[[80.463,7.028],[80.464,7.048],[80.471,7.064],[80.464,7.076],[80.449,7.112],[80.46,7.123],[80.495,7.128],[80.511,7.145],[80.522,7.146],[80.532,7.148],[80.54,7.161],[80.546,7.174],[80.534,7.188],[80.52,7.203],[80.52,7.217],[80.522,7.235],[80.51,7.25],[80.484,7.264],[80.476,7.27],[80.478,7.289],[80.434,7.327],[80.422,7.357],[80.443,7.355],[80.461,7.36],[80.459,7.365],[80.458,7.371],[80.462,7.377],[80.466,7.383],[80.469,7.403],[80.483,7.403],[80.499,7.392],[80.516,7.39],[80.518,7.401],[80.516,7.412],[80.531,7.42],[80.545,7.418],[80.556,7.423],[80.55,7.436],[80.542,7.449],[80.554,7.452],[80.566,7.458],[80.586,7.429],[80.65,7.39],[80.686,7.388],[80.708,7.411],[80.704,7.448],[80.71,7.463],[80.724,7.472],[80.739,7.466],[80.776,7.436],[80.805,7.44],[80.837,7.466],[80.878,7.465],[80.894,7.473],[80.907,7.459],[80.914,7.463],[80.92,7.468],[80.931,7.487],[80.952,7.49],[80.983,7.486],[80.992,7.335],[81.014,7.263],[81.012,7.23],[80.985,7.205],[80.964,7.199],[80.951,7.192],[80.91,7.2],[80.867,7.194],[80.83,7.197],[80.807,7.233],[80.799,7.234],[80.788,7.237],[80.774,7.257],[80.756,7.272],[80.76,7.243],[80.769,7.206],[80.748,7.172],[80.684,7.096],[80.667,7.1],[80.647,7.1],[80.618,7.08],[80.598,7.075],[80.562,7.08],[80.539,7.062],[80.547,7.064],[80.555,7.061],[80.573,7.029],[80.588,7.015],[80.6,6.999],[80.588,6.965],[80.566,6.942],[80.537,6.959],[80.492,7.026],[80.463,7.028]]]}},{"type":"Feature","id":"LK-22","properties":{"id":"LK-22","countryCode":"LK","isoSubdivision":"LK-22","name":"Matale","name_en":"Matale","name_ko":"마탈레 구","type":"District","labelLongitude":80.739,"labelLatitude":7.609,"minZoom":8.7},"geometry":{"type":"Polygon","coordinates":[[[80.756,8.012],[80.765,8.004],[80.779,7.988],[80.778,7.971],[80.784,7.965],[80.792,7.962],[80.799,7.966],[80.799,7.972],[80.811,7.978],[80.823,7.975],[80.839,7.971],[80.853,7.963],[80.823,7.931],[80.813,7.884],[80.811,7.861],[80.801,7.821],[80.798,7.814],[80.796,7.806],[80.767,7.8],[80.76,7.773],[80.774,7.712],[80.772,7.692],[80.782,7.678],[80.808,7.673],[80.833,7.683],[80.853,7.701],[80.862,7.689],[80.877,7.68],[80.881,7.697],[80.884,7.715],[80.937,7.711],[80.989,7.721],[80.988,7.704],[80.996,7.682],[80.998,7.662],[80.988,7.615],[80.978,7.568],[80.983,7.486],[80.952,7.49],[80.931,7.487],[80.92,7.468],[80.914,7.463],[80.907,7.459],[80.894,7.473],[80.878,7.465],[80.837,7.466],[80.805,7.44],[80.776,7.436],[80.739,7.466],[80.724,7.472],[80.71,7.463],[80.704,7.448],[80.708,7.411],[80.686,7.388],[80.65,7.39],[80.586,7.429],[80.566,7.458],[80.566,7.468],[80.572,7.475],[80.574,7.488],[80.571,7.5],[80.566,7.511],[80.56,7.521],[80.55,7.541],[80.552,7.562],[80.566,7.575],[80.57,7.583],[80.57,7.592],[80.573,7.604],[80.573,7.616],[80.555,7.634],[80.549,7.665],[80.546,7.698],[80.541,7.705],[80.538,7.708],[80.537,7.725],[80.531,7.742],[80.521,7.759],[80.513,7.774],[80.506,7.776],[80.497,7.781],[80.494,7.799],[80.499,7.815],[80.52,7.831],[80.554,7.843],[80.572,7.864],[80.588,7.864],[80.6,7.856],[80.615,7.866],[80.622,7.878],[80.629,7.883],[80.636,7.887],[80.635,7.894],[80.633,7.898],[80.645,7.911],[80.655,7.926],[80.655,7.945],[80.66,7.961],[80.67,7.961],[80.678,7.959],[80.684,7.963],[80.703,7.983],[80.716,7.994],[80.735,8.004],[80.756,8.012]]]}},{"type":"Feature","id":"LK-23","properties":{"id":"LK-23","countryCode":"LK","isoSubdivision":"LK-23","name":"Nuwara Eliya","name_en":"Nuwara Eliya","name_ko":"누와라엘리야 구","type":"District","labelLongitude":80.699,"labelLatitude":6.936,"minZoom":8.7},"geometry":{"type":"Polygon","coordinates":[[[80.643,6.754],[80.588,6.761],[80.536,6.773],[80.511,6.775],[80.491,6.791],[80.494,6.801],[80.502,6.808],[80.495,6.815],[80.496,6.832],[80.507,6.842],[80.506,6.855],[80.498,6.881],[80.475,6.898],[80.446,6.908],[80.437,6.937],[80.444,6.974],[80.438,6.98],[80.432,6.988],[80.438,6.995],[80.445,6.998],[80.459,7.01],[80.468,7.024],[80.465,7.025],[80.463,7.028],[80.492,7.026],[80.537,6.959],[80.566,6.942],[80.588,6.965],[80.6,6.999],[80.588,7.015],[80.573,7.029],[80.555,7.061],[80.547,7.064],[80.539,7.062],[80.562,7.08],[80.598,7.075],[80.618,7.08],[80.647,7.1],[80.667,7.1],[80.684,7.096],[80.748,7.172],[80.769,7.206],[80.76,7.243],[80.756,7.272],[80.774,7.257],[80.788,7.237],[80.799,7.234],[80.807,7.233],[80.83,7.197],[80.867,7.194],[80.91,7.2],[80.951,7.192],[80.95,7.174],[80.958,7.149],[80.956,7.14],[80.958,7.131],[80.962,7.126],[80.966,7.121],[80.959,7.112],[80.954,7.103],[80.96,7.085],[80.961,7.079],[80.958,7.071],[80.951,7.063],[80.943,7.056],[80.934,7.038],[80.93,7.018],[80.907,6.986],[80.87,6.977],[80.851,6.969],[80.836,6.954],[80.831,6.935],[80.817,6.919],[80.799,6.92],[80.781,6.919],[80.782,6.903],[80.814,6.887],[80.82,6.873],[80.826,6.858],[80.831,6.852],[80.835,6.845],[80.82,6.821],[80.829,6.816],[80.839,6.811],[80.828,6.797],[80.809,6.792],[80.753,6.762],[80.722,6.758],[80.688,6.759],[80.664,6.757],[80.643,6.754]]]}},{"type":"Feature","id":"LK-31","properties":{"id":"LK-31","countryCode":"LK","isoSubdivision":"LK-31","name":"Galle","name_en":"Galle","name_ko":"갈 구","type":"District","labelLongitude":80.239,"labelLatitude":6.195,"minZoom":8.7},"geometry":{"type":"Polygon","coordinates":[[[80.385,5.964],[80.379,5.965],[80.374,5.967],[80.37,5.972],[80.366,5.976],[80.358,5.978],[80.354,5.977],[80.35,5.974],[80.346,5.971],[80.341,5.971],[80.339,5.972],[80.338,5.974],[80.331,5.983],[80.328,5.985],[80.327,5.985],[80.32,5.988],[80.278,6.003],[80.26,6.007],[80.248,6.009],[80.226,6.027],[80.221,6.029],[80.211,6.034],[80.204,6.026],[80.185,6.041],[80.104,6.127],[80.097,6.132],[80.096,6.133],[80.094,6.136],[80.093,6.14],[80.093,6.149],[80.091,6.153],[80.087,6.158],[80.078,6.169],[80.032,6.266],[80.03,6.276],[80.03,6.284],[80.031,6.292],[80.029,6.297],[80.021,6.315],[80.012,6.361],[79.994,6.394],[79.982,6.441],[79.989,6.44],[79.994,6.432],[80,6.427],[80.007,6.431],[80.017,6.435],[80.024,6.428],[80.029,6.42],[80.066,6.403],[80.084,6.399],[80.104,6.39],[80.12,6.376],[80.137,6.365],[80.18,6.357],[80.207,6.372],[80.238,6.375],[80.267,6.352],[80.283,6.337],[80.298,6.325],[80.3,6.345],[80.293,6.367],[80.293,6.388],[80.311,6.396],[80.346,6.418],[80.382,6.426],[80.394,6.413],[80.408,6.402],[80.425,6.395],[80.439,6.395],[80.471,6.379],[80.487,6.38],[80.495,6.368],[80.475,6.361],[80.461,6.348],[80.473,6.33],[80.488,6.315],[80.482,6.286],[80.452,6.293],[80.432,6.311],[80.411,6.327],[80.395,6.332],[80.379,6.328],[80.389,6.309],[80.408,6.296],[80.43,6.266],[80.437,6.238],[80.42,6.216],[80.384,6.223],[80.395,6.21],[80.4,6.194],[80.392,6.173],[80.383,6.154],[80.39,6.134],[80.405,6.12],[80.423,6.108],[80.439,6.094],[80.425,6.077],[80.409,6.061],[80.396,6.056],[80.39,6.046],[80.393,6.036],[80.401,6.032],[80.418,6.024],[80.412,6.012],[80.394,6.006],[80.383,5.986],[80.383,5.975],[80.385,5.965],[80.385,5.964]]]}},{"type":"Feature","id":"LK-32","properties":{"id":"LK-32","countryCode":"LK","isoSubdivision":"LK-32","name":"Matara","name_en":"Matara","name_ko":"마타라 구","type":"District","labelLongitude":80.554,"labelLatitude":6.165,"minZoom":8.7},"geometry":{"type":"Polygon","coordinates":[[[80.73,5.976],[80.714,5.958],[80.673,5.96],[80.656,5.958],[80.643,5.953],[80.629,5.945],[80.605,5.927],[80.598,5.925],[80.591,5.924],[80.574,5.93],[80.557,5.939],[80.547,5.942],[80.54,5.944],[80.482,5.937],[80.465,5.941],[80.457,5.949],[80.451,5.96],[80.447,5.966],[80.444,5.971],[80.427,5.961],[80.412,5.96],[80.385,5.964],[80.385,5.965],[80.383,5.975],[80.383,5.986],[80.394,6.006],[80.412,6.012],[80.418,6.024],[80.401,6.032],[80.393,6.036],[80.39,6.046],[80.396,6.056],[80.409,6.061],[80.425,6.077],[80.439,6.094],[80.423,6.108],[80.405,6.12],[80.39,6.134],[80.383,6.154],[80.392,6.173],[80.4,6.194],[80.395,6.21],[80.384,6.223],[80.42,6.216],[80.437,6.238],[80.43,6.266],[80.408,6.296],[80.389,6.309],[80.379,6.328],[80.395,6.332],[80.411,6.327],[80.432,6.311],[80.452,6.293],[80.482,6.286],[80.488,6.315],[80.473,6.33],[80.461,6.348],[80.475,6.361],[80.495,6.368],[80.515,6.37],[80.534,6.375],[80.541,6.391],[80.558,6.391],[80.602,6.397],[80.617,6.37],[80.61,6.353],[80.628,6.349],[80.652,6.353],[80.663,6.34],[80.662,6.33],[80.675,6.321],[80.67,6.316],[80.67,6.306],[80.661,6.302],[80.662,6.295],[80.656,6.277],[80.662,6.261],[80.624,6.233],[80.612,6.189],[80.629,6.177],[80.648,6.17],[80.657,6.172],[80.662,6.166],[80.657,6.156],[80.652,6.147],[80.655,6.13],[80.671,6.121],[80.683,6.123],[80.694,6.121],[80.691,6.112],[80.681,6.104],[80.692,6.065],[80.66,6.051],[80.662,6.035],[80.676,6.026],[80.686,6.025],[80.695,6.021],[80.694,6.012],[80.687,6.009],[80.699,5.99],[80.724,5.979],[80.73,5.976]]]}},{"type":"Feature","id":"LK-33","properties":{"id":"LK-33","countryCode":"LK","isoSubdivision":"LK-33","name":"Hambantota","name_en":"Hambantota","name_ko":"함반토타 구","type":"District","labelLongitude":81.162,"labelLatitude":6.27,"minZoom":8.7},"geometry":{"type":"Polygon","coordinates":[[[81.712,6.51],[81.681,6.462],[81.65,6.431],[81.592,6.39],[81.573,6.384],[81.548,6.371],[81.362,6.225],[81.325,6.205],[81.204,6.163],[81.203,6.177],[81.203,6.178],[81.195,6.184],[81.194,6.183],[81.188,6.182],[81.184,6.174],[81.182,6.157],[81.176,6.15],[81.168,6.148],[81.156,6.143],[81.134,6.13],[81.113,6.12],[81.008,6.098],[80.958,6.081],[80.903,6.071],[80.877,6.061],[80.862,6.04],[80.835,6.045],[80.819,6.039],[80.809,6.035],[80.771,6.007],[80.732,5.978],[80.73,5.976],[80.724,5.979],[80.699,5.99],[80.687,6.009],[80.694,6.012],[80.695,6.021],[80.686,6.025],[80.676,6.026],[80.662,6.035],[80.66,6.051],[80.692,6.065],[80.681,6.104],[80.691,6.112],[80.694,6.121],[80.683,6.123],[80.671,6.121],[80.655,6.13],[80.652,6.147],[80.657,6.156],[80.662,6.166],[80.657,6.172],[80.648,6.17],[80.629,6.177],[80.612,6.189],[80.624,6.233],[80.662,6.261],[80.656,6.277],[80.662,6.295],[80.661,6.302],[80.67,6.306],[80.727,6.295],[80.801,6.269],[80.82,6.266],[80.839,6.27],[80.858,6.272],[80.873,6.26],[80.885,6.247],[80.922,6.239],[80.942,6.232],[80.948,6.25],[80.938,6.275],[80.92,6.296],[80.944,6.312],[80.97,6.325],[80.998,6.334],[81.02,6.351],[81.01,6.373],[81.015,6.396],[81.027,6.396],[81.041,6.397],[81.049,6.408],[81.049,6.422],[81.061,6.413],[81.071,6.424],[81.096,6.424],[81.121,6.421],[81.138,6.415],[81.145,6.396],[81.155,6.395],[81.166,6.396],[81.175,6.402],[81.188,6.403],[81.207,6.379],[81.222,6.353],[81.247,6.343],[81.274,6.358],[81.284,6.368],[81.299,6.374],[81.329,6.382],[81.388,6.405],[81.399,6.412],[81.401,6.41],[81.41,6.408],[81.437,6.418],[81.465,6.412],[81.478,6.433],[81.478,6.442],[81.477,6.45],[81.482,6.456],[81.486,6.463],[81.481,6.476],[81.48,6.493],[81.5,6.509],[81.524,6.52],[81.542,6.537],[81.563,6.553],[81.59,6.558],[81.608,6.579],[81.638,6.542],[81.649,6.541],[81.662,6.54],[81.679,6.521],[81.703,6.513],[81.712,6.51]]]}},{"type":"Feature","id":"LK-41","properties":{"id":"LK-41","countryCode":"LK","isoSubdivision":"LK-41","name":"Jaffna","name_en":"Jaffna","name_ko":"자프나 구","type":"District","labelLongitude":79.693,"labelLatitude":9.507,"minZoom":8.7},"geometry":{"type":"MultiPolygon","coordinates":[[[[80.442,9.577],[80.444,9.576],[80.444,9.583],[80.408,9.602],[80.32,9.673],[80.248,9.755],[80.211,9.775],[80.154,9.788],[80.139,9.799],[80.137,9.814],[80.158,9.823],[80.165,9.824],[80.185,9.828],[80.227,9.83],[80.247,9.826],[80.261,9.816],[80.27,9.784],[80.279,9.77],[80.41,9.617],[80.429,9.603],[80.468,9.581],[80.626,9.455],[80.62,9.45],[80.615,9.446],[80.547,9.492],[80.523,9.503],[80.502,9.508],[80.499,9.509],[80.496,9.51],[80.478,9.524],[80.471,9.528],[80.465,9.529],[80.456,9.529],[80.454,9.539],[80.442,9.577]]],[[[80.256,9.616],[80.205,9.638],[80.186,9.649],[80.174,9.649],[80.176,9.624],[80.183,9.617],[80.194,9.609],[80.2,9.599],[80.194,9.586],[80.186,9.584],[80.179,9.588],[80.172,9.594],[80.153,9.603],[80.115,9.636],[80.094,9.645],[80.105,9.633],[80.125,9.616],[80.136,9.604],[80.111,9.608],[80.087,9.618],[80.039,9.645],[80.001,9.675],[79.978,9.683],[79.976,9.684],[79.967,9.69],[79.959,9.693],[79.958,9.686],[79.947,9.693],[79.943,9.703],[79.941,9.714],[79.937,9.727],[79.93,9.738],[79.927,9.744],[79.916,9.757],[79.91,9.768],[79.931,9.779],[79.971,9.815],[79.988,9.823],[79.989,9.823],[80.067,9.816],[80.107,9.821],[80.122,9.819],[80.128,9.806],[80.127,9.785],[80.13,9.777],[80.139,9.775],[80.147,9.773],[80.171,9.767],[80.176,9.765],[80.18,9.756],[80.191,9.756],[80.2,9.759],[80.203,9.76],[80.208,9.76],[80.211,9.761],[80.219,9.756],[80.222,9.754],[80.25,9.724],[80.291,9.681],[80.277,9.652],[80.256,9.616]]],[[[79.731,9.5],[79.723,9.493],[79.715,9.485],[79.689,9.484],[79.666,9.491],[79.656,9.504],[79.656,9.545],[79.659,9.555],[79.665,9.554],[79.672,9.546],[79.676,9.535],[79.694,9.53],[79.714,9.528],[79.719,9.524],[79.731,9.5]]],[[[79.896,9.617],[79.88,9.629],[79.865,9.652],[79.841,9.699],[79.852,9.717],[79.854,9.738],[79.861,9.756],[79.882,9.761],[79.894,9.757],[79.895,9.749],[79.891,9.737],[79.888,9.724],[79.889,9.71],[79.89,9.699],[79.89,9.698],[79.891,9.696],[79.895,9.688],[79.899,9.683],[79.903,9.679],[79.907,9.678],[79.926,9.679],[79.93,9.676],[79.931,9.661],[79.934,9.655],[79.945,9.648],[79.96,9.641],[79.973,9.634],[79.974,9.631],[79.978,9.624],[79.971,9.617],[79.958,9.617],[79.944,9.622],[79.934,9.628],[79.927,9.629],[79.909,9.619],[79.896,9.617]]]]}},{"type":"Feature","id":"LK-42","properties":{"id":"LK-42","countryCode":"LK","isoSubdivision":"LK-42","name":"Kilinochchi","name_en":"Kilinochchi","name_ko":"킬리노치치 구","type":"District","labelLongitude":80.334,"labelLatitude":9.384,"minZoom":8.7},"geometry":{"type":"MultiPolygon","coordinates":[[[[80.291,9.681],[80.339,9.629],[80.37,9.61],[80.442,9.577],[80.454,9.539],[80.456,9.529],[80.444,9.528],[80.436,9.525],[80.435,9.523],[80.433,9.52],[80.429,9.518],[80.416,9.527],[80.41,9.528],[80.378,9.528],[80.369,9.53],[80.298,9.591],[80.267,9.611],[80.256,9.616],[80.277,9.652],[80.291,9.681]]],[[[80.11,9.209],[80.116,9.234],[80.116,9.292],[80.118,9.3],[80.116,9.306],[80.105,9.308],[80.077,9.323],[80.066,9.333],[80.059,9.351],[80.058,9.355],[80.053,9.378],[80.053,9.392],[80.065,9.404],[80.087,9.415],[80.112,9.423],[80.132,9.426],[80.141,9.43],[80.163,9.459],[80.165,9.461],[80.169,9.464],[80.177,9.468],[80.186,9.472],[80.197,9.473],[80.188,9.491],[80.182,9.499],[80.176,9.506],[80.161,9.521],[80.142,9.535],[80.068,9.578],[80.053,9.596],[80.085,9.595],[80.116,9.583],[80.176,9.549],[80.233,9.534],[80.249,9.525],[80.272,9.504],[80.278,9.493],[80.266,9.487],[80.269,9.48],[80.272,9.473],[80.266,9.467],[80.287,9.453],[80.336,9.465],[80.427,9.5],[80.451,9.498],[80.504,9.483],[80.567,9.455],[80.615,9.446],[80.61,9.441],[80.608,9.425],[80.586,9.408],[80.584,9.385],[80.586,9.363],[80.563,9.375],[80.544,9.392],[80.536,9.401],[80.531,9.4],[80.517,9.354],[80.501,9.345],[80.475,9.344],[80.43,9.346],[80.416,9.345],[80.399,9.302],[80.373,9.3],[80.346,9.305],[80.318,9.304],[80.242,9.295],[80.215,9.262],[80.218,9.234],[80.192,9.237],[80.173,9.223],[80.152,9.212],[80.117,9.209],[80.11,9.209]]]]}},{"type":"Feature","id":"LK-43","properties":{"id":"LK-43","countryCode":"LK","isoSubdivision":"LK-43","name":"Mannar","name_en":"Mannar","name_ko":"만나르 구","type":"District","labelLongitude":80.085,"labelLatitude":8.844,"minZoom":8.7},"geometry":{"type":"MultiPolygon","coordinates":[[[[79.913,8.572],[79.917,8.576],[79.918,8.581],[79.928,8.612],[79.929,8.613],[79.93,8.614],[79.932,8.622],[79.942,8.642],[79.951,8.74],[79.926,8.802],[79.928,8.813],[79.93,8.883],[79.93,8.884],[79.928,8.908],[79.925,8.92],[79.92,8.929],[79.916,8.939],[79.925,8.944],[79.938,8.946],[79.947,8.949],[80.005,9.001],[80.035,9.015],[80.048,9.026],[80.055,9.051],[80.067,9.076],[80.073,9.11],[80.106,9.193],[80.107,9.197],[80.11,9.209],[80.117,9.209],[80.152,9.212],[80.173,9.223],[80.192,9.237],[80.193,9.203],[80.199,9.171],[80.217,9.141],[80.219,9.134],[80.221,9.127],[80.22,9.112],[80.216,9.097],[80.218,9.074],[80.217,9.053],[80.195,9.046],[80.19,9.036],[80.187,9.025],[80.182,9.013],[80.178,9.002],[80.183,8.993],[80.188,8.986],[80.175,8.95],[80.34,8.959],[80.367,8.946],[80.383,8.922],[80.398,8.883],[80.393,8.849],[80.339,8.829],[80.283,8.822],[80.247,8.826],[80.218,8.811],[80.204,8.777],[80.178,8.775],[80.174,8.76],[80.174,8.747],[80.198,8.729],[80.235,8.68],[80.138,8.655],[80.089,8.655],[80.044,8.673],[80.052,8.615],[80.05,8.522],[80.041,8.523],[80.032,8.527],[80.006,8.542],[79.98,8.553],[79.951,8.555],[79.924,8.565],[79.913,8.572]]],[[[79.714,9.076],[79.703,9.08],[79.698,9.09],[79.701,9.099],[79.714,9.104],[79.759,9.104],[79.779,9.099],[79.799,9.093],[79.842,9.077],[79.882,9.054],[79.917,9.021],[79.916,9.021],[79.9,9.024],[79.871,9.039],[79.854,9.041],[79.88,9.012],[79.901,8.989],[79.91,8.973],[79.886,8.976],[79.87,8.988],[79.859,9.001],[79.851,9.007],[79.841,9.013],[79.8,9.049],[79.779,9.058],[79.759,9.067],[79.744,9.071],[79.736,9.073],[79.714,9.076]]]]}},{"type":"Feature","id":"LK-44","properties":{"id":"LK-44","countryCode":"LK","isoSubdivision":"LK-44","name":"Vavuniya","name_en":"Vavuniya","name_ko":"바부니야 구","type":"District","labelLongitude":80.479,"labelLatitude":8.898,"minZoom":8.7},"geometry":{"type":"Polygon","coordinates":[[[80.753,8.905],[80.726,8.9],[80.699,8.893],[80.67,8.872],[80.596,8.87],[80.598,8.848],[80.624,8.839],[80.642,8.815],[80.651,8.789],[80.627,8.771],[80.613,8.754],[80.601,8.735],[80.579,8.71],[80.553,8.688],[80.527,8.667],[80.495,8.667],[80.478,8.679],[80.46,8.689],[80.429,8.675],[80.39,8.624],[80.371,8.581],[80.353,8.574],[80.338,8.546],[80.328,8.547],[80.318,8.55],[80.297,8.561],[80.286,8.582],[80.282,8.596],[80.276,8.608],[80.261,8.615],[80.246,8.62],[80.236,8.648],[80.235,8.68],[80.198,8.729],[80.174,8.747],[80.174,8.76],[80.178,8.775],[80.204,8.777],[80.218,8.811],[80.247,8.826],[80.283,8.822],[80.339,8.829],[80.393,8.849],[80.398,8.883],[80.383,8.922],[80.367,8.946],[80.34,8.959],[80.386,8.988],[80.414,9.01],[80.432,9.037],[80.431,9.054],[80.427,9.071],[80.427,9.08],[80.426,9.088],[80.412,9.091],[80.404,9.101],[80.407,9.116],[80.425,9.117],[80.444,9.116],[80.478,9.117],[80.503,9.101],[80.519,9.079],[80.543,9.089],[80.56,9.105],[80.57,9.109],[80.58,9.115],[80.582,9.12],[80.584,9.125],[80.617,9.126],[80.648,9.114],[80.651,9.082],[80.678,9.079],[80.69,9.059],[80.68,9.045],[80.678,9.031],[80.694,9.035],[80.709,9.045],[80.74,9.04],[80.772,9.021],[80.784,9.005],[80.766,8.937],[80.757,8.923],[80.753,8.905]]]}},{"type":"Feature","id":"LK-45","properties":{"id":"LK-45","countryCode":"LK","isoSubdivision":"LK-45","name":"Mullaitivu","name_en":"Mullaitivu","name_ko":"물라이티부 구","type":"District","labelLongitude":80.567,"labelLatitude":9.24,"minZoom":8.7},"geometry":{"type":"Polygon","coordinates":[[[80.626,9.455],[80.744,9.36],[80.745,9.358],[80.752,9.346],[80.764,9.332],[80.785,9.312],[80.799,9.295],[80.787,9.289],[80.78,9.292],[80.779,9.292],[80.768,9.305],[80.763,9.308],[80.762,9.308],[80.744,9.311],[80.737,9.309],[80.74,9.301],[80.742,9.298],[80.794,9.251],[80.814,9.24],[80.814,9.239],[80.806,9.252],[80.801,9.263],[80.804,9.272],[80.817,9.275],[80.824,9.27],[80.834,9.239],[80.844,9.22],[80.882,9.145],[80.875,9.148],[80.853,9.156],[80.84,9.156],[80.834,9.142],[80.842,9.138],[80.859,9.135],[80.873,9.126],[80.873,9.125],[80.875,9.104],[80.882,9.104],[80.886,9.109],[80.889,9.112],[80.892,9.113],[80.896,9.117],[80.902,9.097],[80.902,9.094],[80.916,9.062],[80.935,9.033],[80.955,9.021],[80.956,9.02],[80.958,9.018],[80.958,9.011],[80.954,9.004],[80.944,9.001],[80.942,9.003],[80.931,9.021],[80.919,9.027],[80.891,9.034],[80.875,9.041],[80.883,9.031],[80.887,9.026],[80.923,8.992],[80.923,8.989],[80.907,8.982],[80.888,8.977],[80.87,8.966],[80.851,8.961],[80.805,8.955],[80.766,8.937],[80.784,9.005],[80.772,9.021],[80.74,9.04],[80.709,9.045],[80.694,9.035],[80.678,9.031],[80.68,9.045],[80.69,9.059],[80.678,9.079],[80.651,9.082],[80.648,9.114],[80.617,9.126],[80.584,9.125],[80.582,9.12],[80.58,9.115],[80.57,9.109],[80.56,9.105],[80.543,9.089],[80.519,9.079],[80.503,9.101],[80.478,9.117],[80.444,9.116],[80.425,9.117],[80.407,9.116],[80.404,9.101],[80.412,9.091],[80.426,9.088],[80.427,9.08],[80.427,9.071],[80.431,9.054],[80.432,9.037],[80.414,9.01],[80.386,8.988],[80.34,8.959],[80.175,8.95],[80.188,8.986],[80.183,8.993],[80.178,9.002],[80.182,9.013],[80.187,9.025],[80.19,9.036],[80.195,9.046],[80.217,9.053],[80.218,9.074],[80.216,9.097],[80.22,9.112],[80.221,9.127],[80.219,9.134],[80.217,9.141],[80.199,9.171],[80.193,9.203],[80.192,9.237],[80.218,9.234],[80.215,9.262],[80.242,9.295],[80.318,9.304],[80.346,9.305],[80.373,9.3],[80.399,9.302],[80.416,9.345],[80.43,9.346],[80.475,9.344],[80.501,9.345],[80.517,9.354],[80.531,9.4],[80.536,9.401],[80.544,9.392],[80.563,9.375],[80.586,9.363],[80.584,9.385],[80.586,9.408],[80.608,9.425],[80.61,9.441],[80.615,9.446],[80.62,9.45],[80.626,9.455]]]}},{"type":"Feature","id":"LK-51","properties":{"id":"LK-51","countryCode":"LK","isoSubdivision":"LK-51","name":"Batticaloa","name_en":"Batticaloa","name_ko":"바티칼로아 구","type":"District","labelLongitude":81.461,"labelLatitude":7.851,"minZoom":8.7},"geometry":{"type":"MultiPolygon","coordinates":[[[[81.417,8.254],[81.42,8.243],[81.441,8.174],[81.448,8.128],[81.43,8.103],[81.42,8.144],[81.419,8.15],[81.404,8.192],[81.396,8.192],[81.395,8.16],[81.396,8.15],[81.395,8.148],[81.395,8.143],[81.396,8.137],[81.4,8.133],[81.408,8.13],[81.41,8.127],[81.418,8.106],[81.436,8.093],[81.452,8.095],[81.458,8.116],[81.464,8.116],[81.471,8.105],[81.472,8.101],[81.481,8.065],[81.489,8.052],[81.5,8.039],[81.507,8.028],[81.52,7.999],[81.525,8.004],[81.531,8.009],[81.534,8.014],[81.538,8.004],[81.534,7.999],[81.536,7.996],[81.538,7.993],[81.54,7.991],[81.54,7.986],[81.545,7.99],[81.556,7.995],[81.561,7.999],[81.563,7.994],[81.566,7.987],[81.564,7.979],[81.56,7.971],[81.56,7.964],[81.561,7.958],[81.568,7.945],[81.58,7.936],[81.588,7.929],[81.595,7.917],[81.591,7.917],[81.588,7.916],[81.585,7.914],[81.584,7.912],[81.582,7.911],[81.579,7.9],[81.576,7.889],[81.588,7.855],[81.594,7.848],[81.608,7.832],[81.63,7.836],[81.636,7.836],[81.643,7.815],[81.651,7.802],[81.654,7.798],[81.697,7.753],[81.711,7.731],[81.713,7.712],[81.691,7.705],[81.681,7.712],[81.656,7.743],[81.643,7.754],[81.627,7.76],[81.626,7.76],[81.625,7.76],[81.613,7.759],[81.603,7.748],[81.595,7.726],[81.607,7.721],[81.619,7.719],[81.629,7.723],[81.636,7.733],[81.648,7.729],[81.659,7.723],[81.663,7.719],[81.665,7.716],[81.664,7.705],[81.677,7.693],[81.69,7.68],[81.701,7.669],[81.712,7.651],[81.712,7.65],[81.706,7.645],[81.705,7.639],[81.707,7.632],[81.712,7.623],[81.718,7.63],[81.714,7.644],[81.726,7.64],[81.749,7.623],[81.755,7.615],[81.773,7.568],[81.772,7.566],[81.766,7.541],[81.767,7.538],[81.772,7.528],[81.773,7.524],[81.769,7.517],[81.762,7.512],[81.758,7.505],[81.763,7.497],[81.768,7.49],[81.769,7.485],[81.77,7.485],[81.772,7.479],[81.78,7.472],[81.769,7.465],[81.77,7.461],[81.751,7.458],[81.724,7.453],[81.703,7.437],[81.668,7.403],[81.661,7.419],[81.658,7.476],[81.65,7.5],[81.65,7.525],[81.626,7.512],[81.56,7.505],[81.494,7.516],[81.477,7.533],[81.445,7.551],[81.436,7.566],[81.434,7.583],[81.444,7.612],[81.446,7.642],[81.414,7.648],[81.383,7.657],[81.361,7.678],[81.327,7.727],[81.3,7.735],[81.268,7.734],[81.241,7.739],[81.227,7.816],[81.236,7.893],[81.243,7.922],[81.266,7.938],[81.294,7.941],[81.331,7.937],[81.34,7.937],[81.332,7.975],[81.315,8.011],[81.308,8.048],[81.316,8.205],[81.31,8.257],[81.327,8.263],[81.417,8.254]]],[[[81.739,7.66],[81.737,7.671],[81.733,7.679],[81.728,7.689],[81.725,7.699],[81.726,7.709],[81.729,7.718],[81.73,7.728],[81.725,7.74],[81.738,7.727],[81.75,7.699],[81.759,7.685],[81.761,7.68],[81.771,7.655],[81.795,7.616],[81.806,7.599],[81.823,7.511],[81.823,7.491],[81.808,7.479],[81.794,7.49],[81.789,7.495],[81.787,7.497],[81.787,7.502],[81.786,7.507],[81.786,7.509],[81.79,7.572],[81.787,7.593],[81.776,7.603],[81.772,7.612],[81.739,7.66]]]]}},{"type":"Feature","id":"LK-52","properties":{"id":"LK-52","countryCode":"LK","isoSubdivision":"LK-52","name":"Ampara","name_en":"Ampara","name_ko":"암파라 구","type":"District","labelLongitude":81.724,"labelLatitude":7.163,"minZoom":8.7},"geometry":{"type":"Polygon","coordinates":[[[81.77,7.461],[81.771,7.457],[81.779,7.455],[81.787,7.466],[81.793,7.466],[81.801,7.425],[81.801,7.41],[81.808,7.41],[81.808,7.411],[81.809,7.425],[81.811,7.439],[81.815,7.45],[81.821,7.459],[81.821,7.466],[81.821,7.467],[81.819,7.473],[81.82,7.477],[81.826,7.474],[81.835,7.466],[81.838,7.458],[81.84,7.436],[81.856,7.412],[81.881,7.327],[81.876,7.092],[81.878,7.076],[81.889,7.041],[81.89,7.02],[81.885,6.98],[81.839,6.821],[81.836,6.805],[81.835,6.783],[81.832,6.765],[81.817,6.737],[81.814,6.725],[81.808,6.708],[81.789,6.678],[81.78,6.664],[81.787,6.639],[81.776,6.61],[81.712,6.51],[81.703,6.513],[81.679,6.521],[81.662,6.54],[81.649,6.541],[81.638,6.542],[81.608,6.579],[81.634,6.946],[81.629,6.965],[81.617,6.983],[81.617,7.002],[81.61,7.021],[81.615,7.041],[81.617,7.06],[81.587,7.077],[81.552,7.086],[81.546,7.091],[81.54,7.095],[81.533,7.095],[81.525,7.098],[81.517,7.112],[81.513,7.127],[81.5,7.151],[81.512,7.182],[81.533,7.206],[81.549,7.219],[81.527,7.249],[81.524,7.27],[81.51,7.295],[81.488,7.314],[81.484,7.333],[81.485,7.357],[81.474,7.41],[81.476,7.423],[81.469,7.424],[81.463,7.428],[81.477,7.451],[81.458,7.456],[81.433,7.443],[81.421,7.439],[81.41,7.434],[81.406,7.424],[81.399,7.414],[81.385,7.41],[81.375,7.409],[81.375,7.396],[81.381,7.384],[81.382,7.373],[81.377,7.363],[81.37,7.355],[81.366,7.348],[81.345,7.336],[81.321,7.337],[81.321,7.299],[81.326,7.262],[81.307,7.248],[81.287,7.241],[81.278,7.257],[81.271,7.277],[81.267,7.295],[81.258,7.313],[81.251,7.324],[81.247,7.333],[81.235,7.336],[81.226,7.334],[81.211,7.348],[81.2,7.372],[81.193,7.416],[81.189,7.428],[81.186,7.44],[81.189,7.449],[81.195,7.46],[81.205,7.508],[81.201,7.558],[81.157,7.568],[81.108,7.541],[81.087,7.521],[81.075,7.516],[81.065,7.514],[81.046,7.508],[81.022,7.549],[81.014,7.573],[81.012,7.589],[81.006,7.603],[80.991,7.612],[80.988,7.615],[80.998,7.662],[80.996,7.682],[80.988,7.704],[80.989,7.721],[81.008,7.721],[81.045,7.724],[81.063,7.728],[81.1,7.714],[81.129,7.684],[81.178,7.669],[81.201,7.656],[81.221,7.654],[81.223,7.664],[81.228,7.676],[81.234,7.682],[81.24,7.693],[81.237,7.717],[81.241,7.739],[81.268,7.734],[81.3,7.735],[81.327,7.727],[81.361,7.678],[81.383,7.657],[81.414,7.648],[81.446,7.642],[81.444,7.612],[81.434,7.583],[81.436,7.566],[81.445,7.551],[81.477,7.533],[81.494,7.516],[81.56,7.505],[81.626,7.512],[81.65,7.525],[81.65,7.5],[81.658,7.476],[81.661,7.419],[81.668,7.403],[81.703,7.437],[81.724,7.453],[81.751,7.458],[81.77,7.461]]]}},{"type":"Feature","id":"LK-53","properties":{"id":"LK-53","countryCode":"LK","isoSubdivision":"LK-53","name":"Trincomalee","name_en":"Trincomalee","name_ko":"트링코말리 구","type":"District","labelLongitude":81.085,"labelLatitude":8.562,"minZoom":8.7},"geometry":{"type":"Polygon","coordinates":[[[80.923,8.989],[80.923,8.973],[80.935,8.965],[80.924,8.955],[80.915,8.944],[80.931,8.932],[80.948,8.933],[80.961,8.946],[80.972,8.964],[80.978,8.98],[80.979,8.98],[81.015,8.937],[81.047,8.882],[81.06,8.869],[81.078,8.863],[81.093,8.852],[81.114,8.8],[81.12,8.794],[81.125,8.788],[81.126,8.788],[81.15,8.777],[81.162,8.751],[81.177,8.699],[81.179,8.708],[81.182,8.712],[81.188,8.711],[81.198,8.706],[81.195,8.696],[81.222,8.666],[81.232,8.651],[81.232,8.633],[81.224,8.626],[81.214,8.621],[81.204,8.61],[81.205,8.61],[81.212,8.612],[81.219,8.614],[81.221,8.615],[81.225,8.617],[81.247,8.57],[81.25,8.546],[81.225,8.542],[81.23,8.558],[81.223,8.571],[81.212,8.573],[81.204,8.555],[81.207,8.542],[81.214,8.533],[81.218,8.523],[81.211,8.507],[81.205,8.512],[81.194,8.52],[81.177,8.531],[81.159,8.535],[81.142,8.528],[81.129,8.51],[81.134,8.501],[81.149,8.504],[81.17,8.521],[81.185,8.506],[81.198,8.487],[81.213,8.472],[81.235,8.466],[81.281,8.467],[81.297,8.477],[81.286,8.5],[81.313,8.512],[81.323,8.515],[81.334,8.515],[81.334,8.514],[81.346,8.508],[81.357,8.496],[81.366,8.482],[81.373,8.442],[81.388,8.391],[81.389,8.377],[81.389,8.364],[81.377,8.373],[81.363,8.399],[81.352,8.405],[81.351,8.397],[81.356,8.365],[81.357,8.362],[81.362,8.35],[81.369,8.347],[81.375,8.344],[81.389,8.344],[81.399,8.339],[81.406,8.301],[81.413,8.274],[81.415,8.27],[81.417,8.254],[81.327,8.263],[81.31,8.257],[81.295,8.257],[81.282,8.257],[81.273,8.248],[81.267,8.236],[81.259,8.23],[81.252,8.224],[81.246,8.198],[81.241,8.188],[81.227,8.156],[81.201,8.15],[81.197,8.152],[81.193,8.154],[81.204,8.162],[81.21,8.174],[81.206,8.193],[81.207,8.206],[81.205,8.219],[81.198,8.229],[81.185,8.228],[81.168,8.237],[81.151,8.249],[81.135,8.258],[81.117,8.258],[81.041,8.277],[80.999,8.273],[80.987,8.285],[80.982,8.306],[80.967,8.318],[80.951,8.324],[80.939,8.341],[80.924,8.337],[80.946,8.414],[80.948,8.426],[80.952,8.438],[80.965,8.45],[80.979,8.46],[80.987,8.474],[80.98,8.49],[80.969,8.499],[80.96,8.51],[80.946,8.543],[80.919,8.582],[80.915,8.606],[80.905,8.616],[80.896,8.626],[80.895,8.646],[80.911,8.682],[80.903,8.703],[80.885,8.743],[80.884,8.786],[80.901,8.811],[80.913,8.837],[80.903,8.844],[80.895,8.855],[80.88,8.871],[80.836,8.902],[80.811,8.916],[80.781,8.917],[80.753,8.905],[80.757,8.923],[80.766,8.937],[80.805,8.955],[80.851,8.961],[80.87,8.966],[80.888,8.977],[80.907,8.982],[80.923,8.989]]]}},{"type":"Feature","id":"LK-61","properties":{"id":"LK-61","countryCode":"LK","isoSubdivision":"LK-61","name":"Kurunegala","name_en":"Kurunegala","name_ko":"쿠루네갈라 구","type":"District","labelLongitude":80.237,"labelLatitude":7.713,"minZoom":8.7},"geometry":{"type":"Polygon","coordinates":[[[80.422,7.357],[80.413,7.377],[80.398,7.391],[80.374,7.395],[80.352,7.386],[80.349,7.367],[80.35,7.347],[80.347,7.335],[80.34,7.325],[80.329,7.325],[80.28,7.314],[80.257,7.303],[80.235,7.287],[80.214,7.269],[80.194,7.257],[80.176,7.27],[80.151,7.298],[80.145,7.306],[80.143,7.315],[80.134,7.325],[80.106,7.32],[80.081,7.303],[80.052,7.294],[80.025,7.313],[80.001,7.312],[79.963,7.283],[79.941,7.274],[79.939,7.334],[79.902,7.531],[79.9,7.565],[79.902,7.6],[79.913,7.627],[79.928,7.653],[79.932,7.664],[79.939,7.674],[79.953,7.678],[79.965,7.684],[79.96,7.693],[79.947,7.696],[79.952,7.709],[79.959,7.721],[79.972,7.725],[79.986,7.726],[79.997,7.731],[80.004,7.74],[80.001,7.75],[79.995,7.761],[79.998,7.788],[80.008,7.812],[80.01,7.824],[80.013,7.835],[80.026,7.842],[80.038,7.85],[80.041,7.861],[80.046,7.871],[80.067,7.882],[80.071,7.891],[80.073,7.901],[80.079,7.915],[80.094,7.922],[80.093,7.92],[80.092,7.918],[80.098,7.92],[80.106,7.928],[80.106,7.94],[80.112,7.95],[80.133,7.938],[80.145,7.948],[80.133,7.97],[80.139,7.982],[80.147,7.993],[80.148,8.016],[80.147,8.043],[80.151,8.056],[80.153,8.068],[80.141,8.075],[80.128,8.08],[80.118,8.098],[80.114,8.117],[80.104,8.157],[80.104,8.177],[80.103,8.196],[80.124,8.184],[80.216,8.142],[80.236,8.137],[80.255,8.13],[80.27,8.119],[80.289,8.116],[80.322,8.104],[80.352,8.079],[80.368,8.063],[80.386,8.052],[80.405,8.053],[80.42,8.04],[80.421,8.028],[80.419,8.015],[80.422,7.994],[80.42,7.976],[80.422,7.958],[80.436,7.952],[80.452,7.951],[80.461,7.938],[80.463,7.921],[80.473,7.898],[80.477,7.874],[80.474,7.839],[80.499,7.815],[80.494,7.799],[80.497,7.781],[80.506,7.776],[80.513,7.774],[80.521,7.759],[80.531,7.742],[80.537,7.725],[80.538,7.708],[80.541,7.705],[80.546,7.698],[80.549,7.665],[80.555,7.634],[80.573,7.616],[80.573,7.604],[80.57,7.592],[80.57,7.583],[80.566,7.575],[80.552,7.562],[80.55,7.541],[80.56,7.521],[80.566,7.511],[80.571,7.5],[80.574,7.488],[80.572,7.475],[80.566,7.468],[80.566,7.458],[80.554,7.452],[80.542,7.449],[80.55,7.436],[80.556,7.423],[80.545,7.418],[80.531,7.42],[80.516,7.412],[80.518,7.401],[80.516,7.39],[80.499,7.392],[80.483,7.403],[80.469,7.403],[80.466,7.383],[80.462,7.377],[80.458,7.371],[80.459,7.365],[80.461,7.36],[80.443,7.355],[80.422,7.357]]]}},{"type":"Feature","id":"LK-62","properties":{"id":"LK-62","countryCode":"LK","isoSubdivision":"LK-62","name":"Puttalam","name_en":"Puttalam","name_ko":"푸탈람 구","type":"District","labelLongitude":79.911,"labelLatitude":7.949,"minZoom":8.7},"geometry":{"type":"Polygon","coordinates":[[[79.828,7.276],[79.785,7.59],[79.779,7.603],[79.783,7.607],[79.786,7.608],[79.793,7.603],[79.795,7.62],[79.8,7.64],[79.801,7.65],[79.802,7.659],[79.796,7.674],[79.789,7.688],[79.787,7.697],[79.786,7.706],[79.786,7.743],[79.763,7.855],[79.76,7.868],[79.748,7.893],[79.738,7.945],[79.722,7.986],[79.697,8.098],[79.697,8.13],[79.701,8.128],[79.701,8.127],[79.704,8.123],[79.707,8.142],[79.702,8.201],[79.697,8.219],[79.713,8.23],[79.729,8.25],[79.74,8.272],[79.744,8.291],[79.749,8.304],[79.779,8.35],[79.778,8.349],[79.763,8.314],[79.744,8.281],[79.749,8.273],[79.75,8.271],[79.757,8.264],[79.767,8.26],[79.779,8.26],[79.769,8.233],[79.759,8.213],[79.754,8.209],[79.75,8.209],[79.746,8.206],[79.744,8.196],[79.745,8.172],[79.744,8.164],[79.728,8.111],[79.728,8.101],[79.73,8.081],[79.747,8.06],[79.752,8.055],[79.732,8.013],[79.764,7.99],[79.81,7.987],[79.834,8.003],[79.829,8.021],[79.822,8.035],[79.819,8.04],[79.815,8.045],[79.806,8.056],[79.796,8.062],[79.793,8.073],[79.827,8.137],[79.826,8.148],[79.822,8.157],[79.817,8.164],[79.813,8.171],[79.813,8.183],[79.814,8.204],[79.813,8.213],[79.813,8.215],[79.81,8.222],[79.809,8.223],[79.807,8.225],[79.805,8.229],[79.807,8.24],[79.811,8.25],[79.824,8.267],[79.827,8.278],[79.829,8.299],[79.839,8.341],[79.848,8.438],[79.854,8.449],[79.861,8.455],[79.866,8.461],[79.868,8.476],[79.868,8.518],[79.874,8.538],[79.887,8.551],[79.903,8.562],[79.913,8.572],[79.924,8.565],[79.951,8.555],[79.98,8.553],[80.006,8.542],[80.032,8.527],[80.038,8.486],[80.02,8.448],[79.989,8.422],[79.987,8.415],[79.983,8.406],[79.966,8.399],[79.955,8.374],[79.97,8.346],[79.995,8.245],[80.001,8.227],[80.022,8.227],[80.038,8.235],[80.056,8.222],[80.077,8.222],[80.091,8.211],[80.103,8.196],[80.104,8.177],[80.104,8.157],[80.114,8.117],[80.118,8.098],[80.128,8.08],[80.141,8.075],[80.153,8.068],[80.151,8.056],[80.147,8.043],[80.148,8.016],[80.147,7.993],[80.139,7.982],[80.133,7.97],[80.145,7.948],[80.133,7.938],[80.112,7.95],[80.106,7.94],[80.106,7.928],[80.098,7.92],[80.092,7.918],[80.093,7.92],[80.094,7.922],[80.079,7.915],[80.073,7.901],[80.071,7.891],[80.067,7.882],[80.046,7.871],[80.041,7.861],[80.038,7.85],[80.026,7.842],[80.013,7.835],[80.01,7.824],[80.008,7.812],[79.998,7.788],[79.995,7.761],[80.001,7.75],[80.004,7.74],[79.997,7.731],[79.986,7.726],[79.972,7.725],[79.959,7.721],[79.952,7.709],[79.947,7.696],[79.96,7.693],[79.965,7.684],[79.953,7.678],[79.939,7.674],[79.932,7.664],[79.928,7.653],[79.913,7.627],[79.902,7.6],[79.9,7.565],[79.902,7.531],[79.939,7.334],[79.941,7.274],[79.924,7.281],[79.909,7.272],[79.897,7.274],[79.89,7.282],[79.87,7.28],[79.852,7.275],[79.828,7.276]]]}},{"type":"Feature","id":"LK-71","properties":{"id":"LK-71","countryCode":"LK","isoSubdivision":"LK-71","name":"Anuradhapura","name_en":"Anuradhapura","name_ko":"아누라다푸라 구","type":"District","labelLongitude":80.471,"labelLatitude":8.292,"minZoom":8.7},"geometry":{"type":"Polygon","coordinates":[[[80.924,8.337],[80.911,8.324],[80.904,8.306],[80.9,8.288],[80.887,8.281],[80.842,8.281],[80.803,8.274],[80.788,8.235],[80.78,8.193],[80.766,8.155],[80.759,8.116],[80.757,8.082],[80.777,8.066],[80.757,8.039],[80.756,8.012],[80.735,8.004],[80.716,7.994],[80.703,7.983],[80.684,7.963],[80.678,7.959],[80.67,7.961],[80.66,7.961],[80.655,7.945],[80.655,7.926],[80.645,7.911],[80.633,7.898],[80.635,7.894],[80.636,7.887],[80.629,7.883],[80.622,7.878],[80.615,7.866],[80.6,7.856],[80.588,7.864],[80.572,7.864],[80.554,7.843],[80.52,7.831],[80.499,7.815],[80.474,7.839],[80.477,7.874],[80.473,7.898],[80.463,7.921],[80.461,7.938],[80.452,7.951],[80.436,7.952],[80.422,7.958],[80.42,7.976],[80.422,7.994],[80.419,8.015],[80.421,8.028],[80.42,8.04],[80.405,8.053],[80.386,8.052],[80.368,8.063],[80.352,8.079],[80.322,8.104],[80.289,8.116],[80.27,8.119],[80.255,8.13],[80.236,8.137],[80.216,8.142],[80.124,8.184],[80.103,8.196],[80.091,8.211],[80.077,8.222],[80.056,8.222],[80.038,8.235],[80.022,8.227],[80.001,8.227],[79.995,8.245],[79.97,8.346],[79.955,8.374],[79.966,8.399],[79.983,8.406],[79.987,8.415],[79.989,8.422],[80.02,8.448],[80.038,8.486],[80.032,8.527],[80.041,8.523],[80.05,8.522],[80.052,8.615],[80.044,8.673],[80.089,8.655],[80.138,8.655],[80.235,8.68],[80.236,8.648],[80.246,8.62],[80.261,8.615],[80.276,8.608],[80.282,8.596],[80.286,8.582],[80.297,8.561],[80.318,8.55],[80.328,8.547],[80.338,8.546],[80.353,8.574],[80.371,8.581],[80.39,8.624],[80.429,8.675],[80.46,8.689],[80.478,8.679],[80.495,8.667],[80.527,8.667],[80.553,8.688],[80.579,8.71],[80.601,8.735],[80.613,8.754],[80.627,8.771],[80.651,8.789],[80.642,8.815],[80.624,8.839],[80.598,8.848],[80.596,8.87],[80.67,8.872],[80.699,8.893],[80.726,8.9],[80.753,8.905],[80.781,8.917],[80.811,8.916],[80.836,8.902],[80.88,8.871],[80.895,8.855],[80.903,8.844],[80.913,8.837],[80.901,8.811],[80.884,8.786],[80.885,8.743],[80.903,8.703],[80.911,8.682],[80.895,8.646],[80.896,8.626],[80.905,8.616],[80.915,8.606],[80.919,8.582],[80.946,8.543],[80.96,8.51],[80.969,8.499],[80.98,8.49],[80.987,8.474],[80.979,8.46],[80.965,8.45],[80.952,8.438],[80.948,8.426],[80.946,8.414],[80.924,8.337]]]}},{"type":"Feature","id":"LK-72","properties":{"id":"LK-72","countryCode":"LK","isoSubdivision":"LK-72","name":"Polonnaruwa","name_en":"Polonnaruwa","name_ko":"폴론나루와 구","type":"District","labelLongitude":81.048,"labelLatitude":8,"minZoom":8.7},"geometry":{"type":"Polygon","coordinates":[[[80.792,7.962],[80.784,7.965],[80.778,7.971],[80.779,7.988],[80.765,8.004],[80.756,8.012],[80.757,8.039],[80.777,8.066],[80.757,8.082],[80.759,8.116],[80.766,8.155],[80.78,8.193],[80.788,8.235],[80.803,8.274],[80.842,8.281],[80.887,8.281],[80.9,8.288],[80.904,8.306],[80.911,8.324],[80.924,8.337],[80.939,8.341],[80.951,8.324],[80.967,8.318],[80.982,8.306],[80.987,8.285],[80.999,8.273],[81.041,8.277],[81.117,8.258],[81.135,8.258],[81.151,8.249],[81.168,8.237],[81.185,8.228],[81.198,8.229],[81.205,8.219],[81.207,8.206],[81.206,8.193],[81.21,8.174],[81.204,8.162],[81.193,8.154],[81.197,8.152],[81.201,8.15],[81.227,8.156],[81.241,8.188],[81.246,8.198],[81.252,8.224],[81.259,8.23],[81.267,8.236],[81.273,8.248],[81.282,8.257],[81.295,8.257],[81.31,8.257],[81.316,8.205],[81.308,8.048],[81.315,8.011],[81.332,7.975],[81.34,7.937],[81.331,7.937],[81.294,7.941],[81.266,7.938],[81.243,7.922],[81.236,7.893],[81.227,7.816],[81.241,7.739],[81.237,7.717],[81.24,7.693],[81.234,7.682],[81.228,7.676],[81.223,7.664],[81.221,7.654],[81.201,7.656],[81.178,7.669],[81.129,7.684],[81.1,7.714],[81.063,7.728],[81.045,7.724],[81.008,7.721],[80.989,7.721],[80.937,7.711],[80.884,7.715],[80.881,7.697],[80.877,7.68],[80.862,7.689],[80.853,7.701],[80.833,7.683],[80.808,7.673],[80.782,7.678],[80.772,7.692],[80.774,7.712],[80.76,7.773],[80.767,7.8],[80.796,7.806],[80.798,7.814],[80.801,7.821],[80.811,7.861],[80.813,7.884],[80.823,7.931],[80.853,7.963],[80.839,7.971],[80.823,7.975],[80.811,7.978],[80.799,7.972],[80.799,7.966],[80.792,7.962]]]}},{"type":"Feature","id":"LK-81","properties":{"id":"LK-81","countryCode":"LK","isoSubdivision":"LK-81","name":"Badulla","name_en":"Badulla","name_ko":"바둘라 구","type":"District","labelLongitude":81.026,"labelLatitude":7.052,"minZoom":8.7},"geometry":{"type":"Polygon","coordinates":[[[81.271,7.277],[81.232,7.268],[81.232,7.247],[81.224,7.228],[81.196,7.194],[81.187,7.178],[81.171,7.171],[81.157,7.186],[81.14,7.188],[81.129,7.171],[81.126,7.15],[81.138,7.134],[81.153,7.119],[81.163,7.099],[81.175,7.087],[81.212,7.096],[81.223,7.083],[81.228,7.078],[81.236,7.069],[81.241,7.056],[81.244,7.042],[81.244,7.023],[81.239,7.005],[81.235,6.977],[81.23,6.966],[81.223,6.956],[81.221,6.94],[81.215,6.926],[81.202,6.923],[81.192,6.928],[81.186,6.921],[81.182,6.914],[81.172,6.901],[81.159,6.891],[81.134,6.884],[81.112,6.872],[81.137,6.838],[81.108,6.829],[81.099,6.812],[81.065,6.809],[81.062,6.788],[81.065,6.767],[81.056,6.749],[81.06,6.736],[81.077,6.731],[81.079,6.713],[81.064,6.691],[81.062,6.676],[81.062,6.661],[81.071,6.633],[81.086,6.61],[81.065,6.602],[81.062,6.578],[81.051,6.584],[81.041,6.591],[81.027,6.569],[81.023,6.542],[81.014,6.556],[81.002,6.57],[80.998,6.602],[80.991,6.606],[80.984,6.609],[80.977,6.631],[80.968,6.652],[80.96,6.654],[80.952,6.658],[80.948,6.675],[80.94,6.687],[80.928,6.688],[80.91,6.687],[80.889,6.672],[80.865,6.662],[80.842,6.666],[80.827,6.678],[80.817,6.695],[80.821,6.708],[80.848,6.72],[80.852,6.724],[80.855,6.732],[80.858,6.741],[80.841,6.747],[80.827,6.762],[80.82,6.759],[80.812,6.755],[80.809,6.792],[80.828,6.797],[80.839,6.811],[80.829,6.816],[80.82,6.821],[80.835,6.845],[80.831,6.852],[80.826,6.858],[80.82,6.873],[80.814,6.887],[80.782,6.903],[80.781,6.919],[80.799,6.92],[80.817,6.919],[80.831,6.935],[80.836,6.954],[80.851,6.969],[80.87,6.977],[80.907,6.986],[80.93,7.018],[80.934,7.038],[80.943,7.056],[80.951,7.063],[80.958,7.071],[80.961,7.079],[80.96,7.085],[80.954,7.103],[80.959,7.112],[80.966,7.121],[80.962,7.126],[80.958,7.131],[80.956,7.14],[80.958,7.149],[80.95,7.174],[80.951,7.192],[80.964,7.199],[80.985,7.205],[81.012,7.23],[81.014,7.263],[80.992,7.335],[80.983,7.486],[80.978,7.568],[80.988,7.615],[80.991,7.612],[81.006,7.603],[81.012,7.589],[81.014,7.573],[81.022,7.549],[81.046,7.508],[81.065,7.514],[81.075,7.516],[81.087,7.521],[81.108,7.541],[81.157,7.568],[81.201,7.558],[81.205,7.508],[81.195,7.46],[81.189,7.449],[81.186,7.44],[81.189,7.428],[81.193,7.416],[81.2,7.372],[81.211,7.348],[81.226,7.334],[81.235,7.336],[81.247,7.333],[81.251,7.324],[81.258,7.313],[81.267,7.295],[81.271,7.277]]]}},{"type":"Feature","id":"LK-82","properties":{"id":"LK-82","countryCode":"LK","isoSubdivision":"LK-82","name":"Monaragala","name_en":"Monaragala","name_ko":"모나라갈라 구","type":"District","labelLongitude":81.343,"labelLatitude":6.722,"minZoom":8.7},"geometry":{"type":"Polygon","coordinates":[[[80.92,6.296],[80.912,6.319],[80.902,6.337],[80.884,6.35],[80.865,6.36],[80.851,6.379],[80.84,6.4],[80.839,6.462],[80.833,6.478],[80.83,6.494],[80.845,6.523],[80.864,6.55],[80.873,6.593],[80.883,6.615],[80.901,6.637],[80.912,6.663],[80.928,6.688],[80.94,6.687],[80.948,6.675],[80.952,6.658],[80.96,6.654],[80.968,6.652],[80.977,6.631],[80.984,6.609],[80.991,6.606],[80.998,6.602],[81.002,6.57],[81.014,6.556],[81.023,6.542],[81.027,6.569],[81.041,6.591],[81.051,6.584],[81.062,6.578],[81.065,6.602],[81.086,6.61],[81.071,6.633],[81.062,6.661],[81.062,6.676],[81.064,6.691],[81.079,6.713],[81.077,6.731],[81.06,6.736],[81.056,6.749],[81.065,6.767],[81.062,6.788],[81.065,6.809],[81.099,6.812],[81.108,6.829],[81.137,6.838],[81.112,6.872],[81.134,6.884],[81.159,6.891],[81.172,6.901],[81.182,6.914],[81.186,6.921],[81.192,6.928],[81.202,6.923],[81.215,6.926],[81.221,6.94],[81.223,6.956],[81.23,6.966],[81.235,6.977],[81.239,7.005],[81.244,7.023],[81.244,7.042],[81.241,7.056],[81.236,7.069],[81.228,7.078],[81.223,7.083],[81.212,7.096],[81.175,7.087],[81.163,7.099],[81.153,7.119],[81.138,7.134],[81.126,7.15],[81.129,7.171],[81.14,7.188],[81.157,7.186],[81.171,7.171],[81.187,7.178],[81.196,7.194],[81.224,7.228],[81.232,7.247],[81.232,7.268],[81.271,7.277],[81.278,7.257],[81.287,7.241],[81.307,7.248],[81.326,7.262],[81.321,7.299],[81.321,7.337],[81.345,7.336],[81.366,7.348],[81.37,7.355],[81.377,7.363],[81.382,7.373],[81.381,7.384],[81.375,7.396],[81.375,7.409],[81.385,7.41],[81.399,7.414],[81.406,7.424],[81.41,7.434],[81.421,7.439],[81.433,7.443],[81.458,7.456],[81.477,7.451],[81.463,7.428],[81.469,7.424],[81.476,7.423],[81.474,7.41],[81.485,7.357],[81.484,7.333],[81.488,7.314],[81.51,7.295],[81.524,7.27],[81.527,7.249],[81.549,7.219],[81.533,7.206],[81.512,7.182],[81.5,7.151],[81.513,7.127],[81.517,7.112],[81.525,7.098],[81.533,7.095],[81.54,7.095],[81.546,7.091],[81.552,7.086],[81.587,7.077],[81.617,7.06],[81.615,7.041],[81.61,7.021],[81.617,7.002],[81.617,6.983],[81.629,6.965],[81.634,6.946],[81.608,6.579],[81.59,6.558],[81.563,6.553],[81.542,6.537],[81.524,6.52],[81.5,6.509],[81.48,6.493],[81.481,6.476],[81.486,6.463],[81.482,6.456],[81.477,6.45],[81.478,6.442],[81.478,6.433],[81.465,6.412],[81.437,6.418],[81.41,6.408],[81.401,6.41],[81.399,6.412],[81.388,6.405],[81.329,6.382],[81.299,6.374],[81.284,6.368],[81.274,6.358],[81.247,6.343],[81.222,6.353],[81.207,6.379],[81.188,6.403],[81.175,6.402],[81.166,6.396],[81.155,6.395],[81.145,6.396],[81.138,6.415],[81.121,6.421],[81.096,6.424],[81.071,6.424],[81.061,6.413],[81.049,6.422],[81.049,6.408],[81.041,6.397],[81.027,6.396],[81.015,6.396],[81.01,6.373],[81.02,6.351],[80.998,6.334],[80.97,6.325],[80.944,6.312],[80.92,6.296]]]}},{"type":"Feature","id":"LK-91","properties":{"id":"LK-91","countryCode":"LK","isoSubdivision":"LK-91","name":"Ratnapura","name_en":"Ratnapura","name_ko":"라트나푸라 구","type":"District","labelLongitude":80.562,"labelLatitude":6.579,"minZoom":8.7},"geometry":{"type":"Polygon","coordinates":[[[80.928,6.688],[80.912,6.663],[80.901,6.637],[80.883,6.615],[80.873,6.593],[80.864,6.55],[80.845,6.523],[80.83,6.494],[80.833,6.478],[80.839,6.462],[80.84,6.4],[80.851,6.379],[80.865,6.36],[80.884,6.35],[80.902,6.337],[80.912,6.319],[80.92,6.296],[80.938,6.275],[80.948,6.25],[80.942,6.232],[80.922,6.239],[80.885,6.247],[80.873,6.26],[80.858,6.272],[80.839,6.27],[80.82,6.266],[80.801,6.269],[80.727,6.295],[80.67,6.306],[80.67,6.316],[80.675,6.321],[80.662,6.33],[80.663,6.34],[80.652,6.353],[80.628,6.349],[80.61,6.353],[80.617,6.37],[80.602,6.397],[80.558,6.391],[80.541,6.391],[80.534,6.375],[80.515,6.37],[80.495,6.368],[80.487,6.38],[80.471,6.379],[80.439,6.395],[80.425,6.395],[80.408,6.402],[80.394,6.413],[80.382,6.426],[80.346,6.488],[80.303,6.547],[80.298,6.564],[80.313,6.57],[80.299,6.598],[80.276,6.618],[80.263,6.623],[80.251,6.634],[80.246,6.663],[80.215,6.692],[80.205,6.712],[80.199,6.731],[80.2,6.747],[80.183,6.793],[80.18,6.814],[80.202,6.833],[80.177,6.859],[80.182,6.871],[80.186,6.885],[80.197,6.902],[80.21,6.918],[80.226,6.925],[80.267,6.883],[80.279,6.867],[80.295,6.855],[80.302,6.859],[80.312,6.861],[80.319,6.853],[80.324,6.843],[80.349,6.837],[80.38,6.854],[80.392,6.856],[80.407,6.855],[80.429,6.843],[80.456,6.834],[80.476,6.831],[80.496,6.832],[80.495,6.815],[80.502,6.808],[80.494,6.801],[80.491,6.791],[80.511,6.775],[80.536,6.773],[80.588,6.761],[80.643,6.754],[80.664,6.757],[80.688,6.759],[80.722,6.758],[80.753,6.762],[80.809,6.792],[80.812,6.755],[80.82,6.759],[80.827,6.762],[80.841,6.747],[80.858,6.741],[80.855,6.732],[80.852,6.724],[80.848,6.72],[80.821,6.708],[80.817,6.695],[80.827,6.678],[80.842,6.666],[80.865,6.662],[80.889,6.672],[80.91,6.687],[80.928,6.688]]]}},{"type":"Feature","id":"LK-92","properties":{"id":"LK-92","countryCode":"LK","isoSubdivision":"LK-92","name":"Kegalle","name_en":"Kegalle","name_ko":"케갈레 구","type":"District","labelLongitude":80.348,"labelLatitude":7.088,"minZoom":8.7},"geometry":{"type":"Polygon","coordinates":[[[80.295,6.855],[80.279,6.867],[80.267,6.883],[80.226,6.925],[80.21,6.918],[80.21,6.927],[80.208,6.937],[80.222,6.949],[80.218,6.968],[80.201,6.976],[80.18,6.978],[80.183,6.986],[80.182,6.995],[80.167,7.043],[80.173,7.072],[80.185,7.101],[80.2,7.111],[80.207,7.128],[80.186,7.134],[80.162,7.128],[80.15,7.153],[80.154,7.181],[80.17,7.19],[80.183,7.202],[80.185,7.236],[80.195,7.244],[80.194,7.257],[80.214,7.269],[80.235,7.287],[80.257,7.303],[80.28,7.314],[80.329,7.325],[80.34,7.325],[80.347,7.335],[80.35,7.347],[80.349,7.367],[80.352,7.386],[80.374,7.395],[80.398,7.391],[80.413,7.377],[80.422,7.357],[80.434,7.327],[80.478,7.289],[80.476,7.27],[80.484,7.264],[80.51,7.25],[80.522,7.235],[80.52,7.217],[80.52,7.203],[80.534,7.188],[80.546,7.174],[80.54,7.161],[80.532,7.148],[80.522,7.146],[80.511,7.145],[80.495,7.128],[80.46,7.123],[80.449,7.112],[80.464,7.076],[80.471,7.064],[80.464,7.048],[80.463,7.028],[80.465,7.025],[80.468,7.024],[80.459,7.01],[80.445,6.998],[80.438,6.995],[80.432,6.988],[80.438,6.98],[80.444,6.974],[80.437,6.937],[80.446,6.908],[80.475,6.898],[80.498,6.881],[80.506,6.855],[80.507,6.842],[80.496,6.832],[80.476,6.831],[80.456,6.834],[80.429,6.843],[80.407,6.855],[80.392,6.856],[80.38,6.854],[80.349,6.837],[80.324,6.843],[80.319,6.853],[80.312,6.861],[80.302,6.859],[80.295,6.855]]]}}]}
