{"type":"FeatureCollection","features":[{"type":"Feature","id":"LR-BG","properties":{"id":"LR-BG","countryCode":"LR","isoSubdivision":"LR-BG","name":"Bong","name_en":"Bong","name_ko":"봉","type":"County","labelLongitude":-9.806,"labelLatitude":7,"minZoom":8},"geometry":{"type":"Polygon","coordinates":[[[-9.487,7.373],[-9.478,7.377],[-9.449,7.405],[-9.438,7.422],[-9.419,7.388],[-9.407,7.378],[-9.392,7.4],[-9.386,7.402],[-9.381,7.405],[-9.379,7.416],[-9.375,7.419],[-9.366,7.421],[-9.349,7.422],[-9.335,7.42],[-9.328,7.417],[-9.319,7.412],[-9.312,7.403],[-9.305,7.383],[-9.3,7.377],[-9.284,7.374],[-9.25,7.383],[-9.234,7.381],[-9.22,7.361],[-9.206,7.298],[-9.181,7.276],[-9.175,7.275],[-9.153,7.275],[-9.147,7.271],[-9.147,7.254],[-9.139,7.248],[-9.12,7.238],[-9.116,7.225],[-9.125,7.19],[-9.114,7.2],[-9.106,7.203],[-9.11,7.194],[-9.143,7.085],[-9.16,7.06],[-9.162,7.045],[-9.163,7.035],[-9.167,7.023],[-9.169,7.014],[-9.169,7],[-9.171,6.997],[-9.188,6.98],[-9.188,6.976],[-9.182,6.969],[-9.176,6.961],[-9.172,6.958],[-9.163,6.953],[-9.16,6.949],[-9.157,6.943],[-9.155,6.936],[-9.151,6.931],[-9.148,6.927],[-9.145,6.923],[-9.142,6.912],[-9.14,6.908],[-9.135,6.906],[-9.132,6.906],[-9.128,6.905],[-9.126,6.904],[-9.123,6.903],[-9.118,6.894],[-9.11,6.886],[-9.11,6.878],[-9.115,6.85],[-9.116,6.839],[-9.115,6.829],[-9.11,6.808],[-9.111,6.801],[-9.114,6.797],[-9.122,6.79],[-9.125,6.787],[-9.129,6.783],[-9.133,6.78],[-9.136,6.775],[-9.136,6.77],[-9.133,6.766],[-9.129,6.759],[-9.129,6.754],[-9.131,6.75],[-9.139,6.743],[-9.141,6.739],[-9.143,6.734],[-9.145,6.729],[-9.152,6.719],[-9.152,6.714],[-9.15,6.708],[-9.154,6.693],[-9.156,6.687],[-9.16,6.682],[-9.167,6.673],[-9.167,6.668],[-9.16,6.656],[-9.16,6.649],[-9.165,6.633],[-9.17,6.628],[-9.174,6.626],[-9.184,6.626],[-9.196,6.625],[-9.212,6.625],[-9.307,6.601],[-9.318,6.602],[-9.32,6.608],[-9.323,6.612],[-9.33,6.616],[-9.334,6.614],[-9.337,6.61],[-9.344,6.604],[-9.359,6.594],[-9.363,6.589],[-9.366,6.583],[-9.367,6.578],[-9.369,6.572],[-9.373,6.567],[-9.38,6.561],[-9.387,6.559],[-9.396,6.56],[-9.401,6.558],[-9.42,6.539],[-9.435,6.529],[-9.44,6.521],[-9.447,6.508],[-9.452,6.508],[-9.457,6.51],[-9.466,6.511],[-9.471,6.509],[-9.476,6.506],[-9.481,6.502],[-9.486,6.501],[-9.491,6.502],[-9.498,6.502],[-9.501,6.5],[-9.503,6.496],[-9.504,6.491],[-9.511,6.481],[-9.516,6.475],[-9.52,6.472],[-9.525,6.471],[-9.534,6.472],[-9.538,6.472],[-9.547,6.471],[-9.552,6.471],[-9.564,6.475],[-9.572,6.476],[-9.577,6.474],[-9.595,6.458],[-9.622,6.442],[-9.634,6.438],[-9.642,6.438],[-9.645,6.442],[-9.648,6.445],[-9.649,6.449],[-9.65,6.453],[-9.65,6.456],[-9.65,6.46],[-9.648,6.464],[-9.647,6.468],[-9.637,6.484],[-9.612,6.516],[-9.598,6.53],[-9.586,6.544],[-9.584,6.548],[-9.583,6.551],[-9.582,6.555],[-9.582,6.559],[-9.582,6.563],[-9.584,6.568],[-9.588,6.575],[-9.592,6.581],[-9.616,6.601],[-9.642,6.633],[-9.647,6.637],[-9.653,6.642],[-9.662,6.646],[-9.668,6.647],[-9.673,6.647],[-9.677,6.646],[-9.726,6.64],[-9.733,6.641],[-9.737,6.643],[-9.74,6.645],[-9.745,6.652],[-9.725,6.696],[-9.72,6.711],[-9.72,6.717],[-9.72,6.724],[-9.722,6.734],[-9.724,6.741],[-9.726,6.746],[-9.729,6.751],[-9.732,6.755],[-9.739,6.762],[-9.753,6.773],[-9.769,6.783],[-9.777,6.787],[-9.785,6.79],[-9.795,6.792],[-9.799,6.792],[-9.803,6.792],[-9.807,6.79],[-9.811,6.788],[-9.818,6.78],[-9.823,6.773],[-9.825,6.77],[-9.826,6.765],[-9.828,6.761],[-9.828,6.756],[-9.828,6.747],[-9.826,6.724],[-9.826,6.72],[-9.827,6.716],[-9.83,6.712],[-9.845,6.698],[-9.847,6.695],[-9.851,6.687],[-9.854,6.679],[-9.855,6.672],[-9.857,6.657],[-9.86,6.645],[-9.861,6.642],[-9.865,6.637],[-9.87,6.633],[-9.882,6.628],[-9.889,6.627],[-9.894,6.627],[-9.897,6.629],[-9.901,6.632],[-9.908,6.64],[-9.925,6.664],[-9.929,6.667],[-9.936,6.672],[-9.94,6.674],[-9.962,6.681],[-10.005,6.691],[-10.014,6.692],[-10.017,6.691],[-10.029,6.687],[-10.051,6.675],[-10.065,6.671],[-10.073,6.67],[-10.081,6.671],[-10.204,6.711],[-10.213,6.716],[-10.222,6.722],[-10.23,6.729],[-10.247,6.746],[-10.252,6.75],[-10.259,6.755],[-10.272,6.762],[-10.28,6.765],[-10.287,6.766],[-10.302,6.765],[-10.324,6.762],[-10.357,6.762],[-10.373,6.776],[-10.384,6.779],[-10.388,6.779],[-10.397,6.777],[-10.406,6.777],[-10.449,6.779],[-10.461,6.783],[-10.472,6.791],[-10.475,6.799],[-10.506,6.836],[-10.505,6.836],[-10.491,6.842],[-10.485,6.85],[-10.469,6.877],[-10.46,6.909],[-10.457,6.926],[-10.456,6.948],[-10.455,6.952],[-10.453,6.955],[-10.447,6.96],[-10.437,6.966],[-10.404,6.981],[-10.397,6.983],[-10.393,6.983],[-10.367,6.979],[-10.36,6.979],[-10.352,6.98],[-10.344,6.983],[-10.337,6.988],[-10.305,7.021],[-10.29,7.042],[-10.28,7.06],[-10.275,7.067],[-10.209,7.12],[-10.201,7.131],[-10.198,7.134],[-10.187,7.138],[-10.161,7.137],[-10.126,7.129],[-10.112,7.123],[-10.11,7.121],[-10.11,7.119],[-10.11,7.116],[-10.111,7.11],[-10.114,7.107],[-10.118,7.103],[-10.121,7.099],[-10.122,7.096],[-10.12,7.092],[-10.117,7.089],[-10.115,7.085],[-10.112,7.075],[-10.11,7.071],[-10.108,7.061],[-10.107,7.059],[-10.109,7.057],[-10.111,7.055],[-10.112,7.052],[-10.112,7.05],[-10.109,7.048],[-10.106,7.047],[-10.095,7.042],[-10.08,7.045],[-10.063,7.057],[-10.032,7.088],[-9.995,7.113],[-9.974,7.123],[-9.95,7.129],[-9.944,7.13],[-9.937,7.13],[-9.931,7.129],[-9.926,7.126],[-9.921,7.125],[-9.916,7.129],[-9.911,7.134],[-9.905,7.137],[-9.9,7.141],[-9.881,7.165],[-9.864,7.177],[-9.827,7.198],[-9.813,7.212],[-9.784,7.198],[-9.769,7.194],[-9.733,7.19],[-9.726,7.19],[-9.717,7.192],[-9.709,7.196],[-9.692,7.208],[-9.683,7.212],[-9.683,7.206],[-9.669,7.213],[-9.656,7.227],[-9.65,7.242],[-9.655,7.253],[-9.649,7.266],[-9.642,7.277],[-9.632,7.284],[-9.604,7.29],[-9.585,7.299],[-9.562,7.304],[-9.546,7.311],[-9.508,7.337],[-9.484,7.363],[-9.485,7.366],[-9.486,7.37],[-9.487,7.373]]]}},{"type":"Feature","id":"LR-BM","properties":{"id":"LR-BM","countryCode":"LR","isoSubdivision":"LR-BM","name":"Bomi","name_en":"Bomi","name_ko":"보미","type":"County","labelLongitude":-10.775,"labelLatitude":6.753,"minZoom":8},"geometry":{"type":"Polygon","coordinates":[[[-10.807,6.402],[-10.824,6.438],[-10.857,6.473],[-10.896,6.499],[-11.054,6.584],[-11.077,6.593],[-11.08,6.605],[-11.082,6.617],[-11.08,6.625],[-11.077,6.633],[-11.069,6.645],[-11.064,6.651],[-11.059,6.655],[-11.055,6.658],[-11.045,6.662],[-11.034,6.665],[-11.031,6.668],[-11.028,6.675],[-11.027,6.687],[-11.024,6.696],[-11.017,6.707],[-11.013,6.712],[-11.008,6.716],[-11.004,6.718],[-11,6.72],[-10.997,6.72],[-10.992,6.719],[-10.984,6.716],[-10.98,6.717],[-10.978,6.719],[-10.976,6.722],[-10.974,6.728],[-10.966,6.76],[-10.965,6.78],[-10.962,6.795],[-10.965,6.807],[-10.968,6.812],[-10.979,6.824],[-10.98,6.829],[-10.979,6.837],[-10.966,6.865],[-10.94,6.936],[-10.939,6.944],[-10.94,6.954],[-10.94,6.963],[-10.936,6.982],[-10.939,6.993],[-10.932,6.996],[-10.925,6.996],[-10.87,6.977],[-10.858,6.976],[-10.836,6.977],[-10.818,6.982],[-10.813,6.982],[-10.808,6.982],[-10.746,6.969],[-10.74,6.964],[-10.739,6.96],[-10.739,6.956],[-10.738,6.953],[-10.736,6.951],[-10.734,6.949],[-10.735,6.947],[-10.738,6.946],[-10.754,6.947],[-10.758,6.946],[-10.76,6.945],[-10.76,6.942],[-10.759,6.939],[-10.757,6.935],[-10.756,6.932],[-10.755,6.929],[-10.756,6.926],[-10.758,6.919],[-10.759,6.915],[-10.76,6.912],[-10.762,6.909],[-10.762,6.906],[-10.762,6.903],[-10.759,6.896],[-10.758,6.893],[-10.756,6.889],[-10.757,6.885],[-10.759,6.881],[-10.76,6.878],[-10.758,6.871],[-10.758,6.868],[-10.761,6.862],[-10.761,6.859],[-10.76,6.854],[-10.753,6.847],[-10.751,6.844],[-10.749,6.84],[-10.747,6.836],[-10.744,6.831],[-10.737,6.823],[-10.729,6.816],[-10.723,6.816],[-10.715,6.817],[-10.697,6.825],[-10.687,6.831],[-10.678,6.836],[-10.668,6.845],[-10.66,6.85],[-10.608,6.87],[-10.498,6.871],[-10.469,6.877],[-10.485,6.85],[-10.491,6.842],[-10.505,6.836],[-10.506,6.836],[-10.526,6.828],[-10.553,6.825],[-10.56,6.821],[-10.562,6.812],[-10.561,6.798],[-10.563,6.786],[-10.57,6.78],[-10.574,6.775],[-10.573,6.763],[-10.567,6.743],[-10.571,6.734],[-10.588,6.714],[-10.594,6.705],[-10.593,6.704],[-10.594,6.685],[-10.595,6.679],[-10.599,6.669],[-10.601,6.664],[-10.602,6.653],[-10.601,6.619],[-10.597,6.612],[-10.57,6.585],[-10.562,6.573],[-10.562,6.566],[-10.574,6.554],[-10.597,6.537],[-10.608,6.534],[-10.625,6.542],[-10.628,6.545],[-10.632,6.548],[-10.672,6.574],[-10.681,6.578],[-10.686,6.579],[-10.692,6.578],[-10.699,6.576],[-10.708,6.57],[-10.717,6.563],[-10.733,6.548],[-10.748,6.537],[-10.751,6.536],[-10.775,6.531],[-10.787,6.527],[-10.798,6.521],[-10.803,6.515],[-10.806,6.51],[-10.807,6.504],[-10.807,6.494],[-10.807,6.486],[-10.805,6.478],[-10.796,6.451],[-10.794,6.443],[-10.795,6.43],[-10.806,6.403],[-10.807,6.402]]]}},{"type":"Feature","id":"LR-CM","properties":{"id":"LR-CM","countryCode":"LR","isoSubdivision":"LR-CM","name":"Grand Cape Mount","name_en":"Grand Cape Mount","name_ko":"그랜드케이프마운트","type":"County","labelLongitude":-10.995,"labelLatitude":7.096,"minZoom":8},"geometry":{"type":"Polygon","coordinates":[[[-11.476,6.919],[-11.444,6.934],[-11.437,6.939],[-11.439,6.964],[-11.435,6.981],[-11.407,6.996],[-11.398,7.013],[-11.392,7.032],[-11.389,7.047],[-11.393,7.067],[-11.39,7.074],[-11.368,7.076],[-11.36,7.079],[-11.355,7.084],[-11.353,7.093],[-11.356,7.105],[-11.371,7.128],[-11.373,7.139],[-11.37,7.143],[-11.352,7.159],[-11.317,7.214],[-11.3,7.217],[-11.218,7.254],[-11.209,7.262],[-11.144,7.345],[-11.126,7.368],[-10.978,7.485],[-10.937,7.508],[-10.899,7.516],[-10.886,7.522],[-10.875,7.531],[-10.864,7.544],[-10.851,7.542],[-10.815,7.534],[-10.812,7.532],[-10.807,7.529],[-10.804,7.522],[-10.801,7.521],[-10.798,7.52],[-10.792,7.52],[-10.778,7.523],[-10.776,7.523],[-10.773,7.521],[-10.765,7.515],[-10.693,7.502],[-10.688,7.503],[-10.673,7.505],[-10.665,7.492],[-10.659,7.489],[-10.642,7.491],[-10.626,7.491],[-10.606,7.488],[-10.596,7.484],[-10.587,7.477],[-10.528,7.396],[-10.526,7.391],[-10.522,7.382],[-10.519,7.361],[-10.519,7.342],[-10.519,7.333],[-10.514,7.31],[-10.516,7.303],[-10.52,7.297],[-10.533,7.288],[-10.54,7.281],[-10.544,7.277],[-10.547,7.274],[-10.552,7.271],[-10.573,7.265],[-10.577,7.262],[-10.581,7.26],[-10.596,7.247],[-10.668,7.202],[-10.692,7.197],[-10.698,7.196],[-10.702,7.193],[-10.706,7.19],[-10.709,7.186],[-10.713,7.183],[-10.733,7.169],[-10.737,7.165],[-10.741,7.16],[-10.757,7.133],[-10.759,7.131],[-10.762,7.128],[-10.77,7.124],[-10.778,7.117],[-10.781,7.114],[-10.785,7.111],[-10.79,7.11],[-10.799,7.11],[-10.804,7.109],[-10.822,7.099],[-10.827,7.095],[-10.835,7.085],[-10.839,7.082],[-10.844,7.08],[-10.86,7.075],[-10.864,7.072],[-10.868,7.069],[-10.874,7.062],[-10.878,7.06],[-10.883,7.057],[-10.893,7.045],[-10.904,7.028],[-10.911,7.02],[-10.917,7.015],[-10.93,7.013],[-10.936,7.01],[-10.944,7.005],[-10.947,7.001],[-10.946,7],[-10.939,6.993],[-10.936,6.982],[-10.94,6.963],[-10.94,6.954],[-10.939,6.944],[-10.94,6.936],[-10.966,6.865],[-10.979,6.837],[-10.98,6.829],[-10.979,6.824],[-10.968,6.812],[-10.965,6.807],[-10.962,6.795],[-10.965,6.78],[-10.966,6.76],[-10.974,6.728],[-10.976,6.722],[-10.978,6.719],[-10.98,6.717],[-10.984,6.716],[-10.992,6.719],[-10.997,6.72],[-11,6.72],[-11.004,6.718],[-11.008,6.716],[-11.013,6.712],[-11.017,6.707],[-11.024,6.696],[-11.027,6.687],[-11.028,6.675],[-11.031,6.668],[-11.034,6.665],[-11.045,6.662],[-11.055,6.658],[-11.059,6.655],[-11.064,6.651],[-11.069,6.645],[-11.077,6.633],[-11.08,6.625],[-11.082,6.617],[-11.08,6.605],[-11.077,6.593],[-11.233,6.648],[-11.353,6.701],[-11.375,6.727],[-11.376,6.767],[-11.37,6.789],[-11.369,6.798],[-11.368,6.811],[-11.382,6.837],[-11.386,6.842],[-11.404,6.847],[-11.424,6.859],[-11.441,6.873],[-11.451,6.883],[-11.476,6.919]]]}},{"type":"Feature","id":"LR-GB","properties":{"id":"LR-GB","countryCode":"LR","isoSubdivision":"LR-GB","name":"Grand Bassa","name_en":"Grand Bassa","name_ko":"그랜드바사","type":"County","labelLongitude":-9.729,"labelLatitude":6.118,"minZoom":8},"geometry":{"type":"Polygon","coordinates":[[[-9.733,5.581],[-9.842,5.685],[-9.98,5.798],[-10.015,5.838],[-10.023,5.844],[-10.04,5.854],[-10.046,5.862],[-10.049,5.872],[-10.045,5.884],[-10.046,5.896],[-10.056,5.912],[-10.071,5.925],[-10.089,5.934],[-10.104,5.937],[-10.115,5.943],[-10.186,5.999],[-10.227,6.044],[-10.28,6.077],[-10.298,6.085],[-10.336,6.092],[-10.354,6.102],[-10.364,6.116],[-10.361,6.129],[-10.352,6.124],[-10.344,6.123],[-10.338,6.127],[-10.334,6.136],[-10.354,6.141],[-10.367,6.151],[-10.367,6.153],[-10.357,6.172],[-10.355,6.177],[-10.352,6.184],[-10.345,6.194],[-10.344,6.199],[-10.345,6.204],[-10.348,6.213],[-10.349,6.219],[-10.345,6.249],[-10.343,6.254],[-10.341,6.258],[-10.326,6.277],[-10.321,6.287],[-10.318,6.29],[-10.312,6.292],[-10.307,6.295],[-10.304,6.301],[-10.303,6.307],[-10.305,6.312],[-10.309,6.315],[-10.311,6.319],[-10.311,6.323],[-10.311,6.328],[-10.312,6.332],[-10.311,6.336],[-10.308,6.339],[-10.298,6.342],[-10.287,6.348],[-10.27,6.364],[-10.263,6.374],[-10.26,6.382],[-10.26,6.388],[-10.265,6.403],[-10.265,6.409],[-10.265,6.414],[-10.263,6.419],[-10.232,6.452],[-10.227,6.463],[-10.222,6.471],[-10.22,6.482],[-10.216,6.491],[-10.216,6.496],[-10.219,6.499],[-10.227,6.504],[-10.229,6.508],[-10.231,6.517],[-10.234,6.52],[-10.238,6.521],[-10.241,6.524],[-10.243,6.531],[-10.239,6.534],[-10.23,6.539],[-10.194,6.546],[-10.178,6.551],[-10.167,6.548],[-10.163,6.546],[-10.163,6.544],[-10.163,6.541],[-10.165,6.538],[-10.165,6.535],[-10.165,6.53],[-10.163,6.526],[-10.16,6.523],[-10.153,6.519],[-10.151,6.517],[-10.149,6.514],[-10.147,6.512],[-10.146,6.509],[-10.143,6.507],[-10.128,6.502],[-10.124,6.5],[-10.121,6.498],[-10.115,6.491],[-10.112,6.488],[-10.106,6.486],[-10.098,6.486],[-10.083,6.488],[-10.075,6.49],[-10.067,6.497],[-10.063,6.501],[-10.059,6.506],[-10.051,6.514],[-10.048,6.515],[-10.032,6.513],[-10.019,6.515],[-10.004,6.515],[-9.977,6.506],[-9.969,6.505],[-9.961,6.505],[-9.954,6.508],[-9.945,6.514],[-9.918,6.538],[-9.909,6.548],[-9.904,6.552],[-9.899,6.554],[-9.89,6.555],[-9.885,6.555],[-9.88,6.554],[-9.86,6.543],[-9.857,6.542],[-9.853,6.541],[-9.849,6.541],[-9.846,6.541],[-9.842,6.542],[-9.82,6.562],[-9.745,6.652],[-9.74,6.645],[-9.737,6.643],[-9.733,6.641],[-9.726,6.64],[-9.677,6.646],[-9.673,6.647],[-9.668,6.647],[-9.662,6.646],[-9.653,6.642],[-9.647,6.637],[-9.642,6.633],[-9.616,6.601],[-9.592,6.581],[-9.588,6.575],[-9.584,6.568],[-9.582,6.563],[-9.582,6.559],[-9.582,6.555],[-9.583,6.551],[-9.584,6.548],[-9.586,6.544],[-9.598,6.53],[-9.612,6.516],[-9.637,6.484],[-9.647,6.468],[-9.648,6.464],[-9.65,6.46],[-9.65,6.456],[-9.65,6.453],[-9.649,6.449],[-9.648,6.445],[-9.645,6.442],[-9.642,6.438],[-9.634,6.438],[-9.622,6.442],[-9.595,6.458],[-9.577,6.474],[-9.572,6.476],[-9.564,6.475],[-9.552,6.471],[-9.547,6.471],[-9.538,6.472],[-9.534,6.472],[-9.525,6.471],[-9.52,6.472],[-9.516,6.475],[-9.511,6.481],[-9.504,6.491],[-9.503,6.496],[-9.501,6.5],[-9.498,6.502],[-9.491,6.502],[-9.486,6.501],[-9.481,6.502],[-9.476,6.506],[-9.471,6.509],[-9.466,6.511],[-9.457,6.51],[-9.452,6.508],[-9.447,6.508],[-9.44,6.521],[-9.435,6.529],[-9.42,6.539],[-9.401,6.558],[-9.396,6.56],[-9.387,6.559],[-9.38,6.561],[-9.373,6.567],[-9.369,6.572],[-9.367,6.578],[-9.366,6.583],[-9.363,6.589],[-9.359,6.594],[-9.344,6.604],[-9.337,6.61],[-9.334,6.614],[-9.33,6.616],[-9.323,6.612],[-9.32,6.608],[-9.318,6.602],[-9.307,6.601],[-9.212,6.625],[-9.196,6.625],[-9.184,6.626],[-9.139,6.612],[-9.127,6.609],[-9.122,6.612],[-9.119,6.613],[-9.111,6.617],[-9.103,6.616],[-9.099,6.614],[-9.093,6.61],[-9.091,6.607],[-9.091,6.604],[-9.093,6.597],[-9.095,6.589],[-9.096,6.587],[-9.096,6.585],[-9.099,6.58],[-9.1,6.578],[-9.102,6.577],[-9.116,6.572],[-9.118,6.57],[-9.12,6.569],[-9.131,6.555],[-9.132,6.552],[-9.136,6.543],[-9.14,6.515],[-9.142,6.51],[-9.15,6.493],[-9.151,6.491],[-9.151,6.489],[-9.149,6.488],[-9.147,6.488],[-9.145,6.488],[-9.143,6.488],[-9.138,6.49],[-9.136,6.49],[-9.133,6.488],[-9.129,6.485],[-9.127,6.481],[-9.127,6.478],[-9.132,6.454],[-9.14,6.432],[-9.141,6.427],[-9.141,6.42],[-9.14,6.404],[-9.14,6.4],[-9.143,6.385],[-9.144,6.355],[-9.355,6.354],[-9.369,6.345],[-9.376,6.342],[-9.391,6.337],[-9.399,6.334],[-9.404,6.332],[-9.444,6.324],[-9.448,6.322],[-9.452,6.319],[-9.456,6.315],[-9.459,6.312],[-9.461,6.308],[-9.462,6.305],[-9.461,6.301],[-9.46,6.298],[-9.458,6.291],[-9.457,6.287],[-9.456,6.284],[-9.456,6.277],[-9.457,6.27],[-9.464,6.245],[-9.465,6.238],[-9.464,6.222],[-9.454,6.17],[-9.456,6.166],[-9.461,6.159],[-9.492,6.131],[-9.498,6.124],[-9.519,6.089],[-9.525,6.082],[-9.529,6.08],[-9.533,6.081],[-9.536,6.084],[-9.539,6.087],[-9.544,6.093],[-9.547,6.096],[-9.551,6.097],[-9.558,6.099],[-9.572,6.1],[-9.583,6.1],[-9.594,6.098],[-9.6,6.095],[-9.605,6.091],[-9.607,6.087],[-9.61,6.083],[-9.611,6.078],[-9.611,6.075],[-9.611,6.066],[-9.611,6.061],[-9.614,6.054],[-9.617,6.051],[-9.642,6.041],[-9.648,6.037],[-9.652,6.032],[-9.653,6.028],[-9.653,6.024],[-9.652,6.017],[-9.651,6.014],[-9.65,6.01],[-9.651,6.004],[-9.651,6],[-9.663,5.962],[-9.664,5.958],[-9.664,5.955],[-9.66,5.944],[-9.66,5.94],[-9.662,5.936],[-9.667,5.927],[-9.668,5.923],[-9.668,5.92],[-9.666,5.913],[-9.657,5.895],[-9.657,5.891],[-9.657,5.888],[-9.659,5.884],[-9.691,5.833],[-9.694,5.825],[-9.697,5.813],[-9.698,5.809],[-9.698,5.806],[-9.696,5.798],[-9.687,5.78],[-9.685,5.773],[-9.685,5.769],[-9.684,5.763],[-9.685,5.76],[-9.686,5.758],[-9.692,5.745],[-9.693,5.741],[-9.694,5.737],[-9.694,5.734],[-9.694,5.729],[-9.692,5.725],[-9.691,5.722],[-9.684,5.711],[-9.681,5.703],[-9.674,5.672],[-9.674,5.668],[-9.674,5.662],[-9.677,5.652],[-9.68,5.646],[-9.703,5.625],[-9.708,5.618],[-9.71,5.612],[-9.712,5.606],[-9.716,5.602],[-9.72,5.6],[-9.727,5.597],[-9.731,5.594],[-9.732,5.59],[-9.733,5.586],[-9.733,5.581]]]}},{"type":"Feature","id":"LR-GG","properties":{"id":"LR-GG","countryCode":"LR","isoSubdivision":"LR-GG","name":"Grand Gedeh","name_en":"Grand Gedeh","name_ko":"그랜드게데","type":"County","labelLongitude":-8.164,"labelLatitude":5.873,"minZoom":8},"geometry":{"type":"Polygon","coordinates":[[[-8.619,6.493],[-8.602,6.492],[-8.592,6.49],[-8.568,6.49],[-8.557,6.487],[-8.545,6.477],[-8.516,6.438],[-8.497,6.431],[-8.485,6.442],[-8.477,6.46],[-8.472,6.479],[-8.468,6.487],[-8.461,6.483],[-8.45,6.468],[-8.418,6.451],[-8.405,6.436],[-8.406,6.431],[-8.414,6.424],[-8.419,6.408],[-8.417,6.398],[-8.408,6.38],[-8.406,6.372],[-8.411,6.363],[-8.42,6.358],[-8.424,6.352],[-8.412,6.34],[-8.401,6.35],[-8.389,6.355],[-8.377,6.355],[-8.366,6.35],[-8.353,6.361],[-8.343,6.357],[-8.333,6.346],[-8.322,6.336],[-8.317,6.337],[-8.314,6.342],[-8.31,6.345],[-8.303,6.341],[-8.298,6.333],[-8.297,6.324],[-8.297,6.317],[-8.295,6.313],[-8.286,6.31],[-8.208,6.293],[-8.197,6.288],[-8.186,6.282],[-8.179,6.277],[-8.171,6.274],[-8.154,6.274],[-8.141,6.278],[-8.118,6.29],[-8.107,6.295],[-8.06,6.301],[-8.033,6.302],[-8.016,6.298],[-7.999,6.287],[-7.935,6.271],[-7.93,6.271],[-7.925,6.273],[-7.921,6.274],[-7.914,6.272],[-7.913,6.268],[-7.91,6.257],[-7.907,6.252],[-7.862,6.216],[-7.847,6.197],[-7.844,6.184],[-7.857,6.145],[-7.862,6.124],[-7.865,6.102],[-7.862,6.081],[-7.851,6.068],[-7.85,6.072],[-7.841,6.077],[-7.828,6.081],[-7.819,6.08],[-7.81,6.071],[-7.806,6.062],[-7.802,6.039],[-7.799,6.036],[-7.794,6.034],[-7.789,6.031],[-7.786,6.025],[-7.789,6.02],[-7.798,6.015],[-7.8,6.01],[-7.801,5.982],[-7.8,5.974],[-7.787,5.958],[-7.747,5.938],[-7.735,5.926],[-7.717,5.901],[-7.703,5.908],[-7.692,5.928],[-7.68,5.941],[-7.674,5.936],[-7.663,5.923],[-7.648,5.911],[-7.631,5.909],[-7.629,5.905],[-7.608,5.894],[-7.606,5.893],[-7.584,5.884],[-7.579,5.877],[-7.587,5.867],[-7.58,5.86],[-7.566,5.844],[-7.559,5.84],[-7.548,5.845],[-7.535,5.856],[-7.528,5.859],[-7.531,5.842],[-7.516,5.839],[-7.509,5.826],[-7.504,5.812],[-7.494,5.806],[-7.487,5.814],[-7.482,5.83],[-7.479,5.86],[-7.447,5.846],[-7.442,5.811],[-7.449,5.769],[-7.449,5.732],[-7.431,5.654],[-7.418,5.628],[-7.397,5.585],[-7.384,5.569],[-7.405,5.572],[-7.412,5.56],[-7.407,5.541],[-7.394,5.524],[-7.413,5.523],[-7.42,5.523],[-7.41,5.513],[-8.09,5.485],[-8.155,5.472],[-8.286,5.458],[-8.396,5.457],[-8.431,5.47],[-8.429,5.481],[-8.429,5.484],[-8.429,5.488],[-8.431,5.492],[-8.434,5.496],[-8.439,5.499],[-8.454,5.504],[-8.469,5.507],[-8.473,5.51],[-8.477,5.514],[-8.481,5.522],[-8.482,5.527],[-8.483,5.532],[-8.481,5.536],[-8.48,5.54],[-8.475,5.547],[-8.454,5.577],[-8.453,5.58],[-8.452,5.584],[-8.45,5.595],[-8.449,5.598],[-8.448,5.602],[-8.445,5.605],[-8.442,5.608],[-8.439,5.61],[-8.435,5.611],[-8.427,5.613],[-8.423,5.613],[-8.39,5.614],[-8.382,5.615],[-8.365,5.62],[-8.361,5.622],[-8.358,5.624],[-8.355,5.627],[-8.354,5.63],[-8.352,5.634],[-8.352,5.637],[-8.351,5.648],[-8.352,5.655],[-8.356,5.669],[-8.362,5.685],[-8.377,5.713],[-8.396,5.741],[-8.41,5.755],[-8.422,5.763],[-8.452,5.782],[-8.46,5.785],[-8.469,5.787],[-8.501,5.789],[-8.511,5.788],[-8.518,5.785],[-8.521,5.783],[-8.585,5.705],[-8.642,5.73],[-8.903,5.875],[-8.901,5.894],[-8.909,5.909],[-8.924,5.923],[-8.938,5.909],[-8.944,5.92],[-8.938,5.943],[-8.92,5.966],[-8.919,5.975],[-8.932,5.985],[-8.94,5.997],[-8.927,6.014],[-8.91,6.02],[-8.869,6.025],[-8.854,6.035],[-8.845,6.055],[-8.84,6.08],[-8.843,6.105],[-8.854,6.121],[-8.839,6.134],[-8.826,6.166],[-8.812,6.174],[-8.784,6.184],[-8.758,6.206],[-8.735,6.232],[-8.719,6.256],[-8.659,6.376],[-8.636,6.456],[-8.619,6.493]]]}},{"type":"Feature","id":"LR-GK","properties":{"id":"LR-GK","countryCode":"LR","isoSubdivision":"LR-GK","name":"Grand Kru","name_en":"Grand Kru","name_ko":"그랜드크루","type":"County","labelLongitude":-8.256,"labelLatitude":4.871,"minZoom":8},"geometry":{"type":"Polygon","coordinates":[[[-7.844,4.456],[-7.863,4.461],[-7.887,4.48],[-7.898,4.484],[-7.915,4.487],[-7.924,4.492],[-7.932,4.498],[-7.942,4.505],[-7.96,4.512],[-8.003,4.524],[-8.038,4.529],[-8.1,4.553],[-8.222,4.568],[-8.257,4.58],[-8.3,4.627],[-8.316,4.635],[-8.335,4.639],[-8.439,4.676],[-8.55,4.755],[-8.608,4.787],[-8.704,4.822],[-8.703,4.822],[-8.677,4.845],[-8.668,4.857],[-8.664,4.872],[-8.661,4.887],[-8.654,4.912],[-8.65,4.918],[-8.647,4.921],[-8.622,4.923],[-8.617,4.924],[-8.608,4.927],[-8.604,4.931],[-8.601,4.935],[-8.587,4.965],[-8.564,5.005],[-8.557,5.014],[-8.552,5.019],[-8.523,5.036],[-8.456,5.087],[-8.453,5.089],[-8.449,5.09],[-8.441,5.091],[-8.398,5.091],[-8.392,5.092],[-8.384,5.095],[-8.38,5.099],[-8.376,5.103],[-8.367,5.117],[-8.336,5.155],[-8.33,5.16],[-8.322,5.165],[-8.309,5.17],[-8.265,5.164],[-8.25,5.16],[-8.215,5.136],[-8.209,5.134],[-8.204,5.134],[-8.198,5.138],[-8.164,5.135],[-8.025,5.113],[-8.014,5.087],[-8.013,5.08],[-8.013,5.067],[-8.014,5.06],[-8.017,5.054],[-8.02,5.048],[-8.027,5.04],[-8.05,5],[-8.051,5],[-8.065,4.973],[-8.1,4.886],[-8.1,4.877],[-8.099,4.868],[-8.098,4.863],[-8.096,4.858],[-8.094,4.854],[-8.089,4.848],[-8.081,4.842],[-8.077,4.839],[-8.006,4.815],[-7.941,4.787],[-7.927,4.779],[-7.919,4.774],[-7.911,4.767],[-7.903,4.759],[-7.897,4.751],[-7.853,4.677],[-7.839,4.657],[-7.815,4.617],[-7.811,4.607],[-7.809,4.599],[-7.81,4.591],[-7.817,4.564],[-7.819,4.545],[-7.818,4.509],[-7.82,4.502],[-7.822,4.494],[-7.826,4.487],[-7.841,4.464],[-7.844,4.456]]]}},{"type":"Feature","id":"LR-LO","properties":{"id":"LR-LO","countryCode":"LR","isoSubdivision":"LR-LO","name":"Lofa","name_en":"Lofa","name_ko":"로파","type":"County","labelLongitude":-9.876,"labelLatitude":8.13,"minZoom":8},"geometry":{"type":"Polygon","coordinates":[[[-10.616,8.023],[-10.612,8.032],[-10.603,8.039],[-10.578,8.053],[-10.567,8.063],[-10.544,8.106],[-10.529,8.124],[-10.506,8.136],[-10.486,8.139],[-10.405,8.139],[-10.385,8.142],[-10.365,8.148],[-10.346,8.159],[-10.321,8.183],[-10.318,8.202],[-10.326,8.222],[-10.333,8.25],[-10.331,8.272],[-10.314,8.31],[-10.283,8.433],[-10.282,8.485],[-10.271,8.484],[-10.261,8.486],[-10.24,8.494],[-10.232,8.477],[-10.216,8.487],[-10.182,8.52],[-10.165,8.525],[-10.148,8.524],[-10.091,8.51],[-10.076,8.501],[-10.069,8.487],[-10.079,8.44],[-10.075,8.427],[-10.062,8.422],[-10.04,8.426],[-10,8.449],[-9.961,8.48],[-9.944,8.488],[-9.928,8.493],[-9.911,8.496],[-9.892,8.496],[-9.887,8.497],[-9.873,8.5],[-9.868,8.498],[-9.864,8.494],[-9.859,8.487],[-9.85,8.49],[-9.832,8.499],[-9.807,8.506],[-9.805,8.513],[-9.809,8.52],[-9.809,8.528],[-9.802,8.537],[-9.795,8.545],[-9.79,8.553],[-9.791,8.565],[-9.774,8.563],[-9.763,8.55],[-9.757,8.533],[-9.751,8.486],[-9.746,8.468],[-9.736,8.45],[-9.722,8.436],[-9.718,8.438],[-9.718,8.453],[-9.715,8.473],[-9.703,8.487],[-9.684,8.487],[-9.664,8.478],[-9.651,8.465],[-9.645,8.443],[-9.653,8.431],[-9.667,8.422],[-9.676,8.41],[-9.677,8.392],[-9.668,8.389],[-9.653,8.392],[-9.636,8.393],[-9.628,8.392],[-9.62,8.393],[-9.612,8.396],[-9.607,8.403],[-9.6,8.411],[-9.592,8.405],[-9.579,8.387],[-9.529,8.366],[-9.511,8.354],[-9.504,8.346],[-9.499,8.343],[-9.511,8.336],[-9.516,8.334],[-9.522,8.331],[-9.528,8.326],[-9.539,8.315],[-9.53,8.306],[-9.525,8.295],[-9.521,8.284],[-9.516,8.274],[-9.511,8.27],[-9.509,8.266],[-9.511,8.261],[-9.516,8.257],[-9.525,8.241],[-9.532,8.212],[-9.53,8.185],[-9.516,8.175],[-9.491,8.17],[-9.481,8.165],[-9.478,8.153],[-9.478,8.141],[-9.46,8.069],[-9.462,8.058],[-9.473,8.04],[-9.474,8.029],[-9.462,8.043],[-9.452,8.052],[-9.441,8.051],[-9.429,8.037],[-9.424,8.026],[-9.422,8.016],[-9.425,8.006],[-9.432,7.997],[-9.433,7.993],[-9.446,7.95],[-9.448,7.908],[-9.439,7.866],[-9.416,7.824],[-9.39,7.791],[-9.381,7.774],[-9.368,7.758],[-9.355,7.742],[-9.366,7.716],[-9.376,7.681],[-9.375,7.647],[-9.354,7.622],[-9.364,7.614],[-9.373,7.601],[-9.379,7.586],[-9.384,7.56],[-9.391,7.548],[-9.409,7.527],[-9.405,7.514],[-9.413,7.492],[-9.436,7.459],[-9.457,7.443],[-9.466,7.433],[-9.47,7.421],[-9.471,7.407],[-9.473,7.396],[-9.48,7.385],[-9.491,7.376],[-9.487,7.373],[-9.486,7.37],[-9.485,7.366],[-9.484,7.363],[-9.508,7.337],[-9.546,7.311],[-9.562,7.304],[-9.585,7.299],[-9.604,7.29],[-9.632,7.284],[-9.642,7.277],[-9.649,7.266],[-9.655,7.253],[-9.65,7.242],[-9.656,7.227],[-9.669,7.213],[-9.683,7.206],[-9.683,7.212],[-9.692,7.208],[-9.709,7.196],[-9.717,7.192],[-9.726,7.19],[-9.733,7.19],[-9.769,7.194],[-9.784,7.198],[-9.813,7.212],[-9.833,7.329],[-9.685,7.67],[-9.696,7.737],[-9.948,7.841],[-10.108,7.804],[-10.201,7.934],[-10.227,7.897],[-10.409,7.952],[-10.465,8.004],[-10.565,7.978],[-10.616,8.023]]]}},{"type":"Feature","id":"LR-MG","properties":{"id":"LR-MG","countryCode":"LR","isoSubdivision":"LR-MG","name":"Margibi","name_en":"Margibi","name_ko":"마르지비","type":"County","labelLongitude":-10.178,"labelLatitude":6.627,"minZoom":8},"geometry":{"type":"Polygon","coordinates":[[[-10.367,6.151],[-10.368,6.152],[-10.381,6.165],[-10.396,6.177],[-10.428,6.197],[-10.445,6.204],[-10.464,6.205],[-10.464,6.197],[-10.412,6.171],[-10.389,6.152],[-10.382,6.129],[-10.397,6.148],[-10.425,6.165],[-10.457,6.177],[-10.637,6.222],[-10.616,6.29],[-10.613,6.294],[-10.61,6.299],[-10.602,6.305],[-10.597,6.308],[-10.593,6.311],[-10.581,6.314],[-10.573,6.318],[-10.541,6.343],[-10.533,6.347],[-10.487,6.364],[-10.478,6.369],[-10.475,6.372],[-10.468,6.378],[-10.452,6.41],[-10.446,6.418],[-10.442,6.424],[-10.438,6.426],[-10.403,6.437],[-10.399,6.439],[-10.394,6.442],[-10.387,6.448],[-10.384,6.452],[-10.381,6.462],[-10.379,6.477],[-10.381,6.536],[-10.384,6.558],[-10.387,6.567],[-10.39,6.575],[-10.394,6.583],[-10.406,6.598],[-10.408,6.601],[-10.41,6.609],[-10.411,6.616],[-10.41,6.622],[-10.406,6.631],[-10.356,6.728],[-10.353,6.737],[-10.357,6.762],[-10.324,6.762],[-10.302,6.765],[-10.287,6.766],[-10.28,6.765],[-10.272,6.762],[-10.259,6.755],[-10.252,6.75],[-10.247,6.746],[-10.23,6.729],[-10.222,6.722],[-10.213,6.716],[-10.204,6.711],[-10.081,6.671],[-10.073,6.67],[-10.065,6.671],[-10.051,6.675],[-10.029,6.687],[-10.017,6.691],[-10.014,6.692],[-10.005,6.691],[-9.962,6.681],[-9.94,6.674],[-9.936,6.672],[-9.929,6.667],[-9.925,6.664],[-9.908,6.64],[-9.901,6.632],[-9.897,6.629],[-9.894,6.627],[-9.889,6.627],[-9.882,6.628],[-9.87,6.633],[-9.865,6.637],[-9.861,6.642],[-9.86,6.645],[-9.857,6.657],[-9.855,6.672],[-9.854,6.679],[-9.851,6.687],[-9.847,6.695],[-9.845,6.698],[-9.83,6.712],[-9.827,6.716],[-9.826,6.72],[-9.826,6.724],[-9.828,6.747],[-9.828,6.756],[-9.828,6.761],[-9.826,6.765],[-9.825,6.77],[-9.823,6.773],[-9.818,6.78],[-9.811,6.788],[-9.807,6.79],[-9.803,6.792],[-9.799,6.792],[-9.795,6.792],[-9.785,6.79],[-9.777,6.787],[-9.769,6.783],[-9.753,6.773],[-9.739,6.762],[-9.732,6.755],[-9.729,6.751],[-9.726,6.746],[-9.724,6.741],[-9.722,6.734],[-9.72,6.724],[-9.72,6.717],[-9.72,6.711],[-9.725,6.696],[-9.745,6.652],[-9.82,6.562],[-9.842,6.542],[-9.846,6.541],[-9.849,6.541],[-9.853,6.541],[-9.857,6.542],[-9.86,6.543],[-9.88,6.554],[-9.885,6.555],[-9.89,6.555],[-9.899,6.554],[-9.904,6.552],[-9.909,6.548],[-9.918,6.538],[-9.945,6.514],[-9.954,6.508],[-9.961,6.505],[-9.969,6.505],[-9.977,6.506],[-10.004,6.515],[-10.019,6.515],[-10.032,6.513],[-10.048,6.515],[-10.051,6.514],[-10.059,6.506],[-10.063,6.501],[-10.067,6.497],[-10.075,6.49],[-10.083,6.488],[-10.098,6.486],[-10.106,6.486],[-10.112,6.488],[-10.115,6.491],[-10.121,6.498],[-10.124,6.5],[-10.128,6.502],[-10.143,6.507],[-10.146,6.509],[-10.147,6.512],[-10.149,6.514],[-10.151,6.517],[-10.153,6.519],[-10.16,6.523],[-10.163,6.526],[-10.165,6.53],[-10.165,6.535],[-10.165,6.538],[-10.163,6.541],[-10.163,6.544],[-10.163,6.546],[-10.167,6.548],[-10.178,6.551],[-10.194,6.546],[-10.23,6.539],[-10.239,6.534],[-10.243,6.531],[-10.241,6.524],[-10.238,6.521],[-10.234,6.52],[-10.231,6.517],[-10.229,6.508],[-10.227,6.504],[-10.219,6.499],[-10.216,6.496],[-10.216,6.491],[-10.22,6.482],[-10.222,6.471],[-10.227,6.463],[-10.232,6.452],[-10.263,6.419],[-10.265,6.414],[-10.265,6.409],[-10.265,6.403],[-10.26,6.388],[-10.26,6.382],[-10.263,6.374],[-10.27,6.364],[-10.287,6.348],[-10.298,6.342],[-10.308,6.339],[-10.311,6.336],[-10.312,6.332],[-10.311,6.328],[-10.311,6.323],[-10.311,6.319],[-10.309,6.315],[-10.305,6.312],[-10.303,6.307],[-10.304,6.301],[-10.307,6.295],[-10.312,6.292],[-10.318,6.29],[-10.321,6.287],[-10.326,6.277],[-10.341,6.258],[-10.343,6.254],[-10.345,6.249],[-10.349,6.219],[-10.348,6.213],[-10.345,6.204],[-10.344,6.199],[-10.345,6.194],[-10.352,6.184],[-10.355,6.177],[-10.357,6.172],[-10.367,6.153],[-10.367,6.151]]]}},{"type":"Feature","id":"LR-MO","properties":{"id":"LR-MO","countryCode":"LR","isoSubdivision":"LR-MO","name":"Montserrado","name_en":"Montserrado","name_ko":"몽세라도","type":"County","labelLongitude":-10.581,"labelLatitude":6.432,"minZoom":8},"geometry":{"type":"Polygon","coordinates":[[[-10.637,6.222],[-10.659,6.227],[-10.788,6.293],[-10.808,6.311],[-10.8,6.328],[-10.796,6.32],[-10.79,6.314],[-10.783,6.31],[-10.772,6.307],[-10.789,6.335],[-10.792,6.359],[-10.782,6.381],[-10.759,6.404],[-10.774,6.404],[-10.784,6.401],[-10.792,6.396],[-10.8,6.39],[-10.807,6.402],[-10.806,6.403],[-10.795,6.43],[-10.794,6.443],[-10.796,6.451],[-10.805,6.478],[-10.807,6.486],[-10.807,6.494],[-10.807,6.504],[-10.806,6.51],[-10.803,6.515],[-10.798,6.521],[-10.787,6.527],[-10.775,6.531],[-10.751,6.536],[-10.748,6.537],[-10.733,6.548],[-10.717,6.563],[-10.708,6.57],[-10.699,6.576],[-10.692,6.578],[-10.686,6.579],[-10.681,6.578],[-10.672,6.574],[-10.632,6.548],[-10.628,6.545],[-10.625,6.542],[-10.608,6.534],[-10.597,6.537],[-10.574,6.554],[-10.562,6.566],[-10.562,6.573],[-10.57,6.585],[-10.597,6.612],[-10.601,6.619],[-10.602,6.653],[-10.601,6.664],[-10.599,6.669],[-10.595,6.679],[-10.594,6.685],[-10.593,6.704],[-10.594,6.705],[-10.588,6.714],[-10.571,6.734],[-10.567,6.743],[-10.573,6.763],[-10.574,6.775],[-10.57,6.78],[-10.563,6.786],[-10.561,6.798],[-10.562,6.812],[-10.56,6.821],[-10.553,6.825],[-10.526,6.828],[-10.506,6.836],[-10.475,6.799],[-10.472,6.791],[-10.461,6.783],[-10.449,6.779],[-10.406,6.777],[-10.397,6.777],[-10.388,6.779],[-10.384,6.779],[-10.373,6.776],[-10.357,6.762],[-10.353,6.737],[-10.356,6.728],[-10.406,6.631],[-10.41,6.622],[-10.411,6.616],[-10.41,6.609],[-10.408,6.601],[-10.406,6.598],[-10.394,6.583],[-10.39,6.575],[-10.387,6.567],[-10.384,6.558],[-10.381,6.536],[-10.379,6.477],[-10.381,6.462],[-10.384,6.452],[-10.387,6.448],[-10.394,6.442],[-10.399,6.439],[-10.403,6.437],[-10.438,6.426],[-10.442,6.424],[-10.446,6.418],[-10.452,6.41],[-10.468,6.378],[-10.475,6.372],[-10.478,6.369],[-10.487,6.364],[-10.533,6.347],[-10.541,6.343],[-10.573,6.318],[-10.581,6.314],[-10.593,6.311],[-10.597,6.308],[-10.602,6.305],[-10.61,6.299],[-10.613,6.294],[-10.616,6.29],[-10.637,6.222]]]}},{"type":"Feature","id":"LR-MY","properties":{"id":"LR-MY","countryCode":"LR","isoSubdivision":"LR-MY","name":"Maryland","name_en":"Maryland","name_ko":"메릴랜드","type":"County","labelLongitude":-7.697,"labelLatitude":4.644,"minZoom":8},"geometry":{"type":"Polygon","coordinates":[[[-7.606,4.817],[-7.606,4.816],[-7.601,4.805],[-7.593,4.797],[-7.586,4.792],[-7.58,4.784],[-7.577,4.775],[-7.572,4.723],[-7.577,4.509],[-7.575,4.5],[-7.573,4.491],[-7.571,4.481],[-7.573,4.455],[-7.566,4.435],[-7.564,4.426],[-7.567,4.416],[-7.578,4.397],[-7.579,4.387],[-7.574,4.375],[-7.541,4.353],[-7.593,4.347],[-7.608,4.349],[-7.632,4.359],[-7.644,4.362],[-7.713,4.362],[-7.721,4.365],[-7.725,4.372],[-7.729,4.379],[-7.733,4.382],[-7.75,4.383],[-7.789,4.399],[-7.801,4.406],[-7.812,4.416],[-7.818,4.427],[-7.824,4.441],[-7.833,4.452],[-7.844,4.456],[-7.841,4.464],[-7.826,4.487],[-7.822,4.494],[-7.82,4.502],[-7.818,4.509],[-7.819,4.545],[-7.817,4.564],[-7.81,4.591],[-7.809,4.599],[-7.811,4.607],[-7.815,4.617],[-7.839,4.657],[-7.853,4.677],[-7.897,4.751],[-7.903,4.759],[-7.911,4.767],[-7.919,4.774],[-7.927,4.779],[-7.941,4.787],[-8.006,4.815],[-8.077,4.839],[-8.081,4.842],[-8.089,4.848],[-8.094,4.854],[-8.096,4.858],[-8.098,4.863],[-8.099,4.868],[-8.1,4.877],[-8.1,4.886],[-8.065,4.973],[-8.051,5],[-8.05,5],[-8.027,5.04],[-8.02,5.048],[-8.017,5.054],[-8.014,5.06],[-8.013,5.067],[-8.013,5.08],[-8.014,5.087],[-8.025,5.113],[-7.863,5.084],[-7.855,5.082],[-7.851,5.079],[-7.847,5.075],[-7.845,5.07],[-7.843,5.065],[-7.844,4.921],[-7.843,4.913],[-7.842,4.909],[-7.841,4.905],[-7.842,4.902],[-7.843,4.898],[-7.843,4.894],[-7.843,4.891],[-7.842,4.888],[-7.84,4.873],[-7.837,4.864],[-7.834,4.861],[-7.83,4.86],[-7.826,4.861],[-7.822,4.861],[-7.815,4.861],[-7.812,4.861],[-7.805,4.863],[-7.802,4.863],[-7.791,4.86],[-7.785,4.859],[-7.78,4.86],[-7.776,4.862],[-7.768,4.866],[-7.758,4.876],[-7.754,4.878],[-7.751,4.879],[-7.747,4.879],[-7.743,4.878],[-7.74,4.877],[-7.736,4.878],[-7.733,4.879],[-7.73,4.881],[-7.725,4.881],[-7.717,4.879],[-7.686,4.863],[-7.673,4.861],[-7.664,4.858],[-7.659,4.855],[-7.657,4.852],[-7.648,4.836],[-7.643,4.832],[-7.638,4.829],[-7.617,4.824],[-7.61,4.82],[-7.606,4.818],[-7.606,4.817]]]}},{"type":"Feature","id":"LR-NI","properties":{"id":"LR-NI","countryCode":"LR","isoSubdivision":"LR-NI","name":"Nimba","name_en":"Nimba","name_ko":"님바","type":"County","labelLongitude":-8.736,"labelLatitude":6.864,"minZoom":8},"geometry":{"type":"Polygon","coordinates":[[[-8.485,7.558],[-8.444,7.537],[-8.426,7.502],[-8.405,7.431],[-8.393,7.334],[-8.388,7.315],[-8.381,7.303],[-8.364,7.279],[-8.358,7.266],[-8.35,7.235],[-8.345,7.227],[-8.333,7.212],[-8.329,7.204],[-8.328,7.197],[-8.331,7.185],[-8.33,7.178],[-8.326,7.172],[-8.312,7.157],[-8.305,7.147],[-8.303,7.138],[-8.301,7.113],[-8.284,7.018],[-8.287,6.994],[-8.294,6.984],[-8.315,6.969],[-8.32,6.96],[-8.321,6.942],[-8.32,6.926],[-8.321,6.91],[-8.334,6.883],[-8.329,6.875],[-8.321,6.87],[-8.316,6.864],[-8.315,6.85],[-8.317,6.836],[-8.325,6.806],[-8.337,6.777],[-8.352,6.755],[-8.442,6.655],[-8.461,6.633],[-8.534,6.576],[-8.547,6.56],[-8.549,6.56],[-8.566,6.551],[-8.567,6.551],[-8.566,6.549],[-8.571,6.535],[-8.573,6.531],[-8.577,6.528],[-8.589,6.526],[-8.594,6.524],[-8.619,6.493],[-8.636,6.456],[-8.659,6.376],[-8.719,6.256],[-8.735,6.232],[-8.758,6.206],[-8.784,6.184],[-8.812,6.174],[-8.826,6.166],[-8.839,6.134],[-8.854,6.121],[-8.843,6.105],[-8.84,6.08],[-8.845,6.055],[-8.854,6.035],[-8.869,6.025],[-8.91,6.02],[-8.927,6.014],[-8.94,5.997],[-8.932,5.985],[-8.919,5.975],[-8.92,5.966],[-8.938,5.943],[-8.944,5.92],[-8.938,5.909],[-8.924,5.923],[-8.909,5.909],[-8.901,5.894],[-8.903,5.875],[-8.918,5.853],[-8.928,5.843],[-8.944,5.836],[-9.06,5.838],[-9.086,5.832],[-9.082,5.855],[-9.081,5.863],[-9.08,5.866],[-9.072,5.879],[-9.072,5.882],[-9.073,5.886],[-9.077,5.894],[-9.088,5.908],[-9.091,5.915],[-9.091,5.92],[-9.09,5.924],[-9.087,5.933],[-9.08,5.939],[-9.078,5.939],[-9.076,5.941],[-9.076,5.943],[-9.079,5.946],[-9.082,5.947],[-9.084,5.95],[-9.087,5.954],[-9.09,5.958],[-9.092,5.961],[-9.094,5.963],[-9.096,5.964],[-9.098,5.964],[-9.1,5.965],[-9.101,5.966],[-9.102,5.968],[-9.101,5.972],[-9.098,5.984],[-9.097,5.987],[-9.096,5.988],[-9.094,5.988],[-9.092,5.988],[-9.084,5.987],[-9.082,5.988],[-9.079,5.988],[-9.076,5.99],[-9.073,5.992],[-9.069,5.996],[-9.068,5.998],[-9.068,5.999],[-9.069,6.001],[-9.085,6.014],[-9.09,6.019],[-9.092,6.021],[-9.092,6.023],[-9.091,6.024],[-9.089,6.028],[-9.073,6.048],[-9.072,6.049],[-9.071,6.052],[-9.071,6.055],[-9.073,6.059],[-9.081,6.073],[-9.084,6.076],[-9.089,6.079],[-9.093,6.081],[-9.093,6.082],[-9.093,6.084],[-9.093,6.087],[-9.089,6.099],[-9.089,6.101],[-9.089,6.115],[-9.09,6.118],[-9.092,6.121],[-9.097,6.126],[-9.118,6.14],[-9.119,6.141],[-9.121,6.144],[-9.12,6.146],[-9.116,6.148],[-9.111,6.15],[-9.11,6.151],[-9.11,6.153],[-9.109,6.158],[-9.107,6.159],[-9.106,6.159],[-9.104,6.162],[-9.104,6.166],[-9.104,6.174],[-9.103,6.178],[-9.102,6.18],[-9.1,6.181],[-9.099,6.179],[-9.096,6.177],[-9.095,6.173],[-9.094,6.172],[-9.093,6.171],[-9.091,6.172],[-9.09,6.173],[-9.086,6.18],[-9.084,6.183],[-9.083,6.186],[-9.081,6.197],[-9.08,6.2],[-9.078,6.202],[-9.065,6.207],[-9.062,6.208],[-9.062,6.209],[-9.061,6.211],[-9.061,6.214],[-9.063,6.225],[-9.064,6.23],[-9.064,6.233],[-9.064,6.236],[-9.064,6.24],[-9.068,6.26],[-9.068,6.266],[-9.067,6.271],[-9.061,6.275],[-9.063,6.278],[-9.069,6.283],[-9.088,6.292],[-9.112,6.298],[-9.115,6.299],[-9.125,6.312],[-9.144,6.355],[-9.143,6.385],[-9.14,6.4],[-9.14,6.404],[-9.141,6.42],[-9.141,6.427],[-9.14,6.432],[-9.132,6.454],[-9.127,6.478],[-9.127,6.481],[-9.129,6.485],[-9.133,6.488],[-9.136,6.49],[-9.138,6.49],[-9.143,6.488],[-9.145,6.488],[-9.147,6.488],[-9.149,6.488],[-9.151,6.489],[-9.151,6.491],[-9.15,6.493],[-9.142,6.51],[-9.14,6.515],[-9.136,6.543],[-9.132,6.552],[-9.131,6.555],[-9.12,6.569],[-9.118,6.57],[-9.116,6.572],[-9.102,6.577],[-9.1,6.578],[-9.099,6.58],[-9.096,6.585],[-9.096,6.587],[-9.095,6.589],[-9.093,6.597],[-9.091,6.604],[-9.091,6.607],[-9.093,6.61],[-9.099,6.614],[-9.103,6.616],[-9.111,6.617],[-9.119,6.613],[-9.122,6.612],[-9.127,6.609],[-9.139,6.612],[-9.184,6.626],[-9.174,6.626],[-9.17,6.628],[-9.165,6.633],[-9.16,6.649],[-9.16,6.656],[-9.167,6.668],[-9.167,6.673],[-9.16,6.682],[-9.156,6.687],[-9.154,6.693],[-9.15,6.708],[-9.152,6.714],[-9.152,6.719],[-9.145,6.729],[-9.143,6.734],[-9.141,6.739],[-9.139,6.743],[-9.131,6.75],[-9.129,6.754],[-9.129,6.759],[-9.133,6.766],[-9.136,6.77],[-9.136,6.775],[-9.133,6.78],[-9.129,6.783],[-9.125,6.787],[-9.122,6.79],[-9.114,6.797],[-9.111,6.801],[-9.11,6.808],[-9.115,6.829],[-9.116,6.839],[-9.115,6.85],[-9.11,6.878],[-9.11,6.886],[-9.118,6.894],[-9.123,6.903],[-9.126,6.904],[-9.128,6.905],[-9.132,6.906],[-9.135,6.906],[-9.14,6.908],[-9.142,6.912],[-9.145,6.923],[-9.148,6.927],[-9.151,6.931],[-9.155,6.936],[-9.157,6.943],[-9.16,6.949],[-9.163,6.953],[-9.172,6.958],[-9.176,6.961],[-9.182,6.969],[-9.188,6.976],[-9.188,6.98],[-9.171,6.997],[-9.169,7],[-9.169,7.014],[-9.167,7.023],[-9.163,7.035],[-9.162,7.045],[-9.16,7.06],[-9.143,7.085],[-9.11,7.194],[-9.106,7.203],[-9.1,7.205],[-9.086,7.207],[-9.073,7.211],[-9.059,7.221],[-9.047,7.233],[-9.033,7.24],[-9.016,7.239],[-9.008,7.243],[-8.985,7.25],[-8.981,7.251],[-8.978,7.266],[-8.973,7.268],[-8.963,7.263],[-8.957,7.286],[-8.944,7.279],[-8.925,7.249],[-8.912,7.25],[-8.869,7.267],[-8.858,7.273],[-8.851,7.293],[-8.856,7.312],[-8.863,7.33],[-8.865,7.347],[-8.861,7.358],[-8.852,7.371],[-8.833,7.394],[-8.824,7.4],[-8.808,7.405],[-8.799,7.412],[-8.795,7.421],[-8.794,7.442],[-8.79,7.451],[-8.784,7.456],[-8.756,7.472],[-8.74,7.491],[-8.73,7.509],[-8.726,7.529],[-8.727,7.552],[-8.73,7.556],[-8.734,7.558],[-8.738,7.559],[-8.739,7.566],[-8.737,7.571],[-8.731,7.582],[-8.73,7.587],[-8.728,7.622],[-8.721,7.643],[-8.694,7.674],[-8.687,7.694],[-8.567,7.688],[-8.573,7.651],[-8.567,7.623],[-8.548,7.601],[-8.516,7.577],[-8.485,7.558]]]}},{"type":"Feature","id":"LR-RI","properties":{"id":"LR-RI","countryCode":"LR","isoSubdivision":"LR-RI","name":"River Cess","name_en":"River Cess","name_ko":"리버세스","type":"County","labelLongitude":-9.397,"labelLatitude":5.829,"minZoom":8},"geometry":{"type":"Polygon","coordinates":[[[-9.418,5.271],[-9.471,5.32],[-9.478,5.335],[-9.489,5.372],[-9.497,5.389],[-9.508,5.4],[-9.524,5.411],[-9.542,5.42],[-9.557,5.423],[-9.559,5.425],[-9.588,5.431],[-9.594,5.43],[-9.595,5.44],[-9.583,5.455],[-9.581,5.465],[-9.597,5.488],[-9.697,5.546],[-9.733,5.581],[-9.733,5.586],[-9.732,5.59],[-9.731,5.594],[-9.727,5.597],[-9.72,5.6],[-9.716,5.602],[-9.712,5.606],[-9.71,5.612],[-9.708,5.618],[-9.703,5.625],[-9.68,5.646],[-9.677,5.652],[-9.674,5.662],[-9.674,5.668],[-9.674,5.672],[-9.681,5.703],[-9.684,5.711],[-9.691,5.722],[-9.692,5.725],[-9.694,5.729],[-9.694,5.734],[-9.694,5.737],[-9.693,5.741],[-9.692,5.745],[-9.686,5.758],[-9.685,5.76],[-9.684,5.763],[-9.685,5.769],[-9.685,5.773],[-9.687,5.78],[-9.696,5.798],[-9.698,5.806],[-9.698,5.809],[-9.697,5.813],[-9.694,5.825],[-9.691,5.833],[-9.659,5.884],[-9.657,5.888],[-9.657,5.891],[-9.657,5.895],[-9.666,5.913],[-9.668,5.92],[-9.668,5.923],[-9.667,5.927],[-9.662,5.936],[-9.66,5.94],[-9.66,5.944],[-9.664,5.955],[-9.664,5.958],[-9.663,5.962],[-9.651,6],[-9.651,6.004],[-9.65,6.01],[-9.651,6.014],[-9.652,6.017],[-9.653,6.024],[-9.653,6.028],[-9.652,6.032],[-9.648,6.037],[-9.642,6.041],[-9.617,6.051],[-9.614,6.054],[-9.611,6.061],[-9.611,6.066],[-9.611,6.075],[-9.611,6.078],[-9.61,6.083],[-9.607,6.087],[-9.605,6.091],[-9.6,6.095],[-9.594,6.098],[-9.583,6.1],[-9.572,6.1],[-9.558,6.099],[-9.551,6.097],[-9.547,6.096],[-9.544,6.093],[-9.539,6.087],[-9.536,6.084],[-9.533,6.081],[-9.529,6.08],[-9.525,6.082],[-9.519,6.089],[-9.498,6.124],[-9.492,6.131],[-9.461,6.159],[-9.456,6.166],[-9.454,6.17],[-9.464,6.222],[-9.465,6.238],[-9.464,6.245],[-9.457,6.27],[-9.456,6.277],[-9.456,6.284],[-9.457,6.287],[-9.458,6.291],[-9.46,6.298],[-9.461,6.301],[-9.462,6.305],[-9.461,6.308],[-9.459,6.312],[-9.456,6.315],[-9.452,6.319],[-9.448,6.322],[-9.444,6.324],[-9.404,6.332],[-9.399,6.334],[-9.391,6.337],[-9.376,6.342],[-9.369,6.345],[-9.355,6.354],[-9.144,6.355],[-9.125,6.312],[-9.115,6.299],[-9.112,6.298],[-9.088,6.292],[-9.069,6.283],[-9.063,6.278],[-9.061,6.275],[-9.067,6.271],[-9.068,6.266],[-9.068,6.26],[-9.064,6.24],[-9.064,6.236],[-9.064,6.233],[-9.064,6.23],[-9.063,6.225],[-9.061,6.214],[-9.061,6.211],[-9.062,6.209],[-9.062,6.208],[-9.065,6.207],[-9.078,6.202],[-9.08,6.2],[-9.081,6.197],[-9.083,6.186],[-9.084,6.183],[-9.086,6.18],[-9.09,6.173],[-9.091,6.172],[-9.093,6.171],[-9.094,6.172],[-9.095,6.173],[-9.096,6.177],[-9.099,6.179],[-9.1,6.181],[-9.102,6.18],[-9.103,6.178],[-9.104,6.174],[-9.104,6.166],[-9.104,6.162],[-9.106,6.159],[-9.107,6.159],[-9.109,6.158],[-9.11,6.153],[-9.11,6.151],[-9.111,6.15],[-9.116,6.148],[-9.12,6.146],[-9.121,6.144],[-9.119,6.141],[-9.118,6.14],[-9.097,6.126],[-9.092,6.121],[-9.09,6.118],[-9.089,6.115],[-9.089,6.101],[-9.089,6.099],[-9.093,6.087],[-9.093,6.084],[-9.093,6.082],[-9.093,6.081],[-9.089,6.079],[-9.084,6.076],[-9.081,6.073],[-9.073,6.059],[-9.071,6.055],[-9.071,6.052],[-9.072,6.049],[-9.073,6.048],[-9.089,6.028],[-9.091,6.024],[-9.092,6.023],[-9.092,6.021],[-9.09,6.019],[-9.085,6.014],[-9.069,6.001],[-9.068,5.999],[-9.068,5.998],[-9.069,5.996],[-9.073,5.992],[-9.076,5.99],[-9.079,5.988],[-9.082,5.988],[-9.084,5.987],[-9.092,5.988],[-9.094,5.988],[-9.096,5.988],[-9.097,5.987],[-9.098,5.984],[-9.101,5.972],[-9.102,5.968],[-9.101,5.966],[-9.1,5.965],[-9.098,5.964],[-9.096,5.964],[-9.094,5.963],[-9.092,5.961],[-9.09,5.958],[-9.087,5.954],[-9.084,5.95],[-9.082,5.947],[-9.079,5.946],[-9.076,5.943],[-9.076,5.941],[-9.078,5.939],[-9.08,5.939],[-9.087,5.933],[-9.09,5.924],[-9.091,5.92],[-9.091,5.915],[-9.088,5.908],[-9.077,5.894],[-9.073,5.886],[-9.072,5.882],[-9.072,5.879],[-9.08,5.866],[-9.081,5.863],[-9.082,5.855],[-9.086,5.832],[-9.108,5.817],[-9.124,5.796],[-9.136,5.772],[-9.139,5.759],[-9.142,5.731],[-9.146,5.72],[-9.153,5.713],[-9.163,5.709],[-9.185,5.706],[-9.197,5.701],[-9.228,5.677],[-9.237,5.672],[-9.265,5.661],[-9.281,5.649],[-9.309,5.621],[-9.337,5.605],[-9.357,5.583],[-9.354,5.569],[-9.348,5.556],[-9.341,5.543],[-9.335,5.528],[-9.315,5.437],[-9.315,5.431],[-9.316,5.423],[-9.321,5.406],[-9.325,5.398],[-9.353,5.361],[-9.357,5.357],[-9.358,5.356],[-9.36,5.356],[-9.363,5.356],[-9.367,5.356],[-9.37,5.356],[-9.376,5.354],[-9.379,5.351],[-9.381,5.346],[-9.384,5.336],[-9.386,5.331],[-9.389,5.328],[-9.394,5.326],[-9.397,5.324],[-9.404,5.318],[-9.405,5.317],[-9.407,5.315],[-9.411,5.314],[-9.425,5.309],[-9.428,5.307],[-9.429,5.305],[-9.43,5.303],[-9.43,5.3],[-9.429,5.294],[-9.428,5.291],[-9.428,5.289],[-9.426,5.287],[-9.425,5.286],[-9.416,5.279],[-9.414,5.277],[-9.414,5.275],[-9.414,5.274],[-9.417,5.271],[-9.418,5.271]]]}},{"type":"Feature","id":"LR-SI","properties":{"id":"LR-SI","countryCode":"LR","isoSubdivision":"LR-SI","name":"Sinoe","name_en":"Sinoe","name_ko":"시노에","type":"County","labelLongitude":-8.868,"labelLatitude":5.391,"minZoom":8},"geometry":{"type":"Polygon","coordinates":[[[-8.704,4.822],[-8.747,4.838],[-8.778,4.854],[-8.848,4.914],[-8.874,4.93],[-8.905,4.944],[-8.916,4.946],[-8.936,4.955],[-8.967,4.96],[-8.991,4.968],[-9.015,4.978],[-9.032,4.991],[-9.029,4.994],[-9.028,4.994],[-9.028,4.995],[-9.026,4.999],[-9.07,5.011],[-9.105,5.032],[-9.162,5.081],[-9.178,5.091],[-9.213,5.107],[-9.244,5.131],[-9.262,5.137],[-9.279,5.146],[-9.292,5.163],[-9.279,5.163],[-9.292,5.182],[-9.312,5.193],[-9.334,5.201],[-9.354,5.211],[-9.418,5.271],[-9.417,5.271],[-9.414,5.274],[-9.414,5.275],[-9.414,5.277],[-9.416,5.279],[-9.425,5.286],[-9.426,5.287],[-9.428,5.289],[-9.428,5.291],[-9.429,5.294],[-9.43,5.3],[-9.43,5.303],[-9.429,5.305],[-9.428,5.307],[-9.425,5.309],[-9.411,5.314],[-9.407,5.315],[-9.405,5.317],[-9.404,5.318],[-9.397,5.324],[-9.394,5.326],[-9.389,5.328],[-9.386,5.331],[-9.384,5.336],[-9.381,5.346],[-9.379,5.351],[-9.376,5.354],[-9.37,5.356],[-9.367,5.356],[-9.363,5.356],[-9.36,5.356],[-9.358,5.356],[-9.357,5.357],[-9.353,5.361],[-9.325,5.398],[-9.321,5.406],[-9.316,5.423],[-9.315,5.431],[-9.315,5.437],[-9.335,5.528],[-9.341,5.543],[-9.348,5.556],[-9.354,5.569],[-9.357,5.583],[-9.337,5.605],[-9.309,5.621],[-9.281,5.649],[-9.265,5.661],[-9.237,5.672],[-9.228,5.677],[-9.197,5.701],[-9.185,5.706],[-9.163,5.709],[-9.153,5.713],[-9.146,5.72],[-9.142,5.731],[-9.139,5.759],[-9.136,5.772],[-9.124,5.796],[-9.108,5.817],[-9.086,5.832],[-9.06,5.838],[-8.944,5.836],[-8.928,5.843],[-8.918,5.853],[-8.903,5.875],[-8.642,5.73],[-8.585,5.705],[-8.521,5.783],[-8.518,5.785],[-8.511,5.788],[-8.501,5.789],[-8.469,5.787],[-8.46,5.785],[-8.452,5.782],[-8.422,5.763],[-8.41,5.755],[-8.396,5.741],[-8.377,5.713],[-8.362,5.685],[-8.356,5.669],[-8.352,5.655],[-8.351,5.648],[-8.352,5.637],[-8.352,5.634],[-8.354,5.63],[-8.355,5.627],[-8.358,5.624],[-8.361,5.622],[-8.365,5.62],[-8.382,5.615],[-8.39,5.614],[-8.423,5.613],[-8.427,5.613],[-8.435,5.611],[-8.439,5.61],[-8.442,5.608],[-8.445,5.605],[-8.448,5.602],[-8.449,5.598],[-8.45,5.595],[-8.452,5.584],[-8.453,5.58],[-8.454,5.577],[-8.475,5.547],[-8.48,5.54],[-8.481,5.536],[-8.483,5.532],[-8.482,5.527],[-8.481,5.522],[-8.477,5.514],[-8.473,5.51],[-8.469,5.507],[-8.454,5.504],[-8.439,5.499],[-8.434,5.496],[-8.431,5.492],[-8.429,5.488],[-8.429,5.484],[-8.429,5.481],[-8.431,5.47],[-8.439,5.433],[-8.44,5.421],[-8.436,5.405],[-8.428,5.379],[-8.422,5.367],[-8.417,5.36],[-8.347,5.288],[-8.316,5.242],[-8.312,5.233],[-8.308,5.217],[-8.307,5.202],[-8.309,5.17],[-8.322,5.165],[-8.33,5.16],[-8.336,5.155],[-8.367,5.117],[-8.376,5.103],[-8.38,5.099],[-8.384,5.095],[-8.392,5.092],[-8.398,5.091],[-8.441,5.091],[-8.449,5.09],[-8.453,5.089],[-8.456,5.087],[-8.523,5.036],[-8.552,5.019],[-8.557,5.014],[-8.564,5.005],[-8.587,4.965],[-8.601,4.935],[-8.604,4.931],[-8.608,4.927],[-8.617,4.924],[-8.622,4.923],[-8.647,4.921],[-8.65,4.918],[-8.654,4.912],[-8.661,4.887],[-8.664,4.872],[-8.668,4.857],[-8.677,4.845],[-8.703,4.822],[-8.704,4.822]]]}},{"type":"Feature","id":"LR-X1~","properties":{"id":"LR-X1~","countryCode":"LR","isoSubdivision":"LR-X1~","name":"Gbarpolu","name_en":"Gbarpolu","name_ko":"바르폴루","type":"County","labelLongitude":-10.184,"labelLatitude":7.517,"minZoom":8},"geometry":{"type":"Polygon","coordinates":[[[-10.864,7.544],[-10.731,7.705],[-10.693,7.738],[-10.645,7.763],[-10.638,7.766],[-10.615,7.769],[-10.618,8.011],[-10.616,8.023],[-10.565,7.978],[-10.465,8.004],[-10.409,7.952],[-10.227,7.897],[-10.201,7.934],[-10.108,7.804],[-9.948,7.841],[-9.696,7.737],[-9.685,7.67],[-9.833,7.329],[-9.813,7.212],[-9.827,7.198],[-9.864,7.177],[-9.881,7.165],[-9.9,7.141],[-9.905,7.137],[-9.911,7.134],[-9.916,7.129],[-9.921,7.125],[-9.926,7.126],[-9.931,7.129],[-9.937,7.13],[-9.944,7.13],[-9.95,7.129],[-9.974,7.123],[-9.995,7.113],[-10.032,7.088],[-10.063,7.057],[-10.08,7.045],[-10.095,7.042],[-10.106,7.047],[-10.109,7.048],[-10.112,7.05],[-10.112,7.052],[-10.111,7.055],[-10.109,7.057],[-10.107,7.059],[-10.108,7.061],[-10.11,7.071],[-10.112,7.075],[-10.115,7.085],[-10.117,7.089],[-10.12,7.092],[-10.122,7.096],[-10.121,7.099],[-10.118,7.103],[-10.114,7.107],[-10.111,7.11],[-10.11,7.116],[-10.11,7.119],[-10.11,7.121],[-10.112,7.123],[-10.126,7.129],[-10.161,7.137],[-10.187,7.138],[-10.198,7.134],[-10.201,7.131],[-10.209,7.12],[-10.275,7.067],[-10.28,7.06],[-10.29,7.042],[-10.305,7.021],[-10.337,6.988],[-10.344,6.983],[-10.352,6.98],[-10.36,6.979],[-10.367,6.979],[-10.393,6.983],[-10.397,6.983],[-10.404,6.981],[-10.437,6.966],[-10.447,6.96],[-10.453,6.955],[-10.455,6.952],[-10.456,6.948],[-10.457,6.926],[-10.46,6.909],[-10.469,6.877],[-10.498,6.871],[-10.608,6.87],[-10.66,6.85],[-10.668,6.845],[-10.678,6.836],[-10.687,6.831],[-10.697,6.825],[-10.715,6.817],[-10.723,6.816],[-10.729,6.816],[-10.737,6.823],[-10.744,6.831],[-10.747,6.836],[-10.749,6.84],[-10.751,6.844],[-10.753,6.847],[-10.76,6.854],[-10.761,6.859],[-10.761,6.862],[-10.758,6.868],[-10.758,6.871],[-10.76,6.878],[-10.759,6.881],[-10.757,6.885],[-10.756,6.889],[-10.758,6.893],[-10.759,6.896],[-10.762,6.903],[-10.762,6.906],[-10.762,6.909],[-10.76,6.912],[-10.759,6.915],[-10.758,6.919],[-10.756,6.926],[-10.755,6.929],[-10.756,6.932],[-10.757,6.935],[-10.759,6.939],[-10.76,6.942],[-10.76,6.945],[-10.758,6.946],[-10.754,6.947],[-10.738,6.946],[-10.735,6.947],[-10.734,6.949],[-10.736,6.951],[-10.738,6.953],[-10.739,6.956],[-10.739,6.96],[-10.74,6.964],[-10.746,6.969],[-10.808,6.982],[-10.813,6.982],[-10.818,6.982],[-10.836,6.977],[-10.858,6.976],[-10.87,6.977],[-10.925,6.996],[-10.932,6.996],[-10.939,6.993],[-10.946,7],[-10.947,7.001],[-10.944,7.005],[-10.936,7.01],[-10.93,7.013],[-10.917,7.015],[-10.911,7.02],[-10.904,7.028],[-10.893,7.045],[-10.883,7.057],[-10.878,7.06],[-10.874,7.062],[-10.868,7.069],[-10.864,7.072],[-10.86,7.075],[-10.844,7.08],[-10.839,7.082],[-10.835,7.085],[-10.827,7.095],[-10.822,7.099],[-10.804,7.109],[-10.799,7.11],[-10.79,7.11],[-10.785,7.111],[-10.781,7.114],[-10.778,7.117],[-10.77,7.124],[-10.762,7.128],[-10.759,7.131],[-10.757,7.133],[-10.741,7.16],[-10.737,7.165],[-10.733,7.169],[-10.713,7.183],[-10.709,7.186],[-10.706,7.19],[-10.702,7.193],[-10.698,7.196],[-10.692,7.197],[-10.668,7.202],[-10.596,7.247],[-10.581,7.26],[-10.577,7.262],[-10.573,7.265],[-10.552,7.271],[-10.547,7.274],[-10.544,7.277],[-10.54,7.281],[-10.533,7.288],[-10.52,7.297],[-10.516,7.303],[-10.514,7.31],[-10.519,7.333],[-10.519,7.342],[-10.519,7.361],[-10.522,7.382],[-10.526,7.391],[-10.528,7.396],[-10.587,7.477],[-10.596,7.484],[-10.606,7.488],[-10.626,7.491],[-10.642,7.491],[-10.659,7.489],[-10.665,7.492],[-10.673,7.505],[-10.688,7.503],[-10.693,7.502],[-10.765,7.515],[-10.773,7.521],[-10.776,7.523],[-10.778,7.523],[-10.792,7.52],[-10.798,7.52],[-10.801,7.521],[-10.804,7.522],[-10.807,7.529],[-10.812,7.532],[-10.815,7.534],[-10.851,7.542],[-10.864,7.544]]]}},{"type":"Feature","id":"LR-X2~","properties":{"id":"LR-X2~","countryCode":"LR","isoSubdivision":"LR-X2~","name":"River Gee","name_en":"River Gee","name_ko":"리버지","type":"County","labelLongitude":-7.914,"labelLatitude":5.293,"minZoom":8},"geometry":{"type":"Polygon","coordinates":[[[-7.41,5.513],[-7.408,5.512],[-7.413,5.503],[-7.425,5.494],[-7.432,5.48],[-7.432,5.442],[-7.436,5.431],[-7.45,5.439],[-7.45,5.423],[-7.446,5.405],[-7.439,5.388],[-7.43,5.374],[-7.415,5.366],[-7.404,5.368],[-7.397,5.366],[-7.391,5.348],[-7.389,5.328],[-7.39,5.317],[-7.396,5.307],[-7.408,5.29],[-7.41,5.283],[-7.414,5.267],[-7.419,5.26],[-7.429,5.256],[-7.431,5.26],[-7.431,5.268],[-7.434,5.274],[-7.435,5.279],[-7.43,5.284],[-7.429,5.288],[-7.44,5.29],[-7.442,5.287],[-7.468,5.273],[-7.476,5.264],[-7.48,5.255],[-7.49,5.222],[-7.482,5.175],[-7.483,5.158],[-7.489,5.141],[-7.516,5.092],[-7.53,5.097],[-7.547,5.098],[-7.563,5.09],[-7.576,5.072],[-7.578,5.055],[-7.57,4.997],[-7.572,4.975],[-7.565,4.962],[-7.555,4.948],[-7.55,4.929],[-7.55,4.914],[-7.553,4.914],[-7.562,4.92],[-7.575,4.922],[-7.605,4.897],[-7.606,4.888],[-7.599,4.857],[-7.6,4.846],[-7.606,4.825],[-7.606,4.817],[-7.606,4.818],[-7.61,4.82],[-7.617,4.824],[-7.638,4.829],[-7.643,4.832],[-7.648,4.836],[-7.657,4.852],[-7.659,4.855],[-7.664,4.858],[-7.673,4.861],[-7.686,4.863],[-7.717,4.879],[-7.725,4.881],[-7.73,4.881],[-7.733,4.879],[-7.736,4.878],[-7.74,4.877],[-7.743,4.878],[-7.747,4.879],[-7.751,4.879],[-7.754,4.878],[-7.758,4.876],[-7.768,4.866],[-7.776,4.862],[-7.78,4.86],[-7.785,4.859],[-7.791,4.86],[-7.802,4.863],[-7.805,4.863],[-7.812,4.861],[-7.815,4.861],[-7.822,4.861],[-7.826,4.861],[-7.83,4.86],[-7.834,4.861],[-7.837,4.864],[-7.84,4.873],[-7.842,4.888],[-7.843,4.891],[-7.843,4.894],[-7.843,4.898],[-7.842,4.902],[-7.841,4.905],[-7.842,4.909],[-7.843,4.913],[-7.844,4.921],[-7.843,5.065],[-7.845,5.07],[-7.847,5.075],[-7.851,5.079],[-7.855,5.082],[-7.863,5.084],[-8.025,5.113],[-8.164,5.135],[-8.198,5.138],[-8.204,5.134],[-8.209,5.134],[-8.215,5.136],[-8.25,5.16],[-8.265,5.164],[-8.309,5.17],[-8.307,5.202],[-8.308,5.217],[-8.312,5.233],[-8.316,5.242],[-8.347,5.288],[-8.417,5.36],[-8.422,5.367],[-8.428,5.379],[-8.436,5.405],[-8.44,5.421],[-8.439,5.433],[-8.431,5.47],[-8.396,5.457],[-8.286,5.458],[-8.155,5.472],[-8.09,5.485],[-7.41,5.513]]]}}]}
