{"type":"FeatureCollection","features":[{"type":"Feature","id":"LT-AL","properties":{"id":"LT-AL","countryCode":"LT","isoSubdivision":"LT-AL","name":"Alytus","name_en":"Alytus","name_ko":"알리타우스","type":"County","labelLongitude":24.167,"labelLatitude":54.254,"minZoom":7},"geometry":{"type":"Polygon","coordinates":[[[24.851,54.145],[24.822,54.135],[24.818,54.128],[24.817,54.121],[24.819,54.114],[24.818,54.11],[24.799,54.103],[24.791,54.097],[24.784,54.096],[24.782,54.093],[24.787,54.078],[24.799,54.056],[24.812,54.039],[24.821,54.02],[24.819,53.993],[24.819,53.992],[24.806,53.975],[24.789,53.97],[24.724,53.963],[24.706,53.964],[24.691,53.973],[24.678,53.992],[24.674,53.994],[24.671,53.994],[24.667,53.994],[24.643,53.983],[24.579,53.976],[24.529,53.958],[24.414,53.898],[24.378,53.887],[24.342,53.887],[24.31,53.893],[24.276,53.892],[24.257,53.894],[24.246,53.904],[24.229,53.932],[24.201,53.952],[24.17,53.959],[24.137,53.955],[24.075,53.936],[24.045,53.931],[23.981,53.93],[23.965,53.933],[23.935,53.944],[23.92,53.948],[23.905,53.946],[23.828,53.92],[23.821,53.919],[23.812,53.921],[23.794,53.927],[23.787,53.928],[23.772,53.924],[23.754,53.917],[23.692,53.911],[23.643,53.899],[23.627,53.898],[23.61,53.902],[23.52,53.934],[23.486,53.939],[23.49,53.945],[23.49,53.951],[23.487,53.956],[23.482,53.96],[23.471,53.965],[23.463,53.973],[23.459,53.982],[23.459,53.992],[23.464,53.997],[23.47,54.001],[23.482,54.007],[23.496,54.022],[23.496,54.045],[23.482,54.091],[23.474,54.113],[23.463,54.135],[23.449,54.155],[23.433,54.169],[23.423,54.173],[23.402,54.176],[23.391,54.18],[23.382,54.188],[23.364,54.208],[23.354,54.217],[23.336,54.226],[23.339,54.245],[23.349,54.277],[23.348,54.283],[23.345,54.29],[23.345,54.297],[23.347,54.304],[23.355,54.314],[23.358,54.323],[23.369,54.34],[23.387,54.354],[23.401,54.36],[23.426,54.366],[23.457,54.369],[23.466,54.372],[23.467,54.378],[23.465,54.38],[23.453,54.385],[23.448,54.389],[23.456,54.396],[23.465,54.401],[23.541,54.418],[23.542,54.425],[23.542,54.428],[23.54,54.439],[23.539,54.447],[23.542,54.456],[23.549,54.463],[23.557,54.469],[23.641,54.508],[23.65,54.509],[23.661,54.507],[23.678,54.497],[23.686,54.489],[23.704,54.478],[23.756,54.47],[23.767,54.464],[23.86,54.466],[23.863,54.463],[23.86,54.46],[23.865,54.459],[23.879,54.462],[23.905,54.471],[23.939,54.487],[23.998,54.5],[24.002,54.502],[24.003,54.504],[24.003,54.507],[24.002,54.51],[24,54.512],[23.992,54.517],[23.99,54.519],[23.988,54.521],[23.986,54.524],[23.985,54.528],[23.985,54.532],[23.987,54.535],[23.99,54.538],[23.994,54.54],[24,54.544],[24.007,54.546],[24.03,54.551],[24.049,54.551],[24.069,54.547],[24.078,54.544],[24.088,54.542],[24.096,54.541],[24.206,54.554],[24.226,54.559],[24.246,54.561],[24.261,54.559],[24.282,54.551],[24.292,54.544],[24.31,54.539],[24.324,54.537],[24.413,54.544],[24.423,54.521],[24.42,54.515],[24.42,54.505],[24.415,54.502],[24.412,54.499],[24.413,54.497],[24.43,54.486],[24.435,54.479],[24.43,54.464],[24.426,54.455],[24.426,54.447],[24.43,54.44],[24.45,54.433],[24.538,54.426],[24.555,54.427],[24.588,54.432],[24.601,54.438],[24.625,54.444],[24.642,54.45],[24.656,54.45],[24.684,54.447],[24.713,54.439],[24.719,54.436],[24.722,54.43],[24.721,54.424],[24.717,54.417],[24.719,54.411],[24.726,54.406],[24.737,54.406],[24.745,54.407],[24.761,54.414],[24.774,54.415],[24.793,54.413],[24.806,54.41],[24.817,54.411],[24.864,54.431],[24.946,54.449],[24.996,54.451],[24.998,54.406],[24.997,54.401],[24.994,54.395],[24.975,54.389],[24.948,54.386],[24.939,54.382],[24.934,54.379],[24.931,54.375],[24.926,54.361],[24.921,54.33],[24.914,54.315],[24.878,54.288],[24.77,54.225],[24.767,54.216],[24.771,54.208],[24.781,54.203],[24.806,54.196],[24.815,54.192],[24.821,54.187],[24.826,54.18],[24.833,54.166],[24.851,54.145]]]}},{"type":"Feature","id":"LT-KL","properties":{"id":"LT-KL","countryCode":"LT","isoSubdivision":"LT-KL","name":"Klaipėda","name_en":"Klaipėda","name_ko":"클라이페다","type":"County","labelLongitude":21.388,"labelLatitude":55.625,"minZoom":7},"geometry":{"type":"MultiPolygon","coordinates":[[[[21.053,56.073],[21.091,56.078],[21.15,56.078],[21.19,56.084],[21.205,56.103],[21.213,56.131],[21.23,56.163],[21.255,56.185],[21.29,56.207],[21.328,56.224],[21.358,56.233],[21.404,56.234],[21.419,56.237],[21.485,56.266],[21.559,56.297],[21.596,56.308],[21.684,56.31],[21.737,56.324],[21.965,56.384],[21.962,56.374],[21.949,56.368],[21.913,56.357],[21.906,56.352],[21.903,56.345],[21.905,56.339],[21.91,56.333],[21.918,56.329],[21.927,56.323],[21.933,56.315],[21.934,56.294],[21.936,56.284],[21.939,56.276],[21.951,56.267],[21.957,56.262],[21.985,56.224],[21.99,56.215],[21.987,56.21],[21.978,56.208],[21.968,56.207],[21.959,56.205],[21.953,56.2],[21.946,56.19],[21.94,56.183],[21.935,56.179],[21.923,56.162],[21.899,56.133],[21.891,56.129],[21.881,56.125],[21.832,56.125],[21.818,56.124],[21.81,56.119],[21.799,56.112],[21.791,56.108],[21.781,56.106],[21.742,56.105],[21.731,56.101],[21.684,56.076],[21.677,56.055],[21.642,56.017],[21.632,56.009],[21.623,56.005],[21.6,56.002],[21.587,55.996],[21.583,55.99],[21.584,55.985],[21.586,55.979],[21.588,55.972],[21.584,55.931],[21.585,55.922],[21.589,55.913],[21.593,55.907],[21.612,55.891],[21.615,55.886],[21.618,55.879],[21.614,55.873],[21.6,55.867],[21.596,55.861],[21.591,55.858],[21.539,55.834],[21.525,55.825],[21.519,55.819],[21.516,55.814],[21.515,55.809],[21.517,55.802],[21.559,55.8],[21.568,55.802],[21.581,55.805],[21.6,55.815],[21.605,55.813],[21.607,55.809],[21.606,55.802],[21.607,55.796],[21.619,55.786],[21.626,55.78],[21.631,55.776],[21.632,55.772],[21.629,55.768],[21.624,55.763],[21.621,55.758],[21.625,55.752],[21.633,55.751],[21.645,55.751],[21.657,55.754],[21.705,55.754],[21.728,55.759],[21.745,55.76],[21.752,55.757],[21.755,55.753],[21.752,55.748],[21.751,55.742],[21.75,55.736],[21.748,55.731],[21.744,55.726],[21.746,55.72],[21.765,55.701],[21.769,55.695],[21.771,55.691],[21.775,55.677],[21.78,55.671],[21.788,55.664],[21.792,55.659],[21.795,55.653],[21.825,55.628],[21.878,55.602],[21.882,55.593],[21.879,55.588],[21.873,55.581],[21.866,55.578],[21.814,55.565],[21.816,55.555],[21.831,55.548],[21.834,55.543],[21.841,55.51],[21.846,55.502],[21.861,55.493],[21.865,55.485],[21.886,55.436],[21.897,55.43],[21.907,55.43],[21.924,55.439],[21.933,55.44],[21.943,55.437],[21.964,55.427],[22.004,55.416],[22.037,55.412],[22.043,55.408],[22.046,55.406],[22.046,55.397],[22.031,55.392],[22.023,55.365],[22.016,55.356],[22.002,55.347],[21.985,55.339],[21.91,55.29],[21.9,55.277],[21.903,55.269],[21.915,55.266],[21.946,55.263],[22.042,55.239],[22.051,55.233],[22.057,55.227],[22.069,55.205],[22.084,55.185],[22.086,55.179],[22.086,55.174],[22.08,55.158],[22.084,55.153],[22.093,55.152],[22.105,55.157],[22.123,55.167],[22.13,55.169],[22.156,55.171],[22.166,55.171],[22.176,55.167],[22.194,55.157],[22.205,55.154],[22.216,55.153],[22.237,55.156],[22.246,55.155],[22.254,55.152],[22.262,55.151],[22.272,55.151],[22.28,55.152],[22.298,55.146],[22.299,55.135],[22.295,55.13],[22.287,55.122],[22.283,55.113],[22.272,55.098],[22.27,55.091],[22.27,55.07],[22.251,55.071],[22.143,55.055],[22.13,55.047],[22.118,55.038],[22.1,55.03],[22.077,55.029],[22.05,55.034],[22.028,55.044],[22.019,55.061],[22.019,55.077],[22.015,55.088],[22.003,55.093],[21.978,55.092],[21.951,55.08],[21.943,55.078],[21.933,55.08],[21.909,55.09],[21.873,55.095],[21.854,55.102],[21.82,55.119],[21.751,55.128],[21.733,55.136],[21.716,55.149],[21.646,55.181],[21.605,55.192],[21.504,55.194],[21.468,55.211],[21.406,55.272],[21.375,55.29],[21.35,55.288],[21.268,55.249],[21.269,55.254],[21.264,55.277],[21.264,55.284],[21.271,55.288],[21.278,55.287],[21.285,55.287],[21.291,55.297],[21.289,55.305],[21.282,55.317],[21.274,55.327],[21.268,55.332],[21.259,55.336],[21.256,55.347],[21.257,55.369],[21.247,55.37],[21.189,55.339],[21.183,55.346],[21.183,55.348],[21.186,55.349],[21.224,55.399],[21.233,55.407],[21.248,55.418],[21.248,55.442],[21.237,55.483],[21.224,55.512],[21.223,55.52],[21.219,55.524],[21.209,55.53],[21.199,55.538],[21.195,55.547],[21.196,55.559],[21.198,55.567],[21.198,55.575],[21.195,55.585],[21.158,55.642],[21.15,55.659],[21.147,55.678],[21.141,55.688],[21.099,55.729],[21.09,55.735],[21.081,55.739],[21.074,55.745],[21.07,55.77],[21.061,55.789],[21.045,55.874],[21.045,55.918],[21.047,55.929],[21.056,55.943],[21.058,55.952],[21.058,56.038],[21.053,56.073]]],[[[20.989,55.273],[20.925,55.283],[21,55.357],[21.042,55.416],[21.082,55.498],[21.093,55.582],[21.099,55.599],[21.094,55.603],[21.099,55.613],[21.091,55.633],[21.094,55.696],[21.085,55.723],[21.117,55.7],[21.132,55.656],[21.134,55.568],[21.131,55.556],[21.122,55.539],[21.12,55.527],[21.12,55.489],[21.108,55.473],[21.093,55.457],[21.087,55.441],[21.106,55.427],[21.106,55.421],[21.092,55.411],[21.073,55.392],[21.058,55.369],[21.051,55.349],[21.038,55.329],[20.989,55.291],[20.989,55.273]]]]}},{"type":"Feature","id":"LT-KU","properties":{"id":"LT-KU","countryCode":"LT","isoSubdivision":"LT-KU","name":"Kaunas","name_en":"Kaunas","name_ko":"카우나스","type":"County","labelLongitude":23.988,"labelLatitude":55.067,"minZoom":7},"geometry":{"type":"Polygon","coordinates":[[[24.416,55.393],[24.4,55.364],[24.396,55.358],[24.392,55.348],[24.393,55.338],[24.391,55.329],[24.389,55.317],[24.395,55.305],[24.415,55.287],[24.423,55.252],[24.431,55.243],[24.443,55.237],[24.483,55.229],[24.496,55.223],[24.497,55.22],[24.49,55.218],[24.481,55.216],[24.473,55.212],[24.47,55.204],[24.473,55.19],[24.481,55.181],[24.49,55.174],[24.499,55.169],[24.515,55.162],[24.524,55.158],[24.526,55.152],[24.525,55.144],[24.526,55.132],[24.537,55.12],[24.548,55.116],[24.561,55.117],[24.58,55.122],[24.59,55.121],[24.595,55.117],[24.608,55.091],[24.638,55.082],[24.649,55.072],[24.652,55.061],[24.652,55.056],[24.649,55.051],[24.644,55.047],[24.635,55.044],[24.617,55.038],[24.612,55.035],[24.606,55.031],[24.601,55.028],[24.589,55.024],[24.584,55.021],[24.58,55.018],[24.574,55.012],[24.568,55.004],[24.549,54.988],[24.557,54.986],[24.571,54.976],[24.622,54.961],[24.676,54.932],[24.694,54.928],[24.737,54.926],[24.755,54.922],[24.773,54.914],[24.795,54.897],[24.8,54.89],[24.771,54.877],[24.754,54.856],[24.74,54.849],[24.674,54.827],[24.663,54.822],[24.656,54.817],[24.654,54.811],[24.647,54.792],[24.644,54.787],[24.637,54.779],[24.633,54.771],[24.629,54.762],[24.628,54.753],[24.627,54.742],[24.625,54.731],[24.618,54.726],[24.607,54.725],[24.57,54.73],[24.559,54.73],[24.553,54.727],[24.54,54.715],[24.499,54.707],[24.482,54.701],[24.474,54.694],[24.472,54.684],[24.475,54.676],[24.478,54.668],[24.481,54.661],[24.482,54.655],[24.479,54.644],[24.494,54.634],[24.495,54.63],[24.495,54.624],[24.493,54.618],[24.49,54.609],[24.485,54.603],[24.477,54.599],[24.468,54.598],[24.459,54.599],[24.451,54.602],[24.442,54.601],[24.437,54.595],[24.434,54.585],[24.431,54.564],[24.427,54.556],[24.424,54.552],[24.413,54.544],[24.324,54.537],[24.31,54.539],[24.292,54.544],[24.282,54.551],[24.261,54.559],[24.246,54.561],[24.226,54.559],[24.206,54.554],[24.096,54.541],[24.088,54.542],[24.078,54.544],[24.069,54.547],[24.049,54.551],[24.03,54.551],[24.007,54.546],[24,54.544],[23.994,54.54],[23.99,54.538],[23.987,54.535],[23.985,54.532],[23.985,54.528],[23.986,54.524],[23.988,54.521],[23.99,54.519],[23.992,54.517],[24,54.512],[24.002,54.51],[24.003,54.507],[24.003,54.504],[24.002,54.502],[23.998,54.5],[23.939,54.487],[23.905,54.471],[23.879,54.462],[23.865,54.459],[23.86,54.46],[23.863,54.463],[23.86,54.466],[23.767,54.464],[23.756,54.47],[23.762,54.478],[23.768,54.483],[23.776,54.49],[23.779,54.498],[23.777,54.508],[23.76,54.537],[23.753,54.544],[23.746,54.546],[23.728,54.544],[23.716,54.546],[23.706,54.551],[23.694,54.561],[23.671,54.571],[23.665,54.576],[23.663,54.582],[23.668,54.589],[23.677,54.595],[23.684,54.6],[23.685,54.606],[23.677,54.613],[23.648,54.619],[23.643,54.622],[23.639,54.625],[23.634,54.627],[23.628,54.629],[23.624,54.632],[23.624,54.636],[23.631,54.641],[23.641,54.644],[23.666,54.649],[23.676,54.653],[23.681,54.662],[23.682,54.672],[23.663,54.718],[23.666,54.731],[23.666,54.738],[23.661,54.745],[23.656,54.748],[23.651,54.753],[23.648,54.759],[23.65,54.77],[23.642,54.776],[23.634,54.777],[23.624,54.777],[23.617,54.778],[23.614,54.781],[23.616,54.786],[23.626,54.794],[23.63,54.8],[23.634,54.804],[23.636,54.807],[23.648,54.811],[23.644,54.821],[23.641,54.826],[23.635,54.834],[23.632,54.846],[23.633,54.851],[23.634,54.858],[23.635,54.863],[23.632,54.869],[23.624,54.875],[23.603,54.888],[23.576,54.9],[23.557,54.905],[23.543,54.907],[23.519,54.899],[23.495,54.896],[23.472,54.937],[23.463,54.944],[23.452,54.951],[23.403,54.958],[23.399,54.964],[23.4,54.969],[23.406,54.975],[23.414,54.979],[23.421,54.983],[23.432,54.986],[23.443,54.987],[23.486,54.984],[23.495,54.985],[23.502,54.986],[23.508,54.989],[23.514,54.994],[23.525,55.006],[23.532,55.012],[23.536,55.014],[23.541,55.016],[23.547,55.017],[23.56,55.017],[23.568,55.018],[23.575,55.022],[23.576,55.031],[23.57,55.04],[23.551,55.05],[23.529,55.051],[23.506,55.049],[23.484,55.051],[23.433,55.075],[23.412,55.079],[23.423,55.11],[23.44,55.128],[23.452,55.138],[23.456,55.146],[23.456,55.155],[23.454,55.166],[23.453,55.184],[23.455,55.194],[23.46,55.202],[23.477,55.215],[23.458,55.229],[23.432,55.231],[23.376,55.224],[23.367,55.225],[23.359,55.229],[23.354,55.236],[23.338,55.243],[23.326,55.245],[23.286,55.241],[23.223,55.241],[23.205,55.245],[23.199,55.249],[23.195,55.261],[23.19,55.268],[23.173,55.276],[23.163,55.278],[23.155,55.278],[23.15,55.275],[23.143,55.272],[23.132,55.271],[23.114,55.269],[23.1,55.272],[23.09,55.273],[23.081,55.272],[23.077,55.27],[23.069,55.266],[23.063,55.264],[23.034,55.261],[23.009,55.261],[22.998,55.265],[22.996,55.271],[23.002,55.277],[23.015,55.286],[23.017,55.29],[23.013,55.294],[22.945,55.324],[22.932,55.332],[22.926,55.335],[22.922,55.335],[22.92,55.333],[22.92,55.331],[22.921,55.327],[22.921,55.324],[22.919,55.321],[22.915,55.319],[22.91,55.318],[22.908,55.316],[22.905,55.312],[22.902,55.309],[22.897,55.307],[22.892,55.305],[22.888,55.304],[22.884,55.3],[22.879,55.297],[22.868,55.293],[22.862,55.295],[22.858,55.299],[22.856,55.305],[22.854,55.311],[22.835,55.323],[22.816,55.332],[22.806,55.339],[22.801,55.347],[22.8,55.354],[22.804,55.368],[22.805,55.377],[22.803,55.384],[22.797,55.392],[22.79,55.394],[22.782,55.394],[22.766,55.391],[22.753,55.39],[22.748,55.391],[22.727,55.402],[22.725,55.412],[22.728,55.421],[22.726,55.427],[22.721,55.431],[22.699,55.433],[22.679,55.441],[22.668,55.449],[22.646,55.474],[22.677,55.489],[22.734,55.502],[22.809,55.508],[22.821,55.506],[22.829,55.502],[22.831,55.494],[22.834,55.489],[22.841,55.484],[22.867,55.481],[23.021,55.516],[23.057,55.53],[23.066,55.535],[23.072,55.541],[23.075,55.548],[23.093,55.565],[23.114,55.574],[23.176,55.579],[23.198,55.578],[23.216,55.576],[23.223,55.573],[23.228,55.567],[23.236,55.551],[23.243,55.545],[23.252,55.542],[23.265,55.545],[23.274,55.55],[23.325,55.567],[23.401,55.531],[23.422,55.523],[23.456,55.518],[23.473,55.518],[23.483,55.52],[23.485,55.524],[23.486,55.53],[23.487,55.533],[23.491,55.535],[23.503,55.536],[23.509,55.538],[23.515,55.54],[23.519,55.543],[23.523,55.545],[23.53,55.547],[23.538,55.546],[23.549,55.543],[23.561,55.535],[23.581,55.531],[23.586,55.529],[23.587,55.525],[23.582,55.517],[23.576,55.511],[23.572,55.504],[23.569,55.499],[23.581,55.483],[23.61,55.482],[23.626,55.477],[23.634,55.475],[23.641,55.476],[23.656,55.493],[23.666,55.501],[23.685,55.512],[23.731,55.531],[23.867,55.569],[23.886,55.569],[23.894,55.568],[23.902,55.565],[23.907,55.559],[23.91,55.552],[23.915,55.534],[23.919,55.526],[23.929,55.519],[23.943,55.516],[23.962,55.517],[23.97,55.521],[23.979,55.521],[23.991,55.519],[24.011,55.508],[24.022,55.5],[24.051,55.483],[24.056,55.476],[24.057,55.467],[24.054,55.459],[24.048,55.444],[24.049,55.438],[24.054,55.436],[24.064,55.438],[24.082,55.448],[24.091,55.45],[24.104,55.451],[24.121,55.449],[24.14,55.451],[24.189,55.465],[24.199,55.47],[24.21,55.472],[24.218,55.47],[24.23,55.461],[24.24,55.453],[24.251,55.447],[24.273,55.443],[24.286,55.443],[24.293,55.447],[24.294,55.452],[24.296,55.456],[24.303,55.457],[24.35,55.442],[24.364,55.436],[24.376,55.427],[24.389,55.409],[24.416,55.393]]]}},{"type":"Feature","id":"LT-MR","properties":{"id":"LT-MR","countryCode":"LT","isoSubdivision":"LT-MR","name":"Marijampolė","name_en":"Marijampolė","name_ko":"마리얌폴레","type":"County","labelLongitude":23.175,"labelLatitude":54.683,"minZoom":7},"geometry":{"type":"Polygon","coordinates":[[[22.93,54.38],[22.919,54.381],[22.859,54.399],[22.838,54.401],[22.813,54.394],[22.811,54.393],[22.786,54.365],[22.767,54.356],[22.707,54.419],[22.68,54.453],[22.675,54.492],[22.682,54.57],[22.704,54.618],[22.708,54.636],[22.707,54.646],[22.701,54.669],[22.701,54.68],[22.705,54.687],[22.727,54.705],[22.728,54.709],[22.725,54.714],[22.723,54.719],[22.725,54.723],[22.728,54.725],[22.737,54.726],[22.747,54.732],[22.765,54.737],[22.773,54.742],[22.787,54.756],[22.818,54.769],[22.833,54.779],[22.846,54.796],[22.848,54.814],[22.844,54.832],[22.829,54.873],[22.821,54.885],[22.809,54.894],[22.749,54.91],[22.741,54.918],[22.752,54.931],[22.739,54.934],[22.729,54.94],[22.722,54.947],[22.716,54.951],[22.706,54.953],[22.65,54.953],[22.633,54.958],[22.622,54.97],[22.608,54.992],[22.592,55.038],[22.581,55.058],[22.571,55.064],[22.599,55.071],[22.607,55.066],[22.625,55.059],[22.631,55.057],[22.644,55.057],[22.729,55.066],[22.759,55.073],[22.77,55.079],[22.82,55.088],[22.871,55.092],[22.925,55.084],[22.94,55.089],[22.952,55.095],[22.971,55.101],[23.002,55.105],[23.32,55.071],[23.412,55.079],[23.433,55.075],[23.484,55.051],[23.506,55.049],[23.529,55.051],[23.551,55.05],[23.57,55.04],[23.576,55.031],[23.575,55.022],[23.568,55.018],[23.56,55.017],[23.547,55.017],[23.541,55.016],[23.536,55.014],[23.532,55.012],[23.525,55.006],[23.514,54.994],[23.508,54.989],[23.502,54.986],[23.495,54.985],[23.486,54.984],[23.443,54.987],[23.432,54.986],[23.421,54.983],[23.414,54.979],[23.406,54.975],[23.4,54.969],[23.399,54.964],[23.403,54.958],[23.452,54.951],[23.463,54.944],[23.472,54.937],[23.495,54.896],[23.519,54.899],[23.543,54.907],[23.557,54.905],[23.576,54.9],[23.603,54.888],[23.624,54.875],[23.632,54.869],[23.635,54.863],[23.634,54.858],[23.633,54.851],[23.632,54.846],[23.635,54.834],[23.641,54.826],[23.644,54.821],[23.648,54.811],[23.636,54.807],[23.634,54.804],[23.63,54.8],[23.626,54.794],[23.616,54.786],[23.614,54.781],[23.617,54.778],[23.624,54.777],[23.634,54.777],[23.642,54.776],[23.65,54.77],[23.648,54.759],[23.651,54.753],[23.656,54.748],[23.661,54.745],[23.666,54.738],[23.666,54.731],[23.663,54.718],[23.682,54.672],[23.681,54.662],[23.676,54.653],[23.666,54.649],[23.641,54.644],[23.631,54.641],[23.624,54.636],[23.624,54.632],[23.628,54.629],[23.634,54.627],[23.639,54.625],[23.643,54.622],[23.648,54.619],[23.677,54.613],[23.685,54.606],[23.684,54.6],[23.677,54.595],[23.668,54.589],[23.663,54.582],[23.665,54.576],[23.671,54.571],[23.694,54.561],[23.706,54.551],[23.716,54.546],[23.728,54.544],[23.746,54.546],[23.753,54.544],[23.76,54.537],[23.777,54.508],[23.779,54.498],[23.776,54.49],[23.768,54.483],[23.762,54.478],[23.756,54.47],[23.704,54.478],[23.686,54.489],[23.678,54.497],[23.661,54.507],[23.65,54.509],[23.641,54.508],[23.557,54.469],[23.549,54.463],[23.542,54.456],[23.539,54.447],[23.54,54.439],[23.542,54.428],[23.542,54.425],[23.541,54.418],[23.465,54.401],[23.456,54.396],[23.448,54.389],[23.453,54.385],[23.465,54.38],[23.467,54.378],[23.466,54.372],[23.457,54.369],[23.426,54.366],[23.401,54.36],[23.387,54.354],[23.369,54.34],[23.358,54.323],[23.355,54.314],[23.347,54.304],[23.345,54.297],[23.345,54.29],[23.348,54.283],[23.349,54.277],[23.339,54.245],[23.336,54.226],[23.316,54.236],[23.235,54.254],[23.197,54.268],[23.135,54.298],[23.117,54.303],[23.097,54.301],[23.073,54.295],[23.05,54.295],[23.032,54.31],[23.032,54.32],[23.038,54.331],[23.042,54.341],[23.035,54.347],[23.001,54.349],[22.99,54.353],[22.983,54.36],[22.979,54.368],[22.973,54.375],[22.963,54.382],[22.952,54.383],[22.93,54.38]]]}},{"type":"Feature","id":"LT-PN","properties":{"id":"LT-PN","countryCode":"LT","isoSubdivision":"LT-PN","name":"Panevėžys","name_en":"Panevėžys","name_ko":"파네베지스","type":"County","labelLongitude":24.914,"labelLatitude":56.073,"minZoom":7},"geometry":{"type":"Polygon","coordinates":[[[24.871,56.443],[24.892,56.439],[24.91,56.422],[24.936,56.38],[24.962,56.319],[24.973,56.301],[24.983,56.29],[25.016,56.27],[25.026,56.26],[25.044,56.228],[25.073,56.198],[25.109,56.183],[25.349,56.16],[25.455,56.15],[25.523,56.157],[25.573,56.143],[25.59,56.141],[25.65,56.144],[25.662,56.141],[25.669,56.132],[25.688,56.098],[25.697,56.088],[25.709,56.081],[25.766,56.059],[25.795,56.04],[25.871,55.992],[25.961,55.958],[25.941,55.938],[25.941,55.92],[25.94,55.91],[25.934,55.904],[25.921,55.894],[25.911,55.888],[25.89,55.879],[25.877,55.87],[25.871,55.861],[25.866,55.85],[25.839,55.827],[25.83,55.813],[25.814,55.782],[25.808,55.776],[25.802,55.774],[25.783,55.775],[25.764,55.78],[25.756,55.781],[25.747,55.778],[25.732,55.761],[25.725,55.755],[25.687,55.73],[25.685,55.736],[25.684,55.739],[25.682,55.742],[25.678,55.745],[25.666,55.746],[25.558,55.744],[25.544,55.742],[25.529,55.736],[25.488,55.724],[25.469,55.74],[25.465,55.745],[25.457,55.749],[25.447,55.749],[25.439,55.746],[25.428,55.74],[25.422,55.739],[25.416,55.741],[25.409,55.746],[25.402,55.756],[25.398,55.764],[25.379,55.775],[25.303,55.75],[25.296,55.745],[25.289,55.738],[25.295,55.723],[25.293,55.716],[25.287,55.714],[25.278,55.715],[25.256,55.719],[25.245,55.718],[25.237,55.717],[25.122,55.692],[25.093,55.689],[25.079,55.688],[25.069,55.69],[25.068,55.693],[25.071,55.702],[25.068,55.706],[25.053,55.714],[25.047,55.718],[25.039,55.725],[25.037,55.728],[25.022,55.734],[25.018,55.735],[24.955,55.737],[24.925,55.733],[24.906,55.727],[24.892,55.726],[24.86,55.728],[24.852,55.727],[24.846,55.724],[24.843,55.72],[24.84,55.717],[24.831,55.714],[24.822,55.714],[24.793,55.721],[24.781,55.721],[24.766,55.717],[24.755,55.716],[24.689,55.721],[24.69,55.709],[24.689,55.704],[24.686,55.696],[24.691,55.692],[24.712,55.682],[24.717,55.676],[24.718,55.672],[24.713,55.665],[24.704,55.66],[24.693,55.658],[24.682,55.661],[24.675,55.665],[24.668,55.668],[24.639,55.663],[24.631,55.659],[24.635,55.655],[24.644,55.651],[24.657,55.646],[24.669,55.64],[24.679,55.631],[24.685,55.619],[24.686,55.612],[24.683,55.607],[24.664,55.599],[24.654,55.593],[24.646,55.585],[24.643,55.576],[24.644,55.559],[24.645,55.555],[24.647,55.551],[24.65,55.548],[24.65,55.541],[24.631,55.523],[24.611,55.519],[24.606,55.517],[24.601,55.514],[24.601,55.508],[24.607,55.503],[24.625,55.496],[24.632,55.491],[24.633,55.486],[24.627,55.482],[24.611,55.48],[24.599,55.482],[24.576,55.489],[24.565,55.49],[24.554,55.487],[24.543,55.476],[24.537,55.466],[24.53,55.449],[24.524,55.439],[24.512,55.429],[24.476,55.406],[24.467,55.404],[24.459,55.406],[24.451,55.407],[24.444,55.406],[24.416,55.393],[24.389,55.409],[24.376,55.427],[24.364,55.436],[24.35,55.442],[24.303,55.457],[24.296,55.456],[24.294,55.452],[24.293,55.447],[24.286,55.443],[24.273,55.443],[24.251,55.447],[24.24,55.453],[24.23,55.461],[24.218,55.47],[24.21,55.472],[24.199,55.47],[24.189,55.465],[24.14,55.451],[24.121,55.449],[24.104,55.451],[24.091,55.45],[24.082,55.448],[24.064,55.438],[24.054,55.436],[24.049,55.438],[24.048,55.444],[24.054,55.459],[24.057,55.467],[24.056,55.476],[24.051,55.483],[24.022,55.5],[24.011,55.508],[23.991,55.519],[23.979,55.521],[23.97,55.521],[23.962,55.517],[23.943,55.516],[23.929,55.519],[23.919,55.526],[23.915,55.534],[23.91,55.552],[23.907,55.559],[23.902,55.565],[23.894,55.568],[23.886,55.569],[23.867,55.569],[23.876,55.581],[23.88,55.585],[23.892,55.594],[23.907,55.611],[23.915,55.624],[23.926,55.627],[23.948,55.626],[23.957,55.628],[23.971,55.636],[23.979,55.637],[23.989,55.636],[23.999,55.637],[24.005,55.642],[24.005,55.65],[23.992,55.681],[23.993,55.692],[24.002,55.697],[24.013,55.701],[24.022,55.707],[24.027,55.715],[24.026,55.729],[24.026,55.738],[24.021,55.763],[24.016,55.769],[24,55.779],[23.998,55.787],[23.998,55.792],[23.995,55.796],[23.99,55.799],[23.977,55.803],[23.967,55.805],[23.95,55.814],[23.937,55.843],[23.976,55.846],[23.979,55.848],[23.983,55.852],[23.982,55.859],[23.982,55.865],[23.989,55.873],[24.002,55.877],[24.03,55.885],[24.051,55.894],[24.06,55.904],[24.058,55.919],[24.062,55.924],[24.07,55.934],[24.072,55.944],[24.068,55.96],[24.062,55.966],[24.053,55.969],[24.044,55.971],[24.033,55.974],[24.022,55.978],[24.012,55.985],[24.007,55.992],[24.005,56],[24.003,56.026],[24.004,56.032],[24.005,56.037],[24.007,56.042],[24.01,56.045],[24.014,56.048],[24.019,56.048],[24.025,56.046],[24.031,56.044],[24.035,56.043],[24.041,56.043],[24.048,56.049],[24.053,56.056],[24.059,56.076],[24.068,56.087],[24.091,56.106],[24.094,56.116],[24.095,56.126],[24.097,56.133],[24.103,56.142],[24.11,56.147],[24.12,56.151],[24.151,56.156],[24.158,56.162],[24.16,56.17],[24.161,56.185],[24.159,56.192],[24.154,56.196],[24.149,56.196],[24.142,56.193],[24.137,56.194],[24.129,56.196],[24.125,56.207],[24.128,56.217],[24.134,56.224],[24.143,56.231],[24.145,56.237],[24.142,56.242],[24.14,56.258],[24.167,56.26],[24.288,56.296],[24.319,56.299],[24.351,56.292],[24.414,56.266],[24.447,56.261],[24.481,56.269],[24.539,56.288],[24.558,56.299],[24.573,56.31],[24.639,56.36],[24.679,56.377],[24.715,56.386],[24.806,56.409],[24.816,56.409],[24.838,56.404],[24.846,56.405],[24.852,56.414],[24.853,56.425],[24.857,56.435],[24.871,56.443]]]}},{"type":"Feature","id":"LT-SA","properties":{"id":"LT-SA","countryCode":"LT","isoSubdivision":"LT-SA","name":"Šiauliai","name_en":"Šiauliai","name_ko":"샤울랴이","type":"County","labelLongitude":23.268,"labelLatitude":55.959,"minZoom":7},"geometry":{"type":"Polygon","coordinates":[[[22.925,56.412],[22.957,56.402],[22.981,56.373],[23.017,56.324],[23.062,56.304],[23.113,56.311],[23.163,56.341],[23.154,56.351],[23.173,56.358],[23.288,56.373],[23.311,56.371],[23.378,56.355],[23.482,56.33],[23.518,56.329],[23.578,56.349],[23.61,56.354],[23.679,56.352],[23.707,56.354],[23.715,56.353],[23.724,56.346],[23.725,56.338],[23.724,56.332],[23.725,56.329],[23.756,56.326],[23.825,56.335],[23.858,56.334],[23.871,56.332],[23.981,56.312],[24.075,56.271],[24.109,56.261],[24.139,56.257],[24.14,56.258],[24.142,56.242],[24.145,56.237],[24.143,56.231],[24.134,56.224],[24.128,56.217],[24.125,56.207],[24.129,56.196],[24.137,56.194],[24.142,56.193],[24.149,56.196],[24.154,56.196],[24.159,56.192],[24.161,56.185],[24.16,56.17],[24.158,56.162],[24.151,56.156],[24.12,56.151],[24.11,56.147],[24.103,56.142],[24.097,56.133],[24.095,56.126],[24.094,56.116],[24.091,56.106],[24.068,56.087],[24.059,56.076],[24.053,56.056],[24.048,56.049],[24.041,56.043],[24.035,56.043],[24.031,56.044],[24.025,56.046],[24.019,56.048],[24.014,56.048],[24.01,56.045],[24.007,56.042],[24.005,56.037],[24.004,56.032],[24.003,56.026],[24.005,56],[24.007,55.992],[24.012,55.985],[24.022,55.978],[24.033,55.974],[24.044,55.971],[24.053,55.969],[24.062,55.966],[24.068,55.96],[24.072,55.944],[24.07,55.934],[24.062,55.924],[24.058,55.919],[24.06,55.904],[24.051,55.894],[24.03,55.885],[24.002,55.877],[23.989,55.873],[23.982,55.865],[23.982,55.859],[23.983,55.852],[23.979,55.848],[23.976,55.846],[23.937,55.843],[23.95,55.814],[23.967,55.805],[23.977,55.803],[23.99,55.799],[23.995,55.796],[23.998,55.792],[23.998,55.787],[24,55.779],[24.016,55.769],[24.021,55.763],[24.026,55.738],[24.026,55.729],[24.027,55.715],[24.022,55.707],[24.013,55.701],[24.002,55.697],[23.993,55.692],[23.992,55.681],[24.005,55.65],[24.005,55.642],[23.999,55.637],[23.989,55.636],[23.979,55.637],[23.971,55.636],[23.957,55.628],[23.948,55.626],[23.926,55.627],[23.915,55.624],[23.907,55.611],[23.892,55.594],[23.88,55.585],[23.876,55.581],[23.867,55.569],[23.731,55.531],[23.685,55.512],[23.666,55.501],[23.656,55.493],[23.641,55.476],[23.634,55.475],[23.626,55.477],[23.61,55.482],[23.581,55.483],[23.569,55.499],[23.572,55.504],[23.576,55.511],[23.582,55.517],[23.587,55.525],[23.586,55.529],[23.581,55.531],[23.561,55.535],[23.549,55.543],[23.538,55.546],[23.53,55.547],[23.523,55.545],[23.519,55.543],[23.515,55.54],[23.509,55.538],[23.503,55.536],[23.491,55.535],[23.487,55.533],[23.486,55.53],[23.485,55.524],[23.483,55.52],[23.473,55.518],[23.456,55.518],[23.422,55.523],[23.401,55.531],[23.325,55.567],[23.274,55.55],[23.265,55.545],[23.252,55.542],[23.243,55.545],[23.236,55.551],[23.228,55.567],[23.223,55.573],[23.216,55.576],[23.198,55.578],[23.176,55.579],[23.114,55.574],[23.093,55.565],[23.075,55.548],[23.072,55.541],[23.066,55.535],[23.057,55.53],[23.021,55.516],[22.867,55.481],[22.841,55.484],[22.834,55.489],[22.831,55.494],[22.829,55.502],[22.821,55.506],[22.809,55.508],[22.734,55.502],[22.677,55.489],[22.646,55.474],[22.621,55.481],[22.616,55.505],[22.637,55.523],[22.635,55.528],[22.628,55.531],[22.618,55.535],[22.58,55.568],[22.569,55.575],[22.523,55.591],[22.509,55.598],[22.502,55.606],[22.494,55.617],[22.492,55.623],[22.493,55.629],[22.497,55.634],[22.5,55.641],[22.496,55.645],[22.475,55.65],[22.463,55.657],[22.459,55.664],[22.457,55.669],[22.457,55.678],[22.488,55.694],[22.497,55.697],[22.505,55.702],[22.506,55.71],[22.5,55.726],[22.499,55.734],[22.501,55.743],[22.504,55.753],[22.506,55.766],[22.503,55.775],[22.491,55.792],[22.492,55.798],[22.505,55.805],[22.516,55.808],[22.53,55.81],[22.542,55.813],[22.556,55.819],[22.566,55.824],[22.571,55.834],[22.568,55.853],[22.57,55.861],[22.577,55.866],[22.593,55.869],[22.607,55.87],[22.622,55.874],[22.632,55.882],[22.646,55.906],[22.676,55.926],[22.672,55.937],[22.684,55.942],[22.697,55.946],[22.698,55.949],[22.693,55.952],[22.683,55.956],[22.674,55.961],[22.663,55.971],[22.655,55.975],[22.648,55.974],[22.644,55.969],[22.639,55.964],[22.631,55.96],[22.621,55.958],[22.608,55.96],[22.599,55.965],[22.585,55.976],[22.581,55.983],[22.581,55.988],[22.586,55.992],[22.6,55.998],[22.606,56.002],[22.609,56.007],[22.61,56.015],[22.609,56.028],[22.6,56.044],[22.602,56.052],[22.612,56.058],[22.659,56.064],[22.663,56.065],[22.667,56.067],[22.671,56.072],[22.673,56.074],[22.686,56.075],[22.702,56.08],[22.686,56.091],[22.681,56.097],[22.679,56.106],[22.681,56.114],[22.685,56.121],[22.684,56.126],[22.677,56.131],[22.664,56.133],[22.642,56.131],[22.612,56.126],[22.601,56.123],[22.594,56.118],[22.58,56.114],[22.562,56.112],[22.524,56.115],[22.481,56.104],[22.467,56.104],[22.453,56.106],[22.441,56.111],[22.436,56.119],[22.435,56.126],[22.43,56.131],[22.423,56.131],[22.415,56.131],[22.41,56.133],[22.41,56.14],[22.42,56.15],[22.417,56.154],[22.411,56.157],[22.375,56.164],[22.389,56.222],[22.417,56.245],[22.433,56.254],[22.449,56.267],[22.455,56.277],[22.455,56.286],[22.444,56.294],[22.442,56.298],[22.446,56.304],[22.454,56.31],[22.461,56.32],[22.473,56.324],[22.485,56.324],[22.512,56.32],[22.526,56.319],[22.54,56.321],[22.554,56.327],[22.562,56.335],[22.568,56.344],[22.568,56.353],[22.562,56.36],[22.556,56.366],[22.553,56.373],[22.558,56.378],[22.565,56.38],[22.578,56.387],[22.605,56.379],[22.649,56.353],[22.666,56.349],[22.681,56.35],[22.823,56.383],[22.86,56.397],[22.889,56.408],[22.925,56.412]]]}},{"type":"Feature","id":"LT-TA","properties":{"id":"LT-TA","countryCode":"LT","isoSubdivision":"LT-TA","name":"Tauragė","name_en":"Tauragė","name_ko":"타우라게","type":"County","labelLongitude":22.646,"labelLatitude":55.266,"minZoom":7},"geometry":{"type":"Polygon","coordinates":[[[22.571,55.064],[22.565,55.068],[22.541,55.076],[22.436,55.058],[22.27,55.07],[22.27,55.091],[22.272,55.098],[22.283,55.113],[22.287,55.122],[22.295,55.13],[22.299,55.135],[22.298,55.146],[22.28,55.152],[22.272,55.151],[22.262,55.151],[22.254,55.152],[22.246,55.155],[22.237,55.156],[22.216,55.153],[22.205,55.154],[22.194,55.157],[22.176,55.167],[22.166,55.171],[22.156,55.171],[22.13,55.169],[22.123,55.167],[22.105,55.157],[22.093,55.152],[22.084,55.153],[22.08,55.158],[22.086,55.174],[22.086,55.179],[22.084,55.185],[22.069,55.205],[22.057,55.227],[22.051,55.233],[22.042,55.239],[21.946,55.263],[21.915,55.266],[21.903,55.269],[21.9,55.277],[21.91,55.29],[21.985,55.339],[22.002,55.347],[22.016,55.356],[22.023,55.365],[22.031,55.392],[22.046,55.397],[22.046,55.406],[22.043,55.408],[22.037,55.412],[22.004,55.416],[21.964,55.427],[21.943,55.437],[21.933,55.44],[21.924,55.439],[21.907,55.43],[21.897,55.43],[21.886,55.436],[21.865,55.485],[21.861,55.493],[21.846,55.502],[21.841,55.51],[21.834,55.543],[21.831,55.548],[21.816,55.555],[21.814,55.565],[21.866,55.578],[21.873,55.581],[21.879,55.588],[21.882,55.593],[21.878,55.602],[21.991,55.611],[22.004,55.608],[22.018,55.608],[22.028,55.61],[22.053,55.624],[22.058,55.628],[22.059,55.633],[22.058,55.639],[22.059,55.645],[22.062,55.652],[22.066,55.657],[22.07,55.662],[22.074,55.664],[22.082,55.664],[22.095,55.662],[22.107,55.662],[22.12,55.664],[22.137,55.671],[22.172,55.68],[22.255,55.685],[22.279,55.687],[22.309,55.678],[22.321,55.677],[22.346,55.678],[22.357,55.676],[22.369,55.672],[22.381,55.671],[22.457,55.678],[22.457,55.669],[22.459,55.664],[22.463,55.657],[22.475,55.65],[22.496,55.645],[22.5,55.641],[22.497,55.634],[22.493,55.629],[22.492,55.623],[22.494,55.617],[22.502,55.606],[22.509,55.598],[22.523,55.591],[22.569,55.575],[22.58,55.568],[22.618,55.535],[22.628,55.531],[22.635,55.528],[22.637,55.523],[22.616,55.505],[22.621,55.481],[22.646,55.474],[22.668,55.449],[22.679,55.441],[22.699,55.433],[22.721,55.431],[22.726,55.427],[22.728,55.421],[22.725,55.412],[22.727,55.402],[22.748,55.391],[22.753,55.39],[22.766,55.391],[22.782,55.394],[22.79,55.394],[22.797,55.392],[22.803,55.384],[22.805,55.377],[22.804,55.368],[22.8,55.354],[22.801,55.347],[22.806,55.339],[22.816,55.332],[22.835,55.323],[22.854,55.311],[22.856,55.305],[22.858,55.299],[22.862,55.295],[22.868,55.293],[22.879,55.297],[22.884,55.3],[22.888,55.304],[22.892,55.305],[22.897,55.307],[22.902,55.309],[22.905,55.312],[22.908,55.316],[22.91,55.318],[22.915,55.319],[22.919,55.321],[22.921,55.324],[22.921,55.327],[22.92,55.331],[22.92,55.333],[22.922,55.335],[22.926,55.335],[22.932,55.332],[22.945,55.324],[23.013,55.294],[23.017,55.29],[23.015,55.286],[23.002,55.277],[22.996,55.271],[22.998,55.265],[23.009,55.261],[23.034,55.261],[23.063,55.264],[23.069,55.266],[23.077,55.27],[23.081,55.272],[23.09,55.273],[23.1,55.272],[23.114,55.269],[23.132,55.271],[23.143,55.272],[23.15,55.275],[23.155,55.278],[23.163,55.278],[23.173,55.276],[23.19,55.268],[23.195,55.261],[23.199,55.249],[23.205,55.245],[23.223,55.241],[23.286,55.241],[23.326,55.245],[23.338,55.243],[23.354,55.236],[23.359,55.229],[23.367,55.225],[23.376,55.224],[23.432,55.231],[23.458,55.229],[23.477,55.215],[23.46,55.202],[23.455,55.194],[23.453,55.184],[23.454,55.166],[23.456,55.155],[23.456,55.146],[23.452,55.138],[23.44,55.128],[23.423,55.11],[23.412,55.079],[23.32,55.071],[23.002,55.105],[22.971,55.101],[22.952,55.095],[22.94,55.089],[22.925,55.084],[22.871,55.092],[22.82,55.088],[22.77,55.079],[22.759,55.073],[22.729,55.066],[22.644,55.057],[22.631,55.057],[22.625,55.059],[22.607,55.066],[22.599,55.071],[22.571,55.064]]]}},{"type":"Feature","id":"LT-TE","properties":{"id":"LT-TE","countryCode":"LT","isoSubdivision":"LT-TE","name":"Telšiai","name_en":"Telšiai","name_ko":"텔샤이","type":"County","labelLongitude":22.109,"labelLatitude":56.04,"minZoom":7},"geometry":{"type":"Polygon","coordinates":[[[22.094,56.417],[22.139,56.416],[22.158,56.41],[22.195,56.395],[22.215,56.39],[22.512,56.396],[22.576,56.388],[22.578,56.387],[22.565,56.38],[22.558,56.378],[22.553,56.373],[22.556,56.366],[22.562,56.36],[22.568,56.353],[22.568,56.344],[22.562,56.335],[22.554,56.327],[22.54,56.321],[22.526,56.319],[22.512,56.32],[22.485,56.324],[22.473,56.324],[22.461,56.32],[22.454,56.31],[22.446,56.304],[22.442,56.298],[22.444,56.294],[22.455,56.286],[22.455,56.277],[22.449,56.267],[22.433,56.254],[22.417,56.245],[22.389,56.222],[22.375,56.164],[22.411,56.157],[22.417,56.154],[22.42,56.15],[22.41,56.14],[22.41,56.133],[22.415,56.131],[22.423,56.131],[22.43,56.131],[22.435,56.126],[22.436,56.119],[22.441,56.111],[22.453,56.106],[22.467,56.104],[22.481,56.104],[22.524,56.115],[22.562,56.112],[22.58,56.114],[22.594,56.118],[22.601,56.123],[22.612,56.126],[22.642,56.131],[22.664,56.133],[22.677,56.131],[22.684,56.126],[22.685,56.121],[22.681,56.114],[22.679,56.106],[22.681,56.097],[22.686,56.091],[22.702,56.08],[22.686,56.075],[22.673,56.074],[22.671,56.072],[22.667,56.067],[22.663,56.065],[22.659,56.064],[22.612,56.058],[22.602,56.052],[22.6,56.044],[22.609,56.028],[22.61,56.015],[22.609,56.007],[22.606,56.002],[22.6,55.998],[22.586,55.992],[22.581,55.988],[22.581,55.983],[22.585,55.976],[22.599,55.965],[22.608,55.96],[22.621,55.958],[22.631,55.96],[22.639,55.964],[22.644,55.969],[22.648,55.974],[22.655,55.975],[22.663,55.971],[22.674,55.961],[22.683,55.956],[22.693,55.952],[22.698,55.949],[22.697,55.946],[22.684,55.942],[22.672,55.937],[22.676,55.926],[22.646,55.906],[22.632,55.882],[22.622,55.874],[22.607,55.87],[22.593,55.869],[22.577,55.866],[22.57,55.861],[22.568,55.853],[22.571,55.834],[22.566,55.824],[22.556,55.819],[22.542,55.813],[22.53,55.81],[22.516,55.808],[22.505,55.805],[22.492,55.798],[22.491,55.792],[22.503,55.775],[22.506,55.766],[22.504,55.753],[22.501,55.743],[22.499,55.734],[22.5,55.726],[22.506,55.71],[22.505,55.702],[22.497,55.697],[22.488,55.694],[22.457,55.678],[22.381,55.671],[22.369,55.672],[22.357,55.676],[22.346,55.678],[22.321,55.677],[22.309,55.678],[22.279,55.687],[22.255,55.685],[22.172,55.68],[22.137,55.671],[22.12,55.664],[22.107,55.662],[22.095,55.662],[22.082,55.664],[22.074,55.664],[22.07,55.662],[22.066,55.657],[22.062,55.652],[22.059,55.645],[22.058,55.639],[22.059,55.633],[22.058,55.628],[22.053,55.624],[22.028,55.61],[22.018,55.608],[22.004,55.608],[21.991,55.611],[21.878,55.602],[21.825,55.628],[21.795,55.653],[21.792,55.659],[21.788,55.664],[21.78,55.671],[21.775,55.677],[21.771,55.691],[21.769,55.695],[21.765,55.701],[21.746,55.72],[21.744,55.726],[21.748,55.731],[21.75,55.736],[21.751,55.742],[21.752,55.748],[21.755,55.753],[21.752,55.757],[21.745,55.76],[21.728,55.759],[21.705,55.754],[21.657,55.754],[21.645,55.751],[21.633,55.751],[21.625,55.752],[21.621,55.758],[21.624,55.763],[21.629,55.768],[21.632,55.772],[21.631,55.776],[21.626,55.78],[21.619,55.786],[21.607,55.796],[21.606,55.802],[21.607,55.809],[21.605,55.813],[21.6,55.815],[21.581,55.805],[21.568,55.802],[21.559,55.8],[21.517,55.802],[21.515,55.809],[21.516,55.814],[21.519,55.819],[21.525,55.825],[21.539,55.834],[21.591,55.858],[21.596,55.861],[21.6,55.867],[21.614,55.873],[21.618,55.879],[21.615,55.886],[21.612,55.891],[21.593,55.907],[21.589,55.913],[21.585,55.922],[21.584,55.931],[21.588,55.972],[21.586,55.979],[21.584,55.985],[21.583,55.99],[21.587,55.996],[21.6,56.002],[21.623,56.005],[21.632,56.009],[21.642,56.017],[21.677,56.055],[21.684,56.076],[21.731,56.101],[21.742,56.105],[21.781,56.106],[21.791,56.108],[21.799,56.112],[21.81,56.119],[21.818,56.124],[21.832,56.125],[21.881,56.125],[21.891,56.129],[21.899,56.133],[21.923,56.162],[21.935,56.179],[21.94,56.183],[21.946,56.19],[21.953,56.2],[21.959,56.205],[21.968,56.207],[21.978,56.208],[21.987,56.21],[21.99,56.215],[21.985,56.224],[21.957,56.262],[21.951,56.267],[21.939,56.276],[21.936,56.284],[21.934,56.294],[21.933,56.315],[21.927,56.323],[21.918,56.329],[21.91,56.333],[21.905,56.339],[21.903,56.345],[21.906,56.352],[21.913,56.357],[21.949,56.368],[21.962,56.374],[21.965,56.384],[21.983,56.388],[22.094,56.417]]]}},{"type":"Feature","id":"LT-UT","properties":{"id":"LT-UT","countryCode":"LT","isoSubdivision":"LT-UT","name":"Utena","name_en":"Utena","name_ko":"우테나","type":"County","labelLongitude":25.622,"labelLatitude":55.527,"minZoom":7},"geometry":{"type":"Polygon","coordinates":[[[26.595,55.667],[26.604,55.643],[26.608,55.616],[26.605,55.59],[26.596,55.568],[26.576,55.551],[26.552,55.534],[26.532,55.516],[26.528,55.492],[26.546,55.471],[26.543,55.46],[26.508,55.439],[26.499,55.428],[26.486,55.391],[26.479,55.381],[26.455,55.356],[26.445,55.338],[26.45,55.327],[26.466,55.321],[26.525,55.308],[26.542,55.308],[26.603,55.317],[26.769,55.3],[26.792,55.29],[26.801,55.273],[26.79,55.257],[26.766,55.247],[26.74,55.243],[26.737,55.247],[26.716,55.269],[26.707,55.273],[26.693,55.277],[26.679,55.277],[26.633,55.269],[26.624,55.266],[26.617,55.261],[26.568,55.244],[26.456,55.225],[26.321,55.229],[26.271,55.236],[26.235,55.248],[26.216,55.253],[26.204,55.253],[26.195,55.251],[26.185,55.246],[26.167,55.245],[26.155,55.249],[26.148,55.258],[26.149,55.268],[26.156,55.278],[26.163,55.285],[26.163,55.292],[26.156,55.299],[26.144,55.306],[26.117,55.313],[26.103,55.315],[26.041,55.314],[26.037,55.314],[26.031,55.312],[26.025,55.31],[26.018,55.306],[26.014,55.302],[26.008,55.294],[26.004,55.29],[25.999,55.286],[25.989,55.281],[25.976,55.277],[25.958,55.275],[25.947,55.277],[25.942,55.28],[25.94,55.284],[25.938,55.288],[25.931,55.293],[25.924,55.294],[25.895,55.29],[25.883,55.292],[25.875,55.296],[25.864,55.308],[25.853,55.316],[25.815,55.304],[25.778,55.311],[25.734,55.327],[25.714,55.287],[25.708,55.279],[25.678,55.258],[25.65,55.248],[25.644,55.242],[25.641,55.235],[25.638,55.22],[25.642,55.212],[25.646,55.205],[25.661,55.194],[25.691,55.178],[25.698,55.172],[25.703,55.167],[25.719,55.155],[25.73,55.15],[25.748,55.144],[25.756,55.14],[25.765,55.137],[25.776,55.135],[25.781,55.131],[25.778,55.124],[25.754,55.113],[25.75,55.107],[25.752,55.103],[25.758,55.099],[25.762,55.097],[25.759,55.093],[25.751,55.088],[25.731,55.077],[25.729,55.07],[25.731,55.062],[25.736,55.057],[25.731,55.054],[25.717,55.054],[25.663,55.06],[25.654,55.063],[25.652,55.067],[25.648,55.07],[25.617,55.071],[25.513,55.057],[25.377,55.032],[25.364,55.028],[25.349,55.027],[25.333,55.028],[25.27,55.041],[25.222,55.042],[25.216,55.064],[25.214,55.069],[25.208,55.077],[25.191,55.084],[25.176,55.089],[25.135,55.095],[25.128,55.098],[25.126,55.103],[25.132,55.115],[25.137,55.13],[25.135,55.15],[25.169,55.158],[25.179,55.161],[25.193,55.169],[25.21,55.175],[25.221,55.183],[25.231,55.186],[25.243,55.188],[25.251,55.19],[25.252,55.195],[25.239,55.201],[25.19,55.217],[25.179,55.218],[25.169,55.216],[25.159,55.217],[25.152,55.221],[25.148,55.233],[25.153,55.239],[25.168,55.25],[25.173,55.256],[25.177,55.263],[25.176,55.268],[25.17,55.273],[25.154,55.275],[25.141,55.273],[25.129,55.271],[25.119,55.27],[25.109,55.272],[25.097,55.283],[25.069,55.295],[25.06,55.301],[25.056,55.305],[25.058,55.325],[24.982,55.322],[24.973,55.323],[24.963,55.326],[24.963,55.331],[24.964,55.338],[24.964,55.345],[24.963,55.354],[24.959,55.36],[24.954,55.363],[24.947,55.362],[24.907,55.351],[24.887,55.348],[24.878,55.349],[24.875,55.353],[24.876,55.359],[24.877,55.365],[24.872,55.371],[24.862,55.373],[24.813,55.374],[24.797,55.377],[24.785,55.383],[24.779,55.389],[24.774,55.395],[24.77,55.402],[24.769,55.408],[24.77,55.414],[24.774,55.42],[24.78,55.424],[24.794,55.429],[24.8,55.433],[24.8,55.438],[24.793,55.447],[24.769,55.463],[24.631,55.523],[24.65,55.541],[24.65,55.548],[24.647,55.551],[24.645,55.555],[24.644,55.559],[24.643,55.576],[24.646,55.585],[24.654,55.593],[24.664,55.599],[24.683,55.607],[24.686,55.612],[24.685,55.619],[24.679,55.631],[24.669,55.64],[24.657,55.646],[24.644,55.651],[24.635,55.655],[24.631,55.659],[24.639,55.663],[24.668,55.668],[24.675,55.665],[24.682,55.661],[24.693,55.658],[24.704,55.66],[24.713,55.665],[24.718,55.672],[24.717,55.676],[24.712,55.682],[24.691,55.692],[24.686,55.696],[24.689,55.704],[24.69,55.709],[24.689,55.721],[24.755,55.716],[24.766,55.717],[24.781,55.721],[24.793,55.721],[24.822,55.714],[24.831,55.714],[24.84,55.717],[24.843,55.72],[24.846,55.724],[24.852,55.727],[24.86,55.728],[24.892,55.726],[24.906,55.727],[24.925,55.733],[24.955,55.737],[25.018,55.735],[25.022,55.734],[25.037,55.728],[25.039,55.725],[25.047,55.718],[25.053,55.714],[25.068,55.706],[25.071,55.702],[25.068,55.693],[25.069,55.69],[25.079,55.688],[25.093,55.689],[25.122,55.692],[25.237,55.717],[25.245,55.718],[25.256,55.719],[25.278,55.715],[25.287,55.714],[25.293,55.716],[25.295,55.723],[25.289,55.738],[25.296,55.745],[25.303,55.75],[25.379,55.775],[25.398,55.764],[25.402,55.756],[25.409,55.746],[25.416,55.741],[25.422,55.739],[25.428,55.74],[25.439,55.746],[25.447,55.749],[25.457,55.749],[25.465,55.745],[25.469,55.74],[25.488,55.724],[25.529,55.736],[25.544,55.742],[25.558,55.744],[25.666,55.746],[25.678,55.745],[25.682,55.742],[25.684,55.739],[25.685,55.736],[25.687,55.73],[25.725,55.755],[25.732,55.761],[25.747,55.778],[25.756,55.781],[25.764,55.78],[25.783,55.775],[25.802,55.774],[25.808,55.776],[25.814,55.782],[25.83,55.813],[25.839,55.827],[25.866,55.85],[25.871,55.861],[25.877,55.87],[25.89,55.879],[25.911,55.888],[25.921,55.894],[25.934,55.904],[25.94,55.91],[25.941,55.92],[25.941,55.938],[25.961,55.958],[26.018,55.937],[26.079,55.898],[26.179,55.85],[26.204,55.827],[26.227,55.797],[26.28,55.743],[26.342,55.716],[26.481,55.678],[26.537,55.67],[26.595,55.667]]]}},{"type":"Feature","id":"LT-VL","properties":{"id":"LT-VL","countryCode":"LT","isoSubdivision":"LT-VL","name":"Vilnius","name_en":"Vilnius","name_ko":"빌뉴스","type":"County","labelLongitude":25.159,"labelLatitude":54.734,"minZoom":7},"geometry":{"type":"Polygon","coordinates":[[[26.74,55.243],[26.701,55.237],[26.686,55.232],[26.657,55.215],[26.641,55.203],[26.634,55.192],[26.628,55.164],[26.616,55.135],[26.601,55.121],[26.579,55.119],[26.473,55.146],[26.459,55.145],[26.451,55.14],[26.445,55.134],[26.439,55.13],[26.429,55.128],[26.42,55.128],[26.309,55.145],[26.264,55.14],[26.233,55.112],[26.23,55.1],[26.231,55.075],[26.229,55.063],[26.225,55.055],[26.188,55.009],[26.17,54.993],[26.154,54.979],[26.139,54.969],[26.103,54.957],[25.981,54.943],[25.963,54.943],[25.926,54.948],[25.908,54.948],[25.87,54.939],[25.858,54.933],[25.855,54.925],[25.853,54.916],[25.847,54.906],[25.826,54.892],[25.803,54.882],[25.783,54.87],[25.772,54.851],[25.774,54.842],[25.782,54.822],[25.783,54.814],[25.778,54.805],[25.773,54.803],[25.767,54.803],[25.757,54.8],[25.735,54.789],[25.724,54.78],[25.721,54.767],[25.725,54.716],[25.723,54.705],[25.719,54.695],[25.714,54.686],[25.71,54.676],[25.708,54.663],[25.715,54.643],[25.74,54.608],[25.746,54.588],[25.74,54.569],[25.726,54.553],[25.707,54.542],[25.646,54.52],[25.631,54.508],[25.62,54.488],[25.616,54.462],[25.616,54.441],[25.613,54.422],[25.595,54.4],[25.549,54.368],[25.53,54.346],[25.529,54.321],[25.542,54.308],[25.564,54.303],[25.607,54.305],[25.667,54.323],[25.682,54.326],[25.696,54.321],[25.702,54.313],[25.705,54.303],[25.715,54.285],[25.719,54.282],[25.723,54.281],[25.735,54.283],[25.739,54.283],[25.749,54.276],[25.758,54.269],[25.766,54.26],[25.772,54.249],[25.776,54.246],[25.782,54.244],[25.787,54.242],[25.789,54.236],[25.787,54.232],[25.775,54.222],[25.772,54.218],[25.771,54.172],[25.763,54.156],[25.74,54.146],[25.728,54.145],[25.691,54.148],[25.68,54.145],[25.664,54.132],[25.654,54.129],[25.632,54.128],[25.543,54.137],[25.516,54.145],[25.493,54.158],[25.486,54.175],[25.493,54.182],[25.522,54.188],[25.529,54.196],[25.523,54.204],[25.499,54.212],[25.502,54.222],[25.522,54.229],[25.546,54.227],[25.554,54.231],[25.483,54.288],[25.479,54.293],[25.472,54.297],[25.459,54.299],[25.434,54.292],[25.394,54.257],[25.37,54.248],[25.288,54.245],[25.224,54.259],[25.206,54.257],[25.194,54.244],[25.173,54.197],[25.157,54.176],[25.116,54.149],[25.072,54.132],[25.027,54.128],[24.948,54.146],[24.902,54.15],[24.856,54.147],[24.851,54.145],[24.833,54.166],[24.826,54.18],[24.821,54.187],[24.815,54.192],[24.806,54.196],[24.781,54.203],[24.771,54.208],[24.767,54.216],[24.77,54.225],[24.878,54.288],[24.914,54.315],[24.921,54.33],[24.926,54.361],[24.931,54.375],[24.934,54.379],[24.939,54.382],[24.948,54.386],[24.975,54.389],[24.994,54.395],[24.997,54.401],[24.998,54.406],[24.996,54.451],[24.946,54.449],[24.864,54.431],[24.817,54.411],[24.806,54.41],[24.793,54.413],[24.774,54.415],[24.761,54.414],[24.745,54.407],[24.737,54.406],[24.726,54.406],[24.719,54.411],[24.717,54.417],[24.721,54.424],[24.722,54.43],[24.719,54.436],[24.713,54.439],[24.684,54.447],[24.656,54.45],[24.642,54.45],[24.625,54.444],[24.601,54.438],[24.588,54.432],[24.555,54.427],[24.538,54.426],[24.45,54.433],[24.43,54.44],[24.426,54.447],[24.426,54.455],[24.43,54.464],[24.435,54.479],[24.43,54.486],[24.413,54.497],[24.412,54.499],[24.415,54.502],[24.42,54.505],[24.42,54.515],[24.423,54.521],[24.413,54.544],[24.424,54.552],[24.427,54.556],[24.431,54.564],[24.434,54.585],[24.437,54.595],[24.442,54.601],[24.451,54.602],[24.459,54.599],[24.468,54.598],[24.477,54.599],[24.485,54.603],[24.49,54.609],[24.493,54.618],[24.495,54.624],[24.495,54.63],[24.494,54.634],[24.479,54.644],[24.482,54.655],[24.481,54.661],[24.478,54.668],[24.475,54.676],[24.472,54.684],[24.474,54.694],[24.482,54.701],[24.499,54.707],[24.54,54.715],[24.553,54.727],[24.559,54.73],[24.57,54.73],[24.607,54.725],[24.618,54.726],[24.625,54.731],[24.627,54.742],[24.628,54.753],[24.629,54.762],[24.633,54.771],[24.637,54.779],[24.644,54.787],[24.647,54.792],[24.654,54.811],[24.656,54.817],[24.663,54.822],[24.674,54.827],[24.74,54.849],[24.754,54.856],[24.771,54.877],[24.8,54.89],[24.795,54.897],[24.773,54.914],[24.755,54.922],[24.737,54.926],[24.694,54.928],[24.676,54.932],[24.622,54.961],[24.571,54.976],[24.557,54.986],[24.549,54.988],[24.568,55.004],[24.574,55.012],[24.58,55.018],[24.584,55.021],[24.589,55.024],[24.601,55.028],[24.606,55.031],[24.612,55.035],[24.617,55.038],[24.635,55.044],[24.644,55.047],[24.649,55.051],[24.652,55.056],[24.652,55.061],[24.649,55.072],[24.638,55.082],[24.608,55.091],[24.595,55.117],[24.59,55.121],[24.58,55.122],[24.561,55.117],[24.548,55.116],[24.537,55.12],[24.526,55.132],[24.525,55.144],[24.526,55.152],[24.524,55.158],[24.515,55.162],[24.499,55.169],[24.49,55.174],[24.481,55.181],[24.473,55.19],[24.47,55.204],[24.473,55.212],[24.481,55.216],[24.49,55.218],[24.497,55.22],[24.496,55.223],[24.483,55.229],[24.443,55.237],[24.431,55.243],[24.423,55.252],[24.415,55.287],[24.395,55.305],[24.389,55.317],[24.391,55.329],[24.393,55.338],[24.392,55.348],[24.396,55.358],[24.4,55.364],[24.416,55.393],[24.444,55.406],[24.451,55.407],[24.459,55.406],[24.467,55.404],[24.476,55.406],[24.512,55.429],[24.524,55.439],[24.53,55.449],[24.537,55.466],[24.543,55.476],[24.554,55.487],[24.565,55.49],[24.576,55.489],[24.599,55.482],[24.611,55.48],[24.627,55.482],[24.633,55.486],[24.632,55.491],[24.625,55.496],[24.607,55.503],[24.601,55.508],[24.601,55.514],[24.606,55.517],[24.611,55.519],[24.631,55.523],[24.769,55.463],[24.793,55.447],[24.8,55.438],[24.8,55.433],[24.794,55.429],[24.78,55.424],[24.774,55.42],[24.77,55.414],[24.769,55.408],[24.77,55.402],[24.774,55.395],[24.779,55.389],[24.785,55.383],[24.797,55.377],[24.813,55.374],[24.862,55.373],[24.872,55.371],[24.877,55.365],[24.876,55.359],[24.875,55.353],[24.878,55.349],[24.887,55.348],[24.907,55.351],[24.947,55.362],[24.954,55.363],[24.959,55.36],[24.963,55.354],[24.964,55.345],[24.964,55.338],[24.963,55.331],[24.963,55.326],[24.973,55.323],[24.982,55.322],[25.058,55.325],[25.056,55.305],[25.06,55.301],[25.069,55.295],[25.097,55.283],[25.109,55.272],[25.119,55.27],[25.129,55.271],[25.141,55.273],[25.154,55.275],[25.17,55.273],[25.176,55.268],[25.177,55.263],[25.173,55.256],[25.168,55.25],[25.153,55.239],[25.148,55.233],[25.152,55.221],[25.159,55.217],[25.169,55.216],[25.179,55.218],[25.19,55.217],[25.239,55.201],[25.252,55.195],[25.251,55.19],[25.243,55.188],[25.231,55.186],[25.221,55.183],[25.21,55.175],[25.193,55.169],[25.179,55.161],[25.169,55.158],[25.135,55.15],[25.137,55.13],[25.132,55.115],[25.126,55.103],[25.128,55.098],[25.135,55.095],[25.176,55.089],[25.191,55.084],[25.208,55.077],[25.214,55.069],[25.216,55.064],[25.222,55.042],[25.27,55.041],[25.333,55.028],[25.349,55.027],[25.364,55.028],[25.377,55.032],[25.513,55.057],[25.617,55.071],[25.648,55.07],[25.652,55.067],[25.654,55.063],[25.663,55.06],[25.717,55.054],[25.731,55.054],[25.736,55.057],[25.731,55.062],[25.729,55.07],[25.731,55.077],[25.751,55.088],[25.759,55.093],[25.762,55.097],[25.758,55.099],[25.752,55.103],[25.75,55.107],[25.754,55.113],[25.778,55.124],[25.781,55.131],[25.776,55.135],[25.765,55.137],[25.756,55.14],[25.748,55.144],[25.73,55.15],[25.719,55.155],[25.703,55.167],[25.698,55.172],[25.691,55.178],[25.661,55.194],[25.646,55.205],[25.642,55.212],[25.638,55.22],[25.641,55.235],[25.644,55.242],[25.65,55.248],[25.678,55.258],[25.708,55.279],[25.714,55.287],[25.734,55.327],[25.778,55.311],[25.815,55.304],[25.853,55.316],[25.864,55.308],[25.875,55.296],[25.883,55.292],[25.895,55.29],[25.924,55.294],[25.931,55.293],[25.938,55.288],[25.94,55.284],[25.942,55.28],[25.947,55.277],[25.958,55.275],[25.976,55.277],[25.989,55.281],[25.999,55.286],[26.004,55.29],[26.008,55.294],[26.014,55.302],[26.018,55.306],[26.025,55.31],[26.031,55.312],[26.037,55.314],[26.041,55.314],[26.103,55.315],[26.117,55.313],[26.144,55.306],[26.156,55.299],[26.163,55.292],[26.163,55.285],[26.156,55.278],[26.149,55.268],[26.148,55.258],[26.155,55.249],[26.167,55.245],[26.185,55.246],[26.195,55.251],[26.204,55.253],[26.216,55.253],[26.235,55.248],[26.271,55.236],[26.321,55.229],[26.456,55.225],[26.568,55.244],[26.617,55.261],[26.624,55.266],[26.633,55.269],[26.679,55.277],[26.693,55.277],[26.707,55.273],[26.716,55.269],[26.737,55.247],[26.74,55.243]]]}}]}
