{"type":"FeatureCollection","features":[{"type":"Feature","id":"LY-AJ","properties":{"id":"LY-AJ","countryCode":"LY","isoSubdivision":"LY-AJ","name":"Ajdabiya","name_en":"Ajdabiya","name_ko":"아즈다비야 지구","type":"Municipality|Governarate","labelLongitude":21.74,"labelLatitude":29.042,"minZoom":7.7},"geometry":{"type":"Polygon","coordinates":[[[24.981,28.097],[24.981,28.019],[24.981,27.667],[24.981,27.628],[24.981,27.475],[24.981,27.138],[24.981,27.049],[24.631,27.041],[24.262,27.033],[23.677,27.024],[23.092,27.015],[22.507,27.011],[21.923,27.008],[21.323,27.015],[20.723,27.022],[20.286,27.019],[19.849,27.015],[19.51,27.014],[19.17,27.013],[19.172,28.347],[19.004,28.358],[19.004,28.36],[18.719,28.437],[18.499,28.502],[18.5,28.876],[18.514,29.165],[18.58,29.369],[18.699,29.517],[18.733,29.666],[18.714,29.833],[18.726,30.001],[18.761,30.195],[18.781,30.376],[18.926,30.293],[18.968,30.278],[19.057,30.266],[19.146,30.265],[19.24,30.274],[19.292,30.287],[19.339,30.299],[19.419,30.333],[19.531,30.397],[19.551,30.405],[19.596,30.412],[19.616,30.421],[19.749,30.511],[19.914,30.683],[19.958,30.75],[19.982,30.779],[20.019,30.804],[20.036,30.819],[20.1,30.935],[20.147,31.046],[20.152,31.088],[20.147,31.217],[20.142,31.224],[20.153,31.228],[20.15,31.237],[20.148,31.242],[20.136,31.252],[20.133,31.261],[20.189,31.263],[20.299,31.232],[20.343,31.175],[20.417,31.088],[20.524,31.025],[20.594,31.007],[20.738,31.014],[20.934,31.046],[21.319,31.035],[21.397,31.033],[21.655,31.043],[21.717,31.066],[21.793,31.093],[21.972,31.107],[22.112,31.12],[22.259,31.145],[22.336,31.087],[22.457,30.993],[22.512,30.893],[22.619,30.829],[22.689,30.817],[22.79,30.792],[22.889,30.793],[22.969,30.799],[22.97,30.799],[22.971,30.8],[22.973,30.8],[22.974,30.8],[22.995,30.792],[23.015,30.785],[23.036,30.777],[23.057,30.77],[23.058,30.112],[23.06,29.455],[23.061,28.797],[23.062,28.139],[23.537,28.13],[24.011,28.12],[24.486,28.11],[24.961,28.1],[24.971,28.099],[24.98,28.097],[24.981,28.097]]]}},{"type":"Feature","id":"LY-BA","properties":{"id":"LY-BA","countryCode":"LY","isoSubdivision":"LY-BA","name":"Benghazi","name_en":"Benghazi","name_ko":"벵가지","type":"Municipality|Governarate","labelLongitude":20.618,"labelLatitude":31.289,"minZoom":7.7},"geometry":{"type":"Polygon","coordinates":[[[20.142,31.224],[20.128,31.243],[20.103,31.309],[20.082,31.337],[20.038,31.376],[20.022,31.397],[19.955,31.559],[19.949,31.601],[19.948,31.645],[19.944,31.661],[19.927,31.699],[19.921,31.718],[19.917,31.759],[19.92,31.805],[19.934,31.888],[19.948,31.926],[19.946,31.936],[19.942,31.947],[19.94,31.958],[19.945,31.968],[19.957,31.983],[20.048,32.146],[20.072,32.176],[20.262,32.34],[20.277,32.361],[20.325,32.41],[20.346,32.42],[20.386,32.435],[20.403,32.447],[20.417,32.459],[20.563,32.558],[20.576,32.563],[20.578,32.548],[20.578,32.547],[20.565,32.437],[20.519,32.373],[20.43,32.305],[20.357,32.219],[20.311,32.109],[20.309,32.035],[20.35,31.929],[20.413,31.817],[20.465,31.738],[20.506,31.631],[20.549,31.58],[20.684,31.559],[20.766,31.59],[20.842,31.594],[20.972,31.578],[21.092,31.585],[21.146,31.598],[21.215,31.541],[21.224,31.458],[21.242,31.356],[21.289,31.276],[21.319,31.035],[20.934,31.046],[20.738,31.014],[20.594,31.007],[20.524,31.025],[20.417,31.088],[20.343,31.175],[20.299,31.232],[20.189,31.263],[20.133,31.261],[20.136,31.252],[20.148,31.242],[20.15,31.237],[20.153,31.228],[20.142,31.224]]]}},{"type":"Feature","id":"LY-BU","properties":{"id":"LY-BU","countryCode":"LY","isoSubdivision":"LY-BU","name":"Butnan","name_en":"Butnan","name_ko":"알부트난","type":"Municipality|Governarate","labelLongitude":24.056,"labelLatitude":30.069,"minZoom":7.7},"geometry":{"type":"Polygon","coordinates":[[[25.151,31.656],[25.088,31.614],[25.06,31.579],[25.024,31.494],[24.861,31.38],[24.849,31.349],[24.849,31.312],[24.859,31.228],[24.859,31.146],[24.883,31.039],[24.89,31.019],[24.925,30.957],[24.938,30.906],[24.981,30.825],[24.995,30.785],[24.989,30.751],[24.974,30.716],[24.961,30.676],[24.951,30.621],[24.92,30.552],[24.917,30.532],[24.908,30.499],[24.888,30.464],[24.83,30.388],[24.799,30.361],[24.772,30.331],[24.763,30.317],[24.746,30.283],[24.705,30.218],[24.689,30.183],[24.688,30.144],[24.697,30.123],[24.726,30.078],[24.812,29.891],[24.816,29.868],[24.815,29.849],[24.798,29.796],[24.805,29.755],[24.856,29.679],[24.871,29.638],[24.871,29.614],[24.862,29.542],[24.864,29.503],[24.874,29.468],[24.957,29.293],[24.974,29.239],[24.981,29.181],[24.981,29.058],[24.981,28.89],[24.981,28.492],[24.981,28.097],[24.98,28.097],[24.971,28.099],[24.961,28.1],[24.486,28.11],[24.011,28.12],[23.537,28.13],[23.062,28.139],[23.061,28.797],[23.06,29.455],[23.058,30.112],[23.057,30.77],[23.036,30.777],[23.015,30.785],[22.995,30.792],[22.974,30.8],[22.973,30.8],[22.971,30.8],[22.97,30.799],[22.969,30.799],[22.969,31.006],[22.956,31.081],[22.957,31.233],[22.985,31.404],[23.071,31.512],[23.105,31.668],[23.118,31.848],[23.169,32.003],[23.218,32.122],[23.25,32.21],[23.251,32.217],[23.257,32.214],[23.273,32.21],[23.285,32.204],[23.293,32.192],[23.303,32.171],[23.312,32.163],[23.31,32.179],[23.299,32.224],[23.318,32.218],[23.362,32.217],[23.371,32.214],[23.399,32.194],[23.405,32.191],[23.531,32.181],[23.67,32.183],[23.84,32.149],[23.999,32.094],[23.975,32.074],[23.971,32.067],[23.979,32.062],[24.005,32.053],[24.068,32.011],[24.091,32.006],[24.281,32.008],[24.546,31.991],[24.636,32.015],[24.659,32.029],[24.67,32.032],[24.711,32.026],[24.719,32.028],[24.726,32.031],[24.734,32.033],[24.742,32.029],[24.746,32.026],[24.758,32.02],[24.772,32.017],[24.792,32.008],[24.824,32.003],[24.865,31.989],[24.982,31.968],[25.018,31.949],[25.033,31.916],[25.024,31.877],[25.022,31.855],[25.03,31.837],[25.064,31.804],[25.117,31.738],[25.122,31.721],[25.137,31.693],[25.156,31.663],[25.153,31.66],[25.151,31.656]]]}},{"type":"Feature","id":"LY-GD","properties":{"id":"LY-GD","countryCode":"LY","isoSubdivision":"LY-GD","name":"Ghadames","name_en":"Ghadames","name_ko":"가다미스","type":"Municipality|Governarate","labelLongitude":10.625,"labelLatitude":30.334,"minZoom":7.7},"geometry":{"type":"Polygon","coordinates":[[[10.684,31.957],[10.703,31.962],[10.737,31.985],[10.773,32.005],[10.806,32.032],[10.846,32.112],[10.873,32.137],[11.182,32.262],[11.444,32.368],[11.514,32.408],[11.526,32.418],[11.534,32.414],[11.593,32.369],[11.643,32.322],[11.701,32.306],[11.863,32.308],[11.863,32.189],[11.84,32.088],[11.823,31.962],[11.84,31.855],[11.856,31.781],[11.837,31.681],[11.833,31.562],[11.845,31.462],[11.837,31.336],[11.853,31.247],[11.895,31.167],[11.946,31.087],[11.963,31.081],[11.867,30.931],[11.733,30.76],[11.651,30.646],[11.599,30.598],[11.59,30.542],[11.616,30.413],[11.612,30.237],[11.62,30.033],[11.649,29.811],[11.69,29.579],[11.73,29.366],[11.729,29.087],[11.808,28.968],[11.897,28.859],[11.922,28.776],[11.952,28.595],[11.95,28.592],[11.932,28.569],[11.898,28.529],[11.789,28.552],[11.725,28.61],[11.623,28.592],[11.587,28.59],[11.492,28.603],[11.455,28.585],[11.388,28.545],[11.324,28.545],[11.191,28.593],[11.145,28.623],[11.016,28.642],[10.954,28.715],[10.938,28.787],[10.91,28.845],[10.853,28.827],[10.78,28.785],[10.762,28.772],[10.706,28.73],[10.617,28.694],[10.527,28.661],[10.441,28.625],[10.375,28.614],[10.232,28.685],[10.138,28.717],[10.092,28.705],[10.002,28.681],[9.923,28.657],[9.87,28.633],[9.827,28.619],[9.851,28.786],[9.848,28.976],[9.826,29.129],[9.747,29.368],[9.668,29.608],[9.55,29.802],[9.422,29.969],[9.369,30.023],[9.31,30.084],[9.287,30.117],[9.52,30.229],[9.743,30.331],[9.773,30.338],[9.846,30.342],[9.871,30.355],[9.996,30.495],[10.101,30.642],[10.192,30.731],[10.254,30.842],[10.27,30.882],[10.27,30.916],[10.245,30.986],[10.241,31.021],[10.246,31.06],[10.245,31.078],[10.213,31.135],[10.183,31.241],[10.108,31.412],[10.106,31.429],[10.117,31.494],[10.133,31.518],[10.196,31.579],[10.264,31.68],[10.315,31.716],[10.428,31.715],[10.483,31.733],[10.499,31.744],[10.514,31.757],[10.526,31.772],[10.542,31.807],[10.585,31.84],[10.598,31.874],[10.606,31.954],[10.628,31.974],[10.647,31.972],[10.665,31.963],[10.684,31.957]]]}},{"type":"Feature","id":"LY-GT","properties":{"id":"LY-GT","countryCode":"LY","isoSubdivision":"LY-GT","name":"Ghat","name_en":"Ghat","name_ko":"가트","type":"Municipality|Governarate","labelLongitude":10.43,"labelLatitude":25.92,"minZoom":7.7},"geometry":{"type":"Polygon","coordinates":[[[10.411,24.473],[10.392,24.48],[10.26,24.577],[10.242,24.595],[10.23,24.63],[10.212,24.723],[10.193,24.75],[10.045,24.83],[10.032,24.856],[10.03,24.995],[10.026,25.136],[10.021,25.268],[10.008,25.331],[9.97,25.395],[9.817,25.588],[9.694,25.743],[9.541,25.936],[9.401,26.113],[9.378,26.169],[9.403,26.216],[9.416,26.232],[9.435,26.272],[9.469,26.301],[9.478,26.316],[9.481,26.333],[9.483,26.353],[9.836,26.504],[9.855,26.524],[9.896,26.653],[9.894,26.674],[9.883,26.702],[9.885,26.737],[9.911,26.843],[9.907,26.857],[9.891,26.87],[9.846,26.892],[9.835,26.901],[9.826,26.921],[9.806,27.025],[9.721,27.292],[9.722,27.308],[9.727,27.325],[9.743,27.364],[9.756,27.423],[9.771,27.444],[9.814,27.486],[9.822,27.506],[9.812,27.527],[9.797,27.549],[9.794,27.57],[9.819,27.586],[9.847,27.599],[9.863,27.619],[9.931,27.819],[9.935,27.817],[10.079,27.743],[10.273,27.667],[10.465,27.618],[10.658,27.57],[10.892,27.531],[11.02,27.489],[11.107,27.436],[11.164,27.326],[11.194,27.093],[11.221,26.953],[11.26,26.748],[11.323,26.488],[11.359,26.358],[11.375,26.217],[11.353,26.09],[11.316,25.941],[11.304,25.749],[11.335,25.638],[11.4,25.551],[11.333,25.389],[11.34,25.192],[11.337,24.985],[11.334,24.797],[11.455,24.594],[11.481,24.463],[11.467,24.326],[11.15,24.422],[10.911,24.495],[10.721,24.552],[10.699,24.556],[10.677,24.554],[10.567,24.516],[10.45,24.477],[10.411,24.473]]]}},{"type":"Feature","id":"LY-JA","properties":{"id":"LY-JA","countryCode":"LY","isoSubdivision":"LY-JA","name":"Jabal al Akhdar","name_en":"Jabal al Akhdar","name_ko":"알자발알아크다르","type":"Municipality|Governarate","labelLongitude":21.722,"labelLatitude":32.007,"minZoom":7.7},"geometry":{"type":"Polygon","coordinates":[[[21.357,32.78],[21.415,32.793],[21.455,32.813],[21.609,32.931],[21.623,32.937],[21.672,32.94],[21.716,32.95],[21.744,32.931],[21.787,32.916],[21.836,32.907],[21.877,32.903],[21.986,32.913],[21.981,32.901],[21.98,32.901],[21.978,32.839],[21.969,32.756],[21.994,32.682],[22.025,32.626],[22.033,32.553],[22.02,32.498],[21.99,32.425],[21.977,32.351],[21.959,32.319],[21.978,32.232],[21.98,32.144],[22.004,32.051],[21.999,31.89],[22.001,31.788],[21.991,31.678],[21.968,31.623],[21.967,31.461],[21.948,31.388],[21.918,31.282],[22.112,31.12],[21.972,31.107],[21.793,31.093],[21.717,31.066],[21.712,31.282],[21.68,31.306],[21.654,31.352],[21.615,31.473],[21.619,31.589],[21.66,31.676],[21.668,31.772],[21.662,31.906],[21.632,31.999],[21.525,32.07],[21.462,32.132],[21.427,32.229],[21.364,32.327],[21.335,32.429],[21.332,32.512],[21.388,32.57],[21.462,32.633],[21.458,32.698],[21.395,32.768],[21.387,32.781],[21.386,32.78],[21.376,32.779],[21.368,32.775],[21.359,32.776],[21.357,32.78]]]}},{"type":"Feature","id":"LY-JI","properties":{"id":"LY-JI","countryCode":"LY","isoSubdivision":"LY-JI","name":"Jafara","name_en":"Jafara","name_ko":"알즈파라","type":"Municipality|Governarate","labelLongitude":13.035,"labelLatitude":32.489,"minZoom":7.7},"geometry":{"type":"Polygon","coordinates":[[[13.251,32.317],[13.19,32.312],[13.155,32.293],[13.05,32.279],[12.963,32.277],[12.82,32.26],[12.83,32.337],[12.823,32.407],[12.898,32.56],[12.926,32.603],[12.969,32.669],[13.073,32.716],[13.076,32.721],[13.163,32.649],[13.174,32.567],[13.19,32.46],[13.188,32.39],[13.236,32.334],[13.251,32.317]]]}},{"type":"Feature","id":"LY-JU","properties":{"id":"LY-JU","countryCode":"LY","isoSubdivision":"LY-JU","name":"Jufra","name_en":"Jufra","name_ko":"알주프라","type":"Municipality|Governarate","labelLongitude":17.299,"labelLatitude":27.94,"minZoom":7.7},"geometry":{"type":"Polygon","coordinates":[[[14.42,29.209],[14.507,29.232],[14.632,29.313],[14.712,29.356],[14.752,29.405],[14.759,29.457],[14.757,29.537],[14.739,29.608],[14.737,29.683],[14.763,29.737],[14.823,29.809],[14.854,29.862],[14.9,29.839],[14.976,29.775],[15.052,29.702],[15.203,29.657],[15.299,29.64],[15.385,29.613],[15.503,29.615],[15.567,29.587],[15.6,29.56],[15.665,29.468],[15.741,29.394],[15.88,29.377],[15.944,29.424],[16.039,29.471],[16.136,29.5],[16.275,29.464],[16.371,29.437],[16.419,29.409],[16.436,29.418],[16.553,29.391],[16.746,29.402],[16.853,29.439],[16.981,29.431],[17.088,29.347],[17.238,29.31],[17.334,29.283],[17.43,29.357],[17.505,29.394],[17.58,29.395],[17.665,29.329],[17.686,29.255],[17.729,29.162],[17.814,29.078],[17.898,28.985],[17.94,28.873],[17.982,28.733],[18.088,28.64],[18.225,28.555],[18.385,28.517],[18.499,28.485],[18.499,28.502],[18.719,28.437],[19.004,28.36],[19.004,28.358],[19.172,28.347],[19.17,27.013],[19.169,26.508],[19.168,26.004],[19.126,26.022],[19.021,26.055],[18.886,26.086],[18.729,26.114],[18.615,26.139],[18.515,26.15],[18.412,26.234],[18.321,26.329],[18.204,26.376],[18.063,26.345],[17.954,26.294],[17.908,26.243],[17.778,26.157],[17.697,26.136],[17.567,26.126],[17.494,26.084],[17.41,26.052],[17.263,26.101],[17.093,26.135],[16.94,26.163],[16.883,26.234],[16.804,26.285],[16.728,26.326],[16.621,26.426],[16.568,26.528],[16.575,26.631],[16.52,26.701],[16.46,26.733],[16.372,26.774],[16.323,26.793],[16.278,26.846],[16.269,26.929],[16.271,27.003],[16.28,27.075],[16.281,27.083],[16.258,27.152],[16.192,27.185],[16.128,27.238],[16.062,27.272],[16.023,27.306],[15.992,27.384],[15.963,27.467],[15.868,27.595],[15.795,27.692],[15.796,27.721],[15.797,27.743],[15.831,27.82],[15.871,27.915],[15.894,27.996],[15.879,28.079],[15.792,28.156],[15.72,28.175],[15.59,28.215],[15.507,28.219],[15.38,28.207],[15.249,28.141],[15.123,28.13],[15.018,28.145],[14.994,28.218],[14.992,28.296],[14.959,28.408],[14.84,28.52],[14.66,28.622],[14.586,28.674],[14.527,28.719],[14.469,28.799],[14.423,28.878],[14.408,28.988],[14.416,29.11],[14.42,29.209]]]}},{"type":"Feature","id":"LY-KF","properties":{"id":"LY-KF","countryCode":"LY","isoSubdivision":"LY-KF","name":"Kufra","name_en":"Kufra","name_ko":"알쿠프라","type":"Municipality|Governarate","labelLongitude":22.074,"labelLatitude":23.723,"minZoom":7.7},"geometry":{"type":"Polygon","coordinates":[[[23.981,19.496],[23.858,19.557],[23.734,19.618],[23.611,19.679],[23.487,19.74],[23.364,19.801],[23.24,19.862],[23.117,19.923],[22.993,19.984],[22.87,20.045],[22.746,20.106],[22.623,20.167],[22.499,20.228],[22.376,20.289],[22.252,20.35],[22.129,20.411],[22.005,20.472],[21.881,20.533],[21.758,20.594],[21.634,20.655],[21.511,20.716],[21.387,20.777],[21.264,20.838],[21.14,20.899],[21.017,20.96],[20.893,21.021],[20.77,21.082],[20.646,21.143],[20.523,21.204],[20.399,21.265],[20.276,21.326],[20.152,21.387],[20.029,21.448],[19.905,21.509],[19.782,21.57],[19.658,21.631],[19.535,21.692],[19.411,21.753],[19.288,21.814],[19.186,21.864],[19.186,21.942],[19.186,21.953],[19.186,21.964],[19.186,21.974],[19.186,21.985],[19.186,21.995],[19.186,22.006],[19.186,22.016],[19.186,22.027],[19.183,22.524],[19.181,23.021],[19.179,23.518],[19.177,24.015],[19.175,24.512],[19.173,25.009],[19.17,25.507],[19.168,26.004],[19.169,26.508],[19.17,27.013],[19.51,27.014],[19.849,27.015],[20.286,27.019],[20.723,27.022],[21.323,27.015],[21.923,27.008],[22.507,27.011],[23.092,27.015],[23.677,27.024],[24.262,27.033],[24.631,27.041],[24.981,27.049],[24.981,26.86],[24.981,26.665],[24.981,26.373],[24.981,26.081],[24.981,25.789],[24.981,25.497],[24.981,25.205],[24.981,24.914],[24.981,24.622],[24.981,24.33],[24.981,24.038],[24.981,23.746],[24.981,23.454],[24.981,23.163],[24.981,22.871],[24.981,22.579],[24.981,22.287],[24.981,21.995],[24.981,21.871],[24.981,21.746],[24.981,21.622],[24.981,21.497],[24.981,21.372],[24.981,21.248],[24.981,21.123],[24.981,20.999],[24.981,20.874],[24.981,20.75],[24.981,20.625],[24.981,20.5],[24.981,20.405],[24.981,20.31],[24.981,20.215],[24.981,20.12],[24.981,20.008],[24.981,20.002],[24.98,20.001],[24.979,19.999],[24.978,19.997],[24.977,19.996],[24.975,19.996],[24.972,19.995],[24.97,19.995],[24.968,19.995],[24.867,19.995],[24.721,19.995],[24.599,19.995],[24.475,19.995],[24.341,19.995],[24.228,19.995],[24.142,19.995],[23.981,19.995],[23.981,19.871],[23.981,19.746],[23.981,19.621],[23.981,19.496]]]}},{"type":"Feature","id":"LY-MB","properties":{"id":"LY-MB","countryCode":"LY","isoSubdivision":"LY-MB","name":"Murqub","name_en":"Murqub","name_ko":"알무르굽","type":"Municipality|Governarate","labelLongitude":14.136,"labelLatitude":32.535,"minZoom":7.7},"geometry":{"type":"Polygon","coordinates":[[[13.954,32.758],[13.991,32.745],[14.176,32.718],[14.185,32.715],[14.203,32.7],[14.209,32.697],[14.226,32.691],[14.262,32.66],[14.317,32.63],[14.404,32.567],[14.449,32.525],[14.469,32.519],[14.632,32.496],[14.648,32.488],[14.663,32.477],[14.707,32.456],[14.727,32.451],[14.756,32.45],[14.755,32.439],[14.742,32.416],[14.722,32.345],[14.731,32.294],[14.758,32.239],[14.755,32.179],[14.716,32.138],[14.683,32.056],[14.667,31.968],[14.601,31.959],[14.47,31.946],[14.365,31.977],[14.285,32.046],[14.122,32.143],[14.066,32.086],[13.992,32.074],[13.961,32.077],[13.899,32.102],[13.834,32.101],[13.777,32.081],[13.677,32.057],[13.616,32.048],[13.459,32.052],[13.398,32.051],[13.392,32.11],[13.363,32.202],[13.3,32.27],[13.251,32.317],[13.236,32.334],[13.35,32.364],[13.385,32.383],[13.401,32.435],[13.451,32.529],[13.526,32.548],[13.573,32.561],[13.704,32.611],[13.719,32.613],[13.809,32.621],[13.813,32.639],[13.89,32.711],[13.954,32.758]]]}},{"type":"Feature","id":"LY-MI","properties":{"id":"LY-MI","countryCode":"LY","isoSubdivision":"LY-MI","name":"Misrata","name_en":"Misrata","name_ko":"미스라타","type":"Municipality|Governarate","labelLongitude":15.019,"labelLatitude":32.215,"minZoom":7.7},"geometry":{"type":"Polygon","coordinates":[[[14.756,32.45],[14.911,32.444],[15.115,32.413],[15.16,32.399],[15.182,32.395],[15.196,32.39],[15.233,32.347],[15.27,32.329],[15.283,32.317],[15.292,32.281],[15.301,32.261],[15.323,32.224],[15.365,32.175],[15.37,32.159],[15.369,32.138],[15.36,32.102],[15.357,32.062],[15.355,32.039],[15.361,31.965],[15.37,31.929],[15.49,31.665],[15.514,31.628],[15.623,31.497],[15.688,31.438],[15.761,31.388],[16.045,31.276],[16.137,31.261],[16.132,31.251],[16.115,31.216],[16.116,31.049],[16.16,30.902],[16.226,30.689],[16.27,30.495],[16.303,30.309],[16.379,30.124],[16.466,29.921],[16.499,29.763],[16.531,29.633],[16.51,29.531],[16.419,29.409],[16.371,29.437],[16.275,29.464],[16.136,29.5],[16.039,29.471],[15.944,29.424],[15.88,29.377],[15.741,29.394],[15.665,29.468],[15.6,29.56],[15.567,29.587],[15.503,29.615],[15.385,29.613],[15.299,29.64],[15.203,29.657],[15.052,29.702],[14.976,29.775],[14.9,29.839],[14.854,29.862],[14.866,29.881],[14.931,29.941],[14.98,30.017],[14.982,30.132],[14.971,30.258],[14.95,30.409],[14.865,30.462],[14.859,30.466],[14.782,30.499],[14.561,30.551],[14.452,30.619],[14.358,30.654],[14.212,30.721],[14.157,30.837],[14.066,31.032],[13.934,31.243],[13.917,31.26],[13.862,31.29],[13.798,31.323],[13.689,31.439],[13.632,31.508],[13.6,31.615],[13.554,31.706],[13.49,31.814],[13.453,31.961],[13.398,32.051],[13.459,32.052],[13.616,32.048],[13.677,32.057],[13.777,32.081],[13.834,32.101],[13.899,32.102],[13.961,32.077],[13.992,32.074],[14.066,32.086],[14.122,32.143],[14.285,32.046],[14.365,31.977],[14.47,31.946],[14.601,31.959],[14.667,31.968],[14.683,32.056],[14.716,32.138],[14.755,32.179],[14.758,32.239],[14.731,32.294],[14.722,32.345],[14.742,32.416],[14.755,32.439],[14.756,32.45]]]}},{"type":"Feature","id":"LY-MJ","properties":{"id":"LY-MJ","countryCode":"LY","isoSubdivision":"LY-MJ","name":"Marj","name_en":"Marj","name_ko":"알마르즈","type":"Municipality|Governarate","labelLongitude":21.013,"labelLatitude":32.168,"minZoom":7.7},"geometry":{"type":"Polygon","coordinates":[[[20.576,32.563],[20.797,32.643],[20.934,32.723],[21.051,32.772],[21.097,32.781],[21.287,32.771],[21.332,32.775],[21.357,32.78],[21.359,32.776],[21.368,32.775],[21.376,32.779],[21.386,32.78],[21.387,32.781],[21.395,32.768],[21.458,32.698],[21.462,32.633],[21.388,32.57],[21.332,32.512],[21.335,32.429],[21.364,32.327],[21.427,32.229],[21.462,32.132],[21.525,32.07],[21.632,31.999],[21.662,31.906],[21.668,31.772],[21.66,31.676],[21.619,31.589],[21.615,31.473],[21.654,31.352],[21.68,31.306],[21.712,31.282],[21.717,31.066],[21.655,31.043],[21.397,31.033],[21.319,31.035],[21.289,31.276],[21.242,31.356],[21.224,31.458],[21.215,31.541],[21.146,31.598],[21.092,31.585],[20.972,31.578],[20.842,31.594],[20.766,31.59],[20.684,31.559],[20.549,31.58],[20.506,31.631],[20.465,31.738],[20.413,31.817],[20.35,31.929],[20.309,32.035],[20.311,32.109],[20.357,32.219],[20.43,32.305],[20.519,32.373],[20.565,32.437],[20.578,32.547],[20.578,32.548],[20.576,32.563]]]}},{"type":"Feature","id":"LY-MQ","properties":{"id":"LY-MQ","countryCode":"LY","isoSubdivision":"LY-MQ","name":"Murzuq","name_en":"Murzuq","name_ko":"무르주크","type":"Municipality|Governarate","labelLongitude":15.259,"labelLatitude":24.998,"minZoom":7.7},"geometry":{"type":"Polygon","coordinates":[[[19.186,21.864],[19.164,21.875],[19.041,21.936],[18.917,21.997],[18.794,22.058],[18.67,22.119],[18.547,22.18],[18.423,22.241],[18.3,22.302],[18.176,22.363],[18.052,22.424],[17.929,22.485],[17.805,22.546],[17.682,22.607],[17.558,22.668],[17.435,22.729],[17.311,22.79],[17.188,22.851],[17.064,22.912],[16.941,22.973],[16.817,23.034],[16.694,23.095],[16.57,23.156],[16.447,23.217],[16.323,23.278],[16.2,23.339],[16.076,23.4],[15.985,23.445],[15.965,23.442],[15.92,23.422],[15.863,23.396],[15.805,23.37],[15.747,23.344],[15.69,23.318],[15.632,23.291],[15.574,23.265],[15.516,23.239],[15.459,23.213],[15.401,23.187],[15.343,23.161],[15.286,23.134],[15.228,23.108],[15.17,23.082],[15.113,23.056],[15.055,23.03],[14.997,23.004],[14.98,22.996],[14.979,22.995],[14.808,22.909],[14.637,22.823],[14.466,22.736],[14.295,22.65],[14.232,22.618],[14.216,22.616],[14.202,22.623],[14.156,22.661],[14.031,22.764],[13.906,22.867],[13.781,22.97],[13.656,23.073],[13.6,23.119],[13.482,23.18],[13.381,23.202],[13.292,23.222],[13.204,23.242],[13.116,23.261],[13.028,23.281],[12.939,23.301],[12.851,23.32],[12.763,23.34],[12.675,23.36],[12.586,23.38],[12.498,23.399],[12.41,23.419],[12.322,23.439],[12.234,23.458],[12.145,23.478],[12.057,23.498],[11.969,23.517],[11.892,23.66],[11.822,23.791],[11.71,24],[11.709,24.003],[11.636,24.138],[11.567,24.267],[11.541,24.298],[11.509,24.314],[11.467,24.326],[11.481,24.463],[11.455,24.594],[11.334,24.797],[11.337,24.985],[11.34,25.192],[11.333,25.389],[11.4,25.551],[11.594,25.652],[11.774,25.573],[11.858,25.548],[12.046,25.563],[12.16,25.576],[12.262,25.654],[12.364,25.732],[12.5,25.708],[12.625,25.721],[12.707,25.779],[12.8,25.81],[12.966,25.861],[13.205,25.877],[13.308,25.945],[13.41,26.06],[13.482,26.118],[13.669,26.16],[13.934,26.247],[13.934,26.245],[14.133,26.268],[14.247,26.307],[14.424,26.376],[14.538,26.481],[14.641,26.586],[14.745,26.682],[14.828,26.758],[14.974,26.807],[15.1,26.837],[15.278,26.877],[15.467,26.898],[15.656,26.928],[15.761,26.948],[16.28,27.075],[16.271,27.003],[16.269,26.929],[16.278,26.846],[16.323,26.793],[16.372,26.774],[16.46,26.733],[16.52,26.701],[16.575,26.631],[16.568,26.528],[16.621,26.426],[16.728,26.326],[16.804,26.285],[16.883,26.234],[16.94,26.163],[17.093,26.135],[17.263,26.101],[17.41,26.052],[17.494,26.084],[17.567,26.126],[17.697,26.136],[17.778,26.157],[17.908,26.243],[17.954,26.294],[18.063,26.345],[18.204,26.376],[18.321,26.329],[18.412,26.234],[18.515,26.15],[18.615,26.139],[18.729,26.114],[18.886,26.086],[19.021,26.055],[19.126,26.022],[19.168,26.004],[19.17,25.507],[19.173,25.009],[19.175,24.512],[19.177,24.015],[19.179,23.518],[19.181,23.021],[19.183,22.524],[19.186,22.027],[19.186,22.016],[19.186,22.006],[19.186,21.995],[19.186,21.985],[19.186,21.974],[19.186,21.964],[19.186,21.953],[19.186,21.942],[19.186,21.864]]]}},{"type":"Feature","id":"LY-MZ","properties":{"id":"LY-MZ","countryCode":"LY","isoSubdivision":"LY-MZ","name":"Mizdah","name_en":"Mizdah","name_ko":"미즈다","type":"Municipality|Governarate","labelLongitude":13.286,"labelLatitude":30.611,"minZoom":7.7},"geometry":{"type":"Polygon","coordinates":[[[12.82,32.26],[12.963,32.277],[13.05,32.279],[13.155,32.293],[13.19,32.312],[13.251,32.317],[13.3,32.27],[13.363,32.202],[13.392,32.11],[13.398,32.051],[13.453,31.961],[13.49,31.814],[13.554,31.706],[13.6,31.615],[13.632,31.508],[13.689,31.439],[13.798,31.323],[13.862,31.29],[13.917,31.26],[13.934,31.243],[14.066,31.032],[14.157,30.837],[14.212,30.721],[14.358,30.654],[14.452,30.619],[14.561,30.551],[14.782,30.499],[14.859,30.466],[14.865,30.462],[14.95,30.409],[14.971,30.258],[14.982,30.132],[14.98,30.017],[14.931,29.941],[14.866,29.881],[14.854,29.862],[14.823,29.809],[14.763,29.737],[14.737,29.683],[14.739,29.608],[14.757,29.537],[14.759,29.457],[14.752,29.405],[14.712,29.356],[14.632,29.313],[14.507,29.232],[14.42,29.209],[14.422,29.264],[14.37,29.322],[14.287,29.401],[14.182,29.467],[14.052,29.522],[13.992,29.552],[13.911,29.568],[13.825,29.546],[13.713,29.465],[13.659,29.422],[13.597,29.357],[13.517,29.267],[13.47,29.18],[13.42,29.108],[13.359,29.035],[13.301,28.955],[13.208,28.843],[13.104,28.739],[12.993,28.687],[12.906,28.64],[12.849,28.609],[12.79,28.563],[12.758,28.494],[12.688,28.43],[12.589,28.427],[12.502,28.466],[12.492,28.543],[12.431,28.554],[12.351,28.558],[12.278,28.565],[12.157,28.61],[12.11,28.615],[11.983,28.647],[11.952,28.595],[11.922,28.776],[11.897,28.859],[11.808,28.968],[11.729,29.087],[11.73,29.366],[11.69,29.579],[11.649,29.811],[11.62,30.033],[11.612,30.237],[11.616,30.413],[11.59,30.542],[11.599,30.598],[11.651,30.646],[11.733,30.76],[11.867,30.931],[11.963,31.081],[11.946,31.087],[11.895,31.167],[11.853,31.247],[11.837,31.336],[11.845,31.462],[11.833,31.562],[11.837,31.681],[11.856,31.781],[11.84,31.855],[11.823,31.962],[11.84,32.088],[11.863,32.189],[11.863,32.308],[12.143,32.3],[12.292,32.297],[12.402,32.304],[12.49,32.273],[12.574,32.253],[12.649,32.233],[12.688,32.24],[12.736,32.25],[12.82,32.26]]]}},{"type":"Feature","id":"LY-NQ","properties":{"id":"LY-NQ","countryCode":"LY","isoSubdivision":"LY-NQ","name":"Nuqat al Khams","name_en":"Nuqat al Khams","name_ko":"안누카트알캄스","type":"Municipality|Governarate","labelLongitude":12.011,"labelLatitude":32.666,"minZoom":7.7},"geometry":{"type":"Polygon","coordinates":[[[11.526,32.418],[11.546,32.434],[11.564,32.465],[11.561,32.508],[11.537,32.544],[11.47,32.599],[11.45,32.638],[11.449,32.693],[11.464,32.798],[11.457,32.902],[11.474,32.97],[11.475,33.026],[11.477,33.041],[11.506,33.136],[11.505,33.181],[11.526,33.177],[11.56,33.166],[11.575,33.158],[11.588,33.132],[11.603,33.121],[11.636,33.109],[11.757,33.093],[11.793,33.081],[11.773,33.099],[11.708,33.117],[11.691,33.136],[11.739,33.113],[11.847,33.083],[12.081,32.958],[12.122,32.921],[12.161,32.912],[12.225,32.876],[12.304,32.843],[12.348,32.833],[12.573,32.813],[12.573,32.812],[12.555,32.799],[12.501,32.657],[12.462,32.601],[12.337,32.531],[12.286,32.474],[12.208,32.442],[12.122,32.407],[12.098,32.354],[11.863,32.308],[11.701,32.306],[11.643,32.322],[11.593,32.369],[11.534,32.414],[11.526,32.418]]]}},{"type":"Feature","id":"LY-QB","properties":{"id":"LY-QB","countryCode":"LY","isoSubdivision":"LY-QB","name":"Al Qubbah","name_en":"Al Qubbah","name_ko":"알 쿠바","type":"Municipality|Governarate","labelLongitude":22.585,"labelLatitude":31.817,"minZoom":7.7},"geometry":{"type":"Polygon","coordinates":[[[21.986,32.913],[22.096,32.923],[22.101,32.926],[22.112,32.941],[22.117,32.944],[22.139,32.948],[22.15,32.948],[22.161,32.944],[22.169,32.938],[22.171,32.933],[22.171,32.926],[22.175,32.916],[22.207,32.888],[22.247,32.881],[22.34,32.882],[22.379,32.87],[22.477,32.807],[22.497,32.797],[22.514,32.791],[22.532,32.788],[22.579,32.785],[22.813,32.725],[22.867,32.694],[22.885,32.69],[22.896,32.688],[22.929,32.677],[22.943,32.675],[22.977,32.677],[23,32.671],[23.041,32.653],[23.086,32.646],[23.106,32.64],[23.119,32.629],[23.121,32.615],[23.115,32.605],[23.098,32.587],[23.094,32.577],[23.104,32.516],[23.113,32.501],[23.129,32.488],[23.149,32.478],[23.141,32.459],[23.128,32.395],[23.109,32.402],[23.112,32.412],[23.11,32.42],[23.103,32.428],[23.094,32.436],[23.079,32.354],[23.081,32.334],[23.096,32.324],[23.157,32.304],[23.179,32.3],[23.195,32.292],[23.215,32.272],[23.231,32.251],[23.244,32.221],[23.251,32.217],[23.25,32.21],[23.218,32.122],[23.169,32.003],[23.118,31.848],[23.105,31.668],[23.071,31.512],[22.985,31.404],[22.957,31.233],[22.956,31.081],[22.969,31.006],[22.969,30.799],[22.889,30.793],[22.79,30.792],[22.689,30.817],[22.619,30.829],[22.512,30.893],[22.457,30.993],[22.336,31.087],[22.259,31.145],[22.112,31.12],[21.918,31.282],[21.948,31.388],[21.967,31.461],[21.968,31.623],[21.991,31.678],[22.001,31.788],[21.999,31.89],[22.004,32.051],[21.98,32.144],[21.978,32.232],[21.959,32.319],[21.977,32.351],[21.99,32.425],[22.02,32.498],[22.033,32.553],[22.025,32.626],[21.994,32.682],[21.969,32.756],[21.978,32.839],[21.98,32.901],[21.981,32.901],[21.986,32.913]]]}},{"type":"Feature","id":"LY-SB","properties":{"id":"LY-SB","countryCode":"LY","isoSubdivision":"LY-SB","name":"Sabha","name_en":"Sabha","name_ko":"세바","type":"Municipality|Governarate","labelLongitude":15.107,"labelLatitude":27.237,"minZoom":7.7},"geometry":{"type":"Polygon","coordinates":[[[15.796,27.721],[15.795,27.692],[15.868,27.595],[15.963,27.467],[15.992,27.384],[16.023,27.306],[16.062,27.272],[16.128,27.238],[16.192,27.185],[16.258,27.152],[16.281,27.083],[16.28,27.075],[15.761,26.948],[15.656,26.928],[15.467,26.898],[15.278,26.877],[15.1,26.837],[14.974,26.807],[14.828,26.758],[14.745,26.682],[14.641,26.586],[14.538,26.481],[14.424,26.376],[14.247,26.307],[14.133,26.268],[13.934,26.245],[13.934,26.247],[13.932,26.348],[13.972,26.462],[14.085,26.558],[14.146,26.671],[14.135,26.727],[14.081,26.782],[14.038,26.857],[14.045,26.988],[14.022,27.09],[13.983,27.129],[14.316,27.161],[14.421,27.173],[14.484,27.221],[14.525,27.277],[14.619,27.335],[14.723,27.393],[14.849,27.46],[14.921,27.574],[15.068,27.632],[15.174,27.643],[15.354,27.664],[15.417,27.693],[15.564,27.741],[15.796,27.721]]]}},{"type":"Feature","id":"LY-SR","properties":{"id":"LY-SR","countryCode":"LY","isoSubdivision":"LY-SR","name":"Sirte","name_en":"Sirte","name_ko":"시르테","type":"Municipality|Governarate","labelLongitude":17.452,"labelLatitude":30.202,"minZoom":7.7},"geometry":{"type":"Polygon","coordinates":[[[16.137,31.261],[16.359,31.227],[16.728,31.224],[16.942,31.183],[17.16,31.119],[17.331,31.086],[17.366,31.087],[17.375,31.083],[17.382,31.079],[17.419,31.062],[17.447,31.039],[17.458,31.033],[17.467,31.03],[17.614,30.992],[17.692,30.96],[17.776,30.935],[17.849,30.924],[17.862,30.914],[17.889,30.878],[17.907,30.864],[17.927,30.855],[18.017,30.838],[18.175,30.786],[18.208,30.769],[18.236,30.747],[18.324,30.657],[18.568,30.5],[18.623,30.446],[18.653,30.422],[18.719,30.392],[18.761,30.384],[18.781,30.376],[18.761,30.195],[18.726,30.001],[18.714,29.833],[18.733,29.666],[18.699,29.517],[18.58,29.369],[18.514,29.165],[18.5,28.876],[18.499,28.502],[18.499,28.485],[18.385,28.517],[18.225,28.555],[18.088,28.64],[17.982,28.733],[17.94,28.873],[17.898,28.985],[17.814,29.078],[17.729,29.162],[17.686,29.255],[17.665,29.329],[17.58,29.395],[17.505,29.394],[17.43,29.357],[17.334,29.283],[17.238,29.31],[17.088,29.347],[16.981,29.431],[16.853,29.439],[16.746,29.402],[16.553,29.391],[16.436,29.418],[16.419,29.409],[16.51,29.531],[16.531,29.633],[16.499,29.763],[16.466,29.921],[16.379,30.124],[16.303,30.309],[16.27,30.495],[16.226,30.689],[16.16,30.902],[16.116,31.049],[16.115,31.216],[16.132,31.251],[16.137,31.261]]]}},{"type":"Feature","id":"LY-TN","properties":{"id":"LY-TN","countryCode":"LY","isoSubdivision":"LY-TN","name":"Tripoli District","name_en":"Tripoli District","name_ko":"타주라 와 안 나와히 알 아르바","type":"Municipality|Governarate","labelLongitude":13.515,"labelLatitude":32.687,"minZoom":7.7},"geometry":{"type":"Polygon","coordinates":[[[13.103,32.877],[13.115,32.882],[13.148,32.904],[13.165,32.913],[13.188,32.916],[13.257,32.919],[13.352,32.904],[13.363,32.9],[13.374,32.892],[13.571,32.803],[13.617,32.793],[13.787,32.8],[13.83,32.794],[13.915,32.773],[13.954,32.758],[13.89,32.711],[13.813,32.639],[13.809,32.621],[13.719,32.613],[13.704,32.611],[13.573,32.561],[13.526,32.548],[13.451,32.529],[13.401,32.435],[13.385,32.383],[13.35,32.364],[13.236,32.334],[13.188,32.39],[13.19,32.46],[13.174,32.567],[13.163,32.649],[13.076,32.721],[13.111,32.783],[13.104,32.864],[13.104,32.871],[13.103,32.877]]]}},{"type":"Feature","id":"LY-WD","properties":{"id":"LY-WD","countryCode":"LY","isoSubdivision":"LY-WD","name":"Wadi al Hayaa","name_en":"Wadi al Hayaa","name_ko":"와디알하야","type":"Municipality|Governarate","labelLongitude":12.679,"labelLatitude":26.356,"minZoom":7.7},"geometry":{"type":"Polygon","coordinates":[[[13.983,27.129],[14.022,27.09],[14.045,26.988],[14.038,26.857],[14.081,26.782],[14.135,26.727],[14.146,26.671],[14.085,26.558],[13.972,26.462],[13.932,26.348],[13.934,26.247],[13.669,26.16],[13.482,26.118],[13.41,26.06],[13.308,25.945],[13.205,25.877],[12.966,25.861],[12.8,25.81],[12.707,25.779],[12.625,25.721],[12.5,25.708],[12.364,25.732],[12.262,25.654],[12.16,25.576],[12.046,25.563],[11.858,25.548],[11.774,25.573],[11.594,25.652],[11.4,25.551],[11.335,25.638],[11.304,25.749],[11.316,25.941],[11.353,26.09],[11.375,26.217],[11.508,26.297],[11.744,26.436],[12.011,26.604],[12.31,26.791],[12.578,26.977],[12.774,27.113],[13.012,27.25],[13.191,27.292],[13.349,27.268],[13.625,27.19],[13.983,27.129]]]}},{"type":"Feature","id":"LY-WS","properties":{"id":"LY-WS","countryCode":"LY","isoSubdivision":"LY-WS","name":"Ash Shati","name_en":"Ash Shati","name_ko":"애쉬 샤티","type":"Municipality|Governarate","labelLongitude":12.835,"labelLatitude":27.873,"minZoom":7.7},"geometry":{"type":"Polygon","coordinates":[[[9.931,27.819],[9.934,27.827],[9.936,27.867],[9.79,28.209],[9.777,28.268],[9.827,28.619],[9.87,28.633],[9.923,28.657],[10.002,28.681],[10.092,28.705],[10.138,28.717],[10.232,28.685],[10.375,28.614],[10.441,28.625],[10.527,28.661],[10.617,28.694],[10.706,28.73],[10.762,28.772],[10.78,28.785],[10.853,28.827],[10.91,28.845],[10.938,28.787],[10.954,28.715],[11.016,28.642],[11.145,28.623],[11.191,28.593],[11.324,28.545],[11.388,28.545],[11.455,28.585],[11.492,28.603],[11.587,28.59],[11.623,28.592],[11.725,28.61],[11.789,28.552],[11.898,28.529],[11.932,28.569],[11.95,28.592],[11.952,28.595],[11.983,28.647],[12.11,28.615],[12.157,28.61],[12.278,28.565],[12.351,28.558],[12.431,28.554],[12.492,28.543],[12.502,28.466],[12.589,28.427],[12.688,28.43],[12.758,28.494],[12.79,28.563],[12.849,28.609],[12.906,28.64],[12.993,28.687],[13.104,28.739],[13.208,28.843],[13.301,28.955],[13.359,29.035],[13.42,29.108],[13.47,29.18],[13.517,29.267],[13.597,29.357],[13.659,29.422],[13.713,29.465],[13.825,29.546],[13.911,29.568],[13.992,29.552],[14.052,29.522],[14.182,29.467],[14.287,29.401],[14.37,29.322],[14.422,29.264],[14.42,29.209],[14.416,29.11],[14.408,28.988],[14.423,28.878],[14.469,28.799],[14.527,28.719],[14.586,28.674],[14.66,28.622],[14.84,28.52],[14.959,28.408],[14.992,28.296],[14.994,28.218],[15.018,28.145],[15.123,28.13],[15.249,28.141],[15.38,28.207],[15.507,28.219],[15.59,28.215],[15.72,28.175],[15.792,28.156],[15.879,28.079],[15.894,27.996],[15.871,27.915],[15.831,27.82],[15.797,27.743],[15.796,27.721],[15.564,27.741],[15.417,27.693],[15.354,27.664],[15.174,27.643],[15.068,27.632],[14.921,27.574],[14.849,27.46],[14.723,27.393],[14.619,27.335],[14.525,27.277],[14.484,27.221],[14.421,27.173],[14.316,27.161],[13.983,27.129],[13.625,27.19],[13.349,27.268],[13.191,27.292],[13.012,27.25],[12.774,27.113],[12.578,26.977],[12.31,26.791],[12.011,26.604],[11.744,26.436],[11.508,26.297],[11.375,26.217],[11.359,26.358],[11.323,26.488],[11.26,26.748],[11.221,26.953],[11.194,27.093],[11.164,27.326],[11.107,27.436],[11.02,27.489],[10.892,27.531],[10.658,27.57],[10.465,27.618],[10.273,27.667],[10.079,27.743],[9.935,27.817],[9.931,27.819]]]}},{"type":"Feature","id":"LY-ZA","properties":{"id":"LY-ZA","countryCode":"LY","isoSubdivision":"LY-ZA","name":"Zawiya","name_en":"Zawiya","name_ko":"앗자위야","type":"Municipality|Governarate","labelLongitude":12.487,"labelLatitude":32.455,"minZoom":7.7},"geometry":{"type":"Polygon","coordinates":[[[12.573,32.813],[12.73,32.799],[12.824,32.804],[13.074,32.866],[13.103,32.877],[13.104,32.871],[13.104,32.864],[13.111,32.783],[13.076,32.721],[13.073,32.716],[12.969,32.669],[12.926,32.603],[12.898,32.56],[12.823,32.407],[12.83,32.337],[12.82,32.26],[12.736,32.25],[12.688,32.24],[12.649,32.233],[12.574,32.253],[12.49,32.273],[12.402,32.304],[12.292,32.297],[12.143,32.3],[11.863,32.308],[12.098,32.354],[12.122,32.407],[12.208,32.442],[12.286,32.474],[12.337,32.531],[12.462,32.601],[12.501,32.657],[12.555,32.799],[12.573,32.812],[12.573,32.813]]]}}]}
