{"type":"FeatureCollection","features":[{"type":"Feature","id":"MC-X01~","properties":{"id":"MC-X01~","countryCode":"MC","isoSubdivision":"MC-X01~","name":"Monaco","name_en":"Monaco","name_ko":"모나코빌","type":"Principal subdivision","labelLongitude":7.4,"labelLatitude":43.746,"minZoom":18},"geometry":{"type":"Polygon","coordinates":[[[7.407,43.764],[7.426,43.755],[7.437,43.743],[7.433,43.74],[7.418,43.731],[7.404,43.718],[7.381,43.719],[7.366,43.723],[7.367,43.734],[7.373,43.746],[7.388,43.758],[7.407,43.764]]]}}]}
