{"type":"FeatureCollection","features":[{"type":"Feature","id":"MF-X00~","properties":{"id":"MF-X00~","countryCode":"MF","isoSubdivision":"MF-X00~","name":"Saint Martin","name_en":"Saint Martin","name_ko":"생마르탱","type":"Principal subdivision","labelLongitude":-63.078,"labelLatitude":18.08,"minZoom":11},"geometry":{"type":"Polygon","coordinates":[[[-63.018,18.033],[-63.086,18.059],[-63.107,18.062],[-63.107,18.067],[-63.115,18.065],[-63.131,18.06],[-63.134,18.059],[-63.144,18.065],[-63.147,18.07],[-63.144,18.074],[-63.114,18.075],[-63.096,18.079],[-63.084,18.088],[-63.079,18.104],[-63.071,18.11],[-63.052,18.117],[-63.031,18.122],[-63.018,18.122],[-63.018,18.101],[-63.011,18.071],[-63.011,18.041],[-63.018,18.033]]]}}]}
