{"type":"FeatureCollection","features":[{"type":"Feature","id":"MH-L","properties":{"id":"MH-L","countryCode":"MH","isoSubdivision":"MH-L","name":"Ralik Chain","name_en":"Ralik Chain","name_ko":"라일릭 체인","type":"Principal subdivision","labelLongitude":168.959,"labelLatitude":7.596,"minZoom":11},"geometry":{"type":"MultiPolygon","coordinates":[[[[168.101,5.599],[168.101,5.6],[168.107,5.597],[168.115,5.595],[168.121,5.597],[168.126,5.606],[168.128,5.614],[168.127,5.623],[168.125,5.631],[168.132,5.619],[168.128,5.602],[168.116,5.591],[168.101,5.599]]],[[[168.685,4.574],[168.735,4.591],[168.744,4.599],[168.768,4.629],[168.758,4.605],[168.741,4.586],[168.717,4.575],[168.685,4.574]]],[[[169.59,5.801],[169.61,5.812],[169.618,5.818],[169.624,5.827],[169.63,5.84],[169.639,5.87],[169.645,5.917],[169.656,5.943],[169.676,5.961],[169.7,5.976],[169.719,5.993],[169.735,6.013],[169.721,5.977],[169.665,5.939],[169.653,5.9],[169.648,5.87],[169.635,5.829],[169.615,5.799],[169.59,5.801]]],[[[168.758,7.308],[168.83,7.308],[168.815,7.292],[168.792,7.293],[168.746,7.304],[168.696,7.313],[168.675,7.321],[168.679,7.335],[168.694,7.322],[168.716,7.315],[168.738,7.309],[168.758,7.308]]],[[[168.577,7.404],[168.564,7.413],[168.555,7.43],[168.554,7.45],[168.563,7.464],[168.566,7.451],[168.573,7.418],[168.577,7.404]]],[[[166.904,11.173],[166.894,11.155],[166.875,11.145],[166.853,11.145],[166.836,11.159],[166.872,11.162],[166.904,11.173]]],[[[169.115,5.638],[169.116,5.649],[169.121,5.647],[169.115,5.638]]],[[[168.966,7.575],[168.968,7.581],[168.968,7.584],[168.962,7.592],[168.951,7.596],[168.938,7.596],[168.944,7.598],[168.952,7.599],[168.96,7.599],[168.966,7.595],[168.969,7.587],[168.97,7.584],[168.969,7.579],[168.969,7.571],[168.966,7.575]]],[[[167.402,8.318],[167.408,8.307],[167.4,8.311],[167.402,8.318]]],[[[167.732,8.725],[167.731,8.73],[167.73,8.735],[167.733,8.74],[167.74,8.744],[167.742,8.738],[167.74,8.733],[167.732,8.725]]],[[[165.54,11.634],[165.543,11.633],[165.547,11.631],[165.551,11.627],[165.554,11.62],[165.54,11.634]]],[[[165.282,11.696],[165.282,11.708],[165.287,11.711],[165.289,11.706],[165.282,11.696]]]]}},{"type":"Feature","id":"MH-T","properties":{"id":"MH-T","countryCode":"MH","isoSubdivision":"MH-T","name":"Ratak Chain","name_en":"Ratak Chain","name_ko":"라타크 열도","type":"Principal subdivision","labelLongitude":170.243,"labelLatitude":9.459,"minZoom":11},"geometry":{"type":"MultiPolygon","coordinates":[[[[171.725,6.102],[171.729,6.098],[171.732,6.092],[171.743,6.083],[171.745,6.079],[171.738,6.079],[171.728,6.079],[171.723,6.083],[171.722,6.091],[171.725,6.102]]],[[[171.91,7.099],[171.918,7.105],[171.922,7.112],[171.921,7.118],[171.915,7.125],[171.929,7.118],[171.924,7.104],[171.909,7.092],[171.892,7.091],[171.896,7.094],[171.9,7.096],[171.91,7.099]]],[[[172.03,6.054],[172.008,6.056],[171.984,6.052],[171.962,6.052],[171.948,6.068],[171.951,6.067],[171.957,6.064],[171.966,6.062],[171.996,6.061],[172.03,6.054]]],[[[171.757,6.972],[171.73,6.976],[171.689,7.007],[171.66,7.013],[171.614,7.006],[171.593,7.015],[171.577,7.047],[171.587,7.034],[171.598,7.025],[171.611,7.02],[171.676,7.023],[171.689,7.02],[171.734,6.985],[171.757,6.972]]],[[[171.394,7.11],[171.367,7.094],[171.293,7.084],[171.263,7.068],[171.235,7.068],[171.202,7.072],[171.061,7.135],[171.036,7.155],[171.05,7.171],[171.051,7.161],[171.052,7.155],[171.057,7.143],[171.226,7.076],[171.237,7.076],[171.263,7.081],[171.285,7.088],[171.394,7.11]]],[[[171.792,7.055],[171.794,7.058],[171.796,7.06],[171.798,7.062],[171.801,7.063],[171.794,7.05],[171.786,7.038],[171.776,7.028],[171.764,7.02],[171.77,7.029],[171.792,7.055]]],[[[170.852,8.898],[170.845,8.887],[170.839,8.888],[170.838,8.889],[170.837,8.889],[170.837,8.89],[170.841,8.899],[170.845,8.901],[170.85,8.901],[170.852,8.898]]],[[[170.24,9.45],[170.239,9.467],[170.244,9.466],[170.247,9.458],[170.24,9.45]]],[[[170.875,10.275],[170.875,10.287],[170.879,10.287],[170.879,10.275],[170.875,10.275]]],[[[169.011,14.61],[169.014,14.611],[169.007,14.603],[168.997,14.593],[168.987,14.587],[168.998,14.599],[169.011,14.61]]]]}}]}
