{"type":"FeatureCollection","features":[{"type":"Feature","id":"ML-1","properties":{"id":"ML-1","countryCode":"ML","isoSubdivision":"ML-1","name":"Kayes","name_en":"Kayes","name_ko":"케이스","type":"Region","labelLongitude":-10.198,"labelLatitude":13.796,"minZoom":6.6},"geometry":{"type":"Polygon","coordinates":[[[-11.823,13.307],[-11.828,13.307],[-11.84,13.317],[-11.845,13.324],[-11.851,13.343],[-11.855,13.351],[-11.862,13.356],[-11.889,13.369],[-11.898,13.371],[-11.9,13.382],[-11.886,13.436],[-11.883,13.454],[-11.89,13.465],[-11.898,13.469],[-11.908,13.47],[-11.918,13.475],[-11.924,13.481],[-11.933,13.496],[-11.939,13.503],[-11.997,13.544],[-12.015,13.564],[-12.037,13.598],[-12.05,13.634],[-12.07,13.673],[-12.084,13.693],[-12.098,13.704],[-12.012,13.751],[-11.979,13.785],[-11.963,13.829],[-11.957,13.87],[-11.957,13.89],[-11.963,13.909],[-11.98,13.93],[-11.999,13.944],[-12.015,13.959],[-12.025,13.985],[-12.025,14.027],[-12.003,14.103],[-11.995,14.144],[-11.998,14.166],[-12.034,14.25],[-12.044,14.265],[-12.058,14.274],[-12.098,14.288],[-12.11,14.298],[-12.12,14.311],[-12.128,14.324],[-12.113,14.33],[-12.109,14.342],[-12.116,14.355],[-12.209,14.389],[-12.222,14.391],[-12.22,14.435],[-12.222,14.455],[-12.234,14.499],[-12.236,14.519],[-12.23,14.537],[-12.211,14.548],[-12.204,14.554],[-12.201,14.565],[-12.2,14.577],[-12.198,14.588],[-12.191,14.598],[-12.172,14.616],[-12.166,14.625],[-12.165,14.642],[-12.173,14.648],[-12.183,14.65],[-12.19,14.656],[-12.192,14.667],[-12.19,14.674],[-12.186,14.681],[-12.18,14.693],[-12.191,14.693],[-12.208,14.697],[-12.223,14.703],[-12.23,14.715],[-12.237,14.728],[-12.257,14.746],[-12.264,14.775],[-12.247,14.767],[-12.225,14.763],[-12.203,14.766],[-12.16,14.781],[-12.139,14.785],[-12.124,14.777],[-12.081,14.74],[-12.07,14.734],[-12.062,14.746],[-12.057,14.762],[-12.05,14.767],[-12.031,14.763],[-12.011,14.763],[-11.991,14.768],[-11.974,14.78],[-11.95,14.812],[-11.936,14.824],[-11.896,14.832],[-11.877,14.842],[-11.863,14.854],[-11.855,14.867],[-11.851,14.876],[-11.846,14.883],[-11.84,14.888],[-11.837,14.893],[-11.833,14.895],[-11.826,14.897],[-11.82,14.9],[-11.82,14.906],[-11.827,14.916],[-11.83,14.92],[-11.831,14.926],[-11.826,14.962],[-11.821,14.98],[-11.813,14.996],[-11.811,15.014],[-11.814,15.029],[-11.821,15.04],[-11.833,15.049],[-11.839,15.049],[-11.844,15.044],[-11.851,15.042],[-11.861,15.049],[-11.859,15.054],[-11.857,15.084],[-11.845,15.125],[-11.844,15.135],[-11.847,15.149],[-11.848,15.158],[-11.846,15.179],[-11.827,15.233],[-11.821,15.28],[-11.817,15.296],[-11.783,15.366],[-11.768,15.437],[-11.755,15.469],[-11.729,15.496],[-11.727,15.507],[-11.727,15.541],[-11.702,15.537],[-11.698,15.537],[-11.671,15.528],[-11.644,15.526],[-11.615,15.541],[-11.579,15.578],[-11.563,15.587],[-11.536,15.595],[-11.524,15.6],[-11.515,15.61],[-11.513,15.615],[-11.512,15.62],[-11.513,15.625],[-11.515,15.63],[-11.52,15.633],[-11.523,15.635],[-11.526,15.638],[-11.527,15.643],[-11.524,15.643],[-11.515,15.644],[-11.458,15.633],[-11.435,15.623],[-11.41,15.602],[-11.317,15.472],[-11.298,15.451],[-11.045,15.27],[-11.013,15.24],[-10.985,15.187],[-10.948,15.152],[-10.915,15.103],[-10.906,15.12],[-10.891,15.177],[-10.882,15.193],[-10.855,15.218],[-10.844,15.235],[-10.834,15.271],[-10.827,15.288],[-10.811,15.303],[-10.8,15.307],[-10.79,15.307],[-10.782,15.308],[-10.771,15.325],[-10.755,15.334],[-10.747,15.341],[-10.739,15.362],[-10.74,15.404],[-10.736,15.423],[-10.725,15.433],[-10.709,15.434],[-10.649,15.425],[-10.607,15.424],[-10.587,15.427],[-10.585,15.428],[-10.552,15.439],[-10.535,15.442],[-10.516,15.438],[-10.5,15.44],[-10.398,15.439],[-10.371,15.434],[-10.323,15.437],[-10.309,15.435],[-10.223,15.402],[-10.214,15.402],[-10.196,15.405],[-10.188,15.405],[-10.168,15.395],[-10.132,15.373],[-10.108,15.366],[-10.068,15.365],[-9.951,15.381],[-9.836,15.371],[-9.797,15.38],[-9.741,15.413],[-9.721,15.421],[-9.672,15.431],[-9.424,15.441],[-9.436,15.496],[-9.452,15.559],[-9.452,15.588],[-9.437,15.615],[-9.376,15.686],[-9.356,15.698],[-9.332,15.688],[-9.329,15.655],[-9.343,15.587],[-9.349,15.496],[-9.176,15.496],[-9.141,15.496],[-9.122,15.474],[-9.073,15.435],[-9.018,15.395],[-8.99,15.368],[-8.849,15.293],[-8.804,15.245],[-8.796,15.221],[-8.788,15.143],[-8.741,15.026],[-8.677,14.982],[-8.571,14.976],[-8.507,14.963],[-8.492,14.942],[-8.475,14.876],[-8.48,14.79],[-8.485,14.733],[-8.463,14.698],[-8.361,14.625],[-8.3,14.581],[-8.237,14.52],[-8.164,14.503],[-8.15,14.488],[-8.154,14.457],[-8.16,14.434],[-8.136,14.358],[-8.132,14.34],[-8.162,14.32],[-8.227,14.312],[-8.272,14.305],[-8.326,14.316],[-8.398,14.307],[-8.443,14.298],[-8.472,14.301],[-8.499,14.326],[-8.529,14.38],[-8.55,14.402],[-8.571,14.413],[-8.594,14.408],[-8.617,14.36],[-8.65,14.314],[-8.69,14.303],[-8.722,14.288],[-8.809,14.288],[-8.764,14.181],[-8.759,14.16],[-8.758,14.137],[-8.765,14.109],[-8.778,14.108],[-8.797,14.114],[-8.819,14.106],[-8.824,14.093],[-8.818,14.058],[-8.824,14.042],[-8.832,14.032],[-8.835,14.024],[-8.841,14.004],[-8.846,13.997],[-8.852,13.994],[-8.855,13.989],[-8.853,13.976],[-8.847,13.969],[-8.815,13.942],[-8.805,13.938],[-8.796,13.936],[-8.787,13.932],[-8.781,13.923],[-8.776,13.912],[-8.769,13.905],[-8.761,13.906],[-8.751,13.917],[-8.723,13.866],[-8.704,13.85],[-8.618,13.837],[-8.593,13.84],[-8.58,13.863],[-8.594,13.866],[-8.593,13.879],[-8.576,13.912],[-8.573,13.936],[-8.566,13.946],[-8.546,13.952],[-8.512,13.952],[-8.485,13.943],[-8.465,13.923],[-8.453,13.89],[-8.451,13.876],[-8.455,13.855],[-8.455,13.84],[-8.458,13.823],[-8.467,13.811],[-8.479,13.8],[-8.49,13.788],[-8.506,13.756],[-8.514,13.744],[-8.541,13.718],[-8.551,13.704],[-8.555,13.683],[-8.543,13.579],[-8.541,13.569],[-8.535,13.562],[-8.525,13.555],[-8.515,13.546],[-8.508,13.535],[-8.497,13.508],[-8.468,13.48],[-8.457,13.463],[-8.451,13.444],[-8.449,13.423],[-8.451,13.404],[-8.462,13.39],[-8.473,13.384],[-8.48,13.382],[-8.486,13.377],[-8.494,13.366],[-8.5,13.353],[-8.52,13.292],[-8.523,13.272],[-8.526,13.26],[-8.533,13.248],[-8.549,13.229],[-8.555,13.218],[-8.561,13.197],[-8.564,13.133],[-8.569,13.12],[-8.575,13.11],[-8.579,13.099],[-8.58,13.084],[-8.571,13.031],[-8.571,13.007],[-8.579,12.978],[-8.624,12.909],[-8.634,12.885],[-8.634,12.859],[-8.625,12.844],[-8.611,12.83],[-8.598,12.807],[-8.682,12.763],[-8.698,12.749],[-8.723,12.714],[-8.762,12.69],[-8.809,12.676],[-8.854,12.669],[-8.891,12.65],[-8.924,12.586],[-8.963,12.554],[-9.003,12.523],[-9.045,12.447],[-9.01,12.424],[-9.023,12.409],[-9.028,12.405],[-9.147,12.465],[-9.189,12.479],[-9.266,12.495],[-9.279,12.494],[-9.286,12.488],[-9.294,12.484],[-9.308,12.489],[-9.322,12.497],[-9.327,12.498],[-9.334,12.496],[-9.351,12.485],[-9.398,12.473],[-9.413,12.455],[-9.407,12.445],[-9.393,12.428],[-9.375,12.411],[-9.347,12.396],[-9.344,12.389],[-9.344,12.38],[-9.339,12.371],[-9.332,12.366],[-9.315,12.363],[-9.309,12.358],[-9.308,12.345],[-9.313,12.326],[-9.322,12.31],[-9.335,12.307],[-9.332,12.283],[-9.337,12.27],[-9.36,12.247],[-9.422,12.257],[-9.439,12.255],[-9.48,12.236],[-9.496,12.225],[-9.516,12.207],[-9.628,12.17],[-9.66,12.15],[-9.675,12.134],[-9.682,12.119],[-9.684,12.101],[-9.682,12.081],[-9.686,12.068],[-9.699,12.051],[-9.723,12.025],[-9.779,12.027],[-9.797,12.032],[-9.807,12.038],[-9.823,12.051],[-9.834,12.055],[-9.841,12.055],[-9.861,12.052],[-9.871,12.052],[-9.889,12.061],[-9.923,12.088],[-9.942,12.093],[-9.962,12.096],[-9.996,12.114],[-10.016,12.12],[-10.028,12.126],[-10.048,12.141],[-10.06,12.148],[-10.07,12.15],[-10.087,12.151],[-10.09,12.152],[-10.097,12.154],[-10.105,12.159],[-10.119,12.17],[-10.129,12.175],[-10.136,12.175],[-10.16,12.175],[-10.18,12.178],[-10.215,12.195],[-10.248,12.201],[-10.254,12.207],[-10.259,12.214],[-10.267,12.218],[-10.305,12.203],[-10.311,12.191],[-10.314,12.191],[-10.316,12.197],[-10.324,12.202],[-10.326,12.2],[-10.33,12.19],[-10.339,12.185],[-10.348,12.185],[-10.354,12.181],[-10.353,12.166],[-10.368,12.172],[-10.375,12.175],[-10.381,12.18],[-10.395,12.172],[-10.429,12.143],[-10.436,12.135],[-10.446,12.121],[-10.493,12.124],[-10.512,12.118],[-10.513,12.108],[-10.504,12.088],[-10.508,12.085],[-10.517,12.08],[-10.518,12.071],[-10.515,12.06],[-10.515,12.053],[-10.535,12.039],[-10.555,12.029],[-10.567,12.017],[-10.559,11.995],[-10.575,11.99],[-10.596,11.98],[-10.614,11.968],[-10.622,11.958],[-10.625,11.944],[-10.634,11.925],[-10.645,11.908],[-10.655,11.899],[-10.67,11.892],[-10.711,11.89],[-10.74,11.92],[-10.781,11.996],[-10.808,12.023],[-10.812,12.033],[-10.811,12.042],[-10.801,12.059],[-10.799,12.068],[-10.805,12.096],[-10.823,12.11],[-10.846,12.121],[-10.87,12.138],[-10.91,12.2],[-10.928,12.213],[-10.952,12.219],[-10.972,12.219],[-11.015,12.204],[-11.039,12.205],[-11.052,12.203],[-11.06,12.192],[-11.073,12.149],[-11.084,12.137],[-11.117,12.114],[-11.117,12.113],[-11.122,12.107],[-11.136,12.085],[-11.144,12.081],[-11.153,12.081],[-11.159,12.078],[-11.166,12.049],[-11.176,12.029],[-11.185,12.021],[-11.191,12.014],[-11.207,12.01],[-11.223,12.009],[-11.256,11.996],[-11.275,11.996],[-11.295,12.003],[-11.315,12.013],[-11.335,12.026],[-11.351,12.04],[-11.392,12.094],[-11.41,12.108],[-11.471,12.135],[-11.49,12.151],[-11.508,12.192],[-11.492,12.221],[-11.463,12.25],[-11.445,12.289],[-11.445,12.313],[-11.451,12.352],[-11.447,12.375],[-11.432,12.383],[-11.408,12.382],[-11.389,12.384],[-11.388,12.404],[-11.387,12.43],[-11.38,12.457],[-11.378,12.48],[-11.39,12.498],[-11.393,12.492],[-11.401,12.48],[-11.402,12.489],[-11.409,12.505],[-11.411,12.513],[-11.417,12.529],[-11.425,12.526],[-11.43,12.516],[-11.43,12.508],[-11.438,12.515],[-11.449,12.535],[-11.457,12.54],[-11.468,12.544],[-11.461,12.55],[-11.44,12.559],[-11.437,12.571],[-11.439,12.578],[-11.441,12.585],[-11.442,12.596],[-11.437,12.627],[-11.437,12.637],[-11.442,12.648],[-11.45,12.653],[-11.457,12.656],[-11.461,12.658],[-11.462,12.673],[-11.456,12.681],[-11.448,12.686],[-11.437,12.712],[-11.424,12.716],[-11.41,12.719],[-11.402,12.732],[-11.404,12.741],[-11.415,12.76],[-11.415,12.764],[-11.408,12.771],[-11.405,12.782],[-11.406,12.794],[-11.408,12.804],[-11.412,12.813],[-11.416,12.82],[-11.42,12.825],[-11.421,12.826],[-11.423,12.826],[-11.428,12.827],[-11.432,12.829],[-11.433,12.836],[-11.43,12.841],[-11.427,12.845],[-11.425,12.85],[-11.429,12.866],[-11.425,12.876],[-11.419,12.887],[-11.415,12.897],[-11.417,12.902],[-11.423,12.907],[-11.428,12.912],[-11.427,12.919],[-11.421,12.922],[-11.414,12.92],[-11.407,12.916],[-11.403,12.916],[-11.394,12.923],[-11.388,12.927],[-11.384,12.933],[-11.387,12.959],[-11.389,12.971],[-11.393,12.981],[-11.402,12.989],[-11.404,12.972],[-11.412,12.961],[-11.423,12.956],[-11.439,12.959],[-11.436,12.969],[-11.434,12.988],[-11.433,12.997],[-11.43,13.001],[-11.425,13.005],[-11.423,13.009],[-11.432,13.013],[-11.436,13.017],[-11.44,13.023],[-11.445,13.035],[-11.459,13.055],[-11.457,13.06],[-11.451,13.068],[-11.45,13.075],[-11.461,13.079],[-11.477,13.083],[-11.49,13.091],[-11.502,13.1],[-11.515,13.108],[-11.533,13.112],[-11.538,13.128],[-11.539,13.163],[-11.548,13.176],[-11.56,13.187],[-11.569,13.199],[-11.572,13.217],[-11.569,13.228],[-11.556,13.246],[-11.554,13.257],[-11.559,13.267],[-11.581,13.286],[-11.606,13.32],[-11.613,13.339],[-11.613,13.361],[-11.62,13.358],[-11.633,13.354],[-11.644,13.356],[-11.647,13.366],[-11.645,13.38],[-11.65,13.384],[-11.675,13.383],[-11.695,13.379],[-11.704,13.38],[-11.714,13.388],[-11.72,13.398],[-11.727,13.406],[-11.741,13.408],[-11.757,13.4],[-11.767,13.383],[-11.773,13.363],[-11.775,13.343],[-11.817,13.312],[-11.823,13.307]]]}},{"type":"Feature","id":"ML-2","properties":{"id":"ML-2","countryCode":"ML","isoSubdivision":"ML-2","name":"Koulikoro","name_en":"Koulikoro","name_ko":"쿨리코로","type":"Region","labelLongitude":-7.543,"labelLatitude":13.751,"minZoom":6.6},"geometry":{"type":"Polygon","coordinates":[[[-8.974,12.188],[-8.981,12.199],[-8.985,12.209],[-8.994,12.225],[-8.998,12.235],[-8.996,12.261],[-8.985,12.282],[-8.972,12.302],[-8.963,12.324],[-8.965,12.346],[-8.976,12.369],[-8.994,12.388],[-9.028,12.405],[-9.023,12.409],[-9.01,12.424],[-9.045,12.447],[-9.003,12.523],[-8.963,12.554],[-8.924,12.586],[-8.891,12.65],[-8.854,12.669],[-8.809,12.676],[-8.762,12.69],[-8.723,12.714],[-8.698,12.749],[-8.682,12.763],[-8.598,12.807],[-8.611,12.83],[-8.625,12.844],[-8.634,12.859],[-8.634,12.885],[-8.624,12.909],[-8.579,12.978],[-8.571,13.007],[-8.571,13.031],[-8.58,13.084],[-8.579,13.099],[-8.575,13.11],[-8.569,13.12],[-8.564,13.133],[-8.561,13.197],[-8.555,13.218],[-8.549,13.229],[-8.533,13.248],[-8.526,13.26],[-8.523,13.272],[-8.52,13.292],[-8.5,13.353],[-8.494,13.366],[-8.486,13.377],[-8.48,13.382],[-8.473,13.384],[-8.462,13.39],[-8.451,13.404],[-8.449,13.423],[-8.451,13.444],[-8.457,13.463],[-8.468,13.48],[-8.497,13.508],[-8.508,13.535],[-8.515,13.546],[-8.525,13.555],[-8.535,13.562],[-8.541,13.569],[-8.543,13.579],[-8.555,13.683],[-8.551,13.704],[-8.541,13.718],[-8.514,13.744],[-8.506,13.756],[-8.49,13.788],[-8.479,13.8],[-8.467,13.811],[-8.458,13.823],[-8.455,13.84],[-8.455,13.855],[-8.451,13.876],[-8.453,13.89],[-8.465,13.923],[-8.485,13.943],[-8.512,13.952],[-8.546,13.952],[-8.566,13.946],[-8.573,13.936],[-8.576,13.912],[-8.593,13.879],[-8.594,13.866],[-8.58,13.863],[-8.593,13.84],[-8.618,13.837],[-8.704,13.85],[-8.723,13.866],[-8.751,13.917],[-8.761,13.906],[-8.769,13.905],[-8.776,13.912],[-8.781,13.923],[-8.787,13.932],[-8.796,13.936],[-8.805,13.938],[-8.815,13.942],[-8.847,13.969],[-8.853,13.976],[-8.855,13.989],[-8.852,13.994],[-8.846,13.997],[-8.841,14.004],[-8.835,14.024],[-8.832,14.032],[-8.824,14.042],[-8.818,14.058],[-8.824,14.093],[-8.819,14.106],[-8.797,14.114],[-8.778,14.108],[-8.765,14.109],[-8.758,14.137],[-8.759,14.16],[-8.764,14.181],[-8.809,14.288],[-8.722,14.288],[-8.69,14.303],[-8.65,14.314],[-8.617,14.36],[-8.594,14.408],[-8.571,14.413],[-8.55,14.402],[-8.529,14.38],[-8.499,14.326],[-8.472,14.301],[-8.443,14.298],[-8.398,14.307],[-8.326,14.316],[-8.272,14.305],[-8.227,14.312],[-8.162,14.32],[-8.132,14.34],[-8.136,14.358],[-8.16,14.434],[-8.154,14.457],[-8.15,14.488],[-8.164,14.503],[-8.237,14.52],[-8.3,14.581],[-8.361,14.625],[-8.463,14.698],[-8.485,14.733],[-8.48,14.79],[-8.475,14.876],[-8.492,14.942],[-8.507,14.963],[-8.571,14.976],[-8.677,14.982],[-8.741,15.026],[-8.788,15.143],[-8.796,15.221],[-8.804,15.245],[-8.849,15.293],[-8.99,15.368],[-9.018,15.395],[-9.073,15.435],[-9.122,15.474],[-9.141,15.496],[-9.019,15.496],[-9.003,15.496],[-8.911,15.495],[-8.843,15.495],[-8.769,15.495],[-8.689,15.495],[-8.604,15.495],[-8.47,15.495],[-8.327,15.495],[-8.176,15.495],[-8.018,15.495],[-7.855,15.495],[-7.687,15.495],[-7.517,15.495],[-7.346,15.495],[-7.175,15.495],[-7.005,15.495],[-6.837,15.495],[-6.674,15.495],[-6.516,15.495],[-6.365,15.495],[-6.32,15.495],[-6.336,15.376],[-6.405,15.168],[-6.435,15.116],[-6.528,14.998],[-6.545,14.944],[-6.485,14.846],[-6.436,14.781],[-6.402,14.661],[-6.381,14.602],[-6.382,14.536],[-6.407,14.502],[-6.429,14.465],[-6.459,14.446],[-6.582,14.48],[-6.617,14.47],[-6.637,14.422],[-6.715,14.323],[-6.751,14.265],[-6.9,13.998],[-6.914,13.816],[-6.9,13.749],[-6.841,13.691],[-6.783,13.624],[-6.775,13.525],[-6.764,13.495],[-6.728,13.47],[-6.717,13.452],[-6.743,13.383],[-6.774,13.366],[-6.867,13.36],[-6.926,13.342],[-6.971,13.301],[-6.989,13.244],[-7.022,13.182],[-7.021,13.146],[-7.033,13.087],[-7.069,13.051],[-7.081,13.016],[-7.067,13],[-7.019,12.945],[-6.957,12.929],[-6.908,12.928],[-6.886,12.908],[-6.883,12.851],[-6.894,12.788],[-6.881,12.765],[-6.851,12.764],[-6.809,12.783],[-6.697,12.8],[-6.625,12.809],[-6.581,12.791],[-6.512,12.766],[-6.487,12.693],[-6.469,12.681],[-6.423,12.697],[-6.39,12.7],[-6.375,12.657],[-6.354,12.592],[-6.311,12.578],[-6.261,12.555],[-6.227,12.502],[-6.225,12.463],[-6.211,12.428],[-6.211,12.401],[-6.175,12.407],[-6.122,12.367],[-6.103,12.324],[-6.07,12.308],[-5.98,12.313],[-5.951,12.3],[-5.945,12.212],[-5.982,12.122],[-6.018,12.125],[-6.087,12.105],[-6.117,12.107],[-6.145,12.093],[-6.142,12.047],[-6.141,12.023],[-6.153,12.013],[-6.201,12.058],[-6.252,12.077],[-6.302,12.073],[-6.347,12.027],[-6.346,11.98],[-6.334,11.905],[-6.396,11.845],[-6.408,11.804],[-6.431,11.742],[-6.446,11.702],[-6.469,11.653],[-6.498,11.65],[-6.543,11.67],[-6.536,11.728],[-6.553,11.746],[-6.64,11.748],[-6.769,11.807],[-6.841,11.825],[-6.871,11.862],[-6.897,11.871],[-6.947,11.862],[-6.949,11.955],[-6.968,11.978],[-7.015,11.966],[-7.044,11.979],[-7.079,12.012],[-7.08,12.067],[-7.048,12.138],[-7.05,12.173],[-7.087,12.295],[-7.104,12.404],[-7.116,12.433],[-7.171,12.413],[-7.212,12.348],[-7.255,12.32],[-7.289,12.306],[-7.303,12.254],[-7.319,12.227],[-7.355,12.212],[-7.455,12.163],[-7.48,12.148],[-7.505,12.097],[-7.544,12.006],[-7.576,11.981],[-7.641,11.951],[-7.748,11.905],[-7.862,11.843],[-7.937,11.787],[-7.963,11.778],[-8.035,11.707],[-8.071,11.686],[-8.155,11.707],[-8.206,11.705],[-8.333,11.657],[-8.397,11.659],[-8.431,11.642],[-8.488,11.516],[-8.526,11.469],[-8.539,11.456],[-8.544,11.478],[-8.55,11.49],[-8.575,11.47],[-8.602,11.472],[-8.657,11.496],[-8.668,11.511],[-8.679,11.53],[-8.687,11.55],[-8.691,11.568],[-8.713,11.64],[-8.727,11.649],[-8.74,11.646],[-8.757,11.639],[-8.777,11.636],[-8.795,11.642],[-8.812,11.652],[-8.829,11.659],[-8.847,11.658],[-8.797,11.913],[-8.798,11.925],[-8.803,11.935],[-8.81,11.944],[-8.815,11.955],[-8.816,11.977],[-8.815,11.996],[-8.82,12.013],[-8.838,12.028],[-8.859,12.032],[-8.882,12.029],[-8.904,12.03],[-8.922,12.045],[-8.926,12.064],[-8.922,12.086],[-8.907,12.125],[-8.906,12.148],[-8.914,12.17],[-8.927,12.187],[-8.942,12.196],[-8.962,12.188],[-8.974,12.188]],[[-7.978,12.543],[-7.944,12.553],[-7.933,12.575],[-7.931,12.604],[-7.934,12.636],[-7.939,12.662],[-7.953,12.685],[-7.975,12.698],[-8.002,12.704],[-8.028,12.701],[-8.051,12.691],[-8.065,12.67],[-8.069,12.643],[-8.065,12.604],[-8.054,12.58],[-8.039,12.57],[-8.029,12.558],[-8.01,12.552],[-7.978,12.543]]]}},{"type":"Feature","id":"ML-3","properties":{"id":"ML-3","countryCode":"ML","isoSubdivision":"ML-3","name":"Wassoulou","name_en":"Wassoulou","name_ko":"시카소","type":"Region","labelLongitude":-6.544,"labelLatitude":11.155,"minZoom":6.6},"geometry":{"type":"Polygon","coordinates":[[[-4.464,12.717],[-4.475,12.716],[-4.482,12.717],[-4.485,12.715],[-4.491,12.663],[-4.483,12.646],[-4.439,12.613],[-4.422,12.597],[-4.401,12.55],[-4.393,12.537],[-4.387,12.534],[-4.387,12.53],[-4.393,12.516],[-4.408,12.498],[-4.427,12.48],[-4.444,12.459],[-4.452,12.435],[-4.415,12.35],[-4.406,12.307],[-4.436,12.302],[-4.445,12.309],[-4.453,12.32],[-4.462,12.328],[-4.477,12.327],[-4.488,12.321],[-4.491,12.314],[-4.49,12.306],[-4.494,12.29],[-4.492,12.279],[-4.494,12.273],[-4.497,12.269],[-4.586,12.197],[-4.56,12.149],[-4.57,12.139],[-4.6,12.138],[-4.636,12.118],[-4.647,12.098],[-4.649,12.082],[-4.653,12.072],[-4.654,12.069],[-4.674,12.06],[-4.684,12.059],[-4.704,12.061],[-4.715,12.059],[-4.725,12.05],[-4.732,12.037],[-4.739,12.025],[-4.747,12.015],[-4.761,12.007],[-4.79,12.002],[-4.807,11.996],[-4.826,12.013],[-4.847,12.013],[-4.89,11.998],[-4.911,11.998],[-4.932,12.003],[-4.954,12.005],[-4.975,11.996],[-4.985,11.989],[-4.994,11.983],[-5.005,11.981],[-5.016,11.981],[-5.034,11.979],[-5.074,11.981],[-5.089,11.979],[-5.104,11.973],[-5.137,11.953],[-5.168,11.944],[-5.183,11.931],[-5.209,11.901],[-5.248,11.87],[-5.268,11.843],[-5.275,11.837],[-5.282,11.836],[-5.288,11.839],[-5.293,11.843],[-5.3,11.846],[-5.307,11.846],[-5.311,11.843],[-5.315,11.839],[-5.319,11.837],[-5.354,11.832],[-5.357,11.83],[-5.365,11.822],[-5.37,11.82],[-5.376,11.822],[-5.388,11.831],[-5.392,11.832],[-5.406,11.83],[-5.412,11.829],[-5.412,11.824],[-5.406,11.812],[-5.4,11.81],[-5.375,11.795],[-5.371,11.791],[-5.353,11.795],[-5.345,11.794],[-5.334,11.791],[-5.315,11.782],[-5.299,11.773],[-5.287,11.759],[-5.28,11.739],[-5.279,11.721],[-5.281,11.699],[-5.289,11.66],[-5.295,11.65],[-5.302,11.64],[-5.308,11.629],[-5.308,11.618],[-5.3,11.606],[-5.291,11.604],[-5.281,11.606],[-5.269,11.604],[-5.234,11.576],[-5.225,11.541],[-5.225,11.458],[-5.219,11.435],[-5.218,11.422],[-5.226,11.413],[-5.248,11.403],[-5.263,11.39],[-5.268,11.372],[-5.261,11.268],[-5.263,11.252],[-5.275,11.231],[-5.307,11.199],[-5.316,11.176],[-5.322,11.136],[-5.333,11.122],[-5.356,11.107],[-5.373,11.1],[-5.39,11.095],[-5.49,11.082],[-5.504,11.073],[-5.507,11.057],[-5.506,11.048],[-5.496,10.996],[-5.502,10.97],[-5.479,10.976],[-5.466,10.948],[-5.447,10.878],[-5.435,10.857],[-5.431,10.845],[-5.445,10.787],[-5.445,10.779],[-5.446,10.769],[-5.453,10.764],[-5.461,10.76],[-5.468,10.753],[-5.473,10.738],[-5.483,10.684],[-5.482,10.675],[-5.477,10.659],[-5.476,10.65],[-5.461,10.645],[-5.47,10.636],[-5.477,10.62],[-5.479,10.604],[-5.471,10.597],[-5.468,10.588],[-5.482,10.535],[-5.505,10.499],[-5.509,10.491],[-5.517,10.44],[-5.523,10.425],[-5.55,10.436],[-5.572,10.45],[-5.584,10.454],[-5.594,10.454],[-5.622,10.447],[-5.678,10.442],[-5.806,10.413],[-5.878,10.376],[-5.893,10.365],[-5.905,10.348],[-5.909,10.33],[-5.905,10.275],[-5.916,10.267],[-5.963,10.283],[-5.975,10.274],[-5.978,10.249],[-5.985,10.227],[-5.997,10.208],[-6.016,10.19],[-6.105,10.189],[-6.181,10.216],[-6.194,10.224],[-6.214,10.248],[-6.225,10.255],[-6.24,10.252],[-6.243,10.289],[-6.241,10.303],[-6.228,10.316],[-6.226,10.314],[-6.221,10.31],[-6.214,10.308],[-6.206,10.311],[-6.204,10.316],[-6.205,10.323],[-6.208,10.329],[-6.208,10.332],[-6.184,10.359],[-6.199,10.371],[-6.196,10.389],[-6.181,10.42],[-6.197,10.439],[-6.2,10.449],[-6.198,10.457],[-6.187,10.475],[-6.186,10.481],[-6.19,10.491],[-6.196,10.495],[-6.204,10.494],[-6.216,10.493],[-6.222,10.495],[-6.228,10.501],[-6.233,10.508],[-6.239,10.513],[-6.248,10.514],[-6.256,10.512],[-6.261,10.514],[-6.261,10.529],[-6.256,10.537],[-6.238,10.552],[-6.231,10.56],[-6.23,10.572],[-6.233,10.584],[-6.239,10.598],[-6.231,10.607],[-6.22,10.612],[-6.21,10.618],[-6.204,10.63],[-6.208,10.638],[-6.217,10.645],[-6.228,10.651],[-6.247,10.658],[-6.249,10.666],[-6.244,10.707],[-6.246,10.721],[-6.256,10.726],[-6.28,10.723],[-6.304,10.713],[-6.322,10.7],[-6.342,10.691],[-6.368,10.692],[-6.388,10.696],[-6.41,10.694],[-6.427,10.686],[-6.434,10.668],[-6.436,10.629],[-6.431,10.615],[-6.419,10.608],[-6.407,10.602],[-6.399,10.592],[-6.403,10.569],[-6.421,10.557],[-6.446,10.552],[-6.467,10.554],[-6.521,10.564],[-6.538,10.57],[-6.578,10.591],[-6.599,10.605],[-6.614,10.618],[-6.634,10.653],[-6.647,10.661],[-6.669,10.654],[-6.668,10.651],[-6.682,10.627],[-6.684,10.627],[-6.689,10.608],[-6.691,10.589],[-6.689,10.581],[-6.686,10.574],[-6.683,10.566],[-6.688,10.52],[-6.698,10.488],[-6.696,10.471],[-6.683,10.452],[-6.676,10.448],[-6.665,10.445],[-6.654,10.44],[-6.648,10.433],[-6.648,10.422],[-6.653,10.413],[-6.66,10.405],[-6.664,10.398],[-6.668,10.366],[-6.669,10.361],[-6.677,10.349],[-6.7,10.342],[-6.723,10.344],[-6.76,10.366],[-6.782,10.373],[-6.804,10.371],[-6.863,10.344],[-6.882,10.341],[-6.939,10.348],[-6.961,10.345],[-6.973,10.332],[-6.997,10.253],[-6.995,10.239],[-6.984,10.23],[-6.971,10.222],[-6.962,10.211],[-6.959,10.186],[-6.972,10.164],[-6.992,10.149],[-7.016,10.141],[-7.041,10.14],[-7.058,10.156],[-7.073,10.179],[-7.089,10.198],[-7.106,10.207],[-7.205,10.234],[-7.284,10.247],[-7.347,10.248],[-7.363,10.252],[-7.372,10.265],[-7.373,10.289],[-7.366,10.329],[-7.372,10.345],[-7.395,10.346],[-7.422,10.336],[-7.431,10.334],[-7.444,10.334],[-7.446,10.34],[-7.443,10.35],[-7.445,10.361],[-7.461,10.389],[-7.465,10.399],[-7.466,10.407],[-7.465,10.418],[-7.466,10.429],[-7.472,10.441],[-7.48,10.45],[-7.49,10.456],[-7.501,10.459],[-7.516,10.458],[-7.54,10.428],[-7.547,10.421],[-7.556,10.417],[-7.574,10.418],[-7.584,10.417],[-7.608,10.419],[-7.644,10.44],[-7.664,10.437],[-7.67,10.429],[-7.674,10.416],[-7.679,10.406],[-7.688,10.403],[-7.7,10.405],[-7.709,10.402],[-7.722,10.391],[-7.722,10.384],[-7.727,10.383],[-7.736,10.378],[-7.724,10.364],[-7.735,10.347],[-7.757,10.334],[-7.778,10.33],[-7.764,10.313],[-7.776,10.293],[-7.778,10.278],[-7.784,10.27],[-7.791,10.266],[-7.798,10.26],[-7.801,10.249],[-7.805,10.242],[-7.829,10.212],[-7.839,10.204],[-7.847,10.198],[-7.857,10.194],[-7.883,10.191],[-7.892,10.185],[-7.911,10.169],[-7.929,10.161],[-7.95,10.155],[-7.971,10.155],[-7.99,10.162],[-7.968,10.21],[-7.963,10.233],[-7.965,10.259],[-7.971,10.282],[-7.982,10.307],[-7.996,10.328],[-8.016,10.339],[-8.07,10.342],[-8.096,10.347],[-8.115,10.36],[-8.121,10.373],[-8.122,10.399],[-8.125,10.412],[-8.135,10.427],[-8.142,10.43],[-8.151,10.425],[-8.166,10.418],[-8.189,10.414],[-8.211,10.414],[-8.229,10.423],[-8.254,10.47],[-8.284,10.511],[-8.296,10.537],[-8.311,10.735],[-8.316,10.753],[-8.342,10.763],[-8.34,10.784],[-8.319,10.84],[-8.312,10.847],[-8.306,10.856],[-8.304,10.875],[-8.305,10.978],[-8.311,11.001],[-8.327,11.024],[-8.347,11.043],[-8.369,11.054],[-8.381,11.054],[-8.401,11.043],[-8.41,11.042],[-8.429,11.048],[-8.438,11.05],[-8.449,11.047],[-8.469,11.046],[-8.489,11.053],[-8.506,11.053],[-8.532,10.999],[-8.542,10.984],[-8.56,10.972],[-8.576,10.967],[-8.593,10.965],[-8.611,10.965],[-8.628,10.968],[-8.648,10.966],[-8.665,10.957],[-8.681,10.952],[-8.696,10.963],[-8.701,10.978],[-8.697,10.996],[-8.689,11.013],[-8.68,11.025],[-8.634,11.071],[-8.623,11.091],[-8.622,11.103],[-8.625,11.112],[-8.625,11.122],[-8.615,11.134],[-8.607,11.137],[-8.587,11.137],[-8.578,11.142],[-8.57,11.158],[-8.564,11.193],[-8.552,11.211],[-8.545,11.215],[-8.524,11.224],[-8.516,11.229],[-8.512,11.23],[-8.502,11.231],[-8.499,11.234],[-8.497,11.241],[-8.499,11.247],[-8.502,11.252],[-8.503,11.255],[-8.493,11.278],[-8.483,11.285],[-8.445,11.276],[-8.427,11.274],[-8.407,11.275],[-8.388,11.281],[-8.377,11.295],[-8.371,11.321],[-8.381,11.325],[-8.4,11.322],[-8.418,11.326],[-8.426,11.34],[-8.414,11.353],[-8.393,11.363],[-8.375,11.368],[-8.398,11.386],[-8.428,11.4],[-8.488,11.418],[-8.516,11.419],[-8.528,11.423],[-8.536,11.438],[-8.539,11.456],[-8.526,11.469],[-8.488,11.516],[-8.431,11.642],[-8.397,11.659],[-8.333,11.657],[-8.206,11.705],[-8.155,11.707],[-8.071,11.686],[-8.035,11.707],[-7.963,11.778],[-7.937,11.787],[-7.862,11.843],[-7.748,11.905],[-7.641,11.951],[-7.576,11.981],[-7.544,12.006],[-7.505,12.097],[-7.48,12.148],[-7.455,12.163],[-7.355,12.212],[-7.319,12.227],[-7.303,12.254],[-7.289,12.306],[-7.255,12.32],[-7.212,12.348],[-7.171,12.413],[-7.116,12.433],[-7.104,12.404],[-7.087,12.295],[-7.05,12.173],[-7.048,12.138],[-7.08,12.067],[-7.079,12.012],[-7.044,11.979],[-7.015,11.966],[-6.968,11.978],[-6.949,11.955],[-6.947,11.862],[-6.897,11.871],[-6.871,11.862],[-6.841,11.825],[-6.769,11.807],[-6.64,11.748],[-6.553,11.746],[-6.536,11.728],[-6.543,11.67],[-6.498,11.65],[-6.469,11.653],[-6.446,11.702],[-6.431,11.742],[-6.408,11.804],[-6.396,11.845],[-6.334,11.905],[-6.346,11.98],[-6.347,12.027],[-6.302,12.073],[-6.252,12.077],[-6.201,12.058],[-6.153,12.013],[-6.141,12.023],[-6.142,12.047],[-6.145,12.093],[-6.117,12.107],[-6.087,12.105],[-6.018,12.125],[-5.982,12.122],[-5.945,12.212],[-5.951,12.3],[-5.98,12.313],[-6.07,12.308],[-6.103,12.324],[-6.122,12.367],[-6.175,12.407],[-6.211,12.401],[-6.211,12.428],[-6.225,12.463],[-6.227,12.502],[-6.261,12.555],[-6.211,12.605],[-6.004,12.636],[-5.981,12.673],[-5.971,12.674],[-5.941,12.655],[-5.896,12.652],[-5.743,12.729],[-5.579,12.817],[-5.565,12.81],[-5.532,12.736],[-5.503,12.715],[-5.494,12.66],[-5.434,12.607],[-5.406,12.616],[-5.376,12.68],[-5.297,12.775],[-5.269,12.796],[-5.25,12.791],[-5.145,12.744],[-5.132,12.706],[-5.095,12.659],[-5.098,12.599],[-5.065,12.575],[-4.943,12.594],[-4.813,12.612],[-4.776,12.623],[-4.755,12.661],[-4.691,12.74],[-4.629,12.756],[-4.612,12.703],[-4.585,12.704],[-4.569,12.72],[-4.483,12.723],[-4.48,12.721],[-4.465,12.717],[-4.464,12.717]]]}},{"type":"Feature","id":"ML-4","properties":{"id":"ML-4","countryCode":"ML","isoSubdivision":"ML-4","name":"Ségou","name_en":"Ségou","name_ko":"세구","type":"Region","labelLongitude":-5.52,"labelLatitude":13.585,"minZoom":6.6},"geometry":{"type":"Polygon","coordinates":[[[-3.965,13.489],[-3.97,13.496],[-3.974,13.499],[-3.978,13.5],[-3.981,13.499],[-3.984,13.496],[-3.998,13.481],[-3.992,13.476],[-3.979,13.475],[-3.972,13.47],[-3.977,13.461],[-3.99,13.449],[-4.005,13.44],[-4.016,13.436],[-4.028,13.432],[-4.043,13.414],[-4.053,13.409],[-4.079,13.402],[-4.088,13.398],[-4.104,13.383],[-4.115,13.365],[-4.132,13.324],[-4.147,13.3],[-4.166,13.278],[-4.177,13.272],[-4.186,13.273],[-4.196,13.275],[-4.206,13.273],[-4.221,13.263],[-4.239,13.247],[-4.254,13.229],[-4.258,13.214],[-4.251,13.205],[-4.23,13.193],[-4.228,13.184],[-4.235,13.176],[-4.246,13.172],[-4.31,13.176],[-4.327,13.169],[-4.34,13.135],[-4.346,13.127],[-4.351,13.118],[-4.351,13.106],[-4.345,13.097],[-4.316,13.071],[-4.29,13.013],[-4.277,12.996],[-4.248,12.972],[-4.229,12.949],[-4.221,12.921],[-4.225,12.865],[-4.212,12.819],[-4.213,12.807],[-4.234,12.742],[-4.244,12.73],[-4.245,12.729],[-4.258,12.721],[-4.276,12.715],[-4.297,12.712],[-4.311,12.716],[-4.339,12.733],[-4.369,12.739],[-4.402,12.737],[-4.435,12.728],[-4.464,12.717],[-4.465,12.717],[-4.48,12.721],[-4.483,12.723],[-4.569,12.72],[-4.585,12.704],[-4.612,12.703],[-4.629,12.756],[-4.691,12.74],[-4.755,12.661],[-4.776,12.623],[-4.813,12.612],[-4.943,12.594],[-5.065,12.575],[-5.098,12.599],[-5.095,12.659],[-5.132,12.706],[-5.145,12.744],[-5.25,12.791],[-5.269,12.796],[-5.297,12.775],[-5.376,12.68],[-5.406,12.616],[-5.434,12.607],[-5.494,12.66],[-5.503,12.715],[-5.532,12.736],[-5.565,12.81],[-5.579,12.817],[-5.743,12.729],[-5.896,12.652],[-5.941,12.655],[-5.971,12.674],[-5.981,12.673],[-6.004,12.636],[-6.211,12.605],[-6.261,12.555],[-6.311,12.578],[-6.354,12.592],[-6.375,12.657],[-6.39,12.7],[-6.423,12.697],[-6.469,12.681],[-6.487,12.693],[-6.512,12.766],[-6.581,12.791],[-6.625,12.809],[-6.697,12.8],[-6.809,12.783],[-6.851,12.764],[-6.881,12.765],[-6.894,12.788],[-6.883,12.851],[-6.886,12.908],[-6.908,12.928],[-6.957,12.929],[-7.019,12.945],[-7.067,13],[-7.081,13.016],[-7.069,13.051],[-7.033,13.087],[-7.021,13.146],[-7.022,13.182],[-6.989,13.244],[-6.971,13.301],[-6.926,13.342],[-6.867,13.36],[-6.774,13.366],[-6.743,13.383],[-6.717,13.452],[-6.728,13.47],[-6.764,13.495],[-6.775,13.525],[-6.783,13.624],[-6.841,13.691],[-6.9,13.749],[-6.914,13.816],[-6.9,13.998],[-6.751,14.265],[-6.715,14.323],[-6.637,14.422],[-6.617,14.47],[-6.582,14.48],[-6.459,14.446],[-6.429,14.465],[-6.407,14.502],[-6.382,14.536],[-6.381,14.602],[-6.402,14.661],[-6.436,14.781],[-6.485,14.846],[-6.545,14.944],[-6.528,14.998],[-6.435,15.116],[-6.405,15.168],[-6.336,15.376],[-6.32,15.495],[-6.222,15.495],[-6.088,15.494],[-6.011,15.494],[-5.938,15.494],[-5.87,15.494],[-5.807,15.494],[-5.673,15.494],[-5.516,15.494],[-5.515,15.494],[-5.514,15.494],[-5.513,15.493],[-5.512,15.493],[-5.512,15.494],[-5.511,15.494],[-5.511,15.495],[-5.511,15.496],[-5.51,15.501],[-5.509,15.506],[-5.509,15.507],[-5.508,15.507],[-5.357,15.553],[-5.343,15.499],[-5.234,15.495],[-5.202,15.487],[-5.184,15.471],[-5.155,15.356],[-5.1,15.196],[-5.136,15.142],[-5.208,15.024],[-5.272,14.973],[-5.349,14.976],[-5.503,14.935],[-5.546,14.931],[-5.572,14.844],[-5.607,14.763],[-5.602,14.721],[-5.594,14.686],[-5.613,14.661],[-5.621,14.591],[-5.662,14.559],[-5.664,14.532],[-5.512,14.439],[-5.341,14.338],[-5.283,14.299],[-5.187,14.171],[-5.214,14.036],[-5.208,13.99],[-5.126,13.957],[-5.051,13.946],[-4.899,13.971],[-4.854,13.969],[-4.842,13.929],[-4.855,13.877],[-4.882,13.853],[-4.883,13.825],[-4.857,13.779],[-4.878,13.694],[-4.877,13.637],[-4.855,13.589],[-4.797,13.626],[-4.77,13.632],[-4.734,13.624],[-4.683,13.635],[-4.669,13.629],[-4.645,13.605],[-4.603,13.575],[-4.511,13.626],[-4.436,13.642],[-4.387,13.647],[-4.368,13.691],[-4.283,13.836],[-4.169,13.923],[-4.114,13.938],[-4.086,13.927],[-4.041,13.839],[-4.01,13.7],[-3.958,13.598],[-3.96,13.504],[-3.96,13.498],[-3.965,13.489]]]}},{"type":"Feature","id":"ML-5","properties":{"id":"ML-5","countryCode":"ML","isoSubdivision":"ML-5","name":"Mopti","name_en":"Mopti","name_ko":"몹티","type":"Region","labelLongitude":-3.218,"labelLatitude":14.787,"minZoom":6.6},"geometry":{"type":"Polygon","coordinates":[[[-1.043,14.818],[-1.079,14.796],[-1.117,14.78],[-1.308,14.735],[-1.35,14.715],[-1.697,14.496],[-1.767,14.483],[-1.837,14.48],[-1.919,14.486],[-1.967,14.484],[-1.997,14.471],[-2.005,14.444],[-2.023,14.199],[-2.027,14.188],[-2.036,14.181],[-2.085,14.16],[-2.104,14.151],[-2.12,14.149],[-2.152,14.156],[-2.386,14.265],[-2.462,14.281],[-2.516,14.268],[-2.597,14.222],[-2.62,14.204],[-2.676,14.142],[-2.693,14.123],[-2.841,14.043],[-2.867,14.001],[-2.862,14.002],[-2.859,14],[-2.857,13.998],[-2.855,13.996],[-2.894,13.867],[-2.912,13.838],[-2.928,13.8],[-2.923,13.746],[-2.895,13.652],[-2.93,13.639],[-2.965,13.626],[-2.972,13.624],[-2.979,13.628],[-2.986,13.632],[-2.995,13.635],[-3.019,13.638],[-3.027,13.635],[-3.039,13.63],[-3.056,13.611],[-3.068,13.607],[-3.075,13.622],[-3.077,13.637],[-3.082,13.646],[-3.1,13.663],[-3.125,13.677],[-3.146,13.677],[-3.168,13.672],[-3.196,13.675],[-3.24,13.708],[-3.267,13.717],[-3.287,13.698],[-3.266,13.682],[-3.26,13.658],[-3.264,13.603],[-3.269,13.579],[-3.284,13.542],[-3.249,13.293],[-3.262,13.284],[-3.427,13.274],[-3.449,13.266],[-3.452,13.238],[-3.441,13.203],[-3.439,13.185],[-3.449,13.169],[-3.462,13.166],[-3.474,13.168],[-3.516,13.174],[-3.538,13.173],[-3.545,13.174],[-3.554,13.18],[-3.57,13.197],[-3.577,13.199],[-3.59,13.197],[-3.597,13.199],[-3.679,13.262],[-3.724,13.289],[-3.799,13.347],[-3.817,13.355],[-3.858,13.366],[-3.893,13.379],[-3.909,13.382],[-3.929,13.38],[-3.948,13.381],[-3.972,13.387],[-3.984,13.396],[-3.972,13.408],[-3.963,13.413],[-3.943,13.432],[-3.935,13.435],[-3.926,13.436],[-3.919,13.44],[-3.918,13.451],[-3.923,13.454],[-3.947,13.458],[-3.956,13.462],[-3.959,13.468],[-3.964,13.488],[-3.965,13.489],[-3.96,13.498],[-3.96,13.504],[-3.958,13.598],[-4.01,13.7],[-4.041,13.839],[-4.086,13.927],[-4.114,13.938],[-4.169,13.923],[-4.283,13.836],[-4.368,13.691],[-4.387,13.647],[-4.436,13.642],[-4.511,13.626],[-4.603,13.575],[-4.645,13.605],[-4.669,13.629],[-4.683,13.635],[-4.734,13.624],[-4.77,13.632],[-4.797,13.626],[-4.855,13.589],[-4.877,13.637],[-4.878,13.694],[-4.857,13.779],[-4.883,13.825],[-4.882,13.853],[-4.855,13.877],[-4.842,13.929],[-4.854,13.969],[-4.899,13.971],[-5.051,13.946],[-5.126,13.957],[-5.208,13.99],[-5.214,14.036],[-5.187,14.171],[-5.283,14.299],[-5.341,14.338],[-5.512,14.439],[-5.664,14.532],[-5.662,14.559],[-5.621,14.591],[-5.613,14.661],[-5.594,14.686],[-5.602,14.721],[-5.607,14.763],[-5.572,14.844],[-5.546,14.931],[-5.503,14.935],[-5.349,14.976],[-5.272,14.973],[-5.208,15.024],[-5.136,15.142],[-5.1,15.196],[-5.155,15.356],[-5.184,15.471],[-5.202,15.487],[-5.234,15.495],[-5.343,15.499],[-5.357,15.553],[-5.294,15.609],[-5.23,15.674],[-5.151,15.609],[-5.092,15.599],[-5.004,15.603],[-4.847,15.589],[-4.688,15.581],[-4.45,15.656],[-4.377,15.705],[-4.239,15.719],[-4.164,15.791],[-4.135,15.81],[-4.054,15.82],[-3.983,15.825],[-3.955,15.735],[-3.869,15.672],[-3.848,15.607],[-3.845,15.494],[-3.73,15.508],[-3.642,15.491],[-3.597,15.539],[-3.524,15.571],[-3.49,15.6],[-3.497,15.688],[-3.482,15.733],[-3.421,15.773],[-3.33,15.771],[-3.243,15.866],[-3.202,15.895],[-3.164,15.878],[-3.156,15.833],[-3.041,15.84],[-2.962,15.86],[-2.924,15.854],[-2.87,15.802],[-2.772,15.717],[-2.754,15.64],[-2.648,15.464],[-2.597,15.369],[-2.532,15.322],[-2.45,15.304],[-2.33,15.339],[-2.147,15.407],[-1.989,15.428],[-1.914,15.434],[-1.817,15.426],[-1.686,15.431],[-1.495,15.375],[-1.386,15.322],[-1.305,15.263],[-1.214,15.179],[-0.772,15.057],[-0.771,15.057],[-0.783,15.048],[-0.836,14.996],[-1.043,14.818]]]}},{"type":"Feature","id":"ML-6","properties":{"id":"ML-6","countryCode":"ML","isoSubdivision":"ML-6","name":"Tombouctou","name_en":"Tombouctou","name_ko":"통북투","type":"Region","labelLongitude":-3.295,"labelLatitude":19.907,"minZoom":6.6},"geometry":{"type":"Polygon","coordinates":[[[-4.822,24.995],[-4.821,24.995],[-4.745,24.947],[-4.669,24.899],[-4.592,24.852],[-4.516,24.804],[-4.405,24.731],[-4.325,24.679],[-4.245,24.627],[-4.166,24.575],[-4.086,24.523],[-4.006,24.471],[-3.927,24.419],[-3.847,24.367],[-3.767,24.314],[-3.688,24.262],[-3.608,24.21],[-3.528,24.158],[-3.449,24.106],[-3.369,24.054],[-3.289,24.002],[-3.209,23.95],[-3.13,23.898],[-3.043,23.841],[-2.956,23.784],[-2.87,23.728],[-2.783,23.671],[-2.696,23.614],[-2.61,23.558],[-2.523,23.501],[-2.437,23.444],[-2.35,23.388],[-2.263,23.331],[-2.177,23.274],[-2.09,23.218],[-2.003,23.161],[-1.917,23.104],[-1.83,23.048],[-1.743,22.991],[-1.657,22.935],[-1.57,22.878],[-1.483,22.821],[-1.397,22.765],[-1.31,22.708],[-1.224,22.651],[-1.137,22.595],[-1.05,22.538],[-0.964,22.481],[-0.877,22.425],[-0.79,22.368],[-0.704,22.311],[-0.617,22.255],[-0.53,22.198],[-0.444,22.141],[-0.357,22.085],[-0.27,22.028],[-0.184,21.971],[-0.097,21.915],[-0.01,21.858],[0.004,21.849],[0,21.838],[-0.222,21.153],[-0.865,20.638],[-1.321,20.282],[-2.043,19.916],[-1.42,19.411],[-0.964,19.064],[-0.885,18.955],[-0.935,17.886],[-1.122,17.799],[-1.63,17.563],[-1.707,17.515],[-1.644,17.26],[-1.609,17.125],[-1.621,17.077],[-1.609,17.036],[-1.54,17.03],[-1.115,16.99],[-0.818,16.962],[-0.754,16.954],[-0.717,16.95],[-0.683,16.933],[-0.685,16.82],[-0.687,16.738],[-0.71,16.613],[-0.702,16.335],[-0.698,16.204],[-0.694,16.047],[-0.654,15.845],[-0.646,15.805],[-0.629,15.743],[-0.582,15.544],[-0.559,15.448],[-0.5,15.082],[-0.5,15.08],[-0.72,15.078],[-0.753,15.07],[-0.771,15.057],[-0.772,15.057],[-1.214,15.179],[-1.305,15.263],[-1.386,15.322],[-1.495,15.375],[-1.686,15.431],[-1.817,15.426],[-1.914,15.434],[-1.989,15.428],[-2.147,15.407],[-2.33,15.339],[-2.45,15.304],[-2.532,15.322],[-2.597,15.369],[-2.648,15.464],[-2.754,15.64],[-2.772,15.717],[-2.87,15.802],[-2.924,15.854],[-2.962,15.86],[-3.041,15.84],[-3.156,15.833],[-3.164,15.878],[-3.202,15.895],[-3.243,15.866],[-3.33,15.771],[-3.421,15.773],[-3.482,15.733],[-3.497,15.688],[-3.49,15.6],[-3.524,15.571],[-3.597,15.539],[-3.642,15.491],[-3.73,15.508],[-3.845,15.494],[-3.848,15.607],[-3.869,15.672],[-3.955,15.735],[-3.983,15.825],[-4.054,15.82],[-4.135,15.81],[-4.164,15.791],[-4.239,15.719],[-4.377,15.705],[-4.45,15.656],[-4.688,15.581],[-4.847,15.589],[-5.004,15.603],[-5.092,15.599],[-5.151,15.609],[-5.23,15.674],[-5.294,15.609],[-5.357,15.553],[-5.508,15.507],[-5.509,15.507],[-5.508,15.511],[-5.507,15.516],[-5.488,15.613],[-5.47,15.71],[-5.451,15.807],[-5.432,15.904],[-5.414,15.999],[-5.395,16.093],[-5.377,16.188],[-5.359,16.282],[-5.353,16.312],[-5.354,16.318],[-5.355,16.325],[-5.36,16.33],[-5.365,16.335],[-5.405,16.362],[-5.446,16.389],[-5.485,16.415],[-5.53,16.445],[-5.567,16.469],[-5.606,16.496],[-5.615,16.512],[-5.623,16.528],[-5.628,16.568],[-5.638,16.658],[-5.648,16.749],[-5.657,16.839],[-5.667,16.929],[-5.677,17.019],[-5.687,17.109],[-5.697,17.2],[-5.707,17.29],[-5.717,17.38],[-5.727,17.47],[-5.737,17.561],[-5.747,17.651],[-5.756,17.741],[-5.766,17.831],[-5.776,17.921],[-5.786,18.012],[-5.796,18.104],[-5.807,18.197],[-5.817,18.29],[-5.827,18.383],[-5.837,18.475],[-5.847,18.568],[-5.858,18.661],[-5.868,18.754],[-5.878,18.846],[-5.888,18.939],[-5.898,19.032],[-5.908,19.125],[-5.915,19.183],[-5.921,19.241],[-5.928,19.3],[-5.934,19.358],[-5.949,19.496],[-5.964,19.621],[-5.978,19.746],[-5.992,19.871],[-6.007,19.996],[-6.021,20.121],[-6.035,20.245],[-6.05,20.37],[-6.064,20.495],[-6.077,20.603],[-6.084,20.662],[-6.099,20.791],[-6.114,20.92],[-6.121,20.978],[-6.135,21.099],[-6.149,21.22],[-6.163,21.34],[-6.177,21.461],[-6.191,21.582],[-6.205,21.702],[-6.219,21.823],[-6.233,21.944],[-6.248,22.064],[-6.262,22.185],[-6.276,22.306],[-6.29,22.426],[-6.304,22.547],[-6.318,22.668],[-6.332,22.788],[-6.346,22.909],[-6.361,23.03],[-6.372,23.124],[-6.375,23.15],[-6.389,23.271],[-6.403,23.392],[-6.417,23.512],[-6.431,23.633],[-6.445,23.754],[-6.459,23.874],[-6.467,23.936],[-6.483,24.072],[-6.498,24.208],[-6.506,24.27],[-6.506,24.276],[-6.516,24.357],[-6.526,24.437],[-6.535,24.516],[-6.545,24.596],[-6.554,24.676],[-6.564,24.755],[-6.574,24.835],[-6.583,24.914],[-6.593,24.994],[-6.372,24.994],[-6.15,24.994],[-5.929,24.994],[-5.707,24.995],[-5.486,24.995],[-5.264,24.995],[-5.043,24.995],[-4.822,24.995]]]}},{"type":"Feature","id":"ML-7","properties":{"id":"ML-7","countryCode":"ML","isoSubdivision":"ML-7","name":"Gao","name_en":"Gao","name_ko":"가오","type":"Region","labelLongitude":1.264,"labelLatitude":16.448,"minZoom":6.6},"geometry":{"type":"Polygon","coordinates":[[[-0.398,15.002],[-0.426,15.003],[-0.436,15.015],[-0.459,15.075],[-0.468,15.08],[-0.5,15.08],[-0.5,15.082],[-0.559,15.448],[-0.582,15.544],[-0.629,15.743],[-0.646,15.805],[-0.654,15.845],[-0.694,16.047],[-0.698,16.204],[-0.702,16.335],[-0.71,16.613],[-0.687,16.738],[-0.685,16.82],[-0.683,16.933],[-0.717,16.95],[-0.754,16.954],[-0.818,16.962],[-1.115,16.99],[-1.54,17.03],[-1.609,17.036],[-1.621,17.077],[-1.609,17.125],[-1.644,17.26],[-1.707,17.515],[-1.63,17.563],[-1.122,17.799],[-0.935,17.886],[-0.885,18.955],[0.065,18.708],[0.362,18.351],[0.57,18.134],[1.204,17.629],[1.798,17.757],[1.976,17.975],[2.926,17.975],[3.688,17.975],[4.232,17.975],[4.233,17.906],[4.233,17.782],[4.233,17.658],[4.234,17.535],[4.234,17.411],[4.235,17.288],[4.235,17.164],[4.235,17.101],[4.236,16.996],[4.222,16.987],[4.212,16.986],[4.204,16.983],[4.198,16.965],[4.197,16.947],[4.202,16.849],[4.198,16.839],[4.185,16.819],[4.182,16.81],[4.182,16.746],[4.183,16.613],[4.183,16.527],[4.184,16.416],[4.176,16.393],[4.162,16.38],[4.118,16.358],[4.095,16.341],[4.076,16.321],[4.061,16.298],[3.971,16.086],[3.967,16.059],[3.971,16.031],[3.983,16.001],[3.984,16],[3.984,15.999],[3.985,15.997],[3.985,15.996],[3.985,15.99],[3.984,15.987],[3.983,15.984],[3.925,15.928],[3.91,15.905],[3.903,15.886],[3.894,15.789],[3.887,15.75],[3.874,15.721],[3.871,15.715],[3.846,15.685],[3.808,15.666],[3.729,15.651],[3.692,15.631],[3.614,15.548],[3.527,15.496],[3.517,15.469],[3.507,15.354],[3.489,15.358],[3.483,15.359],[3.38,15.376],[3.192,15.408],[3.073,15.427],[3.034,15.426],[3.018,15.423],[3.01,15.418],[3.008,15.408],[3.006,15.389],[3.006,15.352],[3,15.339],[2.951,15.337],[2.854,15.334],[2.757,15.331],[2.661,15.328],[2.564,15.325],[2.468,15.321],[2.371,15.318],[2.275,15.315],[2.178,15.312],[2.081,15.309],[1.985,15.305],[1.888,15.302],[1.791,15.299],[1.695,15.296],[1.598,15.293],[1.502,15.289],[1.405,15.286],[1.332,15.284],[1.298,15.276],[1.271,15.26],[1.203,15.199],[1.123,15.126],[1.058,15.067],[0.974,14.991],[0.949,14.98],[0.922,14.974],[0.769,14.969],[0.74,14.958],[0.711,14.947],[0.684,14.941],[0.67,14.94],[0.515,14.994],[0.484,14.992],[0.419,14.97],[0.387,14.963],[0.353,14.963],[0.221,14.996],[0.213,14.985],[0.213,14.961],[0.218,14.911],[-0.033,14.996],[-0.167,15.05],[-0.237,15.066],[-0.299,15.055],[-0.361,15.018],[-0.398,15.002]]]}},{"type":"Feature","id":"ML-8","properties":{"id":"ML-8","countryCode":"ML","isoSubdivision":"ML-8","name":"Kidal","name_en":"Kidal","name_ko":"키달","type":"Region","labelLongitude":1.094,"labelLatitude":19.426,"minZoom":6.6},"geometry":{"type":"Polygon","coordinates":[[[0.004,21.849],[0.076,21.801],[0.163,21.745],[0.249,21.688],[0.336,21.632],[0.423,21.575],[0.509,21.518],[0.596,21.462],[0.683,21.405],[0.769,21.348],[0.856,21.292],[0.943,21.235],[1.029,21.178],[1.147,21.102],[1.159,21.082],[1.178,21.017],[1.18,20.995],[1.168,20.886],[1.145,20.796],[1.145,20.776],[1.147,20.751],[1.155,20.739],[1.169,20.733],[1.191,20.731],[1.212,20.731],[1.252,20.739],[1.273,20.739],[1.297,20.733],[1.311,20.723],[1.332,20.688],[1.347,20.669],[1.364,20.658],[1.407,20.645],[1.447,20.639],[1.466,20.634],[1.483,20.623],[1.52,20.617],[1.56,20.598],[1.624,20.551],[1.644,20.523],[1.65,20.487],[1.649,20.412],[1.659,20.398],[1.778,20.304],[1.799,20.295],[1.821,20.294],[1.839,20.296],[1.855,20.295],[1.871,20.284],[1.88,20.263],[1.884,20.244],[1.891,20.232],[1.913,20.231],[1.924,20.236],[1.941,20.251],[1.955,20.255],[1.967,20.253],[1.976,20.248],[1.983,20.242],[1.993,20.236],[2.056,20.215],[2.071,20.213],[2.097,20.224],[2.138,20.261],[2.161,20.275],[2.182,20.279],[2.201,20.274],[2.218,20.264],[2.28,20.218],[2.316,20.18],[2.348,20.138],[2.389,20.067],[2.4,20.057],[2.416,20.051],[2.44,20.046],[2.459,20.039],[2.495,20.02],[2.515,20.016],[2.526,20.015],[2.617,19.998],[2.672,19.996],[2.946,19.942],[3.073,19.889],[3.13,19.845],[3.147,19.838],[3.183,19.828],[3.199,19.821],[3.213,19.808],[3.217,19.794],[3.198,19.592],[3.199,19.554],[3.212,19.517],[3.218,19.511],[3.223,19.508],[3.228,19.504],[3.232,19.495],[3.232,19.489],[3.226,19.469],[3.226,19.46],[3.235,19.441],[3.247,19.426],[3.258,19.41],[3.261,19.388],[3.251,19.365],[3.233,19.352],[3.212,19.341],[3.193,19.326],[3.184,19.308],[3.179,19.269],[3.174,19.252],[3.153,19.23],[3.139,19.222],[3.134,19.213],[3.127,19.193],[3.112,19.171],[3.103,19.154],[3.104,19.136],[3.121,19.113],[3.139,19.096],[3.159,19.082],[3.18,19.07],[3.226,19.051],[3.285,18.996],[3.308,18.982],[3.318,18.978],[3.333,18.976],[3.359,18.977],[3.44,18.996],[3.545,19.015],[3.716,19.047],[3.79,19.061],[3.887,19.079],[4.058,19.11],[4.229,19.142],[4.229,19.019],[4.229,18.895],[4.23,18.771],[4.23,18.648],[4.23,18.645],[4.231,18.524],[4.231,18.4],[4.232,18.277],[4.232,18.153],[4.232,18.029],[4.232,17.975],[3.688,17.975],[2.926,17.975],[1.976,17.975],[1.798,17.757],[1.204,17.629],[0.57,18.134],[0.362,18.351],[0.065,18.708],[-0.885,18.955],[-0.964,19.064],[-1.42,19.411],[-2.043,19.916],[-1.321,20.282],[-0.865,20.638],[-0.222,21.153],[0,21.838],[0.004,21.849]]]}},{"type":"Feature","id":"ML-BKO","properties":{"id":"ML-BKO","countryCode":"ML","isoSubdivision":"ML-BKO","name":"Bamako","name_en":"Bamako","name_ko":"바마코","type":"District","labelLongitude":-8.019,"labelLatitude":12.643,"minZoom":6.6},"geometry":{"type":"Polygon","coordinates":[[[-8.002,12.704],[-7.975,12.698],[-7.953,12.685],[-7.939,12.662],[-7.934,12.636],[-7.931,12.604],[-7.933,12.575],[-7.944,12.553],[-7.978,12.543],[-8.01,12.552],[-8.029,12.558],[-8.039,12.57],[-8.054,12.58],[-8.065,12.604],[-8.069,12.643],[-8.065,12.67],[-8.051,12.691],[-8.028,12.701],[-8.002,12.704]]]}}]}
