{"type":"FeatureCollection","features":[{"type":"Feature","id":"MP-X01~","properties":{"id":"MP-X01~","countryCode":"MP","isoSubdivision":"MP-X01~","name":"Rota","name_en":"Rota","name_ko":"로타","type":"Principal subdivision","labelLongitude":145.205,"labelLatitude":14.147,"minZoom":11},"geometry":{"type":"Polygon","coordinates":[[[145.206,14.181],[145.252,14.2],[145.28,14.203],[145.291,14.181],[145.287,14.17],[145.282,14.161],[145.274,14.156],[145.26,14.154],[145.25,14.15],[145.243,14.14],[145.237,14.129],[145.229,14.12],[145.21,14.111],[145.199,14.114],[145.19,14.122],[145.172,14.126],[145.142,14.123],[145.126,14.123],[145.119,14.13],[145.131,14.147],[145.157,14.164],[145.186,14.176],[145.206,14.181]]]}},{"type":"Feature","id":"MP-X02~","properties":{"id":"MP-X02~","countryCode":"MP","isoSubdivision":"MP-X02~","name":"Tinian","name_en":"Tinian","name_ko":"티니안","type":"Principal subdivision","labelLongitude":145.622,"labelLatitude":15,"minZoom":11},"geometry":{"type":"Polygon","coordinates":[[[145.647,15.072],[145.653,15.059],[145.651,15.047],[145.648,15.033],[145.647,15.017],[145.651,15.009],[145.665,14.993],[145.668,14.983],[145.661,14.957],[145.646,14.93],[145.626,14.915],[145.606,14.928],[145.602,14.941],[145.598,14.969],[145.592,14.983],[145.58,14.999],[145.577,15.006],[145.578,15.017],[145.59,15.04],[145.611,15.067],[145.633,15.082],[145.647,15.072]]]}},{"type":"Feature","id":"MP-X03~","properties":{"id":"MP-X03~","countryCode":"MP","isoSubdivision":"MP-X03~","name":"Saipan","name_en":"Saipan","name_ko":"사이판","type":"Principal subdivision","labelLongitude":145.744,"labelLatitude":15.192,"minZoom":11},"geometry":{"type":"Polygon","coordinates":[[[145.788,15.267],[145.801,15.272],[145.817,15.27],[145.824,15.262],[145.812,15.25],[145.8,15.243],[145.793,15.232],[145.776,15.19],[145.777,15.181],[145.785,15.168],[145.78,15.159],[145.774,15.155],[145.766,15.155],[145.757,15.161],[145.745,15.15],[145.739,15.137],[145.739,15.123],[145.747,15.109],[145.753,15.096],[145.739,15.096],[145.721,15.102],[145.716,15.106],[145.694,15.1],[145.686,15.102],[145.682,15.117],[145.684,15.131],[145.696,15.168],[145.697,15.183],[145.696,15.194],[145.698,15.203],[145.706,15.212],[145.711,15.216],[145.73,15.223],[145.733,15.228],[145.734,15.239],[145.736,15.243],[145.748,15.249],[145.774,15.257],[145.788,15.267]]]}},{"type":"Feature","id":"MP-X04~","properties":{"id":"MP-X04~","countryCode":"MP","isoSubdivision":"MP-X04~","name":"Northern Mariana Islands","name_en":"Northern Mariana Islands","name_ko":"북마리아나 제도","type":"Principal subdivision","labelLongitude":145.674,"labelLatitude":16.357,"minZoom":11},"geometry":{"type":"MultiPolygon","coordinates":[[[[145.709,16.367],[145.718,16.353],[145.711,16.345],[145.697,16.342],[145.669,16.339],[145.656,16.34],[145.644,16.345],[145.634,16.353],[145.628,16.364],[145.629,16.374],[145.638,16.38],[145.654,16.381],[145.667,16.377],[145.698,16.374],[145.709,16.367]]],[[[145.771,18.175],[145.812,18.174],[145.825,18.168],[145.835,18.158],[145.839,18.145],[145.836,18.128],[145.826,18.119],[145.814,18.113],[145.802,18.104],[145.758,18.061],[145.744,18.053],[145.719,18.054],[145.713,18.077],[145.74,18.091],[145.751,18.114],[145.757,18.162],[145.771,18.175]]],[[[145.662,18.724],[145.636,18.747],[145.633,18.787],[145.65,18.809],[145.688,18.807],[145.702,18.792],[145.708,18.78],[145.71,18.767],[145.709,18.748],[145.705,18.737],[145.694,18.728],[145.678,18.723],[145.662,18.724]]],[[[145.789,16.675],[145.769,16.695],[145.786,16.7],[145.805,16.693],[145.789,16.675]]],[[[145.855,17.286],[145.836,17.305],[145.851,17.309],[145.868,17.302],[145.855,17.286]]],[[[145.854,17.567],[145.832,17.577],[145.827,17.593],[145.834,17.606],[145.851,17.607],[145.863,17.599],[145.869,17.587],[145.867,17.575],[145.854,17.567]]],[[[145.406,19.653],[145.392,19.661],[145.382,19.673],[145.382,19.684],[145.397,19.689],[145.41,19.684],[145.415,19.674],[145.414,19.662],[145.406,19.653]]],[[[145.251,20.01],[145.24,20.013],[145.231,20.02],[145.227,20.03],[145.229,20.041],[145.239,20.05],[145.243,20.046],[145.245,20.036],[145.246,20.03],[145.252,20.031],[145.261,20.035],[145.269,20.036],[145.273,20.032],[145.271,20.024],[145.266,20.018],[145.259,20.013],[145.251,20.01]]],[[[144.916,20.517],[144.905,20.527],[144.902,20.54],[144.907,20.552],[144.92,20.555],[144.932,20.549],[144.932,20.538],[144.926,20.525],[144.916,20.517]]]]}}]}
