{"type":"FeatureCollection","features":[{"type":"Feature","id":"MR-01","properties":{"id":"MR-01","countryCode":"MR","isoSubdivision":"MR-01","name":"Hodh Ech Chargui","name_en":"Hodh Ech Chargui","name_ko":"호드에슈샤르기","type":"Region","labelLongitude":-7.192,"labelLatitude":18.023,"minZoom":6.6},"geometry":{"type":"Polygon","coordinates":[[[-6.372,23.124],[-6.361,23.03],[-6.346,22.909],[-6.332,22.788],[-6.318,22.668],[-6.304,22.547],[-6.29,22.426],[-6.276,22.306],[-6.262,22.185],[-6.248,22.064],[-6.233,21.944],[-6.219,21.823],[-6.205,21.702],[-6.191,21.582],[-6.177,21.461],[-6.163,21.34],[-6.149,21.22],[-6.135,21.099],[-6.121,20.978],[-6.114,20.92],[-6.099,20.791],[-6.084,20.662],[-6.077,20.603],[-6.064,20.495],[-6.05,20.37],[-6.035,20.245],[-6.021,20.121],[-6.007,19.996],[-5.992,19.871],[-5.978,19.746],[-5.964,19.621],[-5.949,19.496],[-5.934,19.358],[-5.928,19.3],[-5.921,19.241],[-5.915,19.183],[-5.908,19.125],[-5.898,19.032],[-5.888,18.939],[-5.878,18.846],[-5.868,18.754],[-5.858,18.661],[-5.847,18.568],[-5.837,18.475],[-5.827,18.383],[-5.817,18.29],[-5.807,18.197],[-5.796,18.104],[-5.786,18.012],[-5.776,17.921],[-5.766,17.831],[-5.756,17.741],[-5.747,17.651],[-5.737,17.561],[-5.727,17.47],[-5.717,17.38],[-5.707,17.29],[-5.697,17.2],[-5.687,17.109],[-5.677,17.019],[-5.667,16.929],[-5.657,16.839],[-5.648,16.749],[-5.638,16.658],[-5.628,16.568],[-5.623,16.528],[-5.615,16.512],[-5.606,16.496],[-5.567,16.469],[-5.53,16.445],[-5.485,16.415],[-5.446,16.389],[-5.405,16.362],[-5.365,16.335],[-5.36,16.33],[-5.355,16.325],[-5.354,16.318],[-5.353,16.312],[-5.359,16.282],[-5.377,16.188],[-5.395,16.093],[-5.414,15.999],[-5.432,15.904],[-5.451,15.807],[-5.47,15.71],[-5.488,15.613],[-5.507,15.516],[-5.508,15.511],[-5.509,15.507],[-5.509,15.506],[-5.51,15.501],[-5.511,15.496],[-5.511,15.495],[-5.511,15.494],[-5.512,15.494],[-5.512,15.493],[-5.513,15.493],[-5.514,15.494],[-5.515,15.494],[-5.516,15.494],[-5.673,15.494],[-5.807,15.494],[-5.87,15.494],[-5.938,15.494],[-6.011,15.494],[-6.088,15.494],[-6.222,15.495],[-6.32,15.495],[-6.365,15.495],[-6.516,15.495],[-6.674,15.495],[-6.837,15.495],[-7.005,15.495],[-7.175,15.495],[-7.346,15.495],[-7.517,15.495],[-7.687,15.495],[-7.855,15.495],[-8.018,15.495],[-8.176,15.495],[-8.327,15.495],[-8.47,15.495],[-8.604,15.495],[-8.689,15.495],[-8.769,15.495],[-8.843,15.495],[-8.911,15.495],[-9.003,15.496],[-9.001,15.497],[-8.996,15.504],[-8.959,15.539],[-8.97,15.857],[-9.026,15.974],[-9.067,16.062],[-8.869,16.322],[-8.894,16.392],[-8.75,16.532],[-8.687,16.601],[-8.518,16.781],[-8.289,17.023],[-8.46,17.204],[-8.598,17.351],[-9.15,17.282],[-9.147,17.288],[-7.988,19.725],[-7.974,19.754],[-6.379,23.108],[-6.372,23.123],[-6.372,23.124]]]}},{"type":"Feature","id":"MR-02","properties":{"id":"MR-02","countryCode":"MR","isoSubdivision":"MR-02","name":"Hodh El Gharbi","name_en":"Hodh El Gharbi","name_ko":"호드엘가르비","type":"Region","labelLongitude":-9.691,"labelLatitude":16.483,"minZoom":6.6},"geometry":{"type":"Polygon","coordinates":[[[-9.003,15.496],[-9.019,15.496],[-9.141,15.496],[-9.176,15.496],[-9.349,15.496],[-9.343,15.587],[-9.329,15.655],[-9.332,15.688],[-9.356,15.698],[-9.376,15.686],[-9.437,15.615],[-9.452,15.588],[-9.452,15.559],[-9.436,15.496],[-9.424,15.441],[-9.672,15.431],[-9.721,15.421],[-9.741,15.413],[-9.797,15.38],[-9.836,15.371],[-9.951,15.381],[-10.068,15.365],[-10.108,15.366],[-10.132,15.373],[-10.168,15.395],[-10.188,15.405],[-10.196,15.405],[-10.214,15.402],[-10.223,15.402],[-10.309,15.435],[-10.323,15.437],[-10.371,15.434],[-10.398,15.439],[-10.5,15.44],[-10.516,15.438],[-10.535,15.442],[-10.552,15.439],[-10.585,15.428],[-10.667,15.938],[-10.695,15.976],[-10.759,16.024],[-10.779,16.045],[-10.775,16.051],[-10.775,16.079],[-10.763,16.096],[-10.762,16.124],[-10.757,16.152],[-10.76,16.185],[-10.776,16.215],[-10.804,16.237],[-10.837,16.248],[-10.841,16.265],[-10.832,16.279],[-10.845,16.302],[-10.842,16.317],[-10.835,16.331],[-10.831,16.359],[-10.824,16.37],[-10.816,16.38],[-10.808,16.401],[-10.81,16.423],[-10.822,16.43],[-10.863,16.442],[-10.872,16.465],[-10.859,16.477],[-10.841,16.482],[-10.82,16.482],[-10.768,16.509],[-10.759,16.527],[-10.737,16.541],[-10.736,16.566],[-10.713,16.568],[-10.701,16.582],[-10.7,16.595],[-10.705,16.604],[-10.72,16.601],[-10.736,16.595],[-10.748,16.608],[-10.777,16.593],[-10.793,16.598],[-10.809,16.601],[-10.839,16.614],[-10.86,16.643],[-10.875,16.673],[-10.872,16.707],[-10.883,16.724],[-10.898,16.74],[-10.916,16.748],[-10.935,16.75],[-10.943,16.763],[-10.948,16.778],[-10.969,16.803],[-10.99,16.816],[-10.997,16.838],[-10.987,16.851],[-10.98,16.865],[-10.993,16.889],[-10.99,16.907],[-10.99,16.925],[-10.996,16.952],[-10.996,16.979],[-10.98,17.1],[-10.986,17.125],[-11.002,17.14],[-11.011,17.161],[-10.995,17.247],[-10.986,17.265],[-10.98,17.284],[-10.994,17.32],[-10.987,17.356],[-10.991,17.391],[-11.059,17.524],[-11.078,17.625],[-11.094,17.658],[-11.091,17.69],[-11.079,17.723],[-10.76,17.634],[-10.333,17.518],[-9.723,17.556],[-9.715,17.551],[-9.15,17.282],[-8.598,17.351],[-8.46,17.204],[-8.289,17.023],[-8.518,16.781],[-8.687,16.601],[-8.75,16.532],[-8.894,16.392],[-8.869,16.322],[-9.067,16.062],[-9.026,15.974],[-8.97,15.857],[-8.959,15.539],[-8.996,15.504],[-9.001,15.497],[-9.003,15.496]]]}},{"type":"Feature","id":"MR-03","properties":{"id":"MR-03","countryCode":"MR","isoSubdivision":"MR-03","name":"Assaba","name_en":"Assaba","name_ko":"아사바","type":"Region","labelLongitude":-11.711,"labelLatitude":16.584,"minZoom":6.6},"geometry":{"type":"Polygon","coordinates":[[[-10.915,15.103],[-10.948,15.152],[-10.985,15.187],[-11.013,15.24],[-11.045,15.27],[-11.298,15.451],[-11.317,15.472],[-11.41,15.602],[-11.435,15.623],[-11.458,15.633],[-11.515,15.644],[-11.524,15.643],[-11.527,15.643],[-11.526,15.638],[-11.523,15.635],[-11.52,15.633],[-11.515,15.63],[-11.513,15.625],[-11.512,15.62],[-11.513,15.615],[-11.515,15.61],[-11.524,15.6],[-11.536,15.595],[-11.563,15.587],[-11.579,15.578],[-11.615,15.541],[-11.644,15.526],[-11.671,15.528],[-11.698,15.537],[-11.702,15.537],[-11.693,15.58],[-11.669,15.626],[-11.663,15.677],[-11.651,15.726],[-11.613,15.767],[-11.604,15.792],[-11.598,15.817],[-11.598,15.83],[-11.592,15.843],[-11.569,15.86],[-11.556,15.884],[-11.559,15.893],[-11.561,15.905],[-11.554,15.92],[-11.542,15.932],[-11.517,15.946],[-11.5,15.969],[-11.607,15.986],[-11.677,16.031],[-11.692,16.034],[-11.707,16.031],[-11.724,16.034],[-11.737,16.044],[-11.79,16.038],[-11.801,16.048],[-11.813,16.055],[-11.821,16.04],[-11.816,16.016],[-11.805,15.995],[-11.796,15.973],[-11.803,15.956],[-11.818,15.947],[-11.831,15.941],[-11.837,15.925],[-11.834,15.909],[-11.855,15.909],[-11.883,15.912],[-11.911,15.909],[-11.936,15.902],[-11.955,15.913],[-11.975,15.934],[-12.005,15.939],[-12.019,15.979],[-12.01,16.052],[-12.033,16.051],[-12.052,16.056],[-12.063,16.071],[-12.098,16.107],[-12.143,16.121],[-12.15,16.113],[-12.154,16.107],[-12.171,16.113],[-12.187,16.122],[-12.222,16.122],[-12.234,16.141],[-12.24,16.221],[-12.256,16.237],[-12.279,16.242],[-12.295,16.252],[-12.312,16.257],[-12.333,16.251],[-12.351,16.241],[-12.388,16.209],[-12.428,16.205],[-12.433,16.235],[-12.413,16.304],[-12.414,16.345],[-12.42,16.361],[-12.423,16.395],[-12.431,16.411],[-12.429,16.443],[-12.467,16.454],[-12.658,16.485],[-12.683,16.477],[-12.705,16.456],[-12.719,16.453],[-12.732,16.459],[-12.749,16.46],[-12.762,16.459],[-12.767,16.477],[-12.766,16.494],[-12.747,16.511],[-12.736,16.534],[-12.736,16.553],[-12.752,16.565],[-12.759,16.588],[-12.763,16.612],[-12.779,16.642],[-12.809,16.658],[-12.832,16.674],[-12.836,16.698],[-12.835,16.742],[-12.821,16.784],[-12.802,16.822],[-12.823,16.858],[-12.817,16.893],[-12.818,16.929],[-12.81,16.949],[-12.8,16.967],[-12.728,17.047],[-12.698,17.054],[-12.687,17.063],[-12.678,17.072],[-12.633,17.085],[-12.62,17.085],[-12.607,17.082],[-12.595,17.088],[-12.584,17.095],[-12.565,17.105],[-12.544,17.11],[-12.518,17.121],[-12.491,17.168],[-12.469,17.186],[-12.438,17.19],[-12.42,17.208],[-12.387,17.22],[-12.348,17.227],[-12.339,17.238],[-12.337,17.256],[-12.326,17.267],[-12.31,17.275],[-12.214,17.187],[-12.053,17.129],[-11.91,17.086],[-11.753,17.139],[-11.57,17.124],[-11.527,17.177],[-11.526,17.243],[-11.519,17.382],[-11.492,17.438],[-11.509,17.493],[-11.469,17.51],[-11.474,17.548],[-11.515,17.557],[-11.485,17.575],[-11.453,17.594],[-11.422,17.603],[-11.415,17.633],[-11.43,17.661],[-11.425,17.667],[-11.425,17.675],[-11.435,17.692],[-11.454,17.717],[-11.492,17.755],[-11.497,17.767],[-11.529,17.817],[-11.507,17.815],[-11.544,17.884],[-11.569,17.927],[-11.574,17.937],[-11.595,17.956],[-11.581,17.985],[-11.549,18.002],[-11.548,18.05],[-11.492,18.047],[-11.486,18.078],[-11.457,18.08],[-11.394,18.078],[-11.366,18.073],[-11.356,18.076],[-11.347,18.067],[-11.323,18.064],[-11.298,18.081],[-11.24,18.099],[-11.212,18.096],[-11.204,18.117],[-11.169,18.162],[-11.194,18.185],[-11.167,18.205],[-11.136,18.241],[-11.104,18.263],[-11.031,18.292],[-11.002,18.29],[-10.971,18.311],[-11.079,17.723],[-11.091,17.69],[-11.094,17.658],[-11.078,17.625],[-11.059,17.524],[-10.991,17.391],[-10.987,17.356],[-10.994,17.32],[-10.98,17.284],[-10.986,17.265],[-10.995,17.247],[-11.011,17.161],[-11.002,17.14],[-10.986,17.125],[-10.98,17.1],[-10.996,16.979],[-10.996,16.952],[-10.99,16.925],[-10.99,16.907],[-10.993,16.889],[-10.98,16.865],[-10.987,16.851],[-10.997,16.838],[-10.99,16.816],[-10.969,16.803],[-10.948,16.778],[-10.943,16.763],[-10.935,16.75],[-10.916,16.748],[-10.898,16.74],[-10.883,16.724],[-10.872,16.707],[-10.875,16.673],[-10.86,16.643],[-10.839,16.614],[-10.809,16.601],[-10.793,16.598],[-10.777,16.593],[-10.748,16.608],[-10.736,16.595],[-10.72,16.601],[-10.705,16.604],[-10.7,16.595],[-10.701,16.582],[-10.713,16.568],[-10.736,16.566],[-10.737,16.541],[-10.759,16.527],[-10.768,16.509],[-10.82,16.482],[-10.841,16.482],[-10.859,16.477],[-10.872,16.465],[-10.863,16.442],[-10.822,16.43],[-10.81,16.423],[-10.808,16.401],[-10.816,16.38],[-10.824,16.37],[-10.831,16.359],[-10.835,16.331],[-10.842,16.317],[-10.845,16.302],[-10.832,16.279],[-10.841,16.265],[-10.837,16.248],[-10.804,16.237],[-10.776,16.215],[-10.76,16.185],[-10.757,16.152],[-10.762,16.124],[-10.763,16.096],[-10.775,16.079],[-10.775,16.051],[-10.779,16.045],[-10.759,16.024],[-10.695,15.976],[-10.667,15.938],[-10.585,15.428],[-10.587,15.427],[-10.607,15.424],[-10.649,15.425],[-10.709,15.434],[-10.725,15.433],[-10.736,15.423],[-10.74,15.404],[-10.739,15.362],[-10.747,15.341],[-10.755,15.334],[-10.771,15.325],[-10.782,15.308],[-10.79,15.307],[-10.8,15.307],[-10.811,15.303],[-10.827,15.288],[-10.834,15.271],[-10.844,15.235],[-10.855,15.218],[-10.882,15.193],[-10.891,15.177],[-10.906,15.12],[-10.915,15.103]]]}},{"type":"Feature","id":"MR-04","properties":{"id":"MR-04","countryCode":"MR","isoSubdivision":"MR-04","name":"Gorgol","name_en":"Gorgol","name_ko":"고르골","type":"Region","labelLongitude":-12.856,"labelLatitude":16.03,"minZoom":6.6},"geometry":{"type":"Polygon","coordinates":[[[-13.669,16.106],[-13.676,16.107],[-13.678,16.108],[-13.685,16.114],[-13.687,16.115],[-13.694,16.118],[-13.696,16.119],[-13.697,16.12],[-13.699,16.124],[-13.7,16.126],[-13.704,16.129],[-13.715,16.133],[-13.72,16.136],[-13.723,16.146],[-13.718,16.159],[-13.698,16.167],[-13.669,16.182],[-13.649,16.206],[-13.644,16.249],[-13.632,16.29],[-13.59,16.308],[-13.182,16.414],[-13.164,16.44],[-13.158,16.52],[-13.11,16.576],[-13.016,16.585],[-12.932,16.616],[-12.907,16.664],[-12.892,16.716],[-12.873,16.755],[-12.825,16.821],[-12.823,16.858],[-12.802,16.822],[-12.821,16.784],[-12.835,16.742],[-12.836,16.698],[-12.832,16.674],[-12.809,16.658],[-12.779,16.642],[-12.763,16.612],[-12.759,16.588],[-12.752,16.565],[-12.736,16.553],[-12.736,16.534],[-12.747,16.511],[-12.766,16.494],[-12.767,16.477],[-12.762,16.459],[-12.749,16.46],[-12.732,16.459],[-12.719,16.453],[-12.705,16.456],[-12.683,16.477],[-12.658,16.485],[-12.467,16.454],[-12.429,16.443],[-12.431,16.411],[-12.423,16.395],[-12.42,16.361],[-12.414,16.345],[-12.413,16.304],[-12.433,16.235],[-12.428,16.205],[-12.388,16.209],[-12.351,16.241],[-12.333,16.251],[-12.312,16.257],[-12.295,16.252],[-12.279,16.242],[-12.256,16.237],[-12.24,16.221],[-12.234,16.141],[-12.222,16.122],[-12.187,16.122],[-12.171,16.113],[-12.154,16.107],[-12.15,16.113],[-12.143,16.121],[-12.098,16.107],[-12.063,16.071],[-12.052,16.056],[-12.033,16.051],[-12.01,16.052],[-12.019,15.979],[-12.005,15.939],[-12.075,15.917],[-12.142,15.886],[-12.193,15.893],[-12.238,15.881],[-12.259,15.861],[-12.272,15.837],[-12.293,15.808],[-12.463,15.659],[-12.487,15.608],[-12.494,15.568],[-12.511,15.552],[-12.533,15.54],[-12.588,15.474],[-12.675,15.337],[-12.705,15.271],[-12.747,15.131],[-12.755,15.139],[-12.78,15.146],[-12.781,15.149],[-12.784,15.158],[-12.785,15.166],[-12.779,15.191],[-12.779,15.2],[-12.782,15.207],[-12.787,15.214],[-12.796,15.22],[-12.806,15.223],[-12.817,15.223],[-12.838,15.219],[-12.848,15.219],[-12.857,15.222],[-12.865,15.229],[-12.888,15.251],[-12.894,15.263],[-12.884,15.271],[-12.85,15.267],[-12.833,15.27],[-12.828,15.284],[-12.835,15.3],[-12.847,15.313],[-12.907,15.353],[-12.919,15.365],[-12.927,15.381],[-12.931,15.397],[-12.931,15.431],[-12.933,15.438],[-12.938,15.446],[-12.948,15.459],[-12.951,15.465],[-12.955,15.493],[-12.958,15.502],[-12.964,15.509],[-12.98,15.516],[-12.996,15.514],[-13.011,15.506],[-13.024,15.496],[-13.039,15.487],[-13.053,15.485],[-13.084,15.493],[-13.09,15.497],[-13.093,15.506],[-13.095,15.515],[-13.095,15.523],[-13.089,15.561],[-13.092,15.575],[-13.099,15.587],[-13.11,15.596],[-13.122,15.603],[-13.145,15.61],[-13.153,15.612],[-13.171,15.625],[-13.178,15.628],[-13.193,15.629],[-13.223,15.624],[-13.238,15.623],[-13.247,15.648],[-13.249,15.657],[-13.248,15.666],[-13.244,15.674],[-13.229,15.697],[-13.227,15.704],[-13.228,15.711],[-13.233,15.72],[-13.244,15.736],[-13.251,15.743],[-13.259,15.749],[-13.274,15.757],[-13.281,15.763],[-13.286,15.77],[-13.287,15.778],[-13.285,15.787],[-13.282,15.795],[-13.28,15.804],[-13.28,15.823],[-13.285,15.84],[-13.294,15.855],[-13.312,15.876],[-13.316,15.882],[-13.318,15.888],[-13.318,15.897],[-13.314,15.914],[-13.314,15.922],[-13.316,15.93],[-13.322,15.938],[-13.347,15.957],[-13.356,15.966],[-13.363,15.975],[-13.37,15.985],[-13.384,16.019],[-13.385,16.027],[-13.386,16.044],[-13.389,16.052],[-13.395,16.059],[-13.422,16.077],[-13.427,16.083],[-13.435,16.097],[-13.44,16.102],[-13.455,16.102],[-13.492,16.088],[-13.502,16.095],[-13.5,16.111],[-13.483,16.141],[-13.485,16.155],[-13.492,16.156],[-13.497,16.156],[-13.503,16.154],[-13.516,16.149],[-13.569,16.138],[-13.599,16.125],[-13.607,16.123],[-13.61,16.123],[-13.629,16.123],[-13.635,16.122],[-13.662,16.107],[-13.669,16.106]]]}},{"type":"Feature","id":"MR-05","properties":{"id":"MR-05","countryCode":"MR","isoSubdivision":"MR-05","name":"Brakna","name_en":"Brakna","name_ko":"브라크나","type":"Region","labelLongitude":-13.63,"labelLatitude":17.082,"minZoom":6.6},"geometry":{"type":"Polygon","coordinates":[[[-14.912,16.641],[-14.931,16.643],[-14.941,16.656],[-14.949,16.671],[-14.933,16.691],[-14.835,16.752],[-14.698,16.824],[-14.62,16.856],[-14.59,16.882],[-14.569,16.909],[-14.563,16.914],[-14.32,17.088],[-13.959,17.604],[-13.734,17.8],[-13.453,18],[-12.669,18.557],[-12.479,18.274],[-12.506,17.998],[-12.52,17.83],[-12.517,17.83],[-12.545,17.492],[-12.41,17.356],[-12.31,17.275],[-12.326,17.267],[-12.337,17.256],[-12.339,17.238],[-12.348,17.227],[-12.387,17.22],[-12.42,17.208],[-12.438,17.19],[-12.469,17.186],[-12.491,17.168],[-12.518,17.121],[-12.544,17.11],[-12.565,17.105],[-12.584,17.095],[-12.595,17.088],[-12.607,17.082],[-12.62,17.085],[-12.633,17.085],[-12.678,17.072],[-12.687,17.063],[-12.698,17.054],[-12.728,17.047],[-12.8,16.967],[-12.81,16.949],[-12.818,16.929],[-12.817,16.893],[-12.823,16.858],[-12.825,16.821],[-12.873,16.755],[-12.892,16.716],[-12.907,16.664],[-12.932,16.616],[-13.016,16.585],[-13.11,16.576],[-13.158,16.52],[-13.164,16.44],[-13.182,16.414],[-13.59,16.308],[-13.632,16.29],[-13.644,16.249],[-13.649,16.206],[-13.669,16.182],[-13.698,16.167],[-13.718,16.159],[-13.713,16.176],[-13.711,16.189],[-13.72,16.19],[-13.729,16.19],[-13.738,16.187],[-13.747,16.182],[-13.754,16.175],[-13.772,16.15],[-13.779,16.143],[-13.795,16.131],[-13.811,16.122],[-13.819,16.119],[-13.827,16.119],[-13.836,16.121],[-13.845,16.126],[-13.853,16.133],[-13.859,16.142],[-13.864,16.152],[-13.872,16.179],[-13.877,16.187],[-13.884,16.194],[-13.9,16.205],[-13.908,16.21],[-13.947,16.221],[-13.964,16.23],[-13.968,16.246],[-13.963,16.264],[-13.963,16.272],[-13.967,16.281],[-13.977,16.294],[-13.979,16.3],[-13.977,16.309],[-13.971,16.324],[-13.972,16.331],[-13.978,16.338],[-13.987,16.343],[-14.007,16.35],[-14.016,16.356],[-14.033,16.376],[-14.04,16.382],[-14.073,16.401],[-14.132,16.453],[-14.166,16.491],[-14.19,16.507],[-14.197,16.513],[-14.214,16.535],[-14.222,16.54],[-14.234,16.542],[-14.258,16.543],[-14.268,16.548],[-14.273,16.556],[-14.275,16.574],[-14.278,16.581],[-14.288,16.586],[-14.326,16.582],[-14.335,16.586],[-14.337,16.594],[-14.332,16.613],[-14.331,16.624],[-14.336,16.632],[-14.343,16.637],[-14.407,16.661],[-14.426,16.66],[-14.436,16.656],[-14.462,16.641],[-14.472,16.636],[-14.482,16.634],[-14.493,16.632],[-14.504,16.633],[-14.544,16.641],[-14.555,16.641],[-14.597,16.629],[-14.608,16.629],[-14.619,16.631],[-14.647,16.644],[-14.656,16.646],[-14.666,16.646],[-14.7,16.637],[-14.711,16.636],[-14.882,16.648],[-14.912,16.641]]]}},{"type":"Feature","id":"MR-06","properties":{"id":"MR-06","countryCode":"MR","isoSubdivision":"MR-06","name":"Trarza","name_en":"Trarza","name_ko":"트라르자","type":"Region","labelLongitude":-14.606,"labelLatitude":17.934,"minZoom":6.6},"geometry":{"type":"Polygon","coordinates":[[[-14.949,16.671],[-14.95,16.672],[-14.963,16.686],[-14.974,16.691],[-14.997,16.682],[-15.007,16.676],[-15.013,16.667],[-15.017,16.653],[-15.019,16.646],[-15.024,16.64],[-15.03,16.635],[-15.037,16.633],[-15.044,16.632],[-15.052,16.634],[-15.062,16.644],[-15.07,16.655],[-15.079,16.665],[-15.093,16.669],[-15.108,16.665],[-15.116,16.656],[-15.118,16.643],[-15.112,16.629],[-15.096,16.614],[-15.093,16.608],[-15.093,16.6],[-15.097,16.594],[-15.104,16.59],[-15.125,16.583],[-15.232,16.566],[-15.249,16.566],[-15.296,16.573],[-15.328,16.572],[-15.344,16.569],[-15.386,16.552],[-15.4,16.548],[-15.415,16.548],[-15.427,16.553],[-15.434,16.563],[-15.439,16.573],[-15.449,16.58],[-15.464,16.581],[-15.479,16.575],[-15.491,16.565],[-15.515,16.531],[-15.525,16.522],[-15.537,16.517],[-15.551,16.515],[-15.594,16.524],[-15.61,16.521],[-15.621,16.514],[-15.644,16.495],[-15.657,16.486],[-15.672,16.481],[-15.688,16.481],[-15.703,16.484],[-15.727,16.495],[-15.735,16.498],[-15.768,16.499],[-15.813,16.514],[-15.829,16.515],[-15.854,16.51],[-15.862,16.51],[-15.897,16.518],[-15.911,16.517],[-15.951,16.5],[-15.958,16.498],[-15.964,16.499],[-15.977,16.504],[-15.986,16.506],[-15.993,16.505],[-16,16.501],[-16.007,16.496],[-16.031,16.493],[-16.054,16.495],[-16.074,16.505],[-16.091,16.522],[-16.103,16.54],[-16.11,16.547],[-16.12,16.552],[-16.132,16.555],[-16.144,16.553],[-16.156,16.548],[-16.185,16.527],[-16.195,16.523],[-16.207,16.521],[-16.218,16.522],[-16.251,16.528],[-16.274,16.523],[-16.295,16.511],[-16.314,16.493],[-16.327,16.475],[-16.335,16.456],[-16.34,16.416],[-16.381,16.247],[-16.385,16.235],[-16.392,16.225],[-16.407,16.215],[-16.444,16.206],[-16.459,16.194],[-16.466,16.174],[-16.47,16.106],[-16.488,16.066],[-16.502,16.022],[-16.508,16.01],[-16.51,15.902],[-16.52,15.846],[-16.542,15.809],[-16.527,15.977],[-16.529,16.066],[-16.539,16.267],[-16.529,16.333],[-16.522,16.351],[-16.494,16.402],[-16.486,16.452],[-16.478,16.466],[-16.467,16.493],[-16.467,16.6],[-16.459,16.644],[-16.379,16.841],[-16.358,16.875],[-16.343,16.942],[-16.326,16.975],[-16.278,17.041],[-16.193,17.219],[-16.187,17.244],[-16.173,17.262],[-16.079,17.545],[-16.049,17.667],[-16.041,17.8],[-16.032,17.886],[-15.781,17.887],[-15.78,18.165],[-15.781,18.393],[-16.05,18.39],[-16.06,18.391],[-16.069,18.484],[-16.081,18.52],[-16.132,18.629],[-16.156,18.753],[-16.173,18.793],[-16.164,18.817],[-16.166,18.844],[-16.205,18.983],[-16.21,18.996],[-14.262,19],[-14.222,19.001],[-13.244,19.001],[-12.669,18.557],[-13.453,18],[-13.734,17.8],[-13.959,17.604],[-14.32,17.088],[-14.563,16.914],[-14.569,16.909],[-14.59,16.882],[-14.62,16.856],[-14.698,16.824],[-14.835,16.752],[-14.933,16.691],[-14.949,16.671]]]}},{"type":"Feature","id":"MR-07","properties":{"id":"MR-07","countryCode":"MR","isoSubdivision":"MR-07","name":"Adrar","name_en":"Adrar","name_ko":"아드라르","type":"Region","labelLongitude":-10.334,"labelLatitude":20.763,"minZoom":6.6},"geometry":{"type":"Polygon","coordinates":[[[-14.296,21.333],[-14.015,21.333],[-13.737,21.333],[-13.501,21.333],[-13.32,21.333],[-13.203,21.333],[-13.162,21.333],[-13.015,21.333],[-13.026,21.495],[-13.032,21.582],[-13.03,21.581],[-13.005,21.573],[-12.378,21.352],[-10.788,21.52],[-6.507,24.276],[-6.506,24.276],[-6.506,24.27],[-6.498,24.208],[-6.483,24.072],[-6.467,23.936],[-6.459,23.874],[-6.445,23.754],[-6.431,23.633],[-6.417,23.512],[-6.403,23.392],[-6.389,23.271],[-6.375,23.15],[-6.372,23.124],[-6.372,23.123],[-6.379,23.108],[-7.974,19.754],[-7.988,19.725],[-11.013,19.711],[-11.035,19.711],[-11.403,19.424],[-11.423,19.409],[-11.446,19.239],[-11.451,19.203],[-11.678,19.32],[-11.891,19.18],[-12.342,18.9],[-12.457,18.778],[-12.669,18.557],[-13.244,19.001],[-14.222,19.001],[-14.221,19.277],[-14.22,19.429],[-14.154,21.118],[-14.173,21.144],[-14.296,21.333]]]}},{"type":"Feature","id":"MR-08","properties":{"id":"MR-08","countryCode":"MR","isoSubdivision":"MR-08","name":"Dakhlet Nouadhibou","name_en":"Dakhlet Nouadhibou","name_ko":"다클레트누아디부","type":"Region","labelLongitude":-16.135,"labelLatitude":20.843,"minZoom":6.6},"geometry":{"type":"MultiPolygon","coordinates":[[[[-17.057,20.767],[-17.081,20.875],[-17.077,20.905],[-17.054,20.995],[-17.047,21.027],[-17.005,21.142],[-16.986,21.238],[-16.968,21.325],[-16.959,21.333],[-16.843,21.333],[-16.801,21.333],[-16.685,21.333],[-16.503,21.333],[-16.268,21.333],[-15.989,21.333],[-15.678,21.333],[-15.346,21.333],[-15.002,21.333],[-14.659,21.333],[-14.326,21.333],[-14.296,21.333],[-14.173,21.144],[-15.84,21.151],[-15.578,20.737],[-16.227,19.592],[-16.283,19.495],[-16.319,19.453],[-16.323,19.458],[-16.3,19.497],[-16.294,19.516],[-16.285,19.529],[-16.283,19.536],[-16.286,19.543],[-16.293,19.547],[-16.299,19.547],[-16.302,19.543],[-16.307,19.544],[-16.363,19.486],[-16.391,19.464],[-16.35,19.547],[-16.365,19.539],[-16.405,19.507],[-16.419,19.492],[-16.426,19.482],[-16.432,19.471],[-16.434,19.46],[-16.429,19.448],[-16.429,19.442],[-16.437,19.423],[-16.44,19.413],[-16.442,19.41],[-16.448,19.409],[-16.455,19.408],[-16.46,19.409],[-16.465,19.413],[-16.466,19.414],[-16.465,19.417],[-16.467,19.423],[-16.469,19.431],[-16.468,19.456],[-16.467,19.464],[-16.458,19.48],[-16.432,19.506],[-16.426,19.523],[-16.423,19.544],[-16.413,19.554],[-16.399,19.562],[-16.385,19.574],[-16.289,19.711],[-16.283,19.716],[-16.276,19.72],[-16.271,19.726],[-16.269,19.735],[-16.267,19.755],[-16.264,19.763],[-16.258,19.766],[-16.256,19.77],[-16.238,19.788],[-16.234,19.794],[-16.234,19.804],[-16.236,19.813],[-16.241,19.821],[-16.248,19.828],[-16.24,19.834],[-16.235,19.842],[-16.233,19.852],[-16.234,19.862],[-16.25,19.853],[-16.255,19.848],[-16.258,19.864],[-16.243,19.889],[-16.248,19.903],[-16.267,19.914],[-16.279,19.905],[-16.287,19.89],[-16.289,19.882],[-16.306,19.873],[-16.313,19.878],[-16.313,19.89],[-16.31,19.903],[-16.304,19.914],[-16.298,19.923],[-16.239,19.979],[-16.222,20.004],[-16.214,20.033],[-16.218,20.058],[-16.249,20.108],[-16.261,20.136],[-16.253,20.135],[-16.246,20.136],[-16.24,20.138],[-16.234,20.143],[-16.212,20.176],[-16.203,20.196],[-16.2,20.215],[-16.202,20.233],[-16.209,20.248],[-16.238,20.29],[-16.244,20.293],[-16.258,20.294],[-16.267,20.298],[-16.272,20.308],[-16.275,20.317],[-16.279,20.321],[-16.295,20.331],[-16.323,20.396],[-16.332,20.405],[-16.341,20.411],[-16.348,20.418],[-16.35,20.427],[-16.348,20.431],[-16.342,20.433],[-16.338,20.435],[-16.34,20.441],[-16.343,20.445],[-16.349,20.457],[-16.354,20.476],[-16.391,20.569],[-16.401,20.583],[-16.416,20.589],[-16.424,20.601],[-16.425,20.626],[-16.43,20.644],[-16.447,20.637],[-16.467,20.65],[-16.467,20.657],[-16.422,20.669],[-16.409,20.675],[-16.429,20.678],[-16.465,20.672],[-16.481,20.675],[-16.494,20.691],[-16.487,20.698],[-16.501,20.726],[-16.508,20.731],[-16.529,20.739],[-16.536,20.695],[-16.528,20.599],[-16.542,20.561],[-16.552,20.576],[-16.565,20.587],[-16.591,20.602],[-16.599,20.611],[-16.612,20.634],[-16.621,20.646],[-16.634,20.655],[-16.665,20.671],[-16.673,20.678],[-16.673,20.689],[-16.669,20.694],[-16.662,20.695],[-16.659,20.698],[-16.659,20.707],[-16.665,20.715],[-16.666,20.722],[-16.671,20.737],[-16.683,20.749],[-16.71,20.77],[-16.714,20.778],[-16.714,20.796],[-16.717,20.804],[-16.734,20.822],[-16.745,20.869],[-16.752,20.88],[-16.762,20.892],[-16.769,20.907],[-16.773,20.923],[-16.775,20.938],[-16.779,20.933],[-16.786,20.928],[-16.789,20.924],[-16.803,20.937],[-16.809,20.953],[-16.812,20.969],[-16.817,20.986],[-16.823,20.993],[-16.832,21],[-16.84,21.01],[-16.844,21.024],[-16.849,21.034],[-16.873,21.065],[-16.879,21.079],[-16.881,21.093],[-16.886,21.109],[-16.899,21.137],[-16.918,21.159],[-16.931,21.152],[-16.957,21.106],[-17,21.051],[-17.01,21.043],[-17.016,21.031],[-17.008,21.013],[-16.997,21.019],[-16.996,21.001],[-17.002,20.965],[-17.004,20.932],[-17.008,20.924],[-17.018,20.918],[-17.041,20.911],[-17.049,20.904],[-17.05,20.895],[-17.046,20.887],[-17.036,20.877],[-17.029,20.861],[-17.028,20.854],[-17.029,20.842],[-17.038,20.8],[-17.047,20.778],[-17.057,20.767]]],[[[-16.378,19.814],[-16.358,19.853],[-16.346,19.868],[-16.337,19.856],[-16.367,19.721],[-16.392,19.658],[-16.432,19.601],[-16.45,19.623],[-16.453,19.629],[-16.453,19.637],[-16.45,19.646],[-16.45,19.656],[-16.457,19.667],[-16.464,19.685],[-16.457,19.703],[-16.428,19.745],[-16.426,19.749],[-16.427,19.778],[-16.426,19.787],[-16.418,19.806],[-16.405,19.821],[-16.391,19.826],[-16.378,19.814]]],[[[-16.321,19.729],[-16.31,19.731],[-16.302,19.723],[-16.313,19.705],[-16.33,19.69],[-16.342,19.676],[-16.359,19.648],[-16.395,19.6],[-16.398,19.6],[-16.393,19.617],[-16.359,19.677],[-16.321,19.729]]],[[[-16.477,19.732],[-16.47,19.73],[-16.469,19.72],[-16.472,19.7],[-16.478,19.686],[-16.484,19.678],[-16.492,19.684],[-16.497,19.706],[-16.491,19.725],[-16.477,19.732]]],[[[-16.459,20.615],[-16.451,20.613],[-16.446,20.607],[-16.448,20.575],[-16.454,20.571],[-16.467,20.576],[-16.474,20.594],[-16.469,20.609],[-16.459,20.615]]]]}},{"type":"Feature","id":"MR-09","properties":{"id":"MR-09","countryCode":"MR","isoSubdivision":"MR-09","name":"Tagant","name_en":"Tagant","name_ko":"타간트","type":"Region","labelLongitude":-10.328,"labelLatitude":18.617,"minZoom":6.6},"geometry":{"type":"Polygon","coordinates":[[[-11.451,19.203],[-11.446,19.239],[-11.423,19.409],[-11.403,19.424],[-11.035,19.711],[-11.013,19.711],[-7.988,19.725],[-9.147,17.288],[-9.15,17.282],[-9.715,17.551],[-9.723,17.556],[-10.333,17.518],[-10.76,17.634],[-11.079,17.723],[-10.971,18.311],[-11.002,18.29],[-11.031,18.292],[-11.104,18.263],[-11.136,18.241],[-11.167,18.205],[-11.194,18.185],[-11.169,18.162],[-11.204,18.117],[-11.212,18.096],[-11.24,18.099],[-11.298,18.081],[-11.323,18.064],[-11.347,18.067],[-11.356,18.076],[-11.366,18.073],[-11.394,18.078],[-11.457,18.08],[-11.486,18.078],[-11.492,18.047],[-11.548,18.05],[-11.549,18.002],[-11.581,17.985],[-11.595,17.956],[-11.574,17.937],[-11.569,17.927],[-11.544,17.884],[-11.507,17.815],[-11.529,17.817],[-11.497,17.767],[-11.492,17.755],[-11.454,17.717],[-11.435,17.692],[-11.425,17.675],[-11.425,17.667],[-11.43,17.661],[-11.415,17.633],[-11.422,17.603],[-11.453,17.594],[-11.485,17.575],[-11.515,17.557],[-11.474,17.548],[-11.469,17.51],[-11.509,17.493],[-11.492,17.438],[-11.519,17.382],[-11.526,17.243],[-11.527,17.177],[-11.57,17.124],[-11.753,17.139],[-11.91,17.086],[-12.053,17.129],[-12.214,17.187],[-12.31,17.275],[-12.41,17.356],[-12.545,17.492],[-12.517,17.83],[-12.52,17.83],[-12.506,17.998],[-12.479,18.274],[-12.669,18.557],[-12.457,18.778],[-12.342,18.9],[-11.891,19.18],[-11.678,19.32],[-11.451,19.203]]]}},{"type":"Feature","id":"MR-10","properties":{"id":"MR-10","countryCode":"MR","isoSubdivision":"MR-10","name":"Guidimaka","name_en":"Guidimaka","name_ko":"기디마카","type":"Region","labelLongitude":-12.123,"labelLatitude":15.335,"minZoom":6.6},"geometry":{"type":"Polygon","coordinates":[[[-12.69,15.092],[-12.717,15.103],[-12.747,15.131],[-12.705,15.271],[-12.675,15.337],[-12.588,15.474],[-12.533,15.54],[-12.511,15.552],[-12.494,15.568],[-12.487,15.608],[-12.463,15.659],[-12.293,15.808],[-12.272,15.837],[-12.259,15.861],[-12.238,15.881],[-12.193,15.893],[-12.142,15.886],[-12.075,15.917],[-12.005,15.939],[-11.975,15.934],[-11.955,15.913],[-11.936,15.902],[-11.911,15.909],[-11.883,15.912],[-11.855,15.909],[-11.834,15.909],[-11.837,15.925],[-11.831,15.941],[-11.818,15.947],[-11.803,15.956],[-11.796,15.973],[-11.805,15.995],[-11.816,16.016],[-11.821,16.04],[-11.813,16.055],[-11.801,16.048],[-11.79,16.038],[-11.737,16.044],[-11.724,16.034],[-11.707,16.031],[-11.692,16.034],[-11.677,16.031],[-11.607,15.986],[-11.5,15.969],[-11.517,15.946],[-11.542,15.932],[-11.554,15.92],[-11.561,15.905],[-11.559,15.893],[-11.556,15.884],[-11.569,15.86],[-11.592,15.843],[-11.598,15.83],[-11.598,15.817],[-11.604,15.792],[-11.613,15.767],[-11.651,15.726],[-11.663,15.677],[-11.669,15.626],[-11.693,15.58],[-11.702,15.537],[-11.727,15.541],[-11.727,15.507],[-11.729,15.496],[-11.755,15.469],[-11.768,15.437],[-11.783,15.366],[-11.817,15.296],[-11.821,15.28],[-11.827,15.233],[-11.846,15.179],[-11.848,15.158],[-11.847,15.149],[-11.844,15.135],[-11.845,15.125],[-11.857,15.084],[-11.859,15.054],[-11.861,15.049],[-11.851,15.042],[-11.844,15.044],[-11.839,15.049],[-11.833,15.049],[-11.821,15.04],[-11.814,15.029],[-11.811,15.014],[-11.813,14.996],[-11.821,14.98],[-11.826,14.962],[-11.831,14.926],[-11.83,14.92],[-11.827,14.916],[-11.82,14.906],[-11.82,14.9],[-11.826,14.897],[-11.833,14.895],[-11.837,14.893],[-11.84,14.888],[-11.846,14.883],[-11.851,14.876],[-11.855,14.867],[-11.863,14.854],[-11.877,14.842],[-11.896,14.832],[-11.936,14.824],[-11.95,14.812],[-11.974,14.78],[-11.991,14.768],[-12.011,14.763],[-12.031,14.763],[-12.05,14.767],[-12.057,14.762],[-12.062,14.746],[-12.07,14.734],[-12.081,14.74],[-12.124,14.777],[-12.139,14.785],[-12.16,14.781],[-12.203,14.766],[-12.225,14.763],[-12.247,14.767],[-12.264,14.775],[-12.32,14.817],[-12.382,14.846],[-12.4,14.86],[-12.434,14.899],[-12.448,14.907],[-12.448,14.918],[-12.472,14.998],[-12.476,15.008],[-12.485,15.017],[-12.496,15.023],[-12.519,15.028],[-12.53,15.034],[-12.547,15.047],[-12.602,15.079],[-12.615,15.095],[-12.623,15.102],[-12.632,15.105],[-12.648,15.103],[-12.679,15.094],[-12.69,15.092]]]}},{"type":"Feature","id":"MR-11","properties":{"id":"MR-11","countryCode":"MR","isoSubdivision":"MR-11","name":"Tiris Zemmour","name_en":"Tiris Zemmour","name_ko":"티리스젬무르","type":"Region","labelLongitude":-8.994,"labelLatitude":24.335,"minZoom":6.6},"geometry":{"type":"Polygon","coordinates":[[[-8.682,27.285],[-8.484,27.169],[-8.286,27.053],[-8.089,26.936],[-7.891,26.82],[-7.693,26.703],[-7.495,26.587],[-7.297,26.471],[-7.099,26.354],[-6.901,26.238],[-6.703,26.122],[-6.505,26.005],[-6.307,25.889],[-6.14,25.79],[-5.972,25.692],[-5.805,25.593],[-5.662,25.509],[-5.637,25.494],[-5.516,25.423],[-5.342,25.316],[-5.169,25.209],[-4.995,25.102],[-4.822,24.995],[-5.043,24.995],[-5.264,24.995],[-5.486,24.995],[-5.707,24.995],[-5.929,24.994],[-6.15,24.994],[-6.372,24.994],[-6.593,24.994],[-6.583,24.914],[-6.574,24.835],[-6.564,24.755],[-6.554,24.676],[-6.545,24.596],[-6.535,24.516],[-6.526,24.437],[-6.516,24.357],[-6.506,24.276],[-6.507,24.276],[-10.788,21.52],[-12.378,21.352],[-13.005,21.573],[-13.03,21.581],[-13.032,21.582],[-13.06,21.995],[-13.077,22.245],[-13.093,22.495],[-13.106,22.56],[-13.155,22.689],[-13.165,22.753],[-13.152,22.82],[-13.12,22.884],[-13.034,22.995],[-13.015,23.018],[-12.915,23.082],[-12.79,23.162],[-12.682,23.231],[-12.619,23.271],[-12.558,23.29],[-12.39,23.313],[-12.354,23.322],[-12.135,23.419],[-12.033,23.445],[-12.019,23.461],[-12.015,23.495],[-12.015,23.576],[-12.015,23.651],[-12.015,23.727],[-12.015,23.803],[-12.015,23.878],[-12.015,23.954],[-12.015,24.03],[-12.015,24.105],[-12.015,24.181],[-12.015,24.256],[-12.015,24.332],[-12.015,24.407],[-12.015,24.483],[-12.015,24.559],[-12.015,24.634],[-12.015,24.71],[-12.015,24.785],[-12.015,24.861],[-12.015,24.937],[-12.015,25.012],[-12.015,25.088],[-12.015,25.163],[-12.015,25.239],[-12.015,25.315],[-12.015,25.39],[-12.015,25.466],[-12.015,25.541],[-12.015,25.617],[-12.015,25.692],[-12.015,25.768],[-12.015,25.844],[-12.015,25.919],[-12.015,25.995],[-11.915,25.995],[-11.814,25.995],[-11.713,25.995],[-11.612,25.995],[-11.512,25.995],[-11.411,25.995],[-11.31,25.995],[-11.21,25.995],[-11.109,25.995],[-11.008,25.995],[-10.907,25.995],[-10.807,25.995],[-10.706,25.995],[-10.605,25.995],[-10.504,25.995],[-10.404,25.995],[-10.303,25.995],[-10.202,25.995],[-10.102,25.995],[-10.001,25.995],[-9.9,25.995],[-9.799,25.995],[-9.699,25.995],[-9.598,25.995],[-9.497,25.995],[-9.396,25.995],[-9.296,25.995],[-9.195,25.995],[-9.094,25.995],[-8.994,25.995],[-8.893,25.995],[-8.792,25.995],[-8.707,25.995],[-8.688,26],[-8.681,26.013],[-8.681,26.058],[-8.681,26.072],[-8.681,26.111],[-8.681,26.172],[-8.681,26.25],[-8.681,26.343],[-8.681,26.447],[-8.681,26.557],[-8.682,26.672],[-8.682,26.786],[-8.682,26.897],[-8.682,27.001],[-8.682,27.094],[-8.682,27.172],[-8.682,27.233],[-8.682,27.272],[-8.682,27.285]]]}},{"type":"Feature","id":"MR-12","properties":{"id":"MR-12","countryCode":"MR","isoSubdivision":"MR-12","name":"Inchiri","name_en":"Inchiri","name_ko":"인시리","type":"Region","labelLongitude":-15.345,"labelLatitude":20.073,"minZoom":6.6},"geometry":{"type":"Polygon","coordinates":[[[-16.21,18.996],[-16.239,19.061],[-16.283,19.13],[-16.342,19.196],[-16.361,19.212],[-16.365,19.215],[-16.368,19.222],[-16.377,19.224],[-16.386,19.225],[-16.395,19.229],[-16.412,19.239],[-16.451,19.25],[-16.467,19.259],[-16.475,19.271],[-16.491,19.313],[-16.494,19.331],[-16.505,19.35],[-16.524,19.366],[-16.535,19.381],[-16.522,19.396],[-16.464,19.382],[-16.408,19.389],[-16.359,19.416],[-16.323,19.458],[-16.319,19.453],[-16.283,19.495],[-16.227,19.592],[-15.578,20.737],[-15.84,21.151],[-14.173,21.144],[-14.154,21.118],[-14.22,19.429],[-14.221,19.277],[-14.222,19.001],[-14.262,19],[-16.21,18.996]]]}},{"type":"Feature","id":"MR-NKC","properties":{"id":"MR-NKC","countryCode":"MR","isoSubdivision":"MR-NKC","name":"Nouakchott","name_en":"Nouakchott","name_ko":"누악쇼트","type":"District","labelLongitude":-15.92,"labelLatitude":18.139,"minZoom":6.6},"geometry":{"type":"Polygon","coordinates":[[[-16.032,17.886],[-16.024,17.96],[-16.035,18.141],[-16.06,18.391],[-16.05,18.39],[-15.781,18.393],[-15.78,18.165],[-15.781,17.887],[-16.032,17.886]]]}}]}
