{"type":"FeatureCollection","features":[{"type":"Feature","id":"MS-A","properties":{"id":"MS-A","countryCode":"MS","isoSubdivision":"MS-A","name":"Saint Anthony","name_en":"Saint Anthony","name_ko":"세인트 안토니오","type":"Parish","labelLongitude":-62.189,"labelLatitude":16.705,"minZoom":11},"geometry":{"type":"Polygon","coordinates":[[[-62.151,16.72],[-62.148,16.716],[-62.144,16.709],[-62.141,16.702],[-62.141,16.696],[-62.144,16.688],[-62.15,16.682],[-62.158,16.677],[-62.168,16.675],[-62.219,16.689],[-62.23,16.728],[-62.225,16.748],[-62.202,16.745],[-62.189,16.739],[-62.179,16.729],[-62.169,16.723],[-62.151,16.72]]]}},{"type":"Feature","id":"MS-G","properties":{"id":"MS-G","countryCode":"MS","isoSubdivision":"MS-G","name":"Saint George","name_en":"Saint George","name_ko":"세인트조지구","type":"Parish","labelLongitude":-62.167,"labelLatitude":16.744,"minZoom":11},"geometry":{"type":"Polygon","coordinates":[[[-62.17,16.777],[-62.156,16.76],[-62.147,16.744],[-62.148,16.737],[-62.152,16.725],[-62.151,16.72],[-62.169,16.723],[-62.179,16.729],[-62.189,16.739],[-62.184,16.755],[-62.177,16.768],[-62.17,16.777]]]}},{"type":"Feature","id":"MS-P","properties":{"id":"MS-P","countryCode":"MS","isoSubdivision":"MS-P","name":"Saint Peter","name_en":"Saint Peter","name_ko":"세인트 피터","type":"Parish","labelLongitude":-62.202,"labelLatitude":16.776,"minZoom":11},"geometry":{"type":"Polygon","coordinates":[[[-62.225,16.748],[-62.219,16.776],[-62.202,16.819],[-62.189,16.814],[-62.183,16.813],[-62.175,16.813],[-62.179,16.795],[-62.17,16.777],[-62.177,16.768],[-62.184,16.755],[-62.189,16.739],[-62.202,16.745],[-62.225,16.748]]]}}]}
