{"type":"FeatureCollection","features":[{"type":"Feature","id":"MT-01","properties":{"id":"MT-01","countryCode":"MT","isoSubdivision":"MT-01","name":"Attard","name_en":"Attard","name_ko":"아타르트","type":"Principal subdivision","labelLongitude":14.432,"labelLatitude":35.888,"minZoom":11},"geometry":{"type":"Polygon","coordinates":[[[14.423,35.9],[14.428,35.898],[14.432,35.895],[14.435,35.895],[14.44,35.895],[14.446,35.895],[14.449,35.892],[14.452,35.89],[14.458,35.889],[14.457,35.886],[14.455,35.883],[14.443,35.882],[14.437,35.882],[14.434,35.879],[14.429,35.879],[14.423,35.879],[14.418,35.88],[14.413,35.879],[14.411,35.884],[14.411,35.887],[14.412,35.891],[14.413,35.894],[14.413,35.898],[14.416,35.899],[14.423,35.9]]]}},{"type":"Feature","id":"MT-02","properties":{"id":"MT-02","countryCode":"MT","isoSubdivision":"MT-02","name":"Balzan","name_en":"Balzan","name_ko":"발찬","type":"Principal subdivision","labelLongitude":14.452,"labelLatitude":35.895,"minZoom":11},"geometry":{"type":"Polygon","coordinates":[[[14.449,35.901],[14.455,35.899],[14.457,35.896],[14.458,35.893],[14.458,35.889],[14.452,35.89],[14.449,35.892],[14.446,35.895],[14.449,35.901]]]}},{"type":"Feature","id":"MT-03","properties":{"id":"MT-03","countryCode":"MT","isoSubdivision":"MT-03","name":"Birgu","name_en":"Birgu","name_ko":"비르구","type":"Principal subdivision","labelLongitude":14.526,"labelLatitude":35.887,"minZoom":11},"geometry":{"type":"Polygon","coordinates":[[[14.521,35.887],[14.515,35.891],[14.519,35.894],[14.525,35.89],[14.529,35.889],[14.529,35.882],[14.521,35.887]]]}},{"type":"Feature","id":"MT-04","properties":{"id":"MT-04","countryCode":"MT","isoSubdivision":"MT-04","name":"Birkirkara","name_en":"Birkirkara","name_ko":"비르키르카라","type":"Principal subdivision","labelLongitude":14.466,"labelLatitude":35.893,"minZoom":11},"geometry":{"type":"Polygon","coordinates":[[[14.455,35.899],[14.459,35.9],[14.463,35.901],[14.472,35.899],[14.476,35.896],[14.477,35.894],[14.474,35.892],[14.472,35.891],[14.472,35.888],[14.47,35.884],[14.464,35.885],[14.458,35.889],[14.458,35.893],[14.457,35.896],[14.455,35.899]]]}},{"type":"Feature","id":"MT-05","properties":{"id":"MT-05","countryCode":"MT","isoSubdivision":"MT-05","name":"Birżebbuġa","name_en":"Birżebbuġa","name_ko":"비르제부자","type":"Principal subdivision","labelLongitude":14.524,"labelLatitude":35.828,"minZoom":11},"geometry":{"type":"Polygon","coordinates":[[[14.54,35.829],[14.532,35.822],[14.528,35.814],[14.528,35.801],[14.511,35.806],[14.507,35.809],[14.498,35.809],[14.499,35.812],[14.5,35.814],[14.498,35.817],[14.499,35.82],[14.502,35.82],[14.507,35.818],[14.512,35.819],[14.513,35.821],[14.51,35.826],[14.509,35.83],[14.513,35.83],[14.515,35.832],[14.516,35.835],[14.519,35.836],[14.524,35.837],[14.525,35.84],[14.529,35.84],[14.533,35.838],[14.538,35.834],[14.54,35.829]]]}},{"type":"Feature","id":"MT-06","properties":{"id":"MT-06","countryCode":"MT","isoSubdivision":"MT-06","name":"Cospicua","name_en":"Cospicua","name_ko":"보름라","type":"Principal subdivision","labelLongitude":14.521,"labelLatitude":35.88,"minZoom":11},"geometry":{"type":"Polygon","coordinates":[[[14.529,35.882],[14.527,35.878],[14.527,35.874],[14.523,35.874],[14.517,35.874],[14.514,35.874],[14.511,35.876],[14.514,35.88],[14.521,35.887],[14.529,35.882]]]}},{"type":"Feature","id":"MT-07","properties":{"id":"MT-07","countryCode":"MT","isoSubdivision":"MT-07","name":"Dingli","name_en":"Dingli","name_ko":"딩글리","type":"Principal subdivision","labelLongitude":14.387,"labelLatitude":35.859,"minZoom":11},"geometry":{"type":"Polygon","coordinates":[[[14.389,35.84],[14.382,35.843],[14.365,35.864],[14.37,35.867],[14.377,35.867],[14.388,35.868],[14.393,35.868],[14.395,35.866],[14.396,35.863],[14.399,35.86],[14.398,35.857],[14.394,35.851],[14.39,35.848],[14.389,35.84]]]}},{"type":"Feature","id":"MT-08","properties":{"id":"MT-08","countryCode":"MT","isoSubdivision":"MT-08","name":"Fgura","name_en":"Fgura","name_ko":"프구라","type":"Principal subdivision","labelLongitude":14.52,"labelLatitude":35.869,"minZoom":11},"geometry":{"type":"Polygon","coordinates":[[[14.525,35.866],[14.522,35.865],[14.519,35.864],[14.518,35.861],[14.516,35.86],[14.515,35.863],[14.516,35.866],[14.513,35.868],[14.508,35.869],[14.514,35.874],[14.517,35.874],[14.523,35.874],[14.527,35.874],[14.529,35.874],[14.528,35.871],[14.526,35.869],[14.525,35.866]]]}},{"type":"Feature","id":"MT-09","properties":{"id":"MT-09","countryCode":"MT","isoSubdivision":"MT-09","name":"Floriana","name_en":"Floriana","name_ko":"플로리아나","type":"Principal subdivision","labelLongitude":14.503,"labelLatitude":35.888,"minZoom":11},"geometry":{"type":"Polygon","coordinates":[[[14.498,35.893],[14.502,35.895],[14.511,35.889],[14.508,35.885],[14.505,35.882],[14.501,35.88],[14.499,35.883],[14.497,35.884],[14.498,35.886],[14.496,35.888],[14.498,35.893]]]}},{"type":"Feature","id":"MT-10","properties":{"id":"MT-10","countryCode":"MT","isoSubdivision":"MT-10","name":"Fontana","name_en":"Fontana","name_ko":"폰타나","type":"Principal subdivision","labelLongitude":14.24,"labelLatitude":36.033,"minZoom":11},"geometry":{"type":"Polygon","coordinates":[[[14.235,36.032],[14.236,36.038],[14.239,36.038],[14.241,36.036],[14.244,36.034],[14.245,36.031],[14.241,36.028],[14.237,36.029],[14.235,36.032]]]}},{"type":"Feature","id":"MT-11","properties":{"id":"MT-11","countryCode":"MT","isoSubdivision":"MT-11","name":"Gudja","name_en":"Gudja","name_ko":"구디아","type":"Principal subdivision","labelLongitude":14.502,"labelLatitude":35.845,"minZoom":11},"geometry":{"type":"Polygon","coordinates":[[[14.51,35.85],[14.509,35.847],[14.507,35.846],[14.506,35.843],[14.506,35.84],[14.506,35.838],[14.503,35.837],[14.499,35.839],[14.497,35.841],[14.496,35.845],[14.496,35.847],[14.494,35.851],[14.503,35.85],[14.51,35.85]]]}},{"type":"Feature","id":"MT-12","properties":{"id":"MT-12","countryCode":"MT","isoSubdivision":"MT-12","name":"Gżira","name_en":"Gżira","name_ko":"그지라","type":"Principal subdivision","labelLongitude":14.491,"labelLatitude":35.903,"minZoom":11},"geometry":{"type":"Polygon","coordinates":[[[14.507,35.899],[14.502,35.895],[14.498,35.897],[14.489,35.897],[14.486,35.9],[14.489,35.905],[14.493,35.907],[14.497,35.904],[14.507,35.902],[14.507,35.899]]]}},{"type":"Feature","id":"MT-13","properties":{"id":"MT-13","countryCode":"MT","isoSubdivision":"MT-13","name":"Għajnsielem","name_en":"Għajnsielem","name_ko":"아인실렘","type":"Principal subdivision","labelLongitude":14.285,"labelLatitude":36.025,"minZoom":11},"geometry":{"type":"Polygon","coordinates":[[[14.3,36.025],[14.278,36.017],[14.274,36.016],[14.272,36.019],[14.272,36.02],[14.276,36.024],[14.277,36.028],[14.279,36.03],[14.281,36.033],[14.285,36.031],[14.289,36.03],[14.297,36.03],[14.299,36.028],[14.3,36.025]]]}},{"type":"Feature","id":"MT-14","properties":{"id":"MT-14","countryCode":"MT","isoSubdivision":"MT-14","name":"Għarb","name_en":"Għarb","name_ko":"아르프","type":"Principal subdivision","labelLongitude":14.206,"labelLatitude":36.062,"minZoom":11},"geometry":{"type":"Polygon","coordinates":[[[14.184,36.065],[14.195,36.068],[14.213,36.07],[14.212,36.066],[14.216,36.063],[14.218,36.058],[14.219,36.051],[14.212,36.052],[14.208,36.054],[14.206,36.057],[14.202,36.056],[14.191,36.059],[14.184,36.065]]]}},{"type":"Feature","id":"MT-15","properties":{"id":"MT-15","countryCode":"MT","isoSubdivision":"MT-15","name":"Għargħur","name_en":"Għargħur","name_ko":"아르우르","type":"Principal subdivision","labelLongitude":14.455,"labelLatitude":35.919,"minZoom":11},"geometry":{"type":"Polygon","coordinates":[[[14.451,35.913],[14.447,35.916],[14.447,35.92],[14.448,35.926],[14.451,35.927],[14.455,35.929],[14.455,35.926],[14.46,35.924],[14.46,35.92],[14.463,35.916],[14.464,35.912],[14.462,35.909],[14.458,35.912],[14.455,35.913],[14.451,35.913]]]}},{"type":"Feature","id":"MT-16","properties":{"id":"MT-16","countryCode":"MT","isoSubdivision":"MT-16","name":"Għasri","name_en":"Għasri","name_ko":"아스리","type":"Principal subdivision","labelLongitude":14.225,"labelLatitude":36.063,"minZoom":11},"geometry":{"type":"Polygon","coordinates":[[[14.213,36.07],[14.234,36.073],[14.23,36.069],[14.23,36.063],[14.231,36.057],[14.233,36.057],[14.237,36.058],[14.239,36.055],[14.239,36.049],[14.235,36.05],[14.23,36.049],[14.229,36.048],[14.222,36.049],[14.219,36.051],[14.218,36.058],[14.216,36.063],[14.212,36.066],[14.213,36.07]]]}},{"type":"Feature","id":"MT-17","properties":{"id":"MT-17","countryCode":"MT","isoSubdivision":"MT-17","name":"Għaxaq","name_en":"Għaxaq","name_ko":"아샤","type":"Principal subdivision","labelLongitude":14.515,"labelLatitude":35.842,"minZoom":11},"geometry":{"type":"Polygon","coordinates":[[[14.525,35.84],[14.524,35.837],[14.519,35.836],[14.516,35.835],[14.515,35.832],[14.513,35.83],[14.509,35.83],[14.507,35.833],[14.503,35.837],[14.506,35.838],[14.506,35.84],[14.506,35.843],[14.507,35.846],[14.509,35.847],[14.51,35.85],[14.51,35.852],[14.51,35.855],[14.511,35.857],[14.516,35.856],[14.52,35.851],[14.525,35.845],[14.525,35.84]]]}},{"type":"Feature","id":"MT-18","properties":{"id":"MT-18","countryCode":"MT","isoSubdivision":"MT-18","name":"Ħamrun","name_en":"Ħamrun","name_ko":"함룬","type":"Principal subdivision","labelLongitude":14.487,"labelLatitude":35.882,"minZoom":11},"geometry":{"type":"Polygon","coordinates":[[[14.484,35.876],[14.479,35.882],[14.481,35.884],[14.487,35.886],[14.491,35.886],[14.496,35.888],[14.498,35.886],[14.497,35.884],[14.492,35.882],[14.49,35.876],[14.484,35.876]]]}},{"type":"Feature","id":"MT-19","properties":{"id":"MT-19","countryCode":"MT","isoSubdivision":"MT-19","name":"Iklin","name_en":"Iklin","name_ko":"이클린","type":"Principal subdivision","labelLongitude":14.455,"labelLatitude":35.905,"minZoom":11},"geometry":{"type":"Polygon","coordinates":[[[14.451,35.913],[14.455,35.913],[14.458,35.912],[14.462,35.909],[14.463,35.901],[14.459,35.9],[14.455,35.899],[14.449,35.901],[14.447,35.904],[14.45,35.906],[14.448,35.909],[14.451,35.913]]]}},{"type":"Feature","id":"MT-20","properties":{"id":"MT-20","countryCode":"MT","isoSubdivision":"MT-20","name":"Senglea","name_en":"Senglea","name_ko":"셍글레아","type":"Principal subdivision","labelLongitude":14.515,"labelLatitude":35.886,"minZoom":11},"geometry":{"type":"Polygon","coordinates":[[[14.511,35.889],[14.515,35.891],[14.521,35.887],[14.514,35.88],[14.508,35.885],[14.511,35.889]]]}},{"type":"Feature","id":"MT-21","properties":{"id":"MT-21","countryCode":"MT","isoSubdivision":"MT-21","name":"Kalkara","name_en":"Kalkara","name_ko":"칼카라","type":"Principal subdivision","labelLongitude":14.535,"labelLatitude":35.887,"minZoom":11},"geometry":{"type":"Polygon","coordinates":[[[14.525,35.898],[14.548,35.89],[14.541,35.886],[14.54,35.883],[14.533,35.883],[14.529,35.882],[14.529,35.889],[14.525,35.89],[14.519,35.894],[14.525,35.898]]]}},{"type":"Feature","id":"MT-22","properties":{"id":"MT-22","countryCode":"MT","isoSubdivision":"MT-22","name":"Kerċem","name_en":"Kerċem","name_ko":"케르쳄","type":"Principal subdivision","labelLongitude":14.215,"labelLatitude":36.036,"minZoom":11},"geometry":{"type":"Polygon","coordinates":[[[14.21,36.023],[14.201,36.026],[14.195,36.029],[14.2,36.035],[14.207,36.041],[14.207,36.045],[14.21,36.047],[14.212,36.052],[14.219,36.051],[14.222,36.049],[14.229,36.048],[14.231,36.045],[14.233,36.041],[14.235,36.04],[14.236,36.038],[14.235,36.032],[14.23,36.033],[14.226,36.033],[14.223,36.032],[14.216,36.028],[14.21,36.023]]]}},{"type":"Feature","id":"MT-23","properties":{"id":"MT-23","countryCode":"MT","isoSubdivision":"MT-23","name":"Kirkop","name_en":"Kirkop","name_ko":"키르코프","type":"Principal subdivision","labelLongitude":14.484,"labelLatitude":35.841,"minZoom":11},"geometry":{"type":"Polygon","coordinates":[[[14.484,35.834],[14.481,35.837],[14.476,35.838],[14.478,35.842],[14.48,35.844],[14.478,35.846],[14.482,35.848],[14.484,35.847],[14.487,35.844],[14.489,35.843],[14.49,35.84],[14.484,35.834]]]}},{"type":"Feature","id":"MT-24","properties":{"id":"MT-24","countryCode":"MT","isoSubdivision":"MT-24","name":"Lija","name_en":"Lija","name_ko":"리야","type":"Principal subdivision","labelLongitude":14.441,"labelLatitude":35.899,"minZoom":11},"geometry":{"type":"Polygon","coordinates":[[[14.435,35.895],[14.433,35.901],[14.433,35.904],[14.435,35.906],[14.441,35.903],[14.447,35.904],[14.449,35.901],[14.446,35.895],[14.44,35.895],[14.435,35.895]]]}},{"type":"Feature","id":"MT-25","properties":{"id":"MT-25","countryCode":"MT","isoSubdivision":"MT-25","name":"Luqa","name_en":"Luqa","name_ko":"루아","type":"Principal subdivision","labelLongitude":14.483,"labelLatitude":35.856,"minZoom":11},"geometry":{"type":"Polygon","coordinates":[[[14.47,35.86],[14.477,35.869],[14.48,35.872],[14.482,35.869],[14.482,35.866],[14.485,35.866],[14.489,35.863],[14.493,35.863],[14.495,35.858],[14.495,35.854],[14.494,35.851],[14.496,35.847],[14.496,35.845],[14.497,35.841],[14.499,35.839],[14.503,35.837],[14.507,35.833],[14.509,35.83],[14.504,35.829],[14.499,35.834],[14.495,35.837],[14.49,35.84],[14.489,35.843],[14.487,35.844],[14.484,35.847],[14.482,35.848],[14.478,35.846],[14.473,35.848],[14.469,35.849],[14.465,35.847],[14.461,35.845],[14.457,35.847],[14.458,35.849],[14.462,35.85],[14.466,35.853],[14.47,35.856],[14.47,35.86]]]}},{"type":"Feature","id":"MT-26","properties":{"id":"MT-26","countryCode":"MT","isoSubdivision":"MT-26","name":"Marsa","name_en":"Marsa","name_ko":"마르사","type":"Principal subdivision","labelLongitude":14.493,"labelLatitude":35.872,"minZoom":11},"geometry":{"type":"Polygon","coordinates":[[[14.48,35.872],[14.481,35.874],[14.484,35.876],[14.49,35.876],[14.492,35.882],[14.497,35.884],[14.499,35.883],[14.501,35.88],[14.5,35.874],[14.498,35.867],[14.493,35.863],[14.489,35.863],[14.485,35.866],[14.482,35.866],[14.482,35.869],[14.48,35.872]]]}},{"type":"Feature","id":"MT-27","properties":{"id":"MT-27","countryCode":"MT","isoSubdivision":"MT-27","name":"Marsaskala","name_en":"Marsaskala","name_ko":"마르사스칼라","type":"Principal subdivision","labelLongitude":14.554,"labelLatitude":35.854,"minZoom":11},"geometry":{"type":"Polygon","coordinates":[[[14.561,35.873],[14.563,35.87],[14.567,35.846],[14.566,35.842],[14.559,35.843],[14.554,35.844],[14.548,35.846],[14.547,35.848],[14.547,35.85],[14.548,35.852],[14.546,35.856],[14.543,35.861],[14.546,35.863],[14.549,35.863],[14.551,35.866],[14.552,35.869],[14.561,35.873]]]}},{"type":"Feature","id":"MT-28","properties":{"id":"MT-28","countryCode":"MT","isoSubdivision":"MT-28","name":"Marsaxlokk","name_en":"Marsaxlokk","name_ko":"마르사실로크","type":"Principal subdivision","labelLongitude":14.546,"labelLatitude":35.839,"minZoom":11},"geometry":{"type":"Polygon","coordinates":[[[14.566,35.842],[14.562,35.83],[14.548,35.836],[14.54,35.829],[14.538,35.834],[14.533,35.838],[14.529,35.84],[14.525,35.84],[14.525,35.845],[14.531,35.844],[14.533,35.846],[14.539,35.845],[14.545,35.843],[14.548,35.846],[14.554,35.844],[14.559,35.843],[14.566,35.842]]]}},{"type":"Feature","id":"MT-29","properties":{"id":"MT-29","countryCode":"MT","isoSubdivision":"MT-29","name":"Mdina","name_en":"Mdina","name_ko":"므디나","type":"Principal subdivision","labelLongitude":14.409,"labelLatitude":35.882,"minZoom":11},"geometry":{"type":"Polygon","coordinates":[[[14.402,35.882],[14.404,35.883],[14.407,35.884],[14.411,35.884],[14.413,35.879],[14.41,35.88],[14.405,35.88],[14.402,35.882]]]}},{"type":"Feature","id":"MT-30","properties":{"id":"MT-30","countryCode":"MT","isoSubdivision":"MT-30","name":"Mellieħa","name_en":"Mellieħa","name_ko":"멜리하","type":"Principal subdivision","labelLongitude":14.358,"labelLatitude":35.956,"minZoom":11},"geometry":{"type":"Polygon","coordinates":[[[14.341,35.926],[14.338,35.947],[14.333,35.963],[14.322,35.973],[14.335,35.982],[14.348,35.989],[14.362,35.992],[14.377,35.994],[14.377,35.986],[14.368,35.985],[14.362,35.982],[14.349,35.973],[14.406,35.968],[14.4,35.955],[14.39,35.953],[14.383,35.949],[14.375,35.947],[14.372,35.945],[14.372,35.941],[14.374,35.936],[14.372,35.934],[14.365,35.934],[14.362,35.931],[14.354,35.928],[14.347,35.927],[14.341,35.926]]]}},{"type":"Feature","id":"MT-31","properties":{"id":"MT-31","countryCode":"MT","isoSubdivision":"MT-31","name":"Mġarr","name_en":"Mġarr","name_ko":"므자르","type":"Principal subdivision","labelLongitude":14.366,"labelLatitude":35.915,"minZoom":11},"geometry":{"type":"Polygon","coordinates":[[[14.343,35.9],[14.343,35.912],[14.341,35.926],[14.347,35.927],[14.354,35.928],[14.362,35.931],[14.365,35.934],[14.372,35.934],[14.374,35.936],[14.379,35.935],[14.381,35.933],[14.38,35.93],[14.377,35.928],[14.377,35.925],[14.381,35.925],[14.388,35.924],[14.39,35.922],[14.391,35.916],[14.392,35.912],[14.396,35.91],[14.4,35.908],[14.403,35.908],[14.404,35.905],[14.4,35.904],[14.394,35.904],[14.387,35.903],[14.381,35.903],[14.378,35.9],[14.375,35.899],[14.371,35.901],[14.368,35.899],[14.364,35.899],[14.361,35.897],[14.359,35.895],[14.355,35.895],[14.351,35.899],[14.347,35.898],[14.343,35.9]]]}},{"type":"Feature","id":"MT-32","properties":{"id":"MT-32","countryCode":"MT","isoSubdivision":"MT-32","name":"Mosta","name_en":"Mosta","name_ko":"모스타","type":"Principal subdivision","labelLongitude":14.421,"labelLatitude":35.908,"minZoom":11},"geometry":{"type":"Polygon","coordinates":[[[14.404,35.905],[14.403,35.908],[14.406,35.91],[14.41,35.912],[14.412,35.913],[14.411,35.915],[14.407,35.916],[14.404,35.918],[14.402,35.921],[14.399,35.922],[14.396,35.922],[14.394,35.923],[14.397,35.924],[14.405,35.926],[14.41,35.925],[14.414,35.922],[14.416,35.921],[14.418,35.917],[14.42,35.916],[14.423,35.917],[14.426,35.92],[14.43,35.92],[14.432,35.917],[14.433,35.914],[14.434,35.911],[14.434,35.908],[14.435,35.906],[14.433,35.904],[14.433,35.901],[14.435,35.895],[14.432,35.895],[14.428,35.898],[14.423,35.9],[14.416,35.899],[14.413,35.898],[14.41,35.9],[14.407,35.902],[14.404,35.905]]]}},{"type":"Feature","id":"MT-33","properties":{"id":"MT-33","countryCode":"MT","isoSubdivision":"MT-33","name":"Mqabba","name_en":"Mqabba","name_ko":"므아바","type":"Principal subdivision","labelLongitude":14.467,"labelLatitude":35.843,"minZoom":11},"geometry":{"type":"Polygon","coordinates":[[[14.451,35.839],[14.453,35.843],[14.454,35.846],[14.457,35.847],[14.461,35.845],[14.465,35.847],[14.469,35.849],[14.473,35.848],[14.478,35.846],[14.48,35.844],[14.478,35.842],[14.476,35.838],[14.473,35.838],[14.467,35.838],[14.461,35.837],[14.456,35.838],[14.451,35.839]]]}},{"type":"Feature","id":"MT-34","properties":{"id":"MT-34","countryCode":"MT","isoSubdivision":"MT-34","name":"Msida","name_en":"Msida","name_ko":"므시다","type":"Principal subdivision","labelLongitude":14.483,"labelLatitude":35.895,"minZoom":11},"geometry":{"type":"Polygon","coordinates":[[[14.487,35.886],[14.482,35.89],[14.477,35.891],[14.474,35.892],[14.477,35.894],[14.476,35.896],[14.472,35.899],[14.476,35.9],[14.486,35.9],[14.489,35.897],[14.489,35.892],[14.489,35.889],[14.487,35.886]]]}},{"type":"Feature","id":"MT-35","properties":{"id":"MT-35","countryCode":"MT","isoSubdivision":"MT-35","name":"Mtarfa","name_en":"Mtarfa","name_ko":"므타르파","type":"Principal subdivision","labelLongitude":14.405,"labelLatitude":35.887,"minZoom":11},"geometry":{"type":"Polygon","coordinates":[[[14.402,35.882],[14.396,35.883],[14.396,35.887],[14.399,35.89],[14.404,35.89],[14.408,35.89],[14.412,35.891],[14.411,35.887],[14.411,35.884],[14.407,35.884],[14.404,35.883],[14.402,35.882]]]}},{"type":"Feature","id":"MT-36","properties":{"id":"MT-36","countryCode":"MT","isoSubdivision":"MT-36","name":"Munxar","name_en":"Munxar","name_ko":"문샤르","type":"Principal subdivision","labelLongitude":14.228,"labelLatitude":36.025,"minZoom":11},"geometry":{"type":"Polygon","coordinates":[[[14.233,36.017],[14.221,36.019],[14.21,36.023],[14.216,36.028],[14.223,36.032],[14.226,36.033],[14.23,36.033],[14.235,36.032],[14.237,36.029],[14.241,36.028],[14.24,36.027],[14.238,36.023],[14.234,36.019],[14.233,36.017]]]}},{"type":"Feature","id":"MT-37","properties":{"id":"MT-37","countryCode":"MT","isoSubdivision":"MT-37","name":"Nadur","name_en":"Nadur","name_ko":"나두르","type":"Principal subdivision","labelLongitude":14.298,"labelLatitude":36.045,"minZoom":11},"geometry":{"type":"Polygon","coordinates":[[[14.289,36.064],[14.315,36.051],[14.32,36.046],[14.316,36.044],[14.312,36.042],[14.309,36.041],[14.308,36.039],[14.308,36.034],[14.305,36.031],[14.297,36.03],[14.289,36.03],[14.285,36.031],[14.281,36.033],[14.281,36.038],[14.282,36.041],[14.283,36.045],[14.286,36.046],[14.286,36.058],[14.289,36.064]]]}},{"type":"Feature","id":"MT-38","properties":{"id":"MT-38","countryCode":"MT","isoSubdivision":"MT-38","name":"Naxxar","name_en":"Naxxar","name_ko":"나샤르","type":"Principal subdivision","labelLongitude":14.438,"labelLatitude":35.929,"minZoom":11},"geometry":{"type":"Polygon","coordinates":[[[14.438,35.963],[14.445,35.96],[14.465,35.947],[14.463,35.936],[14.463,35.929],[14.455,35.929],[14.451,35.927],[14.448,35.926],[14.447,35.92],[14.447,35.916],[14.451,35.913],[14.448,35.909],[14.45,35.906],[14.447,35.904],[14.441,35.903],[14.435,35.906],[14.434,35.908],[14.434,35.911],[14.433,35.914],[14.432,35.917],[14.43,35.92],[14.426,35.92],[14.422,35.924],[14.421,35.926],[14.422,35.927],[14.422,35.93],[14.42,35.934],[14.421,35.938],[14.424,35.943],[14.431,35.951],[14.438,35.963]]]}},{"type":"Feature","id":"MT-39","properties":{"id":"MT-39","countryCode":"MT","isoSubdivision":"MT-39","name":"Paola","name_en":"Paola","name_ko":"파올라","type":"Principal subdivision","labelLongitude":14.505,"labelLatitude":35.873,"minZoom":11},"geometry":{"type":"Polygon","coordinates":[[[14.508,35.869],[14.505,35.866],[14.503,35.863],[14.5,35.861],[14.495,35.858],[14.493,35.863],[14.498,35.867],[14.5,35.874],[14.501,35.88],[14.505,35.882],[14.508,35.885],[14.514,35.88],[14.511,35.876],[14.514,35.874],[14.508,35.869]]]}},{"type":"Feature","id":"MT-40","properties":{"id":"MT-40","countryCode":"MT","isoSubdivision":"MT-40","name":"Pembroke","name_en":"Pembroke","name_ko":"펨브로크","type":"Principal subdivision","labelLongitude":14.476,"labelLatitude":35.928,"minZoom":11},"geometry":{"type":"Polygon","coordinates":[[[14.465,35.947],[14.479,35.937],[14.501,35.93],[14.491,35.924],[14.484,35.923],[14.484,35.92],[14.476,35.919],[14.472,35.92],[14.471,35.925],[14.467,35.927],[14.463,35.929],[14.463,35.936],[14.465,35.947]]]}},{"type":"Feature","id":"MT-41","properties":{"id":"MT-41","countryCode":"MT","isoSubdivision":"MT-41","name":"Pietà","name_en":"Pietà","name_ko":"피타","type":"Principal subdivision","labelLongitude":14.493,"labelLatitude":35.889,"minZoom":11},"geometry":{"type":"Polygon","coordinates":[[[14.498,35.893],[14.496,35.888],[14.491,35.886],[14.487,35.886],[14.489,35.889],[14.489,35.892],[14.493,35.892],[14.498,35.893]]]}},{"type":"Feature","id":"MT-42","properties":{"id":"MT-42","countryCode":"MT","isoSubdivision":"MT-42","name":"Qala","name_en":"Qala","name_ko":"알라","type":"Principal subdivision","labelLongitude":14.316,"labelLatitude":36.033,"minZoom":11},"geometry":{"type":"Polygon","coordinates":[[[14.32,36.046],[14.334,36.034],[14.322,36.027],[14.304,36.027],[14.3,36.025],[14.299,36.028],[14.297,36.03],[14.305,36.031],[14.308,36.034],[14.308,36.039],[14.309,36.041],[14.312,36.042],[14.316,36.044],[14.32,36.046]]]}},{"type":"Feature","id":"MT-43","properties":{"id":"MT-43","countryCode":"MT","isoSubdivision":"MT-43","name":"Qormi","name_en":"Qormi","name_ko":"오르미","type":"Principal subdivision","labelLongitude":14.468,"labelLatitude":35.875,"minZoom":11},"geometry":{"type":"Polygon","coordinates":[[[14.463,35.863],[14.463,35.866],[14.463,35.869],[14.46,35.871],[14.455,35.872],[14.452,35.874],[14.452,35.878],[14.453,35.88],[14.455,35.883],[14.457,35.886],[14.458,35.889],[14.464,35.885],[14.47,35.884],[14.474,35.883],[14.479,35.882],[14.484,35.876],[14.481,35.874],[14.48,35.872],[14.477,35.869],[14.47,35.86],[14.467,35.86],[14.463,35.863]]]}},{"type":"Feature","id":"MT-44","properties":{"id":"MT-44","countryCode":"MT","isoSubdivision":"MT-44","name":"Qrendi","name_en":"Qrendi","name_ko":"렌디","type":"Principal subdivision","labelLongitude":14.453,"labelLatitude":35.831,"minZoom":11},"geometry":{"type":"Polygon","coordinates":[[[14.454,35.816],[14.429,35.823],[14.432,35.828],[14.436,35.83],[14.441,35.83],[14.441,35.832],[14.441,35.835],[14.444,35.838],[14.447,35.838],[14.451,35.839],[14.456,35.838],[14.461,35.837],[14.467,35.838],[14.468,35.835],[14.465,35.834],[14.465,35.832],[14.467,35.83],[14.465,35.828],[14.462,35.826],[14.456,35.821],[14.454,35.816]]]}},{"type":"Feature","id":"MT-45","properties":{"id":"MT-45","countryCode":"MT","isoSubdivision":"MT-45","name":"Victoria","name_en":"Victoria","name_ko":"빅토리아","type":"Principal subdivision","labelLongitude":14.244,"labelLatitude":36.041,"minZoom":11},"geometry":{"type":"Polygon","coordinates":[[[14.236,36.038],[14.235,36.04],[14.233,36.041],[14.231,36.045],[14.229,36.048],[14.23,36.049],[14.235,36.05],[14.239,36.049],[14.245,36.046],[14.251,36.046],[14.253,36.042],[14.256,36.04],[14.255,36.037],[14.254,36.032],[14.251,36.032],[14.247,36.032],[14.245,36.031],[14.244,36.034],[14.241,36.036],[14.239,36.038],[14.236,36.038]]]}},{"type":"Feature","id":"MT-46","properties":{"id":"MT-46","countryCode":"MT","isoSubdivision":"MT-46","name":"Rabat","name_en":"Rabat","name_ko":"라바트","type":"Principal subdivision","labelLongitude":14.377,"labelLatitude":35.883,"minZoom":11},"geometry":{"type":"Polygon","coordinates":[[[14.365,35.864],[14.363,35.867],[14.36,35.87],[14.346,35.876],[14.343,35.881],[14.343,35.9],[14.347,35.898],[14.351,35.899],[14.355,35.895],[14.359,35.895],[14.361,35.897],[14.364,35.899],[14.368,35.899],[14.371,35.901],[14.375,35.899],[14.378,35.9],[14.381,35.903],[14.387,35.903],[14.394,35.904],[14.4,35.904],[14.404,35.905],[14.407,35.902],[14.41,35.9],[14.413,35.898],[14.413,35.894],[14.412,35.891],[14.408,35.89],[14.404,35.89],[14.399,35.89],[14.396,35.887],[14.396,35.883],[14.402,35.882],[14.405,35.88],[14.41,35.88],[14.413,35.879],[14.413,35.875],[14.414,35.874],[14.416,35.864],[14.413,35.86],[14.407,35.859],[14.399,35.86],[14.396,35.863],[14.395,35.866],[14.393,35.868],[14.388,35.868],[14.377,35.867],[14.37,35.867],[14.365,35.864]]]}},{"type":"Feature","id":"MT-47","properties":{"id":"MT-47","countryCode":"MT","isoSubdivision":"MT-47","name":"Safi","name_en":"Safi","name_ko":"사피","type":"Principal subdivision","labelLongitude":14.49,"labelLatitude":35.832,"minZoom":11},"geometry":{"type":"Polygon","coordinates":[[[14.486,35.825],[14.483,35.826],[14.48,35.829],[14.479,35.831],[14.484,35.834],[14.49,35.84],[14.495,35.837],[14.499,35.834],[14.504,35.829],[14.501,35.827],[14.498,35.827],[14.494,35.829],[14.491,35.827],[14.486,35.825]]]}},{"type":"Feature","id":"MT-48","properties":{"id":"MT-48","countryCode":"MT","isoSubdivision":"MT-48","name":"St. Julian's","name_en":"St. Julian's","name_ko":"산질리안","type":"Principal subdivision","labelLongitude":14.49,"labelLatitude":35.913,"minZoom":11},"geometry":{"type":"Polygon","coordinates":[[[14.501,35.93],[14.508,35.929],[14.51,35.925],[14.496,35.915],[14.493,35.907],[14.489,35.905],[14.486,35.907],[14.483,35.909],[14.482,35.912],[14.486,35.915],[14.486,35.918],[14.484,35.92],[14.484,35.923],[14.491,35.924],[14.501,35.93]]]}},{"type":"Feature","id":"MT-49","properties":{"id":"MT-49","countryCode":"MT","isoSubdivision":"MT-49","name":"San Ġwann","name_en":"San Ġwann","name_ko":"산즈완","type":"Principal subdivision","labelLongitude":14.476,"labelLatitude":35.905,"minZoom":11},"geometry":{"type":"Polygon","coordinates":[[[14.48,35.914],[14.482,35.912],[14.483,35.909],[14.486,35.907],[14.489,35.905],[14.486,35.9],[14.476,35.9],[14.472,35.899],[14.463,35.901],[14.462,35.909],[14.464,35.912],[14.466,35.911],[14.472,35.911],[14.477,35.912],[14.48,35.914]]]}},{"type":"Feature","id":"MT-50","properties":{"id":"MT-50","countryCode":"MT","isoSubdivision":"MT-50","name":"Saint Lawrence","name_en":"Saint Lawrence","name_ko":"산라우렌츠","type":"Principal subdivision","labelLongitude":14.197,"labelLatitude":36.047,"minZoom":11},"geometry":{"type":"Polygon","coordinates":[[[14.195,36.029],[14.185,36.035],[14.188,36.045],[14.184,36.056],[14.184,36.065],[14.191,36.059],[14.202,36.056],[14.206,36.057],[14.208,36.054],[14.212,36.052],[14.21,36.047],[14.207,36.045],[14.207,36.041],[14.2,36.035],[14.195,36.029]]]}},{"type":"Feature","id":"MT-51","properties":{"id":"MT-51","countryCode":"MT","isoSubdivision":"MT-51","name":"St. Paul's Bay","name_en":"St. Paul's Bay","name_ko":"산파울일바하르","type":"Principal subdivision","labelLongitude":14.404,"labelLatitude":35.941,"minZoom":11},"geometry":{"type":"Polygon","coordinates":[[[14.406,35.968],[14.428,35.966],[14.438,35.963],[14.431,35.951],[14.424,35.943],[14.421,35.938],[14.42,35.934],[14.422,35.93],[14.422,35.927],[14.421,35.926],[14.422,35.924],[14.426,35.92],[14.423,35.917],[14.42,35.916],[14.418,35.917],[14.416,35.921],[14.414,35.922],[14.41,35.925],[14.405,35.926],[14.397,35.924],[14.394,35.923],[14.396,35.922],[14.399,35.922],[14.402,35.921],[14.404,35.918],[14.407,35.916],[14.411,35.915],[14.412,35.913],[14.41,35.912],[14.406,35.91],[14.403,35.908],[14.4,35.908],[14.396,35.91],[14.392,35.912],[14.391,35.916],[14.39,35.922],[14.388,35.924],[14.381,35.925],[14.377,35.925],[14.377,35.928],[14.38,35.93],[14.381,35.933],[14.379,35.935],[14.374,35.936],[14.372,35.941],[14.372,35.945],[14.375,35.947],[14.383,35.949],[14.39,35.953],[14.4,35.955],[14.406,35.968]]]}},{"type":"Feature","id":"MT-52","properties":{"id":"MT-52","countryCode":"MT","isoSubdivision":"MT-52","name":"Sannat","name_en":"Sannat","name_ko":"산나트","type":"Principal subdivision","labelLongitude":14.251,"labelLatitude":36.02,"minZoom":11},"geometry":{"type":"Polygon","coordinates":[[[14.274,36.016],[14.26,36.013],[14.241,36.015],[14.233,36.017],[14.234,36.019],[14.238,36.023],[14.24,36.027],[14.244,36.026],[14.252,36.026],[14.256,36.025],[14.259,36.022],[14.264,36.021],[14.269,36.019],[14.272,36.019],[14.274,36.016]]]}},{"type":"Feature","id":"MT-53","properties":{"id":"MT-53","countryCode":"MT","isoSubdivision":"MT-53","name":"Santa Luċija","name_en":"Santa Luċija","name_ko":"산타루치야","type":"Principal subdivision","labelLongitude":14.503,"labelLatitude":35.853,"minZoom":11},"geometry":{"type":"Polygon","coordinates":[[[14.51,35.855],[14.51,35.852],[14.51,35.85],[14.503,35.85],[14.494,35.851],[14.495,35.854],[14.495,35.858],[14.498,35.857],[14.503,35.856],[14.51,35.855]]]}},{"type":"Feature","id":"MT-54","properties":{"id":"MT-54","countryCode":"MT","isoSubdivision":"MT-54","name":"Santa Venera","name_en":"Santa Venera","name_ko":"산타베네라","type":"Principal subdivision","labelLongitude":14.478,"labelLatitude":35.887,"minZoom":11},"geometry":{"type":"Polygon","coordinates":[[[14.479,35.882],[14.474,35.883],[14.47,35.884],[14.472,35.888],[14.472,35.891],[14.474,35.892],[14.477,35.891],[14.482,35.89],[14.487,35.886],[14.481,35.884],[14.479,35.882]]]}},{"type":"Feature","id":"MT-55","properties":{"id":"MT-55","countryCode":"MT","isoSubdivision":"MT-55","name":"Siġġiewi","name_en":"Siġġiewi","name_ko":"시지위","type":"Principal subdivision","labelLongitude":14.425,"labelLatitude":35.847,"minZoom":11},"geometry":{"type":"Polygon","coordinates":[[[14.429,35.823],[14.424,35.824],[14.389,35.84],[14.39,35.848],[14.394,35.851],[14.398,35.857],[14.399,35.86],[14.407,35.859],[14.413,35.86],[14.416,35.864],[14.42,35.864],[14.423,35.862],[14.429,35.86],[14.435,35.858],[14.441,35.86],[14.444,35.862],[14.446,35.864],[14.452,35.865],[14.456,35.865],[14.459,35.862],[14.461,35.861],[14.463,35.863],[14.467,35.86],[14.47,35.86],[14.47,35.856],[14.466,35.853],[14.462,35.85],[14.458,35.849],[14.457,35.847],[14.454,35.846],[14.453,35.843],[14.451,35.839],[14.447,35.838],[14.444,35.838],[14.441,35.835],[14.441,35.832],[14.441,35.83],[14.436,35.83],[14.432,35.828],[14.429,35.823]]]}},{"type":"Feature","id":"MT-56","properties":{"id":"MT-56","countryCode":"MT","isoSubdivision":"MT-56","name":"Sliema","name_en":"Sliema","name_ko":"슬리마","type":"Principal subdivision","labelLongitude":14.499,"labelLatitude":35.908,"minZoom":11},"geometry":{"type":"Polygon","coordinates":[[[14.51,35.925],[14.513,35.921],[14.514,35.911],[14.514,35.901],[14.507,35.899],[14.507,35.902],[14.497,35.904],[14.493,35.907],[14.496,35.915],[14.51,35.925]]]}},{"type":"Feature","id":"MT-57","properties":{"id":"MT-57","countryCode":"MT","isoSubdivision":"MT-57","name":"Swieqi","name_en":"Swieqi","name_ko":"스위이","type":"Principal subdivision","labelLongitude":14.47,"labelLatitude":35.917,"minZoom":11},"geometry":{"type":"Polygon","coordinates":[[[14.455,35.929],[14.463,35.929],[14.467,35.927],[14.471,35.925],[14.472,35.92],[14.476,35.919],[14.484,35.92],[14.486,35.918],[14.486,35.915],[14.482,35.912],[14.48,35.914],[14.477,35.912],[14.472,35.911],[14.466,35.911],[14.464,35.912],[14.463,35.916],[14.46,35.92],[14.46,35.924],[14.455,35.926],[14.455,35.929]]]}},{"type":"Feature","id":"MT-58","properties":{"id":"MT-58","countryCode":"MT","isoSubdivision":"MT-58","name":"Ta' Xbiex","name_en":"Ta' Xbiex","name_ko":"타시비시","type":"Principal subdivision","labelLongitude":14.495,"labelLatitude":35.895,"minZoom":11},"geometry":{"type":"Polygon","coordinates":[[[14.502,35.895],[14.498,35.893],[14.493,35.892],[14.489,35.892],[14.489,35.897],[14.498,35.897],[14.502,35.895]]]}},{"type":"Feature","id":"MT-59","properties":{"id":"MT-59","countryCode":"MT","isoSubdivision":"MT-59","name":"Tarxien","name_en":"Tarxien","name_ko":"타르신","type":"Principal subdivision","labelLongitude":14.509,"labelLatitude":35.862,"minZoom":11},"geometry":{"type":"Polygon","coordinates":[[[14.516,35.86],[14.513,35.858],[14.511,35.857],[14.51,35.855],[14.503,35.856],[14.498,35.857],[14.495,35.858],[14.5,35.861],[14.503,35.863],[14.505,35.866],[14.508,35.869],[14.513,35.868],[14.516,35.866],[14.515,35.863],[14.516,35.86]]]}},{"type":"Feature","id":"MT-60","properties":{"id":"MT-60","countryCode":"MT","isoSubdivision":"MT-60","name":"Valletta","name_en":"Valletta","name_ko":"발레타","type":"Principal subdivision","labelLongitude":14.511,"labelLatitude":35.895,"minZoom":11},"geometry":{"type":"Polygon","coordinates":[[[14.514,35.901],[14.519,35.9],[14.525,35.898],[14.519,35.894],[14.515,35.891],[14.511,35.889],[14.502,35.895],[14.507,35.899],[14.514,35.901]]]}},{"type":"Feature","id":"MT-61","properties":{"id":"MT-61","countryCode":"MT","isoSubdivision":"MT-61","name":"Xagħra","name_en":"Xagħra","name_ko":"샤라","type":"Principal subdivision","labelLongitude":14.272,"labelLatitude":36.051,"minZoom":11},"geometry":{"type":"Polygon","coordinates":[[[14.272,36.071],[14.283,36.068],[14.289,36.064],[14.286,36.058],[14.286,36.046],[14.283,36.045],[14.282,36.041],[14.281,36.038],[14.281,36.033],[14.275,36.037],[14.271,36.038],[14.267,36.037],[14.261,36.037],[14.255,36.037],[14.256,36.04],[14.253,36.042],[14.251,36.046],[14.253,36.046],[14.254,36.048],[14.253,36.051],[14.253,36.055],[14.257,36.058],[14.262,36.06],[14.268,36.06],[14.269,36.062],[14.268,36.065],[14.268,36.068],[14.272,36.071]]]}},{"type":"Feature","id":"MT-62","properties":{"id":"MT-62","countryCode":"MT","isoSubdivision":"MT-62","name":"Xewkija","name_en":"Xewkija","name_ko":"셰우키야","type":"Principal subdivision","labelLongitude":14.266,"labelLatitude":36.03,"minZoom":11},"geometry":{"type":"Polygon","coordinates":[[[14.24,36.027],[14.241,36.028],[14.245,36.031],[14.247,36.032],[14.251,36.032],[14.254,36.032],[14.255,36.037],[14.261,36.037],[14.267,36.037],[14.271,36.038],[14.275,36.037],[14.281,36.033],[14.279,36.03],[14.277,36.028],[14.276,36.024],[14.272,36.02],[14.272,36.019],[14.269,36.019],[14.264,36.021],[14.259,36.022],[14.256,36.025],[14.252,36.026],[14.244,36.026],[14.24,36.027]]]}},{"type":"Feature","id":"MT-63","properties":{"id":"MT-63","countryCode":"MT","isoSubdivision":"MT-63","name":"Xgħajra","name_en":"Xgħajra","name_ko":"샤이라","type":"Principal subdivision","labelLongitude":14.546,"labelLatitude":35.882,"minZoom":11},"geometry":{"type":"Polygon","coordinates":[[[14.548,35.89],[14.556,35.879],[14.548,35.877],[14.544,35.878],[14.54,35.883],[14.541,35.886],[14.548,35.89]]]}},{"type":"Feature","id":"MT-64","properties":{"id":"MT-64","countryCode":"MT","isoSubdivision":"MT-64","name":"Żabbar","name_en":"Żabbar","name_ko":"자바르","type":"Principal subdivision","labelLongitude":14.54,"labelLatitude":35.872,"minZoom":11},"geometry":{"type":"Polygon","coordinates":[[[14.556,35.879],[14.561,35.873],[14.552,35.869],[14.551,35.866],[14.549,35.863],[14.546,35.863],[14.543,35.861],[14.535,35.861],[14.532,35.864],[14.528,35.864],[14.525,35.866],[14.526,35.869],[14.528,35.871],[14.529,35.874],[14.527,35.874],[14.527,35.878],[14.529,35.882],[14.533,35.883],[14.54,35.883],[14.544,35.878],[14.548,35.877],[14.556,35.879]]]}},{"type":"Feature","id":"MT-65","properties":{"id":"MT-65","countryCode":"MT","isoSubdivision":"MT-65","name":"Żebbuġ","name_en":"Żebbuġ","name_ko":"세부에","type":"Principal subdivision","labelLongitude":14.249,"labelLatitude":36.063,"minZoom":11},"geometry":{"type":"Polygon","coordinates":[[[14.234,36.073],[14.257,36.076],[14.272,36.071],[14.268,36.068],[14.268,36.065],[14.269,36.062],[14.268,36.06],[14.262,36.06],[14.257,36.058],[14.253,36.055],[14.253,36.051],[14.254,36.048],[14.253,36.046],[14.251,36.046],[14.245,36.046],[14.239,36.049],[14.239,36.055],[14.237,36.058],[14.233,36.057],[14.231,36.057],[14.23,36.063],[14.23,36.069],[14.234,36.073]]]}},{"type":"Feature","id":"MT-66","properties":{"id":"MT-66","countryCode":"MT","isoSubdivision":"MT-66","name":"Żebbuġ Gozo","name_en":"Żebbuġ Gozo","name_ko":"제부치","type":"Principal subdivision","labelLongitude":14.437,"labelLatitude":35.871,"minZoom":11},"geometry":{"type":"Polygon","coordinates":[[[14.416,35.864],[14.414,35.874],[14.413,35.875],[14.413,35.879],[14.418,35.88],[14.423,35.879],[14.429,35.879],[14.434,35.879],[14.437,35.882],[14.443,35.882],[14.455,35.883],[14.453,35.88],[14.452,35.878],[14.452,35.874],[14.455,35.872],[14.46,35.871],[14.463,35.869],[14.463,35.866],[14.463,35.863],[14.461,35.861],[14.459,35.862],[14.456,35.865],[14.452,35.865],[14.446,35.864],[14.444,35.862],[14.441,35.86],[14.435,35.858],[14.429,35.86],[14.423,35.862],[14.42,35.864],[14.416,35.864]]]}},{"type":"Feature","id":"MT-67","properties":{"id":"MT-67","countryCode":"MT","isoSubdivision":"MT-67","name":"Żejtun","name_en":"Żejtun","name_ko":"제이툰","type":"Principal subdivision","labelLongitude":14.532,"labelLatitude":35.854,"minZoom":11},"geometry":{"type":"Polygon","coordinates":[[[14.545,35.843],[14.539,35.845],[14.533,35.846],[14.531,35.844],[14.525,35.845],[14.52,35.851],[14.516,35.856],[14.511,35.857],[14.513,35.858],[14.516,35.86],[14.518,35.861],[14.519,35.864],[14.522,35.865],[14.525,35.866],[14.528,35.864],[14.532,35.864],[14.535,35.861],[14.543,35.861],[14.546,35.856],[14.548,35.852],[14.547,35.85],[14.547,35.848],[14.548,35.846],[14.545,35.843]]]}},{"type":"Feature","id":"MT-68","properties":{"id":"MT-68","countryCode":"MT","isoSubdivision":"MT-68","name":"Żurrieq","name_en":"Żurrieq","name_ko":"주리","type":"Principal subdivision","labelLongitude":14.482,"labelLatitude":35.823,"minZoom":11},"geometry":{"type":"Polygon","coordinates":[[[14.498,35.809],[14.473,35.811],[14.454,35.816],[14.456,35.821],[14.462,35.826],[14.465,35.828],[14.467,35.83],[14.465,35.832],[14.465,35.834],[14.468,35.835],[14.467,35.838],[14.473,35.838],[14.476,35.838],[14.481,35.837],[14.484,35.834],[14.479,35.831],[14.48,35.829],[14.483,35.826],[14.486,35.825],[14.491,35.827],[14.494,35.829],[14.498,35.827],[14.501,35.827],[14.504,35.829],[14.509,35.83],[14.51,35.826],[14.513,35.821],[14.512,35.819],[14.507,35.818],[14.502,35.82],[14.499,35.82],[14.498,35.817],[14.5,35.814],[14.499,35.812],[14.498,35.809]]]}}]}
