{"type":"FeatureCollection","features":[{"type":"Feature","id":"MU-AG","properties":{"id":"MU-AG","countryCode":"MU","isoSubdivision":"MU-AG","name":"Agaléga","name_en":"Agaléga","name_ko":"아갈레가 제도","type":"Dependency","labelLongitude":56.537,"labelLatitude":-10.351,"minZoom":11},"geometry":{"type":"Polygon","coordinates":[[[56.524,-10.33],[56.526,-10.327],[56.528,-10.325],[56.531,-10.324],[56.536,-10.324],[56.543,-10.346],[56.569,-10.386],[56.569,-10.407],[56.549,-10.382],[56.53,-10.353],[56.525,-10.34],[56.524,-10.33]]]}},{"type":"Feature","id":"MU-BL","properties":{"id":"MU-BL","countryCode":"MU","isoSubdivision":"MU-BL","name":"Rivière Noire","name_en":"Rivière Noire","name_ko":"블랙리버 구","type":"District","labelLongitude":57.415,"labelLatitude":-20.342,"minZoom":11},"geometry":{"type":"Polygon","coordinates":[[[57.399,-20.498],[57.378,-20.507],[57.321,-20.458],[57.308,-20.444],[57.303,-20.431],[57.319,-20.425],[57.344,-20.43],[57.358,-20.427],[57.364,-20.414],[57.369,-20.386],[57.368,-20.376],[57.357,-20.37],[57.365,-20.346],[57.366,-20.291],[57.371,-20.261],[57.377,-20.243],[57.4,-20.201],[57.408,-20.192],[57.41,-20.189],[57.433,-20.172],[57.442,-20.167],[57.464,-20.162],[57.465,-20.168],[57.471,-20.189],[57.462,-20.203],[57.46,-20.219],[57.456,-20.243],[57.457,-20.256],[57.459,-20.291],[57.46,-20.305],[57.463,-20.322],[57.471,-20.329],[57.473,-20.331],[57.469,-20.337],[57.455,-20.337],[57.448,-20.343],[57.454,-20.364],[57.46,-20.38],[57.45,-20.387],[57.459,-20.398],[57.478,-20.402],[57.488,-20.408],[57.487,-20.423],[57.475,-20.416],[57.454,-20.423],[57.433,-20.43],[57.41,-20.448],[57.391,-20.453],[57.391,-20.473],[57.402,-20.483],[57.399,-20.498]]]}},{"type":"Feature","id":"MU-BR","properties":{"id":"MU-BR","countryCode":"MU","isoSubdivision":"MU-BR","name":"Beau Bassin-Rose Hill","name_en":"Beau Bassin-Rose Hill","name_ko":"보베이신로즈힐","type":"City","labelLongitude":57.471,"labelLatitude":-20.239,"minZoom":11},"geometry":{"type":"Polygon","coordinates":[[[57.457,-20.256],[57.456,-20.243],[57.46,-20.219],[57.483,-20.219],[57.495,-20.249],[57.457,-20.256]]]}},{"type":"Feature","id":"MU-CU","properties":{"id":"MU-CU","countryCode":"MU","isoSubdivision":"MU-CU","name":"Curepipe","name_en":"Curepipe","name_ko":"쿠레피페","type":"City","labelLongitude":57.517,"labelLatitude":-20.318,"minZoom":11},"geometry":{"type":"Polygon","coordinates":[[[57.483,-20.322],[57.529,-20.297],[57.55,-20.315],[57.555,-20.326],[57.504,-20.347],[57.483,-20.322]]]}},{"type":"Feature","id":"MU-FL","properties":{"id":"MU-FL","countryCode":"MU","isoSubdivision":"MU-FL","name":"Flacq","name_en":"Flacq","name_ko":"플라크 구","type":"District","labelLongitude":57.721,"labelLatitude":-20.217,"minZoom":11},"geometry":{"type":"Polygon","coordinates":[[[57.734,-20.096],[57.745,-20.105],[57.748,-20.112],[57.744,-20.144],[57.752,-20.154],[57.763,-20.162],[57.772,-20.191],[57.791,-20.212],[57.796,-20.223],[57.794,-20.247],[57.789,-20.274],[57.778,-20.305],[57.756,-20.303],[57.727,-20.324],[57.689,-20.327],[57.668,-20.328],[57.679,-20.291],[57.63,-20.252],[57.662,-20.222],[57.628,-20.197],[57.607,-20.189],[57.608,-20.185],[57.609,-20.176],[57.627,-20.165],[57.631,-20.156],[57.734,-20.096]]]}},{"type":"Feature","id":"MU-GP","properties":{"id":"MU-GP","countryCode":"MU","isoSubdivision":"MU-GP","name":"Grand Port","name_en":"Grand Port","name_ko":"그랑포르 구","type":"District","labelLongitude":57.65,"labelLatitude":-20.392,"minZoom":11},"geometry":{"type":"Polygon","coordinates":[[[57.778,-20.305],[57.776,-20.32],[57.782,-20.336],[57.757,-20.343],[57.729,-20.364],[57.712,-20.387],[57.72,-20.404],[57.721,-20.411],[57.726,-20.42],[57.727,-20.425],[57.723,-20.434],[57.718,-20.436],[57.711,-20.436],[57.706,-20.439],[57.692,-20.462],[57.685,-20.472],[57.672,-20.48],[57.631,-20.492],[57.629,-20.481],[57.625,-20.458],[57.613,-20.425],[57.594,-20.406],[57.574,-20.401],[57.546,-20.402],[57.6,-20.343],[57.634,-20.345],[57.657,-20.338],[57.668,-20.328],[57.689,-20.327],[57.727,-20.324],[57.756,-20.303],[57.778,-20.305]]]}},{"type":"Feature","id":"MU-MO","properties":{"id":"MU-MO","countryCode":"MU","isoSubdivision":"MU-MO","name":"Moka","name_en":"Moka","name_ko":"모카 구","type":"District","labelLongitude":57.596,"labelLatitude":-20.249,"minZoom":11},"geometry":{"type":"Polygon","coordinates":[[[57.608,-20.185],[57.607,-20.189],[57.628,-20.197],[57.662,-20.222],[57.63,-20.252],[57.679,-20.291],[57.668,-20.328],[57.657,-20.338],[57.634,-20.345],[57.6,-20.343],[57.578,-20.329],[57.569,-20.312],[57.573,-20.299],[57.556,-20.278],[57.546,-20.265],[57.527,-20.263],[57.503,-20.242],[57.489,-20.209],[57.486,-20.191],[57.505,-20.184],[57.518,-20.19],[57.538,-20.2],[57.546,-20.202],[57.556,-20.205],[57.573,-20.198],[57.593,-20.186],[57.608,-20.185]]]}},{"type":"Feature","id":"MU-PA","properties":{"id":"MU-PA","countryCode":"MU","isoSubdivision":"MU-PA","name":"Pamplemousses","name_en":"Pamplemousses","name_ko":"팜플레무스 구","type":"District","labelLongitude":57.573,"labelLatitude":-20.09,"minZoom":11},"geometry":{"type":"Polygon","coordinates":[[[57.494,-20.122],[57.494,-20.104],[57.51,-20.077],[57.522,-20.042],[57.528,-20.031],[57.532,-20.025],[57.56,-20.004],[57.567,-20.001],[57.58,-20],[57.61,-20.034],[57.613,-20.047],[57.606,-20.061],[57.635,-20.089],[57.619,-20.107],[57.631,-20.156],[57.627,-20.165],[57.609,-20.176],[57.608,-20.185],[57.593,-20.186],[57.573,-20.198],[57.556,-20.205],[57.546,-20.202],[57.55,-20.176],[57.547,-20.135],[57.54,-20.122],[57.521,-20.127],[57.499,-20.123],[57.494,-20.122]]]}},{"type":"Feature","id":"MU-PL","properties":{"id":"MU-PL","countryCode":"MU","isoSubdivision":"MU-PL","name":"Port Louis","name_en":"Port Louis","name_ko":"포트루이스","type":"City","labelLongitude":57.504,"labelLatitude":-20.15,"minZoom":11},"geometry":{"type":"MultiPolygon","coordinates":[[[[57.464,-20.162],[57.474,-20.157],[57.491,-20.141],[57.494,-20.122],[57.499,-20.123],[57.5,-20.132],[57.506,-20.139],[57.513,-20.134],[57.519,-20.135],[57.522,-20.149],[57.512,-20.157],[57.51,-20.166],[57.502,-20.172],[57.491,-20.168],[57.478,-20.166],[57.465,-20.168],[57.464,-20.162]]],[[[57.471,-20.189],[57.465,-20.168],[57.478,-20.166],[57.491,-20.168],[57.502,-20.172],[57.51,-20.166],[57.512,-20.157],[57.522,-20.149],[57.519,-20.135],[57.513,-20.134],[57.506,-20.139],[57.5,-20.132],[57.499,-20.123],[57.521,-20.127],[57.54,-20.122],[57.547,-20.135],[57.55,-20.176],[57.546,-20.202],[57.538,-20.2],[57.518,-20.19],[57.505,-20.184],[57.486,-20.191],[57.471,-20.189]]]]}},{"type":"Feature","id":"MU-PW","properties":{"id":"MU-PW","countryCode":"MU","isoSubdivision":"MU-PW","name":"Plaines Wilhems","name_en":"Plaines Wilhems","name_ko":"플랭윌렐름 구","type":"District","labelLongitude":57.52,"labelLatitude":-20.36,"minZoom":11},"geometry":{"type":"Polygon","coordinates":[[[57.6,-20.343],[57.546,-20.402],[57.535,-20.405],[57.527,-20.398],[57.512,-20.396],[57.51,-20.405],[57.503,-20.425],[57.487,-20.423],[57.488,-20.408],[57.478,-20.402],[57.459,-20.398],[57.45,-20.387],[57.46,-20.38],[57.454,-20.364],[57.448,-20.343],[57.455,-20.337],[57.469,-20.337],[57.473,-20.331],[57.471,-20.329],[57.483,-20.322],[57.504,-20.347],[57.555,-20.326],[57.55,-20.315],[57.529,-20.297],[57.511,-20.277],[57.495,-20.249],[57.483,-20.219],[57.46,-20.219],[57.462,-20.203],[57.471,-20.189],[57.486,-20.191],[57.489,-20.209],[57.503,-20.242],[57.527,-20.263],[57.546,-20.265],[57.556,-20.278],[57.573,-20.299],[57.569,-20.312],[57.578,-20.329],[57.6,-20.343]]]}},{"type":"Feature","id":"MU-QB","properties":{"id":"MU-QB","countryCode":"MU","isoSubdivision":"MU-QB","name":"Quatre Bornes","name_en":"Quatre Bornes","name_ko":"쿠아트레 보르네","type":"City","labelLongitude":57.48,"labelLatitude":-20.269,"minZoom":11},"geometry":{"type":"Polygon","coordinates":[[[57.459,-20.291],[57.457,-20.256],[57.495,-20.249],[57.511,-20.277],[57.459,-20.291]]]}},{"type":"Feature","id":"MU-RO","properties":{"id":"MU-RO","countryCode":"MU","isoSubdivision":"MU-RO","name":"Rodrigues","name_en":"Rodrigues","name_ko":"로드리게스섬","type":"Dependency","labelLongitude":63.454,"labelLatitude":-19.697,"minZoom":11},"geometry":{"type":"Polygon","coordinates":[[[63.476,-19.678],[63.494,-19.682],[63.49,-19.701],[63.469,-19.723],[63.439,-19.733],[63.417,-19.736],[63.401,-19.745],[63.386,-19.756],[63.366,-19.767],[63.338,-19.738],[63.332,-19.736],[63.335,-19.718],[63.343,-19.71],[63.355,-19.705],[63.389,-19.685],[63.421,-19.674],[63.454,-19.67],[63.476,-19.678]]]}},{"type":"Feature","id":"MU-RR","properties":{"id":"MU-RR","countryCode":"MU","isoSubdivision":"MU-RR","name":"Rivière du Rempart","name_en":"Rivière du Rempart","name_ko":"리비에르뒤랑파르 구","type":"District","labelLongitude":57.656,"labelLatitude":-20.065,"minZoom":11},"geometry":{"type":"Polygon","coordinates":[[[57.58,-20],[57.586,-19.997],[57.591,-19.99],[57.597,-19.983],[57.607,-19.979],[57.623,-19.982],[57.668,-19.994],[57.68,-20],[57.685,-20.011],[57.679,-20.028],[57.683,-20.038],[57.69,-20.047],[57.698,-20.064],[57.706,-20.078],[57.709,-20.09],[57.714,-20.096],[57.718,-20.097],[57.73,-20.095],[57.734,-20.096],[57.631,-20.156],[57.619,-20.107],[57.635,-20.089],[57.606,-20.061],[57.613,-20.047],[57.61,-20.034],[57.58,-20]]]}},{"type":"Feature","id":"MU-SA","properties":{"id":"MU-SA","countryCode":"MU","isoSubdivision":"MU-SA","name":"Savanne","name_en":"Savanne","name_ko":"사반 구","type":"District","labelLongitude":57.521,"labelLatitude":-20.464,"minZoom":11},"geometry":{"type":"Polygon","coordinates":[[[57.631,-20.492],[57.588,-20.505],[57.504,-20.517],[57.474,-20.515],[57.427,-20.501],[57.399,-20.498],[57.402,-20.483],[57.391,-20.473],[57.391,-20.453],[57.41,-20.448],[57.433,-20.43],[57.454,-20.423],[57.475,-20.416],[57.487,-20.423],[57.503,-20.425],[57.51,-20.405],[57.512,-20.396],[57.527,-20.398],[57.535,-20.405],[57.546,-20.402],[57.574,-20.401],[57.594,-20.406],[57.613,-20.425],[57.625,-20.458],[57.629,-20.481],[57.631,-20.492]]]}},{"type":"Feature","id":"MU-VP","properties":{"id":"MU-VP","countryCode":"MU","isoSubdivision":"MU-VP","name":"Vacoas-Phoenix","name_en":"Vacoas-Phoenix","name_ko":"바코아스피닉스","type":"City","labelLongitude":57.491,"labelLatitude":-20.302,"minZoom":11},"geometry":{"type":"Polygon","coordinates":[[[57.471,-20.329],[57.463,-20.322],[57.46,-20.305],[57.459,-20.291],[57.511,-20.277],[57.529,-20.297],[57.483,-20.322],[57.471,-20.329]]]}}]}
