{"type":"FeatureCollection","features":[{"type":"Feature","id":"MV-00","properties":{"id":"MV-00","countryCode":"MV","isoSubdivision":"MV-00","name":"Alif Dhaal Atoll","name_en":"Alif Dhaal Atoll","name_ko":"알리프달 환초","type":"Atoll","labelLongitude":72.953,"labelLatitude":3.773,"minZoom":10},"geometry":{"type":"MultiPolygon","coordinates":[[[[72.831,3.511],[72.832,3.51],[72.833,3.508],[72.835,3.507],[72.835,3.505],[72.831,3.504],[72.828,3.505],[72.829,3.507],[72.83,3.508],[72.831,3.511]]],[[[72.794,3.517],[72.795,3.515],[72.798,3.513],[72.799,3.512],[72.796,3.511],[72.791,3.511],[72.791,3.512],[72.793,3.514],[72.794,3.517]]],[[[72.928,3.552],[72.912,3.542],[72.916,3.549],[72.92,3.552],[72.924,3.552],[72.928,3.552]]],[[[72.942,3.619],[72.943,3.617],[72.944,3.616],[72.945,3.615],[72.946,3.614],[72.942,3.612],[72.938,3.614],[72.939,3.615],[72.941,3.617],[72.942,3.619]]],[[[72.693,3.727],[72.694,3.723],[72.696,3.721],[72.697,3.719],[72.695,3.715],[72.692,3.716],[72.69,3.718],[72.69,3.721],[72.692,3.724],[72.693,3.727]]],[[[72.952,3.734],[72.954,3.732],[72.956,3.73],[72.956,3.729],[72.952,3.727],[72.949,3.729],[72.949,3.73],[72.951,3.732],[72.952,3.734]]],[[[72.946,3.772],[72.947,3.77],[72.949,3.769],[72.949,3.768],[72.949,3.767],[72.945,3.765],[72.942,3.767],[72.943,3.768],[72.945,3.77],[72.946,3.772]]],[[[72.945,3.837],[72.946,3.835],[72.947,3.834],[72.948,3.833],[72.948,3.832],[72.944,3.83],[72.941,3.832],[72.942,3.833],[72.943,3.835],[72.945,3.837]]]]}},{"type":"Feature","id":"MV-01","properties":{"id":"MV-01","countryCode":"MV","isoSubdivision":"MV-01","name":"Addu Atoll","name_en":"Addu Atoll","name_ko":"아두 환초","type":"City","labelLongitude":73.109,"labelLatitude":-0.624,"minZoom":10},"geometry":{"type":"MultiPolygon","coordinates":[[[[73.163,-0.682],[73.173,-0.689],[73.166,-0.688],[73.164,-0.687],[73.163,-0.682]]],[[[73.204,-0.671],[73.201,-0.675],[73.199,-0.679],[73.196,-0.681],[73.191,-0.683],[73.192,-0.677],[73.195,-0.674],[73.204,-0.671]]],[[[73.124,-0.656],[73.127,-0.666],[73.124,-0.665],[73.123,-0.663],[73.124,-0.66],[73.124,-0.656]]],[[[73.24,-0.626],[73.227,-0.643],[73.227,-0.633],[73.23,-0.623],[73.235,-0.619],[73.24,-0.626]]],[[[73.247,-0.589],[73.245,-0.607],[73.238,-0.6],[73.236,-0.592],[73.239,-0.584],[73.247,-0.578],[73.248,-0.581],[73.248,-0.583],[73.247,-0.586],[73.247,-0.589]]],[[[73.098,-0.6],[73.105,-0.607],[73.112,-0.617],[73.116,-0.63],[73.119,-0.641],[73.111,-0.641],[73.095,-0.605],[73.091,-0.586],[73.105,-0.579],[73.105,-0.587],[73.099,-0.587],[73.098,-0.59],[73.099,-0.594],[73.098,-0.6]]]]}},{"type":"Feature","id":"MV-02","properties":{"id":"MV-02","countryCode":"MV","isoSubdivision":"MV-02","name":"Alif Alif Atoll","name_en":"Alif Alif Atoll","name_ko":"알리프알리프 환초","type":"Atoll","labelLongitude":72.953,"labelLatitude":4.265,"minZoom":10},"geometry":{"type":"MultiPolygon","coordinates":[[[[72.703,4.003],[72.704,4.001],[72.705,4],[72.706,3.999],[72.706,3.998],[72.707,3.998],[72.705,3.996],[72.699,3.998],[72.699,3.999],[72.701,4.001],[72.703,4.003]]],[[[72.97,4.266],[72.971,4.266],[72.973,4.264],[72.974,4.263],[72.976,4.262],[72.976,4.26],[72.973,4.26],[72.972,4.262],[72.971,4.264],[72.97,4.266]]],[[[72.945,4.266],[72.959,4.263],[72.954,4.262],[72.954,4.261],[72.951,4.262],[72.945,4.266]]],[[[72.957,4.438],[72.956,4.422],[72.949,4.423],[72.947,4.423],[72.943,4.432],[72.957,4.438]]]]}},{"type":"Feature","id":"MV-03","properties":{"id":"MV-03","countryCode":"MV","isoSubdivision":"MV-03","name":"Lhaviyani Atoll","name_en":"Lhaviyani Atoll","name_ko":"라비야니 환초","type":"Atoll","labelLongitude":73.582,"labelLatitude":5.275,"minZoom":10},"geometry":{"type":"MultiPolygon","coordinates":[[[[73.5,5.247],[73.497,5.245],[73.494,5.246],[73.5,5.247]]],[[[73.594,5.283],[73.583,5.276],[73.578,5.275],[73.57,5.277],[73.576,5.28],[73.582,5.282],[73.588,5.283],[73.594,5.283]]],[[[73.47,5.308],[73.464,5.307],[73.467,5.308],[73.468,5.308],[73.47,5.308]]],[[[73.63,5.333],[73.629,5.333],[73.627,5.331],[73.623,5.332],[73.63,5.333]]],[[[73.647,5.343],[73.646,5.343],[73.64,5.342],[73.643,5.344],[73.647,5.343]]],[[[73.397,5.362],[73.398,5.362],[73.399,5.36],[73.401,5.358],[73.401,5.356],[73.399,5.355],[73.396,5.357],[73.396,5.358],[73.397,5.36],[73.397,5.362]]],[[[73.323,5.368],[73.325,5.367],[73.328,5.367],[73.33,5.367],[73.329,5.364],[73.319,5.363],[73.318,5.366],[73.319,5.367],[73.322,5.367],[73.323,5.368]]],[[[73.351,5.428],[73.345,5.427],[73.348,5.429],[73.351,5.428]]],[[[73.537,5.451],[73.535,5.45],[73.531,5.45],[73.537,5.451]]],[[[73.363,5.463],[73.363,5.459],[73.361,5.458],[73.363,5.463]]],[[[73.462,5.544],[73.459,5.542],[73.456,5.543],[73.462,5.544]]],[[[73.63,5.419],[73.635,5.411],[73.637,5.403],[73.636,5.394],[73.632,5.386],[73.628,5.413],[73.63,5.419]]]]}},{"type":"Feature","id":"MV-04","properties":{"id":"MV-04","countryCode":"MV","isoSubdivision":"MV-04","name":"Vaavu Atoll","name_en":"Vaavu Atoll","name_ko":"바부 환초","type":"Atoll","labelLongitude":73.508,"labelLatitude":3.495,"minZoom":10},"geometry":{"type":"MultiPolygon","coordinates":[[[[73.516,3.361],[73.517,3.361],[73.517,3.36],[73.519,3.359],[73.519,3.357],[73.519,3.356],[73.516,3.361]]],[[[73.748,3.451],[73.753,3.446],[73.751,3.447],[73.749,3.448],[73.748,3.449],[73.748,3.451]]],[[[73.506,3.501],[73.508,3.497],[73.509,3.496],[73.506,3.498],[73.506,3.501]]]]}},{"type":"Feature","id":"MV-05","properties":{"id":"MV-05","countryCode":"MV","isoSubdivision":"MV-05","name":"Laamu Atoll","name_en":"Laamu Atoll","name_ko":"라무 환초","type":"Atoll","labelLongitude":73.511,"labelLatitude":1.832,"minZoom":10},"geometry":{"type":"MultiPolygon","coordinates":[[[[73.365,1.791],[73.376,1.789],[73.37,1.783],[73.368,1.783],[73.367,1.787],[73.365,1.791]]],[[[73.4,1.806],[73.401,1.802],[73.403,1.798],[73.402,1.796],[73.401,1.795],[73.394,1.795],[73.395,1.799],[73.397,1.801],[73.399,1.804],[73.4,1.806]]],[[[73.453,1.827],[73.464,1.826],[73.457,1.82],[73.454,1.821],[73.453,1.824],[73.453,1.827]]],[[[73.518,1.843],[73.511,1.837],[73.499,1.828],[73.498,1.829],[73.5,1.832],[73.502,1.835],[73.507,1.838],[73.518,1.843]]],[[[73.536,1.87],[73.533,1.862],[73.532,1.86],[73.532,1.863],[73.532,1.866],[73.533,1.866],[73.534,1.868],[73.536,1.87]]],[[[73.252,1.892],[73.244,1.889],[73.244,1.894],[73.246,1.895],[73.247,1.894],[73.248,1.894],[73.252,1.892]]],[[[73.553,1.932],[73.549,1.911],[73.546,1.902],[73.541,1.893],[73.541,1.892],[73.55,1.925],[73.553,1.932]]],[[[73.55,1.976],[73.55,1.966],[73.548,1.968],[73.548,1.971],[73.55,1.976]]],[[[73.317,1.991],[73.32,1.989],[73.323,1.988],[73.323,1.986],[73.318,1.983],[73.315,1.985],[73.316,1.987],[73.317,1.989],[73.317,1.991]]],[[[73.544,2.027],[73.543,2.022],[73.54,2.023],[73.542,2.025],[73.544,2.027]]],[[[73.387,2.033],[73.387,2.029],[73.386,2.03],[73.387,2.033]]],[[[73.556,2.083],[73.551,2.073],[73.551,2.072],[73.55,2.076],[73.551,2.078],[73.553,2.08],[73.556,2.083]]],[[[73.568,2.11],[73.585,2.11],[73.584,2.108],[73.58,2.106],[73.568,2.098],[73.562,2.095],[73.562,2.099],[73.563,2.102],[73.568,2.11]]]]}},{"type":"Feature","id":"MV-07","properties":{"id":"MV-07","countryCode":"MV","isoSubdivision":"MV-07","name":"Haa Alif Atoll","name_en":"Haa Alif Atoll","name_ko":"하알리프 환초","type":"Atoll","labelLongitude":72.98,"labelLatitude":7.028,"minZoom":10},"geometry":{"type":"MultiPolygon","coordinates":[[[[73.182,6.831],[73.197,6.828],[73.189,6.823],[73.184,6.821],[73.181,6.823],[73.182,6.831]]],[[[72.996,6.841],[72.994,6.84],[72.992,6.838],[72.992,6.837],[72.99,6.838],[72.989,6.838],[72.99,6.842],[72.992,6.843],[72.994,6.842],[72.996,6.841]]],[[[73.144,6.843],[73.142,6.842],[73.141,6.84],[73.14,6.839],[73.138,6.84],[73.139,6.844],[73.141,6.845],[73.143,6.844],[73.144,6.843]]],[[[72.976,6.853],[72.976,6.85],[72.976,6.848],[72.976,6.847],[72.974,6.846],[72.972,6.85],[72.972,6.851],[72.974,6.852],[72.976,6.853]]],[[[73.098,6.852],[73.096,6.851],[73.095,6.849],[73.094,6.848],[73.093,6.848],[73.092,6.848],[73.093,6.853],[73.094,6.854],[73.096,6.853],[73.098,6.852]]],[[[72.965,6.861],[72.963,6.859],[72.961,6.857],[72.961,6.856],[72.959,6.857],[72.958,6.857],[72.959,6.862],[72.961,6.862],[72.963,6.861],[72.965,6.861]]],[[[73.106,6.897],[73.106,6.894],[73.106,6.892],[73.107,6.891],[73.107,6.89],[73.104,6.89],[73.102,6.894],[73.102,6.895],[73.105,6.896],[73.106,6.897]]],[[[73.214,6.919],[73.213,6.905],[73.209,6.891],[73.204,6.885],[73.201,6.893],[73.202,6.902],[73.205,6.912],[73.209,6.918],[73.214,6.919]]],[[[72.926,6.957],[72.926,6.954],[72.925,6.952],[72.926,6.957]]],[[[73.198,6.971],[73.195,6.951],[73.194,6.951],[73.193,6.951],[73.192,6.952],[73.191,6.961],[73.192,6.968],[73.194,6.971],[73.198,6.971]]],[[[72.892,6.991],[72.892,6.988],[72.891,6.985],[72.89,6.985],[72.892,6.991]]],[[[72.98,7.028],[72.981,7.014],[72.977,7.019],[72.977,7.023],[72.98,7.028]]],[[[72.95,7.057],[72.95,7.056],[72.948,7.051],[72.948,7.054],[72.95,7.057]]],[[[72.913,7.093],[72.912,7.083],[72.906,7.089],[72.907,7.091],[72.91,7.092],[72.913,7.093]]],[[[72.884,7.107],[72.885,7.106],[72.885,7.104],[72.882,7.102],[72.884,7.107]]]]}},{"type":"Feature","id":"MV-08","properties":{"id":"MV-08","countryCode":"MV","isoSubdivision":"MV-08","name":"Thaa Atoll","name_en":"Thaa Atoll","name_ko":"타 환초","type":"Atoll","labelLongitude":73.125,"labelLatitude":2.193,"minZoom":10},"geometry":{"type":"MultiPolygon","coordinates":[[[[73.044,2.166],[73.041,2.165],[73.04,2.165],[73.038,2.165],[73.044,2.166]]],[[[73.104,2.187],[73.103,2.184],[73.103,2.182],[73.102,2.181],[73.099,2.182],[73.099,2.185],[73.1,2.186],[73.102,2.186],[73.104,2.187]]],[[[73.115,2.2],[73.117,2.198],[73.121,2.192],[73.115,2.192],[73.114,2.194],[73.115,2.196],[73.115,2.2]]],[[[72.948,2.275],[72.946,2.272],[72.943,2.273],[72.948,2.275]]],[[[72.926,2.327],[72.927,2.316],[72.923,2.32],[72.922,2.322],[72.924,2.324],[72.926,2.327]]],[[[73.344,2.348],[73.344,2.347],[73.344,2.344],[73.342,2.342],[73.344,2.348]]],[[[73.354,2.437],[73.361,2.425],[73.365,2.414],[73.366,2.412],[73.367,2.398],[73.363,2.385],[73.354,2.429],[73.354,2.437]]],[[[73.315,2.506],[73.315,2.494],[73.314,2.495],[73.312,2.497],[73.312,2.499],[73.313,2.502],[73.315,2.506]]],[[[73.146,2.553],[73.144,2.55],[73.141,2.55],[73.146,2.553]]]]}},{"type":"Feature","id":"MV-12","properties":{"id":"MV-12","countryCode":"MV","isoSubdivision":"MV-12","name":"Meemu Atoll","name_en":"Meemu Atoll","name_ko":"미무 환초","type":"Atoll","labelLongitude":73.569,"labelLatitude":2.949,"minZoom":10},"geometry":{"type":"MultiPolygon","coordinates":[[[[73.354,2.778],[73.353,2.776],[73.354,2.774],[73.354,2.772],[73.351,2.771],[73.348,2.775],[73.349,2.777],[73.352,2.778],[73.354,2.778]]],[[[73.399,2.786],[73.391,2.775],[73.392,2.781],[73.394,2.784],[73.397,2.785],[73.399,2.786]]],[[[73.549,2.893],[73.55,2.891],[73.551,2.891],[73.549,2.888],[73.549,2.889],[73.549,2.893]]],[[[73.36,2.904],[73.361,2.902],[73.362,2.9],[73.363,2.898],[73.361,2.898],[73.357,2.9],[73.357,2.901],[73.359,2.902],[73.36,2.904]]],[[[73.564,2.955],[73.562,2.946],[73.561,2.948],[73.562,2.95],[73.564,2.955]]],[[[73.586,2.962],[73.577,2.951],[73.578,2.957],[73.581,2.96],[73.584,2.961],[73.586,2.962]]],[[[73.613,3.107],[73.613,3.103],[73.608,3.1],[73.613,3.107]]],[[[73.546,4.243],[73.553,4.237],[73.552,4.228],[73.549,4.212],[73.538,4.183],[73.527,4.171],[73.511,4.162],[73.487,4.164],[73.477,4.169],[73.431,4.185],[73.432,4.19],[73.512,4.186],[73.521,4.191],[73.526,4.208],[73.533,4.231],[73.546,4.243]]]]}},{"type":"Feature","id":"MV-13","properties":{"id":"MV-13","countryCode":"MV","isoSubdivision":"MV-13","name":"Raa Atoll","name_en":"Raa Atoll","name_ko":"라 환초","type":"Atoll","labelLongitude":72.975,"labelLatitude":5.806,"minZoom":10},"geometry":{"type":"MultiPolygon","coordinates":[[[[72.943,5.468],[72.943,5.467],[72.942,5.466],[72.941,5.464],[72.94,5.462],[72.938,5.461],[72.937,5.466],[72.938,5.467],[72.941,5.467],[72.943,5.468]]],[[[73.016,5.493],[73.014,5.491],[73.014,5.489],[73.013,5.487],[73.011,5.487],[73.01,5.49],[73.01,5.491],[73.011,5.492],[73.013,5.492],[73.016,5.493]]],[[[73.006,5.713],[73.004,5.711],[73.003,5.709],[73.002,5.707],[73,5.707],[72.999,5.712],[73,5.713],[73.001,5.713],[73.003,5.713],[73.006,5.713]]],[[[73.006,5.463],[73.004,5.461],[73.003,5.458],[73.001,5.456],[72.999,5.461],[73,5.462],[73.003,5.462],[73.006,5.463]]],[[[72.884,5.494],[72.882,5.492],[72.882,5.49],[72.881,5.488],[72.879,5.488],[72.878,5.492],[72.879,5.493],[72.881,5.493],[72.884,5.494]]],[[[73.019,5.618],[73.017,5.616],[73.017,5.614],[73.016,5.612],[73.014,5.612],[73.013,5.616],[73.014,5.617],[73.016,5.617],[73.019,5.618]]],[[[73.015,5.677],[73.013,5.675],[73.012,5.673],[73.012,5.672],[73.01,5.671],[73.009,5.675],[73.01,5.676],[73.012,5.676],[73.015,5.677]]],[[[72.987,5.771],[72.986,5.766],[72.983,5.763],[72.987,5.771]]],[[[72.977,5.814],[72.975,5.805],[72.975,5.804],[72.972,5.807],[72.971,5.808],[72.971,5.81],[72.974,5.812],[72.977,5.814]]],[[[72.964,5.864],[72.966,5.85],[72.963,5.853],[72.962,5.857],[72.964,5.864]]],[[[72.932,5.969],[72.93,5.957],[72.926,5.963],[72.926,5.966],[72.932,5.969]]],[[[72.916,5.981],[72.914,5.98],[72.913,5.977],[72.913,5.976],[72.911,5.977],[72.91,5.978],[72.91,5.982],[72.911,5.983],[72.913,5.982],[72.916,5.981]]]]}},{"type":"Feature","id":"MV-14","properties":{"id":"MV-14","countryCode":"MV","isoSubdivision":"MV-14","name":"Faafu Atoll","name_en":"Faafu Atoll","name_ko":"파푸 환초","type":"Atoll","labelLongitude":72.832,"labelLatitude":3.307,"minZoom":10},"geometry":{"type":"MultiPolygon","coordinates":[[[[72.902,3.084],[72.903,3.082],[72.904,3.081],[72.905,3.081],[72.906,3.08],[72.904,3.077],[72.9,3.077],[72.899,3.078],[72.901,3.081],[72.902,3.084]]],[[[72.978,3.11],[72.979,3.108],[72.981,3.107],[72.982,3.105],[72.978,3.103],[72.975,3.104],[72.975,3.106],[72.977,3.108],[72.978,3.11]]],[[[73.042,3.205],[73.043,3.204],[73.044,3.203],[73.046,3.203],[73.047,3.202],[73.045,3.199],[73.041,3.198],[73.04,3.2],[73.041,3.202],[73.042,3.205]]],[[[73.032,3.253],[73.033,3.251],[73.035,3.249],[73.036,3.248],[73.032,3.246],[73.029,3.247],[73.029,3.248],[73.031,3.25],[73.032,3.253]]],[[[72.833,3.312],[72.834,3.311],[72.837,3.31],[72.838,3.309],[72.836,3.306],[72.832,3.306],[72.831,3.306],[72.831,3.307],[72.832,3.309],[72.833,3.312]]]]}},{"type":"Feature","id":"MV-17","properties":{"id":"MV-17","countryCode":"MV","isoSubdivision":"MV-17","name":"Dhaalu Atoll","name_en":"Dhaalu Atoll","name_ko":"달루 환초","type":"Atoll","labelLongitude":72.902,"labelLatitude":2.678,"minZoom":10},"geometry":{"type":"MultiPolygon","coordinates":[[[[72.9,2.682],[72.903,2.681],[72.905,2.681],[72.906,2.68],[72.904,2.676],[72.901,2.676],[72.901,2.678],[72.901,2.68],[72.9,2.682]]],[[[72.873,2.694],[72.874,2.684],[72.867,2.687],[72.867,2.689],[72.87,2.691],[72.873,2.694]]],[[[73.022,2.742],[73.032,2.745],[73.028,2.738],[73.025,2.738],[73.022,2.742]]],[[[73.008,2.953],[73.015,2.947],[73.01,2.945],[73.01,2.946],[73.009,2.946],[73.009,2.949],[73.009,2.95],[73.008,2.953]]],[[[72.87,2.969],[72.868,2.961],[72.865,2.958],[72.865,2.961],[72.87,2.969]]]]}},{"type":"Feature","id":"MV-20","properties":{"id":"MV-20","countryCode":"MV","isoSubdivision":"MV-20","name":"Baa Atoll","name_en":"Baa Atoll","name_ko":"바 환초","type":"Atoll","labelLongitude":72.975,"labelLatitude":4.882,"minZoom":10},"geometry":{"type":"MultiPolygon","coordinates":[[[[72.979,4.895],[72.97,4.881],[72.969,4.881],[72.97,4.89],[72.973,4.894],[72.976,4.895],[72.979,4.895]]],[[[72.917,4.899],[72.923,4.899],[72.921,4.898],[72.918,4.899],[72.917,4.899]]],[[[72.913,5.034],[72.909,5.031],[72.91,5.033],[72.913,5.034]]],[[[72.928,5.037],[72.928,5.036],[72.927,5.034],[72.926,5.033],[72.924,5.033],[72.928,5.037]]],[[[73.045,5.122],[73.043,5.119],[73.041,5.118],[73.045,5.122]]],[[[73.049,5.133],[73.05,5.13],[73.051,5.128],[73.051,5.127],[73.048,5.126],[73.045,5.129],[73.046,5.13],[73.048,5.131],[73.049,5.133]]],[[[73.091,5.161],[73.091,5.159],[73.088,5.158],[73.091,5.161]]],[[[73.104,5.173],[73.107,5.172],[73.111,5.17],[73.11,5.17],[73.107,5.171],[73.104,5.173]]],[[[72.86,5.238],[72.859,5.236],[72.857,5.235],[72.857,5.234],[72.86,5.238]]],[[[73.132,5.245],[73.132,5.242],[73.128,5.241],[73.132,5.245]]],[[[73.113,5.299],[73.113,5.298],[73.109,5.295],[73.109,5.297],[73.113,5.299]]],[[[72.953,5.353],[72.952,5.35],[72.95,5.349],[72.953,5.353]]]]}},{"type":"Feature","id":"MV-23","properties":{"id":"MV-23","countryCode":"MV","isoSubdivision":"MV-23","name":"Haa Dhaalu Atoll","name_en":"Haa Dhaalu Atoll","name_ko":"하달루 환초","type":"Atoll","labelLongitude":73.047,"labelLatitude":6.622,"minZoom":10},"geometry":{"type":"MultiPolygon","coordinates":[[[[72.691,6.412],[72.689,6.41],[72.687,6.407],[72.686,6.406],[72.685,6.408],[72.686,6.412],[72.688,6.412],[72.689,6.412],[72.691,6.412]]],[[[72.962,6.559],[72.96,6.558],[72.959,6.555],[72.958,6.554],[72.956,6.555],[72.957,6.56],[72.958,6.561],[72.96,6.56],[72.962,6.559]]],[[[72.924,6.565],[72.926,6.563],[72.928,6.562],[72.929,6.561],[72.928,6.559],[72.923,6.56],[72.923,6.562],[72.924,6.563],[72.924,6.565]]],[[[73.03,6.582],[73.029,6.58],[73.03,6.578],[73.03,6.576],[73.028,6.575],[73.027,6.576],[73.026,6.579],[73.026,6.581],[73.028,6.581],[73.03,6.582]]],[[[73.045,6.622],[73.043,6.62],[73.042,6.618],[73.041,6.617],[73.038,6.618],[73.039,6.623],[73.041,6.624],[73.043,6.623],[73.045,6.622]]],[[[73.07,6.668],[73.062,6.661],[73.062,6.667],[73.064,6.668],[73.067,6.668],[73.07,6.668]]],[[[73.106,6.71],[73.104,6.706],[73.102,6.702],[73.1,6.7],[73.096,6.698],[73.097,6.706],[73.099,6.709],[73.106,6.71]]],[[[73.037,6.76],[73.036,6.757],[73.037,6.755],[73.037,6.753],[73.035,6.753],[73.034,6.754],[73.032,6.757],[73.033,6.758],[73.035,6.759],[73.037,6.76]]],[[[72.918,6.764],[72.917,6.762],[72.915,6.76],[72.914,6.759],[72.912,6.76],[72.913,6.765],[72.915,6.766],[72.917,6.764],[72.918,6.764]]],[[[73.16,6.787],[73.164,6.787],[73.166,6.786],[73.166,6.783],[73.167,6.78],[73.153,6.749],[73.145,6.736],[73.132,6.725],[73.136,6.741],[73.153,6.768],[73.16,6.787]]]]}},{"type":"Feature","id":"MV-24","properties":{"id":"MV-24","countryCode":"MV","isoSubdivision":"MV-24","name":"Shaviyani Atoll","name_en":"Shaviyani Atoll","name_ko":"샤비야니 환초","type":"Atoll","labelLongitude":73.215,"labelLatitude":6.285,"minZoom":10},"geometry":{"type":"MultiPolygon","coordinates":[[[[72.949,6.35],[72.951,6.348],[72.953,6.347],[72.953,6.346],[72.954,6.346],[72.953,6.343],[72.948,6.344],[72.948,6.346],[72.949,6.348],[72.949,6.35]]],[[[72.893,6.452],[72.894,6.45],[72.896,6.449],[72.897,6.448],[72.896,6.446],[72.892,6.447],[72.891,6.448],[72.892,6.45],[72.893,6.452]]],[[[73.251,6.083],[73.249,6.08],[73.245,6.08],[73.251,6.083]]],[[[73.252,6.111],[73.247,6.108],[73.249,6.11],[73.252,6.111]]],[[[73.22,6.132],[73.219,6.129],[73.215,6.129],[73.22,6.132]]],[[[73.27,6.157],[73.269,6.154],[73.268,6.152],[73.267,6.151],[73.265,6.151],[73.265,6.154],[73.267,6.155],[73.268,6.156],[73.27,6.157]]],[[[73.219,6.172],[73.214,6.169],[73.216,6.171],[73.219,6.172]]],[[[73.271,6.189],[73.268,6.179],[73.265,6.183],[73.266,6.185],[73.268,6.187],[73.271,6.189]]],[[[73.034,6.222],[73.029,6.219],[73.03,6.221],[73.034,6.222]]],[[[73.242,6.24],[73.242,6.236],[73.244,6.234],[73.244,6.232],[73.24,6.229],[73.236,6.232],[73.237,6.234],[73.24,6.236],[73.242,6.24]]],[[[73.128,6.287],[73.126,6.284],[73.123,6.283],[73.128,6.287]]],[[[73.215,6.295],[73.213,6.289],[73.209,6.287],[73.209,6.286],[73.209,6.287],[73.215,6.295]]],[[[73.083,6.309],[73.083,6.308],[73.081,6.306],[73.078,6.305],[73.083,6.309]]],[[[73.197,6.327],[73.198,6.325],[73.199,6.324],[73.2,6.324],[73.202,6.322],[73.201,6.318],[73.195,6.32],[73.194,6.322],[73.196,6.324],[73.197,6.327]]],[[[73.125,6.333],[73.124,6.332],[73.12,6.329],[73.119,6.329],[73.121,6.331],[73.125,6.333]]],[[[73.187,6.351],[73.185,6.349],[73.184,6.347],[73.182,6.346],[73.18,6.347],[73.181,6.35],[73.183,6.35],[73.185,6.35],[73.187,6.351]]],[[[73.021,6.369],[73.022,6.367],[73.024,6.366],[73.025,6.365],[73.024,6.363],[73.019,6.364],[73.019,6.365],[73.02,6.367],[73.021,6.369]]],[[[72.903,6.44],[72.904,6.438],[72.906,6.437],[72.907,6.436],[72.907,6.434],[72.902,6.435],[72.901,6.436],[72.902,6.438],[72.903,6.44]]],[[[73.049,6.441],[73.046,6.436],[73.043,6.434],[73.049,6.441]]]]}},{"type":"Feature","id":"MV-25","properties":{"id":"MV-25","countryCode":"MV","isoSubdivision":"MV-25","name":"Noonu Atoll","name_en":"Noonu Atoll","name_ko":"누누 환초","type":"Atoll","labelLongitude":73.384,"labelLatitude":5.787,"minZoom":10},"geometry":{"type":"MultiPolygon","coordinates":[[[[73.393,5.738],[73.392,5.737],[73.381,5.715],[73.38,5.715],[73.383,5.722],[73.393,5.738]]],[[[73.382,5.795],[73.383,5.792],[73.384,5.789],[73.385,5.787],[73.381,5.784],[73.377,5.787],[73.378,5.79],[73.38,5.792],[73.382,5.795]]],[[[73.45,5.841],[73.434,5.831],[73.433,5.831],[73.439,5.838],[73.443,5.841],[73.447,5.841],[73.45,5.841]]],[[[73.429,5.911],[73.428,5.909],[73.428,5.906],[73.428,5.904],[73.426,5.903],[73.423,5.907],[73.424,5.908],[73.427,5.909],[73.429,5.911]]],[[[73.39,5.97],[73.395,5.958],[73.387,5.962],[73.385,5.965],[73.39,5.97]]]]}},{"type":"Feature","id":"MV-26","properties":{"id":"MV-26","countryCode":"MV","isoSubdivision":"MV-26","name":"Kaafu Atoll","name_en":"Kaafu Atoll","name_ko":"카푸 환초","type":"Atoll","labelLongitude":73.614,"labelLatitude":4.357,"minZoom":10},"geometry":{"type":"MultiPolygon","coordinates":[[[[73.477,3.942],[73.47,3.935],[73.468,3.934],[73.469,3.937],[73.472,3.939],[73.477,3.942]]],[[[73.508,4.104],[73.508,4.093],[73.505,4.097],[73.502,4.099],[73.502,4.101],[73.505,4.102],[73.508,4.104]]],[[[73.703,4.435],[73.701,4.432],[73.698,4.431],[73.697,4.431],[73.703,4.435]]],[[[73.703,4.453],[73.7,4.449],[73.7,4.452],[73.703,4.453]]],[[[73.377,4.474],[73.377,4.465],[73.374,4.467],[73.374,4.469],[73.375,4.471],[73.377,4.474]]],[[[73.405,4.635],[73.405,4.632],[73.406,4.63],[73.405,4.628],[73.403,4.627],[73.401,4.63],[73.402,4.631],[73.404,4.633],[73.405,4.635]]],[[[73.49,4.723],[73.49,4.721],[73.491,4.718],[73.491,4.717],[73.488,4.716],[73.488,4.717],[73.487,4.718],[73.487,4.72],[73.489,4.721],[73.49,4.723]]],[[[73.447,4.971],[73.437,4.97],[73.439,4.975],[73.441,4.975],[73.444,4.973],[73.447,4.971]]],[[[73.437,3.847],[73.435,3.845],[73.433,3.843],[73.432,3.842],[73.431,3.844],[73.432,3.847],[73.434,3.847],[73.436,3.847],[73.437,3.847]]],[[[73.444,3.921],[73.443,3.92],[73.443,3.919],[73.438,3.917],[73.438,3.916],[73.444,3.921]]],[[[73.345,3.945],[73.341,3.942],[73.341,3.943],[73.345,3.945]]],[[[73.423,4.118],[73.421,4.116],[73.419,4.116],[73.423,4.118]]],[[[73.596,4.342],[73.592,4.34],[73.589,4.341],[73.596,4.342]]],[[[73.612,4.363],[73.611,4.36],[73.612,4.358],[73.612,4.357],[73.61,4.356],[73.608,4.358],[73.608,4.359],[73.61,4.361],[73.612,4.363]]],[[[73.638,4.371],[73.638,4.37],[73.637,4.368],[73.637,4.366],[73.637,4.365],[73.637,4.364],[73.636,4.364],[73.634,4.365],[73.632,4.368],[73.633,4.37],[73.635,4.37],[73.638,4.371]]],[[[73.668,4.393],[73.668,4.391],[73.668,4.388],[73.668,4.387],[73.666,4.386],[73.664,4.388],[73.665,4.39],[73.667,4.391],[73.668,4.393]]],[[[73.554,4.621],[73.554,4.62],[73.553,4.618],[73.554,4.615],[73.554,4.614],[73.552,4.613],[73.551,4.614],[73.55,4.615],[73.55,4.617],[73.552,4.618],[73.554,4.621]]]]}},{"type":"Feature","id":"MV-27","properties":{"id":"MV-27","countryCode":"MV","isoSubdivision":"MV-27","name":"Gaafu Alif Atoll","name_en":"Gaafu Alif Atoll","name_ko":"가푸알리프 환초","type":"Atoll","labelLongitude":73.374,"labelLatitude":0.764,"minZoom":10},"geometry":{"type":"MultiPolygon","coordinates":[[[[73.513,0.388],[73.509,0.381],[73.506,0.385],[73.506,0.386],[73.507,0.388],[73.51,0.387],[73.513,0.388]]],[[[73.492,0.508],[73.495,0.499],[73.49,0.501],[73.49,0.503],[73.491,0.505],[73.492,0.508]]],[[[73.388,0.642],[73.387,0.639],[73.387,0.637],[73.387,0.635],[73.385,0.636],[73.384,0.639],[73.384,0.64],[73.386,0.641],[73.388,0.642]]],[[[73.373,0.763],[73.372,0.76],[73.372,0.758],[73.372,0.757],[73.371,0.757],[73.37,0.757],[73.369,0.76],[73.37,0.762],[73.371,0.762],[73.372,0.762],[73.373,0.763]]],[[[73.354,0.848],[73.353,0.846],[73.353,0.845],[73.353,0.843],[73.353,0.842],[73.352,0.841],[73.351,0.841],[73.35,0.844],[73.35,0.846],[73.352,0.847],[73.354,0.848]]]]}},{"type":"Feature","id":"MV-28","properties":{"id":"MV-28","countryCode":"MV","isoSubdivision":"MV-28","name":"Gaafu Dhaalu Atoll","name_en":"Gaafu Dhaalu Atoll","name_ko":"가푸달루 환초","type":"Atoll","labelLongitude":73.106,"labelLatitude":0.222,"minZoom":10},"geometry":{"type":"MultiPolygon","coordinates":[[[[73.095,0.228],[73.099,0.225],[73.103,0.223],[73.104,0.22],[73.103,0.214],[73.103,0.213],[73.099,0.216],[73.098,0.219],[73.097,0.22],[73.097,0.224],[73.095,0.228]]],[[[73.209,0.24],[73.217,0.238],[73.213,0.232],[73.211,0.232],[73.21,0.236],[73.209,0.24]]],[[[73.037,0.27],[73.04,0.259],[73.036,0.261],[73.036,0.262],[73.035,0.263],[73.036,0.265],[73.036,0.266],[73.036,0.267],[73.037,0.27]]],[[[73.379,0.285],[73.37,0.28],[73.371,0.286],[73.374,0.287],[73.376,0.286],[73.379,0.285]]],[[[72.984,0.305],[72.985,0.303],[72.987,0.303],[72.988,0.302],[72.986,0.3],[72.981,0.302],[72.981,0.304],[72.984,0.305]]],[[[72.958,0.403],[72.961,0.394],[72.958,0.397],[72.957,0.399],[72.958,0.401],[72.958,0.403]]],[[[72.941,0.496],[72.941,0.487],[72.937,0.491],[72.937,0.494],[72.941,0.496]]]]}},{"type":"Feature","id":"MV-29","properties":{"id":"MV-29","countryCode":"MV","isoSubdivision":"MV-29","name":"Gnaviyani Atoll","name_en":"Gnaviyani Atoll","name_ko":"그나비야니 환초","type":"Atoll","labelLongitude":73.435,"labelLatitude":-0.289,"minZoom":10},"geometry":{"type":"Polygon","coordinates":[[[73.435,-0.284],[73.443,-0.293],[73.445,-0.298],[73.445,-0.304],[73.438,-0.299],[73.435,-0.294],[73.435,-0.289],[73.435,-0.284]]]}}]}
