{"type":"FeatureCollection","features":[{"type":"Feature","id":"MW-BA","properties":{"id":"MW-BA","countryCode":"MW","isoSubdivision":"MW-BA","name":"Balaka","name_en":"Balaka","name_ko":"발라카 현","type":"District","labelLongitude":35.079,"labelLatitude":-15.037,"minZoom":8.7},"geometry":{"type":"Polygon","coordinates":[[[35.173,-15.23],[35.127,-15.271],[35.108,-15.303],[35.095,-15.315],[35.055,-15.325],[34.843,-15.314],[34.917,-14.992],[34.917,-14.984],[34.917,-14.977],[34.914,-14.968],[34.915,-14.963],[34.918,-14.956],[34.969,-14.888],[34.973,-14.879],[34.99,-14.822],[34.992,-14.809],[34.991,-14.799],[34.987,-14.783],[34.985,-14.768],[34.99,-14.755],[35,-14.756],[35.275,-14.756],[35.278,-14.758],[35.302,-14.782],[35.313,-14.825],[35.315,-14.873],[35.305,-14.953],[35.299,-14.975],[35.288,-14.984],[35.273,-14.994],[35.243,-15.04],[35.236,-15.052],[35.234,-15.061],[35.232,-15.077],[35.23,-15.087],[35.213,-15.122],[35.206,-15.148],[35.192,-15.185],[35.189,-15.206],[35.181,-15.223],[35.173,-15.23]]]}},{"type":"Feature","id":"MW-BL","properties":{"id":"MW-BL","countryCode":"MW","isoSubdivision":"MW-BL","name":"Blantyre","name_en":"Blantyre","name_ko":"블랜타이어 현","type":"District","labelLongitude":34.941,"labelLatitude":-15.687,"minZoom":8.7},"geometry":{"type":"Polygon","coordinates":[[[35.142,-15.537],[35.105,-15.605],[35.104,-15.616],[35.105,-15.63],[35.112,-15.637],[35.116,-15.656],[35.118,-15.685],[35.116,-15.782],[35.118,-15.802],[35.124,-15.82],[35.146,-15.861],[35.039,-15.924],[35.025,-15.927],[35.006,-15.928],[35,-15.929],[34.994,-15.932],[34.987,-15.938],[34.98,-15.947],[34.961,-15.981],[34.952,-15.992],[34.927,-16.014],[34.919,-16.019],[34.892,-16.027],[34.885,-16.031],[34.882,-16.029],[34.88,-16.024],[34.875,-16.009],[34.875,-16],[34.877,-15.994],[34.884,-15.985],[34.885,-15.979],[34.881,-15.974],[34.87,-15.972],[34.86,-15.973],[34.851,-15.972],[34.846,-15.968],[34.846,-15.957],[34.861,-15.928],[34.863,-15.92],[34.861,-15.901],[34.864,-15.89],[34.875,-15.871],[34.879,-15.862],[34.879,-15.856],[34.877,-15.85],[34.875,-15.845],[34.87,-15.831],[34.868,-15.828],[34.864,-15.824],[34.851,-15.821],[34.75,-15.812],[34.744,-15.738],[34.736,-15.715],[34.737,-15.703],[34.752,-15.694],[34.758,-15.688],[34.763,-15.68],[34.765,-15.673],[34.763,-15.611],[34.765,-15.594],[34.777,-15.582],[34.826,-15.552],[34.843,-15.546],[34.858,-15.522],[34.895,-15.419],[34.911,-15.395],[34.921,-15.391],[34.948,-15.368],[34.959,-15.365],[34.99,-15.361],[35.008,-15.352],[35.011,-15.351],[35.032,-15.388],[35.055,-15.407],[35.088,-15.455],[35.097,-15.466],[35.107,-15.473],[35.115,-15.474],[35.133,-15.474],[35.139,-15.476],[35.141,-15.48],[35.138,-15.486],[35.118,-15.509],[35.114,-15.515],[35.112,-15.522],[35.113,-15.529],[35.118,-15.534],[35.124,-15.537],[35.129,-15.538],[35.142,-15.537]]]}},{"type":"Feature","id":"MW-CK","properties":{"id":"MW-CK","countryCode":"MW","isoSubdivision":"MW-CK","name":"Chikwawa","name_en":"Chikwawa","name_ko":"치콰와 현","type":"District","labelLongitude":34.664,"labelLatitude":-16.152,"minZoom":8.7},"geometry":{"type":"Polygon","coordinates":[[[34.887,-16.701],[34.877,-16.694],[34.86,-16.687],[34.845,-16.678],[34.835,-16.663],[34.828,-16.642],[34.82,-16.628],[34.773,-16.59],[34.763,-16.576],[34.745,-16.543],[34.732,-16.529],[34.669,-16.497],[34.661,-16.494],[34.655,-16.489],[34.643,-16.46],[34.637,-16.451],[34.631,-16.443],[34.598,-16.42],[34.586,-16.408],[34.575,-16.392],[34.547,-16.323],[34.525,-16.301],[34.48,-16.294],[34.446,-16.293],[34.426,-16.274],[34.385,-16.186],[34.389,-16.152],[34.409,-16.088],[34.405,-16.06],[34.388,-16.037],[34.304,-15.952],[34.29,-15.943],[34.256,-15.928],[34.244,-15.918],[34.233,-15.89],[34.231,-15.854],[34.236,-15.819],[34.247,-15.794],[34.276,-15.764],[34.293,-15.751],[34.31,-15.743],[34.331,-15.737],[34.342,-15.731],[34.342,-15.73],[34.357,-15.736],[34.497,-15.795],[34.537,-15.807],[34.75,-15.812],[34.851,-15.821],[34.864,-15.824],[34.868,-15.828],[34.87,-15.831],[34.875,-15.845],[34.877,-15.85],[34.879,-15.856],[34.879,-15.862],[34.875,-15.871],[34.864,-15.89],[34.861,-15.901],[34.863,-15.92],[34.861,-15.928],[34.846,-15.957],[34.846,-15.968],[34.851,-15.972],[34.86,-15.973],[34.87,-15.972],[34.881,-15.974],[34.885,-15.979],[34.884,-15.985],[34.877,-15.994],[34.875,-16],[34.875,-16.009],[34.88,-16.024],[34.882,-16.029],[34.885,-16.031],[34.892,-16.027],[34.949,-16.116],[35.082,-16.264],[35.084,-16.271],[35.084,-16.282],[35.083,-16.289],[35.096,-16.331],[35.063,-16.478],[35.061,-16.485],[35.057,-16.489],[35.05,-16.493],[35.031,-16.511],[34.977,-16.57],[34.971,-16.58],[34.965,-16.597],[34.966,-16.608],[34.968,-16.616],[34.968,-16.622],[34.962,-16.627],[34.95,-16.632],[34.932,-16.643],[34.915,-16.658],[34.894,-16.69],[34.887,-16.701]]]}},{"type":"Feature","id":"MW-CR","properties":{"id":"MW-CR","countryCode":"MW","isoSubdivision":"MW-CR","name":"Chiradzulu","name_en":"Chiradzulu","name_ko":"치라줄루 현","type":"District","labelLongitude":35.222,"labelLatitude":-15.736,"minZoom":8.7},"geometry":{"type":"Polygon","coordinates":[[[35.188,-15.523],[35.193,-15.525],[35.195,-15.531],[35.193,-15.545],[35.194,-15.555],[35.201,-15.566],[35.211,-15.572],[35.227,-15.579],[35.236,-15.586],[35.243,-15.595],[35.251,-15.617],[35.258,-15.631],[35.272,-15.651],[35.284,-15.661],[35.295,-15.668],[35.341,-15.683],[35.321,-15.74],[35.321,-15.777],[35.335,-15.943],[35.334,-15.957],[35.329,-15.968],[35.324,-15.973],[35.31,-16.005],[35.29,-15.994],[35.278,-15.982],[35.271,-15.972],[35.266,-15.963],[35.261,-15.942],[35.255,-15.928],[35.249,-15.919],[35.214,-15.886],[35.206,-15.878],[35.2,-15.868],[35.193,-15.864],[35.184,-15.861],[35.146,-15.861],[35.124,-15.82],[35.118,-15.802],[35.116,-15.782],[35.118,-15.685],[35.116,-15.656],[35.112,-15.637],[35.105,-15.63],[35.104,-15.616],[35.105,-15.605],[35.142,-15.537],[35.156,-15.535],[35.163,-15.537],[35.17,-15.534],[35.176,-15.529],[35.188,-15.523]]]}},{"type":"Feature","id":"MW-CT","properties":{"id":"MW-CT","countryCode":"MW","isoSubdivision":"MW-CT","name":"Chitipa","name_en":"Chitipa","name_ko":"치티파 현","type":"District","labelLongitude":33.888,"labelLatitude":-10.027,"minZoom":8.7},"geometry":{"type":"MultiPolygon","coordinates":[[[[34.013,-9.477],[34.047,-9.49],[34.078,-9.51],[34.08,-9.511],[34.089,-9.522],[34.103,-9.53],[34.137,-9.571],[34.145,-9.575],[34.162,-9.594],[34.191,-9.607],[34.288,-9.708],[34.318,-9.719],[34.324,-9.732],[34.327,-9.75],[34.332,-9.769],[34.337,-9.777],[34.36,-9.8],[34.364,-9.802],[34.382,-9.82],[34.383,-9.824],[34.483,-9.946],[34.495,-9.967],[34.525,-10.009],[34.536,-10.043],[34.538,-10.054],[34.536,-10.065],[34.527,-10.085],[34.525,-10.095],[34.532,-10.129],[34.566,-10.203],[34.575,-10.256],[34.583,-10.278],[34.586,-10.29],[34.585,-10.301],[34.565,-10.41],[34.569,-10.431],[34.589,-10.463],[34.593,-10.482],[34.591,-10.491],[34.581,-10.514],[34.579,-10.526],[34.58,-10.532],[34.581,-10.54],[34.586,-10.554],[34.592,-10.567],[34.6,-10.578],[34.609,-10.582],[34.618,-10.581],[34.621,-10.582],[34.616,-10.583],[34.184,-10.585],[34.171,-10.583],[34.149,-10.576],[34.14,-10.575],[34.131,-10.578],[34.118,-10.582],[34.112,-10.583],[34.09,-10.569],[33.948,-10.452],[33.72,-10.1],[33.709,-10.077],[33.701,-10.067],[33.694,-10.065],[33.658,-10.068],[33.635,-10.069],[33.626,-10.065],[33.613,-10.058],[33.579,-10.03],[33.571,-10.025],[33.567,-10.024],[33.554,-10.022],[33.543,-10.02],[33.532,-10.015],[33.525,-10.007],[33.517,-9.995],[33.512,-9.989],[33.505,-9.984],[33.498,-9.981],[33.486,-9.972],[33.481,-9.965],[33.479,-9.957],[33.48,-9.944],[33.482,-9.941],[33.486,-9.938],[33.511,-9.93],[33.559,-9.9],[33.565,-9.895],[33.571,-9.887],[33.574,-9.883],[33.587,-9.881],[33.595,-9.878],[33.608,-9.866],[33.615,-9.858],[33.622,-9.848],[33.631,-9.828],[33.634,-9.823],[33.645,-9.815],[33.658,-9.802],[33.664,-9.797],[33.67,-9.793],[33.677,-9.791],[33.694,-9.788],[33.698,-9.782],[33.699,-9.771],[33.692,-9.754],[33.69,-9.744],[33.689,-9.725],[33.685,-9.716],[33.678,-9.704],[33.675,-9.695],[33.674,-9.688],[33.677,-9.671],[33.678,-9.659],[33.674,-9.651],[33.67,-9.646],[33.65,-9.611],[33.651,-9.611],[33.676,-9.608],[33.703,-9.593],[33.735,-9.584],[33.762,-9.601],[33.788,-9.626],[33.813,-9.643],[33.837,-9.653],[33.865,-9.67],[33.889,-9.69],[33.9,-9.71],[33.912,-9.718],[33.928,-9.7],[33.928,-9.693],[33.943,-9.684],[33.951,-9.674],[33.955,-9.661],[33.956,-9.642],[33.963,-9.612],[33.964,-9.595],[33.946,-9.55],[33.961,-9.525],[33.984,-9.506],[33.997,-9.492],[34.013,-9.477]]],[[[32.938,-9.488],[32.928,-9.48],[32.923,-9.466],[32.921,-9.408],[32.936,-9.392],[32.955,-9.382],[32.975,-9.381],[32.992,-9.391],[33.042,-9.441],[33.104,-9.488],[33.113,-9.492],[33.14,-9.497],[33.169,-9.509],[33.173,-9.511],[33.182,-9.508],[33.196,-9.497],[33.202,-9.493],[33.216,-9.493],[33.237,-9.5],[33.249,-9.501],[33.258,-9.498],[33.274,-9.488],[33.282,-9.486],[33.3,-9.492],[33.356,-9.532],[33.375,-9.549],[33.392,-9.586],[33.404,-9.605],[33.42,-9.616],[33.439,-9.622],[33.481,-9.624],[33.512,-9.617],[33.535,-9.603],[33.559,-9.593],[33.593,-9.597],[33.624,-9.606],[33.65,-9.611],[33.67,-9.646],[33.674,-9.651],[33.678,-9.659],[33.677,-9.671],[33.674,-9.688],[33.675,-9.695],[33.678,-9.704],[33.685,-9.716],[33.689,-9.725],[33.69,-9.744],[33.692,-9.754],[33.699,-9.771],[33.698,-9.782],[33.694,-9.788],[33.677,-9.791],[33.67,-9.793],[33.664,-9.797],[33.658,-9.802],[33.645,-9.815],[33.634,-9.823],[33.631,-9.828],[33.622,-9.848],[33.615,-9.858],[33.608,-9.866],[33.595,-9.878],[33.587,-9.881],[33.574,-9.883],[33.571,-9.887],[33.565,-9.895],[33.559,-9.9],[33.511,-9.93],[33.486,-9.938],[33.482,-9.941],[33.48,-9.944],[33.479,-9.957],[33.481,-9.965],[33.486,-9.972],[33.498,-9.981],[33.505,-9.984],[33.512,-9.989],[33.517,-9.995],[33.525,-10.007],[33.532,-10.015],[33.543,-10.02],[33.554,-10.022],[33.567,-10.024],[33.571,-10.025],[33.579,-10.03],[33.613,-10.058],[33.626,-10.065],[33.635,-10.069],[33.658,-10.068],[33.694,-10.065],[33.701,-10.067],[33.709,-10.077],[33.72,-10.1],[33.948,-10.452],[33.702,-10.562],[33.674,-10.573],[33.674,-10.569],[33.673,-10.56],[33.666,-10.541],[33.665,-10.515],[33.638,-10.512],[33.623,-10.494],[33.603,-10.449],[33.596,-10.441],[33.568,-10.416],[33.559,-10.404],[33.533,-10.343],[33.529,-10.319],[33.536,-10.263],[33.533,-10.231],[33.519,-10.215],[33.499,-10.201],[33.481,-10.177],[33.455,-10.168],[33.436,-10.153],[33.42,-10.136],[33.399,-10.118],[33.318,-10.082],[33.304,-10.064],[33.305,-10.038],[33.31,-10.013],[33.329,-9.965],[33.358,-9.92],[33.366,-9.899],[33.359,-9.871],[33.343,-9.831],[33.337,-9.824],[33.3,-9.81],[33.288,-9.804],[33.276,-9.793],[33.267,-9.781],[33.253,-9.754],[33.242,-9.742],[33.217,-9.727],[33.207,-9.713],[33.205,-9.698],[33.208,-9.689],[33.213,-9.681],[33.216,-9.67],[33.214,-9.655],[33.21,-9.641],[33.195,-9.616],[33.175,-9.602],[33.121,-9.6],[33.098,-9.588],[33.093,-9.614],[33.089,-9.644],[33.08,-9.662],[33.058,-9.654],[33.053,-9.645],[33.051,-9.633],[33.047,-9.622],[33.036,-9.617],[33.022,-9.62],[33.011,-9.628],[33,-9.633],[32.987,-9.628],[32.975,-9.601],[32.992,-9.529],[32.992,-9.502],[32.983,-9.498],[32.969,-9.484],[32.962,-9.48],[32.95,-9.481],[32.944,-9.486],[32.938,-9.488]]]]}},{"type":"Feature","id":"MW-DE","properties":{"id":"MW-DE","countryCode":"MW","isoSubdivision":"MW-DE","name":"Dedza","name_en":"Dedza","name_ko":"데자 현","type":"District","labelLongitude":34.183,"labelLatitude":-14.206,"minZoom":8.7},"geometry":{"type":"Polygon","coordinates":[[[33.662,-14.607],[33.645,-14.602],[33.633,-14.591],[33.624,-14.578],[33.618,-14.562],[33.636,-14.553],[33.645,-14.54],[33.655,-14.533],[33.664,-14.525],[33.686,-14.492],[33.689,-14.481],[33.692,-14.438],[33.695,-14.422],[33.7,-14.408],[33.707,-14.396],[33.716,-14.386],[33.729,-14.378],[33.798,-14.346],[33.81,-14.337],[33.822,-14.326],[33.843,-14.311],[33.855,-14.307],[33.873,-14.308],[33.883,-14.306],[33.907,-14.296],[33.916,-14.295],[33.926,-14.295],[33.934,-14.291],[33.942,-14.282],[33.947,-14.266],[33.951,-14.22],[33.956,-14.206],[33.964,-14.196],[33.978,-14.188],[34.016,-14.183],[34.027,-14.178],[34.039,-14.168],[34.051,-14.155],[34.063,-14.139],[34.078,-14.128],[34.093,-14.113],[34.103,-14.085],[34.11,-14.073],[34.118,-14.06],[34.133,-14.044],[34.146,-14.026],[34.16,-14.012],[34.169,-14],[34.196,-13.95],[34.2,-13.938],[34.205,-13.928],[34.21,-13.921],[34.222,-13.915],[34.248,-13.897],[34.266,-13.88],[34.284,-13.851],[34.328,-13.912],[34.389,-13.97],[34.403,-13.986],[34.437,-14.045],[34.468,-14.091],[34.484,-14.107],[34.496,-14.114],[34.501,-14.113],[34.506,-14.108],[34.527,-14.086],[34.533,-14.081],[34.539,-14.078],[34.543,-14.075],[34.55,-14.073],[34.736,-14.078],[34.748,-14.261],[34.748,-14.303],[34.667,-14.351],[34.592,-14.406],[34.535,-14.429],[34.52,-14.433],[34.509,-14.432],[34.497,-14.422],[34.481,-14.414],[34.474,-14.41],[34.468,-14.405],[34.461,-14.402],[34.453,-14.4],[34.437,-14.399],[34.414,-14.394],[34.408,-14.394],[34.403,-14.396],[34.393,-14.404],[34.38,-14.414],[34.372,-14.402],[34.344,-14.387],[34.335,-14.389],[34.328,-14.394],[34.321,-14.399],[34.313,-14.404],[34.305,-14.406],[34.289,-14.404],[34.281,-14.405],[34.182,-14.439],[34.11,-14.441],[34.078,-14.455],[34.07,-14.465],[34.059,-14.49],[34.051,-14.495],[33.946,-14.481],[33.916,-14.481],[33.889,-14.488],[33.831,-14.523],[33.802,-14.533],[33.774,-14.53],[33.72,-14.49],[33.699,-14.496],[33.684,-14.519],[33.676,-14.548],[33.675,-14.582],[33.672,-14.6],[33.662,-14.607]]]}},{"type":"Feature","id":"MW-DO","properties":{"id":"MW-DO","countryCode":"MW","isoSubdivision":"MW-DO","name":"Dowa","name_en":"Dowa","name_ko":"도와 현","type":"District","labelLongitude":33.865,"labelLatitude":-13.625,"minZoom":8.7},"geometry":{"type":"Polygon","coordinates":[[[34.117,-13.505],[34.132,-13.578],[34.132,-13.59],[34.129,-13.606],[34.124,-13.614],[34.12,-13.621],[34.122,-13.624],[34.134,-13.631],[34.14,-13.636],[34.185,-13.68],[34.194,-13.686],[34.202,-13.691],[34.21,-13.693],[34.218,-13.693],[34.228,-13.691],[34.263,-13.673],[34.27,-13.67],[34.276,-13.671],[34.283,-13.676],[34.286,-13.686],[34.286,-13.697],[34.285,-13.706],[34.284,-13.712],[34.288,-13.721],[34.293,-13.726],[34.303,-13.731],[34.306,-13.736],[34.308,-13.74],[34.307,-13.746],[34.305,-13.751],[34.302,-13.755],[34.297,-13.759],[34.292,-13.761],[34.278,-13.766],[34.268,-13.768],[34.262,-13.771],[34.258,-13.773],[34.256,-13.775],[34.255,-13.776],[34.25,-13.78],[34.223,-13.795],[34.213,-13.796],[34.176,-13.791],[34.164,-13.793],[34.152,-13.798],[34.14,-13.805],[34.122,-13.813],[34.101,-13.818],[34.049,-13.823],[34.035,-13.816],[34.026,-13.808],[34.021,-13.8],[34.018,-13.796],[34.009,-13.789],[33.997,-13.782],[33.991,-13.779],[33.971,-13.774],[33.941,-13.762],[33.917,-13.757],[33.901,-13.755],[33.888,-13.756],[33.84,-13.763],[33.804,-13.764],[33.786,-13.758],[33.775,-13.748],[33.77,-13.736],[33.767,-13.712],[33.76,-13.69],[33.758,-13.68],[33.757,-13.671],[33.755,-13.662],[33.75,-13.66],[33.74,-13.66],[33.582,-13.704],[33.523,-13.703],[33.477,-13.68],[33.467,-13.665],[33.463,-13.651],[33.461,-13.637],[33.445,-13.563],[33.445,-13.548],[33.451,-13.512],[33.451,-13.504],[33.446,-13.498],[33.442,-13.493],[33.422,-13.48],[33.441,-13.446],[33.448,-13.423],[33.46,-13.404],[33.464,-13.397],[33.472,-13.375],[33.473,-13.369],[33.472,-13.363],[33.471,-13.359],[33.468,-13.354],[33.463,-13.346],[33.461,-13.341],[33.459,-13.336],[33.459,-13.331],[33.462,-13.326],[33.467,-13.323],[33.476,-13.323],[33.481,-13.325],[33.486,-13.329],[33.489,-13.332],[33.497,-13.338],[33.5,-13.34],[33.503,-13.341],[33.508,-13.343],[33.514,-13.344],[33.52,-13.344],[33.526,-13.342],[33.533,-13.338],[33.54,-13.327],[33.548,-13.321],[33.559,-13.301],[33.563,-13.297],[33.578,-13.29],[33.587,-13.283],[33.591,-13.278],[33.595,-13.271],[33.603,-13.249],[33.619,-13.234],[33.627,-13.269],[33.632,-13.274],[33.639,-13.279],[33.651,-13.285],[33.665,-13.296],[33.692,-13.322],[33.706,-13.342],[33.717,-13.362],[33.739,-13.418],[33.742,-13.431],[33.745,-13.476],[33.748,-13.493],[33.753,-13.501],[33.759,-13.505],[33.766,-13.506],[33.818,-13.507],[33.872,-13.488],[33.883,-13.486],[33.899,-13.486],[33.915,-13.49],[33.94,-13.499],[33.954,-13.502],[33.982,-13.499],[33.998,-13.5],[34.055,-13.521],[34.065,-13.522],[34.073,-13.522],[34.08,-13.521],[34.108,-13.509],[34.117,-13.505]]]}},{"type":"Feature","id":"MW-KS","properties":{"id":"MW-KS","countryCode":"MW","isoSubdivision":"MW-KS","name":"Kasungu","name_en":"Kasungu","name_ko":"카숭구 현","type":"District","labelLongitude":33.454,"labelLatitude":-12.932,"minZoom":8.7},"geometry":{"type":"Polygon","coordinates":[[[33.328,-12.538],[33.35,-12.533],[33.373,-12.519],[33.394,-12.498],[33.409,-12.475],[33.421,-12.465],[33.451,-12.453],[33.46,-12.441],[33.461,-12.417],[33.465,-12.409],[33.481,-12.406],[33.488,-12.39],[33.514,-12.374],[33.529,-12.378],[33.574,-12.387],[33.58,-12.392],[33.586,-12.399],[33.585,-12.405],[33.583,-12.411],[33.581,-12.416],[33.578,-12.42],[33.568,-12.431],[33.565,-12.435],[33.562,-12.44],[33.56,-12.445],[33.558,-12.457],[33.559,-12.511],[33.56,-12.522],[33.563,-12.529],[33.575,-12.544],[33.582,-12.557],[33.585,-12.565],[33.585,-12.572],[33.583,-12.577],[33.58,-12.581],[33.576,-12.584],[33.572,-12.592],[33.569,-12.604],[33.568,-12.633],[33.572,-12.643],[33.577,-12.648],[33.588,-12.647],[33.595,-12.647],[33.601,-12.648],[33.607,-12.65],[33.611,-12.653],[33.618,-12.66],[33.635,-12.686],[33.646,-12.698],[33.651,-12.702],[33.656,-12.706],[33.661,-12.708],[33.673,-12.711],[33.686,-12.713],[33.699,-12.714],[33.706,-12.714],[33.711,-12.713],[33.721,-12.709],[33.726,-12.707],[33.734,-12.701],[33.738,-12.698],[33.741,-12.696],[33.746,-12.694],[33.758,-12.694],[33.763,-12.693],[33.77,-12.695],[33.779,-12.699],[33.8,-12.718],[33.806,-12.722],[33.811,-12.722],[33.815,-12.72],[33.819,-12.717],[33.827,-12.712],[33.835,-12.71],[33.822,-12.788],[33.821,-12.82],[33.823,-12.83],[33.828,-12.841],[33.833,-12.846],[33.84,-12.849],[33.848,-12.849],[33.905,-12.842],[33.913,-12.843],[33.922,-12.844],[33.931,-12.847],[33.943,-12.854],[33.952,-12.865],[33.963,-12.882],[33.996,-12.92],[34.001,-12.933],[34.002,-12.938],[34,-12.941],[33.99,-12.946],[33.951,-12.978],[33.948,-12.981],[33.943,-12.989],[33.936,-13.007],[33.934,-13.011],[33.921,-13.023],[33.848,-13.058],[33.84,-13.064],[33.831,-13.074],[33.829,-13.082],[33.824,-13.092],[33.817,-13.098],[33.808,-13.103],[33.793,-13.109],[33.78,-13.12],[33.774,-13.127],[33.761,-13.149],[33.741,-13.172],[33.73,-13.181],[33.72,-13.187],[33.713,-13.19],[33.709,-13.195],[33.707,-13.202],[33.703,-13.206],[33.698,-13.208],[33.682,-13.212],[33.665,-13.217],[33.65,-13.226],[33.634,-13.233],[33.619,-13.234],[33.603,-13.249],[33.595,-13.271],[33.591,-13.278],[33.587,-13.283],[33.578,-13.29],[33.563,-13.297],[33.559,-13.301],[33.548,-13.321],[33.54,-13.327],[33.533,-13.338],[33.526,-13.342],[33.52,-13.344],[33.514,-13.344],[33.508,-13.343],[33.503,-13.341],[33.5,-13.34],[33.497,-13.338],[33.489,-13.332],[33.486,-13.329],[33.481,-13.325],[33.476,-13.323],[33.467,-13.323],[33.462,-13.326],[33.459,-13.331],[33.459,-13.336],[33.461,-13.341],[33.463,-13.346],[33.468,-13.354],[33.471,-13.359],[33.472,-13.363],[33.473,-13.369],[33.472,-13.375],[33.464,-13.397],[33.46,-13.404],[33.448,-13.423],[33.441,-13.446],[33.422,-13.48],[33.414,-13.491],[33.408,-13.493],[33.399,-13.496],[33.393,-13.5],[33.384,-13.521],[33.383,-13.529],[33.384,-13.534],[33.387,-13.538],[33.389,-13.545],[33.389,-13.554],[33.388,-13.571],[33.384,-13.579],[33.381,-13.585],[33.351,-13.609],[33.333,-13.628],[33.293,-13.584],[33.265,-13.568],[33.255,-13.559],[33.241,-13.542],[33.206,-13.51],[33.194,-13.495],[33.185,-13.479],[33.174,-13.45],[33.158,-13.417],[33.153,-13.404],[33.152,-13.392],[33.156,-13.371],[33.156,-13.361],[33.151,-13.346],[33.145,-13.34],[33.14,-13.337],[32.919,-13.35],[32.905,-13.351],[32.92,-13.295],[32.938,-13.256],[32.963,-13.225],[32.993,-13.216],[32.998,-13.202],[32.995,-13.191],[32.979,-13.168],[32.971,-13.151],[32.967,-13.134],[32.966,-13.117],[32.982,-13.006],[33.009,-12.945],[33.014,-12.917],[33.005,-12.893],[32.98,-12.871],[32.954,-12.854],[32.947,-12.843],[32.941,-12.77],[32.945,-12.752],[32.958,-12.725],[32.994,-12.673],[33.025,-12.613],[33.035,-12.599],[33.05,-12.587],[33.058,-12.583],[33.065,-12.585],[33.07,-12.59],[33.074,-12.598],[33.081,-12.605],[33.09,-12.601],[33.099,-12.593],[33.107,-12.589],[33.123,-12.585],[33.13,-12.584],[33.14,-12.586],[33.147,-12.593],[33.159,-12.615],[33.163,-12.62],[33.173,-12.62],[33.178,-12.615],[33.181,-12.608],[33.187,-12.602],[33.192,-12.599],[33.197,-12.595],[33.203,-12.592],[33.213,-12.589],[33.227,-12.579],[33.244,-12.545],[33.255,-12.532],[33.263,-12.529],[33.29,-12.524],[33.302,-12.525],[33.312,-12.53],[33.32,-12.535],[33.328,-12.538]]]}},{"type":"Feature","id":"MW-LI","properties":{"id":"MW-LI","countryCode":"MW","isoSubdivision":"MW-LI","name":"Lilongwe","name_en":"Lilongwe","name_ko":"릴롱궤 현","type":"District","labelLongitude":33.768,"labelLatitude":-14.041,"minZoom":8.7},"geometry":{"type":"Polygon","coordinates":[[[33.618,-14.562],[33.604,-14.524],[33.596,-14.511],[33.584,-14.503],[33.557,-14.49],[33.546,-14.482],[33.537,-14.469],[33.532,-14.456],[33.526,-14.444],[33.512,-14.433],[33.47,-14.414],[33.457,-14.404],[33.439,-14.381],[33.389,-14.281],[33.371,-14.257],[33.357,-14.231],[33.36,-14.212],[33.359,-14.212],[33.348,-14.162],[33.333,-14.121],[33.331,-14.108],[33.332,-14.095],[33.34,-14.073],[33.342,-14.057],[33.335,-14.027],[33.335,-14.018],[33.336,-14.011],[33.339,-14.003],[33.341,-13.99],[33.339,-13.978],[33.335,-13.967],[33.315,-13.938],[33.3,-13.9],[33.296,-13.893],[33.289,-13.886],[33.282,-13.88],[33.273,-13.871],[33.264,-13.86],[33.254,-13.841],[33.253,-13.832],[33.254,-13.825],[33.261,-13.818],[33.264,-13.811],[33.266,-13.803],[33.267,-13.778],[33.269,-13.77],[33.271,-13.766],[33.277,-13.758],[33.281,-13.752],[33.284,-13.745],[33.285,-13.734],[33.285,-13.726],[33.282,-13.719],[33.282,-13.713],[33.284,-13.708],[33.287,-13.704],[33.3,-13.689],[33.303,-13.684],[33.306,-13.673],[33.311,-13.663],[33.317,-13.655],[33.32,-13.651],[33.327,-13.643],[33.333,-13.628],[33.351,-13.609],[33.381,-13.585],[33.384,-13.579],[33.388,-13.571],[33.389,-13.554],[33.389,-13.545],[33.387,-13.538],[33.384,-13.534],[33.383,-13.529],[33.384,-13.521],[33.393,-13.5],[33.399,-13.496],[33.408,-13.493],[33.414,-13.491],[33.422,-13.48],[33.442,-13.493],[33.446,-13.498],[33.451,-13.504],[33.451,-13.512],[33.445,-13.548],[33.445,-13.563],[33.461,-13.637],[33.463,-13.651],[33.467,-13.665],[33.477,-13.68],[33.523,-13.703],[33.582,-13.704],[33.74,-13.66],[33.75,-13.66],[33.755,-13.662],[33.757,-13.671],[33.758,-13.68],[33.76,-13.69],[33.767,-13.712],[33.77,-13.736],[33.775,-13.748],[33.786,-13.758],[33.804,-13.764],[33.84,-13.763],[33.888,-13.756],[33.901,-13.755],[33.917,-13.757],[33.941,-13.762],[33.971,-13.774],[33.991,-13.779],[33.997,-13.782],[34.009,-13.789],[34.018,-13.796],[34.021,-13.8],[34.026,-13.808],[34.035,-13.816],[34.049,-13.823],[34.101,-13.818],[34.122,-13.813],[34.14,-13.805],[34.152,-13.798],[34.164,-13.793],[34.176,-13.791],[34.213,-13.796],[34.223,-13.795],[34.25,-13.78],[34.248,-13.808],[34.237,-13.819],[34.21,-13.83],[34.196,-13.839],[34.19,-13.846],[34.185,-13.854],[34.185,-13.86],[34.186,-13.867],[34.191,-13.872],[34.2,-13.872],[34.211,-13.869],[34.245,-13.851],[34.253,-13.849],[34.261,-13.847],[34.273,-13.847],[34.284,-13.851],[34.266,-13.88],[34.248,-13.897],[34.222,-13.915],[34.21,-13.921],[34.205,-13.928],[34.2,-13.938],[34.196,-13.95],[34.169,-14],[34.16,-14.012],[34.146,-14.026],[34.133,-14.044],[34.118,-14.06],[34.11,-14.073],[34.103,-14.085],[34.093,-14.113],[34.078,-14.128],[34.063,-14.139],[34.051,-14.155],[34.039,-14.168],[34.027,-14.178],[34.016,-14.183],[33.978,-14.188],[33.964,-14.196],[33.956,-14.206],[33.951,-14.22],[33.947,-14.266],[33.942,-14.282],[33.934,-14.291],[33.926,-14.295],[33.916,-14.295],[33.907,-14.296],[33.883,-14.306],[33.873,-14.308],[33.855,-14.307],[33.843,-14.311],[33.822,-14.326],[33.81,-14.337],[33.798,-14.346],[33.729,-14.378],[33.716,-14.386],[33.707,-14.396],[33.7,-14.408],[33.695,-14.422],[33.692,-14.438],[33.689,-14.481],[33.686,-14.492],[33.664,-14.525],[33.655,-14.533],[33.645,-14.54],[33.636,-14.553],[33.618,-14.562]]]}},{"type":"Feature","id":"MW-LK","properties":{"id":"MW-LK","countryCode":"MW","isoSubdivision":"MW-LK","name":"Likoma","name_en":"Likoma","name_ko":"리코마 현","type":"District","labelLongitude":34.706,"labelLatitude":-12.073,"minZoom":8.7},"geometry":{"type":"MultiPolygon","coordinates":[[[[34.694,-12],[34.716,-12.002],[34.738,-12.009],[34.754,-12.02],[34.762,-12.04],[34.759,-12.066],[34.748,-12.09],[34.732,-12.109],[34.712,-12.121],[34.689,-12.125],[34.669,-12.118],[34.656,-12.097],[34.656,-12.076],[34.662,-12.053],[34.681,-12.009],[34.694,-12]]],[[[34.562,-11.979],[34.563,-11.978],[34.598,-11.971],[34.627,-11.987],[34.641,-12.018],[34.632,-12.052],[34.611,-12.073],[34.596,-12.072],[34.584,-12.059],[34.571,-12.041],[34.544,-12.011],[34.542,-11.995],[34.562,-11.979]]]]}},{"type":"Feature","id":"MW-MC","properties":{"id":"MW-MC","countryCode":"MW","isoSubdivision":"MW-MC","name":"Mchinji","name_en":"Mchinji","name_ko":"음친지 현","type":"District","labelLongitude":33.011,"labelLatitude":-13.696,"minZoom":8.7},"geometry":{"type":"Polygon","coordinates":[[[32.71,-13.575],[32.723,-13.573],[32.75,-13.551],[32.763,-13.542],[32.8,-13.537],[32.813,-13.528],[32.818,-13.506],[32.817,-13.487],[32.819,-13.472],[32.827,-13.461],[32.846,-13.458],[32.874,-13.443],[32.892,-13.405],[32.905,-13.351],[32.919,-13.35],[33.14,-13.337],[33.145,-13.34],[33.151,-13.346],[33.156,-13.361],[33.156,-13.371],[33.152,-13.392],[33.153,-13.404],[33.158,-13.417],[33.174,-13.45],[33.185,-13.479],[33.194,-13.495],[33.206,-13.51],[33.241,-13.542],[33.255,-13.559],[33.265,-13.568],[33.293,-13.584],[33.333,-13.628],[33.327,-13.643],[33.32,-13.651],[33.317,-13.655],[33.311,-13.663],[33.306,-13.673],[33.303,-13.684],[33.3,-13.689],[33.287,-13.704],[33.284,-13.708],[33.282,-13.713],[33.282,-13.719],[33.285,-13.726],[33.285,-13.734],[33.284,-13.745],[33.281,-13.752],[33.277,-13.758],[33.271,-13.766],[33.269,-13.77],[33.267,-13.778],[33.266,-13.803],[33.264,-13.811],[33.261,-13.818],[33.254,-13.825],[33.253,-13.832],[33.254,-13.841],[33.264,-13.86],[33.273,-13.871],[33.282,-13.88],[33.289,-13.886],[33.296,-13.893],[33.3,-13.9],[33.315,-13.938],[33.335,-13.967],[33.339,-13.978],[33.341,-13.99],[33.339,-14.003],[33.336,-14.011],[33.335,-14.018],[33.335,-14.027],[33.342,-14.057],[33.34,-14.073],[33.332,-14.095],[33.331,-14.108],[33.333,-14.121],[33.348,-14.162],[33.359,-14.212],[33.36,-14.212],[33.357,-14.231],[33.354,-14.225],[33.347,-14.219],[33.338,-14.215],[33.324,-14.206],[33.316,-14.197],[33.291,-14.157],[33.286,-14.139],[33.291,-14.089],[33.28,-14.061],[33.258,-14.044],[33.203,-14.014],[33.186,-13.994],[33.155,-13.937],[33.14,-13.925],[33.13,-13.931],[33.121,-13.956],[33.112,-13.965],[33.077,-13.974],[33.063,-13.982],[33.049,-13.997],[33.018,-14.046],[33,-14.05],[32.976,-14.021],[32.971,-14.006],[32.975,-13.955],[32.977,-13.95],[32.976,-13.945],[32.971,-13.936],[32.963,-13.932],[32.944,-13.933],[32.936,-13.926],[32.93,-13.911],[32.928,-13.896],[32.924,-13.88],[32.874,-13.821],[32.859,-13.808],[32.829,-13.797],[32.792,-13.79],[32.763,-13.777],[32.757,-13.75],[32.768,-13.739],[32.805,-13.722],[32.813,-13.711],[32.808,-13.699],[32.77,-13.647],[32.743,-13.635],[32.707,-13.635],[32.675,-13.628],[32.663,-13.596],[32.668,-13.576],[32.677,-13.568],[32.692,-13.569],[32.71,-13.575]]]}},{"type":"Feature","id":"MW-MG","properties":{"id":"MW-MG","countryCode":"MW","isoSubdivision":"MW-MG","name":"Mangochi","name_en":"Mangochi","name_ko":"망고치 현","type":"District","labelLongitude":35.35,"labelLatitude":-14.374,"minZoom":8.7},"geometry":{"type":"Polygon","coordinates":[[[34.864,-13.516],[34.894,-13.535],[34.997,-13.626],[35.084,-13.704],[35.171,-13.806],[35.279,-13.931],[35.37,-14.037],[35.456,-14.137],[35.523,-14.263],[35.609,-14.369],[35.714,-14.499],[35.751,-14.543],[35.75,-14.543],[35.723,-14.565],[35.7,-14.573],[35.67,-14.574],[35.646,-14.577],[35.596,-14.589],[35.575,-14.597],[35.561,-14.606],[35.546,-14.622],[35.543,-14.627],[35.543,-14.634],[35.548,-14.667],[35.547,-14.681],[35.542,-14.695],[35.531,-14.708],[35.521,-14.714],[35.511,-14.717],[35.496,-14.725],[35.469,-14.752],[35.455,-14.759],[35.44,-14.762],[35.425,-14.759],[35.373,-14.742],[35.363,-14.74],[35.355,-14.737],[35.349,-14.732],[35.338,-14.715],[35.328,-14.703],[35.311,-14.688],[35.305,-14.684],[35.299,-14.682],[35.295,-14.68],[35.288,-14.679],[35.285,-14.681],[35.283,-14.685],[35.281,-14.695],[35.279,-14.7],[35.274,-14.708],[35.271,-14.717],[35.27,-14.722],[35.27,-14.728],[35.271,-14.733],[35.276,-14.746],[35.276,-14.748],[35.275,-14.756],[35,-14.756],[34.99,-14.755],[34.957,-14.731],[34.926,-14.718],[34.913,-14.706],[34.797,-14.555],[34.769,-14.475],[34.755,-14.405],[34.748,-14.303],[34.748,-14.261],[34.736,-14.078],[34.864,-13.516]]]}},{"type":"Feature","id":"MW-MH","properties":{"id":"MW-MH","countryCode":"MW","isoSubdivision":"MW-MH","name":"Machinga","name_en":"Machinga","name_ko":"마칭가 현","type":"District","labelLongitude":35.538,"labelLatitude":-14.953,"minZoom":8.7},"geometry":{"type":"Polygon","coordinates":[[[35.751,-14.543],[35.787,-14.588],[35.836,-14.636],[35.847,-14.65],[35.853,-14.667],[35.863,-14.877],[35.87,-14.886],[35.883,-14.888],[35.904,-14.887],[35.867,-14.973],[35.839,-15.036],[35.791,-15.147],[35.784,-15.172],[35.785,-15.195],[35.789,-15.211],[35.788,-15.211],[35.531,-15.207],[35.528,-15.209],[35.524,-15.212],[35.522,-15.214],[35.512,-15.222],[35.502,-15.228],[35.489,-15.234],[35.468,-15.24],[35.454,-15.242],[35.443,-15.242],[35.425,-15.236],[35.374,-15.216],[35.354,-15.212],[35.342,-15.212],[35.331,-15.216],[35.325,-15.22],[35.306,-15.239],[35.296,-15.245],[35.287,-15.246],[35.274,-15.243],[35.258,-15.238],[35.241,-15.235],[35.231,-15.236],[35.223,-15.241],[35.214,-15.25],[35.202,-15.258],[35.192,-15.258],[35.185,-15.253],[35.181,-15.247],[35.173,-15.23],[35.181,-15.223],[35.189,-15.206],[35.192,-15.185],[35.206,-15.148],[35.213,-15.122],[35.23,-15.087],[35.232,-15.077],[35.234,-15.061],[35.236,-15.052],[35.243,-15.04],[35.273,-14.994],[35.288,-14.984],[35.299,-14.975],[35.305,-14.953],[35.315,-14.873],[35.313,-14.825],[35.302,-14.782],[35.278,-14.758],[35.275,-14.756],[35.276,-14.748],[35.276,-14.746],[35.271,-14.733],[35.27,-14.728],[35.27,-14.722],[35.271,-14.717],[35.274,-14.708],[35.279,-14.7],[35.281,-14.695],[35.283,-14.685],[35.285,-14.681],[35.288,-14.679],[35.295,-14.68],[35.299,-14.682],[35.305,-14.684],[35.311,-14.688],[35.328,-14.703],[35.338,-14.715],[35.349,-14.732],[35.355,-14.737],[35.363,-14.74],[35.373,-14.742],[35.425,-14.759],[35.44,-14.762],[35.455,-14.759],[35.469,-14.752],[35.496,-14.725],[35.511,-14.717],[35.521,-14.714],[35.531,-14.708],[35.542,-14.695],[35.547,-14.681],[35.548,-14.667],[35.543,-14.634],[35.543,-14.627],[35.546,-14.622],[35.561,-14.606],[35.575,-14.597],[35.596,-14.589],[35.646,-14.577],[35.67,-14.574],[35.7,-14.573],[35.723,-14.565],[35.75,-14.543],[35.751,-14.543]]]}},{"type":"Feature","id":"MW-MU","properties":{"id":"MW-MU","countryCode":"MW","isoSubdivision":"MW-MU","name":"Mulanje","name_en":"Mulanje","name_ko":"물란제 현","type":"District","labelLongitude":35.54,"labelLatitude":-15.987,"minZoom":8.7},"geometry":{"type":"Polygon","coordinates":[[[35.797,-15.933],[35.79,-15.959],[35.79,-15.974],[35.796,-16.005],[35.795,-16.021],[35.785,-16.042],[35.77,-16.059],[35.698,-16.107],[35.687,-16.113],[35.678,-16.113],[35.659,-16.11],[35.649,-16.111],[35.553,-16.138],[35.529,-16.141],[35.524,-16.147],[35.521,-16.162],[35.515,-16.171],[35.502,-16.171],[35.489,-16.165],[35.48,-16.157],[35.473,-16.14],[35.456,-16.129],[35.436,-16.124],[35.416,-16.123],[35.393,-16.129],[35.375,-16.141],[35.305,-16.202],[35.299,-16.209],[35.288,-16.197],[35.285,-16.192],[35.283,-16.184],[35.285,-16.173],[35.292,-16.155],[35.299,-16.145],[35.305,-16.138],[35.31,-16.134],[35.319,-16.125],[35.323,-16.097],[35.31,-16.005],[35.324,-15.973],[35.329,-15.968],[35.334,-15.957],[35.335,-15.943],[35.321,-15.777],[35.321,-15.74],[35.341,-15.683],[35.368,-15.682],[35.377,-15.678],[35.39,-15.672],[35.403,-15.669],[35.445,-15.668],[35.458,-15.666],[35.465,-15.663],[35.495,-15.63],[35.502,-15.624],[35.527,-15.607],[35.534,-15.615],[35.535,-15.617],[35.535,-15.619],[35.533,-15.624],[35.53,-15.634],[35.529,-15.636],[35.527,-15.639],[35.526,-15.64],[35.526,-15.641],[35.525,-15.641],[35.523,-15.642],[35.522,-15.642],[35.517,-15.652],[35.516,-15.654],[35.514,-15.656],[35.514,-15.657],[35.513,-15.658],[35.511,-15.661],[35.5,-15.68],[35.497,-15.686],[35.497,-15.691],[35.498,-15.692],[35.498,-15.693],[35.499,-15.692],[35.5,-15.692],[35.503,-15.693],[35.504,-15.693],[35.505,-15.693],[35.508,-15.694],[35.509,-15.694],[35.51,-15.695],[35.512,-15.696],[35.513,-15.697],[35.514,-15.698],[35.521,-15.79],[35.525,-15.809],[35.53,-15.825],[35.532,-15.828],[35.534,-15.83],[35.535,-15.831],[35.537,-15.833],[35.538,-15.833],[35.539,-15.834],[35.54,-15.834],[35.541,-15.835],[35.542,-15.836],[35.543,-15.835],[35.544,-15.835],[35.544,-15.836],[35.547,-15.838],[35.548,-15.84],[35.549,-15.841],[35.551,-15.843],[35.552,-15.846],[35.553,-15.847],[35.554,-15.847],[35.556,-15.847],[35.557,-15.847],[35.559,-15.846],[35.56,-15.846],[35.561,-15.846],[35.562,-15.846],[35.563,-15.847],[35.565,-15.848],[35.567,-15.852],[35.596,-15.929],[35.601,-15.936],[35.64,-15.902],[35.665,-15.893],[35.67,-15.894],[35.681,-15.902],[35.696,-15.917],[35.714,-15.931],[35.721,-15.934],[35.729,-15.941],[35.731,-15.942],[35.734,-15.943],[35.739,-15.944],[35.74,-15.944],[35.742,-15.944],[35.743,-15.944],[35.744,-15.943],[35.745,-15.942],[35.746,-15.94],[35.747,-15.939],[35.749,-15.939],[35.752,-15.938],[35.753,-15.937],[35.755,-15.937],[35.756,-15.936],[35.761,-15.934],[35.762,-15.933],[35.763,-15.932],[35.764,-15.931],[35.766,-15.93],[35.77,-15.929],[35.772,-15.928],[35.773,-15.928],[35.775,-15.929],[35.777,-15.928],[35.778,-15.928],[35.78,-15.928],[35.781,-15.928],[35.786,-15.931],[35.788,-15.932],[35.789,-15.932],[35.791,-15.932],[35.793,-15.932],[35.794,-15.933],[35.795,-15.933],[35.796,-15.934],[35.796,-15.933],[35.797,-15.933]]]}},{"type":"Feature","id":"MW-MW","properties":{"id":"MW-MW","countryCode":"MW","isoSubdivision":"MW-MW","name":"Mwanza","name_en":"Mwanza","name_ko":"음완자 현","type":"District","labelLongitude":34.513,"labelLatitude":-15.639,"minZoom":8.7},"geometry":{"type":"Polygon","coordinates":[[[34.342,-15.73],[34.404,-15.647],[34.416,-15.615],[34.419,-15.575],[34.538,-15.588],[34.656,-15.6],[34.763,-15.611],[34.765,-15.673],[34.763,-15.68],[34.758,-15.688],[34.752,-15.694],[34.737,-15.703],[34.736,-15.715],[34.744,-15.738],[34.75,-15.812],[34.537,-15.807],[34.497,-15.795],[34.357,-15.736],[34.342,-15.73]]]}},{"type":"Feature","id":"MW-MZ","properties":{"id":"MW-MZ","countryCode":"MW","isoSubdivision":"MW-MZ","name":"Mzimba","name_en":"Mzimba","name_ko":"음짐바 현","type":"District","labelLongitude":33.659,"labelLatitude":-11.879,"minZoom":8.7},"geometry":{"type":"Polygon","coordinates":[[[33.265,-11.423],[33.274,-11.409],[33.274,-11.397],[33.272,-11.384],[33.274,-11.37],[33.278,-11.364],[33.293,-11.358],[33.299,-11.353],[33.3,-11.347],[33.297,-11.336],[33.298,-11.329],[33.368,-11.223],[33.382,-11.195],[33.391,-11.165],[33.359,-11.109],[33.337,-11.087],[33.318,-11.062],[33.304,-11.035],[33.294,-11.004],[33.291,-10.975],[33.31,-10.983],[33.356,-11.001],[33.393,-11.007],[33.427,-11.008],[33.435,-11.012],[33.44,-11.018],[33.445,-11.036],[33.447,-11.053],[33.447,-11.063],[33.445,-11.073],[33.442,-11.08],[33.439,-11.088],[33.438,-11.096],[33.441,-11.107],[33.449,-11.109],[33.458,-11.106],[33.478,-11.092],[33.496,-11.077],[33.511,-11.062],[33.516,-11.054],[33.529,-11.033],[33.534,-11.026],[33.542,-11.021],[33.555,-11.018],[33.565,-11.021],[33.575,-11.028],[33.586,-11.038],[33.596,-11.046],[33.61,-11.053],[33.622,-11.056],[33.632,-11.056],[33.671,-11.05],[33.679,-11.051],[33.685,-11.056],[33.693,-11.072],[33.699,-11.079],[33.708,-11.085],[33.717,-11.086],[33.725,-11.085],[33.733,-11.082],[33.74,-11.077],[33.746,-11.07],[33.749,-11.063],[33.75,-11.057],[33.748,-11.052],[33.746,-11.048],[33.743,-11.042],[33.741,-11.036],[33.743,-11.03],[33.748,-11.027],[33.784,-11.017],[33.815,-11.014],[33.909,-11.027],[33.923,-11.025],[33.932,-11.019],[33.939,-10.976],[33.941,-10.969],[33.945,-10.964],[33.952,-10.966],[34.016,-11.017],[34.03,-11.033],[34.043,-11.051],[34.056,-11.077],[34.046,-11.149],[34.022,-11.229],[34.02,-11.246],[34.023,-11.258],[34.038,-11.266],[34.045,-11.271],[34.05,-11.279],[34.073,-11.369],[34.077,-11.375],[34.091,-11.391],[34.103,-11.428],[34.102,-11.445],[34.098,-11.453],[34.089,-11.457],[34.071,-11.462],[34.057,-11.469],[34.053,-11.47],[34.048,-11.469],[34.038,-11.464],[34.032,-11.463],[34.027,-11.462],[34.012,-11.463],[34.001,-11.47],[33.992,-11.482],[33.98,-11.509],[33.973,-11.523],[33.964,-11.534],[33.956,-11.538],[33.946,-11.542],[33.938,-11.542],[33.931,-11.541],[33.892,-11.53],[33.886,-11.529],[33.878,-11.529],[33.871,-11.532],[33.863,-11.536],[33.842,-11.556],[33.835,-11.56],[33.83,-11.563],[33.82,-11.569],[33.809,-11.577],[33.794,-11.594],[33.787,-11.605],[33.782,-11.616],[33.771,-11.671],[33.768,-11.692],[33.768,-11.703],[33.769,-11.714],[33.771,-11.724],[33.775,-11.734],[33.781,-11.742],[33.793,-11.752],[33.796,-11.755],[33.799,-11.76],[33.8,-11.766],[33.802,-11.773],[33.806,-11.779],[33.82,-11.791],[33.824,-11.799],[33.824,-11.816],[33.818,-11.834],[33.814,-11.854],[33.805,-11.868],[33.802,-11.877],[33.802,-11.886],[33.808,-11.91],[33.81,-11.925],[33.809,-11.945],[33.81,-11.959],[33.814,-11.971],[33.819,-11.981],[33.821,-11.993],[33.818,-12.002],[33.797,-12.029],[33.789,-12.037],[33.779,-12.042],[33.768,-12.044],[33.757,-12.045],[33.747,-12.049],[33.738,-12.055],[33.728,-12.067],[33.718,-12.083],[33.715,-12.092],[33.717,-12.101],[33.723,-12.106],[33.731,-12.11],[33.748,-12.116],[33.753,-12.12],[33.758,-12.125],[33.763,-12.132],[33.768,-12.138],[33.775,-12.142],[33.783,-12.144],[33.843,-12.143],[33.778,-12.197],[33.761,-12.224],[33.76,-12.232],[33.764,-12.261],[33.769,-12.273],[33.777,-12.281],[33.788,-12.285],[33.82,-12.288],[33.834,-12.296],[33.847,-12.309],[33.862,-12.34],[33.872,-12.355],[33.891,-12.375],[33.894,-12.39],[33.896,-12.412],[33.901,-12.427],[33.908,-12.439],[33.916,-12.449],[33.925,-12.459],[33.934,-12.464],[33.96,-12.463],[33.973,-12.465],[34.01,-12.483],[34.021,-12.487],[34.034,-12.49],[34.046,-12.492],[34.059,-12.49],[34.082,-12.484],[34.091,-12.485],[34.101,-12.489],[34.104,-12.494],[34.105,-12.498],[34.104,-12.5],[34.102,-12.502],[34.087,-12.517],[34.078,-12.526],[34.071,-12.549],[34.068,-12.556],[34.063,-12.562],[34.057,-12.564],[34.039,-12.567],[34.017,-12.572],[34.008,-12.575],[34,-12.58],[33.984,-12.592],[33.974,-12.599],[33.941,-12.61],[33.911,-12.615],[33.903,-12.618],[33.896,-12.623],[33.89,-12.628],[33.885,-12.635],[33.858,-12.68],[33.835,-12.71],[33.827,-12.712],[33.819,-12.717],[33.815,-12.72],[33.811,-12.722],[33.806,-12.722],[33.8,-12.718],[33.779,-12.699],[33.77,-12.695],[33.763,-12.693],[33.758,-12.694],[33.746,-12.694],[33.741,-12.696],[33.738,-12.698],[33.734,-12.701],[33.726,-12.707],[33.721,-12.709],[33.711,-12.713],[33.706,-12.714],[33.699,-12.714],[33.686,-12.713],[33.673,-12.711],[33.661,-12.708],[33.656,-12.706],[33.651,-12.702],[33.646,-12.698],[33.635,-12.686],[33.618,-12.66],[33.611,-12.653],[33.607,-12.65],[33.601,-12.648],[33.595,-12.647],[33.588,-12.647],[33.577,-12.648],[33.572,-12.643],[33.568,-12.633],[33.569,-12.604],[33.572,-12.592],[33.576,-12.584],[33.58,-12.581],[33.583,-12.577],[33.585,-12.572],[33.585,-12.565],[33.582,-12.557],[33.575,-12.544],[33.563,-12.529],[33.56,-12.522],[33.559,-12.511],[33.558,-12.457],[33.56,-12.445],[33.562,-12.44],[33.565,-12.435],[33.568,-12.431],[33.578,-12.42],[33.581,-12.416],[33.583,-12.411],[33.585,-12.405],[33.586,-12.399],[33.58,-12.392],[33.574,-12.387],[33.529,-12.378],[33.514,-12.374],[33.518,-12.372],[33.527,-12.356],[33.526,-12.335],[33.514,-12.331],[33.497,-12.332],[33.458,-12.318],[33.385,-12.34],[33.349,-12.328],[33.33,-12.298],[33.312,-12.229],[33.3,-12.196],[33.288,-12.182],[33.26,-12.156],[33.253,-12.14],[33.251,-12.106],[33.255,-12.073],[33.294,-11.981],[33.304,-11.93],[33.309,-11.914],[33.313,-11.899],[33.309,-11.884],[33.297,-11.863],[33.297,-11.847],[33.311,-11.809],[33.314,-11.772],[33.305,-11.644],[33.303,-11.61],[33.297,-11.594],[33.283,-11.578],[33.267,-11.576],[33.249,-11.578],[33.233,-11.578],[33.216,-11.572],[33.213,-11.564],[33.227,-11.533],[33.234,-11.514],[33.235,-11.502],[33.23,-11.417],[33.24,-11.402],[33.265,-11.423]]]}},{"type":"Feature","id":"MW-NB","properties":{"id":"MW-NB","countryCode":"MW","isoSubdivision":"MW-NB","name":"Nkhata Bay","name_en":"Nkhata Bay","name_ko":"은카타베이 현","type":"District","labelLongitude":34.16,"labelLatitude":-11.628,"minZoom":8.7},"geometry":{"type":"Polygon","coordinates":[[[34.618,-10.966],[34.598,-10.991],[34.593,-11.016],[34.597,-11.037],[34.611,-11.078],[34.614,-11.102],[34.621,-11.12],[34.669,-11.16],[34.674,-11.17],[34.677,-11.179],[34.682,-11.185],[34.7,-11.189],[34.708,-11.195],[34.714,-11.203],[34.717,-11.212],[34.72,-11.235],[34.729,-11.254],[34.742,-11.269],[34.757,-11.278],[34.757,-11.284],[34.752,-11.287],[34.743,-11.294],[34.737,-11.297],[34.759,-11.337],[34.766,-11.345],[34.772,-11.344],[34.785,-11.333],[34.792,-11.331],[34.8,-11.332],[34.844,-11.346],[34.868,-11.359],[34.887,-11.375],[34.894,-11.396],[34.898,-11.404],[34.917,-11.419],[34.926,-11.446],[34.935,-11.456],[34.944,-11.464],[34.949,-11.472],[34.951,-11.478],[34.956,-11.487],[34.961,-11.499],[34.963,-11.513],[34.963,-11.565],[34.965,-11.574],[34.651,-11.57],[34.617,-11.578],[34.607,-11.591],[34.607,-11.609],[34.614,-11.653],[34.612,-11.693],[34.604,-11.733],[34.564,-11.831],[34.488,-11.944],[34.38,-12.104],[34.359,-12.154],[34.354,-12.199],[34.356,-12.205],[34.355,-12.205],[34.029,-12.205],[33.955,-12.188],[33.915,-12.17],[33.901,-12.161],[33.88,-12.143],[33.87,-12.14],[33.861,-12.139],[33.843,-12.143],[33.783,-12.144],[33.775,-12.142],[33.768,-12.138],[33.763,-12.132],[33.758,-12.125],[33.753,-12.12],[33.748,-12.116],[33.731,-12.11],[33.723,-12.106],[33.717,-12.101],[33.715,-12.092],[33.718,-12.083],[33.728,-12.067],[33.738,-12.055],[33.747,-12.049],[33.757,-12.045],[33.768,-12.044],[33.779,-12.042],[33.789,-12.037],[33.797,-12.029],[33.818,-12.002],[33.821,-11.993],[33.819,-11.981],[33.814,-11.971],[33.81,-11.959],[33.809,-11.945],[33.81,-11.925],[33.808,-11.91],[33.802,-11.886],[33.802,-11.877],[33.805,-11.868],[33.814,-11.854],[33.818,-11.834],[33.824,-11.816],[33.824,-11.799],[33.82,-11.791],[33.806,-11.779],[33.802,-11.773],[33.8,-11.766],[33.799,-11.76],[33.796,-11.755],[33.793,-11.752],[33.781,-11.742],[33.775,-11.734],[33.771,-11.724],[33.769,-11.714],[33.768,-11.703],[33.768,-11.692],[33.771,-11.671],[33.782,-11.616],[33.787,-11.605],[33.794,-11.594],[33.809,-11.577],[33.82,-11.569],[33.83,-11.563],[33.835,-11.56],[33.842,-11.556],[33.863,-11.536],[33.871,-11.532],[33.878,-11.529],[33.886,-11.529],[33.892,-11.53],[33.931,-11.541],[33.938,-11.542],[33.946,-11.542],[33.956,-11.538],[33.964,-11.534],[33.973,-11.523],[33.98,-11.509],[33.992,-11.482],[34.001,-11.47],[34.012,-11.463],[34.027,-11.462],[34.032,-11.463],[34.038,-11.464],[34.048,-11.469],[34.053,-11.47],[34.057,-11.469],[34.071,-11.462],[34.089,-11.457],[34.098,-11.453],[34.102,-11.445],[34.103,-11.428],[34.091,-11.391],[34.077,-11.375],[34.073,-11.369],[34.05,-11.279],[34.045,-11.271],[34.038,-11.266],[34.023,-11.258],[34.02,-11.246],[34.022,-11.229],[34.046,-11.149],[34.056,-11.077],[34.195,-10.997],[34.235,-10.966],[34.613,-10.966],[34.618,-10.966]]]}},{"type":"Feature","id":"MW-NE","properties":{"id":"MW-NE","countryCode":"MW","isoSubdivision":"MW-NE","name":"Neno","name_en":"Neno","name_ko":"네노 현","type":"District","labelLongitude":34.695,"labelLatitude":-15.437,"minZoom":8.7},"geometry":{"type":"Polygon","coordinates":[[[34.419,-15.575],[34.41,-15.515],[34.41,-15.481],[34.423,-15.465],[34.441,-15.456],[34.46,-15.425],[34.48,-15.413],[34.487,-15.4],[34.492,-15.375],[34.497,-15.363],[34.508,-15.348],[34.52,-15.34],[34.533,-15.333],[34.547,-15.323],[34.565,-15.297],[34.569,-15.271],[34.559,-15.2],[34.573,-15.201],[34.62,-15.21],[34.679,-15.228],[34.684,-15.229],[34.701,-15.226],[34.708,-15.226],[34.716,-15.228],[34.73,-15.233],[34.77,-15.241],[34.785,-15.245],[34.797,-15.25],[34.805,-15.257],[34.813,-15.265],[34.818,-15.279],[34.82,-15.291],[34.821,-15.301],[34.821,-15.306],[34.818,-15.317],[34.819,-15.321],[34.821,-15.325],[34.827,-15.326],[34.832,-15.326],[34.843,-15.314],[35.055,-15.325],[35.011,-15.351],[35.008,-15.352],[34.99,-15.361],[34.959,-15.365],[34.948,-15.368],[34.921,-15.391],[34.911,-15.395],[34.895,-15.419],[34.858,-15.522],[34.843,-15.546],[34.826,-15.552],[34.777,-15.582],[34.765,-15.594],[34.763,-15.611],[34.656,-15.6],[34.538,-15.588],[34.419,-15.575]]]}},{"type":"Feature","id":"MW-NI","properties":{"id":"MW-NI","countryCode":"MW","isoSubdivision":"MW-NI","name":"Ntchisi","name_en":"Ntchisi","name_ko":"은치시 현","type":"District","labelLongitude":33.876,"labelLatitude":-13.266,"minZoom":8.7},"geometry":{"type":"Polygon","coordinates":[[[33.921,-13.023],[33.922,-13.072],[33.929,-13.091],[33.934,-13.097],[33.939,-13.105],[33.951,-13.124],[33.951,-13.134],[33.95,-13.15],[33.956,-13.157],[33.962,-13.163],[33.972,-13.17],[33.979,-13.172],[33.987,-13.17],[33.994,-13.165],[33.999,-13.159],[34.002,-13.151],[34.009,-13.126],[34.011,-13.122],[34.015,-13.119],[34.057,-13.106],[34.062,-13.107],[34.064,-13.112],[34.063,-13.12],[34.06,-13.128],[34.059,-13.137],[34.059,-13.147],[34.063,-13.157],[34.069,-13.161],[34.077,-13.163],[34.086,-13.163],[34.098,-13.165],[34.103,-13.172],[34.106,-13.183],[34.115,-13.235],[34.114,-13.243],[34.11,-13.252],[34.105,-13.265],[34.104,-13.28],[34.125,-13.357],[34.134,-13.49],[34.117,-13.505],[34.108,-13.509],[34.08,-13.521],[34.073,-13.522],[34.065,-13.522],[34.055,-13.521],[33.998,-13.5],[33.982,-13.499],[33.954,-13.502],[33.94,-13.499],[33.915,-13.49],[33.899,-13.486],[33.883,-13.486],[33.872,-13.488],[33.818,-13.507],[33.766,-13.506],[33.759,-13.505],[33.753,-13.501],[33.748,-13.493],[33.745,-13.476],[33.742,-13.431],[33.739,-13.418],[33.717,-13.362],[33.706,-13.342],[33.692,-13.322],[33.665,-13.296],[33.651,-13.285],[33.639,-13.279],[33.632,-13.274],[33.627,-13.269],[33.619,-13.234],[33.634,-13.233],[33.65,-13.226],[33.665,-13.217],[33.682,-13.212],[33.698,-13.208],[33.703,-13.206],[33.707,-13.202],[33.709,-13.195],[33.713,-13.19],[33.72,-13.187],[33.73,-13.181],[33.741,-13.172],[33.761,-13.149],[33.774,-13.127],[33.78,-13.12],[33.793,-13.109],[33.808,-13.103],[33.817,-13.098],[33.824,-13.092],[33.829,-13.082],[33.831,-13.074],[33.84,-13.064],[33.848,-13.058],[33.921,-13.023]]]}},{"type":"Feature","id":"MW-NK","properties":{"id":"MW-NK","countryCode":"MW","isoSubdivision":"MW-NK","name":"Nkhotakota","name_en":"Nkhotakota","name_ko":"은코타코타 현","type":"District","labelLongitude":34.172,"labelLatitude":-12.84,"minZoom":8.7},"geometry":{"type":"Polygon","coordinates":[[[34.356,-12.205],[34.38,-12.291],[34.439,-12.495],[34.494,-12.687],[34.507,-12.799],[34.524,-12.94],[34.538,-13.059],[34.549,-13.159],[34.543,-13.244],[34.545,-13.326],[34.578,-13.398],[34.579,-13.4],[34.583,-13.404],[34.328,-13.404],[34.241,-13.452],[34.2,-13.47],[34.176,-13.474],[34.164,-13.476],[34.134,-13.49],[34.125,-13.357],[34.104,-13.28],[34.105,-13.265],[34.11,-13.252],[34.114,-13.243],[34.115,-13.235],[34.106,-13.183],[34.103,-13.172],[34.098,-13.165],[34.086,-13.163],[34.077,-13.163],[34.069,-13.161],[34.063,-13.157],[34.059,-13.147],[34.059,-13.137],[34.06,-13.128],[34.063,-13.12],[34.064,-13.112],[34.062,-13.107],[34.057,-13.106],[34.015,-13.119],[34.011,-13.122],[34.009,-13.126],[34.002,-13.151],[33.999,-13.159],[33.994,-13.165],[33.987,-13.17],[33.979,-13.172],[33.972,-13.17],[33.962,-13.163],[33.956,-13.157],[33.95,-13.15],[33.951,-13.134],[33.951,-13.124],[33.939,-13.105],[33.934,-13.097],[33.929,-13.091],[33.922,-13.072],[33.921,-13.023],[33.934,-13.011],[33.936,-13.007],[33.943,-12.989],[33.948,-12.981],[33.951,-12.978],[33.99,-12.946],[34,-12.941],[34.002,-12.938],[34.001,-12.933],[33.996,-12.92],[33.963,-12.882],[33.952,-12.865],[33.943,-12.854],[33.931,-12.847],[33.922,-12.844],[33.913,-12.843],[33.905,-12.842],[33.848,-12.849],[33.84,-12.849],[33.833,-12.846],[33.828,-12.841],[33.823,-12.83],[33.821,-12.82],[33.822,-12.788],[33.835,-12.71],[33.858,-12.68],[33.885,-12.635],[33.89,-12.628],[33.896,-12.623],[33.903,-12.618],[33.911,-12.615],[33.941,-12.61],[33.974,-12.599],[33.984,-12.592],[34,-12.58],[34.008,-12.575],[34.017,-12.572],[34.039,-12.567],[34.057,-12.564],[34.063,-12.562],[34.068,-12.556],[34.071,-12.549],[34.078,-12.526],[34.087,-12.517],[34.102,-12.502],[34.104,-12.5],[34.105,-12.498],[34.104,-12.494],[34.101,-12.489],[34.091,-12.485],[34.082,-12.484],[34.059,-12.49],[34.046,-12.492],[34.034,-12.49],[34.021,-12.487],[34.01,-12.483],[33.973,-12.465],[33.96,-12.463],[33.934,-12.464],[33.925,-12.459],[33.916,-12.449],[33.908,-12.439],[33.901,-12.427],[33.896,-12.412],[33.894,-12.39],[33.891,-12.375],[33.872,-12.355],[33.862,-12.34],[33.847,-12.309],[33.834,-12.296],[33.82,-12.288],[33.788,-12.285],[33.777,-12.281],[33.769,-12.273],[33.764,-12.261],[33.76,-12.232],[33.761,-12.224],[33.778,-12.197],[33.843,-12.143],[33.861,-12.139],[33.87,-12.14],[33.88,-12.143],[33.901,-12.161],[33.915,-12.17],[33.955,-12.188],[34.029,-12.205],[34.355,-12.205],[34.356,-12.205]]]}},{"type":"Feature","id":"MW-NS","properties":{"id":"MW-NS","countryCode":"MW","isoSubdivision":"MW-NS","name":"Nsanje","name_en":"Nsanje","name_ko":"은산제 현","type":"District","labelLongitude":35.1,"labelLatitude":-17.048,"minZoom":8.7},"geometry":{"type":"Polygon","coordinates":[[[35.033,-16.819],[35.005,-16.815],[34.975,-16.792],[34.957,-16.768],[34.948,-16.759],[34.934,-16.75],[34.928,-16.747],[34.912,-16.745],[34.905,-16.741],[34.901,-16.733],[34.898,-16.714],[34.894,-16.706],[34.887,-16.701],[34.894,-16.69],[34.915,-16.658],[34.932,-16.643],[34.95,-16.632],[34.962,-16.627],[34.968,-16.622],[34.968,-16.616],[34.966,-16.608],[34.965,-16.597],[34.971,-16.58],[34.977,-16.57],[35.031,-16.511],[35.05,-16.493],[35.057,-16.489],[35.061,-16.485],[35.063,-16.478],[35.096,-16.331],[35.152,-16.39],[35.159,-16.394],[35.17,-16.395],[35.173,-16.389],[35.19,-16.385],[35.237,-16.399],[35.233,-16.413],[35.234,-16.452],[35.228,-16.47],[35.214,-16.484],[35.145,-16.529],[35.132,-16.538],[35.148,-16.582],[35.164,-16.607],[35.169,-16.617],[35.174,-16.625],[35.185,-16.629],[35.195,-16.631],[35.217,-16.639],[35.223,-16.642],[35.228,-16.647],[35.233,-16.657],[35.237,-16.663],[35.24,-16.665],[35.248,-16.668],[35.251,-16.67],[35.275,-16.695],[35.278,-16.701],[35.281,-16.767],[35.285,-16.787],[35.305,-16.826],[35.31,-16.851],[35.285,-16.871],[35.283,-16.892],[35.285,-16.93],[35.282,-16.935],[35.276,-16.939],[35.271,-16.944],[35.271,-16.951],[35.276,-16.955],[35.308,-16.974],[35.314,-16.982],[35.309,-16.995],[35.299,-17.014],[35.297,-17.03],[35.306,-17.067],[35.308,-17.088],[35.305,-17.104],[35.299,-17.118],[35.292,-17.129],[35.235,-17.135],[35.134,-17.132],[35.081,-17.124],[35.066,-17.11],[35.069,-17.084],[35.037,-17.036],[35.044,-17.005],[35.066,-16.987],[35.091,-16.975],[35.113,-16.96],[35.125,-16.933],[35.128,-16.901],[35.127,-16.864],[35.118,-16.833],[35.096,-16.817],[35.063,-16.816],[35.033,-16.819]]]}},{"type":"Feature","id":"MW-NU","properties":{"id":"MW-NU","countryCode":"MW","isoSubdivision":"MW-NU","name":"Ntcheu","name_en":"Ntcheu","name_ko":"은체우 현","type":"District","labelLongitude":34.686,"labelLatitude":-14.784,"minZoom":8.7},"geometry":{"type":"Polygon","coordinates":[[[34.559,-15.2],[34.548,-15.124],[34.551,-15.107],[34.56,-15.096],[34.557,-15.084],[34.551,-15.072],[34.549,-15.058],[34.555,-15.044],[34.575,-15.016],[34.582,-15.001],[34.584,-14.984],[34.577,-14.969],[34.566,-14.954],[34.557,-14.938],[34.551,-14.918],[34.549,-14.902],[34.548,-14.828],[34.543,-14.796],[34.532,-14.767],[34.515,-14.735],[34.506,-14.7],[34.519,-14.641],[34.518,-14.607],[34.502,-14.576],[34.45,-14.525],[34.426,-14.498],[34.394,-14.432],[34.38,-14.414],[34.393,-14.404],[34.403,-14.396],[34.408,-14.394],[34.414,-14.394],[34.437,-14.399],[34.453,-14.4],[34.461,-14.402],[34.468,-14.405],[34.474,-14.41],[34.481,-14.414],[34.497,-14.422],[34.509,-14.432],[34.52,-14.433],[34.535,-14.429],[34.592,-14.406],[34.667,-14.351],[34.748,-14.303],[34.755,-14.405],[34.769,-14.475],[34.797,-14.555],[34.913,-14.706],[34.926,-14.718],[34.957,-14.731],[34.99,-14.755],[34.985,-14.768],[34.987,-14.783],[34.991,-14.799],[34.992,-14.809],[34.99,-14.822],[34.973,-14.879],[34.969,-14.888],[34.918,-14.956],[34.915,-14.963],[34.914,-14.968],[34.917,-14.977],[34.917,-14.984],[34.917,-14.992],[34.843,-15.314],[34.832,-15.326],[34.827,-15.326],[34.821,-15.325],[34.819,-15.321],[34.818,-15.317],[34.821,-15.306],[34.821,-15.301],[34.82,-15.291],[34.818,-15.279],[34.813,-15.265],[34.805,-15.257],[34.797,-15.25],[34.785,-15.245],[34.77,-15.241],[34.73,-15.233],[34.716,-15.228],[34.708,-15.226],[34.701,-15.226],[34.684,-15.229],[34.679,-15.228],[34.62,-15.21],[34.573,-15.201],[34.559,-15.2]]]}},{"type":"Feature","id":"MW-PH","properties":{"id":"MW-PH","countryCode":"MW","isoSubdivision":"MW-PH","name":"Phalombe","name_en":"Phalombe","name_ko":"팔롬베 현","type":"District","labelLongitude":35.667,"labelLatitude":-15.688,"minZoom":8.7},"geometry":{"type":"Polygon","coordinates":[[[35.838,-15.459],[35.832,-15.538],[35.823,-15.663],[35.817,-15.752],[35.807,-15.896],[35.797,-15.933],[35.796,-15.933],[35.796,-15.934],[35.795,-15.933],[35.794,-15.933],[35.793,-15.932],[35.791,-15.932],[35.789,-15.932],[35.788,-15.932],[35.786,-15.931],[35.781,-15.928],[35.78,-15.928],[35.778,-15.928],[35.777,-15.928],[35.775,-15.929],[35.773,-15.928],[35.772,-15.928],[35.77,-15.929],[35.766,-15.93],[35.764,-15.931],[35.763,-15.932],[35.762,-15.933],[35.761,-15.934],[35.756,-15.936],[35.755,-15.937],[35.753,-15.937],[35.752,-15.938],[35.749,-15.939],[35.747,-15.939],[35.746,-15.94],[35.745,-15.942],[35.744,-15.943],[35.743,-15.944],[35.742,-15.944],[35.74,-15.944],[35.739,-15.944],[35.734,-15.943],[35.731,-15.942],[35.729,-15.941],[35.721,-15.934],[35.714,-15.931],[35.696,-15.917],[35.681,-15.902],[35.67,-15.894],[35.665,-15.893],[35.64,-15.902],[35.601,-15.936],[35.596,-15.929],[35.567,-15.852],[35.565,-15.848],[35.563,-15.847],[35.562,-15.846],[35.561,-15.846],[35.56,-15.846],[35.559,-15.846],[35.557,-15.847],[35.556,-15.847],[35.554,-15.847],[35.553,-15.847],[35.552,-15.846],[35.551,-15.843],[35.549,-15.841],[35.548,-15.84],[35.547,-15.838],[35.544,-15.836],[35.544,-15.835],[35.543,-15.835],[35.542,-15.836],[35.541,-15.835],[35.54,-15.834],[35.539,-15.834],[35.538,-15.833],[35.537,-15.833],[35.535,-15.831],[35.534,-15.83],[35.532,-15.828],[35.53,-15.825],[35.525,-15.809],[35.521,-15.79],[35.514,-15.698],[35.513,-15.697],[35.512,-15.696],[35.51,-15.695],[35.509,-15.694],[35.508,-15.694],[35.505,-15.693],[35.504,-15.693],[35.503,-15.693],[35.5,-15.692],[35.499,-15.692],[35.498,-15.693],[35.498,-15.692],[35.497,-15.691],[35.497,-15.686],[35.5,-15.68],[35.511,-15.661],[35.513,-15.658],[35.514,-15.657],[35.514,-15.656],[35.516,-15.654],[35.517,-15.652],[35.522,-15.642],[35.523,-15.642],[35.525,-15.641],[35.526,-15.641],[35.526,-15.64],[35.527,-15.639],[35.529,-15.636],[35.53,-15.634],[35.533,-15.624],[35.535,-15.619],[35.535,-15.617],[35.534,-15.615],[35.527,-15.607],[35.539,-15.576],[35.548,-15.568],[35.559,-15.561],[35.57,-15.556],[35.623,-15.522],[35.647,-15.501],[35.661,-15.485],[35.686,-15.475],[35.723,-15.463],[35.837,-15.459],[35.838,-15.459]]]}},{"type":"Feature","id":"MW-RU","properties":{"id":"MW-RU","countryCode":"MW","isoSubdivision":"MW-RU","name":"Rumphi","name_en":"Rumphi","name_ko":"룸피 현","type":"District","labelLongitude":33.953,"labelLatitude":-10.711,"minZoom":8.7},"geometry":{"type":"Polygon","coordinates":[[[34.621,-10.582],[34.624,-10.583],[34.627,-10.595],[34.626,-10.614],[34.629,-10.62],[34.651,-10.645],[34.66,-10.665],[34.661,-10.687],[34.648,-10.708],[34.654,-10.718],[34.656,-10.722],[34.66,-10.728],[34.666,-10.732],[34.672,-10.739],[34.675,-10.752],[34.663,-10.761],[34.657,-10.77],[34.661,-10.796],[34.648,-10.859],[34.648,-10.903],[34.645,-10.913],[34.627,-10.954],[34.618,-10.966],[34.613,-10.966],[34.235,-10.966],[34.195,-10.997],[34.056,-11.077],[34.043,-11.051],[34.03,-11.033],[34.016,-11.017],[33.952,-10.966],[33.945,-10.964],[33.941,-10.969],[33.939,-10.976],[33.932,-11.019],[33.923,-11.025],[33.909,-11.027],[33.815,-11.014],[33.784,-11.017],[33.748,-11.027],[33.743,-11.03],[33.741,-11.036],[33.743,-11.042],[33.746,-11.048],[33.748,-11.052],[33.75,-11.057],[33.749,-11.063],[33.746,-11.07],[33.74,-11.077],[33.733,-11.082],[33.725,-11.085],[33.717,-11.086],[33.708,-11.085],[33.699,-11.079],[33.693,-11.072],[33.685,-11.056],[33.679,-11.051],[33.671,-11.05],[33.632,-11.056],[33.622,-11.056],[33.61,-11.053],[33.596,-11.046],[33.586,-11.038],[33.575,-11.028],[33.565,-11.021],[33.555,-11.018],[33.542,-11.021],[33.534,-11.026],[33.529,-11.033],[33.516,-11.054],[33.511,-11.062],[33.496,-11.077],[33.478,-11.092],[33.458,-11.106],[33.449,-11.109],[33.441,-11.107],[33.438,-11.096],[33.439,-11.088],[33.442,-11.08],[33.445,-11.073],[33.447,-11.063],[33.447,-11.053],[33.445,-11.036],[33.44,-11.018],[33.435,-11.012],[33.427,-11.008],[33.393,-11.007],[33.356,-11.001],[33.31,-10.983],[33.291,-10.975],[33.288,-10.945],[33.28,-10.913],[33.266,-10.901],[33.252,-10.903],[33.24,-10.903],[33.232,-10.898],[33.233,-10.883],[33.241,-10.866],[33.251,-10.862],[33.261,-10.865],[33.273,-10.866],[33.288,-10.857],[33.307,-10.829],[33.319,-10.818],[33.333,-10.814],[33.358,-10.809],[33.372,-10.803],[33.386,-10.801],[33.419,-10.807],[33.434,-10.808],[33.447,-10.802],[33.465,-10.784],[33.481,-10.782],[33.501,-10.769],[33.512,-10.752],[33.528,-10.712],[33.577,-10.658],[33.59,-10.649],[33.603,-10.643],[33.642,-10.615],[33.658,-10.601],[33.674,-10.577],[33.674,-10.573],[33.702,-10.562],[33.948,-10.452],[34.09,-10.569],[34.112,-10.583],[34.118,-10.582],[34.131,-10.578],[34.14,-10.575],[34.149,-10.576],[34.171,-10.583],[34.184,-10.585],[34.616,-10.583],[34.621,-10.582]]]}},{"type":"Feature","id":"MW-SA","properties":{"id":"MW-SA","countryCode":"MW","isoSubdivision":"MW-SA","name":"Salima","name_en":"Salima","name_ko":"살리마 현","type":"District","labelLongitude":34.49,"labelLatitude":-13.757,"minZoom":8.7},"geometry":{"type":"Polygon","coordinates":[[[34.583,-13.404],[34.6,-13.42],[34.611,-13.436],[34.632,-13.471],[34.636,-13.482],[34.638,-13.488],[34.641,-13.492],[34.651,-13.498],[34.667,-13.501],[34.795,-13.499],[34.83,-13.504],[34.863,-13.516],[34.864,-13.516],[34.736,-14.078],[34.55,-14.073],[34.543,-14.075],[34.539,-14.078],[34.533,-14.081],[34.527,-14.086],[34.506,-14.108],[34.501,-14.113],[34.496,-14.114],[34.484,-14.107],[34.468,-14.091],[34.437,-14.045],[34.403,-13.986],[34.389,-13.97],[34.328,-13.912],[34.284,-13.851],[34.273,-13.847],[34.261,-13.847],[34.253,-13.849],[34.245,-13.851],[34.211,-13.869],[34.2,-13.872],[34.191,-13.872],[34.186,-13.867],[34.185,-13.86],[34.185,-13.854],[34.19,-13.846],[34.196,-13.839],[34.21,-13.83],[34.237,-13.819],[34.248,-13.808],[34.25,-13.78],[34.255,-13.776],[34.256,-13.775],[34.258,-13.773],[34.262,-13.771],[34.268,-13.768],[34.278,-13.766],[34.292,-13.761],[34.297,-13.759],[34.302,-13.755],[34.305,-13.751],[34.307,-13.746],[34.308,-13.74],[34.306,-13.736],[34.303,-13.731],[34.293,-13.726],[34.288,-13.721],[34.284,-13.712],[34.285,-13.706],[34.286,-13.697],[34.286,-13.686],[34.283,-13.676],[34.276,-13.671],[34.27,-13.67],[34.263,-13.673],[34.228,-13.691],[34.218,-13.693],[34.21,-13.693],[34.202,-13.691],[34.194,-13.686],[34.185,-13.68],[34.14,-13.636],[34.134,-13.631],[34.122,-13.624],[34.12,-13.621],[34.124,-13.614],[34.129,-13.606],[34.132,-13.59],[34.132,-13.578],[34.117,-13.505],[34.134,-13.49],[34.164,-13.476],[34.176,-13.474],[34.2,-13.47],[34.241,-13.452],[34.328,-13.404],[34.583,-13.404]]]}},{"type":"Feature","id":"MW-TH","properties":{"id":"MW-TH","countryCode":"MW","isoSubdivision":"MW-TH","name":"Thyolo","name_en":"Thyolo","name_ko":"티올로 현","type":"District","labelLongitude":35.107,"labelLatitude":-16.113,"minZoom":8.7},"geometry":{"type":"Polygon","coordinates":[[[35.299,-16.209],[35.277,-16.234],[35.259,-16.272],[35.252,-16.318],[35.254,-16.328],[35.266,-16.356],[35.262,-16.367],[35.239,-16.394],[35.237,-16.399],[35.19,-16.385],[35.173,-16.389],[35.17,-16.395],[35.159,-16.394],[35.152,-16.39],[35.096,-16.331],[35.083,-16.289],[35.084,-16.282],[35.084,-16.271],[35.082,-16.264],[34.949,-16.116],[34.892,-16.027],[34.919,-16.019],[34.927,-16.014],[34.952,-15.992],[34.961,-15.981],[34.98,-15.947],[34.987,-15.938],[34.994,-15.932],[35,-15.929],[35.006,-15.928],[35.025,-15.927],[35.039,-15.924],[35.146,-15.861],[35.184,-15.861],[35.193,-15.864],[35.2,-15.868],[35.206,-15.878],[35.214,-15.886],[35.249,-15.919],[35.255,-15.928],[35.261,-15.942],[35.266,-15.963],[35.271,-15.972],[35.278,-15.982],[35.29,-15.994],[35.31,-16.005],[35.323,-16.097],[35.319,-16.125],[35.31,-16.134],[35.305,-16.138],[35.299,-16.145],[35.292,-16.155],[35.285,-16.173],[35.283,-16.184],[35.285,-16.192],[35.288,-16.197],[35.299,-16.209]]]}},{"type":"Feature","id":"MW-ZO","properties":{"id":"MW-ZO","countryCode":"MW","isoSubdivision":"MW-ZO","name":"Zomba","name_en":"Zomba","name_ko":"좀바 현","type":"District","labelLongitude":35.426,"labelLatitude":-15.453,"minZoom":8.7},"geometry":{"type":"Polygon","coordinates":[[[35.789,-15.211],[35.812,-15.305],[35.841,-15.417],[35.838,-15.458],[35.838,-15.459],[35.837,-15.459],[35.723,-15.463],[35.686,-15.475],[35.661,-15.485],[35.647,-15.501],[35.623,-15.522],[35.57,-15.556],[35.559,-15.561],[35.548,-15.568],[35.539,-15.576],[35.527,-15.607],[35.502,-15.624],[35.495,-15.63],[35.465,-15.663],[35.458,-15.666],[35.445,-15.668],[35.403,-15.669],[35.39,-15.672],[35.377,-15.678],[35.368,-15.682],[35.341,-15.683],[35.295,-15.668],[35.284,-15.661],[35.272,-15.651],[35.258,-15.631],[35.251,-15.617],[35.243,-15.595],[35.236,-15.586],[35.227,-15.579],[35.211,-15.572],[35.201,-15.566],[35.194,-15.555],[35.193,-15.545],[35.195,-15.531],[35.193,-15.525],[35.188,-15.523],[35.176,-15.529],[35.17,-15.534],[35.163,-15.537],[35.156,-15.535],[35.142,-15.537],[35.129,-15.538],[35.124,-15.537],[35.118,-15.534],[35.113,-15.529],[35.112,-15.522],[35.114,-15.515],[35.118,-15.509],[35.138,-15.486],[35.141,-15.48],[35.139,-15.476],[35.133,-15.474],[35.115,-15.474],[35.107,-15.473],[35.097,-15.466],[35.088,-15.455],[35.055,-15.407],[35.032,-15.388],[35.011,-15.351],[35.055,-15.325],[35.095,-15.315],[35.108,-15.303],[35.127,-15.271],[35.173,-15.23],[35.181,-15.247],[35.185,-15.253],[35.192,-15.258],[35.202,-15.258],[35.214,-15.25],[35.223,-15.241],[35.231,-15.236],[35.241,-15.235],[35.258,-15.238],[35.274,-15.243],[35.287,-15.246],[35.296,-15.245],[35.306,-15.239],[35.325,-15.22],[35.331,-15.216],[35.342,-15.212],[35.354,-15.212],[35.374,-15.216],[35.425,-15.236],[35.443,-15.242],[35.454,-15.242],[35.468,-15.24],[35.489,-15.234],[35.502,-15.228],[35.512,-15.222],[35.522,-15.214],[35.524,-15.212],[35.528,-15.209],[35.531,-15.207],[35.788,-15.211],[35.789,-15.211]]]}}]}
