{"type":"FeatureCollection","features":[{"type":"Feature","id":"NA-CA","properties":{"id":"NA-CA","countryCode":"NA","isoSubdivision":"NA-CA","name":"Zambezi","name_en":"Zambezi","name_ko":"카프리비","type":"Region","labelLongitude":23.123,"labelLatitude":-17.849,"minZoom":6},"geometry":{"type":"Polygon","coordinates":[[[21.387,-18.014],[21.406,-18.009],[21.478,-17.996],[21.729,-17.95],[21.979,-17.904],[22.231,-17.858],[22.481,-17.811],[22.686,-17.773],[22.89,-17.734],[23.094,-17.695],[23.298,-17.657],[23.382,-17.641],[23.422,-17.633],[23.457,-17.627],[23.476,-17.626],[23.506,-17.62],[23.549,-17.612],[23.592,-17.604],[23.635,-17.595],[23.677,-17.587],[23.72,-17.578],[23.763,-17.57],[23.806,-17.561],[23.848,-17.553],[23.891,-17.544],[23.934,-17.536],[23.977,-17.528],[24.02,-17.519],[24.063,-17.511],[24.105,-17.502],[24.148,-17.494],[24.191,-17.485],[24.22,-17.479],[24.239,-17.478],[24.257,-17.481],[24.31,-17.483],[24.321,-17.489],[24.329,-17.485],[24.371,-17.474],[24.389,-17.471],[24.407,-17.475],[24.449,-17.489],[24.479,-17.494],[24.498,-17.503],[24.524,-17.508],[24.532,-17.513],[24.538,-17.52],[24.547,-17.527],[24.562,-17.532],[24.571,-17.533],[24.581,-17.533],[24.591,-17.528],[24.606,-17.515],[24.617,-17.509],[24.623,-17.502],[24.63,-17.496],[24.639,-17.492],[24.684,-17.492],[24.77,-17.505],[24.775,-17.508],[24.78,-17.512],[24.787,-17.517],[24.797,-17.519],[24.83,-17.518],[24.898,-17.531],[24.925,-17.543],[24.938,-17.561],[24.958,-17.552],[24.97,-17.56],[24.971,-17.561],[24.983,-17.577],[24.999,-17.588],[25.008,-17.589],[25.027,-17.583],[25.037,-17.581],[25.041,-17.585],[25.034,-17.602],[25.034,-17.608],[25.04,-17.616],[25.045,-17.62],[25.053,-17.621],[25.064,-17.622],[25.067,-17.625],[25.085,-17.641],[25.089,-17.643],[25.097,-17.672],[25.099,-17.677],[25.108,-17.679],[25.115,-17.684],[25.12,-17.691],[25.123,-17.698],[25.131,-17.687],[25.139,-17.686],[25.153,-17.701],[25.156,-17.707],[25.155,-17.719],[25.157,-17.725],[25.161,-17.729],[25.172,-17.735],[25.178,-17.739],[25.191,-17.755],[25.198,-17.758],[25.215,-17.759],[25.229,-17.762],[25.242,-17.77],[25.253,-17.781],[25.26,-17.794],[25.194,-17.782],[25.154,-17.782],[25.121,-17.814],[25.088,-17.827],[25.057,-17.828],[25.047,-17.807],[25.02,-17.824],[25.007,-17.826],[24.999,-17.814],[24.983,-17.82],[24.975,-17.816],[24.969,-17.808],[24.958,-17.801],[24.964,-17.787],[24.953,-17.788],[24.949,-17.793],[24.945,-17.8],[24.938,-17.807],[24.931,-17.811],[24.857,-17.834],[24.838,-17.835],[24.821,-17.839],[24.797,-17.858],[24.777,-17.862],[24.771,-17.866],[24.765,-17.88],[24.756,-17.883],[24.747,-17.884],[24.738,-17.888],[24.731,-17.892],[24.725,-17.896],[24.698,-17.929],[24.664,-17.95],[24.649,-17.963],[24.599,-18.021],[24.595,-18.023],[24.592,-18.028],[24.578,-18.044],[24.575,-18.05],[24.564,-18.053],[24.518,-18.057],[24.506,-18.06],[24.472,-18.03],[24.47,-18.014],[24.465,-18.009],[24.458,-18.006],[24.451,-17.999],[24.434,-17.967],[24.422,-17.956],[24.399,-17.952],[24.365,-17.951],[24.351,-17.956],[24.334,-17.972],[24.306,-18.019],[24.296,-18.026],[24.287,-18.024],[24.27,-18.016],[24.259,-18.013],[24.238,-18.01],[24.218,-18.013],[24.183,-18.029],[24.135,-18.085],[24.102,-18.109],[24.065,-18.115],[24.057,-18.119],[24.028,-18.146],[24.02,-18.152],[23.992,-18.163],[23.98,-18.172],[23.975,-18.177],[23.971,-18.184],[23.967,-18.181],[23.962,-18.178],[23.957,-18.177],[23.951,-18.178],[23.916,-18.201],[23.913,-18.236],[23.897,-18.25],[23.868,-18.269],[23.855,-18.28],[23.837,-18.306],[23.826,-18.317],[23.81,-18.322],[23.716,-18.419],[23.701,-18.428],[23.68,-18.431],[23.656,-18.458],[23.65,-18.463],[23.645,-18.466],[23.61,-18.478],[23.592,-18.478],[23.579,-18.468],[23.571,-18.426],[23.555,-18.383],[23.547,-18.369],[23.561,-18.348],[23.551,-18.328],[23.519,-18.294],[23.527,-18.278],[23.522,-18.268],[23.511,-18.26],[23.506,-18.249],[23.502,-18.237],[23.491,-18.233],[23.478,-18.231],[23.464,-18.226],[23.459,-18.218],[23.444,-18.201],[23.429,-18.189],[23.419,-18.198],[23.41,-18.197],[23.401,-18.194],[23.396,-18.191],[23.394,-18.186],[23.396,-18.169],[23.396,-18.163],[23.39,-18.153],[23.36,-18.119],[23.348,-18.094],[23.337,-18.079],[23.334,-18.074],[23.333,-18.067],[23.334,-18.043],[23.331,-18.04],[23.323,-18.039],[23.316,-18.037],[23.313,-18.03],[23.313,-18.017],[23.311,-18.01],[23.306,-18.005],[23.293,-17.999],[23.255,-17.997],[23.186,-18.003],[23.1,-18.01],[22.981,-18.02],[22.894,-18.036],[22.81,-18.052],[22.725,-18.067],[22.641,-18.083],[22.556,-18.099],[22.472,-18.114],[22.388,-18.13],[22.303,-18.146],[22.219,-18.162],[22.135,-18.177],[22.05,-18.193],[21.966,-18.209],[21.881,-18.224],[21.797,-18.24],[21.713,-18.256],[21.628,-18.271],[21.544,-18.287],[21.527,-18.29],[21.51,-18.293],[21.493,-18.296],[21.476,-18.3],[21.457,-18.3],[21.438,-18.301],[21.391,-18.303],[21.344,-18.305],[21.297,-18.307],[21.25,-18.308],[21.193,-18.311],[21.137,-18.313],[21.081,-18.315],[21.024,-18.317],[20.993,-18.319],[20.993,-18.318],[20.986,-17.966],[21.001,-17.962],[21.093,-17.938],[21.109,-17.945],[21.126,-17.941],[21.143,-17.934],[21.161,-17.931],[21.176,-17.933],[21.217,-17.931],[21.233,-17.934],[21.278,-17.959],[21.335,-17.978],[21.365,-17.992],[21.381,-18.013],[21.387,-18.014]]]}},{"type":"Feature","id":"NA-ER","properties":{"id":"NA-ER","countryCode":"NA","isoSubdivision":"NA-ER","name":"Erongo","name_en":"Erongo","name_ko":"에롱고","type":"Region","labelLongitude":15.082,"labelLatitude":-22.217,"minZoom":6},"geometry":{"type":"Polygon","coordinates":[[[14.484,-23.551],[14.447,-23.46],[14.434,-23.415],[14.435,-23.406],[14.443,-23.397],[14.467,-23.356],[14.48,-23.345],[14.48,-23.366],[14.484,-23.375],[14.49,-23.37],[14.493,-23.348],[14.492,-23.309],[14.473,-23.193],[14.463,-23.157],[14.446,-23.131],[14.431,-23.103],[14.421,-23.071],[14.414,-23.036],[14.41,-22.971],[14.411,-22.961],[14.416,-22.952],[14.429,-22.933],[14.432,-22.923],[14.432,-22.882],[14.435,-22.88],[14.441,-22.88],[14.444,-22.883],[14.438,-22.892],[14.443,-22.899],[14.448,-22.908],[14.452,-22.912],[14.446,-22.932],[14.444,-22.953],[14.452,-22.963],[14.473,-22.954],[14.471,-22.965],[14.459,-22.995],[14.474,-22.982],[14.497,-22.942],[14.511,-22.933],[14.522,-22.923],[14.529,-22.9],[14.534,-22.854],[14.528,-22.679],[14.509,-22.548],[14.485,-22.512],[14.474,-22.468],[14.438,-22.399],[14.419,-22.34],[14.386,-22.276],[14.38,-22.268],[14.315,-22.2],[14.294,-22.167],[14.293,-22.143],[14.291,-22.134],[14.137,-21.946],[14.062,-21.881],[14.054,-21.865],[13.972,-21.793],[13.952,-21.784],[13.952,-21.773],[13.956,-21.763],[13.959,-21.758],[13.965,-21.733],[13.966,-21.727],[13.963,-21.714],[13.958,-21.705],[13.878,-21.592],[13.863,-21.528],[13.832,-21.456],[13.729,-21.33],[13.667,-21.232],[13.628,-21.188],[13.692,-21.15],[13.727,-21.138],[13.735,-21.134],[13.745,-21.126],[13.756,-21.11],[13.76,-21.107],[13.768,-21.104],[13.803,-21.096],[13.815,-21.095],[13.825,-21.093],[13.831,-21.09],[13.835,-21.082],[13.837,-21.076],[13.841,-21.071],[13.847,-21.069],[13.863,-21.067],[13.871,-21.065],[13.884,-21.05],[13.904,-21.037],[13.98,-21.011],[14.025,-21.01],[14.031,-21.009],[14.039,-21.006],[14.065,-20.993],[14.079,-20.988],[14.101,-20.983],[14.129,-20.981],[14.136,-20.979],[14.144,-20.976],[14.154,-20.969],[14.163,-20.965],[14.173,-20.962],[14.19,-20.959],[14.2,-20.958],[14.208,-20.959],[14.271,-20.986],[14.277,-20.988],[14.283,-20.988],[14.289,-20.988],[14.295,-20.987],[14.346,-20.971],[14.372,-20.966],[14.415,-20.97],[14.42,-20.972],[14.426,-20.974],[14.447,-20.989],[14.452,-20.991],[14.458,-20.992],[14.482,-20.988],[14.51,-20.988],[14.523,-20.985],[14.532,-20.984],[14.541,-20.984],[14.547,-20.986],[14.584,-21],[14.591,-21.002],[14.647,-21.001],[14.678,-21.004],[14.685,-21.004],[14.7,-21.001],[14.709,-21],[14.729,-20.999],[14.737,-20.997],[14.763,-20.986],[14.78,-20.981],[14.789,-20.979],[14.795,-20.977],[14.802,-20.972],[14.812,-20.961],[14.82,-20.954],[14.843,-20.943],[14.867,-20.925],[14.872,-20.922],[14.876,-20.922],[14.896,-20.921],[14.908,-20.919],[14.913,-20.916],[14.917,-20.912],[14.921,-20.904],[14.926,-20.899],[14.935,-20.894],[14.942,-20.891],[14.948,-20.887],[14.952,-20.882],[14.959,-20.869],[14.962,-20.866],[14.965,-20.864],[14.982,-20.857],[14.988,-20.853],[14.997,-20.843],[15.051,-20.802],[15.073,-20.792],[15.12,-20.764],[15.126,-20.759],[15.131,-20.746],[15.141,-20.734],[15.28,-20.611],[15.289,-20.605],[15.345,-20.533],[15.368,-20.509],[15.375,-20.497],[15.384,-20.487],[15.456,-20.495],[15.465,-20.501],[15.471,-20.508],[15.478,-20.518],[15.493,-20.531],[15.514,-20.54],[15.556,-20.554],[15.601,-20.563],[15.596,-20.669],[15.599,-20.679],[15.606,-20.693],[15.656,-20.708],[15.665,-20.709],[15.675,-20.708],[15.709,-20.701],[15.72,-20.7],[15.725,-20.704],[15.728,-20.71],[15.743,-20.761],[15.753,-20.772],[15.832,-20.84],[16.033,-20.942],[16.092,-20.996],[16.14,-21.013],[16.181,-21.036],[16.193,-21.04],[16.2,-21.038],[16.206,-21.033],[16.249,-20.99],[16.255,-20.986],[16.259,-20.988],[16.261,-20.993],[16.268,-21.027],[16.275,-21.04],[16.286,-21.052],[16.312,-21.074],[16.326,-21.084],[16.343,-21.092],[16.351,-21.097],[16.385,-21.129],[16.388,-21.134],[16.396,-21.148],[16.401,-21.156],[16.408,-21.159],[16.417,-21.161],[16.515,-21.172],[16.515,-21.23],[16.507,-21.263],[16.537,-21.386],[16.533,-21.416],[16.493,-21.452],[16.454,-21.502],[16.441,-21.515],[16.438,-21.524],[16.434,-21.536],[16.423,-21.615],[16.393,-21.728],[16.432,-21.843],[16.433,-21.865],[16.439,-21.882],[16.443,-21.884],[16.451,-21.888],[16.461,-21.896],[16.477,-21.92],[16.479,-21.935],[16.477,-21.948],[16.471,-21.957],[16.467,-21.966],[16.466,-21.975],[16.472,-21.984],[16.479,-21.994],[16.481,-21.999],[16.481,-22.003],[16.477,-22.009],[16.47,-22.036],[16.469,-22.065],[16.461,-22.075],[16.452,-22.079],[16.441,-22.078],[16.432,-22.079],[16.428,-22.081],[16.432,-22.09],[16.464,-22.135],[16.468,-22.144],[16.462,-22.147],[16.442,-22.156],[16.431,-22.169],[16.397,-22.192],[16.391,-22.199],[16.393,-22.209],[16.421,-22.269],[16.421,-22.276],[16.418,-22.281],[16.411,-22.289],[16.408,-22.294],[16.406,-22.302],[16.409,-22.313],[16.414,-22.324],[16.447,-22.374],[16.406,-22.39],[16.359,-22.423],[16.348,-22.439],[16.343,-22.455],[16.342,-22.499],[16.341,-22.504],[16.337,-22.511],[16.326,-22.512],[16.313,-22.512],[16.298,-22.511],[16.285,-22.511],[16.274,-22.513],[16.264,-22.523],[16.229,-22.55],[16.216,-22.569],[16.187,-22.593],[16.172,-22.601],[16.159,-22.606],[16.147,-22.605],[16.085,-22.589],[16.071,-22.589],[16.057,-22.597],[15.979,-22.673],[15.961,-22.695],[15.964,-22.7],[15.969,-22.702],[16.044,-22.7],[16.053,-22.701],[16.06,-22.704],[16.063,-22.712],[16.063,-22.721],[16.062,-22.824],[16.06,-22.836],[16.056,-22.845],[16.045,-22.848],[15.985,-22.849],[15.973,-22.85],[15.956,-22.854],[15.94,-22.864],[15.913,-22.877],[15.902,-22.891],[15.895,-22.904],[15.884,-22.995],[15.884,-23],[15.885,-23.004],[15.887,-23.013],[15.892,-23.034],[15.894,-23.055],[15.894,-23.066],[15.891,-23.076],[15.873,-23.126],[15.871,-23.136],[15.871,-23.146],[15.876,-23.155],[15.921,-23.205],[15.924,-23.213],[15.918,-23.218],[15.908,-23.222],[15.826,-23.247],[15.851,-23.368],[15.851,-23.374],[15.85,-23.38],[15.845,-23.383],[15.836,-23.385],[15.803,-23.39],[15.793,-23.394],[15.787,-23.401],[15.781,-23.41],[15.755,-23.469],[15.752,-23.478],[15.752,-23.486],[15.758,-23.492],[15.765,-23.496],[15.841,-23.529],[15.849,-23.535],[15.851,-23.543],[15.852,-23.552],[15.84,-23.696],[15.842,-23.704],[15.852,-23.744],[15.853,-23.75],[15.846,-23.788],[15.826,-23.806],[15.742,-23.814],[15.452,-23.694],[15.338,-23.665],[15.324,-23.664],[15.303,-23.666],[15.202,-23.65],[15.129,-23.656],[15.107,-23.655],[15.095,-23.653],[15.087,-23.65],[15.083,-23.647],[15.079,-23.644],[15.071,-23.637],[15.047,-23.602],[14.484,-23.551]]]}},{"type":"Feature","id":"NA-HA","properties":{"id":"NA-HA","countryCode":"NA","isoSubdivision":"NA-HA","name":"Hardap","name_en":"Hardap","name_ko":"하르다프","type":"Region","labelLongitude":17.217,"labelLatitude":-24.511,"minZoom":6},"geometry":{"type":"Polygon","coordinates":[[[19.981,-24.752],[19.982,-24.765],[19.982,-24.821],[19.982,-24.877],[19.982,-24.933],[19.982,-24.989],[19.982,-25.045],[19.982,-25.101],[19.982,-25.157],[19.982,-25.214],[19.982,-25.27],[19.982,-25.326],[19.982,-25.382],[19.982,-25.438],[19.982,-25.494],[19.982,-25.55],[19.982,-25.606],[19.982,-25.619],[19.936,-25.625],[19.922,-25.614],[19.902,-25.616],[19.887,-25.619],[19.775,-25.668],[19.754,-25.675],[19.742,-25.673],[19.699,-25.656],[19.603,-25.639],[19.587,-25.634],[19.572,-25.628],[19.548,-25.611],[19.523,-25.603],[19.468,-25.595],[19.421,-25.595],[19.394,-25.599],[19.386,-25.603],[19.355,-25.625],[19.343,-25.631],[19.334,-25.628],[19.325,-25.618],[19.237,-25.497],[19.231,-25.492],[19.222,-25.487],[19.213,-25.491],[19.205,-25.497],[19.184,-25.516],[19.093,-25.559],[19.078,-25.564],[18.641,-25.529],[18.565,-25.494],[18.543,-25.477],[18.475,-25.445],[18.251,-25.462],[17.768,-25.566],[17.637,-25.577],[17.445,-25.559],[17.431,-25.555],[17.421,-25.55],[17.414,-25.549],[17.407,-25.552],[17.389,-25.561],[17.36,-25.571],[17.338,-25.584],[17.335,-25.758],[17.169,-25.694],[17.154,-25.692],[17.101,-25.71],[17.071,-25.71],[16.996,-25.73],[16.977,-25.732],[16.971,-25.727],[16.968,-25.716],[16.967,-25.703],[16.963,-25.691],[16.953,-25.682],[16.925,-25.666],[16.88,-25.652],[16.838,-25.647],[16.813,-25.631],[16.796,-25.624],[16.788,-25.619],[16.612,-25.586],[16.595,-25.588],[16.581,-25.587],[16.573,-25.584],[16.565,-25.573],[16.541,-25.532],[16.533,-25.523],[16.524,-25.52],[16.512,-25.538],[16.474,-25.612],[16.458,-25.633],[16.416,-25.66],[16.401,-25.613],[16.401,-25.604],[16.405,-25.597],[16.41,-25.59],[16.409,-25.585],[16.402,-25.579],[16.392,-25.572],[16.382,-25.565],[16.37,-25.561],[16.357,-25.562],[16.307,-25.577],[16.297,-25.581],[16.289,-25.586],[16.287,-25.595],[16.288,-25.605],[16.341,-25.854],[16.334,-25.86],[16.319,-25.861],[16.274,-25.847],[16.25,-25.846],[16.23,-25.848],[16.217,-25.855],[16.204,-25.859],[16.191,-25.86],[16.178,-25.85],[15.976,-25.601],[15.965,-25.59],[15.955,-25.583],[15.941,-25.584],[15.928,-25.586],[15.891,-25.597],[15.88,-25.599],[15.87,-25.598],[15.865,-25.59],[15.863,-25.58],[15.783,-25.087],[15.759,-25.006],[14.833,-25],[14.829,-25],[14.809,-24.961],[14.796,-24.922],[14.793,-24.842],[14.781,-24.803],[14.723,-24.704],[14.699,-24.673],[14.65,-24.629],[14.636,-24.599],[14.602,-24.562],[14.596,-24.537],[14.6,-24.527],[14.614,-24.512],[14.617,-24.506],[14.617,-24.465],[14.612,-24.446],[14.59,-24.408],[14.568,-24.358],[14.514,-24.261],[14.493,-24.192],[14.474,-24.159],[14.467,-24.113],[14.459,-24.098],[14.464,-24.078],[14.464,-24.045],[14.46,-24.01],[14.452,-23.988],[14.459,-23.975],[14.466,-23.947],[14.473,-23.934],[14.479,-23.931],[14.488,-23.93],[14.497,-23.926],[14.5,-23.916],[14.514,-23.892],[14.506,-23.88],[14.507,-23.824],[14.49,-23.776],[14.487,-23.758],[14.5,-23.614],[14.495,-23.579],[14.484,-23.551],[15.047,-23.602],[15.071,-23.637],[15.079,-23.644],[15.083,-23.647],[15.087,-23.65],[15.095,-23.653],[15.107,-23.655],[15.129,-23.656],[15.202,-23.65],[15.303,-23.666],[15.324,-23.664],[15.338,-23.665],[15.452,-23.694],[15.742,-23.814],[15.735,-23.892],[15.74,-23.917],[15.751,-23.945],[15.812,-23.973],[15.84,-23.975],[15.914,-23.971],[15.923,-23.969],[15.928,-23.963],[15.933,-23.955],[15.937,-23.945],[15.946,-23.937],[15.958,-23.93],[16.005,-23.93],[16.133,-23.893],[16.14,-23.892],[16.171,-23.895],[16.183,-23.895],[16.194,-23.89],[16.255,-23.86],[16.262,-23.858],[16.26,-23.865],[16.249,-23.884],[16.245,-23.896],[16.243,-23.909],[16.247,-23.929],[16.243,-23.936],[16.235,-23.941],[16.216,-23.943],[16.21,-23.945],[16.204,-23.949],[16.203,-23.96],[16.209,-23.975],[16.264,-24.014],[16.32,-24.025],[16.31,-24],[16.292,-23.939],[16.302,-23.913],[16.341,-23.878],[16.35,-23.872],[16.357,-23.872],[16.39,-23.88],[16.479,-23.886],[16.488,-23.885],[16.493,-23.882],[16.498,-23.876],[16.503,-23.864],[16.505,-23.856],[16.505,-23.85],[16.497,-23.829],[16.493,-23.821],[16.486,-23.817],[16.477,-23.814],[16.401,-23.794],[16.391,-23.794],[16.374,-23.802],[16.365,-23.803],[16.279,-23.784],[16.272,-23.78],[16.271,-23.773],[16.272,-23.764],[16.288,-23.707],[16.337,-23.617],[16.342,-23.61],[16.348,-23.605],[16.362,-23.613],[16.371,-23.622],[16.373,-23.628],[16.377,-23.678],[16.379,-23.685],[16.387,-23.688],[16.454,-23.688],[16.464,-23.686],[16.474,-23.68],[16.577,-23.586],[16.58,-23.578],[16.58,-23.568],[16.573,-23.537],[16.57,-23.528],[16.564,-23.523],[16.495,-23.488],[16.491,-23.485],[16.487,-23.48],[16.488,-23.473],[16.491,-23.465],[16.607,-23.254],[16.621,-23.235],[16.633,-23.234],[16.657,-23.245],[16.675,-23.259],[16.696,-23.265],[16.716,-23.266],[16.738,-23.262],[16.775,-23.261],[16.819,-23.272],[16.9,-23.254],[16.95,-23.234],[17.01,-23.193],[17.077,-23.181],[17.119,-23.181],[17.162,-23.195],[17.179,-23.203],[17.188,-23.217],[17.193,-23.242],[17.195,-23.285],[17.211,-23.308],[17.245,-23.314],[17.335,-23.301],[17.403,-23.298],[17.46,-23.286],[17.476,-23.285],[17.478,-23.285],[17.442,-23.319],[17.435,-23.327],[17.433,-23.335],[17.433,-23.344],[17.438,-23.396],[17.436,-23.404],[17.431,-23.408],[17.395,-23.418],[17.391,-23.425],[17.391,-23.434],[17.403,-23.495],[17.408,-23.499],[17.412,-23.501],[17.429,-23.506],[17.437,-23.509],[17.44,-23.513],[17.442,-23.522],[17.45,-23.61],[17.456,-23.606],[17.624,-23.608],[17.634,-23.607],[17.643,-23.605],[17.646,-23.595],[17.655,-23.586],[17.669,-23.578],[17.86,-23.574],[17.91,-23.587],[17.92,-23.591],[17.928,-23.597],[17.964,-23.64],[17.972,-23.645],[17.981,-23.647],[18.02,-23.631],[18.031,-23.629],[18.039,-23.634],[18.056,-23.638],[18.07,-23.636],[18.089,-23.632],[18.166,-23.601],[18.209,-23.591],[18.221,-23.585],[18.224,-23.575],[18.225,-23.554],[18.229,-23.545],[18.237,-23.538],[18.323,-23.501],[18.392,-23.464],[18.414,-23.463],[18.443,-23.504],[18.442,-23.517],[18.534,-23.684],[18.54,-23.688],[18.546,-23.685],[18.563,-23.668],[18.573,-23.661],[18.582,-23.658],[18.594,-23.664],[18.605,-23.673],[18.654,-23.721],[18.67,-23.73],[18.69,-23.735],[18.772,-23.749],[18.785,-23.749],[18.971,-23.679],[18.98,-23.678],[19.034,-23.681],[19.041,-23.684],[19.041,-23.69],[19.037,-23.698],[19.035,-23.706],[19.039,-23.714],[19.058,-23.717],[19.152,-23.72],[19.156,-23.718],[19.161,-23.714],[19.206,-23.66],[19.218,-23.654],[19.233,-23.654],[19.257,-23.658],[19.266,-23.666],[19.271,-23.676],[19.275,-23.854],[19.344,-23.862],[19.98,-23.864],[19.981,-23.892],[19.981,-24.064],[19.981,-24.237],[19.981,-24.408],[19.981,-24.58],[19.981,-24.752]]]}},{"type":"Feature","id":"NA-KA","properties":{"id":"NA-KA","countryCode":"NA","isoSubdivision":"NA-KA","name":"Karas","name_en":"Karas","name_ko":"카라스","type":"Region","labelLongitude":17.49,"labelLatitude":-27.028,"minZoom":6},"geometry":{"type":"Polygon","coordinates":[[[17.245,-28.237],[17.213,-28.232],[17.192,-28.209],[17.187,-28.162],[17.19,-28.139],[17.19,-28.117],[17.181,-28.099],[17.156,-28.093],[17.136,-28.085],[17.123,-28.067],[17.112,-28.046],[17.098,-28.031],[17.087,-28.027],[17.076,-28.027],[17.057,-28.031],[17.045,-28.036],[17.012,-28.058],[16.985,-28.052],[16.974,-28.055],[16.96,-28.069],[16.948,-28.073],[16.937,-28.071],[16.927,-28.06],[16.92,-28.058],[16.914,-28.063],[16.896,-28.08],[16.893,-28.083],[16.886,-28.162],[16.878,-28.172],[16.874,-28.172],[16.869,-28.168],[16.852,-28.168],[16.848,-28.165],[16.844,-28.164],[16.838,-28.168],[16.836,-28.174],[16.838,-28.179],[16.856,-28.199],[16.856,-28.207],[16.841,-28.21],[16.82,-28.21],[16.814,-28.213],[16.81,-28.223],[16.813,-28.23],[16.821,-28.24],[16.827,-28.252],[16.825,-28.265],[16.815,-28.271],[16.805,-28.268],[16.795,-28.261],[16.786,-28.258],[16.769,-28.265],[16.764,-28.283],[16.768,-28.304],[16.776,-28.319],[16.797,-28.348],[16.804,-28.366],[16.793,-28.374],[16.779,-28.383],[16.773,-28.403],[16.772,-28.426],[16.769,-28.443],[16.758,-28.46],[16.74,-28.481],[16.72,-28.496],[16.704,-28.494],[16.7,-28.485],[16.697,-28.472],[16.692,-28.461],[16.683,-28.456],[16.673,-28.46],[16.597,-28.526],[16.559,-28.537],[16.532,-28.55],[16.505,-28.565],[16.487,-28.573],[16.469,-28.585],[16.459,-28.601],[16.446,-28.611],[16.419,-28.607],[16.408,-28.601],[16.347,-28.556],[16.316,-28.524],[16.301,-28.504],[16.193,-28.409],[16.176,-28.402],[16.168,-28.396],[16.108,-28.323],[16.044,-28.257],[15.911,-28.171],[15.884,-28.148],[15.833,-28.089],[15.761,-28.038],[15.748,-28.025],[15.717,-27.98],[15.684,-27.95],[15.679,-27.943],[15.678,-27.931],[15.685,-27.911],[15.686,-27.901],[15.673,-27.87],[15.646,-27.837],[15.546,-27.748],[15.534,-27.73],[15.529,-27.706],[15.529,-27.654],[15.527,-27.646],[15.521,-27.634],[15.425,-27.497],[15.409,-27.465],[15.397,-27.449],[15.38,-27.442],[15.372,-27.433],[15.342,-27.381],[15.302,-27.333],[15.295,-27.322],[15.282,-27.243],[15.276,-27.234],[15.27,-27.226],[15.264,-27.218],[15.261,-27.206],[15.268,-27.165],[15.254,-27.1],[15.261,-27.086],[15.241,-27.049],[15.235,-27.029],[15.233,-27.007],[15.234,-26.965],[15.229,-26.946],[15.213,-26.928],[15.206,-26.926],[15.188,-26.924],[15.179,-26.921],[15.177,-26.917],[15.17,-26.906],[15.162,-26.897],[15.159,-26.897],[15.156,-26.875],[15.149,-26.856],[15.117,-26.796],[15.112,-26.779],[15.116,-26.752],[15.106,-26.732],[15.092,-26.712],[15.083,-26.695],[15.081,-26.672],[15.084,-26.652],[15.092,-26.638],[15.107,-26.633],[15.117,-26.63],[15.127,-26.627],[15.135,-26.627],[15.138,-26.637],[15.138,-26.675],[15.145,-26.675],[15.148,-26.655],[15.168,-26.603],[15.169,-26.592],[15.162,-26.579],[15.142,-26.518],[15.129,-26.458],[15.106,-26.421],[15.073,-26.39],[15.035,-26.366],[14.975,-26.344],[14.966,-26.335],[14.959,-26.257],[14.963,-26.181],[14.943,-26.154],[14.939,-26.147],[14.943,-26.135],[14.949,-26.135],[14.957,-26.138],[14.966,-26.134],[14.98,-26.102],[14.979,-26.059],[14.968,-26.016],[14.953,-25.983],[14.908,-25.915],[14.902,-25.883],[14.919,-25.845],[14.911,-25.845],[14.86,-25.79],[14.843,-25.764],[14.84,-25.752],[14.84,-25.743],[14.843,-25.729],[14.843,-25.65],[14.847,-25.63],[14.877,-25.578],[14.88,-25.561],[14.88,-25.539],[14.875,-25.518],[14.853,-25.499],[14.847,-25.473],[14.843,-25.428],[14.818,-25.367],[14.813,-25.32],[14.802,-25.283],[14.801,-25.263],[14.832,-25.188],[14.829,-25.176],[14.85,-25.105],[14.853,-25.064],[14.843,-25.026],[14.829,-25],[14.833,-25],[15.759,-25.006],[15.783,-25.087],[15.863,-25.58],[15.865,-25.59],[15.87,-25.598],[15.88,-25.599],[15.891,-25.597],[15.928,-25.586],[15.941,-25.584],[15.955,-25.583],[15.965,-25.59],[15.976,-25.601],[16.178,-25.85],[16.191,-25.86],[16.204,-25.859],[16.217,-25.855],[16.23,-25.848],[16.25,-25.846],[16.274,-25.847],[16.319,-25.861],[16.334,-25.86],[16.341,-25.854],[16.288,-25.605],[16.287,-25.595],[16.289,-25.586],[16.297,-25.581],[16.307,-25.577],[16.357,-25.562],[16.37,-25.561],[16.382,-25.565],[16.392,-25.572],[16.402,-25.579],[16.409,-25.585],[16.41,-25.59],[16.405,-25.597],[16.401,-25.604],[16.401,-25.613],[16.416,-25.66],[16.458,-25.633],[16.474,-25.612],[16.512,-25.538],[16.524,-25.52],[16.533,-25.523],[16.541,-25.532],[16.565,-25.573],[16.573,-25.584],[16.581,-25.587],[16.595,-25.588],[16.612,-25.586],[16.788,-25.619],[16.796,-25.624],[16.813,-25.631],[16.838,-25.647],[16.88,-25.652],[16.925,-25.666],[16.953,-25.682],[16.963,-25.691],[16.967,-25.703],[16.968,-25.716],[16.971,-25.727],[16.977,-25.732],[16.996,-25.73],[17.071,-25.71],[17.101,-25.71],[17.154,-25.692],[17.169,-25.694],[17.335,-25.758],[17.338,-25.584],[17.36,-25.571],[17.389,-25.561],[17.407,-25.552],[17.414,-25.549],[17.421,-25.55],[17.431,-25.555],[17.445,-25.559],[17.637,-25.577],[17.768,-25.566],[18.251,-25.462],[18.475,-25.445],[18.543,-25.477],[18.565,-25.494],[18.641,-25.529],[19.078,-25.564],[19.093,-25.559],[19.184,-25.516],[19.205,-25.497],[19.213,-25.491],[19.222,-25.487],[19.231,-25.492],[19.237,-25.497],[19.325,-25.618],[19.334,-25.628],[19.343,-25.631],[19.355,-25.625],[19.386,-25.603],[19.394,-25.599],[19.421,-25.595],[19.468,-25.595],[19.523,-25.603],[19.548,-25.611],[19.572,-25.628],[19.587,-25.634],[19.603,-25.639],[19.699,-25.656],[19.742,-25.673],[19.754,-25.675],[19.775,-25.668],[19.887,-25.619],[19.902,-25.616],[19.922,-25.614],[19.936,-25.625],[19.982,-25.619],[19.982,-25.662],[19.982,-25.718],[19.982,-25.774],[19.982,-25.83],[19.982,-25.886],[19.982,-25.942],[19.982,-25.999],[19.982,-26.055],[19.982,-26.111],[19.982,-26.167],[19.982,-26.223],[19.982,-26.279],[19.982,-26.335],[19.982,-26.391],[19.982,-26.447],[19.982,-26.503],[19.982,-26.559],[19.983,-26.615],[19.983,-26.671],[19.983,-26.727],[19.983,-26.783],[19.983,-26.839],[19.983,-26.896],[19.983,-26.952],[19.983,-27.008],[19.983,-27.064],[19.983,-27.12],[19.983,-27.176],[19.983,-27.232],[19.983,-27.288],[19.983,-27.344],[19.983,-27.4],[19.983,-27.456],[19.983,-27.512],[19.983,-27.568],[19.983,-27.624],[19.983,-27.68],[19.983,-27.736],[19.983,-27.793],[19.983,-27.849],[19.983,-27.905],[19.983,-27.961],[19.983,-28.017],[19.983,-28.073],[19.983,-28.129],[19.983,-28.185],[19.983,-28.241],[19.983,-28.297],[19.983,-28.353],[19.983,-28.393],[19.982,-28.422],[19.951,-28.429],[19.94,-28.43],[19.908,-28.426],[19.897,-28.428],[19.87,-28.441],[19.826,-28.477],[19.796,-28.484],[19.748,-28.487],[19.725,-28.494],[19.706,-28.508],[19.688,-28.516],[19.588,-28.523],[19.579,-28.525],[19.569,-28.531],[19.562,-28.538],[19.556,-28.546],[19.548,-28.556],[19.542,-28.564],[19.534,-28.582],[19.527,-28.586],[19.518,-28.589],[19.512,-28.598],[19.483,-28.678],[19.472,-28.693],[19.455,-28.705],[19.435,-28.713],[19.353,-28.732],[19.339,-28.737],[19.328,-28.736],[19.304,-28.719],[19.29,-28.72],[19.277,-28.729],[19.266,-28.743],[19.249,-28.772],[19.245,-28.792],[19.252,-28.814],[19.289,-28.871],[19.288,-28.883],[19.277,-28.89],[19.244,-28.892],[19.238,-28.896],[19.227,-28.912],[19.218,-28.919],[19.162,-28.945],[19.12,-28.958],[19.082,-28.959],[19.065,-28.94],[19.06,-28.936],[19.049,-28.932],[19.014,-28.928],[19.007,-28.926],[18.996,-28.916],[18.971,-28.881],[18.955,-28.867],[18.746,-28.84],[18.554,-28.865],[18.518,-28.882],[18.496,-28.888],[18.492,-28.886],[18.479,-28.876],[18.475,-28.874],[18.469,-28.875],[18.461,-28.88],[18.455,-28.881],[18.436,-28.884],[18.425,-28.887],[18.417,-28.892],[18.398,-28.899],[18.373,-28.895],[18.331,-28.881],[18.309,-28.88],[18.221,-28.891],[18.185,-28.902],[18.166,-28.902],[18.082,-28.876],[18.044,-28.858],[17.983,-28.814],[17.95,-28.795],[17.913,-28.781],[17.746,-28.749],[17.714,-28.751],[17.703,-28.756],[17.683,-28.768],[17.674,-28.772],[17.661,-28.772],[17.629,-28.764],[17.607,-28.756],[17.603,-28.735],[17.603,-28.711],[17.598,-28.69],[17.583,-28.68],[17.566,-28.684],[17.547,-28.691],[17.527,-28.696],[17.485,-28.7],[17.441,-28.71],[17.404,-28.704],[17.402,-28.674],[17.414,-28.633],[17.421,-28.593],[17.41,-28.571],[17.373,-28.559],[17.365,-28.543],[17.359,-28.52],[17.332,-28.489],[17.324,-28.471],[17.328,-28.456],[17.341,-28.443],[17.359,-28.433],[17.375,-28.429],[17.391,-28.419],[17.4,-28.395],[17.402,-28.368],[17.4,-28.346],[17.395,-28.335],[17.379,-28.316],[17.372,-28.306],[17.368,-28.294],[17.367,-28.284],[17.364,-28.273],[17.355,-28.261],[17.351,-28.251],[17.35,-28.239],[17.346,-28.228],[17.334,-28.223],[17.309,-28.224],[17.245,-28.237]]]}},{"type":"Feature","id":"NA-KH","properties":{"id":"NA-KH","countryCode":"NA","isoSubdivision":"NA-KH","name":"Khomas","name_en":"Khomas","name_ko":"호마스","type":"Region","labelLongitude":17.12,"labelLatitude":-22.706,"minZoom":6},"geometry":{"type":"Polygon","coordinates":[[[16.326,-22.512],[16.337,-22.511],[16.341,-22.504],[16.342,-22.499],[16.343,-22.455],[16.348,-22.439],[16.359,-22.423],[16.406,-22.39],[16.447,-22.374],[16.527,-22.356],[16.537,-22.362],[16.551,-22.368],[16.557,-22.373],[16.564,-22.37],[16.571,-22.362],[16.586,-22.343],[16.594,-22.335],[16.603,-22.33],[16.612,-22.333],[16.632,-22.347],[16.643,-22.352],[16.652,-22.349],[16.662,-22.345],[16.671,-22.345],[16.701,-22.348],[16.732,-22.346],[16.742,-22.339],[16.746,-22.329],[16.742,-22.32],[16.738,-22.313],[16.729,-22.312],[16.695,-22.317],[16.686,-22.316],[16.682,-22.309],[16.681,-22.302],[16.683,-22.296],[16.688,-22.289],[16.716,-22.243],[16.724,-22.234],[16.734,-22.231],[16.743,-22.23],[16.75,-22.232],[16.754,-22.24],[16.762,-22.261],[16.771,-22.27],[16.783,-22.278],[16.811,-22.279],[16.823,-22.286],[16.837,-22.297],[16.847,-22.296],[16.893,-22.28],[16.906,-22.279],[16.917,-22.273],[16.927,-22.266],[16.947,-22.247],[16.958,-22.239],[16.97,-22.233],[16.978,-22.238],[16.985,-22.247],[16.991,-22.257],[16.998,-22.265],[17.003,-22.266],[17.011,-22.261],[17.078,-22.208],[17.088,-22.202],[17.098,-22.198],[17.105,-22.204],[17.111,-22.213],[17.117,-22.225],[17.123,-22.234],[17.131,-22.24],[17.142,-22.237],[17.238,-22.196],[17.251,-22.184],[17.257,-22.172],[17.257,-22.141],[17.258,-22.132],[17.264,-22.122],[17.281,-22.103],[17.289,-22.095],[17.298,-22.089],[17.303,-22.093],[17.307,-22.102],[17.312,-22.123],[17.316,-22.132],[17.321,-22.136],[17.33,-22.134],[17.377,-22.115],[17.388,-22.109],[17.396,-22.103],[17.397,-22.094],[17.395,-22.075],[17.396,-22.07],[17.404,-22.071],[17.444,-22.087],[17.453,-22.089],[17.459,-22.083],[17.463,-22.074],[17.473,-22.047],[17.474,-22.041],[17.471,-22.032],[17.451,-21.978],[17.45,-21.969],[17.456,-21.966],[17.477,-21.967],[17.488,-21.966],[17.498,-21.96],[17.508,-21.952],[17.516,-21.944],[17.52,-21.938],[17.527,-21.92],[17.536,-21.909],[17.547,-21.902],[17.58,-21.884],[17.586,-21.879],[17.598,-21.851],[17.605,-21.84],[17.615,-21.835],[17.626,-21.831],[17.672,-21.819],[17.683,-21.817],[17.692,-21.818],[17.701,-21.825],[17.717,-21.841],[17.723,-21.844],[17.731,-21.843],[17.76,-21.834],[17.807,-21.824],[17.834,-21.812],[17.846,-21.804],[17.867,-21.784],[17.901,-21.758],[17.949,-21.738],[17.991,-21.73],[18.013,-21.733],[18.118,-21.705],[18.126,-21.765],[18.113,-21.788],[18.088,-21.816],[18.072,-21.843],[18.068,-21.854],[18.068,-21.862],[18.07,-21.866],[18.073,-21.871],[18.076,-21.874],[18.092,-21.888],[18.099,-21.895],[18.107,-21.908],[18.11,-21.912],[18.114,-21.915],[18.118,-21.916],[18.122,-21.921],[18.126,-21.93],[18.128,-21.952],[18.122,-21.962],[18.115,-21.967],[18.108,-21.971],[18.1,-21.978],[18.091,-21.995],[18.063,-22.034],[18.06,-22.043],[18.063,-22.049],[18.069,-22.058],[18.071,-22.066],[18.071,-22.082],[18.066,-22.091],[18.057,-22.098],[18.021,-22.112],[18.011,-22.113],[17.996,-22.113],[17.987,-22.113],[17.979,-22.116],[17.974,-22.125],[17.963,-22.214],[17.966,-22.229],[17.972,-22.245],[17.999,-22.298],[18.032,-22.338],[18.044,-22.348],[18.057,-22.351],[18.096,-22.351],[18.104,-22.356],[18.11,-22.363],[18.137,-22.402],[18.151,-22.416],[18.17,-22.431],[18.178,-22.439],[18.174,-22.445],[18.14,-22.461],[18.132,-22.468],[18.136,-22.475],[18.144,-22.482],[18.169,-22.5],[18.171,-22.501],[18.173,-22.5],[18.203,-22.476],[18.212,-22.471],[18.216,-22.474],[18.22,-22.481],[18.248,-22.611],[18.26,-22.716],[18.265,-22.736],[18.294,-22.814],[18.297,-22.843],[18.299,-22.95],[18.306,-22.955],[18.316,-22.955],[18.387,-22.931],[18.395,-22.93],[18.397,-22.937],[18.397,-22.946],[18.395,-22.966],[18.394,-22.974],[18.39,-22.98],[18.381,-22.984],[18.337,-23.001],[18.332,-23.004],[18.325,-23.01],[18.324,-23.019],[18.325,-23.029],[18.33,-23.039],[18.335,-23.047],[18.35,-23.056],[18.371,-23.081],[18.381,-23.085],[18.391,-23.087],[18.413,-23.089],[18.422,-23.091],[18.428,-23.094],[18.433,-23.103],[18.442,-23.126],[18.45,-23.158],[18.444,-23.165],[18.435,-23.169],[18.379,-23.172],[18.369,-23.175],[18.36,-23.182],[18.354,-23.193],[18.349,-23.205],[18.349,-23.217],[18.355,-23.227],[18.496,-23.335],[18.505,-23.345],[18.506,-23.354],[18.503,-23.366],[18.443,-23.504],[18.414,-23.463],[18.392,-23.464],[18.323,-23.501],[18.237,-23.538],[18.229,-23.545],[18.225,-23.554],[18.224,-23.575],[18.221,-23.585],[18.209,-23.591],[18.166,-23.601],[18.089,-23.632],[18.07,-23.636],[18.056,-23.638],[18.039,-23.634],[18.031,-23.629],[18.02,-23.631],[17.981,-23.647],[17.972,-23.645],[17.964,-23.64],[17.928,-23.597],[17.92,-23.591],[17.91,-23.587],[17.86,-23.574],[17.669,-23.578],[17.655,-23.586],[17.646,-23.595],[17.643,-23.605],[17.634,-23.607],[17.624,-23.608],[17.456,-23.606],[17.45,-23.61],[17.442,-23.522],[17.44,-23.513],[17.437,-23.509],[17.429,-23.506],[17.412,-23.501],[17.408,-23.499],[17.403,-23.495],[17.391,-23.434],[17.391,-23.425],[17.395,-23.418],[17.431,-23.408],[17.436,-23.404],[17.438,-23.396],[17.433,-23.344],[17.433,-23.335],[17.435,-23.327],[17.442,-23.319],[17.478,-23.285],[17.476,-23.285],[17.46,-23.286],[17.403,-23.298],[17.335,-23.301],[17.245,-23.314],[17.211,-23.308],[17.195,-23.285],[17.193,-23.242],[17.188,-23.217],[17.179,-23.203],[17.162,-23.195],[17.119,-23.181],[17.077,-23.181],[17.01,-23.193],[16.95,-23.234],[16.9,-23.254],[16.819,-23.272],[16.775,-23.261],[16.738,-23.262],[16.716,-23.266],[16.696,-23.265],[16.675,-23.259],[16.657,-23.245],[16.633,-23.234],[16.621,-23.235],[16.607,-23.254],[16.491,-23.465],[16.488,-23.473],[16.487,-23.48],[16.491,-23.485],[16.495,-23.488],[16.564,-23.523],[16.57,-23.528],[16.573,-23.537],[16.58,-23.568],[16.58,-23.578],[16.577,-23.586],[16.474,-23.68],[16.464,-23.686],[16.454,-23.688],[16.387,-23.688],[16.379,-23.685],[16.377,-23.678],[16.373,-23.628],[16.371,-23.622],[16.362,-23.613],[16.348,-23.605],[16.342,-23.61],[16.337,-23.617],[16.288,-23.707],[16.272,-23.764],[16.271,-23.773],[16.272,-23.78],[16.279,-23.784],[16.365,-23.803],[16.374,-23.802],[16.391,-23.794],[16.401,-23.794],[16.477,-23.814],[16.486,-23.817],[16.493,-23.821],[16.497,-23.829],[16.505,-23.85],[16.505,-23.856],[16.503,-23.864],[16.498,-23.876],[16.493,-23.882],[16.488,-23.885],[16.479,-23.886],[16.39,-23.88],[16.357,-23.872],[16.35,-23.872],[16.341,-23.878],[16.302,-23.913],[16.292,-23.939],[16.31,-24],[16.32,-24.025],[16.264,-24.014],[16.209,-23.975],[16.203,-23.96],[16.204,-23.949],[16.21,-23.945],[16.216,-23.943],[16.235,-23.941],[16.243,-23.936],[16.247,-23.929],[16.243,-23.909],[16.245,-23.896],[16.249,-23.884],[16.26,-23.865],[16.262,-23.858],[16.255,-23.86],[16.194,-23.89],[16.183,-23.895],[16.171,-23.895],[16.14,-23.892],[16.133,-23.893],[16.005,-23.93],[15.958,-23.93],[15.946,-23.937],[15.937,-23.945],[15.933,-23.955],[15.928,-23.963],[15.923,-23.969],[15.914,-23.971],[15.84,-23.975],[15.812,-23.973],[15.751,-23.945],[15.74,-23.917],[15.735,-23.892],[15.742,-23.814],[15.826,-23.806],[15.846,-23.788],[15.853,-23.75],[15.852,-23.744],[15.842,-23.704],[15.84,-23.696],[15.852,-23.552],[15.851,-23.543],[15.849,-23.535],[15.841,-23.529],[15.765,-23.496],[15.758,-23.492],[15.752,-23.486],[15.752,-23.478],[15.755,-23.469],[15.781,-23.41],[15.787,-23.401],[15.793,-23.394],[15.803,-23.39],[15.836,-23.385],[15.845,-23.383],[15.85,-23.38],[15.851,-23.374],[15.851,-23.368],[15.826,-23.247],[15.908,-23.222],[15.918,-23.218],[15.924,-23.213],[15.921,-23.205],[15.876,-23.155],[15.871,-23.146],[15.871,-23.136],[15.873,-23.126],[15.891,-23.076],[15.894,-23.066],[15.894,-23.055],[15.892,-23.034],[15.887,-23.013],[15.885,-23.004],[15.884,-23],[15.884,-22.995],[15.895,-22.904],[15.902,-22.891],[15.913,-22.877],[15.94,-22.864],[15.956,-22.854],[15.973,-22.85],[15.985,-22.849],[16.045,-22.848],[16.056,-22.845],[16.06,-22.836],[16.062,-22.824],[16.063,-22.721],[16.063,-22.712],[16.06,-22.704],[16.053,-22.701],[16.044,-22.7],[15.969,-22.702],[15.964,-22.7],[15.961,-22.695],[15.979,-22.673],[16.057,-22.597],[16.071,-22.589],[16.085,-22.589],[16.147,-22.605],[16.159,-22.606],[16.172,-22.601],[16.187,-22.593],[16.216,-22.569],[16.229,-22.55],[16.264,-22.523],[16.274,-22.513],[16.285,-22.511],[16.298,-22.511],[16.313,-22.512],[16.326,-22.512]]]}},{"type":"Feature","id":"NA-KU","properties":{"id":"NA-KU","countryCode":"NA","isoSubdivision":"NA-KU","name":"Kunene","name_en":"Kunene","name_ko":"쿠네네","type":"Region","labelLongitude":13.985,"labelLatitude":-19.876,"minZoom":6},"geometry":{"type":"Polygon","coordinates":[[[13.166,-16.951],[13.185,-16.964],[13.198,-16.957],[13.205,-16.963],[13.212,-16.973],[13.223,-16.978],[13.245,-16.981],[13.257,-16.982],[13.267,-16.978],[13.267,-16.985],[13.293,-16.974],[13.308,-16.97],[13.315,-16.974],[13.322,-16.975],[13.346,-16.969],[13.364,-16.964],[13.382,-16.97],[13.417,-16.994],[13.435,-16.999],[13.459,-17.002],[13.48,-17.01],[13.495,-17.024],[13.508,-17.064],[13.522,-17.077],[13.531,-17.093],[13.521,-17.122],[13.606,-17.167],[13.694,-17.237],[13.79,-17.288],[13.884,-17.339],[13.897,-17.349],[13.943,-17.408],[13.957,-17.419],[13.981,-17.424],[13.993,-17.421],[14.009,-17.411],[14.018,-17.409],[14.029,-17.41],[14.047,-17.416],[14.069,-17.419],[14.085,-17.424],[14.097,-17.424],[14.108,-17.42],[14.124,-17.412],[14.131,-17.409],[14.175,-17.416],[14.197,-17.413],[14.207,-17.393],[14.207,-17.388],[14.219,-17.388],[14.218,-17.409],[14.215,-17.419],[14.222,-17.426],[14.216,-17.443],[14.197,-17.478],[14.188,-17.498],[14.157,-17.543],[14.137,-17.567],[14.14,-17.593],[14.181,-17.617],[14.186,-17.64],[14.183,-17.666],[14.179,-17.685],[14.17,-17.701],[14.151,-17.721],[14.164,-17.768],[14.261,-17.957],[14.29,-18.079],[14.307,-18.452],[14.298,-18.593],[14.304,-18.662],[14.344,-18.782],[14.371,-18.837],[14.389,-18.893],[14.371,-18.995],[14.364,-19.098],[14.406,-19.215],[14.426,-19.242],[14.454,-19.264],[14.477,-19.298],[14.481,-19.342],[14.47,-19.358],[14.458,-19.373],[14.449,-19.415],[14.574,-19.418],[14.593,-19.38],[14.594,-19.327],[14.538,-19.329],[14.534,-19.286],[14.536,-19.247],[14.583,-19.238],[14.859,-19.236],[15.089,-19.206],[15.151,-19.219],[15.211,-19.223],[15.317,-19.191],[15.314,-19.246],[15.501,-19.244],[15.537,-19.239],[15.577,-19.245],[15.704,-19.275],[15.789,-19.284],[15.826,-19.282],[15.861,-19.289],[15.94,-19.331],[16.061,-19.347],[16.131,-19.365],[16.188,-19.371],[16.322,-19.409],[16.508,-19.435],[16.568,-19.436],[16.631,-19.452],[16.691,-19.482],[16.703,-19.491],[16.704,-19.507],[16.713,-19.551],[16.702,-19.917],[16.711,-19.955],[16.655,-19.99],[16.627,-19.997],[16.539,-19.998],[16.533,-20],[16.53,-20.003],[16.529,-20.06],[16.53,-20.07],[16.547,-20.113],[16.548,-20.122],[16.541,-20.125],[16.532,-20.125],[16.502,-20.124],[16.323,-20.21],[16.313,-20.219],[16.308,-20.226],[16.311,-20.308],[16.316,-20.342],[16.317,-20.353],[16.314,-20.365],[16.309,-20.378],[16.297,-20.387],[16.283,-20.395],[16.269,-20.401],[16.254,-20.404],[16.239,-20.403],[16.222,-20.39],[16.206,-20.387],[16.192,-20.385],[16.179,-20.387],[16.17,-20.39],[16.12,-20.412],[16.111,-20.413],[16.049,-20.414],[16.039,-20.415],[15.969,-20.442],[15.936,-20.464],[15.922,-20.475],[15.858,-20.546],[15.842,-20.555],[15.781,-20.58],[15.767,-20.583],[15.752,-20.583],[15.67,-20.566],[15.601,-20.563],[15.556,-20.554],[15.514,-20.54],[15.493,-20.531],[15.478,-20.518],[15.471,-20.508],[15.465,-20.501],[15.456,-20.495],[15.384,-20.487],[15.375,-20.497],[15.368,-20.509],[15.345,-20.533],[15.289,-20.605],[15.28,-20.611],[15.141,-20.734],[15.131,-20.746],[15.126,-20.759],[15.12,-20.764],[15.073,-20.792],[15.051,-20.802],[14.997,-20.843],[14.988,-20.853],[14.982,-20.857],[14.965,-20.864],[14.962,-20.866],[14.959,-20.869],[14.952,-20.882],[14.948,-20.887],[14.942,-20.891],[14.935,-20.894],[14.926,-20.899],[14.921,-20.904],[14.917,-20.912],[14.913,-20.916],[14.908,-20.919],[14.896,-20.921],[14.876,-20.922],[14.872,-20.922],[14.867,-20.925],[14.843,-20.943],[14.82,-20.954],[14.812,-20.961],[14.802,-20.972],[14.795,-20.977],[14.789,-20.979],[14.78,-20.981],[14.763,-20.986],[14.737,-20.997],[14.729,-20.999],[14.709,-21],[14.7,-21.001],[14.685,-21.004],[14.678,-21.004],[14.647,-21.001],[14.591,-21.002],[14.584,-21],[14.547,-20.986],[14.541,-20.984],[14.532,-20.984],[14.523,-20.985],[14.51,-20.988],[14.482,-20.988],[14.458,-20.992],[14.452,-20.991],[14.447,-20.989],[14.426,-20.974],[14.42,-20.972],[14.415,-20.97],[14.372,-20.966],[14.346,-20.971],[14.295,-20.987],[14.289,-20.988],[14.283,-20.988],[14.277,-20.988],[14.271,-20.986],[14.208,-20.959],[14.2,-20.958],[14.19,-20.959],[14.173,-20.962],[14.163,-20.965],[14.154,-20.969],[14.144,-20.976],[14.136,-20.979],[14.129,-20.981],[14.101,-20.983],[14.079,-20.988],[14.065,-20.993],[14.039,-21.006],[14.031,-21.009],[14.025,-21.01],[13.98,-21.011],[13.904,-21.037],[13.884,-21.05],[13.871,-21.065],[13.863,-21.067],[13.847,-21.069],[13.841,-21.071],[13.837,-21.076],[13.835,-21.082],[13.831,-21.09],[13.825,-21.093],[13.815,-21.095],[13.803,-21.096],[13.768,-21.104],[13.76,-21.107],[13.756,-21.11],[13.745,-21.126],[13.735,-21.134],[13.727,-21.138],[13.692,-21.15],[13.628,-21.188],[13.603,-21.158],[13.513,-21.008],[13.472,-20.955],[13.459,-20.918],[13.445,-20.904],[13.418,-20.884],[13.398,-20.849],[13.387,-20.816],[13.377,-20.734],[13.349,-20.644],[13.263,-20.485],[13.239,-20.397],[13.234,-20.355],[13.213,-20.273],[13.178,-20.189],[13.155,-20.154],[13.114,-20.143],[13.071,-20.114],[13.037,-20.059],[13.005,-19.935],[12.928,-19.795],[12.918,-19.766],[12.876,-19.712],[12.803,-19.585],[12.794,-19.562],[12.783,-19.547],[12.758,-19.497],[12.749,-19.486],[12.705,-19.411],[12.691,-19.379],[12.686,-19.36],[12.68,-19.314],[12.668,-19.292],[12.636,-19.253],[12.616,-19.218],[12.567,-19.102],[12.547,-19.071],[12.516,-19.038],[12.48,-19.011],[12.47,-18.998],[12.459,-18.926],[12.45,-18.905],[12.287,-18.698],[12.175,-18.628],[12.126,-18.575],[12.12,-18.57],[12.102,-18.546],[12.092,-18.541],[12.082,-18.534],[12.032,-18.505],[12.016,-18.453],[12.012,-18.435],[12,-18.403],[11.998,-18.392],[11.999,-18.382],[11.998,-18.372],[12,-18.362],[11.976,-18.33],[11.937,-18.232],[11.931,-18.225],[11.849,-18.143],[11.834,-18.098],[11.827,-18.039],[11.808,-17.992],[11.797,-17.956],[11.784,-17.86],[11.761,-17.786],[11.746,-17.684],[11.734,-17.633],[11.727,-17.6],[11.718,-17.546],[11.722,-17.468],[11.755,-17.267],[11.766,-17.253],[11.78,-17.255],[11.797,-17.264],[11.808,-17.266],[11.822,-17.264],[11.827,-17.26],[11.83,-17.253],[11.836,-17.245],[11.854,-17.233],[11.895,-17.215],[11.942,-17.181],[11.983,-17.162],[12.029,-17.149],[12.075,-17.143],[12.082,-17.141],[12.088,-17.139],[12.095,-17.14],[12.106,-17.146],[12.14,-17.156],[12.151,-17.154],[12.157,-17.149],[12.162,-17.146],[12.171,-17.149],[12.177,-17.155],[12.179,-17.162],[12.181,-17.169],[12.185,-17.177],[12.191,-17.183],[12.2,-17.189],[12.212,-17.195],[12.222,-17.198],[12.232,-17.202],[12.237,-17.211],[12.239,-17.221],[12.243,-17.225],[12.315,-17.218],[12.379,-17.22],[12.394,-17.215],[12.408,-17.204],[12.418,-17.203],[12.442,-17.217],[12.461,-17.223],[12.519,-17.228],[12.555,-17.236],[12.567,-17.235],[12.591,-17.223],[12.636,-17.185],[12.661,-17.177],[12.686,-17.174],[12.705,-17.164],[12.74,-17.136],[12.784,-17.115],[12.818,-17.105],[12.825,-17.096],[12.833,-17.082],[12.842,-17.074],[12.85,-17.071],[12.868,-17.066],[12.876,-17.06],[12.881,-17.051],[12.882,-17.04],[12.887,-17.03],[12.911,-17.024],[12.93,-17.014],[12.962,-17.007],[13.014,-16.978],[13.122,-16.96],[13.145,-16.952],[13.166,-16.951]]]}},{"type":"Feature","id":"NA-OD","properties":{"id":"NA-OD","countryCode":"NA","isoSubdivision":"NA-OD","name":"Otjozondjupa","name_en":"Otjozondjupa","name_ko":"오초존주파","type":"Region","labelLongitude":18.288,"labelLatitude":-20.003,"minZoom":6},"geometry":{"type":"Polygon","coordinates":[[[20.976,-19.172],[20.976,-19.251],[20.976,-19.376],[20.977,-19.501],[20.977,-19.626],[20.978,-19.751],[20.978,-19.876],[20.978,-20.001],[20.979,-20.126],[20.979,-20.251],[20.979,-20.351],[20.954,-20.353],[20.936,-20.36],[20.922,-20.364],[20.858,-20.367],[20.804,-20.382],[20.79,-20.385],[20.72,-20.387],[20.683,-20.384],[20.632,-20.371],[20.524,-20.357],[20.484,-20.357],[20.449,-20.363],[20.428,-20.362],[20.383,-20.354],[20.363,-20.348],[20.338,-20.337],[20.32,-20.332],[19.509,-20.246],[19.482,-20.243],[19.422,-20.243],[19.395,-20.247],[19.375,-20.256],[19.343,-20.284],[19.312,-20.3],[18.831,-20.471],[18.821,-20.476],[18.786,-20.504],[18.757,-20.534],[18.579,-20.812],[18.573,-20.826],[18.542,-20.965],[18.535,-20.985],[18.508,-21.037],[18.501,-21.025],[18.494,-21.018],[18.484,-21.011],[18.468,-21.011],[18.396,-21.027],[18.376,-21.039],[18.365,-21.077],[18.361,-21.107],[18.361,-21.116],[18.365,-21.117],[18.374,-21.117],[18.407,-21.11],[18.415,-21.11],[18.418,-21.114],[18.418,-21.122],[18.416,-21.142],[18.413,-21.152],[18.407,-21.162],[18.394,-21.171],[18.359,-21.191],[18.351,-21.199],[18.35,-21.209],[18.351,-21.218],[18.354,-21.228],[18.369,-21.253],[18.372,-21.261],[18.366,-21.262],[18.261,-21.235],[18.251,-21.233],[18.242,-21.235],[18.231,-21.238],[18.221,-21.244],[18.212,-21.253],[18.209,-21.272],[18.207,-21.318],[18.209,-21.325],[18.214,-21.328],[18.224,-21.328],[18.245,-21.327],[18.262,-21.323],[18.266,-21.325],[18.269,-21.332],[18.277,-21.364],[18.278,-21.374],[18.276,-21.383],[18.261,-21.396],[18.259,-21.405],[18.259,-21.415],[18.264,-21.458],[18.264,-21.467],[18.262,-21.476],[18.236,-21.489],[18.235,-21.496],[18.235,-21.5],[18.238,-21.511],[18.24,-21.519],[18.24,-21.526],[18.237,-21.555],[18.246,-21.597],[18.245,-21.609],[18.242,-21.623],[18.215,-21.655],[18.193,-21.667],[18.13,-21.695],[18.118,-21.705],[18.013,-21.733],[17.991,-21.73],[17.949,-21.738],[17.901,-21.758],[17.867,-21.784],[17.846,-21.804],[17.834,-21.812],[17.807,-21.824],[17.76,-21.834],[17.731,-21.843],[17.723,-21.844],[17.717,-21.841],[17.701,-21.825],[17.692,-21.818],[17.683,-21.817],[17.672,-21.819],[17.626,-21.831],[17.615,-21.835],[17.605,-21.84],[17.598,-21.851],[17.586,-21.879],[17.58,-21.884],[17.547,-21.902],[17.536,-21.909],[17.527,-21.92],[17.52,-21.938],[17.516,-21.944],[17.508,-21.952],[17.498,-21.96],[17.488,-21.966],[17.477,-21.967],[17.456,-21.966],[17.45,-21.969],[17.451,-21.978],[17.471,-22.032],[17.474,-22.041],[17.473,-22.047],[17.463,-22.074],[17.459,-22.083],[17.453,-22.089],[17.444,-22.087],[17.404,-22.071],[17.396,-22.07],[17.395,-22.075],[17.397,-22.094],[17.396,-22.103],[17.388,-22.109],[17.377,-22.115],[17.33,-22.134],[17.321,-22.136],[17.316,-22.132],[17.312,-22.123],[17.307,-22.102],[17.303,-22.093],[17.298,-22.089],[17.289,-22.095],[17.281,-22.103],[17.264,-22.122],[17.258,-22.132],[17.257,-22.141],[17.257,-22.172],[17.251,-22.184],[17.238,-22.196],[17.142,-22.237],[17.131,-22.24],[17.123,-22.234],[17.117,-22.225],[17.111,-22.213],[17.105,-22.204],[17.098,-22.198],[17.088,-22.202],[17.078,-22.208],[17.011,-22.261],[17.003,-22.266],[16.998,-22.265],[16.991,-22.257],[16.985,-22.247],[16.978,-22.238],[16.97,-22.233],[16.958,-22.239],[16.947,-22.247],[16.927,-22.266],[16.917,-22.273],[16.906,-22.279],[16.893,-22.28],[16.847,-22.296],[16.837,-22.297],[16.823,-22.286],[16.811,-22.279],[16.783,-22.278],[16.771,-22.27],[16.762,-22.261],[16.754,-22.24],[16.75,-22.232],[16.743,-22.23],[16.734,-22.231],[16.724,-22.234],[16.716,-22.243],[16.688,-22.289],[16.683,-22.296],[16.681,-22.302],[16.682,-22.309],[16.686,-22.316],[16.695,-22.317],[16.729,-22.312],[16.738,-22.313],[16.742,-22.32],[16.746,-22.329],[16.742,-22.339],[16.732,-22.346],[16.701,-22.348],[16.671,-22.345],[16.662,-22.345],[16.652,-22.349],[16.643,-22.352],[16.632,-22.347],[16.612,-22.333],[16.603,-22.33],[16.594,-22.335],[16.586,-22.343],[16.571,-22.362],[16.564,-22.37],[16.557,-22.373],[16.551,-22.368],[16.537,-22.362],[16.527,-22.356],[16.447,-22.374],[16.414,-22.324],[16.409,-22.313],[16.406,-22.302],[16.408,-22.294],[16.411,-22.289],[16.418,-22.281],[16.421,-22.276],[16.421,-22.269],[16.393,-22.209],[16.391,-22.199],[16.397,-22.192],[16.431,-22.169],[16.442,-22.156],[16.462,-22.147],[16.468,-22.144],[16.464,-22.135],[16.432,-22.09],[16.428,-22.081],[16.432,-22.079],[16.441,-22.078],[16.452,-22.079],[16.461,-22.075],[16.469,-22.065],[16.47,-22.036],[16.477,-22.009],[16.481,-22.003],[16.481,-21.999],[16.479,-21.994],[16.472,-21.984],[16.466,-21.975],[16.467,-21.966],[16.471,-21.957],[16.477,-21.948],[16.479,-21.935],[16.477,-21.92],[16.461,-21.896],[16.451,-21.888],[16.443,-21.884],[16.439,-21.882],[16.433,-21.865],[16.432,-21.843],[16.393,-21.728],[16.423,-21.615],[16.434,-21.536],[16.438,-21.524],[16.441,-21.515],[16.454,-21.502],[16.493,-21.452],[16.533,-21.416],[16.537,-21.386],[16.507,-21.263],[16.515,-21.23],[16.515,-21.172],[16.417,-21.161],[16.408,-21.159],[16.401,-21.156],[16.396,-21.148],[16.388,-21.134],[16.385,-21.129],[16.351,-21.097],[16.343,-21.092],[16.326,-21.084],[16.312,-21.074],[16.286,-21.052],[16.275,-21.04],[16.268,-21.027],[16.261,-20.993],[16.259,-20.988],[16.255,-20.986],[16.249,-20.99],[16.206,-21.033],[16.2,-21.038],[16.193,-21.04],[16.181,-21.036],[16.14,-21.013],[16.092,-20.996],[16.033,-20.942],[15.832,-20.84],[15.753,-20.772],[15.743,-20.761],[15.728,-20.71],[15.725,-20.704],[15.72,-20.7],[15.709,-20.701],[15.675,-20.708],[15.665,-20.709],[15.656,-20.708],[15.606,-20.693],[15.599,-20.679],[15.596,-20.669],[15.601,-20.563],[15.67,-20.566],[15.752,-20.583],[15.767,-20.583],[15.781,-20.58],[15.842,-20.555],[15.858,-20.546],[15.922,-20.475],[15.936,-20.464],[15.969,-20.442],[16.039,-20.415],[16.049,-20.414],[16.111,-20.413],[16.12,-20.412],[16.17,-20.39],[16.179,-20.387],[16.192,-20.385],[16.206,-20.387],[16.222,-20.39],[16.239,-20.403],[16.254,-20.404],[16.269,-20.401],[16.283,-20.395],[16.297,-20.387],[16.309,-20.378],[16.314,-20.365],[16.317,-20.353],[16.316,-20.342],[16.311,-20.308],[16.308,-20.226],[16.313,-20.219],[16.323,-20.21],[16.502,-20.124],[16.532,-20.125],[16.541,-20.125],[16.548,-20.122],[16.547,-20.113],[16.53,-20.07],[16.529,-20.06],[16.53,-20.003],[16.533,-20],[16.539,-19.998],[16.627,-19.997],[16.655,-19.99],[16.711,-19.955],[16.702,-19.917],[16.713,-19.551],[16.704,-19.507],[16.703,-19.491],[16.703,-19.49],[16.709,-19.48],[16.717,-19.474],[16.99,-19.341],[17.085,-19.229],[17.127,-19.166],[17.199,-19.149],[17.212,-19.153],[17.225,-19.16],[17.23,-19.17],[17.239,-19.179],[17.254,-19.185],[17.287,-19.183],[17.304,-19.19],[17.317,-19.199],[17.331,-19.219],[17.333,-19.227],[17.333,-19.236],[17.329,-19.265],[17.33,-19.272],[17.337,-19.275],[17.346,-19.276],[17.355,-19.275],[17.361,-19.272],[17.363,-19.264],[17.363,-19.255],[17.365,-19.246],[17.37,-19.24],[17.395,-19.233],[17.417,-19.23],[17.423,-19.232],[17.426,-19.239],[17.43,-19.27],[17.431,-19.279],[17.429,-19.287],[17.422,-19.29],[17.404,-19.292],[17.399,-19.296],[17.397,-19.303],[17.399,-19.344],[17.401,-19.353],[17.404,-19.358],[17.411,-19.365],[17.422,-19.37],[17.436,-19.373],[17.458,-19.37],[17.472,-19.372],[17.484,-19.376],[17.518,-19.397],[17.524,-19.401],[17.528,-19.407],[17.529,-19.423],[17.536,-19.43],[17.555,-19.444],[17.567,-19.449],[17.582,-19.453],[17.607,-19.451],[17.624,-19.458],[17.641,-19.467],[17.677,-19.496],[17.681,-19.5],[17.686,-19.502],[17.749,-19.505],[17.763,-19.5],[17.794,-19.487],[17.819,-19.482],[17.831,-19.482],[17.838,-19.488],[17.842,-19.496],[17.849,-19.514],[17.854,-19.522],[17.863,-19.522],[17.875,-19.517],[17.922,-19.492],[17.932,-19.484],[17.939,-19.474],[17.934,-19.462],[17.898,-19.42],[17.889,-19.407],[17.887,-19.395],[17.886,-19.381],[17.89,-19.359],[17.896,-19.352],[17.9,-19.346],[17.907,-19.332],[17.943,-19.315],[17.947,-19.304],[17.949,-19.292],[17.953,-19.281],[17.963,-19.276],[17.975,-19.272],[17.988,-19.27],[17.998,-19.266],[18.005,-19.258],[18.009,-19.24],[18.014,-19.211],[18.014,-19.175],[18.015,-19.162],[18.019,-19.151],[18.027,-19.143],[18.028,-19.129],[18.028,-19.116],[18.019,-19.047],[18.021,-19.037],[18.027,-19.033],[18.039,-19.032],[18.053,-19.032],[18.07,-19.026],[18.088,-19.016],[18.113,-18.987],[18.131,-18.976],[18.161,-18.963],[18.172,-18.951],[18.179,-18.846],[18.195,-18.76],[19.236,-18.815],[19.235,-19.189],[20.975,-19.172],[20.976,-19.172]]]}},{"type":"Feature","id":"NA-OH","properties":{"id":"NA-OH","countryCode":"NA","isoSubdivision":"NA-OH","name":"Omaheke","name_en":"Omaheke","name_ko":"오마헤케","type":"Region","labelLongitude":19.474,"labelLatitude":-22.053,"minZoom":6},"geometry":{"type":"Polygon","coordinates":[[[20.979,-20.351],[20.979,-20.376],[20.98,-20.501],[20.98,-20.626],[20.981,-20.751],[20.981,-20.876],[20.981,-21],[20.981,-21.001],[20.982,-21.058],[20.982,-21.116],[20.982,-21.174],[20.982,-21.231],[20.982,-21.289],[20.983,-21.346],[20.983,-21.404],[20.983,-21.462],[20.983,-21.519],[20.983,-21.577],[20.984,-21.635],[20.984,-21.692],[20.984,-21.75],[20.984,-21.808],[20.984,-21.865],[20.985,-21.923],[20.985,-21.964],[20.972,-22.001],[20.915,-22.001],[20.681,-22.001],[20.447,-22.001],[20.212,-22.001],[19.978,-22.001],[19.978,-22.087],[19.979,-22.237],[19.979,-22.388],[19.979,-22.538],[19.979,-22.689],[19.979,-22.861],[19.98,-23.033],[19.98,-23.205],[19.98,-23.309],[19.98,-23.377],[19.98,-23.549],[19.98,-23.721],[19.98,-23.864],[19.344,-23.862],[19.275,-23.854],[19.271,-23.676],[19.266,-23.666],[19.257,-23.658],[19.233,-23.654],[19.218,-23.654],[19.206,-23.66],[19.161,-23.714],[19.156,-23.718],[19.152,-23.72],[19.058,-23.717],[19.039,-23.714],[19.035,-23.706],[19.037,-23.698],[19.041,-23.69],[19.041,-23.684],[19.034,-23.681],[18.98,-23.678],[18.971,-23.679],[18.785,-23.749],[18.772,-23.749],[18.69,-23.735],[18.67,-23.73],[18.654,-23.721],[18.605,-23.673],[18.594,-23.664],[18.582,-23.658],[18.573,-23.661],[18.563,-23.668],[18.546,-23.685],[18.54,-23.688],[18.534,-23.684],[18.442,-23.517],[18.443,-23.504],[18.503,-23.366],[18.506,-23.354],[18.505,-23.345],[18.496,-23.335],[18.355,-23.227],[18.349,-23.217],[18.349,-23.205],[18.354,-23.193],[18.36,-23.182],[18.369,-23.175],[18.379,-23.172],[18.435,-23.169],[18.444,-23.165],[18.45,-23.158],[18.442,-23.126],[18.433,-23.103],[18.428,-23.094],[18.422,-23.091],[18.413,-23.089],[18.391,-23.087],[18.381,-23.085],[18.371,-23.081],[18.35,-23.056],[18.335,-23.047],[18.33,-23.039],[18.325,-23.029],[18.324,-23.019],[18.325,-23.01],[18.332,-23.004],[18.337,-23.001],[18.381,-22.984],[18.39,-22.98],[18.394,-22.974],[18.395,-22.966],[18.397,-22.946],[18.397,-22.937],[18.395,-22.93],[18.387,-22.931],[18.316,-22.955],[18.306,-22.955],[18.299,-22.95],[18.297,-22.843],[18.294,-22.814],[18.265,-22.736],[18.26,-22.716],[18.248,-22.611],[18.22,-22.481],[18.216,-22.474],[18.212,-22.471],[18.203,-22.476],[18.173,-22.5],[18.171,-22.501],[18.169,-22.5],[18.144,-22.482],[18.136,-22.475],[18.132,-22.468],[18.14,-22.461],[18.174,-22.445],[18.178,-22.439],[18.17,-22.431],[18.151,-22.416],[18.137,-22.402],[18.11,-22.363],[18.104,-22.356],[18.096,-22.351],[18.057,-22.351],[18.044,-22.348],[18.032,-22.338],[17.999,-22.298],[17.972,-22.245],[17.966,-22.229],[17.963,-22.214],[17.974,-22.125],[17.979,-22.116],[17.987,-22.113],[17.996,-22.113],[18.011,-22.113],[18.021,-22.112],[18.057,-22.098],[18.066,-22.091],[18.071,-22.082],[18.071,-22.066],[18.069,-22.058],[18.063,-22.049],[18.06,-22.043],[18.063,-22.034],[18.091,-21.995],[18.1,-21.978],[18.108,-21.971],[18.115,-21.967],[18.122,-21.962],[18.128,-21.952],[18.126,-21.93],[18.122,-21.921],[18.118,-21.916],[18.114,-21.915],[18.11,-21.912],[18.107,-21.908],[18.099,-21.895],[18.092,-21.888],[18.076,-21.874],[18.073,-21.871],[18.07,-21.866],[18.068,-21.862],[18.068,-21.854],[18.072,-21.843],[18.088,-21.816],[18.113,-21.788],[18.126,-21.765],[18.118,-21.705],[18.13,-21.695],[18.193,-21.667],[18.215,-21.655],[18.242,-21.623],[18.245,-21.609],[18.246,-21.597],[18.237,-21.555],[18.24,-21.526],[18.24,-21.519],[18.238,-21.511],[18.235,-21.5],[18.235,-21.496],[18.236,-21.489],[18.262,-21.476],[18.264,-21.467],[18.264,-21.458],[18.259,-21.415],[18.259,-21.405],[18.261,-21.396],[18.276,-21.383],[18.278,-21.374],[18.277,-21.364],[18.269,-21.332],[18.266,-21.325],[18.262,-21.323],[18.245,-21.327],[18.224,-21.328],[18.214,-21.328],[18.209,-21.325],[18.207,-21.318],[18.209,-21.272],[18.212,-21.253],[18.221,-21.244],[18.231,-21.238],[18.242,-21.235],[18.251,-21.233],[18.261,-21.235],[18.366,-21.262],[18.372,-21.261],[18.369,-21.253],[18.354,-21.228],[18.351,-21.218],[18.35,-21.209],[18.351,-21.199],[18.359,-21.191],[18.394,-21.171],[18.407,-21.162],[18.413,-21.152],[18.416,-21.142],[18.418,-21.122],[18.418,-21.114],[18.415,-21.11],[18.407,-21.11],[18.374,-21.117],[18.365,-21.117],[18.361,-21.116],[18.361,-21.107],[18.365,-21.077],[18.376,-21.039],[18.396,-21.027],[18.468,-21.011],[18.484,-21.011],[18.494,-21.018],[18.501,-21.025],[18.508,-21.037],[18.535,-20.985],[18.542,-20.965],[18.573,-20.826],[18.579,-20.812],[18.757,-20.534],[18.786,-20.504],[18.821,-20.476],[18.831,-20.471],[19.312,-20.3],[19.343,-20.284],[19.375,-20.256],[19.395,-20.247],[19.422,-20.243],[19.482,-20.243],[19.509,-20.246],[20.32,-20.332],[20.338,-20.337],[20.363,-20.348],[20.383,-20.354],[20.428,-20.362],[20.449,-20.363],[20.484,-20.357],[20.524,-20.357],[20.632,-20.371],[20.683,-20.384],[20.72,-20.387],[20.79,-20.385],[20.804,-20.382],[20.858,-20.367],[20.922,-20.364],[20.936,-20.36],[20.954,-20.353],[20.979,-20.351]]]}},{"type":"Feature","id":"NA-OK","properties":{"id":"NA-OK","countryCode":"NA","isoSubdivision":"NA-OK","name":"Kavango","name_en":"Kavango","name_ko":"카방고","type":"Region","labelLongitude":19.497,"labelLatitude":-18.522,"minZoom":6},"geometry":{"type":"Polygon","coordinates":[[[18,-17.389],[18.136,-17.389],[18.392,-17.389],[18.446,-17.389],[18.454,-17.39],[18.455,-17.396],[18.459,-17.405],[18.465,-17.409],[18.472,-17.414],[18.488,-17.452],[18.49,-17.462],[18.493,-17.465],[18.517,-17.471],[18.551,-17.535],[18.554,-17.546],[18.567,-17.553],[18.62,-17.595],[18.623,-17.602],[18.628,-17.62],[18.633,-17.629],[18.643,-17.638],[18.661,-17.647],[18.671,-17.653],[18.728,-17.711],[18.748,-17.736],[18.762,-17.748],[18.801,-17.757],[18.89,-17.799],[19.021,-17.822],[19.105,-17.818],[19.139,-17.805],[19.161,-17.801],[19.172,-17.801],[19.202,-17.807],[19.247,-17.804],[19.262,-17.814],[19.421,-17.859],[19.593,-17.857],[19.65,-17.845],[19.673,-17.843],[19.693,-17.848],[19.702,-17.866],[19.711,-17.873],[19.732,-17.882],[19.755,-17.889],[19.771,-17.89],[19.776,-17.885],[19.788,-17.866],[19.794,-17.862],[19.952,-17.862],[19.99,-17.883],[20.025,-17.895],[20.034,-17.896],[20.093,-17.89],[20.12,-17.891],[20.133,-17.889],[20.147,-17.883],[20.155,-17.89],[20.169,-17.878],[20.193,-17.872],[20.22,-17.873],[20.243,-17.883],[20.278,-17.855],[20.289,-17.862],[20.303,-17.861],[20.336,-17.855],[20.348,-17.859],[20.387,-17.89],[20.413,-17.884],[20.438,-17.894],[20.46,-17.914],[20.48,-17.934],[20.49,-17.942],[20.524,-17.959],[20.553,-17.979],[20.565,-17.985],[20.591,-17.979],[20.63,-17.977],[20.666,-17.98],[20.682,-17.989],[20.69,-17.997],[20.706,-18.004],[20.722,-18.006],[20.73,-18.002],[20.737,-17.993],[20.754,-17.998],[20.785,-18.013],[20.806,-18.031],[20.832,-18.029],[20.862,-18.019],[20.894,-18.013],[20.908,-17.986],[20.986,-17.966],[20.993,-18.318],[20.993,-18.319],[20.975,-18.319],[20.975,-18.348],[20.975,-18.389],[20.975,-18.429],[20.975,-18.47],[20.975,-18.511],[20.975,-18.552],[20.975,-18.593],[20.975,-18.634],[20.975,-18.674],[20.975,-18.715],[20.975,-18.756],[20.975,-18.797],[20.975,-18.838],[20.975,-18.878],[20.975,-18.919],[20.975,-18.96],[20.975,-19.001],[20.975,-19.126],[20.976,-19.172],[20.975,-19.172],[19.235,-19.189],[19.236,-18.815],[18.195,-18.76],[18.009,-18.749],[18,-17.766],[18,-17.389]]]}},{"type":"Feature","id":"NA-ON","properties":{"id":"NA-ON","countryCode":"NA","isoSubdivision":"NA-ON","name":"Oshana","name_en":"Oshana","name_ko":"오샤나","type":"Region","labelLongitude":15.662,"labelLatitude":-18.496,"minZoom":6},"geometry":{"type":"Polygon","coordinates":[[[15.647,-17.679],[15.648,-17.685],[15.666,-17.739],[15.817,-17.72],[15.999,-17.695],[15.999,-17.696],[15.999,-18.023],[16.012,-18.025],[16.027,-18.04],[16.032,-18.06],[16.038,-18.141],[16.03,-18.199],[16.019,-18.226],[15.973,-18.286],[15.956,-18.297],[15.943,-18.314],[15.944,-18.358],[15.955,-18.402],[15.949,-18.475],[15.957,-18.501],[15.97,-18.524],[15.987,-18.576],[16.031,-18.626],[16.036,-18.652],[16.016,-18.668],[15.994,-18.668],[15.973,-18.676],[15.942,-18.712],[15.898,-18.755],[15.86,-18.803],[15.846,-18.834],[15.841,-18.866],[15.842,-18.928],[15.848,-18.941],[15.851,-18.968],[15.884,-19.037],[15.902,-19.067],[15.912,-19.093],[15.93,-19.113],[15.962,-19.133],[15.955,-19.164],[15.934,-19.173],[15.919,-19.185],[15.92,-19.212],[15.931,-19.284],[15.941,-19.307],[15.94,-19.331],[15.861,-19.289],[15.826,-19.282],[15.789,-19.284],[15.704,-19.275],[15.577,-19.245],[15.537,-19.239],[15.501,-19.244],[15.314,-19.246],[15.317,-19.191],[15.317,-19.177],[15.317,-19.164],[15.348,-19.157],[15.379,-19.146],[15.416,-19.138],[15.451,-19.127],[15.49,-19.103],[15.531,-19.084],[15.569,-19.08],[15.603,-19.064],[15.581,-19.05],[15.555,-19.041],[15.531,-19.014],[15.514,-18.983],[15.555,-18.946],[15.562,-18.887],[15.518,-18.78],[15.512,-18.724],[15.544,-18.679],[15.563,-18.623],[15.513,-18.251],[15.512,-18.2],[15.5,-18.151],[15.463,-18.127],[15.42,-18.112],[15.304,-18.048],[15.286,-18.04],[15.288,-18.025],[15.647,-17.679]]]}},{"type":"Feature","id":"NA-OS","properties":{"id":"NA-OS","countryCode":"NA","isoSubdivision":"NA-OS","name":"Omusati","name_en":"Omusati","name_ko":"오무사티","type":"Region","labelLongitude":14.892,"labelLatitude":-18.31,"minZoom":6},"geometry":{"type":"Polygon","coordinates":[[[14.287,-17.388],[14.544,-17.388],[14.801,-17.388],[15.057,-17.388],[15.314,-17.388],[15.559,-17.389],[15.561,-17.455],[15.591,-17.515],[15.615,-17.548],[15.626,-17.566],[15.639,-17.598],[15.647,-17.679],[15.288,-18.025],[15.286,-18.04],[15.304,-18.048],[15.42,-18.112],[15.463,-18.127],[15.5,-18.151],[15.512,-18.2],[15.513,-18.251],[15.563,-18.623],[15.544,-18.679],[15.512,-18.724],[15.518,-18.78],[15.562,-18.887],[15.555,-18.946],[15.514,-18.983],[15.531,-19.014],[15.555,-19.041],[15.581,-19.05],[15.603,-19.064],[15.569,-19.08],[15.531,-19.084],[15.49,-19.103],[15.451,-19.127],[15.416,-19.138],[15.379,-19.146],[15.348,-19.157],[15.317,-19.164],[15.317,-19.177],[15.317,-19.191],[15.211,-19.223],[15.151,-19.219],[15.089,-19.206],[14.859,-19.236],[14.583,-19.238],[14.536,-19.247],[14.534,-19.286],[14.538,-19.329],[14.594,-19.327],[14.593,-19.38],[14.574,-19.418],[14.449,-19.415],[14.458,-19.373],[14.47,-19.358],[14.481,-19.342],[14.477,-19.298],[14.454,-19.264],[14.426,-19.242],[14.406,-19.215],[14.364,-19.098],[14.371,-18.995],[14.389,-18.893],[14.371,-18.837],[14.344,-18.782],[14.304,-18.662],[14.298,-18.593],[14.307,-18.452],[14.29,-18.079],[14.261,-17.957],[14.164,-17.768],[14.151,-17.721],[14.17,-17.701],[14.179,-17.685],[14.183,-17.666],[14.186,-17.64],[14.181,-17.617],[14.14,-17.593],[14.137,-17.567],[14.157,-17.543],[14.188,-17.498],[14.197,-17.478],[14.216,-17.443],[14.222,-17.426],[14.215,-17.419],[14.218,-17.409],[14.219,-17.388],[14.287,-17.388]]]}},{"type":"Feature","id":"NA-OT","properties":{"id":"NA-OT","countryCode":"NA","isoSubdivision":"NA-OT","name":"Oshikoto","name_en":"Oshikoto","name_ko":"오시코토","type":"Region","labelLongitude":17.018,"labelLatitude":-18.538,"minZoom":6},"geometry":{"type":"Polygon","coordinates":[[[16.703,-19.49],[16.703,-19.491],[16.691,-19.482],[16.631,-19.452],[16.568,-19.436],[16.508,-19.435],[16.322,-19.409],[16.188,-19.371],[16.131,-19.365],[16.061,-19.347],[15.94,-19.331],[15.941,-19.307],[15.931,-19.284],[15.92,-19.212],[15.919,-19.185],[15.934,-19.173],[15.955,-19.164],[15.962,-19.133],[15.93,-19.113],[15.912,-19.093],[15.902,-19.067],[15.884,-19.037],[15.851,-18.968],[15.848,-18.941],[15.842,-18.928],[15.841,-18.866],[15.846,-18.834],[15.86,-18.803],[15.898,-18.755],[15.942,-18.712],[15.973,-18.676],[15.994,-18.668],[16.016,-18.668],[16.036,-18.652],[16.031,-18.626],[15.987,-18.576],[15.97,-18.524],[15.957,-18.501],[15.949,-18.475],[15.955,-18.402],[15.944,-18.358],[15.943,-18.314],[15.956,-18.297],[15.973,-18.286],[16.019,-18.226],[16.03,-18.199],[16.038,-18.141],[16.032,-18.06],[16.027,-18.04],[16.012,-18.025],[15.999,-18.023],[15.999,-17.696],[16.308,-17.884],[16.39,-17.915],[16.75,-17.769],[18,-17.766],[18.009,-18.749],[18.195,-18.76],[18.179,-18.846],[18.172,-18.951],[18.161,-18.963],[18.131,-18.976],[18.113,-18.987],[18.088,-19.016],[18.07,-19.026],[18.053,-19.032],[18.039,-19.032],[18.027,-19.033],[18.021,-19.037],[18.019,-19.047],[18.028,-19.116],[18.028,-19.129],[18.027,-19.143],[18.019,-19.151],[18.015,-19.162],[18.014,-19.175],[18.014,-19.211],[18.009,-19.24],[18.005,-19.258],[17.998,-19.266],[17.988,-19.27],[17.975,-19.272],[17.963,-19.276],[17.953,-19.281],[17.949,-19.292],[17.947,-19.304],[17.943,-19.315],[17.907,-19.332],[17.9,-19.346],[17.896,-19.352],[17.89,-19.359],[17.886,-19.381],[17.887,-19.395],[17.889,-19.407],[17.898,-19.42],[17.934,-19.462],[17.939,-19.474],[17.932,-19.484],[17.922,-19.492],[17.875,-19.517],[17.863,-19.522],[17.854,-19.522],[17.849,-19.514],[17.842,-19.496],[17.838,-19.488],[17.831,-19.482],[17.819,-19.482],[17.794,-19.487],[17.763,-19.5],[17.749,-19.505],[17.686,-19.502],[17.681,-19.5],[17.677,-19.496],[17.641,-19.467],[17.624,-19.458],[17.607,-19.451],[17.582,-19.453],[17.567,-19.449],[17.555,-19.444],[17.536,-19.43],[17.529,-19.423],[17.528,-19.407],[17.524,-19.401],[17.518,-19.397],[17.484,-19.376],[17.472,-19.372],[17.458,-19.37],[17.436,-19.373],[17.422,-19.37],[17.411,-19.365],[17.404,-19.358],[17.401,-19.353],[17.399,-19.344],[17.397,-19.303],[17.399,-19.296],[17.404,-19.292],[17.422,-19.29],[17.429,-19.287],[17.431,-19.279],[17.43,-19.27],[17.426,-19.239],[17.423,-19.232],[17.417,-19.23],[17.395,-19.233],[17.37,-19.24],[17.365,-19.246],[17.363,-19.255],[17.363,-19.264],[17.361,-19.272],[17.355,-19.275],[17.346,-19.276],[17.337,-19.275],[17.33,-19.272],[17.329,-19.265],[17.333,-19.236],[17.333,-19.227],[17.331,-19.219],[17.317,-19.199],[17.304,-19.19],[17.287,-19.183],[17.254,-19.185],[17.239,-19.179],[17.23,-19.17],[17.225,-19.16],[17.212,-19.153],[17.199,-19.149],[17.127,-19.166],[17.085,-19.229],[16.99,-19.341],[16.717,-19.474],[16.709,-19.48],[16.703,-19.49]]]}},{"type":"Feature","id":"NA-OW","properties":{"id":"NA-OW","countryCode":"NA","isoSubdivision":"NA-OW","name":"Ohangwena","name_en":"Ohangwena","name_ko":"오항궤나","type":"Region","labelLongitude":16.78,"labelLatitude":-17.579,"minZoom":6},"geometry":{"type":"Polygon","coordinates":[[[15.559,-17.389],[15.57,-17.389],[15.827,-17.389],[16.083,-17.389],[16.34,-17.389],[16.596,-17.389],[16.853,-17.389],[17.109,-17.389],[17.279,-17.389],[17.366,-17.389],[17.623,-17.389],[17.879,-17.389],[18,-17.389],[18,-17.766],[16.75,-17.769],[16.39,-17.915],[16.308,-17.884],[15.999,-17.696],[15.999,-17.695],[15.817,-17.72],[15.666,-17.739],[15.648,-17.685],[15.647,-17.679],[15.639,-17.598],[15.626,-17.566],[15.615,-17.548],[15.591,-17.515],[15.561,-17.455],[15.559,-17.389]]]}}]}
