{"type":"FeatureCollection","features":[{"type":"Feature","id":"NC-X01~","properties":{"id":"NC-X01~","countryCode":"NC","isoSubdivision":"NC-X01~","name":"Loyalty Islands","name_en":"Loyalty Islands","name_ko":"로열티 제도","type":"Province","labelLongitude":167.976,"labelLatitude":-21.533,"minZoom":6.7},"geometry":{"type":"MultiPolygon","coordinates":[[[[168.137,-21.432],[168.144,-21.453],[168.144,-21.489],[168.136,-21.527],[168.124,-21.555],[168.129,-21.601],[168.127,-21.622],[168.114,-21.631],[168.102,-21.633],[168.064,-21.643],[168.035,-21.658],[167.993,-21.655],[167.958,-21.638],[167.96,-21.611],[167.939,-21.602],[167.913,-21.596],[167.886,-21.595],[167.864,-21.604],[167.861,-21.601],[167.859,-21.597],[167.858,-21.594],[167.857,-21.59],[167.867,-21.583],[167.88,-21.573],[167.889,-21.559],[167.892,-21.542],[167.886,-21.533],[167.864,-21.511],[167.857,-21.501],[167.851,-21.483],[167.848,-21.456],[167.844,-21.439],[167.836,-21.423],[167.808,-21.384],[167.823,-21.377],[167.836,-21.374],[167.849,-21.375],[167.864,-21.377],[167.889,-21.389],[167.905,-21.393],[167.922,-21.378],[167.988,-21.336],[167.99,-21.349],[167.972,-21.375],[167.967,-21.394],[167.972,-21.411],[167.984,-21.429],[167.997,-21.445],[168.008,-21.453],[168.039,-21.46],[168.074,-21.456],[168.109,-21.445],[168.137,-21.432]]],[[[166.425,-20.72],[166.433,-20.719],[166.459,-20.72],[166.453,-20.729],[166.444,-20.733],[166.418,-20.74],[166.413,-20.735],[166.407,-20.732],[166.401,-20.729],[166.391,-20.727],[166.398,-20.722],[166.406,-20.72],[166.415,-20.719],[166.425,-20.72]]],[[[167.432,-21.028],[167.445,-21.037],[167.459,-21.051],[167.465,-21.064],[167.432,-21.075],[167.425,-21.089],[167.425,-21.127],[167.423,-21.148],[167.417,-21.16],[167.406,-21.169],[167.391,-21.179],[167.374,-21.172],[167.351,-21.172],[167.331,-21.164],[167.322,-21.134],[167.315,-21.13],[167.299,-21.127],[167.282,-21.123],[167.275,-21.114],[167.273,-21.097],[167.268,-21.091],[167.176,-21.082],[167.146,-21.073],[167.12,-21.052],[167.096,-21.028],[167.094,-21.021],[167.092,-21.012],[167.088,-21.004],[167.067,-20.996],[167.062,-20.986],[167.062,-20.973],[167.069,-20.96],[167.028,-20.925],[167.021,-20.912],[167.082,-20.916],[167.103,-20.912],[167.122,-20.902],[167.133,-20.89],[167.151,-20.863],[167.181,-20.83],[167.191,-20.81],[167.185,-20.788],[167.173,-20.781],[167.12,-20.76],[167.044,-20.768],[167.042,-20.759],[167.047,-20.737],[167.059,-20.716],[167.079,-20.706],[167.113,-20.701],[167.12,-20.703],[167.127,-20.709],[167.134,-20.712],[167.143,-20.713],[167.154,-20.713],[167.164,-20.71],[167.172,-20.703],[167.177,-20.693],[167.178,-20.682],[167.213,-20.672],[167.288,-20.712],[167.301,-20.713],[167.308,-20.731],[167.3,-20.748],[167.288,-20.766],[167.282,-20.784],[167.282,-20.796],[167.288,-20.822],[167.301,-20.85],[167.298,-20.862],[167.284,-20.882],[167.282,-20.894],[167.285,-20.902],[167.292,-20.906],[167.303,-20.909],[167.312,-20.915],[167.323,-20.924],[167.331,-20.929],[167.357,-20.938],[167.368,-20.94],[167.378,-20.939],[167.386,-20.942],[167.391,-20.953],[167.394,-20.958],[167.4,-20.968],[167.405,-20.972],[167.394,-20.99],[167.39,-20.999],[167.391,-21.008],[167.399,-21.019],[167.41,-21.023],[167.421,-21.025],[167.432,-21.028]]],[[[166.637,-20.425],[166.648,-20.433],[166.673,-20.446],[166.678,-20.452],[166.674,-20.464],[166.663,-20.467],[166.633,-20.466],[166.621,-20.469],[166.611,-20.477],[166.606,-20.487],[166.604,-20.497],[166.601,-20.5],[166.586,-20.538],[166.579,-20.55],[166.579,-20.565],[166.582,-20.593],[166.588,-20.6],[166.601,-20.6],[166.63,-20.596],[166.591,-20.665],[166.575,-20.685],[166.56,-20.695],[166.537,-20.705],[166.514,-20.712],[166.494,-20.713],[166.486,-20.706],[166.48,-20.699],[166.495,-20.693],[166.509,-20.684],[166.534,-20.658],[166.551,-20.637],[166.558,-20.624],[166.561,-20.607],[166.56,-20.546],[166.565,-20.532],[166.577,-20.517],[166.589,-20.498],[166.599,-20.477],[166.604,-20.459],[166.599,-20.44],[166.58,-20.415],[166.571,-20.406],[166.567,-20.407],[166.561,-20.411],[166.564,-20.402],[166.575,-20.392],[166.59,-20.385],[166.604,-20.383],[166.616,-20.389],[166.624,-20.401],[166.63,-20.414],[166.637,-20.425]]]]}},{"type":"Feature","id":"NC-X02~","properties":{"id":"NC-X02~","countryCode":"NC","isoSubdivision":"NC-X02~","name":"South","name_en":"South","name_ko":"남쪽","type":"Province","labelLongitude":167.487,"labelLatitude":-22.608,"minZoom":6.7},"geometry":{"type":"MultiPolygon","coordinates":[[[[167.521,-22.57],[167.532,-22.587],[167.545,-22.598],[167.555,-22.612],[167.555,-22.638],[167.543,-22.63],[167.531,-22.606],[167.521,-22.604],[167.516,-22.611],[167.517,-22.624],[167.521,-22.649],[167.507,-22.671],[167.476,-22.667],[167.419,-22.645],[167.424,-22.62],[167.424,-22.562],[167.432,-22.542],[167.45,-22.538],[167.477,-22.543],[167.503,-22.555],[167.521,-22.57]]],[[[166.802,-22.399],[166.815,-22.395],[166.825,-22.396],[166.834,-22.401],[166.843,-22.413],[166.843,-22.424],[166.841,-22.431],[166.836,-22.432],[166.829,-22.426],[166.821,-22.431],[166.816,-22.435],[166.802,-22.44],[166.802,-22.446],[166.821,-22.449],[166.819,-22.456],[166.808,-22.462],[166.802,-22.463],[166.794,-22.461],[166.78,-22.458],[166.771,-22.451],[166.778,-22.436],[166.785,-22.425],[166.786,-22.415],[166.789,-22.407],[166.802,-22.399]]],[[[166.082,-21.525],[166.098,-21.517],[166.116,-21.517],[166.133,-21.526],[166.185,-21.57],[166.191,-21.573],[166.204,-21.576],[166.209,-21.58],[166.219,-21.597],[166.254,-21.619],[166.291,-21.635],[166.37,-21.659],[166.37,-21.665],[166.342,-21.665],[166.342,-21.672],[166.35,-21.677],[166.352,-21.682],[166.353,-21.688],[166.357,-21.693],[166.363,-21.696],[166.377,-21.697],[166.411,-21.705],[166.426,-21.712],[166.437,-21.732],[166.476,-21.758],[166.48,-21.765],[166.484,-21.783],[166.49,-21.792],[166.496,-21.796],[166.514,-21.803],[166.506,-21.809],[166.529,-21.828],[166.573,-21.875],[166.593,-21.884],[166.611,-21.898],[166.637,-21.923],[166.661,-21.94],[166.671,-21.925],[166.706,-21.948],[166.719,-21.953],[166.719,-21.96],[166.711,-21.965],[166.703,-21.969],[166.695,-21.971],[166.685,-21.973],[166.685,-21.981],[166.693,-21.984],[166.723,-21.981],[166.736,-21.983],[166.746,-21.988],[166.754,-21.991],[166.76,-21.987],[166.767,-22.005],[166.778,-22.015],[166.794,-22.019],[166.815,-22.022],[166.874,-22.035],[166.888,-22.043],[166.939,-22.08],[166.948,-22.092],[166.959,-22.111],[166.961,-22.119],[166.959,-22.145],[166.955,-22.151],[166.948,-22.158],[166.948,-22.164],[166.963,-22.166],[166.972,-22.17],[166.98,-22.18],[166.993,-22.2],[167.029,-22.227],[167.034,-22.237],[167.032,-22.247],[167.026,-22.248],[167.018,-22.248],[167.013,-22.255],[167.016,-22.261],[167.022,-22.268],[167.027,-22.276],[167.024,-22.286],[167.021,-22.292],[167.013,-22.316],[167.006,-22.33],[167.001,-22.337],[166.993,-22.344],[166.992,-22.34],[166.989,-22.335],[166.983,-22.338],[166.978,-22.342],[166.966,-22.347],[166.961,-22.351],[166.962,-22.356],[166.966,-22.365],[166.935,-22.388],[166.916,-22.396],[166.891,-22.392],[166.912,-22.385],[166.92,-22.38],[166.925,-22.371],[166.91,-22.371],[166.903,-22.373],[166.895,-22.365],[166.89,-22.352],[166.882,-22.338],[166.877,-22.334],[166.874,-22.322],[166.868,-22.329],[166.862,-22.343],[166.86,-22.351],[166.852,-22.346],[166.847,-22.337],[166.842,-22.326],[166.836,-22.316],[166.84,-22.315],[166.849,-22.31],[166.84,-22.298],[166.831,-22.301],[166.825,-22.314],[166.821,-22.343],[166.819,-22.348],[166.819,-22.354],[166.822,-22.365],[166.825,-22.366],[166.843,-22.378],[166.832,-22.381],[166.819,-22.379],[166.807,-22.375],[166.802,-22.375],[166.799,-22.38],[166.793,-22.386],[166.785,-22.39],[166.778,-22.392],[166.753,-22.387],[166.739,-22.374],[166.741,-22.36],[166.76,-22.351],[166.76,-22.344],[166.742,-22.346],[166.72,-22.344],[166.706,-22.335],[166.712,-22.316],[166.706,-22.31],[166.691,-22.315],[166.667,-22.307],[166.646,-22.293],[166.637,-22.279],[166.633,-22.277],[166.61,-22.286],[166.6,-22.289],[166.592,-22.287],[166.567,-22.277],[166.558,-22.272],[166.554,-22.262],[166.561,-22.257],[166.566,-22.251],[166.555,-22.241],[166.546,-22.238],[166.516,-22.234],[166.506,-22.234],[166.495,-22.249],[166.488,-22.271],[166.478,-22.287],[166.459,-22.282],[166.458,-22.286],[166.458,-22.288],[166.456,-22.289],[166.452,-22.289],[166.46,-22.308],[166.45,-22.312],[166.437,-22.308],[166.435,-22.299],[166.438,-22.291],[166.439,-22.265],[166.446,-22.255],[166.446,-22.248],[166.431,-22.249],[166.418,-22.246],[166.407,-22.238],[166.398,-22.227],[166.43,-22.228],[166.444,-22.224],[166.452,-22.214],[166.434,-22.213],[166.428,-22.204],[166.432,-22.172],[166.422,-22.173],[166.4,-22.17],[166.391,-22.172],[166.388,-22.178],[166.383,-22.196],[166.381,-22.2],[166.368,-22.202],[166.363,-22.207],[166.36,-22.215],[166.353,-22.224],[166.344,-22.227],[166.339,-22.221],[166.341,-22.211],[166.35,-22.2],[166.34,-22.194],[166.315,-22.172],[166.315,-22.166],[166.322,-22.163],[166.325,-22.159],[166.327,-22.153],[166.328,-22.145],[166.322,-22.145],[166.312,-22.155],[166.286,-22.149],[166.288,-22.159],[166.269,-22.166],[166.252,-22.16],[166.236,-22.152],[166.219,-22.152],[166.218,-22.133],[166.209,-22.118],[166.195,-22.108],[166.181,-22.104],[166.169,-22.098],[166.157,-22.087],[166.145,-22.085],[166.13,-22.104],[166.119,-22.098],[166.109,-22.09],[166.114,-22.085],[166.116,-22.08],[166.117,-22.073],[166.116,-22.062],[166.123,-22.062],[166.131,-22.071],[166.142,-22.076],[166.15,-22.072],[166.151,-22.056],[166.145,-22.047],[166.125,-22.039],[166.116,-22.028],[166.144,-22.029],[166.155,-22.031],[166.164,-22.035],[166.163,-22.025],[166.159,-22.018],[166.151,-22.015],[166.14,-22.015],[166.135,-22.009],[166.137,-21.996],[166.141,-21.984],[166.144,-21.981],[166.136,-21.958],[166.123,-21.949],[166.089,-21.939],[166.076,-21.946],[166.07,-21.943],[166.071,-21.935],[166.082,-21.925],[166.072,-21.921],[166.064,-21.913],[166.061,-21.903],[166.061,-21.891],[166.046,-21.901],[166.04,-21.91],[166.041,-21.935],[166.036,-21.942],[166.026,-21.942],[166.014,-21.939],[166.007,-21.939],[166.01,-21.944],[166.01,-21.956],[166.003,-21.964],[165.99,-21.956],[165.975,-21.938],[165.966,-21.929],[165.935,-21.918],[165.914,-21.885],[165.9,-21.878],[165.893,-21.876],[165.886,-21.871],[165.873,-21.861],[165.867,-21.858],[165.862,-21.86],[165.856,-21.863],[165.85,-21.864],[165.821,-21.864],[165.811,-21.859],[165.809,-21.843],[165.83,-21.852],[165.823,-21.842],[165.795,-21.817],[165.795,-21.809],[165.799,-21.8],[165.8,-21.792],[165.791,-21.789],[165.781,-21.791],[165.777,-21.797],[165.777,-21.806],[165.781,-21.817],[165.764,-21.811],[165.761,-21.8],[165.762,-21.785],[165.76,-21.769],[165.751,-21.759],[165.741,-21.75],[165.733,-21.739],[165.733,-21.72],[165.725,-21.72],[165.717,-21.736],[165.707,-21.748],[165.694,-21.757],[165.678,-21.761],[165.679,-21.741],[165.678,-21.729],[165.67,-21.725],[165.651,-21.727],[165.65,-21.729],[165.651,-21.734],[165.649,-21.738],[165.643,-21.741],[165.638,-21.74],[165.505,-21.678],[165.474,-21.652],[165.486,-21.631],[165.486,-21.624],[165.472,-21.629],[165.463,-21.626],[165.465,-21.621],[165.479,-21.617],[165.463,-21.606],[165.447,-21.609],[165.43,-21.619],[165.413,-21.624],[165.396,-21.621],[165.291,-21.577],[165.277,-21.566],[165.269,-21.553],[165.26,-21.521],[165.257,-21.515],[165.238,-21.513],[165.226,-21.507],[165.198,-21.487],[165.19,-21.485],[165.181,-21.485],[165.174,-21.483],[165.171,-21.476],[165.157,-21.462],[165.154,-21.46],[165.117,-21.398],[165.115,-21.388],[165.118,-21.383],[165.119,-21.379],[165.112,-21.373],[165.117,-21.367],[165.135,-21.355],[165.152,-21.348],[165.177,-21.328],[165.203,-21.32],[165.262,-21.315],[165.28,-21.319],[165.291,-21.329],[165.323,-21.339],[165.344,-21.347],[165.363,-21.359],[165.365,-21.37],[165.378,-21.414],[165.422,-21.434],[165.43,-21.435],[165.441,-21.434],[165.448,-21.431],[165.472,-21.416],[165.483,-21.412],[165.491,-21.413],[165.498,-21.418],[165.504,-21.423],[165.512,-21.428],[165.519,-21.428],[165.539,-21.422],[165.548,-21.422],[165.555,-21.425],[165.558,-21.429],[165.567,-21.45],[165.57,-21.456],[165.576,-21.462],[165.601,-21.475],[165.607,-21.48],[165.628,-21.499],[165.653,-21.508],[165.668,-21.522],[165.697,-21.523],[165.715,-21.513],[165.75,-21.529],[165.773,-21.529],[165.805,-21.547],[165.819,-21.558],[165.83,-21.567],[165.845,-21.574],[165.86,-21.587],[165.871,-21.596],[165.892,-21.596],[165.905,-21.59],[165.923,-21.586],[165.934,-21.585],[165.947,-21.593],[165.963,-21.6],[165.981,-21.605],[166.014,-21.607],[166.029,-21.602],[166.037,-21.581],[166.046,-21.567],[166.059,-21.559],[166.074,-21.546],[166.082,-21.525]]]]}},{"type":"Feature","id":"NC-X03~","properties":{"id":"NC-X03~","countryCode":"NC","isoSubdivision":"NC-X03~","name":"North","name_en":"North","name_ko":"북쪽","type":"Province","labelLongitude":165.058,"labelLatitude":-21.008,"minZoom":6.7},"geometry":{"type":"MultiPolygon","coordinates":[[[[163.985,-20.048],[163.986,-20.058],[163.985,-20.067],[163.983,-20.075],[163.978,-20.083],[163.971,-20.069],[163.956,-20.074],[163.947,-20.066],[163.937,-20.042],[163.937,-20.034],[163.944,-20.026],[163.95,-20.002],[163.958,-20],[163.967,-20.008],[163.975,-20.035],[163.985,-20.048]]],[[[165.112,-21.373],[165.109,-21.371],[165.102,-21.371],[165.093,-21.374],[165.087,-21.378],[165.088,-21.377],[165.084,-21.391],[165.076,-21.396],[165.067,-21.391],[165.062,-21.377],[165.054,-21.383],[165.047,-21.388],[165.038,-21.389],[165.027,-21.384],[165.045,-21.365],[165.043,-21.348],[165.028,-21.339],[165.006,-21.343],[165.014,-21.328],[165.009,-21.318],[164.986,-21.302],[164.977,-21.316],[164.98,-21.337],[164.972,-21.35],[164.961,-21.356],[164.951,-21.354],[164.943,-21.346],[164.938,-21.336],[164.942,-21.328],[164.942,-21.319],[164.946,-21.31],[164.951,-21.302],[164.944,-21.293],[164.937,-21.291],[164.929,-21.29],[164.92,-21.285],[164.915,-21.279],[164.908,-21.267],[164.834,-21.183],[164.829,-21.17],[164.828,-21.148],[164.828,-21.132],[164.827,-21.115],[164.819,-21.104],[164.8,-21.11],[164.801,-21.097],[164.803,-21.094],[164.807,-21.09],[164.807,-21.082],[164.801,-21.082],[164.796,-21.081],[164.786,-21.076],[164.792,-21.069],[164.791,-21.064],[164.784,-21.064],[164.773,-21.069],[164.77,-21.081],[164.759,-21.082],[164.75,-21.075],[164.746,-21.059],[164.74,-21.058],[164.727,-21.06],[164.719,-21.066],[164.725,-21.076],[164.719,-21.083],[164.712,-21.09],[164.693,-21.043],[164.681,-21.024],[164.664,-21.014],[164.683,-21.001],[164.675,-20.993],[164.654,-20.984],[164.637,-20.972],[164.653,-20.971],[164.661,-20.965],[164.662,-20.956],[164.657,-20.946],[164.644,-20.939],[164.631,-20.938],[164.623,-20.934],[164.622,-20.918],[164.616,-20.918],[164.601,-20.928],[164.585,-20.921],[164.561,-20.898],[164.551,-20.895],[164.53,-20.895],[164.519,-20.891],[164.515,-20.885],[164.503,-20.863],[164.48,-20.859],[164.462,-20.849],[164.419,-20.806],[164.389,-20.787],[164.375,-20.774],[164.366,-20.758],[164.372,-20.757],[164.387,-20.76],[164.403,-20.754],[164.41,-20.738],[164.404,-20.725],[164.39,-20.716],[164.372,-20.713],[164.357,-20.702],[164.335,-20.655],[164.317,-20.645],[164.287,-20.576],[164.281,-20.58],[164.276,-20.58],[164.272,-20.581],[164.266,-20.583],[164.256,-20.565],[164.193,-20.526],[164.177,-20.504],[164.166,-20.463],[164.164,-20.449],[164.159,-20.433],[164.147,-20.425],[164.133,-20.42],[164.123,-20.411],[164.119,-20.39],[164.13,-20.388],[164.157,-20.397],[164.167,-20.387],[164.17,-20.37],[164.171,-20.339],[164.167,-20.332],[164.156,-20.319],[164.144,-20.307],[164.132,-20.301],[164.085,-20.299],[164.074,-20.294],[164.08,-20.281],[164.081,-20.268],[164.075,-20.261],[164.061,-20.267],[164.065,-20.277],[164.059,-20.288],[164.049,-20.297],[164.04,-20.301],[164.025,-20.297],[164.021,-20.288],[164.018,-20.278],[164.01,-20.274],[163.995,-20.264],[163.998,-20.245],[164.017,-20.231],[164.047,-20.239],[164.056,-20.228],[164.053,-20.216],[164.033,-20.192],[164.045,-20.188],[164.053,-20.178],[164.054,-20.165],[164.047,-20.151],[164.032,-20.14],[164.02,-20.142],[164.008,-20.149],[163.992,-20.151],[163.992,-20.144],[163.997,-20.14],[164,-20.135],[164.006,-20.123],[163.991,-20.119],[163.986,-20.11],[163.987,-20.097],[163.992,-20.083],[164,-20.084],[164.014,-20.083],[164.032,-20.094],[164.052,-20.109],[164.067,-20.126],[164.077,-20.15],[164.087,-20.155],[164.109,-20.165],[164.183,-20.247],[164.198,-20.261],[164.244,-20.285],[164.264,-20.289],[164.287,-20.281],[164.293,-20.281],[164.306,-20.309],[164.317,-20.319],[164.334,-20.321],[164.325,-20.309],[164.311,-20.275],[164.304,-20.243],[164.306,-20.235],[164.316,-20.235],[164.496,-20.3],[164.528,-20.327],[164.581,-20.391],[164.595,-20.404],[164.615,-20.417],[164.636,-20.428],[164.653,-20.432],[164.685,-20.459],[164.695,-20.463],[164.725,-20.473],[164.74,-20.486],[164.768,-20.521],[164.783,-20.528],[164.792,-20.535],[164.828,-20.583],[164.88,-20.627],[164.889,-20.627],[164.92,-20.645],[164.935,-20.659],[164.93,-20.672],[164.948,-20.684],[164.989,-20.685],[165.006,-20.699],[165.024,-20.706],[165.062,-20.734],[165.167,-20.754],[165.17,-20.756],[165.178,-20.765],[165.184,-20.768],[165.188,-20.767],[165.193,-20.764],[165.199,-20.761],[165.205,-20.76],[165.218,-20.764],[165.222,-20.768],[165.225,-20.773],[165.233,-20.781],[165.257,-20.8],[165.264,-20.813],[165.26,-20.829],[165.27,-20.87],[165.28,-20.884],[165.296,-20.894],[165.311,-20.903],[165.323,-20.913],[165.328,-20.928],[165.337,-20.932],[165.39,-20.938],[165.408,-20.944],[165.413,-20.949],[165.409,-20.983],[165.403,-21.005],[165.4,-21.011],[165.396,-21.018],[165.397,-21.025],[165.401,-21.031],[165.403,-21.038],[165.407,-21.055],[165.415,-21.066],[165.448,-21.09],[165.476,-21.104],[165.489,-21.114],[165.502,-21.127],[165.51,-21.13],[165.536,-21.132],[165.543,-21.135],[165.545,-21.141],[165.541,-21.152],[165.547,-21.15],[165.549,-21.149],[165.551,-21.148],[165.555,-21.144],[165.585,-21.168],[165.599,-21.182],[165.603,-21.192],[165.608,-21.195],[165.611,-21.198],[165.615,-21.206],[165.599,-21.206],[165.583,-21.202],[165.569,-21.195],[165.555,-21.186],[165.559,-21.196],[165.569,-21.207],[165.581,-21.216],[165.592,-21.22],[165.603,-21.226],[165.61,-21.241],[165.616,-21.257],[165.623,-21.268],[165.646,-21.278],[165.707,-21.292],[165.725,-21.31],[165.754,-21.302],[165.781,-21.316],[165.801,-21.34],[165.809,-21.364],[165.826,-21.36],[165.837,-21.402],[165.856,-21.419],[165.846,-21.399],[165.845,-21.391],[165.85,-21.384],[165.859,-21.379],[165.868,-21.379],[165.877,-21.385],[165.884,-21.398],[165.889,-21.389],[165.89,-21.378],[165.886,-21.367],[165.876,-21.357],[165.894,-21.361],[165.908,-21.378],[165.943,-21.439],[165.95,-21.456],[165.945,-21.464],[165.924,-21.46],[165.931,-21.47],[165.972,-21.494],[165.966,-21.503],[165.974,-21.504],[165.987,-21.501],[165.993,-21.497],[165.99,-21.484],[165.985,-21.475],[165.978,-21.467],[165.972,-21.46],[165.964,-21.436],[165.962,-21.417],[165.969,-21.41],[165.99,-21.422],[166.02,-21.453],[166.031,-21.456],[166.055,-21.459],[166.065,-21.463],[166.067,-21.47],[166.06,-21.473],[166.051,-21.475],[166.048,-21.48],[166.053,-21.484],[166.059,-21.486],[166.068,-21.487],[166.07,-21.498],[166.072,-21.516],[166.075,-21.528],[166.082,-21.525],[166.074,-21.546],[166.059,-21.559],[166.046,-21.567],[166.037,-21.581],[166.029,-21.602],[166.014,-21.607],[165.981,-21.605],[165.963,-21.6],[165.947,-21.593],[165.934,-21.585],[165.923,-21.586],[165.905,-21.59],[165.892,-21.596],[165.871,-21.596],[165.86,-21.587],[165.845,-21.574],[165.83,-21.567],[165.819,-21.558],[165.805,-21.547],[165.773,-21.529],[165.75,-21.529],[165.715,-21.513],[165.697,-21.523],[165.668,-21.522],[165.653,-21.508],[165.628,-21.499],[165.607,-21.48],[165.601,-21.475],[165.576,-21.462],[165.57,-21.456],[165.567,-21.45],[165.558,-21.429],[165.555,-21.425],[165.548,-21.422],[165.539,-21.422],[165.519,-21.428],[165.512,-21.428],[165.504,-21.423],[165.498,-21.418],[165.491,-21.413],[165.483,-21.412],[165.472,-21.416],[165.448,-21.431],[165.441,-21.434],[165.43,-21.435],[165.422,-21.434],[165.378,-21.414],[165.365,-21.37],[165.363,-21.359],[165.344,-21.347],[165.323,-21.339],[165.291,-21.329],[165.28,-21.319],[165.262,-21.315],[165.203,-21.32],[165.177,-21.328],[165.152,-21.348],[165.135,-21.355],[165.117,-21.367],[165.112,-21.373]]],[[[164.225,-20.138],[164.24,-20.158],[164.221,-20.153],[164.193,-20.139],[164.169,-20.123],[164.164,-20.105],[164.164,-20.062],[164.171,-20.062],[164.215,-20.118],[164.225,-20.138]]],[[[163.683,-19.74],[163.694,-19.758],[163.696,-19.765],[163.67,-19.788],[163.64,-19.724],[163.636,-19.702],[163.638,-19.661],[163.632,-19.646],[163.616,-19.636],[163.622,-19.624],[163.638,-19.632],[163.65,-19.646],[163.67,-19.693],[163.677,-19.726],[163.683,-19.74]]]]}}]}
