{"type":"FeatureCollection","features":[{"type":"Feature","id":"NE:CYN+00?","properties":{"id":"NE:CYN+00?","countryCode":"NE-CYN","isoSubdivision":null,"name":"Northern Cyprus","name_en":"Northern Cyprus","name_ko":"노던 사이프러스","type":"Principal subdivision","labelLongitude":33.603,"labelLatitude":35.198,"minZoom":18},"geometry":{"type":"MultiPolygon","coordinates":[[[[34.012,35.064],[34.009,35.06],[33.963,35.068],[33.941,35.06],[33.925,35.063],[33.913,35.066],[33.907,35.069],[33.908,35.071],[33.914,35.073],[33.921,35.081],[33.914,35.091],[33.906,35.091],[33.906,35.096],[33.904,35.1],[33.899,35.109],[33.892,35.11],[33.889,35.119],[33.876,35.119],[33.872,35.1],[33.872,35.085],[33.877,35.077],[33.872,35.073],[33.867,35.067],[33.854,35.058],[33.843,35.057],[33.835,35.064],[33.824,35.067],[33.798,35.053],[33.794,35.04],[33.786,35.039],[33.776,35.04],[33.766,35.032],[33.74,35.047],[33.718,35.032],[33.708,35.029],[33.711,35.041],[33.719,35.063],[33.715,35.067],[33.705,35.067],[33.694,35.058],[33.679,35.056],[33.674,35.046],[33.676,35.037],[33.679,35.034],[33.671,35.031],[33.656,35.032],[33.652,35.031],[33.638,35.031],[33.614,35.046],[33.602,35.042],[33.592,35.034],[33.579,35.035],[33.566,35.043],[33.562,35.058],[33.555,35.067],[33.547,35.073],[33.541,35.073],[33.537,35.067],[33.535,35.057],[33.529,35.056],[33.516,35.06],[33.507,35.061],[33.5,35.061],[33.494,35.057],[33.491,35.05],[33.486,35.039],[33.481,35.032],[33.478,35.019],[33.477,35.009],[33.477,35.003],[33.467,35.005],[33.466,35.014],[33.471,35.039],[33.477,35.057],[33.477,35.077],[33.477,35.095],[33.47,35.104],[33.451,35.132],[33.44,35.149],[33.428,35.168],[33.425,35.182],[33.421,35.194],[33.414,35.199],[33.4,35.198],[33.389,35.188],[33.381,35.178],[33.375,35.174],[33.345,35.167],[33.326,35.167],[33.315,35.162],[33.3,35.163],[33.271,35.169],[33.24,35.171],[33.224,35.179],[33.19,35.19],[33.157,35.185],[33.142,35.181],[33.12,35.16],[33.109,35.159],[33.096,35.17],[33.079,35.165],[33.056,35.156],[33.031,35.149],[33.014,35.142],[32.989,35.131],[32.97,35.113],[32.947,35.103],[32.934,35.1],[32.923,35.099],[32.912,35.1],[32.888,35.103],[32.877,35.1],[32.87,35.098],[32.861,35.088],[32.855,35.079],[32.839,35.08],[32.83,35.1],[32.814,35.117],[32.795,35.127],[32.76,35.134],[32.744,35.138],[32.732,35.143],[32.721,35.153],[32.713,35.163],[32.711,35.175],[32.711,35.182],[32.745,35.178],[32.776,35.171],[32.801,35.157],[32.828,35.149],[32.865,35.157],[32.893,35.175],[32.915,35.201],[32.929,35.233],[32.935,35.271],[32.936,35.337],[32.932,35.366],[32.92,35.398],[32.944,35.395],[32.985,35.375],[33.006,35.37],[33.07,35.359],[33.14,35.362],[33.262,35.349],[33.281,35.342],[33.428,35.329],[33.66,35.359],[33.743,35.398],[33.784,35.417],[33.835,35.41],[33.888,35.424],[34.036,35.471],[34.076,35.494],[34.131,35.511],[34.182,35.554],[34.21,35.559],[34.268,35.572],[34.32,35.586],[34.361,35.608],[34.544,35.678],[34.578,35.69],[34.593,35.692],[34.587,35.689],[34.584,35.685],[34.581,35.681],[34.579,35.678],[34.575,35.65],[34.573,35.644],[34.565,35.641],[34.542,35.637],[34.537,35.634],[34.441,35.584],[34.352,35.521],[34.138,35.415],[34.109,35.394],[34.085,35.37],[34.068,35.338],[34.059,35.324],[34.044,35.315],[34.02,35.314],[33.995,35.319],[33.971,35.321],[33.952,35.312],[33.924,35.279],[33.912,35.26],[33.907,35.243],[33.9,35.164],[33.914,35.156],[33.954,35.123],[33.962,35.113],[33.967,35.1],[33.979,35.087],[34.012,35.064]]],[[[32.641,35.187],[32.639,35.184],[32.635,35.173],[32.626,35.165],[32.615,35.163],[32.603,35.174],[32.602,35.179],[32.619,35.185],[32.641,35.187]]]]}}]}
