{"type":"FeatureCollection","features":[{"type":"Feature","id":"NE:KAS+00?","properties":{"id":"NE:KAS+00?","countryCode":"NE-KAS","isoSubdivision":null,"name":"Kashmir","name_en":"Kashmir","name_ko":"카슈미르","type":"Principal subdivision","labelLongitude":77.289,"labelLatitude":35.379,"minZoom":18},"geometry":{"type":"Polygon","coordinates":[[[77.049,35.11],[76.913,35.378],[76.777,35.646],[76.783,35.646],[76.825,35.648],[76.843,35.641],[76.857,35.629],[76.881,35.601],[76.896,35.59],[76.915,35.583],[76.936,35.58],[76.976,35.579],[77.018,35.585],[77.039,35.585],[77.058,35.58],[77.071,35.571],[77.092,35.548],[77.105,35.538],[77.141,35.525],[77.178,35.523],[77.251,35.531],[77.281,35.528],[77.305,35.518],[77.352,35.486],[77.384,35.472],[77.413,35.469],[77.476,35.477],[77.512,35.478],[77.52,35.477],[77.661,35.458],[77.69,35.463],[77.717,35.475],[77.747,35.494],[77.76,35.498],[77.774,35.499],[77.8,35.495],[77.425,35.303],[77.049,35.11]]]}}]}
