{"type":"FeatureCollection","features":[{"type":"Feature","id":"NE:PGA+00?","properties":{"id":"NE:PGA+00?","countryCode":"NE-PGA","isoSubdivision":null,"name":"Spratly Islands","name_en":"Spratly Islands","name_ko":"스프래틀리 아일랜즈","type":"Principal subdivision","labelLongitude":113.342,"labelLatitude":8.265,"minZoom":18},"geometry":{"type":"MultiPolygon","coordinates":[[[[115.367,10.237],[115.366,10.239],[115.368,10.239],[115.367,10.237]]],[[[114.373,9.688],[114.375,9.69],[114.379,9.693],[114.381,9.692],[114.382,9.69],[114.381,9.686],[114.376,9.68],[114.373,9.68],[114.371,9.681],[114.371,9.684],[114.373,9.688]]],[[[114.03,10.012],[114.028,10.015],[114.029,10.017],[114.038,10.021],[114.04,10.019],[114.034,10.012],[114.03,10.012]]],[[[114.365,10.175],[114.36,10.176],[114.359,10.179],[114.359,10.183],[114.363,10.187],[114.366,10.187],[114.37,10.184],[114.371,10.18],[114.365,10.175]]],[[[114.464,10.367],[114.462,10.372],[114.465,10.378],[114.467,10.378],[114.47,10.377],[114.471,10.372],[114.468,10.368],[114.464,10.367]]],[[[114.364,10.368],[114.359,10.373],[114.358,10.377],[114.36,10.379],[114.366,10.374],[114.368,10.371],[114.367,10.368],[114.364,10.368]]],[[[114.455,10.388],[114.45,10.39],[114.45,10.394],[114.452,10.397],[114.455,10.397],[114.458,10.396],[114.46,10.393],[114.455,10.388]]],[[[115.831,10.735],[115.831,10.734],[115.834,10.729],[115.833,10.728],[115.83,10.727],[115.825,10.727],[115.818,10.721],[115.815,10.723],[115.813,10.728],[115.815,10.734],[115.818,10.735],[115.828,10.736],[115.831,10.735]]],[[[115.84,10.823],[115.834,10.824],[115.83,10.828],[115.83,10.832],[115.831,10.833],[115.841,10.833],[115.845,10.831],[115.849,10.826],[115.847,10.823],[115.846,10.822],[115.84,10.823]]],[[[114.279,11.04],[114.272,11.044],[114.272,11.046],[114.279,11.05],[114.283,11.051],[114.287,11.047],[114.283,11.041],[114.279,11.04]]],[[[115.018,11.107],[115.014,11.108],[115.009,11.113],[115.01,11.116],[115.012,11.115],[115.021,11.118],[115.022,11.115],[115.02,11.109],[115.018,11.107]]]]}}]}
