{"type":"FeatureCollection","features":[{"type":"Feature","id":"NE:USG+00?","properties":{"id":"NE:USG+00?","countryCode":"NE-USG","isoSubdivision":null,"name":"USNB, Guantanamo Bay","name_en":"USNB, Guantanamo Bay","name_ko":"관타나모 베이 USNB","type":"Principal subdivision","labelLongitude":-75.196,"labelLatitude":19.935,"minZoom":18},"geometry":{"type":"MultiPolygon","coordinates":[[[[-75.095,19.972],[-75.095,19.897],[-75.108,19.898],[-75.137,19.893],[-75.162,19.891],[-75.165,19.897],[-75.164,19.914],[-75.158,19.919],[-75.146,19.923],[-75.123,19.94],[-75.118,19.944],[-75.104,19.943],[-75.101,19.953],[-75.105,19.959],[-75.117,19.967],[-75.13,19.956],[-75.134,19.958],[-75.14,19.965],[-75.137,19.972],[-75.095,19.972]]],[[[-75.179,19.971],[-75.16,19.971],[-75.168,19.967],[-75.171,19.958],[-75.163,19.95],[-75.157,19.939],[-75.172,19.936],[-75.184,19.934],[-75.193,19.927],[-75.196,19.922],[-75.202,19.923],[-75.203,19.928],[-75.209,19.929],[-75.215,19.926],[-75.218,19.924],[-75.218,19.919],[-75.206,19.912],[-75.192,19.91],[-75.191,19.906],[-75.207,19.906],[-75.231,19.9],[-75.233,19.9],[-75.229,19.937],[-75.179,19.971]]]]}}]}
