{"type":"FeatureCollection","features":[{"type":"Feature","id":"NE:WSB-5133","properties":{"id":"NE:WSB-5133","countryCode":"NE-WSB","isoSubdivision":null,"name":"Akrotiri","name_en":"Akrotiri","name_ko":"아크로티리","type":"Principal subdivision","labelLongitude":32.971,"labelLatitude":34.6,"minZoom":18},"geometry":{"type":"Polygon","coordinates":[[[32.832,34.701],[32.836,34.7],[32.841,34.699],[32.846,34.699],[32.854,34.699],[32.86,34.701],[32.86,34.688],[32.866,34.679],[32.885,34.667],[32.914,34.66],[32.917,34.667],[32.93,34.662],[32.936,34.658],[32.942,34.667],[32.955,34.677],[32.988,34.673],[32.99,34.646],[32.97,34.646],[32.966,34.652],[32.954,34.643],[32.956,34.629],[32.963,34.625],[32.97,34.632],[32.991,34.634],[33.016,34.634],[33.01,34.625],[33.009,34.597],[33.03,34.575],[33.03,34.569],[32.941,34.569],[32.941,34.575],[32.945,34.594],[32.916,34.639],[32.914,34.657],[32.857,34.669],[32.834,34.671],[32.813,34.669],[32.761,34.653],[32.76,34.669],[32.767,34.676],[32.779,34.673],[32.799,34.671],[32.806,34.686],[32.819,34.688],[32.823,34.691],[32.827,34.697],[32.832,34.701]]]}}]}
