{"type":"FeatureCollection","features":[{"type":"Feature","id":"NE-1","properties":{"id":"NE-1","countryCode":"NE","isoSubdivision":"NE-1","name":"Agadez","name_en":"Agadez","name_ko":"아가데즈","type":"Department","labelLongitude":10.099,"labelLatitude":19.452,"minZoom":6.6},"geometry":{"type":"Polygon","coordinates":[[[11.969,23.517],[12.057,23.498],[12.145,23.478],[12.234,23.458],[12.322,23.439],[12.41,23.419],[12.498,23.399],[12.586,23.38],[12.675,23.36],[12.763,23.34],[12.851,23.32],[12.939,23.301],[13.028,23.281],[13.116,23.261],[13.204,23.242],[13.292,23.222],[13.381,23.202],[13.482,23.18],[13.6,23.119],[13.656,23.073],[13.781,22.97],[13.906,22.867],[14.031,22.764],[14.156,22.661],[14.202,22.623],[14.216,22.616],[14.232,22.618],[14.295,22.65],[14.466,22.736],[14.637,22.823],[14.808,22.909],[14.979,22.995],[14.98,22.996],[14.992,22.933],[15.004,22.87],[15.016,22.808],[15.028,22.745],[15.04,22.683],[15.052,22.62],[15.064,22.557],[15.076,22.495],[15.088,22.432],[15.1,22.369],[15.112,22.307],[15.124,22.244],[15.136,22.181],[15.148,22.119],[15.156,22.076],[15.164,22.034],[15.172,21.993],[15.172,21.974],[15.173,21.922],[15.175,21.848],[15.176,21.763],[15.178,21.679],[15.179,21.605],[15.18,21.553],[15.18,21.533],[15.18,21.507],[15.185,21.491],[15.2,21.476],[15.247,21.453],[15.267,21.441],[15.301,21.401],[15.325,21.367],[15.341,21.342],[15.358,21.318],[15.375,21.293],[15.392,21.269],[15.408,21.244],[15.425,21.22],[15.442,21.195],[15.459,21.171],[15.476,21.146],[15.492,21.122],[15.509,21.097],[15.526,21.073],[15.543,21.048],[15.559,21.024],[15.576,20.999],[15.593,20.975],[15.609,20.951],[15.569,20.929],[15.544,20.89],[15.536,20.844],[15.544,20.799],[15.556,20.774],[15.57,20.752],[15.588,20.733],[15.669,20.672],[15.697,20.643],[15.756,20.582],[15.814,20.521],[15.872,20.46],[15.93,20.399],[15.954,20.375],[15.968,20.353],[15.97,20.336],[15.963,20.319],[15.943,20.284],[15.902,20.215],[15.862,20.146],[15.822,20.077],[15.782,20.008],[15.767,19.982],[15.736,19.904],[15.732,19.862],[15.728,19.816],[15.724,19.771],[15.72,19.725],[15.716,19.679],[15.712,19.634],[15.708,19.588],[15.704,19.543],[15.7,19.497],[15.696,19.451],[15.692,19.406],[15.688,19.36],[15.684,19.314],[15.68,19.269],[15.676,19.223],[15.672,19.178],[15.668,19.132],[15.664,19.086],[15.66,19.041],[15.656,18.995],[15.652,18.949],[15.648,18.904],[15.644,18.858],[15.64,18.813],[15.636,18.767],[15.632,18.721],[15.628,18.676],[15.623,18.63],[15.619,18.584],[15.615,18.539],[15.611,18.493],[15.607,18.448],[15.603,18.402],[15.599,18.356],[15.595,18.311],[15.591,18.265],[15.587,18.219],[15.583,18.174],[15.579,18.128],[15.575,18.083],[15.571,18.037],[15.568,18],[15.567,18],[15.559,18],[13,18],[12.237,17.657],[12.034,17.525],[12.018,17.511],[11.997,17.5],[11.658,17.382],[11.249,17.112],[10.955,17.027],[9.321,16],[8.969,15.871],[8.559,15.65],[8.376,15.587],[8.316,15.582],[8.134,15.586],[8.115,15.585],[8.095,15.581],[8.017,15.54],[7.846,15.538],[7.445,15.598],[7.406,15.556],[7.324,15.335],[7.124,15.439],[7.071,15.443],[6.674,15.428],[6.614,16.001],[6.636,16.162],[6.636,16.178],[6.631,16.192],[6.614,16.201],[6.46,16.24],[6.453,16.243],[6.439,16.251],[6.371,16.301],[6.365,16.307],[6.359,16.315],[6.342,16.344],[6.339,16.354],[6.12,16.862],[6.116,16.869],[6.028,16.964],[5.803,17.128],[5.269,17.45],[5.248,17.466],[5.226,17.486],[5.094,17.66],[4.92,17.798],[4.906,17.812],[4.899,17.826],[4.877,17.927],[4.871,17.94],[4.857,17.946],[4.751,17.953],[4.734,17.957],[4.718,17.964],[4.708,17.982],[4.703,17.994],[4.7,18.003],[4.699,18.009],[4.699,18.021],[4.705,18.033],[4.735,18.078],[4.737,18.091],[4.726,18.21],[4.727,18.216],[4.735,18.236],[4.736,18.242],[4.737,18.248],[4.736,18.254],[4.733,18.265],[4.728,18.28],[4.724,18.302],[4.723,18.315],[4.723,18.321],[4.725,18.327],[4.733,18.352],[4.863,18.612],[4.769,18.639],[4.245,18.645],[4.23,18.645],[4.23,18.648],[4.23,18.771],[4.229,18.895],[4.229,19.019],[4.229,19.142],[4.417,19.178],[4.606,19.215],[4.794,19.251],[4.983,19.287],[5.083,19.306],[5.302,19.348],[5.521,19.39],[5.62,19.409],[5.749,19.434],[5.794,19.45],[5.838,19.479],[5.916,19.546],[5.979,19.601],[6.043,19.655],[6.106,19.709],[6.169,19.763],[6.232,19.817],[6.295,19.872],[6.358,19.926],[6.421,19.98],[6.484,20.034],[6.547,20.089],[6.61,20.143],[6.673,20.197],[6.736,20.251],[6.799,20.306],[6.862,20.36],[6.925,20.414],[6.983,20.464],[7.021,20.495],[7.098,20.559],[7.169,20.617],[7.241,20.675],[7.312,20.733],[7.384,20.792],[7.483,20.873],[7.614,20.95],[7.682,20.99],[7.75,21.03],[7.818,21.07],[7.886,21.11],[7.954,21.15],[8.022,21.19],[8.09,21.231],[8.158,21.271],[8.226,21.311],[8.294,21.351],[8.362,21.391],[8.43,21.431],[8.498,21.471],[8.566,21.511],[8.634,21.552],[8.702,21.592],[8.771,21.632],[8.839,21.672],[8.907,21.712],[8.975,21.752],[9.043,21.792],[9.111,21.832],[9.179,21.873],[9.247,21.913],[9.315,21.953],[9.383,21.993],[9.451,22.033],[9.519,22.073],[9.587,22.113],[9.655,22.153],[9.723,22.193],[9.791,22.234],[9.859,22.274],[9.927,22.314],[9.995,22.354],[10.063,22.394],[10.132,22.434],[10.2,22.474],[10.268,22.514],[10.336,22.555],[10.404,22.595],[10.472,22.635],[10.54,22.675],[10.608,22.715],[10.676,22.755],[10.744,22.795],[10.812,22.835],[10.88,22.875],[10.948,22.916],[11.016,22.956],[11.084,22.996],[11.152,23.036],[11.22,23.076],[11.288,23.116],[11.356,23.156],[11.425,23.196],[11.493,23.237],[11.561,23.277],[11.629,23.317],[11.697,23.357],[11.765,23.397],[11.833,23.437],[11.901,23.477],[11.969,23.517]]]}},{"type":"Feature","id":"NE-2","properties":{"id":"NE-2","countryCode":"NE","isoSubdivision":"NE-2","name":"Diffa","name_en":"Diffa","name_ko":"디파","type":"Department","labelLongitude":13.09,"labelLatitude":15.765,"minZoom":6.6},"geometry":{"type":"Polygon","coordinates":[[[13.607,13.704],[13.36,13.714],[13.359,13.714],[13.33,13.709],[13.321,13.702],[13.321,13.685],[13.306,13.675],[13.266,13.638],[13.259,13.629],[13.254,13.619],[13.254,13.615],[13.259,13.608],[13.26,13.602],[13.257,13.594],[13.251,13.593],[13.244,13.593],[13.239,13.592],[13.23,13.578],[13.232,13.573],[13.246,13.571],[13.228,13.548],[13.204,13.539],[13.177,13.534],[13.15,13.523],[13.154,13.531],[13.156,13.541],[13.154,13.549],[13.144,13.551],[13.138,13.547],[13.131,13.53],[13.124,13.523],[13.124,13.533],[13.124,13.537],[13.107,13.532],[13.088,13.531],[13.077,13.535],[13.082,13.544],[13.082,13.551],[13.055,13.548],[13.029,13.539],[12.939,13.495],[12.912,13.49],[12.884,13.496],[12.88,13.48],[12.871,13.479],[12.858,13.485],[12.842,13.489],[12.842,13.482],[12.851,13.479],[12.858,13.475],[12.864,13.469],[12.87,13.461],[12.857,13.451],[12.829,13.42],[12.829,13.417],[12.83,13.409],[12.829,13.407],[12.826,13.406],[12.818,13.407],[12.815,13.407],[12.811,13.404],[12.797,13.4],[12.795,13.396],[12.798,13.384],[12.805,13.377],[12.805,13.373],[12.791,13.372],[12.789,13.375],[12.783,13.382],[12.777,13.387],[12.775,13.383],[12.773,13.382],[12.767,13.366],[12.741,13.335],[12.724,13.322],[12.702,13.317],[12.69,13.312],[12.683,13.289],[12.674,13.284],[12.659,13.287],[12.649,13.294],[12.641,13.302],[12.63,13.31],[12.629,13.294],[12.627,13.288],[12.62,13.281],[12.613,13.277],[12.606,13.274],[12.603,13.28],[12.598,13.277],[12.561,13.243],[12.558,13.227],[12.545,13.208],[12.538,13.193],[12.554,13.188],[12.548,13.165],[12.543,13.155],[12.535,13.146],[12.527,13.144],[12.504,13.14],[12.5,13.136],[12.491,13.083],[12.487,13.071],[12.473,13.064],[12.456,13.067],[12.437,13.074],[12.414,13.078],[12.387,13.079],[12.352,13.08],[12.335,13.084],[12.326,13.079],[12.318,13.084],[12.311,13.093],[12.301,13.098],[12.292,13.097],[12.285,13.092],[12.281,13.087],[12.277,13.084],[12.269,13.086],[12.267,13.09],[12.267,13.095],[12.263,13.102],[12.252,13.108],[12.201,13.125],[12.185,13.122],[12.164,13.108],[12.15,13.106],[12.116,13.103],[12.058,13.117],[12.038,13.126],[11.992,13.162],[11.853,13.245],[11.742,13.289],[11.44,13.364],[10.953,13.362],[10.771,13.383],[10.675,13.375],[10.648,13.369],[10.648,13.37],[10.645,13.375],[10.613,13.489],[10.616,13.506],[10.623,13.53],[10.796,13.706],[10.804,13.716],[10.808,13.724],[10.81,13.732],[10.811,13.744],[10.811,13.77],[10.81,13.79],[10.81,13.799],[10.815,13.807],[11.221,14.172],[11.242,14.186],[11.255,14.187],[11.269,14.183],[11.309,14.161],[11.321,14.155],[11.329,14.155],[11.342,14.157],[11.524,14.213],[11.775,14.372],[11.788,14.378],[11.798,14.38],[11.881,14.376],[11.895,14.378],[11.908,14.384],[11.975,14.43],[11.982,14.44],[11.976,14.447],[11.936,14.461],[11.924,14.467],[11.917,14.476],[11.912,14.487],[11.906,14.502],[11.904,14.516],[11.907,14.539],[11.91,14.552],[11.915,14.564],[11.925,14.573],[11.952,14.59],[11.981,14.604],[11.998,14.606],[12,14.609],[11.997,17.5],[12.018,17.511],[12.034,17.525],[12.237,17.657],[13,18],[15.559,18],[15.567,18],[15.568,18],[15.567,17.991],[15.563,17.946],[15.559,17.9],[15.555,17.855],[15.551,17.809],[15.547,17.763],[15.543,17.718],[15.539,17.672],[15.535,17.626],[15.531,17.581],[15.527,17.535],[15.523,17.49],[15.519,17.444],[15.515,17.398],[15.511,17.353],[15.506,17.307],[15.502,17.261],[15.498,17.216],[15.494,17.17],[15.49,17.125],[15.486,17.079],[15.482,17.033],[15.478,16.988],[15.474,16.942],[15.472,16.917],[15.469,16.905],[15.466,16.895],[15.452,16.876],[15.418,16.841],[15.362,16.783],[15.306,16.724],[15.25,16.666],[15.194,16.608],[15.138,16.549],[15.082,16.491],[15.026,16.433],[14.97,16.374],[14.914,16.316],[14.857,16.258],[14.801,16.199],[14.745,16.141],[14.689,16.083],[14.633,16.024],[14.577,15.966],[14.521,15.908],[14.482,15.867],[14.424,15.806],[14.369,15.75],[14.34,15.711],[14.311,15.67],[14.281,15.629],[14.251,15.588],[14.221,15.548],[14.191,15.507],[14.161,15.466],[14.132,15.426],[14.102,15.385],[14.072,15.344],[14.042,15.303],[14.012,15.263],[13.982,15.222],[13.953,15.181],[13.923,15.14],[13.893,15.1],[13.863,15.059],[13.834,15.02],[13.808,14.966],[13.775,14.897],[13.761,14.866],[13.755,14.847],[13.754,14.826],[13.758,14.806],[13.772,14.763],[13.773,14.743],[13.764,14.719],[13.749,14.711],[13.73,14.71],[13.71,14.705],[13.7,14.698],[13.668,14.663],[13.648,14.649],[13.645,14.644],[13.646,14.639],[13.657,14.63],[13.66,14.624],[13.667,14.586],[13.666,14.567],[13.658,14.549],[13.624,14.521],[13.608,14.518],[13.584,14.514],[13.544,14.511],[13.508,14.496],[13.482,14.484],[13.449,14.439],[13.449,14.38],[13.468,14.311],[13.482,14.26],[13.493,14.214],[13.5,14.182],[13.507,14.15],[13.514,14.118],[13.521,14.086],[13.528,14.055],[13.536,14.023],[13.543,13.991],[13.55,13.959],[13.557,13.927],[13.564,13.895],[13.571,13.863],[13.579,13.832],[13.586,13.8],[13.593,13.768],[13.6,13.736],[13.607,13.704]]]}},{"type":"Feature","id":"NE-3","properties":{"id":"NE-3","countryCode":"NE","isoSubdivision":"NE-3","name":"Dosso","name_en":"Dosso","name_ko":"도소","type":"Department","labelLongitude":3.55,"labelLatitude":12.812,"minZoom":6.6},"geometry":{"type":"Polygon","coordinates":[[[4.12,13.211],[4.089,12.996],[3.929,12.75],[3.864,12.69],[3.646,12.529],[3.642,12.518],[3.651,12.269],[3.625,12.138],[3.624,12.094],[3.649,12.021],[3.654,11.987],[3.637,11.954],[3.62,11.936],[3.608,11.922],[3.604,11.906],[3.61,11.849],[3.613,11.839],[3.619,11.828],[3.622,11.825],[3.626,11.823],[3.65,11.798],[3.662,11.779],[3.667,11.76],[3.66,11.738],[3.648,11.726],[3.596,11.696],[3.589,11.702],[3.58,11.717],[3.572,11.722],[3.568,11.73],[3.566,11.738],[3.563,11.746],[3.557,11.762],[3.554,11.77],[3.549,11.774],[3.544,11.777],[3.537,11.783],[3.503,11.83],[3.495,11.838],[3.484,11.845],[3.448,11.858],[3.403,11.885],[3.392,11.889],[3.381,11.895],[3.369,11.897],[3.355,11.889],[3.342,11.883],[3.328,11.886],[3.315,11.895],[3.307,11.902],[3.293,11.919],[3.27,11.957],[3.263,11.975],[3.258,11.997],[3.255,12.019],[3.252,12.024],[3.238,12.034],[3.235,12.04],[3.063,12.194],[3.023,12.252],[3.013,12.271],[3.009,12.276],[3.001,12.279],[2.968,12.283],[2.956,12.287],[2.945,12.292],[2.937,12.301],[2.93,12.323],[2.923,12.336],[2.913,12.346],[2.892,12.357],[2.844,12.399],[2.822,12.408],[2.786,12.429],[2.765,12.434],[2.743,12.443],[2.732,12.466],[2.728,12.494],[2.728,12.519],[2.725,12.534],[2.719,12.543],[2.709,12.546],[2.7,12.543],[2.696,12.539],[2.691,12.532],[2.688,12.525],[2.687,12.519],[2.684,12.511],[2.678,12.51],[2.673,12.513],[2.672,12.516],[2.632,12.516],[2.628,12.526],[2.628,12.553],[2.624,12.565],[2.621,12.584],[2.616,12.652],[2.616,12.678],[2.622,12.701],[2.624,12.72],[2.624,12.733],[2.622,12.744],[2.605,12.809],[2.603,12.821],[2.602,12.833],[2.604,12.846],[2.606,12.851],[2.61,12.858],[2.616,12.866],[2.63,12.878],[2.645,12.889],[2.668,12.9],[2.673,12.903],[2.707,12.931],[2.724,12.941],[2.728,12.947],[2.729,12.955],[2.724,12.972],[2.713,12.979],[2.697,12.984],[2.545,12.999],[2.54,13],[2.537,13.001],[2.476,13.136],[2.475,13.143],[2.475,13.148],[2.476,13.154],[2.48,13.162],[2.487,13.171],[2.5,13.185],[2.509,13.193],[2.522,13.2],[2.53,13.203],[2.538,13.204],[2.543,13.203],[2.566,13.197],[2.578,13.195],[2.591,13.196],[2.597,13.197],[2.607,13.2],[2.617,13.204],[2.622,13.207],[2.71,13.273],[2.743,13.281],[2.757,13.281],[2.777,13.279],[2.78,13.278],[2.784,13.276],[2.797,13.268],[2.808,13.265],[2.814,13.264],[2.82,13.264],[2.827,13.268],[2.833,13.274],[2.851,13.302],[2.867,13.343],[2.877,13.389],[2.877,13.395],[2.876,13.4],[2.867,13.419],[2.865,13.424],[2.864,13.43],[2.866,13.441],[2.873,13.462],[2.878,13.485],[2.88,13.506],[2.883,13.511],[2.887,13.516],[2.907,13.522],[2.936,13.528],[2.951,13.533],[2.96,13.544],[2.981,13.591],[2.988,13.603],[2.998,13.608],[3.004,13.61],[3.074,13.609],[3.09,13.611],[3.104,13.616],[3.112,13.63],[3.117,13.646],[3.133,13.73],[3.146,13.756],[3.164,13.787],[3.174,13.798],[3.187,13.798],[3.203,13.793],[3.307,13.75],[3.322,13.746],[3.333,13.747],[3.5,13.817],[3.532,13.836],[3.718,14.004],[3.736,14.028],[3.744,14.048],[3.779,14.2],[3.784,14.215],[3.789,14.224],[3.819,14.265],[3.955,14.38],[3.969,14.387],[3.985,14.393],[3.995,14.396],[4.009,14.397],[4.036,14.396],[4.043,14.397],[4.121,14.432],[4.137,14.443],[4.15,14.455],[4.161,14.486],[4.169,14.494],[4.179,14.499],[4.205,14.507],[4.235,14.539],[4.254,14.658],[4.321,14.616],[4.343,14.591],[4.419,14.44],[4.429,14.399],[4.469,14.062],[4.473,14.049],[4.567,13.898],[4.626,13.723],[4.507,13.695],[4.453,13.674],[4.406,13.641],[4.248,13.494],[4.221,13.481],[4.19,13.475],[4.126,13.473],[4.124,13.234],[4.12,13.211]]]}},{"type":"Feature","id":"NE-4","properties":{"id":"NE-4","countryCode":"NE","isoSubdivision":"NE-4","name":"Maradi","name_en":"Maradi","name_ko":"마라디","type":"Department","labelLongitude":7.412,"labelLatitude":14.115,"minZoom":6.6},"geometry":{"type":"Polygon","coordinates":[[[6.754,13.175],[6.673,13.321],[6.509,13.496],[6.369,13.626],[6.302,13.664],[6.284,13.668],[6.283,13.684],[6.283,13.741],[6.285,13.758],[6.289,13.774],[6.302,13.79],[6.334,13.821],[6.346,13.838],[6.346,13.856],[6.334,13.908],[6.333,13.923],[6.342,13.935],[6.357,13.947],[6.421,13.992],[6.431,14],[6.442,14.012],[6.447,14.015],[6.452,14.017],[6.457,14.019],[6.49,14.026],[6.499,14.03],[6.514,14.038],[6.517,14.041],[6.522,14.059],[6.53,14.166],[6.529,14.215],[6.525,14.225],[6.518,14.252],[6.514,14.275],[6.511,14.285],[6.48,14.359],[6.474,14.384],[6.472,14.415],[6.531,14.885],[6.53,14.904],[6.533,14.924],[6.674,15.428],[7.071,15.443],[7.124,15.439],[7.324,15.335],[7.389,15.298],[7.403,15.264],[7.408,15.125],[7.412,15.105],[7.452,15.038],[7.464,15.006],[7.495,14.842],[7.501,14.828],[7.51,14.816],[7.528,14.796],[7.538,14.782],[7.56,14.719],[7.574,14.704],[7.591,14.692],[7.677,14.645],[7.691,14.636],[7.699,14.627],[7.703,14.612],[7.708,14.488],[7.71,14.475],[7.715,14.461],[7.728,14.451],[7.778,14.429],[7.794,14.424],[7.807,14.425],[7.823,14.435],[7.915,14.515],[7.93,14.524],[7.948,14.527],[8.003,14.525],[8.012,14.524],[8.016,14.521],[8.049,14.47],[8.065,14.451],[8.073,14.446],[8.113,14.428],[8.124,14.425],[8.143,14.416],[8.176,14.39],[8.181,14.388],[8.187,14.387],[8.208,14.386],[8.219,14.381],[8.233,14.371],[8.285,14.324],[8.29,14.321],[8.329,14.303],[8.342,14.295],[8.353,14.286],[8.357,14.28],[8.361,14.272],[8.364,14.262],[8.37,14.227],[8.373,14.22],[8.38,14.21],[8.504,14.125],[8.519,14.111],[8.524,14.095],[8.526,14.077],[8.526,14.046],[8.527,14.033],[8.53,14.021],[8.537,14.001],[8.541,13.965],[8.541,13.931],[8.54,13.915],[8.535,13.901],[8.523,13.892],[8.238,13.75],[8.232,13.746],[8.229,13.742],[8.226,13.738],[8.222,13.731],[8.217,13.718],[8.215,13.713],[8.214,13.701],[8.215,13.688],[8.219,13.678],[8.227,13.662],[8.242,13.651],[8.258,13.642],[8.292,13.627],[8.307,13.619],[8.318,13.609],[8.318,13.595],[8.295,13.517],[8.295,13.502],[8.318,13.361],[8.318,13.344],[8.312,13.328],[8.251,13.218],[8.247,13.211],[8.246,13.212],[8.216,13.22],[8.201,13.226],[8.168,13.252],[8.14,13.269],[8.117,13.291],[8.105,13.3],[8.078,13.31],[7.824,13.345],[7.79,13.342],[7.756,13.327],[7.392,13.113],[7.361,13.103],[7.325,13.103],[7.221,13.122],[7.198,13.117],[7.137,13.047],[7.09,13.006],[7.069,12.996],[7.063,12.995],[7.045,12.992],[6.971,12.992],[6.937,12.995],[6.907,13.007],[6.874,13.03],[6.838,13.063],[6.779,13.13],[6.754,13.175]]]}},{"type":"Feature","id":"NE-5","properties":{"id":"NE-5","countryCode":"NE","isoSubdivision":"NE-5","name":"Tahoua","name_en":"Tahoua","name_ko":"타우아","type":"Department","labelLongitude":5.274,"labelLatitude":15.6,"minZoom":6.6},"geometry":{"type":"Polygon","coordinates":[[[6.142,13.641],[6.136,13.644],[6.129,13.649],[6.12,13.654],[5.837,13.764],[5.554,13.873],[5.522,13.88],[5.374,13.855],[5.346,13.842],[5.335,13.827],[5.318,13.79],[5.304,13.774],[5.274,13.753],[5.262,13.748],[5.228,13.741],[5.084,13.748],[4.983,13.73],[4.925,13.733],[4.902,13.743],[4.88,13.764],[4.857,13.774],[4.825,13.771],[4.626,13.723],[4.567,13.898],[4.473,14.049],[4.469,14.062],[4.429,14.399],[4.419,14.44],[4.343,14.591],[4.321,14.616],[4.254,14.658],[4.112,14.887],[4.104,14.907],[4.101,14.951],[4.105,15.09],[3.882,15.707],[3.874,15.721],[3.887,15.75],[3.894,15.789],[3.903,15.886],[3.91,15.905],[3.925,15.928],[3.983,15.984],[3.984,15.987],[3.985,15.99],[3.985,15.996],[3.985,15.997],[3.984,15.999],[3.984,16],[3.983,16.001],[3.971,16.031],[3.967,16.059],[3.971,16.086],[4.061,16.298],[4.076,16.321],[4.095,16.341],[4.118,16.358],[4.162,16.38],[4.176,16.393],[4.184,16.416],[4.183,16.527],[4.183,16.613],[4.182,16.746],[4.182,16.81],[4.185,16.819],[4.198,16.839],[4.202,16.849],[4.197,16.947],[4.198,16.965],[4.204,16.983],[4.212,16.986],[4.222,16.987],[4.236,16.996],[4.235,17.101],[4.235,17.164],[4.235,17.288],[4.234,17.411],[4.234,17.535],[4.233,17.658],[4.233,17.782],[4.233,17.906],[4.232,17.975],[4.232,18.029],[4.232,18.153],[4.232,18.277],[4.231,18.4],[4.231,18.524],[4.23,18.645],[4.245,18.645],[4.769,18.639],[4.863,18.612],[4.733,18.352],[4.725,18.327],[4.723,18.321],[4.723,18.315],[4.724,18.302],[4.728,18.28],[4.733,18.265],[4.736,18.254],[4.737,18.248],[4.736,18.242],[4.735,18.236],[4.727,18.216],[4.726,18.21],[4.737,18.091],[4.735,18.078],[4.705,18.033],[4.699,18.021],[4.699,18.009],[4.7,18.003],[4.703,17.994],[4.708,17.982],[4.718,17.964],[4.734,17.957],[4.751,17.953],[4.857,17.946],[4.871,17.94],[4.877,17.927],[4.899,17.826],[4.906,17.812],[4.92,17.798],[5.094,17.66],[5.226,17.486],[5.248,17.466],[5.269,17.45],[5.803,17.128],[6.028,16.964],[6.116,16.869],[6.12,16.862],[6.339,16.354],[6.342,16.344],[6.359,16.315],[6.365,16.307],[6.371,16.301],[6.439,16.251],[6.453,16.243],[6.46,16.24],[6.614,16.201],[6.631,16.192],[6.636,16.178],[6.636,16.162],[6.614,16.001],[6.674,15.428],[6.533,14.924],[6.53,14.904],[6.531,14.885],[6.472,14.415],[6.474,14.384],[6.48,14.359],[6.511,14.285],[6.514,14.275],[6.518,14.252],[6.525,14.225],[6.529,14.215],[6.53,14.166],[6.522,14.059],[6.517,14.041],[6.514,14.038],[6.499,14.03],[6.49,14.026],[6.457,14.019],[6.452,14.017],[6.447,14.015],[6.442,14.012],[6.431,14],[6.421,13.992],[6.357,13.947],[6.342,13.935],[6.333,13.923],[6.334,13.908],[6.346,13.856],[6.346,13.838],[6.334,13.821],[6.302,13.79],[6.289,13.774],[6.285,13.758],[6.283,13.741],[6.283,13.684],[6.284,13.668],[6.23,13.679],[6.211,13.675],[6.153,13.644],[6.142,13.641]]]}},{"type":"Feature","id":"NE-6","properties":{"id":"NE-6","countryCode":"NE","isoSubdivision":"NE-6","name":"Tillabéri","name_en":"Tillabéri","name_ko":"틸라베리","type":"Department","labelLongitude":2.195,"labelLatitude":13.878,"minZoom":6.6},"geometry":{"type":"Polygon","coordinates":[[[2.844,12.399],[2.832,12.384],[2.809,12.383],[2.798,12.381],[2.778,12.382],[2.769,12.38],[2.757,12.373],[2.741,12.354],[2.732,12.347],[2.722,12.344],[2.711,12.351],[2.7,12.347],[2.695,12.341],[2.692,12.334],[2.69,12.326],[2.687,12.318],[2.673,12.297],[2.664,12.292],[2.629,12.301],[2.622,12.3],[2.61,12.291],[2.604,12.288],[2.599,12.288],[2.59,12.293],[2.586,12.294],[2.551,12.285],[2.546,12.282],[2.537,12.273],[2.531,12.27],[2.524,12.269],[2.521,12.274],[2.519,12.279],[2.516,12.281],[2.504,12.282],[2.495,12.283],[2.488,12.28],[2.483,12.268],[2.478,12.258],[2.473,12.259],[2.467,12.265],[2.46,12.267],[2.454,12.263],[2.446,12.252],[2.444,12.249],[2.431,12.248],[2.408,12.249],[2.394,12.247],[2.37,12.236],[2.361,12.219],[2.362,12.196],[2.372,12.14],[2.406,12.047],[2.411,12.037],[2.418,12.029],[2.429,12.02],[2.439,12.016],[2.449,12.013],[2.455,12.009],[2.457,11.996],[2.457,11.979],[2.449,11.978],[2.439,11.981],[2.429,11.98],[2.422,11.973],[2.414,11.959],[2.407,11.951],[2.399,11.949],[2.389,11.95],[2.381,11.948],[2.375,11.935],[2.377,11.924],[2.388,11.907],[2.39,11.897],[2.338,11.94],[2.259,12.049],[2.189,12.145],[2.114,12.248],[2.071,12.307],[2.052,12.342],[2.054,12.371],[2.069,12.383],[2.127,12.395],[2.131,12.399],[2.139,12.408],[2.145,12.412],[2.148,12.411],[2.159,12.406],[2.164,12.405],[2.223,12.41],[2.238,12.413],[2.245,12.424],[2.243,12.446],[2.243,12.451],[2.246,12.462],[2.246,12.466],[2.242,12.473],[2.23,12.487],[2.224,12.495],[2.216,12.51],[2.211,12.523],[2.203,12.583],[2.2,12.596],[2.193,12.609],[2.184,12.621],[2.166,12.632],[2.155,12.64],[2.145,12.651],[2.141,12.656],[2.135,12.676],[2.109,12.706],[2.069,12.716],[1.972,12.724],[1.962,12.719],[1.946,12.701],[1.934,12.694],[1.927,12.695],[1.92,12.698],[1.911,12.697],[1.907,12.692],[1.9,12.678],[1.883,12.654],[1.873,12.634],[1.861,12.617],[1.844,12.606],[1.826,12.604],[1.699,12.615],[1.597,12.624],[1.564,12.632],[1.536,12.647],[1.467,12.704],[1.412,12.75],[1.331,12.817],[1.305,12.839],[1.231,12.9],[1.171,12.949],[1.114,12.996],[1.084,13.011],[1.012,13.017],[0.984,13.032],[0.975,13.048],[0.972,13.067],[0.972,13.086],[0.971,13.149],[0.971,13.244],[0.97,13.328],[0.984,13.368],[1.005,13.365],[1.085,13.334],[1.138,13.32],[1.161,13.311],[1.168,13.313],[1.178,13.348],[1.182,13.359],[1.188,13.364],[1.206,13.359],[1.222,13.345],[1.242,13.336],[1.269,13.346],[1.25,13.367],[1.234,13.378],[1.217,13.382],[1.175,13.387],[1.157,13.393],[1.048,13.442],[1.015,13.466],[0.997,13.496],[0.991,13.541],[0.951,13.583],[0.897,13.615],[0.851,13.629],[0.813,13.625],[0.795,13.626],[0.776,13.635],[0.764,13.646],[0.763,13.653],[0.766,13.657],[0.767,13.661],[0.766,13.667],[0.766,13.675],[0.763,13.682],[0.753,13.684],[0.621,13.68],[0.594,13.689],[0.58,13.714],[0.585,13.729],[0.595,13.75],[0.601,13.769],[0.594,13.778],[0.574,13.785],[0.563,13.797],[0.553,13.81],[0.519,13.832],[0.504,13.845],[0.5,13.851],[0.492,13.862],[0.484,13.88],[0.476,13.889],[0.455,13.902],[0.449,13.91],[0.448,13.92],[0.456,13.938],[0.457,13.947],[0.446,13.959],[0.428,13.967],[0.412,13.978],[0.404,13.996],[0.402,14.014],[0.391,14.023],[0.378,14.029],[0.369,14.039],[0.369,14.048],[0.377,14.064],[0.378,14.07],[0.374,14.079],[0.369,14.084],[0.362,14.089],[0.356,14.096],[0.344,14.114],[0.339,14.126],[0.343,14.138],[0.367,14.174],[0.372,14.186],[0.377,14.217],[0.381,14.226],[0.391,14.238],[0.392,14.246],[0.389,14.252],[0.346,14.308],[0.202,14.436],[0.189,14.448],[0.159,14.496],[0.153,14.547],[0.22,14.731],[0.213,14.762],[0.184,14.82],[0.186,14.848],[0.198,14.864],[0.212,14.875],[0.221,14.888],[0.218,14.911],[0.213,14.961],[0.213,14.985],[0.221,14.996],[0.353,14.963],[0.387,14.963],[0.419,14.97],[0.484,14.992],[0.515,14.994],[0.67,14.94],[0.684,14.941],[0.711,14.947],[0.74,14.958],[0.769,14.969],[0.922,14.974],[0.949,14.98],[0.974,14.991],[1.058,15.067],[1.123,15.126],[1.203,15.199],[1.271,15.26],[1.298,15.276],[1.332,15.284],[1.405,15.286],[1.502,15.289],[1.598,15.293],[1.695,15.296],[1.791,15.299],[1.888,15.302],[1.985,15.305],[2.081,15.309],[2.178,15.312],[2.275,15.315],[2.371,15.318],[2.468,15.321],[2.564,15.325],[2.661,15.328],[2.757,15.331],[2.854,15.334],[2.951,15.337],[3,15.339],[3.006,15.352],[3.006,15.389],[3.008,15.408],[3.01,15.418],[3.018,15.423],[3.034,15.426],[3.073,15.427],[3.192,15.408],[3.38,15.376],[3.483,15.359],[3.489,15.358],[3.507,15.354],[3.517,15.469],[3.527,15.496],[3.614,15.548],[3.692,15.631],[3.729,15.651],[3.808,15.666],[3.846,15.685],[3.871,15.715],[3.874,15.721],[3.882,15.707],[4.105,15.09],[4.101,14.951],[4.104,14.907],[4.112,14.887],[4.254,14.658],[4.235,14.539],[4.205,14.507],[4.179,14.499],[4.169,14.494],[4.161,14.486],[4.15,14.455],[4.137,14.443],[4.121,14.432],[4.043,14.397],[4.036,14.396],[4.009,14.397],[3.995,14.396],[3.985,14.393],[3.969,14.387],[3.955,14.38],[3.819,14.265],[3.789,14.224],[3.784,14.215],[3.779,14.2],[3.744,14.048],[3.736,14.028],[3.718,14.004],[3.532,13.836],[3.5,13.817],[3.333,13.747],[3.322,13.746],[3.307,13.75],[3.203,13.793],[3.187,13.798],[3.174,13.798],[3.164,13.787],[3.146,13.756],[3.133,13.73],[3.117,13.646],[3.112,13.63],[3.104,13.616],[3.09,13.611],[3.074,13.609],[3.004,13.61],[2.998,13.608],[2.988,13.603],[2.981,13.591],[2.96,13.544],[2.951,13.533],[2.936,13.528],[2.907,13.522],[2.887,13.516],[2.883,13.511],[2.88,13.506],[2.878,13.485],[2.873,13.462],[2.866,13.441],[2.864,13.43],[2.865,13.424],[2.867,13.419],[2.876,13.4],[2.877,13.395],[2.877,13.389],[2.867,13.343],[2.851,13.302],[2.833,13.274],[2.827,13.268],[2.82,13.264],[2.814,13.264],[2.808,13.265],[2.797,13.268],[2.784,13.276],[2.78,13.278],[2.777,13.279],[2.757,13.281],[2.743,13.281],[2.71,13.273],[2.622,13.207],[2.617,13.204],[2.607,13.2],[2.597,13.197],[2.591,13.196],[2.578,13.195],[2.566,13.197],[2.543,13.203],[2.538,13.204],[2.53,13.203],[2.522,13.2],[2.509,13.193],[2.5,13.185],[2.487,13.171],[2.48,13.162],[2.476,13.154],[2.475,13.148],[2.475,13.143],[2.476,13.136],[2.537,13.001],[2.54,13],[2.545,12.999],[2.697,12.984],[2.713,12.979],[2.724,12.972],[2.729,12.955],[2.728,12.947],[2.724,12.941],[2.707,12.931],[2.673,12.903],[2.668,12.9],[2.645,12.889],[2.63,12.878],[2.616,12.866],[2.61,12.858],[2.606,12.851],[2.604,12.846],[2.602,12.833],[2.603,12.821],[2.605,12.809],[2.622,12.744],[2.624,12.733],[2.624,12.72],[2.622,12.701],[2.616,12.678],[2.616,12.652],[2.621,12.584],[2.624,12.565],[2.628,12.553],[2.628,12.526],[2.632,12.516],[2.672,12.516],[2.673,12.513],[2.678,12.51],[2.684,12.511],[2.687,12.519],[2.688,12.525],[2.691,12.532],[2.696,12.539],[2.7,12.543],[2.709,12.546],[2.719,12.543],[2.725,12.534],[2.728,12.519],[2.728,12.494],[2.732,12.466],[2.743,12.443],[2.765,12.434],[2.786,12.429],[2.822,12.408],[2.844,12.399]],[[2.12,13.616],[2.072,13.627],[2.033,13.627],[1.997,13.613],[1.976,13.587],[1.972,13.565],[1.974,13.529],[1.992,13.492],[2.015,13.46],[2.045,13.431],[2.079,13.419],[2.116,13.414],[2.148,13.41],[2.179,13.413],[2.185,13.4],[2.191,13.382],[2.198,13.366],[2.22,13.382],[2.236,13.394],[2.255,13.433],[2.268,13.476],[2.276,13.517],[2.278,13.547],[2.276,13.574],[2.26,13.582],[2.236,13.577],[2.227,13.588],[2.228,13.618],[2.22,13.622],[2.173,13.618],[2.12,13.616]]]}},{"type":"Feature","id":"NE-7","properties":{"id":"NE-7","countryCode":"NE","isoSubdivision":"NE-7","name":"Zinder","name_en":"Zinder","name_ko":"잔데르","type":"Department","labelLongitude":9.662,"labelLatitude":14.531,"minZoom":6.6},"geometry":{"type":"Polygon","coordinates":[[[10.648,13.369],[10.162,13.267],[10.12,13.25],[9.93,13.146],[9.912,13.129],[9.908,13.119],[9.904,13.094],[9.9,13.084],[9.892,13.076],[9.888,13.076],[9.883,13.076],[9.872,13.073],[9.853,13.06],[9.819,13.029],[9.648,12.831],[9.641,12.823],[9.629,12.813],[9.618,12.806],[9.611,12.803],[9.59,12.801],[9.378,12.826],[9.36,12.825],[9.306,12.81],[9.269,12.81],[8.978,12.843],[8.943,12.847],[8.679,12.924],[8.643,12.944],[8.625,12.965],[8.597,13.011],[8.577,13.032],[8.534,13.065],[8.51,13.076],[8.483,13.082],[8.471,13.082],[8.446,13.079],[8.435,13.075],[8.423,13.069],[8.419,13.067],[8.415,13.067],[8.405,13.071],[8.398,13.075],[8.298,13.165],[8.273,13.194],[8.26,13.205],[8.247,13.211],[8.251,13.218],[8.312,13.328],[8.318,13.344],[8.318,13.361],[8.295,13.502],[8.295,13.517],[8.318,13.595],[8.318,13.609],[8.307,13.619],[8.292,13.627],[8.258,13.642],[8.242,13.651],[8.227,13.662],[8.219,13.678],[8.215,13.688],[8.214,13.701],[8.215,13.713],[8.217,13.718],[8.222,13.731],[8.226,13.738],[8.229,13.742],[8.232,13.746],[8.238,13.75],[8.523,13.892],[8.535,13.901],[8.54,13.915],[8.541,13.931],[8.541,13.965],[8.537,14.001],[8.53,14.021],[8.527,14.033],[8.526,14.046],[8.526,14.077],[8.524,14.095],[8.519,14.111],[8.504,14.125],[8.38,14.21],[8.373,14.22],[8.37,14.227],[8.364,14.262],[8.361,14.272],[8.357,14.28],[8.353,14.286],[8.342,14.295],[8.329,14.303],[8.29,14.321],[8.285,14.324],[8.233,14.371],[8.219,14.381],[8.208,14.386],[8.187,14.387],[8.181,14.388],[8.176,14.39],[8.143,14.416],[8.124,14.425],[8.113,14.428],[8.073,14.446],[8.065,14.451],[8.049,14.47],[8.016,14.521],[8.012,14.524],[8.003,14.525],[7.948,14.527],[7.93,14.524],[7.915,14.515],[7.823,14.435],[7.807,14.425],[7.794,14.424],[7.778,14.429],[7.728,14.451],[7.715,14.461],[7.71,14.475],[7.708,14.488],[7.703,14.612],[7.699,14.627],[7.691,14.636],[7.677,14.645],[7.591,14.692],[7.574,14.704],[7.56,14.719],[7.538,14.782],[7.528,14.796],[7.51,14.816],[7.501,14.828],[7.495,14.842],[7.464,15.006],[7.452,15.038],[7.412,15.105],[7.408,15.125],[7.403,15.264],[7.389,15.298],[7.324,15.335],[7.406,15.556],[7.445,15.598],[7.846,15.538],[8.017,15.54],[8.095,15.581],[8.115,15.585],[8.134,15.586],[8.316,15.582],[8.376,15.587],[8.559,15.65],[8.969,15.871],[9.321,16],[10.955,17.027],[11.249,17.112],[11.658,17.382],[11.997,17.5],[12,14.609],[11.998,14.606],[11.981,14.604],[11.952,14.59],[11.925,14.573],[11.915,14.564],[11.91,14.552],[11.907,14.539],[11.904,14.516],[11.906,14.502],[11.912,14.487],[11.917,14.476],[11.924,14.467],[11.936,14.461],[11.976,14.447],[11.982,14.44],[11.975,14.43],[11.908,14.384],[11.895,14.378],[11.881,14.376],[11.798,14.38],[11.788,14.378],[11.775,14.372],[11.524,14.213],[11.342,14.157],[11.329,14.155],[11.321,14.155],[11.309,14.161],[11.269,14.183],[11.255,14.187],[11.242,14.186],[11.221,14.172],[10.815,13.807],[10.81,13.799],[10.81,13.79],[10.811,13.77],[10.811,13.744],[10.81,13.732],[10.808,13.724],[10.804,13.716],[10.796,13.706],[10.623,13.53],[10.616,13.506],[10.613,13.489],[10.645,13.375],[10.648,13.37],[10.648,13.369]]]}},{"type":"Feature","id":"NE-8","properties":{"id":"NE-8","countryCode":"NE","isoSubdivision":"NE-8","name":"Niamey","name_en":"Niamey","name_ko":"니아메","type":"Capital District","labelLongitude":2.122,"labelLatitude":13.562,"minZoom":6.6},"geometry":{"type":"Polygon","coordinates":[[[2.072,13.627],[2.12,13.616],[2.173,13.618],[2.22,13.622],[2.228,13.618],[2.227,13.588],[2.236,13.577],[2.26,13.582],[2.276,13.574],[2.278,13.547],[2.276,13.517],[2.268,13.476],[2.255,13.433],[2.236,13.394],[2.22,13.382],[2.198,13.366],[2.191,13.382],[2.185,13.4],[2.179,13.413],[2.148,13.41],[2.116,13.414],[2.079,13.419],[2.045,13.431],[2.015,13.46],[1.992,13.492],[1.974,13.529],[1.972,13.565],[1.976,13.587],[1.997,13.613],[2.033,13.627],[2.072,13.627]]]}}]}
