{"type":"FeatureCollection","features":[{"type":"Feature","id":"NF-X01~","properties":{"id":"NF-X01~","countryCode":"NF","isoSubdivision":"NF-X01~","name":"Norfolk Island","name_en":"Norfolk Island","name_ko":"노퍽 아일랜드","type":"Principal subdivision","labelLongitude":167.954,"labelLatitude":-29.033,"minZoom":9},"geometry":{"type":"Polygon","coordinates":[[[167.984,-29.018],[167.996,-29.026],[167.995,-29.043],[167.985,-29.059],[167.973,-29.066],[167.97,-29.069],[167.968,-29.072],[167.966,-29.076],[167.967,-29.08],[167.961,-29.066],[167.95,-29.057],[167.94,-29.056],[167.933,-29.066],[167.926,-29.066],[167.924,-29.056],[167.92,-29.046],[167.918,-29.036],[167.922,-29.029],[167.93,-29.019],[167.931,-29.012],[167.925,-29.009],[167.912,-29.012],[167.927,-28.997],[167.946,-29.001],[167.966,-29.012],[167.984,-29.018]]]}}]}
