{"type":"FeatureCollection","features":[{"type":"Feature","id":"NI-AN","properties":{"id":"NI-AN","countryCode":"NI","isoSubdivision":"NI-AN","name":"North Caribbean Coast","name_en":"North Caribbean Coast","name_ko":"북아틀란티코 자치구","type":"Autonomous Region","labelLongitude":-84.15,"labelLatitude":13.997,"minZoom":7.7},"geometry":{"type":"MultiPolygon","coordinates":[[[[-85.048,14.606],[-85.042,14.613],[-85.02,14.634],[-85.049,14.653],[-85.054,14.663],[-85.038,14.667],[-85.033,14.67],[-85.03,14.676],[-85.025,14.713],[-85.016,14.728],[-85.002,14.741],[-85,14.742],[-84.984,14.752],[-84.966,14.765],[-84.921,14.808],[-84.904,14.817],[-84.844,14.828],[-84.818,14.829],[-84.792,14.821],[-84.77,14.805],[-84.755,14.781],[-84.759,14.779],[-84.766,14.769],[-84.767,14.767],[-84.747,14.764],[-84.744,14.752],[-84.745,14.739],[-84.725,14.726],[-84.714,14.709],[-84.699,14.675],[-84.681,14.685],[-84.662,14.683],[-84.623,14.667],[-84.6,14.663],[-84.527,14.66],[-84.531,14.653],[-84.534,14.634],[-84.519,14.638],[-84.508,14.633],[-84.498,14.624],[-84.483,14.619],[-84.472,14.623],[-84.446,14.637],[-84.408,14.649],[-84.39,14.671],[-84.376,14.697],[-84.363,14.716],[-84.353,14.706],[-84.346,14.68],[-84.338,14.675],[-84.323,14.673],[-84.299,14.668],[-84.288,14.667],[-84.267,14.678],[-84.262,14.7],[-84.267,14.747],[-84.262,14.759],[-84.249,14.759],[-84.235,14.755],[-84.226,14.75],[-84.219,14.743],[-84.195,14.719],[-84.183,14.714],[-84.168,14.715],[-84.144,14.722],[-84.138,14.725],[-84.134,14.73],[-84.129,14.734],[-84.12,14.736],[-84.111,14.735],[-84.107,14.732],[-84.102,14.732],[-84.095,14.736],[-84.095,14.744],[-84.104,14.752],[-84.111,14.761],[-84.123,14.785],[-84.112,14.793],[-84.104,14.794],[-84.082,14.78],[-84.079,14.775],[-84.075,14.772],[-84.065,14.77],[-84.048,14.771],[-84.043,14.768],[-84.041,14.76],[-84.024,14.758],[-83.925,14.763],[-83.93,14.772],[-83.93,14.781],[-83.925,14.804],[-83.913,14.797],[-83.897,14.78],[-83.884,14.777],[-83.885,14.781],[-83.89,14.791],[-83.883,14.788],[-83.879,14.787],[-83.875,14.784],[-83.869,14.777],[-83.857,14.788],[-83.84,14.797],[-83.82,14.804],[-83.801,14.804],[-83.809,14.809],[-83.814,14.814],[-83.821,14.825],[-83.765,14.829],[-83.745,14.837],[-83.747,14.852],[-83.734,14.853],[-83.724,14.852],[-83.716,14.847],[-83.712,14.839],[-83.705,14.839],[-83.714,14.867],[-83.711,14.878],[-83.692,14.887],[-83.672,14.89],[-83.65,14.888],[-83.632,14.883],[-83.623,14.873],[-83.616,14.873],[-83.611,14.885],[-83.609,14.898],[-83.604,14.909],[-83.58,14.918],[-83.555,14.937],[-83.54,14.942],[-83.542,14.945],[-83.545,14.952],[-83.547,14.955],[-83.532,14.951],[-83.527,14.948],[-83.53,14.962],[-83.529,14.973],[-83.523,14.978],[-83.513,14.969],[-83.513,14.984],[-83.511,14.99],[-83.506,14.997],[-83.512,15.007],[-83.509,15.012],[-83.499,15.013],[-83.486,15.01],[-83.481,15.006],[-83.468,14.987],[-83.459,14.982],[-83.436,14.985],[-83.415,14.997],[-83.4,15.014],[-83.39,15.031],[-83.378,15.021],[-83.365,15.016],[-83.355,15.01],[-83.349,14.997],[-83.334,15.006],[-83.317,15.008],[-83.273,15.003],[-83.285,14.997],[-83.286,14.992],[-83.278,14.987],[-83.266,14.982],[-83.262,14.983],[-83.218,14.982],[-83.191,14.994],[-83.177,14.997],[-83.144,14.995],[-83.13,14.997],[-83.138,14.987],[-83.156,14.978],[-83.165,14.969],[-83.18,14.986],[-83.192,14.974],[-83.201,14.953],[-83.209,14.942],[-83.222,14.936],[-83.234,14.921],[-83.243,14.904],[-83.246,14.891],[-83.249,14.886],[-83.262,14.874],[-83.267,14.867],[-83.27,14.857],[-83.271,14.836],[-83.274,14.826],[-83.282,14.813],[-83.294,14.804],[-83.328,14.791],[-83.326,14.797],[-83.323,14.802],[-83.315,14.811],[-83.315,14.804],[-83.311,14.81],[-83.309,14.814],[-83.309,14.819],[-83.309,14.826],[-83.316,14.821],[-83.319,14.82],[-83.328,14.826],[-83.328,14.832],[-83.316,14.837],[-83.305,14.839],[-83.295,14.835],[-83.287,14.826],[-83.288,14.845],[-83.299,14.87],[-83.302,14.891],[-83.308,14.911],[-83.322,14.914],[-83.338,14.908],[-83.35,14.901],[-83.37,14.883],[-83.414,14.828],[-83.425,14.804],[-83.415,14.814],[-83.412,14.818],[-83.398,14.808],[-83.387,14.767],[-83.38,14.757],[-83.367,14.75],[-83.353,14.736],[-83.338,14.731],[-83.322,14.75],[-83.329,14.756],[-83.348,14.767],[-83.356,14.77],[-83.345,14.777],[-83.333,14.773],[-83.323,14.763],[-83.315,14.75],[-83.315,14.773],[-83.308,14.78],[-83.299,14.771],[-83.26,14.596],[-83.258,14.59],[-83.249,14.572],[-83.24,14.524],[-83.192,14.387],[-83.187,14.348],[-83.191,14.313],[-83.219,14.25],[-83.302,14.12],[-83.338,14.078],[-83.343,14.061],[-83.35,14.049],[-83.397,14.016],[-83.417,13.989],[-83.431,13.957],[-83.455,13.864],[-83.494,13.738],[-83.517,13.624],[-83.516,13.575],[-83.52,13.551],[-83.52,13.532],[-83.541,13.482],[-83.559,13.416],[-83.57,13.287],[-83.568,13.263],[-83.561,13.249],[-83.569,13.243],[-83.563,13.231],[-83.53,13.033],[-83.548,13.03],[-83.598,13.033],[-83.639,13.032],[-83.657,13.037],[-83.756,13.094],[-83.831,13.147],[-83.835,13.151],[-83.838,13.156],[-83.839,13.161],[-83.838,13.167],[-83.836,13.172],[-83.833,13.178],[-83.814,13.201],[-83.81,13.207],[-83.808,13.213],[-83.807,13.218],[-83.811,13.223],[-83.819,13.227],[-83.836,13.231],[-83.846,13.235],[-83.854,13.24],[-83.864,13.244],[-83.884,13.247],[-83.965,13.25],[-83.98,13.252],[-83.984,13.254],[-83.994,13.256],[-83.989,13.244],[-83.988,13.234],[-83.991,13.23],[-84,13.236],[-84.007,13.236],[-84.016,13.231],[-84.021,13.231],[-84.028,13.236],[-84.036,13.215],[-84.048,13.212],[-84.063,13.218],[-84.082,13.221],[-84.077,13.216],[-84.072,13.206],[-84.069,13.201],[-84.084,13.204],[-84.109,13.197],[-84.117,13.201],[-84.124,13.203],[-84.129,13.209],[-84.133,13.216],[-84.153,13.275],[-84.155,13.28],[-84.163,13.282],[-84.177,13.281],[-84.237,13.264],[-84.247,13.264],[-84.258,13.267],[-84.265,13.272],[-84.272,13.275],[-84.277,13.276],[-84.284,13.277],[-84.291,13.276],[-84.298,13.274],[-84.309,13.267],[-84.321,13.254],[-84.334,13.25],[-84.353,13.247],[-84.493,13.247],[-84.751,13.216],[-84.77,13.243],[-84.87,13.367],[-84.876,13.377],[-84.879,13.38],[-84.883,13.382],[-84.974,13.299],[-84.983,13.295],[-84.998,13.294],[-85.065,13.295],[-85.098,13.292],[-85.123,13.277],[-85.136,13.259],[-85.144,13.241],[-85.156,13.207],[-85.169,13.181],[-85.177,13.172],[-85.187,13.164],[-85.216,13.151],[-85.242,13.145],[-85.252,13.147],[-85.283,13.159],[-85.29,13.169],[-85.302,13.171],[-85.304,13.172],[-85.305,13.181],[-85.307,13.185],[-85.311,13.187],[-85.325,13.194],[-85.332,13.199],[-85.336,13.2],[-85.34,13.2],[-85.345,13.199],[-85.351,13.198],[-85.354,13.198],[-85.357,13.198],[-85.36,13.2],[-85.362,13.201],[-85.391,13.227],[-85.396,13.231],[-85.401,13.234],[-85.415,13.239],[-85.434,13.258],[-85.485,13.325],[-85.506,13.371],[-85.506,13.406],[-85.5,13.419],[-85.469,13.446],[-85.415,13.48],[-85.404,13.489],[-85.401,13.497],[-85.399,13.506],[-85.4,13.511],[-85.399,13.529],[-85.389,13.561],[-85.39,13.57],[-85.395,13.583],[-85.402,13.595],[-85.41,13.612],[-85.411,13.621],[-85.409,13.627],[-85.399,13.633],[-85.392,13.641],[-85.384,13.653],[-85.375,13.677],[-85.37,13.686],[-85.365,13.692],[-85.285,13.703],[-85.283,13.703],[-85.161,13.777],[-85.157,13.779],[-85.061,13.736],[-85.057,13.738],[-85.052,13.743],[-84.925,13.941],[-84.864,14.04],[-84.855,14.06],[-84.853,14.071],[-84.862,14.108],[-84.859,14.154],[-84.837,14.269],[-84.835,14.293],[-84.838,14.307],[-84.927,14.312],[-84.935,14.314],[-84.94,14.317],[-84.954,14.334],[-84.971,14.35],[-84.99,14.373],[-84.992,14.381],[-84.993,14.387],[-84.991,14.394],[-84.983,14.408],[-84.982,14.413],[-84.983,14.434],[-84.982,14.441],[-84.97,14.459],[-84.969,14.469],[-84.97,14.477],[-84.974,14.483],[-84.978,14.487],[-84.993,14.495],[-85.006,14.505],[-85.008,14.508],[-85.009,14.511],[-85.008,14.52],[-85.009,14.529],[-85.008,14.535],[-85.006,14.545],[-85.006,14.549],[-85.006,14.555],[-85.004,14.561],[-84.999,14.576],[-84.999,14.582],[-85.001,14.589],[-85.003,14.593],[-85.006,14.596],[-85.009,14.599],[-85.012,14.6],[-85.019,14.602],[-85.024,14.603],[-85.022,14.606],[-85.048,14.606]]],[[[-82.767,14.414],[-82.751,14.422],[-82.738,14.422],[-82.729,14.414],[-82.726,14.397],[-82.733,14.37],[-82.751,14.361],[-82.804,14.366],[-82.808,14.366],[-82.804,14.366],[-82.802,14.367],[-82.8,14.369],[-82.801,14.373],[-82.785,14.382],[-82.778,14.393],[-82.775,14.405],[-82.767,14.414]]]]}},{"type":"Feature","id":"NI-AS","properties":{"id":"NI-AS","countryCode":"NI","isoSubdivision":"NI-AS","name":"South Caribbean Coast","name_en":"South Caribbean Coast","name_ko":"남아틀란티코 자치구","type":"Autonomous Region","labelLongitude":-84.215,"labelLatitude":12.227,"minZoom":7.7},"geometry":{"type":"MultiPolygon","coordinates":[[[[-83.53,13.033],[-83.508,12.903],[-83.541,12.639],[-83.541,12.581],[-83.538,12.571],[-83.524,12.542],[-83.514,12.51],[-83.486,12.472],[-83.479,12.447],[-83.482,12.417],[-83.492,12.4],[-83.513,12.394],[-83.545,12.393],[-83.569,12.388],[-83.594,12.379],[-83.618,12.375],[-83.638,12.386],[-83.63,12.393],[-83.609,12.407],[-83.603,12.414],[-83.603,12.425],[-83.606,12.441],[-83.613,12.455],[-83.635,12.474],[-83.633,12.54],[-83.638,12.565],[-83.634,12.566],[-83.633,12.567],[-83.632,12.567],[-83.63,12.571],[-83.624,12.571],[-83.588,12.56],[-83.564,12.591],[-83.555,12.636],[-83.569,12.666],[-83.569,12.674],[-83.56,12.683],[-83.557,12.697],[-83.555,12.753],[-83.553,12.755],[-83.549,12.758],[-83.544,12.763],[-83.541,12.77],[-83.545,12.797],[-83.564,12.813],[-83.591,12.819],[-83.616,12.817],[-83.637,12.805],[-83.646,12.787],[-83.645,12.767],[-83.638,12.749],[-83.616,12.737],[-83.613,12.735],[-83.613,12.732],[-83.612,12.715],[-83.61,12.708],[-83.606,12.701],[-83.601,12.698],[-83.597,12.694],[-83.596,12.684],[-83.596,12.667],[-83.599,12.66],[-83.603,12.653],[-83.599,12.648],[-83.589,12.632],[-83.62,12.614],[-83.674,12.57],[-83.706,12.557],[-83.749,12.553],[-83.767,12.547],[-83.775,12.534],[-83.775,12.481],[-83.773,12.48],[-83.769,12.482],[-83.761,12.482],[-83.749,12.479],[-83.741,12.48],[-83.734,12.478],[-83.726,12.468],[-83.719,12.424],[-83.723,12.402],[-83.73,12.382],[-83.734,12.363],[-83.726,12.345],[-83.708,12.336],[-83.676,12.342],[-83.671,12.327],[-83.672,12.317],[-83.677,12.298],[-83.678,12.286],[-83.676,12.28],[-83.672,12.289],[-83.656,12.34],[-83.65,12.353],[-83.641,12.358],[-83.621,12.356],[-83.617,12.348],[-83.664,12.256],[-83.686,12.137],[-83.679,12.009],[-83.671,11.988],[-83.678,11.984],[-83.685,11.981],[-83.681,12.002],[-83.688,12.019],[-83.713,12.049],[-83.724,12.075],[-83.715,12.085],[-83.701,12.095],[-83.693,12.118],[-83.698,12.135],[-83.711,12.155],[-83.729,12.172],[-83.747,12.18],[-83.778,12.177],[-83.776,12.162],[-83.76,12.153],[-83.747,12.167],[-83.74,12.167],[-83.723,12.149],[-83.716,12.139],[-83.713,12.126],[-83.717,12.109],[-83.732,12.087],[-83.734,12.071],[-83.739,12.052],[-83.757,12.051],[-83.799,12.064],[-83.804,12.06],[-83.792,12.053],[-83.767,12.043],[-83.761,12.035],[-83.757,12.025],[-83.755,12.012],[-83.754,11.999],[-83.756,11.99],[-83.765,11.972],[-83.767,11.964],[-83.766,11.959],[-83.762,11.953],[-83.76,11.947],[-83.761,11.94],[-83.766,11.934],[-83.772,11.931],[-83.777,11.929],[-83.781,11.926],[-83.799,11.903],[-83.805,11.899],[-83.814,11.896],[-83.823,11.889],[-83.832,11.88],[-83.836,11.871],[-83.823,11.863],[-83.807,11.848],[-83.793,11.833],[-83.785,11.814],[-83.777,11.808],[-83.768,11.805],[-83.758,11.804],[-83.743,11.805],[-83.742,11.81],[-83.746,11.816],[-83.747,11.824],[-83.741,11.843],[-83.735,11.854],[-83.726,11.858],[-83.71,11.858],[-83.7,11.85],[-83.654,11.667],[-83.651,11.632],[-83.652,11.619],[-83.653,11.612],[-83.657,11.605],[-83.665,11.598],[-83.667,11.601],[-83.681,11.598],[-83.695,11.594],[-83.696,11.591],[-83.704,11.588],[-83.714,11.573],[-83.723,11.57],[-83.735,11.57],[-83.745,11.569],[-83.753,11.565],[-83.761,11.557],[-83.771,11.526],[-83.781,11.479],[-83.794,11.444],[-83.816,11.447],[-83.822,11.447],[-83.854,11.407],[-83.863,11.392],[-83.868,11.375],[-83.868,11.274],[-83.837,11.143],[-83.816,11.09],[-83.786,11.045],[-83.776,11.02],[-83.752,10.982],[-83.744,10.974],[-83.725,10.963],[-83.718,10.944],[-83.736,10.957],[-83.761,10.985],[-83.776,11.008],[-83.794,11.032],[-83.798,11.035],[-83.8,11.037],[-83.807,11.039],[-83.847,11.047],[-83.858,11.047],[-83.865,11.047],[-83.868,11.046],[-83.87,11.045],[-83.872,11.044],[-83.875,11.044],[-83.878,11.046],[-83.883,11.051],[-83.884,11.055],[-83.885,11.059],[-83.885,11.065],[-83.886,11.068],[-83.887,11.071],[-83.888,11.073],[-83.892,11.076],[-83.894,11.08],[-83.896,11.082],[-83.897,11.088],[-83.897,11.091],[-83.895,11.11],[-83.896,11.113],[-83.897,11.115],[-83.9,11.115],[-83.914,11.109],[-83.919,11.107],[-83.929,11.106],[-83.937,11.103],[-83.939,11.102],[-83.941,11.101],[-83.944,11.1],[-83.946,11.098],[-83.95,11.098],[-83.954,11.099],[-83.964,11.102],[-83.97,11.103],[-83.977,11.102],[-83.981,11.101],[-83.986,11.098],[-83.988,11.097],[-83.992,11.094],[-83.995,11.093],[-84.001,11.092],[-84.01,11.087],[-84.014,11.088],[-84.019,11.091],[-84.029,11.099],[-84.04,11.11],[-84.041,11.112],[-84.042,11.115],[-84.041,11.117],[-84.041,11.123],[-84.044,11.125],[-84.05,11.125],[-84.082,11.121],[-84.094,11.126],[-84.111,11.132],[-84.117,11.134],[-84.12,11.134],[-84.126,11.134],[-84.137,11.132],[-84.139,11.132],[-84.142,11.133],[-84.149,11.136],[-84.155,11.137],[-84.158,11.138],[-84.164,11.142],[-84.168,11.144],[-84.171,11.145],[-84.174,11.144],[-84.179,11.147],[-84.184,11.153],[-84.204,11.186],[-84.213,11.197],[-84.241,11.225],[-84.281,11.253],[-84.328,11.277],[-84.337,11.283],[-84.346,11.293],[-84.353,11.308],[-84.355,11.321],[-84.356,11.333],[-84.362,11.347],[-84.377,11.362],[-84.457,11.411],[-84.486,11.428],[-84.553,11.452],[-84.556,11.491],[-84.564,11.53],[-84.563,11.543],[-84.561,11.562],[-84.546,11.61],[-84.537,11.633],[-84.535,11.644],[-84.534,11.652],[-84.544,11.684],[-84.555,11.709],[-84.556,11.735],[-84.555,11.747],[-84.558,11.753],[-84.564,11.76],[-84.572,11.767],[-84.587,11.794],[-84.607,11.863],[-84.613,11.879],[-84.62,11.892],[-84.621,11.895],[-84.622,11.9],[-84.614,11.907],[-84.575,11.923],[-84.702,11.983],[-84.709,11.993],[-84.773,12.15],[-84.786,12.21],[-84.787,12.243],[-84.781,12.265],[-84.784,12.28],[-84.82,12.342],[-84.826,12.348],[-84.833,12.354],[-84.84,12.361],[-84.847,12.374],[-84.852,12.39],[-84.856,12.422],[-84.855,12.439],[-84.852,12.451],[-84.847,12.465],[-84.845,12.471],[-84.847,12.478],[-84.854,12.488],[-84.867,12.501],[-84.888,12.532],[-84.91,12.579],[-84.916,12.589],[-84.944,12.615],[-84.969,12.65],[-84.974,12.655],[-84.985,12.66],[-84.986,12.664],[-84.987,12.668],[-84.984,12.684],[-84.985,12.702],[-84.99,12.715],[-84.998,12.731],[-85.004,12.738],[-85.01,12.743],[-85.019,12.748],[-85.027,12.76],[-85.032,12.762],[-85.061,12.784],[-85.08,12.794],[-85.099,12.793],[-85.118,12.776],[-85.123,12.764],[-85.126,12.736],[-85.131,12.722],[-85.134,12.722],[-85.142,12.717],[-85.149,12.711],[-85.149,12.708],[-85.152,12.706],[-85.166,12.694],[-85.155,12.678],[-85.154,12.663],[-85.162,12.655],[-85.179,12.66],[-85.205,12.715],[-85.213,12.748],[-85.217,12.76],[-85.227,12.779],[-85.228,12.788],[-85.226,12.798],[-85.222,12.806],[-85.216,12.812],[-85.207,12.817],[-85.192,12.818],[-85.181,12.816],[-85.169,12.816],[-85.159,12.819],[-85.148,12.829],[-85.145,12.839],[-85.145,12.855],[-85.141,12.859],[-85.131,12.861],[-85.123,12.859],[-85.105,12.854],[-85.094,12.853],[-85.082,12.853],[-85.068,12.856],[-85.041,12.864],[-85.031,12.865],[-84.971,12.855],[-84.958,12.851],[-84.954,12.855],[-84.942,12.863],[-84.936,12.869],[-84.926,12.884],[-84.919,12.9],[-84.898,12.897],[-84.876,12.912],[-84.855,12.932],[-84.84,12.941],[-84.828,12.943],[-84.809,12.948],[-84.796,12.948],[-84.783,12.945],[-84.777,12.941],[-84.772,12.94],[-84.761,12.948],[-84.755,12.95],[-84.751,12.949],[-84.748,12.95],[-84.746,12.965],[-84.742,12.975],[-84.741,12.979],[-84.74,12.993],[-84.734,13.026],[-84.729,13.035],[-84.708,13.058],[-84.701,13.063],[-84.697,13.066],[-84.696,13.066],[-84.699,13.067],[-84.702,13.067],[-84.705,13.066],[-84.707,13.065],[-84.718,13.058],[-84.721,13.058],[-84.724,13.057],[-84.727,13.057],[-84.73,13.058],[-84.733,13.059],[-84.735,13.06],[-84.737,13.061],[-84.741,13.065],[-84.744,13.069],[-84.758,13.098],[-84.764,13.118],[-84.765,13.12],[-84.773,13.13],[-84.777,13.133],[-84.779,13.134],[-84.782,13.135],[-84.785,13.136],[-84.787,13.137],[-84.789,13.138],[-84.797,13.145],[-84.799,13.146],[-84.801,13.147],[-84.798,13.154],[-84.795,13.159],[-84.751,13.216],[-84.493,13.247],[-84.353,13.247],[-84.334,13.25],[-84.321,13.254],[-84.309,13.267],[-84.298,13.274],[-84.291,13.276],[-84.284,13.277],[-84.277,13.276],[-84.272,13.275],[-84.265,13.272],[-84.258,13.267],[-84.247,13.264],[-84.237,13.264],[-84.177,13.281],[-84.163,13.282],[-84.155,13.28],[-84.153,13.275],[-84.133,13.216],[-84.129,13.209],[-84.124,13.203],[-84.117,13.201],[-84.109,13.197],[-84.084,13.204],[-84.069,13.201],[-84.072,13.206],[-84.077,13.216],[-84.082,13.221],[-84.063,13.218],[-84.048,13.212],[-84.036,13.215],[-84.028,13.236],[-84.021,13.231],[-84.016,13.231],[-84.007,13.236],[-84,13.236],[-83.991,13.23],[-83.988,13.234],[-83.989,13.244],[-83.994,13.256],[-83.984,13.254],[-83.98,13.252],[-83.965,13.25],[-83.884,13.247],[-83.864,13.244],[-83.854,13.24],[-83.846,13.235],[-83.836,13.231],[-83.819,13.227],[-83.811,13.223],[-83.807,13.218],[-83.808,13.213],[-83.81,13.207],[-83.814,13.201],[-83.833,13.178],[-83.836,13.172],[-83.838,13.167],[-83.839,13.161],[-83.838,13.156],[-83.835,13.151],[-83.831,13.147],[-83.756,13.094],[-83.657,13.037],[-83.639,13.032],[-83.598,13.033],[-83.548,13.03],[-83.53,13.033]]],[[[-83.726,11.879],[-83.734,11.906],[-83.736,11.942],[-83.729,11.973],[-83.708,11.987],[-83.707,11.987],[-83.706,11.986],[-83.705,11.984],[-83.706,11.981],[-83.712,11.971],[-83.719,11.955],[-83.725,11.936],[-83.726,11.92],[-83.72,11.884],[-83.72,11.87],[-83.726,11.879]]],[[[-83.054,12.144],[-83.056,12.166],[-83.046,12.184],[-83.033,12.191],[-83.021,12.182],[-83.025,12.175],[-83.054,12.144]]]]}},{"type":"Feature","id":"NI-BO","properties":{"id":"NI-BO","countryCode":"NI","isoSubdivision":"NI-BO","name":"Boaco","name_en":"Boaco","name_ko":"보아코","type":"Department","labelLongitude":-85.473,"labelLatitude":12.524,"minZoom":7.7},"geometry":{"type":"Polygon","coordinates":[[[-85.408,12.743],[-85.402,12.742],[-85.393,12.739],[-85.383,12.731],[-85.374,12.721],[-85.371,12.712],[-85.364,12.708],[-85.331,12.697],[-85.312,12.687],[-85.296,12.686],[-85.289,12.681],[-85.29,12.678],[-85.296,12.653],[-85.289,12.653],[-85.272,12.664],[-85.261,12.662],[-85.229,12.628],[-85.223,12.626],[-85.22,12.636],[-85.216,12.639],[-85.207,12.636],[-85.198,12.63],[-85.193,12.625],[-85.186,12.625],[-85.182,12.632],[-85.179,12.64],[-85.178,12.649],[-85.179,12.66],[-85.162,12.655],[-85.154,12.663],[-85.155,12.678],[-85.166,12.694],[-85.152,12.706],[-85.149,12.708],[-85.149,12.711],[-85.142,12.717],[-85.134,12.722],[-85.131,12.722],[-85.126,12.736],[-85.123,12.764],[-85.118,12.776],[-85.099,12.793],[-85.08,12.794],[-85.061,12.784],[-85.032,12.762],[-85.027,12.76],[-85.019,12.748],[-85.01,12.743],[-85.004,12.738],[-84.998,12.731],[-84.99,12.715],[-84.985,12.702],[-84.984,12.684],[-84.987,12.668],[-84.986,12.664],[-84.985,12.66],[-84.974,12.655],[-84.969,12.65],[-84.981,12.624],[-85.019,12.57],[-85.023,12.562],[-85.026,12.554],[-85.027,12.542],[-85.028,12.506],[-85.03,12.495],[-85.036,12.483],[-85.052,12.463],[-85.063,12.452],[-85.078,12.441],[-85.107,12.427],[-85.122,12.424],[-85.128,12.424],[-85.138,12.425],[-85.149,12.423],[-85.164,12.417],[-85.222,12.377],[-85.234,12.371],[-85.275,12.357],[-85.329,12.351],[-85.401,12.339],[-85.444,12.341],[-85.473,12.341],[-85.498,12.345],[-85.509,12.346],[-85.523,12.341],[-85.561,12.323],[-85.586,12.305],[-85.591,12.3],[-85.599,12.289],[-85.601,12.284],[-85.602,12.278],[-85.602,12.254],[-85.6,12.236],[-85.6,12.229],[-85.602,12.222],[-85.622,12.177],[-85.623,12.175],[-85.624,12.173],[-85.626,12.171],[-85.635,12.157],[-85.64,12.147],[-85.657,12.046],[-85.731,12.041],[-85.785,12.115],[-85.812,12.138],[-85.828,12.144],[-85.837,12.15],[-85.842,12.157],[-85.844,12.164],[-85.845,12.179],[-85.851,12.199],[-85.846,12.226],[-85.83,12.251],[-85.828,12.257],[-85.83,12.26],[-85.918,12.341],[-85.921,12.346],[-85.923,12.354],[-85.922,12.37],[-85.92,12.39],[-85.921,12.396],[-85.925,12.402],[-85.95,12.429],[-85.963,12.445],[-85.97,12.457],[-85.974,12.471],[-85.978,12.505],[-85.972,12.522],[-85.943,12.549],[-85.937,12.553],[-85.89,12.579],[-85.872,12.615],[-85.856,12.623],[-85.682,12.659],[-85.669,12.655],[-85.653,12.652],[-85.647,12.649],[-85.644,12.649],[-85.64,12.651],[-85.628,12.661],[-85.616,12.663],[-85.596,12.667],[-85.587,12.671],[-85.582,12.672],[-85.563,12.672],[-85.557,12.673],[-85.553,12.675],[-85.55,12.679],[-85.537,12.704],[-85.535,12.706],[-85.533,12.708],[-85.531,12.709],[-85.528,12.709],[-85.464,12.706],[-85.453,12.707],[-85.448,12.709],[-85.447,12.711],[-85.445,12.713],[-85.442,12.714],[-85.435,12.717],[-85.43,12.719],[-85.426,12.722],[-85.424,12.723],[-85.421,12.727],[-85.418,12.732],[-85.417,12.736],[-85.415,12.738],[-85.408,12.743]]]}},{"type":"Feature","id":"NI-CA","properties":{"id":"NI-CA","countryCode":"NI","isoSubdivision":"NI-CA","name":"Carazo","name_en":"Carazo","name_ko":"카라소","type":"Department","labelLongitude":-86.287,"labelLatitude":11.769,"minZoom":7.7},"geometry":{"type":"Polygon","coordinates":[[[-86.175,11.519],[-86.176,11.522],[-86.207,11.536],[-86.244,11.572],[-86.336,11.611],[-86.352,11.623],[-86.365,11.638],[-86.377,11.669],[-86.496,11.759],[-86.502,11.767],[-86.477,11.791],[-86.467,11.797],[-86.459,11.797],[-86.453,11.798],[-86.442,11.801],[-86.436,11.803],[-86.432,11.805],[-86.42,11.816],[-86.41,11.831],[-86.382,11.851],[-86.375,11.858],[-86.356,11.889],[-86.293,11.939],[-86.281,11.957],[-86.271,11.944],[-86.179,11.908],[-86.15,11.894],[-86.137,11.876],[-86.134,11.874],[-86.081,11.859],[-86.072,11.856],[-86.077,11.846],[-86.098,11.809],[-86.103,11.784],[-86.1,11.759],[-86.096,11.742],[-86.096,11.731],[-86.098,11.722],[-86.11,11.706],[-86.119,11.687],[-86.123,11.656],[-86.122,11.642],[-86.119,11.633],[-86.102,11.611],[-86.137,11.588],[-86.14,11.584],[-86.146,11.572],[-86.175,11.52],[-86.175,11.519]]]}},{"type":"Feature","id":"NI-CI","properties":{"id":"NI-CI","countryCode":"NI","isoSubdivision":"NI-CI","name":"Chinandega","name_en":"Chinandega","name_ko":"치난데가","type":"Department","labelLongitude":-87.17,"labelLatitude":12.748,"minZoom":7.7},"geometry":{"type":"Polygon","coordinates":[[[-86.749,13.261],[-86.74,13.264],[-86.733,13.268],[-86.732,13.267],[-86.713,13.263],[-86.707,13.259],[-86.704,13.25],[-86.703,13.243],[-86.703,13.237],[-86.705,13.231],[-86.706,13.229],[-86.715,13.2],[-86.725,13.191],[-86.726,13.19],[-86.729,13.181],[-86.732,13.15],[-86.721,13.09],[-86.711,13.056],[-86.69,13.009],[-86.676,12.987],[-86.664,12.959],[-86.655,12.838],[-86.658,12.807],[-86.67,12.779],[-86.688,12.768],[-86.696,12.765],[-86.71,12.761],[-86.782,12.752],[-86.793,12.746],[-86.8,12.739],[-86.814,12.713],[-86.833,12.69],[-86.853,12.682],[-86.877,12.656],[-86.903,12.629],[-86.922,12.611],[-86.926,12.604],[-86.934,12.584],[-86.954,12.552],[-87.006,12.5],[-87.015,12.494],[-87.032,12.484],[-87.049,12.477],[-87.099,12.471],[-87.121,12.458],[-87.123,12.46],[-87.135,12.47],[-87.149,12.475],[-87.158,12.481],[-87.18,12.523],[-87.187,12.523],[-87.176,12.486],[-87.193,12.5],[-87.219,12.532],[-87.238,12.55],[-87.25,12.555],[-87.313,12.603],[-87.321,12.611],[-87.326,12.622],[-87.331,12.639],[-87.334,12.634],[-87.342,12.624],[-87.345,12.619],[-87.455,12.744],[-87.468,12.77],[-87.463,12.765],[-87.459,12.762],[-87.447,12.756],[-87.447,12.763],[-87.452,12.764],[-87.461,12.77],[-87.461,12.776],[-87.463,12.786],[-87.48,12.8],[-87.503,12.812],[-87.523,12.817],[-87.523,12.811],[-87.496,12.794],[-87.483,12.781],[-87.482,12.77],[-87.492,12.771],[-87.507,12.782],[-87.529,12.803],[-87.647,12.872],[-87.671,12.894],[-87.686,12.918],[-87.686,12.948],[-87.667,12.982],[-87.639,13.006],[-87.61,13.024],[-87.589,13.046],[-87.584,13.085],[-87.578,13.085],[-87.58,13.063],[-87.584,13.057],[-87.573,13.057],[-87.559,13.056],[-87.548,13.052],[-87.543,13.047],[-87.538,13.045],[-87.513,13.023],[-87.506,13.02],[-87.488,12.996],[-87.484,12.993],[-87.471,12.985],[-87.468,12.982],[-87.467,12.976],[-87.469,12.961],[-87.468,12.954],[-87.435,12.922],[-87.392,12.913],[-87.29,12.92],[-87.29,12.927],[-87.342,12.926],[-87.368,12.929],[-87.379,12.938],[-87.369,12.954],[-87.321,12.977],[-87.314,12.982],[-87.085,12.996],[-87.07,12.994],[-87.047,12.981],[-87.035,12.98],[-87.03,12.996],[-87.009,13.006],[-86.983,13.022],[-86.972,13.034],[-86.948,13.07],[-86.943,13.074],[-86.928,13.081],[-86.923,13.086],[-86.92,13.096],[-86.924,13.1],[-86.93,13.102],[-86.932,13.109],[-86.924,13.161],[-86.926,13.164],[-86.933,13.18],[-86.935,13.186],[-86.933,13.188],[-86.926,13.216],[-86.919,13.23],[-86.911,13.24],[-86.863,13.28],[-86.849,13.289],[-86.833,13.293],[-86.816,13.292],[-86.759,13.264],[-86.749,13.261]]]}},{"type":"Feature","id":"NI-CO","properties":{"id":"NI-CO","countryCode":"NI","isoSubdivision":"NI-CO","name":"Chontales","name_en":"Chontales","name_ko":"촌탈레스","type":"Department","labelLongitude":-85.116,"labelLatitude":12.029,"minZoom":7.7},"geometry":{"type":"Polygon","coordinates":[[[-85.128,12.424],[-85.122,12.424],[-85.107,12.427],[-85.078,12.441],[-85.063,12.452],[-85.052,12.463],[-85.036,12.483],[-85.03,12.495],[-85.028,12.506],[-85.027,12.542],[-85.026,12.554],[-85.023,12.562],[-85.019,12.57],[-84.981,12.624],[-84.969,12.65],[-84.944,12.615],[-84.916,12.589],[-84.91,12.579],[-84.888,12.532],[-84.867,12.501],[-84.854,12.488],[-84.847,12.478],[-84.845,12.471],[-84.847,12.465],[-84.852,12.451],[-84.855,12.439],[-84.856,12.422],[-84.852,12.39],[-84.847,12.374],[-84.84,12.361],[-84.833,12.354],[-84.826,12.348],[-84.82,12.342],[-84.784,12.28],[-84.781,12.265],[-84.787,12.243],[-84.786,12.21],[-84.773,12.15],[-84.709,11.993],[-84.702,11.983],[-84.575,11.923],[-84.614,11.907],[-84.622,11.9],[-84.621,11.895],[-84.62,11.892],[-84.613,11.879],[-84.607,11.863],[-84.646,11.864],[-84.657,11.866],[-84.662,11.868],[-84.666,11.869],[-84.669,11.869],[-84.684,11.868],[-84.688,11.868],[-84.697,11.871],[-84.701,11.87],[-84.721,11.867],[-84.795,11.868],[-84.8,11.867],[-84.805,11.866],[-84.808,11.861],[-84.874,11.801],[-84.899,11.785],[-84.942,11.776],[-84.957,11.753],[-84.96,11.747],[-84.96,11.745],[-84.961,11.741],[-84.963,11.738],[-84.967,11.734],[-84.968,11.732],[-84.969,11.729],[-84.971,11.727],[-84.978,11.72],[-84.982,11.714],[-84.986,11.709],[-84.989,11.706],[-84.995,11.703],[-85.014,11.696],[-85.019,11.695],[-85.021,11.696],[-85.026,11.698],[-85.032,11.695],[-85.041,11.69],[-85.061,11.677],[-85.077,11.669],[-85.081,11.665],[-85.083,11.662],[-85.102,11.631],[-85.523,11.681],[-85.657,12.046],[-85.64,12.147],[-85.635,12.157],[-85.626,12.171],[-85.624,12.173],[-85.623,12.175],[-85.622,12.177],[-85.602,12.222],[-85.6,12.229],[-85.6,12.236],[-85.602,12.254],[-85.602,12.278],[-85.601,12.284],[-85.599,12.289],[-85.591,12.3],[-85.586,12.305],[-85.561,12.323],[-85.523,12.341],[-85.509,12.346],[-85.498,12.345],[-85.473,12.341],[-85.444,12.341],[-85.401,12.339],[-85.329,12.351],[-85.275,12.357],[-85.234,12.371],[-85.222,12.377],[-85.164,12.417],[-85.149,12.423],[-85.138,12.425],[-85.128,12.424]]]}},{"type":"Feature","id":"NI-ES","properties":{"id":"NI-ES","countryCode":"NI","isoSubdivision":"NI-ES","name":"Estelí","name_en":"Estelí","name_ko":"에스텔리","type":"Department","labelLongitude":-86.407,"labelLatitude":13.225,"minZoom":7.7},"geometry":{"type":"Polygon","coordinates":[[[-86.1,13.047],[-86.137,12.997],[-86.144,12.971],[-86.146,12.966],[-86.151,12.96],[-86.159,12.954],[-86.172,12.95],[-86.197,12.945],[-86.209,12.941],[-86.231,12.928],[-86.239,12.921],[-86.242,12.917],[-86.258,12.884],[-86.264,12.849],[-86.386,12.883],[-86.42,12.9],[-86.43,12.917],[-86.43,12.926],[-86.429,12.937],[-86.407,12.976],[-86.405,13.007],[-86.412,13.032],[-86.417,13.04],[-86.427,13.054],[-86.453,13.097],[-86.471,13.115],[-86.479,13.118],[-86.491,13.122],[-86.547,13.11],[-86.613,13.088],[-86.633,13.084],[-86.645,13.083],[-86.665,13.092],[-86.681,13.098],[-86.694,13.098],[-86.703,13.097],[-86.721,13.09],[-86.732,13.15],[-86.729,13.181],[-86.726,13.19],[-86.725,13.191],[-86.715,13.2],[-86.631,13.283],[-86.612,13.309],[-86.604,13.326],[-86.563,13.397],[-86.523,13.43],[-86.496,13.434],[-86.486,13.431],[-86.471,13.424],[-86.428,13.404],[-86.386,13.411],[-86.309,13.435],[-86.254,13.438],[-86.235,13.432],[-86.231,13.426],[-86.221,13.404],[-86.213,13.39],[-86.221,13.375],[-86.227,13.36],[-86.23,13.343],[-86.23,13.322],[-86.221,13.279],[-86.236,13.237],[-86.233,13.225],[-86.236,13.208],[-86.248,13.189],[-86.241,13.175],[-86.234,13.165],[-86.159,13.091],[-86.115,13.066],[-86.1,13.047]]]}},{"type":"Feature","id":"NI-GR","properties":{"id":"NI-GR","countryCode":"NI","isoSubdivision":"NI-GR","name":"Granada","name_en":"Granada","name_ko":"그라나다","type":"Department","labelLongitude":-85.97,"labelLatitude":11.874,"minZoom":7.7},"geometry":{"type":"Polygon","coordinates":[[[-85.851,12.199],[-85.845,12.179],[-85.844,12.164],[-85.842,12.157],[-85.837,12.15],[-85.828,12.144],[-85.812,12.138],[-85.785,12.115],[-85.731,12.041],[-85.657,12.046],[-85.523,11.681],[-85.894,11.682],[-85.927,11.673],[-85.971,11.661],[-85.976,11.663],[-85.986,11.673],[-85.99,11.677],[-85.994,11.68],[-85.999,11.681],[-86.001,11.681],[-86.003,11.681],[-86.006,11.679],[-86.009,11.676],[-86.025,11.643],[-86.036,11.626],[-86.039,11.623],[-86.067,11.609],[-86.071,11.606],[-86.078,11.605],[-86.102,11.611],[-86.119,11.633],[-86.122,11.642],[-86.123,11.656],[-86.119,11.687],[-86.11,11.706],[-86.098,11.722],[-86.096,11.731],[-86.096,11.742],[-86.1,11.759],[-86.103,11.784],[-86.098,11.809],[-86.077,11.846],[-86.072,11.856],[-86.053,11.898],[-86.044,11.918],[-86.04,11.926],[-86.004,12.004],[-85.964,12.091],[-85.967,12.107],[-86.001,12.144],[-85.916,12.181],[-85.885,12.203],[-85.877,12.206],[-85.869,12.206],[-85.851,12.199]]]}},{"type":"Feature","id":"NI-JI","properties":{"id":"NI-JI","countryCode":"NI","isoSubdivision":"NI-JI","name":"Jinotega","name_en":"Jinotega","name_ko":"히노테가","type":"Department","labelLongitude":-85.542,"labelLatitude":13.698,"minZoom":7.7},"geometry":{"type":"Polygon","coordinates":[[[-85.086,14.545],[-85.065,14.554],[-85.03,14.589],[-85.024,14.603],[-85.019,14.602],[-85.012,14.6],[-85.009,14.599],[-85.006,14.596],[-85.003,14.593],[-85.001,14.589],[-84.999,14.582],[-84.999,14.576],[-85.004,14.561],[-85.006,14.555],[-85.006,14.549],[-85.006,14.545],[-85.008,14.535],[-85.009,14.529],[-85.008,14.52],[-85.009,14.511],[-85.008,14.508],[-85.006,14.505],[-84.993,14.495],[-84.978,14.487],[-84.974,14.483],[-84.97,14.477],[-84.969,14.469],[-84.97,14.459],[-84.982,14.441],[-84.983,14.434],[-84.982,14.413],[-84.983,14.408],[-84.991,14.394],[-84.993,14.387],[-84.992,14.381],[-84.99,14.373],[-84.971,14.35],[-84.954,14.334],[-84.94,14.317],[-84.935,14.314],[-84.927,14.312],[-84.838,14.307],[-84.835,14.293],[-84.837,14.269],[-84.859,14.154],[-84.862,14.108],[-84.853,14.071],[-84.855,14.06],[-84.864,14.04],[-84.925,13.941],[-85.052,13.743],[-85.057,13.738],[-85.061,13.736],[-85.157,13.779],[-85.161,13.777],[-85.283,13.703],[-85.285,13.703],[-85.365,13.692],[-85.37,13.686],[-85.375,13.677],[-85.384,13.653],[-85.392,13.641],[-85.399,13.633],[-85.409,13.627],[-85.411,13.621],[-85.41,13.612],[-85.402,13.595],[-85.395,13.583],[-85.39,13.57],[-85.389,13.561],[-85.399,13.529],[-85.4,13.511],[-85.399,13.506],[-85.401,13.497],[-85.404,13.489],[-85.415,13.48],[-85.469,13.446],[-85.5,13.419],[-85.506,13.406],[-85.506,13.371],[-85.562,13.335],[-85.582,13.328],[-85.605,13.328],[-85.626,13.314],[-85.64,13.298],[-85.655,13.275],[-85.672,13.246],[-85.745,13.162],[-85.783,13.13],[-85.793,13.124],[-85.84,13.085],[-85.896,13.033],[-85.918,13.018],[-85.928,13.014],[-85.941,13.012],[-85.977,13.014],[-85.989,13.012],[-85.994,13.01],[-86.007,12.994],[-86.042,13.02],[-86.057,13.035],[-86.072,13.043],[-86.081,13.047],[-86.094,13.047],[-86.1,13.047],[-86.115,13.066],[-86.159,13.091],[-86.234,13.165],[-86.241,13.175],[-86.248,13.189],[-86.236,13.208],[-86.233,13.225],[-86.236,13.237],[-86.221,13.279],[-86.23,13.322],[-86.23,13.343],[-86.227,13.36],[-86.221,13.375],[-86.213,13.39],[-86.176,13.429],[-86.16,13.443],[-86.144,13.446],[-86.13,13.446],[-86.118,13.441],[-86.108,13.452],[-86.069,13.482],[-86.06,13.493],[-86.05,13.505],[-86.039,13.509],[-86.028,13.496],[-86.019,13.501],[-85.966,13.505],[-85.949,13.504],[-85.938,13.498],[-85.929,13.49],[-85.92,13.485],[-85.907,13.487],[-85.9,13.492],[-85.883,13.515],[-85.86,13.531],[-85.842,13.54],[-85.831,13.553],[-85.833,13.613],[-85.83,13.638],[-85.821,13.661],[-85.792,13.709],[-85.787,13.721],[-85.785,13.735],[-85.783,13.782],[-85.777,13.798],[-85.767,13.81],[-85.743,13.824],[-85.742,13.824],[-85.74,13.826],[-85.733,13.832],[-85.725,13.848],[-85.723,13.863],[-85.729,13.875],[-85.744,13.88],[-85.747,13.888],[-85.743,13.908],[-85.733,13.938],[-85.732,13.96],[-85.727,13.965],[-85.717,13.963],[-85.699,13.962],[-85.686,13.967],[-85.666,13.984],[-85.658,13.982],[-85.651,13.982],[-85.652,13.987],[-85.65,13.988],[-85.648,13.988],[-85.645,13.989],[-85.648,13.999],[-85.613,14.01],[-85.603,14.02],[-85.594,14.033],[-85.572,14.041],[-85.563,14.042],[-85.547,14.045],[-85.528,14.051],[-85.519,14.065],[-85.516,14.081],[-85.511,14.094],[-85.475,14.103],[-85.458,14.113],[-85.432,14.133],[-85.42,14.147],[-85.409,14.166],[-85.401,14.185],[-85.394,14.211],[-85.384,14.226],[-85.373,14.241],[-85.363,14.25],[-85.359,14.251],[-85.348,14.249],[-85.344,14.25],[-85.341,14.253],[-85.338,14.261],[-85.331,14.269],[-85.327,14.276],[-85.321,14.281],[-85.312,14.284],[-85.288,14.295],[-85.278,14.297],[-85.24,14.297],[-85.215,14.302],[-85.19,14.31],[-85.17,14.322],[-85.158,14.338],[-85.159,14.361],[-85.172,14.381],[-85.19,14.397],[-85.206,14.407],[-85.178,14.428],[-85.177,14.434],[-85.18,14.449],[-85.178,14.456],[-85.155,14.479],[-85.152,14.486],[-85.15,14.537],[-85.145,14.564],[-85.138,14.578],[-85.119,14.574],[-85.103,14.557],[-85.086,14.545]]]}},{"type":"Feature","id":"NI-LE","properties":{"id":"NI-LE","countryCode":"NI","isoSubdivision":"NI-LE","name":"León","name_en":"León","name_ko":"레온","type":"Department","labelLongitude":-86.719,"labelLatitude":12.417,"minZoom":7.7},"geometry":{"type":"Polygon","coordinates":[[[-86.671,12.001],[-86.69,12.024],[-86.728,12.088],[-86.763,12.182],[-86.773,12.197],[-86.798,12.219],[-87.002,12.341],[-87.015,12.357],[-87.071,12.389],[-87.102,12.421],[-87.171,12.451],[-87.174,12.475],[-87.162,12.46],[-87.142,12.447],[-87.12,12.438],[-87.098,12.434],[-87.121,12.458],[-87.099,12.471],[-87.049,12.477],[-87.032,12.484],[-87.015,12.494],[-87.006,12.5],[-86.954,12.552],[-86.934,12.584],[-86.926,12.604],[-86.922,12.611],[-86.903,12.629],[-86.877,12.656],[-86.853,12.682],[-86.833,12.69],[-86.814,12.713],[-86.8,12.739],[-86.793,12.746],[-86.782,12.752],[-86.71,12.761],[-86.696,12.765],[-86.688,12.768],[-86.67,12.779],[-86.658,12.807],[-86.655,12.838],[-86.664,12.959],[-86.676,12.987],[-86.69,13.009],[-86.711,13.056],[-86.721,13.09],[-86.703,13.097],[-86.694,13.098],[-86.681,13.098],[-86.665,13.092],[-86.645,13.083],[-86.633,13.084],[-86.613,13.088],[-86.547,13.11],[-86.491,13.122],[-86.479,13.118],[-86.471,13.115],[-86.453,13.097],[-86.427,13.054],[-86.417,13.04],[-86.412,13.032],[-86.405,13.007],[-86.407,12.976],[-86.429,12.937],[-86.43,12.926],[-86.43,12.917],[-86.42,12.9],[-86.386,12.883],[-86.264,12.849],[-86.267,12.824],[-86.279,12.725],[-86.289,12.636],[-86.328,12.613],[-86.343,12.599],[-86.351,12.588],[-86.354,12.582],[-86.355,12.577],[-86.355,12.574],[-86.356,12.564],[-86.356,12.56],[-86.356,12.557],[-86.356,12.552],[-86.357,12.546],[-86.363,12.529],[-86.364,12.524],[-86.364,12.521],[-86.362,12.516],[-86.361,12.514],[-86.351,12.5],[-86.345,12.495],[-86.344,12.493],[-86.343,12.49],[-86.343,12.484],[-86.343,12.481],[-86.341,12.477],[-86.343,12.474],[-86.347,12.469],[-86.444,12.375],[-86.511,12.309],[-86.525,12.29],[-86.526,12.274],[-86.527,12.203],[-86.525,12.197],[-86.523,12.191],[-86.518,12.187],[-86.513,12.184],[-86.507,12.177],[-86.506,12.159],[-86.518,12.131],[-86.538,12.109],[-86.575,12.081],[-86.581,12.078],[-86.584,12.078],[-86.598,12.081],[-86.612,12.086],[-86.614,12.086],[-86.617,12.086],[-86.62,12.086],[-86.622,12.085],[-86.637,12.08],[-86.644,12.079],[-86.648,12.077],[-86.651,12.075],[-86.652,12.073],[-86.653,12.071],[-86.653,12.068],[-86.653,12.065],[-86.651,12.06],[-86.644,12.046],[-86.64,12.04],[-86.638,12.038],[-86.637,12.035],[-86.637,12.032],[-86.638,12.03],[-86.642,12.022],[-86.646,12.018],[-86.671,12.001]]]}},{"type":"Feature","id":"NI-MD","properties":{"id":"NI-MD","countryCode":"NI","isoSubdivision":"NI-MD","name":"Madriz","name_en":"Madriz","name_ko":"마드리스","type":"Department","labelLongitude":-86.412,"labelLatitude":13.496,"minZoom":7.7},"geometry":{"type":"Polygon","coordinates":[[[-86.733,13.268],[-86.725,13.273],[-86.712,13.286],[-86.704,13.299],[-86.702,13.314],[-86.708,13.343],[-86.71,13.349],[-86.717,13.362],[-86.724,13.367],[-86.73,13.369],[-86.736,13.372],[-86.74,13.382],[-86.739,13.396],[-86.726,13.424],[-86.724,13.439],[-86.757,13.559],[-86.757,13.576],[-86.751,13.608],[-86.752,13.624],[-86.755,13.631],[-86.764,13.637],[-86.756,13.643],[-86.748,13.654],[-86.745,13.657],[-86.74,13.66],[-86.718,13.66],[-86.648,13.647],[-86.629,13.618],[-86.624,13.61],[-86.615,13.601],[-86.604,13.593],[-86.587,13.587],[-86.576,13.58],[-86.564,13.569],[-86.548,13.577],[-86.538,13.587],[-86.515,13.592],[-86.505,13.593],[-86.433,13.592],[-86.378,13.575],[-86.346,13.575],[-86.304,13.58],[-86.292,13.579],[-86.277,13.574],[-86.257,13.563],[-86.227,13.549],[-86.218,13.56],[-86.212,13.589],[-86.209,13.595],[-86.206,13.6],[-86.184,13.608],[-86.164,13.615],[-86.13,13.587],[-86.122,13.579],[-86.112,13.567],[-86.09,13.529],[-86.06,13.493],[-86.069,13.482],[-86.108,13.452],[-86.118,13.441],[-86.13,13.446],[-86.144,13.446],[-86.16,13.443],[-86.176,13.429],[-86.213,13.39],[-86.221,13.404],[-86.231,13.426],[-86.235,13.432],[-86.254,13.438],[-86.309,13.435],[-86.386,13.411],[-86.428,13.404],[-86.471,13.424],[-86.486,13.431],[-86.496,13.434],[-86.523,13.43],[-86.563,13.397],[-86.604,13.326],[-86.612,13.309],[-86.631,13.283],[-86.715,13.2],[-86.706,13.229],[-86.705,13.231],[-86.703,13.237],[-86.703,13.243],[-86.704,13.25],[-86.707,13.259],[-86.713,13.263],[-86.732,13.267],[-86.733,13.268]]]}},{"type":"Feature","id":"NI-MN","properties":{"id":"NI-MN","countryCode":"NI","isoSubdivision":"NI-MN","name":"Managua","name_en":"Managua","name_ko":"마나과","type":"Department","labelLongitude":-86.249,"labelLatitude":12.304,"minZoom":7.7},"geometry":{"type":"Polygon","coordinates":[[[-86.502,11.767],[-86.516,11.783],[-86.542,11.842],[-86.553,11.851],[-86.563,11.857],[-86.59,11.883],[-86.605,11.905],[-86.622,11.936],[-86.625,11.951],[-86.63,11.965],[-86.642,11.977],[-86.666,11.995],[-86.671,12.001],[-86.646,12.018],[-86.642,12.022],[-86.638,12.03],[-86.637,12.032],[-86.637,12.035],[-86.638,12.038],[-86.64,12.04],[-86.644,12.046],[-86.651,12.06],[-86.653,12.065],[-86.653,12.068],[-86.653,12.071],[-86.652,12.073],[-86.651,12.075],[-86.648,12.077],[-86.644,12.079],[-86.637,12.08],[-86.622,12.085],[-86.62,12.086],[-86.617,12.086],[-86.614,12.086],[-86.612,12.086],[-86.598,12.081],[-86.584,12.078],[-86.581,12.078],[-86.575,12.081],[-86.538,12.109],[-86.518,12.131],[-86.506,12.159],[-86.507,12.177],[-86.513,12.184],[-86.518,12.187],[-86.523,12.191],[-86.525,12.197],[-86.527,12.203],[-86.526,12.274],[-86.525,12.29],[-86.511,12.309],[-86.444,12.375],[-86.347,12.469],[-86.343,12.474],[-86.341,12.477],[-86.343,12.481],[-86.343,12.484],[-86.343,12.49],[-86.344,12.493],[-86.345,12.495],[-86.351,12.5],[-86.361,12.514],[-86.362,12.516],[-86.364,12.521],[-86.364,12.524],[-86.363,12.529],[-86.357,12.546],[-86.356,12.552],[-86.356,12.557],[-86.356,12.56],[-86.356,12.564],[-86.355,12.574],[-86.355,12.577],[-86.354,12.582],[-86.351,12.588],[-86.343,12.599],[-86.328,12.613],[-86.289,12.636],[-86.119,12.6],[-86.101,12.594],[-86.086,12.581],[-86.071,12.564],[-86.06,12.555],[-86.05,12.549],[-85.989,12.525],[-85.972,12.522],[-85.978,12.505],[-85.974,12.471],[-85.97,12.457],[-85.963,12.445],[-85.95,12.429],[-85.925,12.402],[-85.921,12.396],[-85.92,12.39],[-85.922,12.37],[-85.923,12.354],[-85.921,12.346],[-85.918,12.341],[-85.83,12.26],[-85.828,12.257],[-85.83,12.251],[-85.846,12.226],[-85.851,12.199],[-85.869,12.206],[-85.877,12.206],[-85.885,12.203],[-85.916,12.181],[-86.001,12.144],[-86.018,12.148],[-86.024,12.151],[-86.026,12.152],[-86.029,12.152],[-86.046,12.15],[-86.08,12.136],[-86.109,12.131],[-86.127,12.118],[-86.188,12.059],[-86.185,12.046],[-86.17,12.032],[-86.165,12.024],[-86.162,12.018],[-86.163,11.996],[-86.175,11.978],[-86.18,11.972],[-86.186,11.966],[-86.194,11.962],[-86.204,11.959],[-86.212,11.958],[-86.223,11.962],[-86.23,11.965],[-86.258,11.986],[-86.281,11.957],[-86.293,11.939],[-86.356,11.889],[-86.375,11.858],[-86.382,11.851],[-86.41,11.831],[-86.42,11.816],[-86.432,11.805],[-86.436,11.803],[-86.442,11.801],[-86.453,11.798],[-86.459,11.797],[-86.467,11.797],[-86.477,11.791],[-86.502,11.767]]]}},{"type":"Feature","id":"NI-MS","properties":{"id":"NI-MS","countryCode":"NI","isoSubdivision":"NI-MS","name":"Masaya","name_en":"Masaya","name_ko":"마사야","type":"Department","labelLongitude":-86.123,"labelLatitude":11.996,"minZoom":7.7},"geometry":{"type":"Polygon","coordinates":[[[-86.001,12.144],[-85.967,12.107],[-85.964,12.091],[-86.004,12.004],[-86.04,11.926],[-86.044,11.918],[-86.053,11.898],[-86.072,11.856],[-86.081,11.859],[-86.134,11.874],[-86.137,11.876],[-86.15,11.894],[-86.179,11.908],[-86.271,11.944],[-86.281,11.957],[-86.258,11.986],[-86.23,11.965],[-86.223,11.962],[-86.212,11.958],[-86.204,11.959],[-86.194,11.962],[-86.186,11.966],[-86.18,11.972],[-86.175,11.978],[-86.163,11.996],[-86.162,12.018],[-86.165,12.024],[-86.17,12.032],[-86.185,12.046],[-86.188,12.059],[-86.127,12.118],[-86.109,12.131],[-86.08,12.136],[-86.046,12.15],[-86.029,12.152],[-86.026,12.152],[-86.024,12.151],[-86.018,12.148],[-86.001,12.144]]]}},{"type":"Feature","id":"NI-MT","properties":{"id":"NI-MT","countryCode":"NI","isoSubdivision":"NI-MT","name":"Matagalpa","name_en":"Matagalpa","name_ko":"마타갈파","type":"Department","labelLongitude":-85.493,"labelLatitude":13.024,"minZoom":7.7},"geometry":{"type":"Polygon","coordinates":[[[-85.296,12.653],[-85.29,12.678],[-85.289,12.681],[-85.296,12.686],[-85.312,12.687],[-85.331,12.697],[-85.364,12.708],[-85.371,12.712],[-85.374,12.721],[-85.383,12.731],[-85.393,12.739],[-85.402,12.742],[-85.408,12.743],[-85.415,12.738],[-85.417,12.736],[-85.418,12.732],[-85.421,12.727],[-85.424,12.723],[-85.426,12.722],[-85.43,12.719],[-85.435,12.717],[-85.442,12.714],[-85.445,12.713],[-85.447,12.711],[-85.448,12.709],[-85.453,12.707],[-85.464,12.706],[-85.528,12.709],[-85.531,12.709],[-85.533,12.708],[-85.535,12.706],[-85.537,12.704],[-85.55,12.679],[-85.553,12.675],[-85.557,12.673],[-85.563,12.672],[-85.582,12.672],[-85.587,12.671],[-85.596,12.667],[-85.616,12.663],[-85.628,12.661],[-85.64,12.651],[-85.644,12.649],[-85.647,12.649],[-85.653,12.652],[-85.669,12.655],[-85.682,12.659],[-85.856,12.623],[-85.872,12.615],[-85.89,12.579],[-85.937,12.553],[-85.943,12.549],[-85.972,12.522],[-85.989,12.525],[-86.05,12.549],[-86.06,12.555],[-86.071,12.564],[-86.086,12.581],[-86.101,12.594],[-86.119,12.6],[-86.289,12.636],[-86.279,12.725],[-86.267,12.824],[-86.264,12.849],[-86.258,12.884],[-86.242,12.917],[-86.239,12.921],[-86.231,12.928],[-86.209,12.941],[-86.197,12.945],[-86.172,12.95],[-86.159,12.954],[-86.151,12.96],[-86.146,12.966],[-86.144,12.971],[-86.137,12.997],[-86.1,13.047],[-86.094,13.047],[-86.081,13.047],[-86.072,13.043],[-86.057,13.035],[-86.042,13.02],[-86.007,12.994],[-85.994,13.01],[-85.989,13.012],[-85.977,13.014],[-85.941,13.012],[-85.928,13.014],[-85.918,13.018],[-85.896,13.033],[-85.84,13.085],[-85.793,13.124],[-85.783,13.13],[-85.745,13.162],[-85.672,13.246],[-85.655,13.275],[-85.64,13.298],[-85.626,13.314],[-85.605,13.328],[-85.582,13.328],[-85.562,13.335],[-85.506,13.371],[-85.485,13.325],[-85.434,13.258],[-85.415,13.239],[-85.401,13.234],[-85.396,13.231],[-85.391,13.227],[-85.362,13.201],[-85.36,13.2],[-85.357,13.198],[-85.354,13.198],[-85.351,13.198],[-85.345,13.199],[-85.34,13.2],[-85.336,13.2],[-85.332,13.199],[-85.325,13.194],[-85.311,13.187],[-85.307,13.185],[-85.305,13.181],[-85.304,13.172],[-85.302,13.171],[-85.29,13.169],[-85.283,13.159],[-85.252,13.147],[-85.242,13.145],[-85.216,13.151],[-85.187,13.164],[-85.177,13.172],[-85.169,13.181],[-85.156,13.207],[-85.144,13.241],[-85.136,13.259],[-85.123,13.277],[-85.098,13.292],[-85.065,13.295],[-84.998,13.294],[-84.983,13.295],[-84.974,13.299],[-84.883,13.382],[-84.879,13.38],[-84.876,13.377],[-84.87,13.367],[-84.77,13.243],[-84.751,13.216],[-84.795,13.159],[-84.798,13.154],[-84.801,13.147],[-84.799,13.146],[-84.797,13.145],[-84.789,13.138],[-84.787,13.137],[-84.785,13.136],[-84.782,13.135],[-84.779,13.134],[-84.777,13.133],[-84.773,13.13],[-84.765,13.12],[-84.764,13.118],[-84.758,13.098],[-84.744,13.069],[-84.741,13.065],[-84.737,13.061],[-84.735,13.06],[-84.733,13.059],[-84.73,13.058],[-84.727,13.057],[-84.724,13.057],[-84.721,13.058],[-84.718,13.058],[-84.707,13.065],[-84.705,13.066],[-84.702,13.067],[-84.699,13.067],[-84.696,13.066],[-84.697,13.066],[-84.701,13.063],[-84.708,13.058],[-84.729,13.035],[-84.734,13.026],[-84.74,12.993],[-84.741,12.979],[-84.742,12.975],[-84.746,12.965],[-84.748,12.95],[-84.751,12.949],[-84.755,12.95],[-84.761,12.948],[-84.772,12.94],[-84.777,12.941],[-84.783,12.945],[-84.796,12.948],[-84.809,12.948],[-84.828,12.943],[-84.84,12.941],[-84.855,12.932],[-84.876,12.912],[-84.898,12.897],[-84.919,12.9],[-84.926,12.884],[-84.936,12.869],[-84.942,12.863],[-84.954,12.855],[-84.958,12.851],[-84.971,12.855],[-85.031,12.865],[-85.041,12.864],[-85.068,12.856],[-85.082,12.853],[-85.094,12.853],[-85.105,12.854],[-85.123,12.859],[-85.131,12.861],[-85.141,12.859],[-85.145,12.855],[-85.145,12.839],[-85.148,12.829],[-85.159,12.819],[-85.169,12.816],[-85.181,12.816],[-85.192,12.818],[-85.207,12.817],[-85.216,12.812],[-85.222,12.806],[-85.226,12.798],[-85.228,12.788],[-85.227,12.779],[-85.217,12.76],[-85.213,12.748],[-85.205,12.715],[-85.179,12.66],[-85.178,12.649],[-85.179,12.64],[-85.182,12.632],[-85.186,12.625],[-85.193,12.625],[-85.198,12.63],[-85.207,12.636],[-85.216,12.639],[-85.22,12.636],[-85.223,12.626],[-85.229,12.628],[-85.261,12.662],[-85.272,12.664],[-85.289,12.653],[-85.296,12.653]]]}},{"type":"Feature","id":"NI-NS","properties":{"id":"NI-NS","countryCode":"NI","isoSubdivision":"NI-NS","name":"Nueva Segovia","name_en":"Nueva Segovia","name_ko":"누에바세고비아","type":"Department","labelLongitude":-86.259,"labelLatitude":13.718,"minZoom":7.7},"geometry":{"type":"Polygon","coordinates":[[[-86.02,14.055],[-86.02,14.044],[-86.031,14.023],[-86.028,13.996],[-85.958,13.946],[-85.936,13.918],[-85.929,13.912],[-85.915,13.907],[-85.906,13.909],[-85.897,13.913],[-85.884,13.914],[-85.862,13.904],[-85.85,13.887],[-85.84,13.867],[-85.824,13.848],[-85.802,13.84],[-85.779,13.841],[-85.758,13.839],[-85.745,13.825],[-85.743,13.824],[-85.767,13.81],[-85.777,13.798],[-85.783,13.782],[-85.785,13.735],[-85.787,13.721],[-85.792,13.709],[-85.821,13.661],[-85.83,13.638],[-85.833,13.613],[-85.831,13.553],[-85.842,13.54],[-85.86,13.531],[-85.883,13.515],[-85.9,13.492],[-85.907,13.487],[-85.92,13.485],[-85.929,13.49],[-85.938,13.498],[-85.949,13.504],[-85.966,13.505],[-86.019,13.501],[-86.028,13.496],[-86.039,13.509],[-86.05,13.505],[-86.06,13.493],[-86.09,13.529],[-86.112,13.567],[-86.122,13.579],[-86.13,13.587],[-86.164,13.615],[-86.184,13.608],[-86.206,13.6],[-86.209,13.595],[-86.212,13.589],[-86.218,13.56],[-86.227,13.549],[-86.257,13.563],[-86.277,13.574],[-86.292,13.579],[-86.304,13.58],[-86.346,13.575],[-86.378,13.575],[-86.433,13.592],[-86.505,13.593],[-86.515,13.592],[-86.538,13.587],[-86.548,13.577],[-86.564,13.569],[-86.576,13.58],[-86.587,13.587],[-86.604,13.593],[-86.615,13.601],[-86.624,13.61],[-86.629,13.618],[-86.648,13.647],[-86.718,13.66],[-86.74,13.66],[-86.745,13.657],[-86.748,13.654],[-86.756,13.643],[-86.764,13.637],[-86.768,13.64],[-86.772,13.646],[-86.774,13.655],[-86.771,13.708],[-86.77,13.725],[-86.768,13.739],[-86.766,13.745],[-86.761,13.749],[-86.75,13.757],[-86.727,13.768],[-86.706,13.77],[-86.663,13.765],[-86.581,13.78],[-86.542,13.782],[-86.509,13.764],[-86.491,13.759],[-86.476,13.764],[-86.463,13.771],[-86.448,13.773],[-86.432,13.757],[-86.427,13.753],[-86.417,13.75],[-86.41,13.749],[-86.358,13.752],[-86.34,13.757],[-86.325,13.764],[-86.314,13.777],[-86.308,13.792],[-86.3,13.821],[-86.284,13.846],[-86.219,13.914],[-86.184,13.967],[-86.174,13.974],[-86.162,13.978],[-86.15,13.984],[-86.138,13.996],[-86.131,14.009],[-86.127,14.019],[-86.122,14.027],[-86.11,14.037],[-86.097,14.044],[-86.02,14.055]]]}},{"type":"Feature","id":"NI-RI","properties":{"id":"NI-RI","countryCode":"NI","isoSubdivision":"NI-RI","name":"Rivas","name_en":"Rivas","name_ko":"리바스","type":"Department","labelLongitude":-85.763,"labelLatitude":11.352,"minZoom":7.7},"geometry":{"type":"Polygon","coordinates":[[[-85.236,11.053],[-85.272,11.066],[-85.407,11.115],[-85.509,11.152],[-85.541,11.17],[-85.569,11.195],[-85.598,11.21],[-85.631,11.196],[-85.659,11.159],[-85.678,11.12],[-85.702,11.081],[-85.752,11.102],[-85.772,11.105],[-85.786,11.112],[-85.794,11.13],[-85.803,11.166],[-85.821,11.193],[-85.928,11.311],[-85.937,11.317],[-85.942,11.319],[-85.957,11.33],[-85.96,11.334],[-85.995,11.344],[-86.01,11.358],[-86.044,11.398],[-86.071,11.412],[-86.105,11.447],[-86.148,11.472],[-86.163,11.485],[-86.167,11.493],[-86.175,11.519],[-86.175,11.52],[-86.146,11.572],[-86.14,11.584],[-86.137,11.588],[-86.102,11.611],[-86.078,11.605],[-86.071,11.606],[-86.067,11.609],[-86.039,11.623],[-86.036,11.626],[-86.025,11.643],[-86.009,11.676],[-86.006,11.679],[-86.003,11.681],[-86.001,11.681],[-85.999,11.681],[-85.994,11.68],[-85.99,11.677],[-85.986,11.673],[-85.976,11.663],[-85.971,11.661],[-85.927,11.673],[-85.894,11.682],[-85.523,11.681],[-85.102,11.631],[-85.341,11.147],[-85.3,11.11],[-85.211,11.078],[-85.162,11.058],[-85.027,11.009],[-84.942,10.98],[-84.885,10.948],[-84.908,10.939],[-84.931,10.942],[-85.093,11.001],[-85.236,11.053]]]}},{"type":"Feature","id":"NI-SJ","properties":{"id":"NI-SJ","countryCode":"NI","isoSubdivision":"NI-SJ","name":"Río San Juan","name_en":"Río San Juan","name_ko":"리오산후안","type":"Department","labelLongitude":-84.518,"labelLatitude":11.169,"minZoom":7.7},"geometry":{"type":"Polygon","coordinates":[[[-84.192,10.782],[-84.197,10.789],[-84.219,10.806],[-84.221,10.809],[-84.225,10.814],[-84.227,10.819],[-84.223,10.827],[-84.219,10.83],[-84.205,10.837],[-84.208,10.861],[-84.226,10.875],[-84.245,10.885],[-84.254,10.895],[-84.264,10.902],[-84.311,10.919],[-84.321,10.929],[-84.324,10.936],[-84.337,10.953],[-84.342,10.96],[-84.344,10.972],[-84.344,10.982],[-84.346,10.99],[-84.355,10.995],[-84.364,10.99],[-84.418,10.955],[-84.427,10.951],[-84.438,10.952],[-84.449,10.956],[-84.458,10.961],[-84.466,10.968],[-84.489,10.996],[-84.493,10.999],[-84.498,11.002],[-84.503,11.004],[-84.509,11.006],[-84.559,11.027],[-84.582,11.034],[-84.603,11.033],[-84.621,11.036],[-84.659,11.063],[-84.676,11.07],[-84.708,11.063],[-84.782,11.015],[-84.885,10.948],[-84.942,10.98],[-85.027,11.009],[-85.162,11.058],[-85.211,11.078],[-85.3,11.11],[-85.341,11.147],[-85.102,11.631],[-85.083,11.662],[-85.081,11.665],[-85.077,11.669],[-85.061,11.677],[-85.041,11.69],[-85.032,11.695],[-85.026,11.698],[-85.021,11.696],[-85.019,11.695],[-85.014,11.696],[-84.995,11.703],[-84.989,11.706],[-84.986,11.709],[-84.982,11.714],[-84.978,11.72],[-84.971,11.727],[-84.969,11.729],[-84.968,11.732],[-84.967,11.734],[-84.963,11.738],[-84.961,11.741],[-84.96,11.745],[-84.96,11.747],[-84.957,11.753],[-84.942,11.776],[-84.899,11.785],[-84.874,11.801],[-84.808,11.861],[-84.805,11.866],[-84.8,11.867],[-84.795,11.868],[-84.721,11.867],[-84.701,11.87],[-84.697,11.871],[-84.688,11.868],[-84.684,11.868],[-84.669,11.869],[-84.666,11.869],[-84.662,11.868],[-84.657,11.866],[-84.646,11.864],[-84.607,11.863],[-84.587,11.794],[-84.572,11.767],[-84.564,11.76],[-84.558,11.753],[-84.555,11.747],[-84.556,11.735],[-84.555,11.709],[-84.544,11.684],[-84.534,11.652],[-84.535,11.644],[-84.537,11.633],[-84.546,11.61],[-84.561,11.562],[-84.563,11.543],[-84.564,11.53],[-84.556,11.491],[-84.553,11.452],[-84.486,11.428],[-84.457,11.411],[-84.377,11.362],[-84.362,11.347],[-84.356,11.333],[-84.355,11.321],[-84.353,11.308],[-84.346,11.293],[-84.337,11.283],[-84.328,11.277],[-84.281,11.253],[-84.241,11.225],[-84.213,11.197],[-84.204,11.186],[-84.184,11.153],[-84.179,11.147],[-84.174,11.144],[-84.171,11.145],[-84.168,11.144],[-84.164,11.142],[-84.158,11.138],[-84.155,11.137],[-84.149,11.136],[-84.142,11.133],[-84.139,11.132],[-84.137,11.132],[-84.126,11.134],[-84.12,11.134],[-84.117,11.134],[-84.111,11.132],[-84.094,11.126],[-84.082,11.121],[-84.05,11.125],[-84.044,11.125],[-84.041,11.123],[-84.041,11.117],[-84.042,11.115],[-84.041,11.112],[-84.04,11.11],[-84.029,11.099],[-84.019,11.091],[-84.014,11.088],[-84.01,11.087],[-84.001,11.092],[-83.995,11.093],[-83.992,11.094],[-83.988,11.097],[-83.986,11.098],[-83.981,11.101],[-83.977,11.102],[-83.97,11.103],[-83.964,11.102],[-83.954,11.099],[-83.95,11.098],[-83.946,11.098],[-83.944,11.1],[-83.941,11.101],[-83.939,11.102],[-83.937,11.103],[-83.929,11.106],[-83.919,11.107],[-83.914,11.109],[-83.9,11.115],[-83.897,11.115],[-83.896,11.113],[-83.895,11.11],[-83.897,11.091],[-83.897,11.088],[-83.896,11.082],[-83.894,11.08],[-83.892,11.076],[-83.888,11.073],[-83.887,11.071],[-83.886,11.068],[-83.885,11.065],[-83.885,11.059],[-83.884,11.055],[-83.883,11.051],[-83.878,11.046],[-83.875,11.044],[-83.872,11.044],[-83.87,11.045],[-83.868,11.046],[-83.865,11.047],[-83.858,11.047],[-83.847,11.047],[-83.807,11.039],[-83.8,11.037],[-83.798,11.035],[-83.794,11.032],[-83.776,11.008],[-83.761,10.985],[-83.736,10.957],[-83.718,10.944],[-83.71,10.923],[-83.693,10.926],[-83.697,10.937],[-83.696,10.937],[-83.689,10.935],[-83.681,10.917],[-83.679,10.916],[-83.677,10.91],[-83.68,10.897],[-83.67,10.892],[-83.669,10.87],[-83.66,10.834],[-83.663,10.807],[-83.698,10.789],[-83.764,10.774],[-83.769,10.772],[-83.835,10.748],[-83.856,10.724],[-83.86,10.722],[-83.887,10.727],[-83.894,10.725],[-83.907,10.715],[-83.917,10.713],[-83.927,10.715],[-83.933,10.718],[-83.994,10.765],[-83.998,10.782],[-84.009,10.789],[-84.023,10.787],[-84.035,10.776],[-84.052,10.78],[-84.076,10.764],[-84.089,10.776],[-84.095,10.776],[-84.107,10.767],[-84.118,10.771],[-84.137,10.789],[-84.149,10.787],[-84.158,10.788],[-84.165,10.789],[-84.18,10.79],[-84.192,10.782]]]}}]}
