{"type":"FeatureCollection","features":[{"type":"Feature","id":"NL-BQ1","properties":{"id":"NL-BQ1","countryCode":"NL","isoSubdivision":"NL-BQ1","name":"Bonaire","name_en":"Bonaire","name_ko":"보네르섬","type":"Special Municipality","labelLongitude":-68.303,"labelLatitude":12.231,"minZoom":8},"geometry":{"type":"Polygon","coordinates":[[[-68.212,12.228],[-68.205,12.223],[-68.194,12.214],[-68.19,12.205],[-68.202,12.201],[-68.211,12.19],[-68.204,12.138],[-68.205,12.118],[-68.214,12.112],[-68.232,12.111],[-68.239,12.105],[-68.238,12.096],[-68.228,12.07],[-68.226,12.06],[-68.228,12.051],[-68.232,12.038],[-68.237,12.027],[-68.243,12.022],[-68.254,12.024],[-68.26,12.028],[-68.281,12.072],[-68.285,12.09],[-68.287,12.108],[-68.283,12.14],[-68.282,12.16],[-68.287,12.18],[-68.303,12.203],[-68.321,12.214],[-68.37,12.221],[-68.392,12.228],[-68.411,12.24],[-68.417,12.257],[-68.403,12.277],[-68.411,12.283],[-68.406,12.295],[-68.4,12.304],[-68.39,12.31],[-68.377,12.31],[-68.361,12.302],[-68.34,12.275],[-68.332,12.269],[-68.315,12.265],[-68.253,12.236],[-68.221,12.231],[-68.212,12.228]]]}},{"type":"Feature","id":"NL-BQ2","properties":{"id":"NL-BQ2","countryCode":"NL","isoSubdivision":"NL-BQ2","name":"Saba","name_en":"Saba","name_ko":"사바섬","type":"Special Municipality","labelLongitude":-63.237,"labelLatitude":17.633,"minZoom":8},"geometry":{"type":"Polygon","coordinates":[[[-63.238,17.647],[-63.23,17.642],[-63.224,17.629],[-63.229,17.618],[-63.238,17.615],[-63.251,17.624],[-63.249,17.64],[-63.238,17.647]]]}},{"type":"Feature","id":"NL-BQ3","properties":{"id":"NL-BQ3","countryCode":"NL","isoSubdivision":"NL-BQ3","name":"Sint Eustatius","name_en":"Sint Eustatius","name_ko":"신트외스타티위스섬","type":"Special Municipality","labelLongitude":-62.972,"labelLatitude":17.485,"minZoom":8},"geometry":{"type":"Polygon","coordinates":[[[-62.997,17.526],[-62.984,17.518],[-62.977,17.504],[-62.965,17.499],[-62.945,17.485],[-62.949,17.472],[-62.959,17.465],[-62.981,17.468],[-62.995,17.492],[-62.997,17.526]]]}},{"type":"Feature","id":"NL-DR","properties":{"id":"NL-DR","countryCode":"NL","isoSubdivision":"NL-DR","name":"Drenthe","name_en":"Drenthe","name_ko":"드렌터","type":"Province","labelLongitude":6.601,"labelLatitude":52.905,"minZoom":8},"geometry":{"type":"Polygon","coordinates":[[[7.072,52.841],[7.062,52.824],[7.053,52.791],[7.044,52.683],[7.037,52.647],[7.018,52.626],[6.983,52.633],[6.968,52.637],[6.918,52.632],[6.865,52.642],[6.771,52.641],[6.737,52.635],[6.719,52.627],[6.718,52.627],[6.708,52.631],[6.705,52.639],[6.706,52.647],[6.702,52.649],[6.696,52.652],[6.624,52.672],[6.611,52.673],[6.582,52.669],[6.533,52.654],[6.521,52.646],[6.519,52.641],[6.522,52.611],[6.48,52.624],[6.474,52.624],[6.467,52.624],[6.462,52.621],[6.454,52.618],[6.448,52.618],[6.443,52.619],[6.439,52.622],[6.434,52.627],[6.431,52.628],[6.429,52.628],[6.424,52.625],[6.417,52.623],[6.393,52.618],[6.387,52.618],[6.383,52.62],[6.382,52.621],[6.373,52.634],[6.365,52.642],[6.348,52.652],[6.333,52.66],[6.325,52.668],[6.321,52.668],[6.273,52.668],[6.265,52.67],[6.234,52.683],[6.218,52.686],[6.211,52.685],[6.205,52.682],[6.197,52.679],[6.191,52.679],[6.183,52.68],[6.179,52.682],[6.177,52.684],[6.17,52.691],[6.165,52.693],[6.13,52.749],[6.14,52.759],[6.166,52.766],[6.202,52.788],[6.207,52.797],[6.198,52.805],[6.187,52.813],[6.18,52.817],[6.129,52.853],[6.214,52.893],[6.248,52.916],[6.255,52.92],[6.265,52.926],[6.292,52.926],[6.314,52.922],[6.348,52.908],[6.396,52.928],[6.402,52.932],[6.429,52.959],[6.432,52.965],[6.434,52.969],[6.422,52.985],[6.368,53.028],[6.364,53.04],[6.358,53.05],[6.359,53.055],[6.357,53.061],[6.355,53.064],[6.326,53.071],[6.311,53.077],[6.308,53.078],[6.31,53.092],[6.33,53.088],[6.338,53.091],[6.354,53.108],[6.358,53.118],[6.362,53.125],[6.375,53.141],[6.378,53.146],[6.379,53.148],[6.385,53.158],[6.4,53.17],[6.414,53.178],[6.432,53.185],[6.468,53.205],[6.501,53.195],[6.52,53.19],[6.531,53.191],[6.548,53.177],[6.564,53.16],[6.567,53.158],[6.572,53.157],[6.583,53.152],[6.617,53.125],[6.628,53.109],[6.63,53.108],[6.631,53.106],[6.637,53.107],[6.699,53.119],[6.725,53.117],[6.735,53.114],[6.741,53.112],[6.776,53.089],[6.819,53.06],[6.843,53.046],[6.862,53.035],[6.897,53.013],[6.935,52.988],[6.982,52.95],[7.031,52.913],[7.038,52.912],[7.039,52.908],[7.039,52.904],[7.018,52.87],[7.038,52.866],[7.048,52.861],[7.066,52.847],[7.072,52.842],[7.072,52.841]]]}},{"type":"Feature","id":"NL-FL","properties":{"id":"NL-FL","countryCode":"NL","isoSubdivision":"NL-FL","name":"Flevoland","name_en":"Flevoland","name_ko":"플레볼란트","type":"Province","labelLongitude":5.557,"labelLatitude":52.551,"minZoom":8},"geometry":{"type":"Polygon","coordinates":[[[5.74,52.839],[5.75,52.835],[5.775,52.819],[5.785,52.804],[5.858,52.779],[5.905,52.756],[5.916,52.747],[5.923,52.74],[5.938,52.714],[5.945,52.689],[5.94,52.683],[5.936,52.678],[5.928,52.673],[5.927,52.672],[5.929,52.67],[5.938,52.668],[5.978,52.66],[5.998,52.654],[6.02,52.638],[5.988,52.627],[5.94,52.617],[5.93,52.616],[5.914,52.618],[5.908,52.62],[5.895,52.619],[5.844,52.605],[5.843,52.605],[5.833,52.597],[5.833,52.585],[5.847,52.578],[5.867,52.522],[5.866,52.505],[5.855,52.481],[5.838,52.462],[5.815,52.441],[5.796,52.427],[5.771,52.414],[5.733,52.403],[5.689,52.39],[5.655,52.381],[5.628,52.372],[5.601,52.358],[5.579,52.345],[5.563,52.32],[5.552,52.298],[5.533,52.277],[5.497,52.269],[5.426,52.264],[5.409,52.268],[5.407,52.268],[5.366,52.283],[5.368,52.283],[5.283,52.318],[5.249,52.325],[5.228,52.325],[5.191,52.323],[5.16,52.328],[5.105,52.364],[5.103,52.396],[5.16,52.429],[5.194,52.429],[5.168,52.472],[5.119,52.516],[5.095,52.582],[5.262,52.649],[5.278,52.686],[5.309,52.699],[5.359,52.689],[5.37,52.789],[5.37,52.79],[5.372,52.789],[5.558,52.793],[5.6,52.812],[5.632,52.828],[5.657,52.835],[5.681,52.838],[5.704,52.838],[5.717,52.836],[5.72,52.837],[5.74,52.839]]]}},{"type":"Feature","id":"NL-FR","properties":{"id":"NL-FR","countryCode":"NL","isoSubdivision":"NL-FR","name":"Friesland","name_en":"Friesland","name_ko":"프리슬란트","type":"Province","labelLongitude":5.773,"labelLatitude":53.079,"minZoom":8},"geometry":{"type":"MultiPolygon","coordinates":[[[[5.18,53.009],[5.279,53.063],[5.294,53.073],[5.313,53.083],[5.359,53.089],[5.379,53.097],[5.4,53.122],[5.427,53.19],[5.447,53.221],[5.483,53.246],[5.504,53.257],[5.541,53.267],[5.558,53.278],[5.573,53.292],[5.592,53.303],[5.612,53.307],[5.66,53.312],[5.695,53.33],[5.855,53.369],[5.891,53.384],[5.914,53.385],[5.981,53.406],[6.077,53.409],[6.186,53.411],[6.175,53.398],[6.17,53.386],[6.18,53.364],[6.194,53.361],[6.213,53.357],[6.217,53.356],[6.221,53.354],[6.226,53.349],[6.231,53.346],[6.234,53.345],[6.237,53.344],[6.24,53.344],[6.244,53.345],[6.249,53.348],[6.252,53.348],[6.255,53.348],[6.274,53.345],[6.277,53.341],[6.279,53.336],[6.277,53.323],[6.276,53.314],[6.278,53.312],[6.28,53.311],[6.287,53.31],[6.287,53.309],[6.284,53.307],[6.268,53.298],[6.254,53.288],[6.25,53.284],[6.245,53.271],[6.23,53.255],[6.218,53.241],[6.22,53.236],[6.221,53.232],[6.223,53.229],[6.225,53.226],[6.226,53.223],[6.226,53.221],[6.223,53.217],[6.186,53.187],[6.176,53.174],[6.169,53.153],[6.174,53.131],[6.183,53.124],[6.196,53.117],[6.205,53.115],[6.248,53.113],[6.265,53.109],[6.301,53.095],[6.31,53.092],[6.308,53.078],[6.311,53.077],[6.326,53.071],[6.355,53.064],[6.357,53.061],[6.359,53.055],[6.358,53.05],[6.364,53.04],[6.368,53.028],[6.422,52.985],[6.434,52.969],[6.432,52.965],[6.429,52.959],[6.402,52.932],[6.396,52.928],[6.348,52.908],[6.314,52.922],[6.292,52.926],[6.265,52.926],[6.255,52.92],[6.248,52.916],[6.214,52.893],[6.129,52.853],[6.087,52.843],[6.068,52.842],[6.052,52.839],[6.05,52.838],[6.048,52.837],[6.048,52.833],[6.047,52.831],[6.032,52.821],[5.993,52.823],[5.988,52.824],[5.979,52.829],[5.967,52.84],[5.962,52.841],[5.959,52.842],[5.957,52.84],[5.953,52.838],[5.933,52.835],[5.928,52.833],[5.924,52.831],[5.922,52.828],[5.918,52.824],[5.914,52.82],[5.909,52.817],[5.879,52.806],[5.872,52.805],[5.866,52.805],[5.838,52.808],[5.834,52.809],[5.822,52.815],[5.785,52.804],[5.775,52.819],[5.75,52.835],[5.74,52.839],[5.72,52.837],[5.717,52.836],[5.704,52.838],[5.681,52.838],[5.657,52.835],[5.632,52.828],[5.6,52.812],[5.558,52.793],[5.372,52.789],[5.37,52.79],[5.26,52.865],[5.188,52.991],[5.187,52.992],[5.186,52.995],[5.182,53.005],[5.18,53.008],[5.18,53.009]]],[[[4.879,53.221],[4.921,53.254],[4.987,53.29],[5.054,53.314],[5.105,53.31],[5.105,53.303],[5.078,53.303],[5.066,53.298],[5.036,53.292],[4.958,53.246],[4.936,53.226],[4.91,53.212],[4.879,53.221]]],[[[5.424,53.43],[5.437,53.436],[5.585,53.454],[5.562,53.434],[5.534,53.428],[5.475,53.427],[5.477,53.424],[5.48,53.416],[5.482,53.413],[5.469,53.409],[5.427,53.406],[5.382,53.395],[5.347,53.389],[5.208,53.353],[5.18,53.353],[5.168,53.368],[5.179,53.385],[5.232,53.397],[5.25,53.406],[5.273,53.406],[5.407,53.423],[5.424,53.43]]],[[[5.674,53.468],[5.914,53.474],[5.955,53.461],[5.856,53.447],[5.753,53.447],[5.727,53.443],[5.679,53.43],[5.654,53.434],[5.636,53.449],[5.642,53.463],[5.659,53.472],[5.674,53.468]]],[[[6.212,53.509],[6.311,53.514],[6.339,53.509],[6.339,53.502],[6.325,53.502],[6.153,53.469],[6.133,53.454],[6.127,53.46],[6.127,53.463],[6.133,53.468],[6.123,53.482],[6.148,53.495],[6.185,53.505],[6.212,53.509]]]]}},{"type":"Feature","id":"NL-GE","properties":{"id":"NL-GE","countryCode":"NL","isoSubdivision":"NL-GE","name":"Gelderland","name_en":"Gelderland","name_ko":"헬데를란트","type":"Province","labelLongitude":5.96,"labelLatitude":52.064,"minZoom":8},"geometry":{"type":"Polygon","coordinates":[[[6.772,52.109],[6.766,52.108],[6.75,52.103],[6.733,52.092],[6.728,52.086],[6.719,52.074],[6.711,52.067],[6.699,52.064],[6.689,52.063],[6.68,52.06],[6.673,52.05],[6.675,52.035],[6.691,52.028],[6.713,52.024],[6.778,52.001],[6.804,51.984],[6.809,51.98],[6.812,51.973],[6.811,51.961],[6.806,51.958],[6.798,51.957],[6.79,51.951],[6.767,51.926],[6.744,51.908],[6.717,51.899],[6.628,51.898],[6.529,51.876],[6.479,51.853],[6.463,51.848],[6.443,51.848],[6.378,51.86],[6.387,51.838],[6.382,51.828],[6.345,51.821],[6.342,51.837],[6.326,51.843],[6.287,51.846],[6.283,51.85],[6.272,51.862],[6.265,51.866],[6.256,51.867],[6.225,51.863],[6.191,51.871],[6.159,51.887],[6.127,51.897],[6.093,51.885],[6.105,51.879],[6.143,51.855],[6.156,51.842],[6.14,51.845],[6.116,51.848],[6.084,51.854],[6.043,51.847],[6.029,51.842],[6.008,51.833],[5.989,51.827],[5.948,51.823],[5.931,51.816],[5.928,51.807],[5.951,51.796],[5.964,51.777],[5.962,51.756],[5.946,51.746],[5.945,51.746],[5.941,51.745],[5.916,51.756],[5.912,51.758],[5.894,51.773],[5.89,51.777],[5.887,51.778],[5.882,51.778],[5.872,51.777],[5.863,51.773],[5.863,51.759],[5.76,51.763],[5.69,51.793],[5.671,51.796],[5.661,51.8],[5.649,51.819],[5.643,51.824],[5.599,51.83],[5.535,51.824],[5.52,51.827],[5.501,51.835],[5.482,51.83],[5.462,51.821],[5.441,51.816],[5.401,51.818],[5.381,51.812],[5.373,51.792],[5.368,51.775],[5.355,51.763],[5.337,51.753],[5.318,51.747],[5.135,51.735],[5.126,51.737],[5.137,51.753],[5.137,51.769],[5.1,51.785],[5.089,51.783],[5.065,51.783],[5.028,51.801],[5.012,51.811],[5.01,51.82],[5.009,51.825],[5.008,51.835],[5.011,51.843],[5.011,51.845],[5.004,51.851],[5.033,51.852],[5.11,51.872],[5.121,51.876],[5.121,51.878],[5.121,51.881],[5.12,51.886],[5.118,51.892],[5.153,51.93],[5.158,51.935],[5.183,51.967],[5.197,51.966],[5.221,51.968],[5.239,51.977],[5.254,51.979],[5.311,51.96],[5.331,51.963],[5.361,51.977],[5.383,51.98],[5.409,51.974],[5.42,51.974],[5.43,51.977],[5.449,51.986],[5.462,51.988],[5.505,51.982],[5.582,51.953],[5.616,51.948],[5.619,51.953],[5.62,51.969],[5.618,51.974],[5.616,51.978],[5.612,51.982],[5.605,51.991],[5.585,52.005],[5.572,52.019],[5.563,52.049],[5.565,52.073],[5.563,52.079],[5.562,52.085],[5.553,52.105],[5.537,52.102],[5.541,52.095],[5.541,52.091],[5.539,52.087],[5.535,52.082],[5.531,52.08],[5.527,52.078],[5.523,52.078],[5.52,52.077],[5.509,52.072],[5.5,52.07],[5.472,52.078],[5.47,52.08],[5.469,52.082],[5.476,52.086],[5.481,52.09],[5.484,52.093],[5.49,52.104],[5.498,52.114],[5.508,52.113],[5.509,52.115],[5.509,52.117],[5.508,52.12],[5.508,52.127],[5.513,52.133],[5.513,52.136],[5.51,52.139],[5.502,52.144],[5.494,52.147],[5.49,52.149],[5.482,52.158],[5.475,52.161],[5.454,52.164],[5.43,52.169],[5.424,52.175],[5.425,52.177],[5.427,52.179],[5.433,52.182],[5.437,52.186],[5.439,52.196],[5.402,52.214],[5.397,52.22],[5.399,52.231],[5.403,52.248],[5.409,52.267],[5.409,52.268],[5.426,52.264],[5.497,52.269],[5.533,52.277],[5.552,52.298],[5.563,52.32],[5.579,52.345],[5.601,52.358],[5.628,52.372],[5.655,52.381],[5.689,52.39],[5.733,52.403],[5.771,52.414],[5.796,52.427],[5.815,52.441],[5.838,52.462],[5.855,52.481],[5.866,52.505],[5.867,52.522],[5.881,52.521],[5.891,52.52],[5.904,52.509],[5.925,52.484],[5.931,52.481],[5.939,52.479],[5.97,52.485],[6.002,52.502],[6.031,52.511],[6.043,52.508],[6.05,52.505],[6.056,52.499],[6.064,52.489],[6.082,52.478],[6.089,52.474],[6.095,52.468],[6.104,52.452],[6.112,52.44],[6.133,52.421],[6.135,52.419],[6.136,52.416],[6.135,52.404],[6.12,52.38],[6.087,52.373],[6.084,52.372],[6.082,52.371],[6.087,52.364],[6.087,52.359],[6.078,52.351],[6.069,52.329],[6.068,52.322],[6.071,52.318],[6.081,52.309],[6.086,52.306],[6.107,52.3],[6.125,52.271],[6.124,52.263],[6.122,52.259],[6.124,52.256],[6.128,52.254],[6.139,52.251],[6.144,52.249],[6.146,52.244],[6.142,52.237],[6.142,52.235],[6.143,52.233],[6.146,52.23],[6.154,52.226],[6.158,52.225],[6.16,52.225],[6.167,52.232],[6.177,52.237],[6.18,52.238],[6.189,52.237],[6.259,52.229],[6.323,52.229],[6.332,52.231],[6.347,52.238],[6.382,52.247],[6.411,52.245],[6.417,52.238],[6.418,52.237],[6.466,52.194],[6.495,52.177],[6.519,52.179],[6.558,52.176],[6.586,52.18],[6.592,52.179],[6.597,52.178],[6.601,52.173],[6.602,52.169],[6.602,52.166],[6.606,52.165],[6.61,52.165],[6.646,52.17],[6.654,52.168],[6.663,52.166],[6.667,52.164],[6.669,52.162],[6.671,52.158],[6.672,52.148],[6.672,52.142],[6.662,52.127],[6.76,52.114],[6.771,52.109],[6.772,52.109]]]}},{"type":"Feature","id":"NL-GR","properties":{"id":"NL-GR","countryCode":"NL","isoSubdivision":"NL-GR","name":"Groningen","name_en":"Groningen","name_ko":"흐로닝언","type":"Province","labelLongitude":6.731,"labelLatitude":53.279,"minZoom":8},"geometry":{"type":"MultiPolygon","coordinates":[[[[7.195,53.245],[7.197,53.217],[7.199,53.201],[7.195,53.185],[7.189,53.168],[7.174,53.146],[7.172,53.138],[7.173,53.126],[7.176,53.119],[7.181,53.114],[7.185,53.105],[7.194,53.034],[7.193,52.998],[7.184,52.966],[7.162,52.933],[7.08,52.854],[7.072,52.841],[7.072,52.842],[7.066,52.847],[7.048,52.861],[7.038,52.866],[7.018,52.87],[7.039,52.904],[7.039,52.908],[7.038,52.912],[7.031,52.913],[6.982,52.95],[6.935,52.988],[6.897,53.013],[6.862,53.035],[6.843,53.046],[6.819,53.06],[6.776,53.089],[6.741,53.112],[6.735,53.114],[6.725,53.117],[6.699,53.119],[6.637,53.107],[6.631,53.106],[6.63,53.108],[6.628,53.109],[6.617,53.125],[6.583,53.152],[6.572,53.157],[6.567,53.158],[6.564,53.16],[6.548,53.177],[6.531,53.191],[6.52,53.19],[6.501,53.195],[6.468,53.205],[6.432,53.185],[6.414,53.178],[6.4,53.17],[6.385,53.158],[6.379,53.148],[6.378,53.146],[6.375,53.141],[6.362,53.125],[6.358,53.118],[6.354,53.108],[6.338,53.091],[6.33,53.088],[6.31,53.092],[6.301,53.095],[6.265,53.109],[6.248,53.113],[6.205,53.115],[6.196,53.117],[6.183,53.124],[6.174,53.131],[6.169,53.153],[6.176,53.174],[6.186,53.187],[6.223,53.217],[6.226,53.221],[6.226,53.223],[6.225,53.226],[6.223,53.229],[6.221,53.232],[6.22,53.236],[6.218,53.241],[6.23,53.255],[6.245,53.271],[6.25,53.284],[6.254,53.288],[6.268,53.298],[6.284,53.307],[6.287,53.309],[6.287,53.31],[6.28,53.311],[6.278,53.312],[6.276,53.314],[6.277,53.323],[6.279,53.336],[6.277,53.341],[6.274,53.345],[6.255,53.348],[6.252,53.348],[6.249,53.348],[6.244,53.345],[6.24,53.344],[6.237,53.344],[6.234,53.345],[6.231,53.346],[6.226,53.349],[6.221,53.354],[6.217,53.356],[6.213,53.357],[6.194,53.361],[6.18,53.364],[6.17,53.386],[6.175,53.398],[6.186,53.411],[6.274,53.413],[6.284,53.411],[6.302,53.401],[6.312,53.399],[6.32,53.401],[6.346,53.413],[6.494,53.439],[6.73,53.461],[6.829,53.451],[6.85,53.445],[6.867,53.434],[6.901,53.352],[6.906,53.35],[6.93,53.34],[6.932,53.338],[6.937,53.335],[6.942,53.331],[6.949,53.326],[6.98,53.32],[7.02,53.306],[7.038,53.31],[7.046,53.304],[7.058,53.302],[7.07,53.304],[7.079,53.31],[7.085,53.31],[7.085,53.303],[7.077,53.299],[7.073,53.296],[7.074,53.291],[7.079,53.283],[7.081,53.267],[7.111,53.256],[7.183,53.245],[7.195,53.245]]],[[[6.441,53.557],[6.455,53.558],[6.51,53.544],[6.506,53.544],[6.502,53.543],[6.499,53.54],[6.496,53.536],[6.461,53.543],[6.443,53.55],[6.441,53.557]]]]}},{"type":"Feature","id":"NL-LI","properties":{"id":"NL-LI","countryCode":"NL","isoSubdivision":"NL-LI","name":"Limburg","name_en":"Limburg","name_ko":"림뷔르흐","type":"Province","labelLongitude":5.932,"labelLatitude":51.225,"minZoom":8},"geometry":{"type":"Polygon","coordinates":[[[5.946,51.746],[5.94,51.743],[5.939,51.732],[5.949,51.729],[5.978,51.73],[5.99,51.726],[6.012,51.716],[6.022,51.71],[6.009,51.681],[6.031,51.663],[6.099,51.644],[6.088,51.622],[6.082,51.608],[6.086,51.596],[6.153,51.538],[6.193,51.509],[6.2,51.477],[6.205,51.458],[6.202,51.439],[6.194,51.417],[6.193,51.399],[6.208,51.388],[6.202,51.379],[6.199,51.357],[6.194,51.345],[6.184,51.336],[6.158,51.325],[6.148,51.318],[6.097,51.259],[6.075,51.243],[6.065,51.232],[6.057,51.212],[6.054,51.189],[6.061,51.171],[6.084,51.163],[6.134,51.184],[6.157,51.179],[6.149,51.176],[6.126,51.165],[6.147,51.152],[6.132,51.14],[6.075,51.12],[5.983,51.075],[5.969,51.065],[5.95,51.039],[5.938,51.031],[5.92,51.03],[5.906,51.037],[5.894,51.047],[5.88,51.052],[5.852,51.043],[5.858,51.019],[5.874,50.991],[5.875,50.965],[5.888,50.967],[5.914,50.975],[5.928,50.978],[5.942,50.976],[5.968,50.971],[6.004,50.974],[6.006,50.969],[6,50.96],[5.996,50.952],[5.997,50.937],[6,50.929],[6.008,50.924],[6.031,50.915],[6.064,50.908],[6.062,50.904],[6.057,50.898],[6.055,50.891],[6.063,50.871],[6.063,50.863],[6.057,50.853],[6.046,50.844],[6.023,50.845],[6.009,50.84],[6,50.83],[6.001,50.822],[6.004,50.813],[5.998,50.801],[5.984,50.792],[5.969,50.795],[5.973,50.782],[5.981,50.773],[5.991,50.769],[5.997,50.763],[5.995,50.75],[5.975,50.748],[5.902,50.749],[5.891,50.751],[5.88,50.754],[5.793,50.752],[5.783,50.757],[5.762,50.771],[5.752,50.773],[5.744,50.769],[5.733,50.759],[5.728,50.754],[5.717,50.753],[5.707,50.754],[5.688,50.761],[5.699,50.784],[5.7,50.796],[5.685,50.799],[5.663,50.805],[5.657,50.808],[5.641,50.815],[5.624,50.83],[5.622,50.853],[5.694,50.904],[5.706,50.907],[5.718,50.909],[5.722,50.912],[5.735,50.924],[5.753,50.947],[5.764,50.959],[5.754,50.963],[5.745,50.963],[5.722,50.959],[5.762,50.999],[5.778,51.024],[5.764,51.035],[5.766,51.048],[5.771,51.058],[5.78,51.061],[5.791,51.055],[5.799,51.061],[5.804,51.069],[5.812,51.082],[5.809,51.086],[5.807,51.089],[5.805,51.097],[5.816,51.096],[5.827,51.097],[5.837,51.099],[5.846,51.103],[5.823,51.119],[5.826,51.13],[5.841,51.139],[5.838,51.144],[5.829,51.156],[5.812,51.157],[5.781,51.152],[5.768,51.159],[5.747,51.178],[5.731,51.184],[5.718,51.185],[5.676,51.179],[5.659,51.179],[5.648,51.184],[5.639,51.191],[5.625,51.197],[5.568,51.208],[5.551,51.217],[5.552,51.217],[5.568,51.221],[5.592,51.226],[5.601,51.225],[5.608,51.227],[5.615,51.232],[5.621,51.239],[5.63,51.273],[5.648,51.292],[5.655,51.299],[5.676,51.316],[5.773,51.335],[5.844,51.349],[5.875,51.354],[5.898,51.366],[5.934,51.385],[5.91,51.417],[5.876,51.447],[5.853,51.504],[5.838,51.567],[5.874,51.565],[5.912,51.557],[5.924,51.557],[5.951,51.559],[6,51.57],[6.009,51.568],[6.034,51.558],[6.049,51.566],[6.049,51.575],[6.044,51.583],[6.031,51.613],[6.027,51.617],[6.026,51.621],[6.006,51.641],[5.997,51.647],[5.987,51.651],[5.982,51.656],[5.989,51.666],[5.973,51.676],[5.96,51.712],[5.945,51.72],[5.904,51.723],[5.888,51.729],[5.88,51.741],[5.883,51.753],[5.863,51.759],[5.863,51.773],[5.872,51.777],[5.882,51.778],[5.887,51.778],[5.89,51.777],[5.894,51.773],[5.912,51.758],[5.916,51.756],[5.941,51.745],[5.945,51.746],[5.946,51.746]]]}},{"type":"Feature","id":"NL-NB","properties":{"id":"NL-NB","countryCode":"NL","isoSubdivision":"NL-NB","name":"North Brabant","name_en":"North Brabant","name_ko":"노르트브라반트","type":"Province","labelLongitude":5.161,"labelLatitude":51.601,"minZoom":8},"geometry":{"type":"Polygon","coordinates":[[[4.823,51.414],[4.815,51.431],[4.82,51.446],[4.826,51.461],[4.824,51.476],[4.814,51.484],[4.797,51.491],[4.779,51.495],[4.764,51.496],[4.731,51.486],[4.654,51.426],[4.644,51.421],[4.63,51.418],[4.615,51.418],[4.583,51.423],[4.554,51.419],[4.541,51.42],[4.522,51.429],[4.523,51.438],[4.532,51.451],[4.533,51.468],[4.525,51.476],[4.513,51.477],[4.483,51.474],[4.429,51.462],[4.377,51.443],[4.389,51.435],[4.387,51.427],[4.381,51.42],[4.38,51.41],[4.388,51.401],[4.41,51.384],[4.416,51.374],[4.411,51.357],[4.392,51.35],[4.346,51.352],[4.326,51.356],[4.29,51.369],[4.281,51.369],[4.28,51.377],[4.276,51.383],[4.267,51.388],[4.263,51.407],[4.262,51.419],[4.264,51.422],[4.265,51.425],[4.269,51.429],[4.264,51.444],[4.283,51.448],[4.297,51.471],[4.289,51.492],[4.268,51.508],[4.24,51.519],[4.23,51.52],[4.243,51.539],[4.244,51.543],[4.244,51.555],[4.237,51.568],[4.234,51.571],[4.208,51.59],[4.207,51.591],[4.207,51.59],[4.203,51.609],[4.19,51.617],[4.186,51.617],[4.197,51.637],[4.198,51.638],[4.239,51.646],[4.28,51.648],[4.334,51.657],[4.373,51.674],[4.403,51.708],[4.507,51.695],[4.545,51.696],[4.58,51.702],[4.621,51.715],[4.644,51.719],[4.676,51.719],[4.726,51.757],[4.74,51.774],[4.762,51.789],[4.79,51.803],[4.845,51.803],[4.87,51.808],[4.909,51.83],[4.935,51.83],[4.986,51.824],[5.009,51.825],[5.01,51.82],[5.012,51.811],[5.028,51.801],[5.065,51.783],[5.089,51.783],[5.1,51.785],[5.137,51.769],[5.137,51.753],[5.126,51.737],[5.135,51.735],[5.318,51.747],[5.337,51.753],[5.355,51.763],[5.368,51.775],[5.373,51.792],[5.381,51.812],[5.401,51.818],[5.441,51.816],[5.462,51.821],[5.482,51.83],[5.501,51.835],[5.52,51.827],[5.535,51.824],[5.599,51.83],[5.643,51.824],[5.649,51.819],[5.661,51.8],[5.671,51.796],[5.69,51.793],[5.76,51.763],[5.863,51.759],[5.883,51.753],[5.88,51.741],[5.888,51.729],[5.904,51.723],[5.945,51.72],[5.96,51.712],[5.973,51.676],[5.989,51.666],[5.982,51.656],[5.987,51.651],[5.997,51.647],[6.006,51.641],[6.026,51.621],[6.027,51.617],[6.031,51.613],[6.044,51.583],[6.049,51.575],[6.049,51.566],[6.034,51.558],[6.009,51.568],[6,51.57],[5.951,51.559],[5.924,51.557],[5.912,51.557],[5.874,51.565],[5.838,51.567],[5.853,51.504],[5.876,51.447],[5.91,51.417],[5.934,51.385],[5.898,51.366],[5.875,51.354],[5.844,51.349],[5.773,51.335],[5.676,51.316],[5.655,51.299],[5.648,51.292],[5.63,51.273],[5.621,51.239],[5.615,51.232],[5.608,51.227],[5.601,51.225],[5.592,51.226],[5.568,51.221],[5.552,51.217],[5.551,51.217],[5.546,51.22],[5.542,51.243],[5.535,51.262],[5.517,51.277],[5.493,51.287],[5.472,51.288],[5.452,51.282],[5.41,51.264],[5.389,51.259],[5.271,51.262],[5.239,51.257],[5.233,51.256],[5.215,51.259],[5.215,51.294],[5.197,51.308],[5.179,51.31],[5.14,51.307],[5.123,51.313],[5.118,51.32],[5.108,51.342],[5.103,51.351],[5.068,51.375],[5.062,51.384],[5.065,51.406],[5.076,51.422],[5.08,51.439],[5.06,51.462],[5.03,51.474],[5.028,51.477],[5.012,51.474],[5.006,51.468],[5.003,51.459],[4.996,51.447],[4.98,51.431],[4.957,51.411],[4.932,51.396],[4.91,51.392],[4.872,51.403],[4.853,51.406],[4.783,51.408],[4.762,51.413],[4.768,51.425],[4.779,51.426],[4.823,51.414]]]}},{"type":"Feature","id":"NL-NH","properties":{"id":"NL-NH","countryCode":"NL","isoSubdivision":"NL-NH","name":"North Holland","name_en":"North Holland","name_ko":"노르트홀란트","type":"Province","labelLongitude":4.897,"labelLatitude":52.575,"minZoom":8},"geometry":{"type":"MultiPolygon","coordinates":[[[[4.508,52.336],[4.569,52.445],[4.577,52.474],[4.577,52.481],[4.597,52.507],[4.639,52.701],[4.657,52.75],[4.66,52.765],[4.669,52.797],[4.712,52.863],[4.721,52.896],[4.722,52.914],[4.726,52.938],[4.734,52.959],[4.745,52.968],[4.807,52.962],[4.817,52.968],[4.824,52.96],[4.809,52.93],[4.833,52.911],[4.874,52.904],[4.913,52.906],[4.936,52.913],[4.978,52.936],[4.999,52.94],[5.039,52.944],[5.078,52.954],[5.18,53.009],[5.18,53.008],[5.182,53.005],[5.186,52.995],[5.187,52.992],[5.188,52.991],[5.26,52.865],[5.37,52.79],[5.37,52.789],[5.359,52.689],[5.309,52.699],[5.278,52.686],[5.262,52.649],[5.095,52.582],[5.119,52.516],[5.168,52.472],[5.194,52.429],[5.16,52.429],[5.103,52.396],[5.105,52.364],[5.16,52.328],[5.191,52.323],[5.228,52.325],[5.249,52.325],[5.283,52.318],[5.368,52.283],[5.366,52.283],[5.332,52.279],[5.276,52.279],[5.268,52.277],[5.264,52.276],[5.246,52.257],[5.225,52.226],[5.222,52.214],[5.216,52.207],[5.209,52.197],[5.202,52.187],[5.182,52.179],[5.127,52.181],[5.089,52.177],[5.071,52.171],[5.045,52.168],[5.04,52.189],[5.034,52.205],[5.042,52.225],[5.058,52.237],[5.053,52.244],[5.051,52.246],[5.049,52.248],[5.046,52.249],[5.043,52.251],[5.04,52.252],[5.038,52.254],[5.036,52.256],[5.035,52.26],[5.034,52.263],[5.03,52.267],[5.035,52.272],[5.066,52.279],[5.025,52.282],[5.009,52.277],[5.004,52.282],[5,52.284],[4.994,52.285],[4.986,52.285],[4.962,52.277],[4.942,52.275],[4.933,52.275],[4.928,52.274],[4.925,52.272],[4.911,52.256],[4.872,52.252],[4.85,52.246],[4.835,52.236],[4.814,52.23],[4.768,52.221],[4.736,52.208],[4.726,52.211],[4.722,52.216],[4.718,52.231],[4.715,52.232],[4.71,52.235],[4.669,52.226],[4.648,52.22],[4.606,52.213],[4.581,52.213],[4.574,52.214],[4.569,52.215],[4.559,52.221],[4.548,52.22],[4.547,52.228],[4.559,52.241],[4.564,52.254],[4.565,52.264],[4.566,52.268],[4.568,52.271],[4.61,52.313],[4.587,52.317],[4.566,52.31],[4.549,52.313],[4.543,52.314],[4.499,52.326],[4.508,52.336]]],[[[4.893,53.111],[4.893,53.105],[4.913,53.105],[4.906,53.092],[4.893,53.076],[4.865,53.05],[4.818,53.027],[4.796,53],[4.762,52.994],[4.727,53.003],[4.708,53.028],[4.714,53.055],[4.734,53.084],[4.758,53.108],[4.806,53.133],[4.829,53.163],[4.854,53.188],[4.886,53.187],[4.89,53.181],[4.892,53.176],[4.891,53.171],[4.886,53.166],[4.9,53.152],[4.91,53.135],[4.91,53.119],[4.893,53.111]]]]}},{"type":"Feature","id":"NL-OV","properties":{"id":"NL-OV","countryCode":"NL","isoSubdivision":"NL-OV","name":"Overijssel","name_en":"Overijssel","name_ko":"오버레이설","type":"Province","labelLongitude":6.416,"labelLatitude":52.431,"minZoom":8},"geometry":{"type":"Polygon","coordinates":[[[6.719,52.627],[6.702,52.619],[6.71,52.609],[6.708,52.6],[6.704,52.591],[6.704,52.583],[6.711,52.577],[6.744,52.56],[6.688,52.543],[6.672,52.542],[6.684,52.526],[6.688,52.508],[6.689,52.491],[6.695,52.476],[6.715,52.462],[6.741,52.454],[6.82,52.447],[6.872,52.435],[6.9,52.432],[6.926,52.433],[6.951,52.437],[6.961,52.443],[6.967,52.45],[6.973,52.451],[7.034,52.391],[7.048,52.365],[7.04,52.329],[7.02,52.3],[7.012,52.285],[7.012,52.267],[7.021,52.245],[7.027,52.239],[7.029,52.236],[7.026,52.231],[6.982,52.214],[6.971,52.206],[6.948,52.183],[6.928,52.172],[6.885,52.16],[6.865,52.148],[6.843,52.12],[6.831,52.113],[6.772,52.109],[6.771,52.109],[6.76,52.114],[6.662,52.127],[6.672,52.142],[6.672,52.148],[6.671,52.158],[6.669,52.162],[6.667,52.164],[6.663,52.166],[6.654,52.168],[6.646,52.17],[6.61,52.165],[6.606,52.165],[6.602,52.166],[6.602,52.169],[6.601,52.173],[6.597,52.178],[6.592,52.179],[6.586,52.18],[6.558,52.176],[6.519,52.179],[6.495,52.177],[6.466,52.194],[6.418,52.237],[6.417,52.238],[6.411,52.245],[6.382,52.247],[6.347,52.238],[6.332,52.231],[6.323,52.229],[6.259,52.229],[6.189,52.237],[6.18,52.238],[6.177,52.237],[6.167,52.232],[6.16,52.225],[6.158,52.225],[6.154,52.226],[6.146,52.23],[6.143,52.233],[6.142,52.235],[6.142,52.237],[6.146,52.244],[6.144,52.249],[6.139,52.251],[6.128,52.254],[6.124,52.256],[6.122,52.259],[6.124,52.263],[6.125,52.271],[6.107,52.3],[6.086,52.306],[6.081,52.309],[6.071,52.318],[6.068,52.322],[6.069,52.329],[6.078,52.351],[6.087,52.359],[6.087,52.364],[6.082,52.371],[6.084,52.372],[6.087,52.373],[6.12,52.38],[6.135,52.404],[6.136,52.416],[6.135,52.419],[6.133,52.421],[6.112,52.44],[6.104,52.452],[6.095,52.468],[6.089,52.474],[6.082,52.478],[6.064,52.489],[6.056,52.499],[6.05,52.505],[6.043,52.508],[6.031,52.511],[6.002,52.502],[5.97,52.485],[5.939,52.479],[5.931,52.481],[5.925,52.484],[5.904,52.509],[5.891,52.52],[5.881,52.521],[5.867,52.522],[5.847,52.578],[5.833,52.585],[5.833,52.597],[5.843,52.605],[5.844,52.605],[5.895,52.619],[5.908,52.62],[5.914,52.618],[5.93,52.616],[5.94,52.617],[5.988,52.627],[6.02,52.638],[5.998,52.654],[5.978,52.66],[5.938,52.668],[5.929,52.67],[5.927,52.672],[5.928,52.673],[5.936,52.678],[5.94,52.683],[5.945,52.689],[5.938,52.714],[5.923,52.74],[5.916,52.747],[5.905,52.756],[5.858,52.779],[5.785,52.804],[5.822,52.815],[5.834,52.809],[5.838,52.808],[5.866,52.805],[5.872,52.805],[5.879,52.806],[5.909,52.817],[5.914,52.82],[5.918,52.824],[5.922,52.828],[5.924,52.831],[5.928,52.833],[5.933,52.835],[5.953,52.838],[5.957,52.84],[5.959,52.842],[5.962,52.841],[5.967,52.84],[5.979,52.829],[5.988,52.824],[5.993,52.823],[6.032,52.821],[6.047,52.831],[6.048,52.833],[6.048,52.837],[6.05,52.838],[6.052,52.839],[6.068,52.842],[6.087,52.843],[6.129,52.853],[6.18,52.817],[6.187,52.813],[6.198,52.805],[6.207,52.797],[6.202,52.788],[6.166,52.766],[6.14,52.759],[6.13,52.749],[6.165,52.693],[6.17,52.691],[6.177,52.684],[6.179,52.682],[6.183,52.68],[6.191,52.679],[6.197,52.679],[6.205,52.682],[6.211,52.685],[6.218,52.686],[6.234,52.683],[6.265,52.67],[6.273,52.668],[6.321,52.668],[6.325,52.668],[6.333,52.66],[6.348,52.652],[6.365,52.642],[6.373,52.634],[6.382,52.621],[6.383,52.62],[6.387,52.618],[6.393,52.618],[6.417,52.623],[6.424,52.625],[6.429,52.628],[6.431,52.628],[6.434,52.627],[6.439,52.622],[6.443,52.619],[6.448,52.618],[6.454,52.618],[6.462,52.621],[6.467,52.624],[6.474,52.624],[6.48,52.624],[6.522,52.611],[6.519,52.641],[6.521,52.646],[6.533,52.654],[6.582,52.669],[6.611,52.673],[6.624,52.672],[6.696,52.652],[6.702,52.649],[6.706,52.647],[6.705,52.639],[6.708,52.631],[6.718,52.627],[6.719,52.627]]]}},{"type":"Feature","id":"NL-SX","properties":{"id":"NL-SX","countryCode":"NL","isoSubdivision":"NL-SX","name":"Sint Maarten","name_en":"Sint Maarten","name_ko":"신트마르턴","type":"Principal subdivision","labelLongitude":-63.068,"labelLatitude":18.04,"minZoom":11},"geometry":{"type":"Polygon","coordinates":[[[-63.107,18.062],[-63.086,18.059],[-63.018,18.033],[-63.031,18.019],[-63.098,18.036],[-63.112,18.043],[-63.119,18.052],[-63.107,18.059],[-63.107,18.062]]]}},{"type":"Feature","id":"NL-UT","properties":{"id":"NL-UT","countryCode":"NL","isoSubdivision":"NL-UT","name":"Utrecht","name_en":"Utrecht","name_ko":"위트레흐트","type":"Province","labelLongitude":5.194,"labelLatitude":52.075,"minZoom":8},"geometry":{"type":"Polygon","coordinates":[[[5.409,52.268],[5.409,52.267],[5.403,52.248],[5.399,52.231],[5.397,52.22],[5.402,52.214],[5.439,52.196],[5.437,52.186],[5.433,52.182],[5.427,52.179],[5.425,52.177],[5.424,52.175],[5.43,52.169],[5.454,52.164],[5.475,52.161],[5.482,52.158],[5.49,52.149],[5.494,52.147],[5.502,52.144],[5.51,52.139],[5.513,52.136],[5.513,52.133],[5.508,52.127],[5.508,52.12],[5.509,52.117],[5.509,52.115],[5.508,52.113],[5.498,52.114],[5.49,52.104],[5.484,52.093],[5.481,52.09],[5.476,52.086],[5.469,52.082],[5.47,52.08],[5.472,52.078],[5.5,52.07],[5.509,52.072],[5.52,52.077],[5.523,52.078],[5.527,52.078],[5.531,52.08],[5.535,52.082],[5.539,52.087],[5.541,52.091],[5.541,52.095],[5.537,52.102],[5.553,52.105],[5.562,52.085],[5.563,52.079],[5.565,52.073],[5.563,52.049],[5.572,52.019],[5.585,52.005],[5.605,51.991],[5.612,51.982],[5.616,51.978],[5.618,51.974],[5.62,51.969],[5.619,51.953],[5.616,51.948],[5.582,51.953],[5.505,51.982],[5.462,51.988],[5.449,51.986],[5.43,51.977],[5.42,51.974],[5.409,51.974],[5.383,51.98],[5.361,51.977],[5.331,51.963],[5.311,51.96],[5.254,51.979],[5.239,51.977],[5.221,51.968],[5.197,51.966],[5.183,51.967],[5.173,51.968],[5.154,51.974],[5.145,51.981],[5.131,51.996],[5.119,52.002],[5.105,52.004],[5.096,52.001],[5.087,51.997],[5.064,51.993],[5.055,51.989],[5.04,51.977],[5.03,51.974],[4.989,51.98],[4.987,51.979],[4.955,51.967],[4.927,51.949],[4.917,51.947],[4.894,51.948],[4.887,51.941],[4.865,51.962],[4.833,51.987],[4.824,51.997],[4.828,52],[4.834,52.001],[4.841,52.003],[4.854,52.008],[4.85,52.02],[4.804,52.016],[4.799,52.023],[4.831,52.053],[4.871,52.065],[4.878,52.071],[4.833,52.072],[4.82,52.109],[4.805,52.112],[4.791,52.12],[4.797,52.124],[4.821,52.14],[4.826,52.14],[4.831,52.141],[4.834,52.14],[4.838,52.139],[4.843,52.138],[4.859,52.133],[4.863,52.134],[4.865,52.136],[4.866,52.138],[4.864,52.141],[4.858,52.152],[4.854,52.163],[4.863,52.168],[4.814,52.194],[4.792,52.199],[4.786,52.203],[4.781,52.207],[4.768,52.221],[4.814,52.23],[4.835,52.236],[4.85,52.246],[4.872,52.252],[4.911,52.256],[4.925,52.272],[4.928,52.274],[4.933,52.275],[4.942,52.275],[4.962,52.277],[4.986,52.285],[4.994,52.285],[5,52.284],[5.004,52.282],[5.009,52.277],[5.025,52.282],[5.066,52.279],[5.035,52.272],[5.03,52.267],[5.034,52.263],[5.035,52.26],[5.036,52.256],[5.038,52.254],[5.04,52.252],[5.043,52.251],[5.046,52.249],[5.049,52.248],[5.051,52.246],[5.053,52.244],[5.058,52.237],[5.042,52.225],[5.034,52.205],[5.04,52.189],[5.045,52.168],[5.071,52.171],[5.089,52.177],[5.127,52.181],[5.182,52.179],[5.202,52.187],[5.209,52.197],[5.216,52.207],[5.222,52.214],[5.225,52.226],[5.246,52.257],[5.264,52.276],[5.268,52.277],[5.276,52.279],[5.332,52.279],[5.366,52.283],[5.407,52.268],[5.409,52.268]]]}},{"type":"Feature","id":"NL-ZE","properties":{"id":"NL-ZE","countryCode":"NL","isoSubdivision":"NL-ZE","name":"Zeeland","name_en":"Zeeland","name_ko":"제일란트","type":"Province","labelLongitude":3.785,"labelLatitude":51.284,"minZoom":8},"geometry":{"type":"MultiPolygon","coordinates":[[[[3.454,51.236],[3.422,51.238],[3.399,51.245],[3.392,51.247],[3.367,51.263],[3.353,51.289],[3.354,51.312],[3.358,51.337],[3.349,51.375],[3.511,51.408],[3.526,51.416],[3.541,51.417],[3.605,51.391],[3.702,51.374],[3.734,51.356],[3.756,51.35],[3.796,51.35],[3.834,51.343],[3.858,51.345],[3.956,51.372],[3.969,51.382],[3.975,51.402],[3.984,51.41],[4.006,51.41],[4.029,51.404],[4.043,51.399],[4.05,51.392],[4.061,51.377],[4.07,51.371],[4.081,51.368],[4.105,51.366],[4.115,51.361],[4.122,51.359],[4.157,51.358],[4.174,51.374],[4.18,51.377],[4.2,51.376],[4.221,51.368],[4.221,51.364],[4.214,51.341],[4.208,51.331],[4.169,51.297],[4.119,51.272],[3.995,51.233],[3.949,51.211],[3.927,51.206],[3.809,51.205],[3.796,51.209],[3.781,51.22],[3.78,51.23],[3.781,51.241],[3.776,51.255],[3.757,51.262],[3.635,51.288],[3.61,51.29],[3.585,51.29],[3.545,51.284],[3.529,51.283],[3.514,51.281],[3.503,51.274],[3.502,51.262],[3.504,51.25],[3.501,51.24],[3.454,51.236]]],[[[4.281,51.369],[4.261,51.369],[4.257,51.373],[4.249,51.384],[4.246,51.396],[4.247,51.407],[4.245,51.414],[4.235,51.419],[4.223,51.409],[4.201,51.405],[4.111,51.407],[4.09,51.411],[4.07,51.419],[4.015,51.449],[3.999,51.453],[3.957,51.456],[3.943,51.45],[3.913,51.415],[3.902,51.405],[3.887,51.4],[3.851,51.397],[3.838,51.392],[3.827,51.391],[3.816,51.394],[3.789,51.412],[3.729,51.431],[3.69,51.454],[3.674,51.455],[3.633,51.446],[3.61,51.445],[3.553,51.453],[3.535,51.459],[3.52,51.473],[3.507,51.489],[3.495,51.501],[3.462,51.519],[3.451,51.53],[3.447,51.546],[3.458,51.555],[3.56,51.595],[3.829,51.613],[3.851,51.611],[3.866,51.605],[3.882,51.596],[3.896,51.584],[3.906,51.569],[3.895,51.567],[3.878,51.559],[3.872,51.556],[3.872,51.549],[3.967,51.543],[4.016,51.531],[4.057,51.508],[4.07,51.493],[4.09,51.458],[4.105,51.446],[4.129,51.441],[4.181,51.446],[4.2,51.44],[4.22,51.444],[4.253,51.443],[4.264,51.444],[4.269,51.429],[4.265,51.425],[4.264,51.422],[4.262,51.419],[4.263,51.407],[4.267,51.388],[4.276,51.383],[4.28,51.377],[4.281,51.369]]],[[[4.23,51.52],[4.195,51.524],[4.153,51.535],[4.138,51.536],[4.106,51.534],[4.091,51.535],[4.067,51.544],[3.988,51.59],[4.041,51.606],[4.068,51.611],[4.157,51.608],[4.183,51.603],[4.207,51.591],[4.208,51.59],[4.234,51.571],[4.237,51.568],[4.244,51.555],[4.244,51.543],[4.243,51.539],[4.23,51.52]]],[[[4.186,51.617],[4.147,51.618],[4.136,51.62],[4.126,51.625],[4.118,51.631],[4.113,51.639],[4.111,51.647],[4.114,51.649],[4.131,51.658],[4.153,51.653],[4.174,51.643],[4.197,51.638],[4.198,51.638],[4.197,51.637],[4.186,51.617]]],[[[4.037,51.686],[4.078,51.679],[4.097,51.67],[4.099,51.654],[4.089,51.644],[4.073,51.637],[4.055,51.633],[3.978,51.623],[3.96,51.624],[3.923,51.632],[3.902,51.642],[3.892,51.656],[3.886,51.668],[3.87,51.676],[3.831,51.686],[3.824,51.69],[3.818,51.695],[3.809,51.7],[3.796,51.7],[3.771,51.682],[3.765,51.678],[3.721,51.677],[3.7,51.681],[3.687,51.693],[3.689,51.725],[3.726,51.74],[3.81,51.747],[3.814,51.748],[3.831,51.747],[3.844,51.743],[3.94,51.741],[3.962,51.738],[3.978,51.73],[4.015,51.702],[4.02,51.696],[4.027,51.691],[4.037,51.686]]]]}},{"type":"Feature","id":"NL-ZH","properties":{"id":"NL-ZH","countryCode":"NL","isoSubdivision":"NL-ZH","name":"South Holland","name_en":"South Holland","name_ko":"자위트홀란트","type":"Province","labelLongitude":4.523,"labelLatitude":52.008,"minZoom":8},"geometry":{"type":"Polygon","coordinates":[[[4.111,51.647],[4.11,51.651],[4.11,51.662],[4.113,51.671],[4.126,51.68],[4.143,51.684],[4.177,51.686],[4.166,51.693],[4.141,51.704],[4.072,51.717],[4.057,51.73],[4.051,51.763],[4.034,51.784],[4.01,51.798],[3.981,51.81],[3.963,51.801],[3.937,51.796],[3.911,51.796],[3.892,51.793],[3.888,51.789],[3.881,51.788],[3.872,51.788],[3.862,51.816],[3.891,51.828],[3.954,51.84],[3.963,51.847],[3.982,51.848],[4.016,51.844],[4.043,51.834],[4.048,51.834],[4.055,51.834],[4.065,51.837],[4.078,51.844],[4.07,51.853],[4.045,51.874],[4.038,51.878],[4.032,51.882],[4.03,51.888],[4.032,51.896],[4.037,51.902],[4.041,51.906],[4.043,51.909],[4.04,51.924],[4.021,51.963],[4.01,51.98],[4.016,51.988],[4.022,51.994],[4.069,51.988],[4.108,51.992],[4.142,52.006],[4.285,52.113],[4.407,52.223],[4.508,52.336],[4.499,52.326],[4.543,52.314],[4.549,52.313],[4.566,52.31],[4.587,52.317],[4.61,52.313],[4.568,52.271],[4.566,52.268],[4.565,52.264],[4.564,52.254],[4.559,52.241],[4.547,52.228],[4.548,52.22],[4.559,52.221],[4.569,52.215],[4.574,52.214],[4.581,52.213],[4.606,52.213],[4.648,52.22],[4.669,52.226],[4.71,52.235],[4.715,52.232],[4.718,52.231],[4.722,52.216],[4.726,52.211],[4.736,52.208],[4.768,52.221],[4.781,52.207],[4.786,52.203],[4.792,52.199],[4.814,52.194],[4.863,52.168],[4.854,52.163],[4.858,52.152],[4.864,52.141],[4.866,52.138],[4.865,52.136],[4.863,52.134],[4.859,52.133],[4.843,52.138],[4.838,52.139],[4.834,52.14],[4.831,52.141],[4.826,52.14],[4.821,52.14],[4.797,52.124],[4.791,52.12],[4.805,52.112],[4.82,52.109],[4.833,52.072],[4.878,52.071],[4.871,52.065],[4.831,52.053],[4.799,52.023],[4.804,52.016],[4.85,52.02],[4.854,52.008],[4.841,52.003],[4.834,52.001],[4.828,52],[4.824,51.997],[4.833,51.987],[4.865,51.962],[4.887,51.941],[4.894,51.948],[4.917,51.947],[4.927,51.949],[4.955,51.967],[4.987,51.979],[4.989,51.98],[5.03,51.974],[5.04,51.977],[5.055,51.989],[5.064,51.993],[5.087,51.997],[5.096,52.001],[5.105,52.004],[5.119,52.002],[5.131,51.996],[5.145,51.981],[5.154,51.974],[5.173,51.968],[5.183,51.967],[5.158,51.935],[5.153,51.93],[5.118,51.892],[5.12,51.886],[5.121,51.881],[5.121,51.878],[5.121,51.876],[5.11,51.872],[5.033,51.852],[5.004,51.851],[5.011,51.845],[5.011,51.843],[5.008,51.835],[5.009,51.825],[4.986,51.824],[4.935,51.83],[4.909,51.83],[4.87,51.808],[4.845,51.803],[4.79,51.803],[4.762,51.789],[4.74,51.774],[4.726,51.757],[4.676,51.719],[4.644,51.719],[4.621,51.715],[4.58,51.702],[4.545,51.696],[4.507,51.695],[4.403,51.708],[4.373,51.674],[4.334,51.657],[4.28,51.648],[4.239,51.646],[4.198,51.638],[4.197,51.638],[4.174,51.643],[4.153,51.653],[4.131,51.658],[4.114,51.649],[4.111,51.647]]]}}]}
