{"type":"FeatureCollection","features":[{"type":"Feature","id":"NP-BA","properties":{"id":"NP-BA","countryCode":"NP","isoSubdivision":"NP-BA","name":"Bagmati Zone","name_en":"Bagmati Zone","name_ko":"바그마티 구","type":"District","labelLongitude":85.349,"labelLatitude":27.849,"minZoom":7.7},"geometry":{"type":"Polygon","coordinates":[[[85.082,28.332],[85.08,28.319],[85.087,28.304],[85.109,28.292],[85.134,28.292],[85.155,28.301],[85.174,28.304],[85.206,28.278],[85.224,28.272],[85.243,28.268],[85.26,28.267],[85.273,28.27],[85.301,28.281],[85.313,28.283],[85.326,28.277],[85.335,28.269],[85.345,28.261],[85.363,28.26],[85.378,28.266],[85.401,28.289],[85.415,28.296],[85.432,28.297],[85.447,28.292],[85.476,28.279],[85.498,28.283],[85.521,28.283],[85.544,28.28],[85.565,28.275],[85.586,28.263],[85.599,28.251],[85.612,28.251],[85.639,28.288],[85.647,28.294],[85.668,28.301],[85.675,28.306],[85.676,28.315],[85.676,28.325],[85.679,28.333],[85.693,28.335],[85.698,28.313],[85.7,28.269],[85.716,28.243],[85.734,28.222],[85.757,28.203],[85.783,28.188],[85.827,28.17],[85.848,28.159],[85.863,28.143],[85.867,28.133],[85.872,28.111],[85.889,28.09],[85.891,28.081],[85.89,28.071],[85.89,28.059],[85.898,28.036],[85.909,28.022],[85.944,27.995],[85.957,27.976],[85.956,27.957],[85.952,27.937],[85.951,27.916],[85.963,27.891],[85.98,27.885],[86.026,27.89],[86.051,27.888],[86.055,27.888],[86.036,27.843],[86.032,27.819],[86.035,27.784],[86.034,27.762],[86.031,27.752],[86.024,27.747],[86.002,27.743],[85.996,27.741],[85.986,27.732],[85.972,27.715],[85.956,27.683],[85.944,27.665],[85.932,27.651],[85.893,27.613],[85.845,27.56],[85.841,27.546],[85.83,27.527],[85.823,27.518],[85.812,27.507],[85.807,27.501],[85.807,27.5],[85.812,27.486],[85.814,27.48],[85.819,27.439],[85.795,27.416],[85.737,27.407],[85.725,27.401],[85.72,27.394],[85.719,27.385],[85.717,27.375],[85.707,27.362],[85.696,27.357],[85.683,27.356],[85.539,27.364],[85.532,27.366],[85.526,27.369],[85.504,27.385],[85.479,27.406],[85.454,27.417],[85.424,27.425],[85.392,27.43],[85.349,27.437],[85.286,27.469],[85.272,27.48],[85.263,27.49],[85.258,27.499],[85.258,27.501],[85.255,27.524],[85.252,27.53],[85.249,27.535],[85.244,27.541],[85.239,27.548],[85.236,27.554],[85.234,27.565],[85.226,27.628],[85.213,27.665],[85.208,27.673],[85.202,27.678],[85.191,27.682],[85.143,27.691],[85.091,27.712],[85.074,27.716],[85.061,27.718],[84.992,27.715],[84.981,27.713],[84.954,27.705],[84.933,27.704],[84.91,27.699],[84.889,27.686],[84.873,27.682],[84.861,27.681],[84.798,27.687],[84.786,27.718],[84.781,27.724],[84.774,27.731],[84.763,27.736],[84.69,27.738],[84.673,27.741],[84.669,27.745],[84.668,27.75],[84.673,27.757],[84.672,27.763],[84.669,27.771],[84.656,27.787],[84.649,27.797],[84.645,27.805],[84.644,27.812],[84.645,27.817],[84.647,27.823],[84.652,27.835],[84.655,27.842],[84.665,27.836],[84.668,27.833],[84.673,27.828],[84.678,27.822],[84.684,27.816],[84.692,27.812],[84.7,27.809],[84.71,27.808],[84.719,27.808],[84.727,27.809],[84.735,27.811],[84.742,27.818],[84.748,27.828],[84.751,27.848],[84.75,27.863],[84.745,27.877],[84.726,27.907],[84.722,27.916],[84.72,27.923],[84.721,27.934],[84.727,27.943],[84.757,27.97],[84.772,27.985],[84.823,28.073],[84.831,28.082],[84.841,28.09],[84.859,28.1],[84.879,28.107],[84.905,28.112],[84.916,28.117],[84.926,28.128],[84.938,28.149],[84.955,28.205],[84.965,28.221],[84.978,28.236],[85.019,28.264],[85.029,28.274],[85.049,28.309],[85.063,28.323],[85.082,28.332]]]}},{"type":"Feature","id":"NP-BH","properties":{"id":"NP-BH","countryCode":"NP","isoSubdivision":"NP-BH","name":"Bheri Zone","name_en":"Bheri Zone","name_ko":"베리 구","type":"District","labelLongitude":81.78,"labelLatitude":28.45,"minZoom":7.7},"geometry":{"type":"Polygon","coordinates":[[[82.05,27.906],[82.027,27.912],[81.976,27.917],[81.946,27.905],[81.906,27.863],[81.883,27.849],[81.856,27.851],[81.828,27.866],[81.8,27.884],[81.75,27.91],[81.71,27.948],[81.689,27.963],[81.665,27.971],[81.615,27.981],[81.595,27.995],[81.582,28.013],[81.562,28.026],[81.473,28.066],[81.458,28.077],[81.454,28.087],[81.453,28.097],[81.448,28.111],[81.435,28.13],[81.417,28.147],[81.396,28.161],[81.373,28.168],[81.358,28.166],[81.351,28.157],[81.347,28.144],[81.338,28.133],[81.324,28.126],[81.307,28.124],[81.296,28.128],[81.299,28.143],[81.283,28.146],[81.277,28.154],[81.281,28.162],[81.296,28.167],[81.282,28.192],[81.224,28.251],[81.211,28.279],[81.19,28.338],[81.17,28.361],[81.146,28.372],[81.047,28.389],[81.048,28.406],[81.059,28.444],[81.07,28.458],[81.104,28.476],[81.116,28.484],[81.256,28.619],[81.262,28.627],[81.272,28.636],[81.278,28.659],[81.28,28.679],[81.277,28.697],[81.245,28.762],[81.234,28.793],[81.228,28.826],[81.218,28.841],[81.205,28.853],[81.19,28.86],[81.194,28.847],[81.207,28.825],[81.211,28.812],[81.17,28.832],[81.161,28.83],[81.148,28.857],[81.136,28.866],[81.122,28.864],[81.109,28.857],[81.095,28.854],[81.078,28.863],[81.042,28.89],[80.992,28.935],[80.997,28.947],[81.014,28.961],[81.035,28.972],[81.054,28.976],[81.074,28.974],[81.096,28.967],[81.136,28.949],[81.187,28.913],[81.208,28.908],[81.272,28.916],[81.294,28.915],[81.305,28.911],[81.328,28.897],[81.338,28.894],[81.426,28.904],[81.442,28.898],[81.459,28.881],[81.473,28.852],[81.517,28.808],[81.513,28.777],[81.524,28.771],[81.526,28.765],[81.513,28.757],[81.513,28.75],[81.523,28.749],[81.532,28.751],[81.548,28.757],[81.572,28.77],[81.569,28.781],[81.556,28.793],[81.548,28.808],[81.542,28.833],[81.528,28.853],[81.493,28.887],[81.441,28.956],[81.427,28.963],[81.415,28.981],[81.408,29.003],[81.41,29.024],[81.457,29.071],[81.468,29.079],[81.483,29.083],[81.549,29.126],[81.574,29.099],[81.576,29.074],[81.574,29.064],[81.574,29.057],[81.58,29.052],[81.599,29.047],[81.634,29.041],[81.716,29.016],[81.77,29.008],[81.788,29.004],[81.803,28.996],[81.825,28.987],[81.845,28.981],[81.925,28.975],[82.015,29.011],[82.035,29.005],[82.039,29.002],[82.042,29.001],[82.043,29],[82.049,28.989],[82.055,28.983],[82.064,28.978],[82.077,28.979],[82.089,28.983],[82.104,28.998],[82.11,29.009],[82.116,29.017],[82.124,29.023],[82.134,29.029],[82.14,29.036],[82.152,29.053],[82.16,29.06],[82.169,29.066],[82.268,29.105],[82.284,29.108],[82.359,29.106],[82.405,29.088],[82.409,29.076],[82.41,29.067],[82.41,29.058],[82.408,29.048],[82.406,29.041],[82.403,29.034],[82.4,29.023],[82.401,29.017],[82.403,29.012],[82.407,29.006],[82.413,29.002],[82.434,28.995],[82.442,28.993],[82.451,28.993],[82.462,28.996],[82.471,29],[82.475,29.003],[82.485,29.009],[82.507,29.007],[82.568,28.985],[82.522,28.948],[82.509,28.922],[82.505,28.908],[82.497,28.89],[82.484,28.877],[82.375,28.801],[82.317,28.77],[82.306,28.76],[82.269,28.712],[82.249,28.694],[82.237,28.684],[82.219,28.675],[82.213,28.669],[82.206,28.661],[82.186,28.625],[82.16,28.613],[82.117,28.611],[82.102,28.613],[82.089,28.616],[82.044,28.632],[82.008,28.594],[82.001,28.579],[81.997,28.563],[81.998,28.555],[82.014,28.525],[82.018,28.509],[82.019,28.488],[82.015,28.475],[82.009,28.464],[82.003,28.458],[81.998,28.455],[81.973,28.446],[81.964,28.442],[81.957,28.434],[81.956,28.427],[81.959,28.418],[81.965,28.412],[81.971,28.403],[81.974,28.391],[81.974,28.354],[81.981,28.345],[82.042,28.323],[82.062,28.302],[82.073,28.28],[82.095,28.248],[82.042,28.224],[82.028,28.188],[82.015,28.169],[82.013,28.16],[82.017,28.149],[82.025,28.14],[82.056,28.119],[82.065,28.111],[82.081,28.092],[82.088,28.086],[82.097,28.084],[82.105,28.084],[82.114,28.082],[82.122,28.078],[82.168,28.041],[82.176,28.028],[82.181,28.015],[82.181,27.999],[82.179,27.978],[82.178,27.972],[82.176,27.967],[82.173,27.963],[82.166,27.958],[82.16,27.954],[82.15,27.95],[82.129,27.947],[82.12,27.946],[82.102,27.948],[82.097,27.948],[82.091,27.946],[82.086,27.944],[82.055,27.917],[82.05,27.906]]]}},{"type":"Feature","id":"NP-DH","properties":{"id":"NP-DH","countryCode":"NP","isoSubdivision":"NP-DH","name":"Dhaulagiri Zone","name_en":"Dhaulagiri Zone","name_ko":"다울라기리 구","type":"Administrative Zone","labelLongitude":83.56,"labelLatitude":28.48,"minZoom":7.7},"geometry":{"type":"Polygon","coordinates":[[[83.946,29.292],[83.958,29.289],[83.967,29.285],[83.973,29.277],[83.976,29.264],[83.988,29.27],[84.001,29.273],[84.013,29.27],[84.022,29.26],[84.035,29.248],[84.053,29.25],[84.072,29.257],[84.09,29.257],[84.099,29.247],[84.105,29.22],[84.112,29.209],[84.126,29.206],[84.142,29.208],[84.155,29.207],[84.162,29.193],[84.155,29.176],[84.142,29.16],[84.132,29.144],[84.138,29.125],[84.16,29.105],[84.166,29.098],[84.17,29.089],[84.175,29.057],[84.198,29.045],[84.221,29.039],[84.231,29.026],[84.207,28.941],[84.225,28.914],[84.217,28.911],[84.186,28.904],[84.159,28.889],[84.145,28.885],[84.103,28.88],[84.089,28.875],[84.077,28.867],[84.07,28.861],[84.044,28.842],[84.018,28.827],[84.002,28.822],[83.986,28.82],[83.966,28.823],[83.947,28.822],[83.934,28.818],[83.925,28.81],[83.913,28.791],[83.903,28.781],[83.839,28.732],[83.814,28.721],[83.8,28.714],[83.793,28.707],[83.791,28.702],[83.795,28.692],[83.838,28.649],[83.841,28.641],[83.845,28.627],[83.803,28.593],[83.798,28.584],[83.793,28.569],[83.796,28.545],[83.793,28.53],[83.786,28.518],[83.771,28.502],[83.769,28.501],[83.749,28.477],[83.742,28.463],[83.727,28.421],[83.718,28.411],[83.711,28.405],[83.693,28.396],[83.716,28.361],[83.726,28.328],[83.733,28.317],[83.744,28.304],[83.752,28.286],[83.759,28.277],[83.776,28.262],[83.78,28.253],[83.781,28.228],[83.766,28.197],[83.754,28.189],[83.741,28.176],[83.729,28.157],[83.709,28.134],[83.704,28.126],[83.697,28.103],[83.671,28.046],[83.659,28.029],[83.647,28.019],[83.59,28.004],[83.576,28.03],[83.567,28.033],[83.559,28.032],[83.553,28.034],[83.548,28.045],[83.547,28.056],[83.55,28.061],[83.548,28.069],[83.542,28.075],[83.495,28.11],[83.485,28.116],[83.471,28.121],[83.451,28.124],[83.423,28.126],[83.409,28.129],[83.393,28.14],[83.384,28.149],[83.377,28.159],[83.369,28.167],[83.356,28.175],[83.334,28.185],[83.321,28.189],[83.294,28.19],[83.28,28.194],[83.26,28.204],[83.205,28.247],[83.184,28.254],[83.168,28.259],[83.089,28.246],[83.084,28.273],[83.071,28.289],[83.049,28.307],[82.956,28.371],[82.945,28.398],[82.938,28.406],[82.925,28.417],[82.917,28.426],[82.905,28.45],[82.895,28.458],[82.889,28.468],[82.913,28.5],[82.901,28.509],[82.901,28.517],[82.907,28.527],[82.924,28.542],[82.94,28.548],[82.952,28.549],[82.963,28.548],[82.971,28.552],[82.976,28.562],[82.975,28.57],[82.972,28.577],[82.961,28.589],[82.958,28.596],[82.969,28.604],[82.993,28.614],[83.046,28.627],[83.099,28.648],[83.132,28.689],[83.143,28.709],[83.148,28.737],[83.176,28.733],[83.203,28.725],[83.219,28.724],[83.242,28.724],[83.274,28.72],[83.293,28.72],[83.341,28.729],[83.362,28.736],[83.385,28.747],[83.474,28.777],[83.488,28.793],[83.521,28.876],[83.539,28.904],[83.595,28.967],[83.603,28.974],[83.61,28.983],[83.614,28.998],[83.623,29.075],[83.627,29.087],[83.637,29.099],[83.648,29.107],[83.657,29.118],[83.661,29.126],[83.655,29.16],[83.656,29.161],[83.663,29.175],[83.668,29.192],[83.675,29.209],[83.695,29.226],[83.72,29.234],[83.745,29.234],[83.771,29.232],[83.793,29.235],[83.838,29.254],[83.862,29.26],[83.869,29.263],[83.877,29.277],[83.883,29.282],[83.914,29.289],[83.933,29.292],[83.946,29.292]]]}},{"type":"Feature","id":"NP-GA","properties":{"id":"NP-GA","countryCode":"NP","isoSubdivision":"NP-GA","name":"Gandaki Zone","name_en":"Gandaki Zone","name_ko":"간다키 구","type":"District","labelLongitude":84.303,"labelLatitude":28.329,"minZoom":7.7},"geometry":{"type":"Polygon","coordinates":[[[84.225,28.914],[84.235,28.9],[84.286,28.874],[84.354,28.861],[84.366,28.857],[84.377,28.849],[84.393,28.824],[84.414,28.808],[84.423,28.799],[84.438,28.753],[84.451,28.734],[84.476,28.727],[84.499,28.728],[84.516,28.721],[84.532,28.713],[84.552,28.706],[84.607,28.698],[84.616,28.694],[84.626,28.676],[84.633,28.669],[84.652,28.662],[84.671,28.659],[84.683,28.651],[84.678,28.604],[84.691,28.596],[84.737,28.594],[84.756,28.585],[84.782,28.559],[84.799,28.547],[84.812,28.542],[84.824,28.541],[84.879,28.544],[84.891,28.542],[84.908,28.537],[84.919,28.536],[84.928,28.538],[84.936,28.545],[84.949,28.568],[84.955,28.574],[84.985,28.589],[84.994,28.591],[85.002,28.594],[85.009,28.603],[85.019,28.62],[85.025,28.628],[85.032,28.634],[85.055,28.639],[85.075,28.632],[85.112,28.609],[85.161,28.595],[85.168,28.583],[85.157,28.533],[85.154,28.525],[85.148,28.516],[85.14,28.511],[85.123,28.505],[85.117,28.497],[85.116,28.491],[85.116,28.473],[85.109,28.459],[85.084,28.446],[85.078,28.436],[85.086,28.381],[85.086,28.362],[85.082,28.332],[85.063,28.323],[85.049,28.309],[85.029,28.274],[85.019,28.264],[84.978,28.236],[84.965,28.221],[84.955,28.205],[84.938,28.149],[84.926,28.128],[84.916,28.117],[84.905,28.112],[84.879,28.107],[84.859,28.1],[84.841,28.09],[84.831,28.082],[84.823,28.073],[84.772,27.985],[84.757,27.97],[84.727,27.943],[84.721,27.934],[84.72,27.923],[84.722,27.916],[84.726,27.907],[84.745,27.877],[84.75,27.863],[84.751,27.848],[84.748,27.828],[84.742,27.818],[84.735,27.811],[84.727,27.809],[84.719,27.808],[84.71,27.808],[84.7,27.809],[84.692,27.812],[84.684,27.816],[84.678,27.822],[84.673,27.828],[84.668,27.833],[84.665,27.836],[84.655,27.842],[84.643,27.858],[84.631,27.87],[84.622,27.876],[84.613,27.88],[84.603,27.883],[84.592,27.885],[84.583,27.883],[84.577,27.881],[84.556,27.865],[84.502,27.833],[84.457,27.816],[84.449,27.808],[84.447,27.792],[84.451,27.782],[84.456,27.776],[84.46,27.772],[84.464,27.768],[84.466,27.762],[84.461,27.759],[84.427,27.763],[84.413,27.758],[84.401,27.775],[84.391,27.784],[84.374,27.782],[84.36,27.773],[84.348,27.761],[84.337,27.757],[84.328,27.757],[84.321,27.759],[84.317,27.764],[84.316,27.773],[84.314,27.782],[84.3,27.79],[84.295,27.798],[84.292,27.814],[84.292,27.827],[84.286,27.837],[84.268,27.846],[84.225,27.853],[84.135,27.854],[84.093,27.863],[84.073,27.874],[84.037,27.901],[84.017,27.908],[83.992,27.906],[83.948,27.884],[83.924,27.878],[83.91,27.879],[83.883,27.885],[83.87,27.887],[83.858,27.885],[83.835,27.877],[83.826,27.876],[83.811,27.884],[83.784,27.909],[83.767,27.918],[83.743,27.92],[83.662,27.92],[83.644,27.91],[83.636,27.909],[83.601,27.921],[83.589,27.92],[83.576,27.927],[83.56,27.929],[83.531,27.928],[83.502,27.933],[83.491,27.931],[83.479,27.92],[83.465,27.931],[83.448,27.939],[83.439,27.948],[83.445,27.961],[83.461,27.969],[83.478,27.968],[83.507,27.961],[83.544,27.967],[83.575,27.982],[83.59,28.004],[83.647,28.019],[83.659,28.029],[83.671,28.046],[83.697,28.103],[83.704,28.126],[83.709,28.134],[83.729,28.157],[83.741,28.176],[83.754,28.189],[83.766,28.197],[83.781,28.228],[83.78,28.253],[83.776,28.262],[83.759,28.277],[83.752,28.286],[83.744,28.304],[83.733,28.317],[83.726,28.328],[83.716,28.361],[83.693,28.396],[83.711,28.405],[83.718,28.411],[83.727,28.421],[83.742,28.463],[83.749,28.477],[83.769,28.501],[83.771,28.502],[83.786,28.518],[83.793,28.53],[83.796,28.545],[83.793,28.569],[83.798,28.584],[83.803,28.593],[83.845,28.627],[83.841,28.641],[83.838,28.649],[83.795,28.692],[83.791,28.702],[83.793,28.707],[83.8,28.714],[83.814,28.721],[83.839,28.732],[83.903,28.781],[83.913,28.791],[83.925,28.81],[83.934,28.818],[83.947,28.822],[83.966,28.823],[83.986,28.82],[84.002,28.822],[84.018,28.827],[84.044,28.842],[84.07,28.861],[84.077,28.867],[84.089,28.875],[84.103,28.88],[84.145,28.885],[84.159,28.889],[84.186,28.904],[84.217,28.911],[84.225,28.914]]]}},{"type":"Feature","id":"NP-JA","properties":{"id":"NP-JA","countryCode":"NP","isoSubdivision":"NP-JA","name":"Janakpur Zone","name_en":"Janakpur Zone","name_ko":"자낙푸르 구","type":"Administrative Zone","labelLongitude":85.972,"labelLatitude":27.179,"minZoom":7.7},"geometry":{"type":"Polygon","coordinates":[[[86.156,28.157],[86.176,28.153],[86.186,28.134],[86.187,28.109],[86.181,28.089],[86.172,28.072],[86.174,28.062],[86.182,28.055],[86.189,28.044],[86.196,28.015],[86.203,28.003],[86.218,27.995],[86.239,27.99],[86.259,27.988],[86.278,27.984],[86.295,27.972],[86.318,27.946],[86.328,27.94],[86.338,27.938],[86.346,27.941],[86.354,27.945],[86.363,27.946],[86.372,27.942],[86.406,27.917],[86.425,27.91],[86.439,27.911],[86.475,27.928],[86.497,27.938],[86.51,27.952],[86.517,27.971],[86.535,27.955],[86.565,27.914],[86.572,27.888],[86.571,27.861],[86.577,27.81],[86.586,27.782],[86.587,27.761],[86.59,27.745],[86.586,27.734],[86.581,27.727],[86.574,27.717],[86.566,27.702],[86.556,27.673],[86.546,27.652],[86.535,27.639],[86.522,27.631],[86.499,27.624],[86.477,27.62],[86.468,27.618],[86.461,27.614],[86.428,27.585],[86.413,27.576],[86.363,27.526],[86.274,27.451],[86.259,27.431],[86.242,27.397],[86.233,27.375],[86.231,27.366],[86.231,27.358],[86.232,27.351],[86.242,27.329],[86.243,27.32],[86.241,27.308],[86.236,27.292],[86.21,27.252],[86.21,27.246],[86.226,27.242],[86.282,27.243],[86.314,27.236],[86.329,27.232],[86.338,27.227],[86.344,27.218],[86.352,27.21],[86.356,27.207],[86.388,27.19],[86.392,27.186],[86.394,27.183],[86.388,27.173],[86.358,27.14],[86.331,27.119],[86.331,27.114],[86.334,27.109],[86.339,27.105],[86.343,27.101],[86.348,27.095],[86.357,27.07],[86.364,27.041],[86.365,27.012],[86.361,26.997],[86.355,26.988],[86.313,26.977],[86.287,26.961],[86.258,26.924],[86.234,26.915],[86.224,26.917],[86.211,26.919],[86.185,26.93],[86.175,26.93],[86.167,26.926],[86.153,26.912],[86.149,26.904],[86.146,26.898],[86.146,26.891],[86.147,26.885],[86.155,26.864],[86.158,26.851],[86.158,26.801],[86.159,26.791],[86.161,26.781],[86.166,26.769],[86.172,26.758],[86.19,26.734],[86.196,26.724],[86.199,26.712],[86.198,26.703],[86.194,26.694],[86.148,26.604],[86.147,26.602],[86.146,26.601],[86.145,26.602],[86.122,26.6],[86.116,26.603],[86.111,26.607],[86.042,26.645],[86.011,26.654],[85.976,26.644],[85.952,26.642],[85.935,26.633],[85.866,26.58],[85.845,26.569],[85.829,26.566],[85.822,26.572],[85.82,26.58],[85.82,26.588],[85.818,26.597],[85.81,26.603],[85.8,26.601],[85.79,26.597],[85.781,26.599],[85.727,26.638],[85.713,26.653],[85.702,26.688],[85.71,26.762],[85.702,26.797],[85.688,26.812],[85.609,26.851],[85.599,26.854],[85.519,26.826],[85.476,26.805],[85.44,26.788],[85.422,26.783],[85.403,26.788],[85.386,26.788],[85.369,26.775],[85.355,26.76],[85.354,26.801],[85.356,26.822],[85.365,26.853],[85.38,26.89],[85.413,26.933],[85.419,26.944],[85.422,26.956],[85.424,26.973],[85.422,26.986],[85.42,26.995],[85.418,27.001],[85.416,27.01],[85.416,27.018],[85.418,27.029],[85.422,27.041],[85.437,27.064],[85.5,27.143],[85.507,27.166],[85.509,27.191],[85.511,27.199],[85.513,27.204],[85.516,27.208],[85.517,27.217],[85.517,27.228],[85.511,27.252],[85.506,27.265],[85.5,27.274],[85.495,27.279],[85.489,27.284],[85.481,27.289],[85.457,27.301],[85.448,27.307],[85.443,27.313],[85.44,27.322],[85.44,27.331],[85.442,27.338],[85.458,27.355],[85.504,27.385],[85.526,27.369],[85.532,27.366],[85.539,27.364],[85.683,27.356],[85.696,27.357],[85.707,27.362],[85.717,27.375],[85.719,27.385],[85.72,27.394],[85.725,27.401],[85.737,27.407],[85.795,27.416],[85.819,27.439],[85.814,27.48],[85.812,27.486],[85.807,27.5],[85.807,27.501],[85.812,27.507],[85.823,27.518],[85.83,27.527],[85.841,27.546],[85.845,27.56],[85.893,27.613],[85.932,27.651],[85.944,27.665],[85.956,27.683],[85.972,27.715],[85.986,27.732],[85.996,27.741],[86.002,27.743],[86.024,27.747],[86.031,27.752],[86.034,27.762],[86.035,27.784],[86.032,27.819],[86.036,27.843],[86.055,27.888],[86.062,27.889],[86.076,27.895],[86.107,27.923],[86.113,27.927],[86.112,27.937],[86.107,27.944],[86.101,27.95],[86.096,27.958],[86.095,27.969],[86.098,27.978],[86.098,27.986],[86.089,27.995],[86.079,28.001],[86.078,28.007],[86.08,28.013],[86.08,28.022],[86.084,28.039],[86.085,28.044],[86.082,28.052],[86.07,28.067],[86.069,28.077],[86.156,28.157]]]}},{"type":"Feature","id":"NP-KA","properties":{"id":"NP-KA","countryCode":"NP","isoSubdivision":"NP-KA","name":"Karnali Zone","name_en":"Karnali Zone","name_ko":"카르날리 구","type":"Administrative Zone","labelLongitude":82.464,"labelLatitude":29.474,"minZoom":7.7},"geometry":{"type":"Polygon","coordinates":[[[81.614,30.417],[81.636,30.411],[81.757,30.363],[81.779,30.358],[81.801,30.361],[81.823,30.368],[81.844,30.371],[81.887,30.355],[81.921,30.357],[81.941,30.354],[81.95,30.348],[81.962,30.334],[81.969,30.328],[81.979,30.327],[81.988,30.33],[81.998,30.334],[82.008,30.337],[82.05,30.339],[82.073,30.337],[82.089,30.33],[82.093,30.315],[82.082,30.257],[82.085,30.231],[82.096,30.213],[82.114,30.202],[82.14,30.194],[82.156,30.181],[82.151,30.162],[82.128,30.124],[82.129,30.111],[82.135,30.09],[82.145,30.069],[82.154,30.058],[82.174,30.055],[82.192,30.061],[82.211,30.064],[82.256,30.04],[82.276,30.037],[82.297,30.037],[82.319,30.032],[82.327,30.026],[82.339,30.009],[82.347,30.003],[82.364,30.001],[82.379,30.003],[82.394,30.003],[82.41,29.995],[82.423,29.98],[82.439,29.966],[82.457,29.954],[82.476,29.946],[82.524,29.932],[82.542,29.923],[82.619,29.84],[82.636,29.829],[82.646,29.829],[82.667,29.835],[82.677,29.834],[82.689,29.828],[82.689,29.82],[82.685,29.81],[82.682,29.798],[82.691,29.781],[82.752,29.739],[82.77,29.714],[82.781,29.705],[82.793,29.7],[82.805,29.696],[82.816,29.69],[82.822,29.678],[82.837,29.66],[82.857,29.666],[82.88,29.681],[82.9,29.688],[82.909,29.685],[82.924,29.67],[82.932,29.664],[82.942,29.663],[82.964,29.666],[82.976,29.664],[83.033,29.62],[83.041,29.61],[83.054,29.586],[83.065,29.579],[83.08,29.58],[83.086,29.59],[83.088,29.604],[83.093,29.615],[83.1,29.618],[83.127,29.623],[83.15,29.626],[83.162,29.625],[83.174,29.621],[83.187,29.612],[83.191,29.607],[83.194,29.594],[83.197,29.589],[83.205,29.585],[83.222,29.58],[83.229,29.576],[83.253,29.555],[83.261,29.542],[83.263,29.527],[83.26,29.519],[83.254,29.513],[83.249,29.507],[83.247,29.495],[83.264,29.473],[83.328,29.485],[83.355,29.461],[83.358,29.443],[83.355,29.428],[83.357,29.415],[83.387,29.394],[83.389,29.382],[83.388,29.37],[83.393,29.356],[83.405,29.346],[83.418,29.341],[83.428,29.333],[83.437,29.305],[83.448,29.297],[83.476,29.287],[83.493,29.276],[83.503,29.261],[83.513,29.223],[83.515,29.202],[83.517,29.192],[83.524,29.184],[83.536,29.179],[83.561,29.176],[83.572,29.168],[83.584,29.162],[83.624,29.155],[83.639,29.155],[83.655,29.16],[83.661,29.126],[83.657,29.118],[83.648,29.107],[83.637,29.099],[83.627,29.087],[83.623,29.075],[83.614,28.998],[83.61,28.983],[83.603,28.974],[83.595,28.967],[83.539,28.904],[83.521,28.876],[83.488,28.793],[83.474,28.777],[83.385,28.747],[83.362,28.736],[83.341,28.729],[83.293,28.72],[83.274,28.72],[83.242,28.724],[83.219,28.724],[83.203,28.725],[83.176,28.733],[83.148,28.737],[83.109,28.745],[82.96,28.811],[82.939,28.818],[82.925,28.82],[82.864,28.816],[82.813,28.82],[82.8,28.819],[82.789,28.816],[82.772,28.813],[82.758,28.818],[82.711,28.846],[82.704,28.855],[82.703,28.865],[82.703,28.878],[82.703,28.894],[82.7,28.907],[82.695,28.915],[82.656,28.95],[82.639,28.963],[82.626,28.97],[82.568,28.985],[82.507,29.007],[82.485,29.009],[82.475,29.003],[82.471,29],[82.462,28.996],[82.451,28.993],[82.442,28.993],[82.434,28.995],[82.413,29.002],[82.407,29.006],[82.403,29.012],[82.401,29.017],[82.4,29.023],[82.403,29.034],[82.406,29.041],[82.408,29.048],[82.41,29.058],[82.41,29.067],[82.409,29.076],[82.405,29.088],[82.359,29.106],[82.284,29.108],[82.268,29.105],[82.169,29.066],[82.16,29.06],[82.152,29.053],[82.14,29.036],[82.134,29.029],[82.124,29.023],[82.116,29.017],[82.11,29.009],[82.104,28.998],[82.089,28.983],[82.077,28.979],[82.064,28.978],[82.055,28.983],[82.049,28.989],[82.043,29],[82.042,29.001],[82.039,29.002],[82.035,29.005],[82.015,29.011],[81.925,28.975],[81.845,28.981],[81.825,28.987],[81.803,28.996],[81.788,29.004],[81.77,29.008],[81.716,29.016],[81.634,29.041],[81.599,29.047],[81.58,29.052],[81.574,29.057],[81.574,29.064],[81.576,29.074],[81.574,29.099],[81.549,29.126],[81.535,29.138],[81.522,29.147],[81.493,29.164],[81.485,29.169],[81.481,29.182],[81.478,29.198],[81.487,29.259],[81.478,29.275],[81.474,29.285],[81.474,29.295],[81.478,29.305],[81.488,29.315],[81.518,29.343],[81.534,29.353],[81.575,29.365],[81.589,29.367],[81.609,29.367],[81.616,29.365],[81.623,29.362],[81.649,29.342],[81.659,29.338],[81.672,29.337],[81.689,29.34],[81.724,29.349],[81.73,29.367],[81.719,29.383],[81.709,29.402],[81.705,29.425],[81.706,29.448],[81.709,29.468],[81.715,29.484],[81.725,29.498],[81.765,29.521],[81.781,29.535],[81.787,29.556],[81.788,29.571],[81.787,29.593],[81.783,29.602],[81.778,29.608],[81.758,29.613],[81.753,29.614],[81.737,29.62],[81.724,29.628],[81.713,29.638],[81.703,29.65],[81.697,29.667],[81.696,29.679],[81.696,29.687],[81.724,29.765],[81.729,29.79],[81.731,29.822],[81.734,29.834],[81.737,29.842],[81.743,29.848],[81.756,29.857],[81.764,29.863],[81.77,29.87],[81.773,29.877],[81.776,29.885],[81.775,29.896],[81.771,29.906],[81.76,29.913],[81.747,29.917],[81.708,29.924],[81.692,29.929],[81.679,29.938],[81.666,29.943],[81.649,29.945],[81.574,29.944],[81.562,29.942],[81.551,29.94],[81.53,29.929],[81.505,29.896],[81.499,29.893],[81.494,29.893],[81.486,29.894],[81.477,29.899],[81.456,29.912],[81.451,29.921],[81.451,29.929],[81.454,29.948],[81.454,29.959],[81.452,29.969],[81.448,29.978],[81.444,29.984],[81.439,29.991],[81.429,30.009],[81.423,30.025],[81.42,30.027],[81.414,30.029],[81.392,30.029],[81.359,30.025],[81.35,30.027],[81.342,30.031],[81.329,30.04],[81.32,30.046],[81.299,30.053],[81.277,30.067],[81.268,30.072],[81.272,30.08],[81.276,30.095],[81.275,30.102],[81.266,30.118],[81.267,30.125],[81.278,30.132],[81.293,30.133],[81.31,30.132],[81.322,30.134],[81.338,30.144],[81.35,30.157],[81.357,30.174],[81.362,30.205],[81.374,30.223],[81.378,30.233],[81.377,30.241],[81.371,30.257],[81.369,30.266],[81.368,30.301],[81.372,30.317],[81.382,30.331],[81.387,30.345],[81.385,30.361],[81.388,30.374],[81.407,30.379],[81.426,30.373],[81.463,30.341],[81.483,30.332],[81.509,30.328],[81.521,30.332],[81.532,30.37],[81.537,30.379],[81.544,30.383],[81.563,30.386],[81.577,30.391],[81.582,30.399],[81.585,30.408],[81.592,30.414],[81.614,30.417]]]}},{"type":"Feature","id":"NP-KO","properties":{"id":"NP-KO","countryCode":"NP","isoSubdivision":"NP-KO","name":"Bhojpur","name_en":"Bhojpur","name_ko":"보지푸르 지구","type":"District","labelLongitude":87.323,"labelLatitude":27.094,"minZoom":7.7},"geometry":{"type":"Polygon","coordinates":[[[86.989,27.952],[87.006,27.951],[87.031,27.938],[87.062,27.908],[87.117,27.845],[87.156,27.826],[87.182,27.825],[87.233,27.83],[87.291,27.816],[87.314,27.829],[87.336,27.846],[87.364,27.855],[87.385,27.849],[87.381,27.836],[87.369,27.819],[87.369,27.804],[87.387,27.804],[87.476,27.827],[87.515,27.835],[87.532,27.837],[87.551,27.832],[87.556,27.827],[87.56,27.819],[87.565,27.811],[87.573,27.805],[87.59,27.805],[87.621,27.82],[87.636,27.824],[87.66,27.82],[87.679,27.813],[87.655,27.753],[87.633,27.713],[87.617,27.691],[87.606,27.68],[87.596,27.675],[87.589,27.675],[87.581,27.678],[87.575,27.682],[87.568,27.686],[87.56,27.687],[87.552,27.685],[87.548,27.677],[87.54,27.641],[87.528,27.614],[87.517,27.596],[87.498,27.574],[87.487,27.557],[87.479,27.541],[87.468,27.501],[87.458,27.441],[87.45,27.416],[87.447,27.398],[87.446,27.383],[87.45,27.372],[87.456,27.362],[87.516,27.304],[87.523,27.299],[87.534,27.295],[87.579,27.287],[87.676,27.251],[87.718,27.237],[87.734,27.227],[87.738,27.22],[87.74,27.214],[87.74,27.207],[87.738,27.202],[87.732,27.195],[87.716,27.183],[87.712,27.175],[87.71,27.165],[87.707,27.157],[87.702,27.149],[87.694,27.144],[87.685,27.139],[87.641,27.125],[87.629,27.12],[87.603,27.102],[87.547,27.05],[87.5,26.998],[87.481,26.981],[87.502,26.953],[87.525,26.895],[87.533,26.883],[87.542,26.875],[87.559,26.866],[87.598,26.852],[87.6,26.851],[87.65,26.791],[87.664,26.764],[87.666,26.756],[87.666,26.741],[87.645,26.657],[87.642,26.439],[87.644,26.424],[87.649,26.41],[87.624,26.393],[87.587,26.378],[87.552,26.387],[87.48,26.423],[87.45,26.429],[87.416,26.427],[87.384,26.419],[87.356,26.404],[87.345,26.389],[87.326,26.353],[87.314,26.344],[87.3,26.346],[87.258,26.363],[87.245,26.37],[87.236,26.383],[87.229,26.399],[87.219,26.408],[87.188,26.4],[87.135,26.394],[87.106,26.405],[87.083,26.432],[87.067,26.466],[87.057,26.495],[87.056,26.495],[87.045,26.544],[87.044,26.561],[87.041,26.58],[87.03,26.58],[87.015,26.569],[86.985,26.541],[86.972,26.532],[86.935,26.52],[86.935,26.521],[86.938,26.528],[86.96,26.546],[86.968,26.557],[86.97,26.565],[86.97,26.577],[86.968,26.588],[86.965,26.595],[86.962,26.605],[86.967,26.617],[86.981,26.639],[87.004,26.723],[87.02,26.736],[87.043,26.745],[87.112,26.811],[87.14,26.826],[87.154,26.837],[87.16,26.848],[87.161,26.855],[87.166,26.876],[87.17,26.883],[87.175,26.903],[87.171,26.921],[87.155,26.927],[87.119,26.926],[87.001,26.901],[86.967,26.906],[86.958,27.058],[86.954,27.07],[86.944,27.082],[86.924,27.101],[86.919,27.113],[86.916,27.128],[86.925,27.189],[86.925,27.207],[86.919,27.251],[86.923,27.267],[86.928,27.273],[86.936,27.277],[86.944,27.28],[86.952,27.284],[86.957,27.29],[86.96,27.296],[86.961,27.31],[86.958,27.327],[86.918,27.388],[86.906,27.424],[86.91,27.438],[86.913,27.444],[86.931,27.463],[86.943,27.475],[86.947,27.485],[86.956,27.525],[86.961,27.539],[86.98,27.64],[86.998,27.698],[87,27.708],[87,27.722],[86.992,27.763],[86.994,27.787],[86.999,27.806],[86.999,27.812],[86.998,27.821],[86.991,27.841],[86.98,27.886],[86.982,27.949],[86.982,27.951],[86.989,27.952]]]}},{"type":"Feature","id":"NP-LU","properties":{"id":"NP-LU","countryCode":"NP","isoSubdivision":"NP-LU","name":"Lumbini Zone","name_en":"Lumbini Zone","name_ko":"룸비니 구","type":"Administrative Zone","labelLongitude":83.55,"labelLatitude":27.695,"minZoom":7.7},"geometry":{"type":"Polygon","coordinates":[[[83.922,27.45],[83.9,27.444],[83.854,27.441],[83.834,27.434],[83.843,27.418],[83.871,27.389],[83.874,27.38],[83.878,27.37],[83.877,27.362],[83.868,27.358],[83.862,27.355],[83.855,27.345],[83.853,27.346],[83.848,27.351],[83.802,27.366],[83.663,27.432],[83.59,27.457],[83.481,27.47],[83.387,27.47],[83.361,27.462],[83.356,27.452],[83.354,27.44],[83.356,27.429],[83.371,27.41],[83.37,27.398],[83.363,27.386],[83.341,27.357],[83.324,27.342],[83.305,27.332],[83.282,27.331],[83.259,27.338],[83.249,27.348],[83.243,27.362],[83.232,27.381],[83.219,27.394],[83.17,27.431],[83.133,27.444],[83.01,27.443],[82.947,27.457],[82.901,27.48],[82.876,27.488],[82.752,27.495],[82.73,27.518],[82.719,27.556],[82.709,27.631],[82.697,27.669],[82.68,27.694],[82.674,27.696],[82.674,27.697],[82.676,27.705],[82.683,27.728],[82.689,27.739],[82.694,27.745],[82.699,27.751],[82.706,27.756],[82.716,27.76],[82.735,27.766],[82.751,27.768],[82.8,27.763],[82.844,27.776],[82.821,27.797],[82.775,27.816],[82.762,27.825],[82.764,27.83],[82.767,27.834],[82.801,27.868],[82.846,27.902],[82.87,27.909],[82.894,27.905],[82.906,27.904],[82.919,27.906],[82.931,27.91],[82.961,27.926],[82.993,27.936],[82.999,27.94],[83.003,27.946],[83.001,27.957],[82.997,27.963],[82.991,27.969],[82.982,27.975],[82.975,27.984],[82.972,28],[82.982,28.032],[82.987,28.058],[82.999,28.093],[83.026,28.114],[83.034,28.121],[83.039,28.129],[83.037,28.142],[83.033,28.151],[83.014,28.173],[83.01,28.183],[83.011,28.193],[83.018,28.203],[83.031,28.213],[83.077,28.232],[83.089,28.246],[83.168,28.259],[83.184,28.254],[83.205,28.247],[83.26,28.204],[83.28,28.194],[83.294,28.19],[83.321,28.189],[83.334,28.185],[83.356,28.175],[83.369,28.167],[83.377,28.159],[83.384,28.149],[83.393,28.14],[83.409,28.129],[83.423,28.126],[83.451,28.124],[83.471,28.121],[83.485,28.116],[83.495,28.11],[83.542,28.075],[83.548,28.069],[83.55,28.061],[83.547,28.056],[83.548,28.045],[83.553,28.034],[83.559,28.032],[83.567,28.033],[83.576,28.03],[83.59,28.004],[83.575,27.982],[83.544,27.967],[83.507,27.961],[83.478,27.968],[83.461,27.969],[83.445,27.961],[83.439,27.948],[83.448,27.939],[83.465,27.931],[83.479,27.92],[83.491,27.931],[83.502,27.933],[83.531,27.928],[83.56,27.929],[83.576,27.927],[83.589,27.92],[83.601,27.921],[83.636,27.909],[83.644,27.91],[83.662,27.92],[83.743,27.92],[83.767,27.918],[83.784,27.909],[83.811,27.884],[83.826,27.876],[83.835,27.877],[83.858,27.885],[83.87,27.887],[83.883,27.885],[83.91,27.879],[83.924,27.878],[83.948,27.884],[83.992,27.906],[84.017,27.908],[84.037,27.901],[84.073,27.874],[84.093,27.863],[84.135,27.854],[84.225,27.853],[84.268,27.846],[84.286,27.837],[84.292,27.827],[84.292,27.814],[84.295,27.798],[84.3,27.79],[84.314,27.782],[84.316,27.773],[84.317,27.764],[84.321,27.759],[84.328,27.757],[84.337,27.757],[84.348,27.761],[84.36,27.773],[84.374,27.782],[84.391,27.784],[84.401,27.775],[84.413,27.758],[84.422,27.74],[84.426,27.729],[84.422,27.714],[84.412,27.703],[84.384,27.688],[84.356,27.697],[84.331,27.686],[84.306,27.669],[84.278,27.66],[84.262,27.661],[84.25,27.664],[84.239,27.664],[84.227,27.66],[84.208,27.635],[84.196,27.627],[84.179,27.633],[84.156,27.61],[84.116,27.549],[84.103,27.537],[84.069,27.558],[84.049,27.546],[84.026,27.544],[83.959,27.552],[83.947,27.552],[83.939,27.551],[83.931,27.544],[83.925,27.535],[83.926,27.527],[83.935,27.524],[83.956,27.524],[83.96,27.519],[83.949,27.506],[83.941,27.495],[83.941,27.484],[83.942,27.472],[83.939,27.462],[83.923,27.45],[83.922,27.45]]]}},{"type":"Feature","id":"NP-MA","properties":{"id":"NP-MA","countryCode":"NP","isoSubdivision":"NP-MA","name":"Mahakali Zone","name_en":"Mahakali Zone","name_ko":"마하칼리 구","type":"Administrative Zone","labelLongitude":80.557,"labelLatitude":29.521,"minZoom":7.7},"geometry":{"type":"Polygon","coordinates":[[[80.996,30.197],[81.007,30.189],[81.019,30.172],[81.031,30.153],[81.044,30.12],[81.067,30.087],[81.074,30.072],[81.084,30.028],[81.063,30.014],[81.047,30.001],[81.018,29.964],[81.005,29.942],[81,29.929],[81.001,29.922],[81.005,29.919],[81.013,29.914],[81.021,29.908],[81.027,29.9],[81.032,29.891],[81.034,29.881],[81.038,29.856],[81.055,29.8],[81.056,29.767],[81.05,29.75],[81.038,29.739],[81.025,29.736],[81.003,29.734],[80.997,29.732],[80.965,29.717],[80.955,29.714],[80.948,29.714],[80.939,29.714],[80.928,29.714],[80.891,29.706],[80.861,29.695],[80.841,29.681],[80.828,29.676],[80.816,29.675],[80.799,29.677],[80.786,29.674],[80.761,29.657],[80.757,29.651],[80.754,29.642],[80.756,29.636],[80.761,29.627],[80.765,29.615],[80.769,29.6],[80.769,29.577],[80.765,29.565],[80.758,29.555],[80.748,29.546],[80.739,29.531],[80.741,29.522],[80.752,29.515],[80.781,29.508],[80.803,29.506],[80.808,29.504],[80.813,29.502],[80.815,29.5],[80.836,29.473],[80.886,29.431],[80.854,29.395],[80.822,29.379],[80.779,29.367],[80.765,29.354],[80.75,29.322],[80.737,29.301],[80.73,29.287],[80.726,29.272],[80.724,29.26],[80.718,29.24],[80.706,29.224],[80.687,29.201],[80.674,29.19],[80.66,29.182],[80.612,29.169],[80.594,29.161],[80.567,29.138],[80.557,29.125],[80.551,29.112],[80.55,29.104],[80.543,29.097],[80.54,29.09],[80.535,29.064],[80.521,29.05],[80.515,29.036],[80.509,29.015],[80.493,28.987],[80.502,28.931],[80.496,28.857],[80.497,28.844],[80.5,28.833],[80.502,28.827],[80.507,28.818],[80.521,28.798],[80.527,28.786],[80.534,28.767],[80.536,28.755],[80.534,28.682],[80.534,28.68],[80.518,28.68],[80.498,28.67],[80.488,28.656],[80.485,28.639],[80.493,28.576],[80.488,28.562],[80.469,28.572],[80.427,28.617],[80.408,28.626],[80.388,28.627],[80.369,28.623],[80.35,28.62],[80.33,28.627],[80.318,28.64],[80.291,28.69],[80.283,28.695],[80.265,28.699],[80.257,28.703],[80.249,28.71],[80.239,28.726],[80.233,28.733],[80.216,28.742],[80.181,28.747],[80.162,28.753],[80.148,28.763],[80.114,28.803],[80.082,28.819],[80.073,28.821],[80.055,28.824],[80.036,28.837],[80.03,28.878],[80.031,28.898],[80.034,28.916],[80.041,28.933],[80.053,28.949],[80.068,28.96],[80.085,28.967],[80.099,28.977],[80.108,28.995],[80.105,29.028],[80.113,29.072],[80.133,29.11],[80.164,29.123],[80.181,29.121],[80.201,29.121],[80.221,29.126],[80.233,29.139],[80.23,29.155],[80.214,29.197],[80.219,29.211],[80.236,29.213],[80.249,29.204],[80.258,29.202],[80.279,29.268],[80.283,29.291],[80.28,29.31],[80.273,29.316],[80.264,29.315],[80.255,29.317],[80.249,29.327],[80.242,29.367],[80.221,29.4],[80.214,29.417],[80.218,29.435],[80.228,29.442],[80.257,29.45],[80.263,29.459],[80.266,29.472],[80.273,29.479],[80.282,29.484],[80.291,29.495],[80.312,29.508],[80.32,29.516],[80.327,29.525],[80.328,29.53],[80.325,29.536],[80.324,29.542],[80.327,29.549],[80.333,29.552],[80.345,29.558],[80.351,29.562],[80.373,29.584],[80.385,29.605],[80.387,29.627],[80.378,29.653],[80.364,29.68],[80.354,29.705],[80.354,29.73],[80.369,29.758],[80.395,29.777],[80.455,29.791],[80.476,29.806],[80.527,29.862],[80.55,29.894],[80.563,29.93],[80.571,29.947],[80.586,29.954],[80.622,29.958],[80.641,29.963],[80.654,29.971],[80.68,29.992],[80.716,30.013],[80.726,30.023],[80.756,30.065],[80.77,30.077],[80.83,30.117],[80.85,30.143],[80.836,30.17],[80.85,30.182],[80.868,30.2],[80.884,30.21],[80.894,30.198],[80.903,30.18],[80.921,30.177],[80.988,30.197],[80.996,30.197]]]}},{"type":"Feature","id":"NP-ME","properties":{"id":"NP-ME","countryCode":"NP","isoSubdivision":"NP-ME","name":"Mechi Zone","name_en":"Mechi Zone","name_ko":"메치 구","type":"Administrative Zone","labelLongitude":87.808,"labelLatitude":27.159,"minZoom":7.7},"geometry":{"type":"Polygon","coordinates":[[[87.837,27.908],[87.856,27.899],[87.935,27.895],[87.945,27.892],[87.966,27.883],[87.978,27.881],[87.992,27.883],[88.018,27.892],[88.03,27.893],[88.053,27.887],[88.096,27.865],[88.118,27.861],[88.143,27.856],[88.156,27.851],[88.165,27.845],[88.167,27.834],[88.155,27.815],[88.16,27.774],[88.149,27.749],[88.135,27.723],[88.111,27.64],[88.049,27.545],[88.023,27.495],[88.022,27.484],[88.023,27.475],[88.028,27.455],[88.031,27.451],[88.04,27.442],[88.042,27.438],[88.039,27.429],[88.035,27.424],[88.03,27.419],[88.026,27.412],[88.017,27.389],[88.015,27.378],[88.016,27.364],[88.02,27.353],[88.033,27.334],[88.035,27.323],[88.029,27.298],[88.005,27.249],[87.989,27.218],[87.985,27.148],[87.971,27.119],[87.969,27.111],[87.971,27.103],[87.975,27.095],[87.991,27.082],[88.009,27.046],[88.027,27.035],[88.043,27.029],[88.056,27.018],[88.077,26.992],[88.097,26.959],[88.112,26.924],[88.12,26.909],[88.143,26.878],[88.151,26.863],[88.155,26.846],[88.159,26.803],[88.168,26.763],[88.169,26.744],[88.168,26.725],[88.163,26.705],[88.147,26.661],[88.102,26.582],[88.087,26.539],[88.08,26.518],[88.079,26.507],[88.082,26.495],[88.074,26.454],[88.044,26.406],[88.007,26.37],[87.975,26.367],[87.961,26.379],[87.929,26.396],[87.915,26.408],[87.909,26.418],[87.902,26.435],[87.897,26.443],[87.895,26.443],[87.871,26.461],[87.87,26.465],[87.852,26.461],[87.822,26.438],[87.804,26.437],[87.786,26.446],[87.769,26.451],[87.756,26.447],[87.749,26.426],[87.742,26.41],[87.728,26.404],[87.711,26.406],[87.698,26.416],[87.681,26.424],[87.66,26.418],[87.649,26.41],[87.644,26.424],[87.642,26.439],[87.645,26.657],[87.666,26.741],[87.666,26.756],[87.664,26.764],[87.65,26.791],[87.6,26.851],[87.598,26.852],[87.559,26.866],[87.542,26.875],[87.533,26.883],[87.525,26.895],[87.502,26.953],[87.481,26.981],[87.5,26.998],[87.547,27.05],[87.603,27.102],[87.629,27.12],[87.641,27.125],[87.685,27.139],[87.694,27.144],[87.702,27.149],[87.707,27.157],[87.71,27.165],[87.712,27.175],[87.716,27.183],[87.732,27.195],[87.738,27.202],[87.74,27.207],[87.74,27.214],[87.738,27.22],[87.734,27.227],[87.718,27.237],[87.676,27.251],[87.579,27.287],[87.534,27.295],[87.523,27.299],[87.516,27.304],[87.456,27.362],[87.45,27.372],[87.446,27.383],[87.447,27.398],[87.45,27.416],[87.458,27.441],[87.468,27.501],[87.479,27.541],[87.487,27.557],[87.498,27.574],[87.517,27.596],[87.528,27.614],[87.54,27.641],[87.548,27.677],[87.552,27.685],[87.56,27.687],[87.568,27.686],[87.575,27.682],[87.581,27.678],[87.589,27.675],[87.596,27.675],[87.606,27.68],[87.617,27.691],[87.633,27.713],[87.655,27.753],[87.679,27.813],[87.7,27.806],[87.727,27.808],[87.756,27.82],[87.78,27.839],[87.799,27.863],[87.814,27.891],[87.826,27.907],[87.837,27.908]]]}},{"type":"Feature","id":"NP-NA","properties":{"id":"NP-NA","countryCode":"NP","isoSubdivision":"NP-NA","name":"Narayani Zone","name_en":"Narayani Zone","name_ko":"나라야니 구","type":"Administrative Zone","labelLongitude":84.72,"labelLatitude":27.373,"minZoom":7.7},"geometry":{"type":"Polygon","coordinates":[[[85.355,26.76],[85.353,26.758],[85.337,26.747],[85.302,26.737],[85.287,26.737],[85.195,26.759],[85.166,26.786],[85.166,26.821],[85.162,26.851],[85.123,26.866],[85.1,26.864],[85.044,26.844],[85.019,26.846],[85.017,26.859],[85.018,26.874],[85.001,26.882],[84.988,26.884],[84.976,26.887],[84.953,26.898],[84.944,26.916],[84.939,26.937],[84.924,26.956],[84.902,26.967],[84.852,26.982],[84.828,26.995],[84.817,27.011],[84.802,27.014],[84.786,27.008],[84.772,26.999],[84.761,26.999],[84.64,27.028],[84.627,27.036],[84.621,27.058],[84.63,27.081],[84.645,27.104],[84.654,27.125],[84.66,27.165],[84.658,27.203],[84.648,27.241],[84.632,27.277],[84.607,27.31],[84.577,27.329],[84.289,27.376],[84.268,27.389],[84.249,27.412],[84.239,27.431],[84.226,27.44],[84.195,27.436],[84.186,27.439],[84.175,27.463],[84.166,27.472],[84.142,27.481],[84.131,27.486],[84.122,27.495],[84.117,27.513],[84.1,27.517],[84.08,27.51],[84.029,27.454],[84.008,27.441],[83.976,27.44],[83.936,27.446],[83.923,27.45],[83.922,27.45],[83.923,27.45],[83.939,27.462],[83.942,27.472],[83.941,27.484],[83.941,27.495],[83.949,27.506],[83.96,27.519],[83.956,27.524],[83.935,27.524],[83.926,27.527],[83.925,27.535],[83.931,27.544],[83.939,27.551],[83.947,27.552],[83.959,27.552],[84.026,27.544],[84.049,27.546],[84.069,27.558],[84.103,27.537],[84.116,27.549],[84.156,27.61],[84.179,27.633],[84.196,27.627],[84.208,27.635],[84.227,27.66],[84.239,27.664],[84.25,27.664],[84.262,27.661],[84.278,27.66],[84.306,27.669],[84.331,27.686],[84.356,27.697],[84.384,27.688],[84.412,27.703],[84.422,27.714],[84.426,27.729],[84.422,27.74],[84.413,27.758],[84.427,27.763],[84.461,27.759],[84.466,27.762],[84.464,27.768],[84.46,27.772],[84.456,27.776],[84.451,27.782],[84.447,27.792],[84.449,27.808],[84.457,27.816],[84.502,27.833],[84.556,27.865],[84.577,27.881],[84.583,27.883],[84.592,27.885],[84.603,27.883],[84.613,27.88],[84.622,27.876],[84.631,27.87],[84.643,27.858],[84.655,27.842],[84.652,27.835],[84.647,27.823],[84.645,27.817],[84.644,27.812],[84.645,27.805],[84.649,27.797],[84.656,27.787],[84.669,27.771],[84.672,27.763],[84.673,27.757],[84.668,27.75],[84.669,27.745],[84.673,27.741],[84.69,27.738],[84.763,27.736],[84.774,27.731],[84.781,27.724],[84.786,27.718],[84.798,27.687],[84.861,27.681],[84.873,27.682],[84.889,27.686],[84.91,27.699],[84.933,27.704],[84.954,27.705],[84.981,27.713],[84.992,27.715],[85.061,27.718],[85.074,27.716],[85.091,27.712],[85.143,27.691],[85.191,27.682],[85.202,27.678],[85.208,27.673],[85.213,27.665],[85.226,27.628],[85.234,27.565],[85.236,27.554],[85.239,27.548],[85.244,27.541],[85.249,27.535],[85.252,27.53],[85.255,27.524],[85.258,27.501],[85.258,27.499],[85.263,27.49],[85.272,27.48],[85.286,27.469],[85.349,27.437],[85.392,27.43],[85.424,27.425],[85.454,27.417],[85.479,27.406],[85.504,27.385],[85.458,27.355],[85.442,27.338],[85.44,27.331],[85.44,27.322],[85.443,27.313],[85.448,27.307],[85.457,27.301],[85.481,27.289],[85.489,27.284],[85.495,27.279],[85.5,27.274],[85.506,27.265],[85.511,27.252],[85.517,27.228],[85.517,27.217],[85.516,27.208],[85.513,27.204],[85.511,27.199],[85.509,27.191],[85.507,27.166],[85.5,27.143],[85.437,27.064],[85.422,27.041],[85.418,27.029],[85.416,27.018],[85.416,27.01],[85.418,27.001],[85.42,26.995],[85.422,26.986],[85.424,26.973],[85.422,26.956],[85.419,26.944],[85.413,26.933],[85.38,26.89],[85.365,26.853],[85.356,26.822],[85.354,26.801],[85.355,26.76]]]}},{"type":"Feature","id":"NP-RA","properties":{"id":"NP-RA","countryCode":"NP","isoSubdivision":"NP-RA","name":"Rapti Zone","name_en":"Rapti Zone","name_ko":"랍티 구","type":"Administrative Zone","labelLongitude":82.552,"labelLatitude":28.327,"minZoom":7.7},"geometry":{"type":"Polygon","coordinates":[[[82.674,27.696],[82.652,27.704],[82.526,27.675],[82.441,27.666],[82.402,27.677],[82.348,27.726],[82.27,27.76],[82.151,27.848],[82.107,27.864],[82.09,27.872],[82.072,27.89],[82.052,27.905],[82.05,27.906],[82.055,27.917],[82.086,27.944],[82.091,27.946],[82.097,27.948],[82.102,27.948],[82.12,27.946],[82.129,27.947],[82.15,27.95],[82.16,27.954],[82.166,27.958],[82.173,27.963],[82.176,27.967],[82.178,27.972],[82.179,27.978],[82.181,27.999],[82.181,28.015],[82.176,28.028],[82.168,28.041],[82.122,28.078],[82.114,28.082],[82.105,28.084],[82.097,28.084],[82.088,28.086],[82.081,28.092],[82.065,28.111],[82.056,28.119],[82.025,28.14],[82.017,28.149],[82.013,28.16],[82.015,28.169],[82.028,28.188],[82.042,28.224],[82.095,28.248],[82.073,28.28],[82.062,28.302],[82.042,28.323],[81.981,28.345],[81.974,28.354],[81.974,28.391],[81.971,28.403],[81.965,28.412],[81.959,28.418],[81.956,28.427],[81.957,28.434],[81.964,28.442],[81.973,28.446],[81.998,28.455],[82.003,28.458],[82.009,28.464],[82.015,28.475],[82.019,28.488],[82.018,28.509],[82.014,28.525],[81.998,28.555],[81.997,28.563],[82.001,28.579],[82.008,28.594],[82.044,28.632],[82.089,28.616],[82.102,28.613],[82.117,28.611],[82.16,28.613],[82.186,28.625],[82.206,28.661],[82.213,28.669],[82.219,28.675],[82.237,28.684],[82.249,28.694],[82.269,28.712],[82.306,28.76],[82.317,28.77],[82.375,28.801],[82.484,28.877],[82.497,28.89],[82.505,28.908],[82.509,28.922],[82.522,28.948],[82.568,28.985],[82.626,28.97],[82.639,28.963],[82.656,28.95],[82.695,28.915],[82.7,28.907],[82.703,28.894],[82.703,28.878],[82.703,28.865],[82.704,28.855],[82.711,28.846],[82.758,28.818],[82.772,28.813],[82.789,28.816],[82.8,28.819],[82.813,28.82],[82.864,28.816],[82.925,28.82],[82.939,28.818],[82.96,28.811],[83.109,28.745],[83.148,28.737],[83.143,28.709],[83.132,28.689],[83.099,28.648],[83.046,28.627],[82.993,28.614],[82.969,28.604],[82.958,28.596],[82.961,28.589],[82.972,28.577],[82.975,28.57],[82.976,28.562],[82.971,28.552],[82.963,28.548],[82.952,28.549],[82.94,28.548],[82.924,28.542],[82.907,28.527],[82.901,28.517],[82.901,28.509],[82.913,28.5],[82.889,28.468],[82.895,28.458],[82.905,28.45],[82.917,28.426],[82.925,28.417],[82.938,28.406],[82.945,28.398],[82.956,28.371],[83.049,28.307],[83.071,28.289],[83.084,28.273],[83.089,28.246],[83.077,28.232],[83.031,28.213],[83.018,28.203],[83.011,28.193],[83.01,28.183],[83.014,28.173],[83.033,28.151],[83.037,28.142],[83.039,28.129],[83.034,28.121],[83.026,28.114],[82.999,28.093],[82.987,28.058],[82.982,28.032],[82.972,28],[82.975,27.984],[82.982,27.975],[82.991,27.969],[82.997,27.963],[83.001,27.957],[83.003,27.946],[82.999,27.94],[82.993,27.936],[82.961,27.926],[82.931,27.91],[82.919,27.906],[82.906,27.904],[82.894,27.905],[82.87,27.909],[82.846,27.902],[82.801,27.868],[82.767,27.834],[82.764,27.83],[82.762,27.825],[82.775,27.816],[82.821,27.797],[82.844,27.776],[82.8,27.763],[82.751,27.768],[82.735,27.766],[82.716,27.76],[82.706,27.756],[82.699,27.751],[82.694,27.745],[82.689,27.739],[82.683,27.728],[82.676,27.705],[82.674,27.697],[82.674,27.696]]]}},{"type":"Feature","id":"NP-SA","properties":{"id":"NP-SA","countryCode":"NP","isoSubdivision":"NP-SA","name":"Sagarmatha Zone","name_en":"Sagarmatha Zone","name_ko":"사가르마타 구","type":"Administrative Zone","labelLongitude":86.661,"labelLatitude":27.272,"minZoom":7.7},"geometry":{"type":"Polygon","coordinates":[[[86.662,28.107],[86.68,28.106],[86.7,28.099],[86.718,28.088],[86.732,28.077],[86.736,28.065],[86.732,28.035],[86.74,28.021],[86.77,28.012],[86.84,28.015],[86.868,27.995],[86.877,27.971],[86.893,27.954],[86.915,27.945],[86.94,27.943],[86.97,27.947],[86.982,27.951],[86.982,27.949],[86.98,27.886],[86.991,27.841],[86.998,27.821],[86.999,27.812],[86.999,27.806],[86.994,27.787],[86.992,27.763],[87,27.722],[87,27.708],[86.998,27.698],[86.98,27.64],[86.961,27.539],[86.956,27.525],[86.947,27.485],[86.943,27.475],[86.931,27.463],[86.913,27.444],[86.91,27.438],[86.906,27.424],[86.918,27.388],[86.958,27.327],[86.961,27.31],[86.96,27.296],[86.957,27.29],[86.952,27.284],[86.944,27.28],[86.936,27.277],[86.928,27.273],[86.923,27.267],[86.919,27.251],[86.925,27.207],[86.925,27.189],[86.916,27.128],[86.919,27.113],[86.924,27.101],[86.944,27.082],[86.954,27.07],[86.958,27.058],[86.967,26.906],[87.001,26.901],[87.119,26.926],[87.155,26.927],[87.171,26.921],[87.175,26.903],[87.17,26.883],[87.166,26.876],[87.161,26.855],[87.16,26.848],[87.154,26.837],[87.14,26.826],[87.112,26.811],[87.043,26.745],[87.02,26.736],[87.004,26.723],[86.981,26.639],[86.967,26.617],[86.962,26.605],[86.965,26.595],[86.968,26.588],[86.97,26.577],[86.97,26.565],[86.968,26.557],[86.96,26.546],[86.938,26.528],[86.935,26.521],[86.935,26.52],[86.907,26.512],[86.876,26.495],[86.866,26.472],[86.846,26.453],[86.822,26.438],[86.796,26.432],[86.787,26.433],[86.752,26.446],[86.738,26.444],[86.731,26.434],[86.724,26.422],[86.714,26.415],[86.695,26.418],[86.625,26.456],[86.558,26.484],[86.538,26.495],[86.524,26.509],[86.511,26.52],[86.495,26.528],[86.475,26.532],[86.445,26.543],[86.384,26.573],[86.354,26.583],[86.345,26.583],[86.323,26.58],[86.316,26.581],[86.309,26.588],[86.309,26.602],[86.301,26.609],[86.284,26.612],[86.263,26.609],[86.225,26.597],[86.203,26.585],[86.196,26.583],[86.185,26.584],[86.179,26.589],[86.174,26.593],[86.168,26.597],[86.153,26.601],[86.146,26.601],[86.147,26.602],[86.148,26.604],[86.194,26.694],[86.198,26.703],[86.199,26.712],[86.196,26.724],[86.19,26.734],[86.172,26.758],[86.166,26.769],[86.161,26.781],[86.159,26.791],[86.158,26.801],[86.158,26.851],[86.155,26.864],[86.147,26.885],[86.146,26.891],[86.146,26.898],[86.149,26.904],[86.153,26.912],[86.167,26.926],[86.175,26.93],[86.185,26.93],[86.211,26.919],[86.224,26.917],[86.234,26.915],[86.258,26.924],[86.287,26.961],[86.313,26.977],[86.355,26.988],[86.361,26.997],[86.365,27.012],[86.364,27.041],[86.357,27.07],[86.348,27.095],[86.343,27.101],[86.339,27.105],[86.334,27.109],[86.331,27.114],[86.331,27.119],[86.358,27.14],[86.388,27.173],[86.394,27.183],[86.392,27.186],[86.388,27.19],[86.356,27.207],[86.352,27.21],[86.344,27.218],[86.338,27.227],[86.329,27.232],[86.314,27.236],[86.282,27.243],[86.226,27.242],[86.21,27.246],[86.21,27.252],[86.236,27.292],[86.241,27.308],[86.243,27.32],[86.242,27.329],[86.232,27.351],[86.231,27.358],[86.231,27.366],[86.233,27.375],[86.242,27.397],[86.259,27.431],[86.274,27.451],[86.363,27.526],[86.413,27.576],[86.428,27.585],[86.461,27.614],[86.468,27.618],[86.477,27.62],[86.499,27.624],[86.522,27.631],[86.535,27.639],[86.546,27.652],[86.556,27.673],[86.566,27.702],[86.574,27.717],[86.581,27.727],[86.586,27.734],[86.59,27.745],[86.587,27.761],[86.586,27.782],[86.577,27.81],[86.571,27.861],[86.572,27.888],[86.565,27.914],[86.535,27.955],[86.517,27.971],[86.516,27.995],[86.516,28.012],[86.522,28.024],[86.531,28.034],[86.538,28.047],[86.541,28.062],[86.541,28.078],[86.544,28.093],[86.554,28.104],[86.57,28.107],[86.583,28.098],[86.597,28.087],[86.612,28.08],[86.627,28.083],[86.649,28.101],[86.662,28.107]]]}},{"type":"Feature","id":"NP-SE","properties":{"id":"NP-SE","countryCode":"NP","isoSubdivision":"NP-SE","name":"Seti Zone","name_en":"Seti Zone","name_ko":"세티 구","type":"District","labelLongitude":81.163,"labelLatitude":29.312,"minZoom":7.7},"geometry":{"type":"Polygon","coordinates":[[[81.084,30.028],[81.085,30.026],[81.098,30.017],[81.125,30.023],[81.148,30.023],[81.195,30.004],[81.217,30.008],[81.227,30.022],[81.226,30.05],[81.24,30.059],[81.257,30.064],[81.267,30.07],[81.268,30.072],[81.277,30.067],[81.299,30.053],[81.32,30.046],[81.329,30.04],[81.342,30.031],[81.35,30.027],[81.359,30.025],[81.392,30.029],[81.414,30.029],[81.42,30.027],[81.423,30.025],[81.429,30.009],[81.439,29.991],[81.444,29.984],[81.448,29.978],[81.452,29.969],[81.454,29.959],[81.454,29.948],[81.451,29.929],[81.451,29.921],[81.456,29.912],[81.477,29.899],[81.486,29.894],[81.494,29.893],[81.499,29.893],[81.505,29.896],[81.53,29.929],[81.551,29.94],[81.562,29.942],[81.574,29.944],[81.649,29.945],[81.666,29.943],[81.679,29.938],[81.692,29.929],[81.708,29.924],[81.747,29.917],[81.76,29.913],[81.771,29.906],[81.775,29.896],[81.776,29.885],[81.773,29.877],[81.77,29.87],[81.764,29.863],[81.756,29.857],[81.743,29.848],[81.737,29.842],[81.734,29.834],[81.731,29.822],[81.729,29.79],[81.724,29.765],[81.696,29.687],[81.696,29.679],[81.697,29.667],[81.703,29.65],[81.713,29.638],[81.724,29.628],[81.737,29.62],[81.753,29.614],[81.758,29.613],[81.778,29.608],[81.783,29.602],[81.787,29.593],[81.788,29.571],[81.787,29.556],[81.781,29.535],[81.765,29.521],[81.725,29.498],[81.715,29.484],[81.709,29.468],[81.706,29.448],[81.705,29.425],[81.709,29.402],[81.719,29.383],[81.73,29.367],[81.724,29.349],[81.689,29.34],[81.672,29.337],[81.659,29.338],[81.649,29.342],[81.623,29.362],[81.616,29.365],[81.609,29.367],[81.589,29.367],[81.575,29.365],[81.534,29.353],[81.518,29.343],[81.488,29.315],[81.478,29.305],[81.474,29.295],[81.474,29.285],[81.478,29.275],[81.487,29.259],[81.478,29.198],[81.481,29.182],[81.485,29.169],[81.493,29.164],[81.522,29.147],[81.535,29.138],[81.549,29.126],[81.483,29.083],[81.468,29.079],[81.457,29.071],[81.41,29.024],[81.408,29.003],[81.415,28.981],[81.427,28.963],[81.441,28.956],[81.493,28.887],[81.528,28.853],[81.542,28.833],[81.548,28.808],[81.556,28.793],[81.569,28.781],[81.572,28.77],[81.548,28.757],[81.532,28.751],[81.523,28.749],[81.513,28.75],[81.513,28.757],[81.526,28.765],[81.524,28.771],[81.513,28.777],[81.517,28.808],[81.473,28.852],[81.459,28.881],[81.442,28.898],[81.426,28.904],[81.338,28.894],[81.328,28.897],[81.305,28.911],[81.294,28.915],[81.272,28.916],[81.208,28.908],[81.187,28.913],[81.136,28.949],[81.096,28.967],[81.074,28.974],[81.054,28.976],[81.035,28.972],[81.014,28.961],[80.997,28.947],[80.992,28.935],[81.042,28.89],[81.078,28.863],[81.095,28.854],[81.109,28.857],[81.122,28.864],[81.136,28.866],[81.148,28.857],[81.161,28.83],[81.17,28.832],[81.211,28.812],[81.207,28.825],[81.194,28.847],[81.19,28.86],[81.205,28.853],[81.218,28.841],[81.228,28.826],[81.234,28.793],[81.245,28.762],[81.277,28.697],[81.28,28.679],[81.278,28.659],[81.272,28.636],[81.262,28.627],[81.256,28.619],[81.116,28.484],[81.104,28.476],[81.07,28.458],[81.059,28.444],[81.048,28.406],[81.047,28.389],[81,28.397],[80.993,28.408],[80.991,28.42],[80.988,28.431],[80.976,28.437],[80.961,28.432],[80.941,28.433],[80.921,28.436],[80.905,28.441],[80.887,28.453],[80.882,28.467],[80.88,28.482],[80.872,28.497],[80.858,28.502],[80.817,28.503],[80.798,28.506],[80.782,28.515],[80.744,28.55],[80.727,28.56],[80.696,28.568],[80.679,28.575],[80.668,28.586],[80.648,28.62],[80.636,28.628],[80.599,28.634],[80.581,28.639],[80.564,28.647],[80.557,28.655],[80.557,28.664],[80.559,28.673],[80.556,28.679],[80.534,28.68],[80.534,28.682],[80.536,28.755],[80.534,28.767],[80.527,28.786],[80.521,28.798],[80.507,28.818],[80.502,28.827],[80.5,28.833],[80.497,28.844],[80.496,28.857],[80.502,28.931],[80.493,28.987],[80.509,29.015],[80.515,29.036],[80.521,29.05],[80.535,29.064],[80.54,29.09],[80.543,29.097],[80.55,29.104],[80.551,29.112],[80.557,29.125],[80.567,29.138],[80.594,29.161],[80.612,29.169],[80.66,29.182],[80.674,29.19],[80.687,29.201],[80.706,29.224],[80.718,29.24],[80.724,29.26],[80.726,29.272],[80.73,29.287],[80.737,29.301],[80.75,29.322],[80.765,29.354],[80.779,29.367],[80.822,29.379],[80.854,29.395],[80.886,29.431],[80.836,29.473],[80.815,29.5],[80.813,29.502],[80.808,29.504],[80.803,29.506],[80.781,29.508],[80.752,29.515],[80.741,29.522],[80.739,29.531],[80.748,29.546],[80.758,29.555],[80.765,29.565],[80.769,29.577],[80.769,29.6],[80.765,29.615],[80.761,29.627],[80.756,29.636],[80.754,29.642],[80.757,29.651],[80.761,29.657],[80.786,29.674],[80.799,29.677],[80.816,29.675],[80.828,29.676],[80.841,29.681],[80.861,29.695],[80.891,29.706],[80.928,29.714],[80.939,29.714],[80.948,29.714],[80.955,29.714],[80.965,29.717],[80.997,29.732],[81.003,29.734],[81.025,29.736],[81.038,29.739],[81.05,29.75],[81.056,29.767],[81.055,29.8],[81.038,29.856],[81.034,29.881],[81.032,29.891],[81.027,29.9],[81.021,29.908],[81.013,29.914],[81.005,29.919],[81.001,29.922],[81,29.929],[81.005,29.942],[81.018,29.964],[81.047,30.001],[81.063,30.014],[81.084,30.028]]]}}]}
