{"type":"FeatureCollection","features":[{"type":"Feature","id":"NU-X01~","properties":{"id":"NU-X01~","countryCode":"NU","isoSubdivision":"NU-X01~","name":"Niue","name_en":"Niue","name_ko":"니우에","type":"Principal subdivision","labelLongitude":-169.866,"labelLatitude":-19.047,"minZoom":18},"geometry":{"type":"Polygon","coordinates":[[[-169.851,-18.965],[-169.825,-18.968],[-169.823,-18.973],[-169.794,-19.047],[-169.783,-19.069],[-169.797,-19.074],[-169.806,-19.082],[-169.824,-19.102],[-169.865,-19.13],[-169.873,-19.126],[-169.881,-19.129],[-169.899,-19.143],[-169.902,-19.133],[-169.91,-19.129],[-169.921,-19.128],[-169.934,-19.13],[-169.931,-19.126],[-169.928,-19.123],[-169.925,-19.119],[-169.919,-19.116],[-169.924,-19.099],[-169.926,-19.095],[-169.95,-19.087],[-169.948,-19.069],[-169.926,-19.038],[-169.928,-19.032],[-169.932,-19.027],[-169.934,-19.021],[-169.934,-19.014],[-169.93,-19.008],[-169.926,-19.007],[-169.922,-19.007],[-169.916,-19.003],[-169.896,-18.965],[-169.864,-18.964],[-169.851,-18.965]]]}}]}
