{"type":"FeatureCollection","features":[{"type":"Feature","id":"OM-BA","properties":{"id":"OM-BA","countryCode":"OM","isoSubdivision":"OM-BA","name":"Al Batinah North","name_en":"Al Batinah North","name_ko":"알 바트나 노스","type":"Region","labelLongitude":56.82,"labelLatitude":23.979,"minZoom":8.7},"geometry":{"type":"Polygon","coordinates":[[[56.078,24.73],[56.099,24.731],[56.118,24.735],[56.127,24.746],[56.133,24.763],[56.155,24.787],[56.171,24.824],[56.186,24.83],[56.224,24.834],[56.242,24.842],[56.275,24.872],[56.28,24.877],[56.308,24.895],[56.314,24.905],[56.314,24.912],[56.316,24.93],[56.319,24.963],[56.324,24.968],[56.329,24.973],[56.383,24.978],[56.405,24.897],[56.47,24.775],[56.48,24.765],[56.487,24.742],[56.494,24.7],[56.611,24.496],[56.636,24.471],[56.692,24.425],[56.801,24.303],[56.823,24.271],[56.832,24.253],[56.841,24.224],[56.939,24.116],[57.058,24.023],[57.152,23.954],[57.184,23.934],[57.326,23.884],[57.51,23.839],[57.533,23.83],[57.417,23.643],[57.287,23.541],[57.164,23.504],[56.875,23.491],[56.857,23.512],[56.765,23.836],[56.468,24.077],[56.313,24.14],[56.306,24.227],[56.208,24.532],[56.075,24.689],[56.076,24.73],[56.078,24.73]]]}},{"type":"Feature","id":"OM-BJ","properties":{"id":"OM-BJ","countryCode":"OM","isoSubdivision":"OM-BJ","name":"Al Batinah South","name_en":"Al Batinah South","name_ko":"남바티나","type":"Region","labelLongitude":57.647,"labelLatitude":23.43,"minZoom":8.7},"geometry":{"type":"Polygon","coordinates":[[[57.533,23.83],[57.586,23.807],[57.645,23.79],[57.687,23.783],[57.71,23.782],[57.777,23.786],[57.796,23.782],[57.824,23.748],[57.835,23.74],[57.859,23.734],[57.888,23.721],[57.913,23.718],[58.043,23.725],[58.087,23.722],[58.132,23.713],[58.123,23.706],[58.123,23.704],[58.125,23.703],[58.093,23.561],[58.118,23.462],[57.9,23.296],[57.87,23.234],[57.614,23.196],[57.576,23.213],[57.46,23.225],[57.164,23.504],[57.287,23.541],[57.417,23.643],[57.533,23.83]]]}},{"type":"Feature","id":"OM-BU","properties":{"id":"OM-BU","countryCode":"OM","isoSubdivision":"OM-BU","name":"Al Buraimi","name_en":"Al Buraimi","name_ko":"부라이미","type":"Province","labelLongitude":55.993,"labelLatitude":24.389,"minZoom":8.7},"geometry":{"type":"Polygon","coordinates":[[[55.935,24.978],[55.976,24.972],[55.978,24.972],[56.006,24.956],[56.017,24.927],[56.025,24.883],[56.029,24.861],[56.005,24.877],[55.992,24.883],[55.978,24.886],[55.961,24.881],[55.958,24.869],[55.965,24.854],[56.002,24.823],[56.032,24.754],[56.062,24.732],[56.076,24.73],[56.075,24.689],[56.208,24.532],[56.306,24.227],[56.313,24.14],[56.279,24.041],[56.16,24.041],[56.014,24.013],[55.958,23.978],[55.958,23.895],[55.896,23.867],[55.854,23.818],[55.889,23.672],[55.819,23.63],[55.687,23.595],[55.583,23.54],[55.445,23.552],[55.478,23.676],[55.487,23.693],[55.534,23.757],[55.538,23.77],[55.535,23.846],[55.531,23.875],[55.515,23.897],[55.478,23.917],[55.462,23.931],[55.453,23.949],[55.457,23.963],[55.5,23.971],[55.542,23.985],[55.562,23.995],[55.591,24.01],[55.618,24.02],[55.647,24.025],[55.68,24.024],[55.713,24.019],[55.728,24.02],[55.744,24.025],[55.762,24.028],[55.788,24.01],[55.807,24.007],[55.924,24.051],[55.987,24.065],[55.998,24.081],[55.961,24.142],[55.949,24.185],[55.933,24.221],[55.903,24.232],[55.847,24.211],[55.83,24.212],[55.768,24.225],[55.756,24.23],[55.754,24.245],[55.762,24.263],[55.801,24.326],[55.807,24.341],[55.811,24.389],[55.809,24.398],[55.801,24.406],[55.781,24.419],[55.775,24.426],[55.771,24.441],[55.774,24.495],[55.761,24.537],[55.76,24.559],[55.77,24.572],[55.784,24.586],[55.79,24.62],[55.818,24.643],[55.815,24.663],[55.8,24.693],[55.795,24.704],[55.793,24.722],[55.797,24.76],[55.797,24.778],[55.789,24.855],[55.799,24.886],[55.829,24.921],[55.858,24.945],[55.862,24.948],[55.897,24.969],[55.935,24.978]]]}},{"type":"Feature","id":"OM-DA","properties":{"id":"OM-DA","countryCode":"OM","isoSubdivision":"OM-DA","name":"Ad Dakhiliyah","name_en":"Ad Dakhiliyah","name_ko":"다킬리야","type":"Region","labelLongitude":57.341,"labelLatitude":22.474,"minZoom":8.7},"geometry":{"type":"Polygon","coordinates":[[[58.082,21.711],[58.178,21.397],[58.29,21.096],[57.972,21.248],[56.326,22.015],[56.524,22.254],[56.683,22.697],[56.875,23.491],[57.164,23.504],[57.46,23.225],[57.576,23.213],[57.614,23.196],[57.87,23.234],[57.9,23.296],[58.118,23.462],[58.119,23.462],[58.335,23.489],[58.588,23.249],[58.541,23.022],[58.39,22.987],[58.224,22.888],[58.162,22.882],[57.933,22.714],[57.834,22.523],[58.082,21.711]]]}},{"type":"Feature","id":"OM-MA","properties":{"id":"OM-MA","countryCode":"OM","isoSubdivision":"OM-MA","name":"Muscat","name_en":"Muscat","name_ko":"무스카트","type":"Province","labelLongitude":58.676,"labelLatitude":23.251,"minZoom":8.7},"geometry":{"type":"Polygon","coordinates":[[[58.132,23.713],[58.193,23.689],[58.21,23.686],[58.227,23.679],[58.264,23.645],[58.282,23.631],[58.317,23.621],[58.364,23.616],[58.412,23.616],[58.453,23.624],[58.475,23.632],[58.484,23.638],[58.491,23.657],[58.5,23.657],[58.519,23.652],[58.561,23.651],[58.584,23.647],[58.605,23.638],[58.613,23.625],[58.633,23.585],[58.642,23.577],[58.647,23.575],[58.652,23.571],[58.656,23.566],[58.659,23.562],[58.661,23.563],[58.667,23.564],[58.674,23.564],[58.68,23.562],[58.695,23.551],[58.702,23.543],[58.707,23.535],[58.714,23.535],[58.721,23.549],[58.723,23.543],[58.725,23.54],[58.727,23.536],[58.728,23.528],[58.735,23.528],[58.736,23.533],[58.741,23.542],[58.746,23.538],[58.75,23.536],[58.762,23.542],[58.786,23.512],[58.793,23.496],[58.789,23.481],[58.797,23.467],[58.808,23.421],[58.821,23.402],[58.879,23.351],[58.915,23.336],[58.929,23.318],[58.947,23.275],[58.956,23.259],[58.987,23.232],[59.002,23.212],[59.01,23.153],[59.074,23.093],[59.078,23.085],[59.084,23.055],[59.088,23.048],[59.093,23.044],[59.12,23.023],[59.174,22.994],[59.208,22.97],[59.232,22.943],[59.25,22.912],[59.259,22.89],[59.236,22.861],[59.17,22.794],[58.841,22.834],[58.541,23.022],[58.588,23.249],[58.335,23.489],[58.119,23.462],[58.118,23.462],[58.093,23.561],[58.125,23.703],[58.123,23.704],[58.123,23.706],[58.132,23.713]]]}},{"type":"Feature","id":"OM-MU","properties":{"id":"OM-MU","countryCode":"OM","isoSubdivision":"OM-MU","name":"Musandam","name_en":"Musandam","name_ko":"무산담","type":"Province","labelLongitude":56.294,"labelLatitude":25.974,"minZoom":8.7},"geometry":{"type":"MultiPolygon","coordinates":[[[[56.349,25.294],[56.344,25.267],[56.316,25.253],[56.293,25.246],[56.282,25.237],[56.252,25.218],[56.236,25.211],[56.22,25.215],[56.208,25.221],[56.207,25.227],[56.206,25.231],[56.208,25.255],[56.235,25.267],[56.245,25.278],[56.239,25.286],[56.236,25.296],[56.234,25.313],[56.261,25.331],[56.291,25.328],[56.309,25.301],[56.349,25.294]],[[56.263,25.249],[56.283,25.255],[56.288,25.272],[56.274,25.281],[56.265,25.281],[56.26,25.276],[56.263,25.249]]],[[[56.152,25.658],[56.151,25.659],[56.145,25.671],[56.14,25.716],[56.141,25.733],[56.152,25.743],[56.165,25.752],[56.172,25.765],[56.167,25.778],[56.144,25.806],[56.14,25.823],[56.145,25.838],[56.164,25.862],[56.171,25.877],[56.175,25.967],[56.181,25.996],[56.183,26.015],[56.178,26.035],[56.163,26.074],[56.151,26.075],[56.101,26.063],[56.077,26.061],[56.082,26.071],[56.091,26.107],[56.158,26.201],[56.182,26.246],[56.192,26.255],[56.208,26.263],[56.209,26.258],[56.208,26.244],[56.22,26.228],[56.217,26.222],[56.212,26.208],[56.22,26.208],[56.23,26.217],[56.256,26.218],[56.261,26.225],[56.267,26.227],[56.28,26.223],[56.292,26.212],[56.295,26.194],[56.302,26.205],[56.309,26.205],[56.317,26.201],[56.329,26.201],[56.356,26.219],[56.367,26.222],[56.397,26.214],[56.404,26.215],[56.407,26.223],[56.402,26.232],[56.395,26.239],[56.387,26.242],[56.368,26.244],[56.356,26.243],[56.347,26.239],[56.341,26.232],[56.331,26.223],[56.32,26.218],[56.308,26.222],[56.308,26.233],[56.316,26.275],[56.316,26.29],[56.345,26.269],[56.358,26.265],[56.364,26.28],[56.359,26.287],[56.348,26.297],[56.334,26.306],[56.322,26.31],[56.327,26.319],[56.332,26.321],[56.338,26.321],[56.344,26.324],[56.356,26.338],[56.362,26.35],[56.361,26.371],[56.364,26.386],[56.37,26.386],[56.384,26.359],[56.399,26.368],[56.404,26.372],[56.412,26.365],[56.407,26.357],[56.407,26.355],[56.409,26.352],[56.412,26.345],[56.421,26.352],[56.427,26.35],[56.432,26.343],[56.439,26.338],[56.462,26.332],[56.474,26.331],[56.487,26.331],[56.485,26.336],[56.482,26.347],[56.48,26.352],[56.501,26.359],[56.511,26.333],[56.509,26.324],[56.495,26.323],[56.47,26.324],[56.453,26.318],[56.423,26.295],[56.406,26.285],[56.407,26.285],[56.407,26.279],[56.399,26.269],[56.421,26.248],[56.432,26.239],[56.446,26.235],[56.455,26.239],[56.465,26.247],[56.476,26.249],[56.487,26.235],[56.469,26.206],[56.46,26.202],[56.453,26.222],[56.443,26.22],[56.432,26.222],[56.436,26.212],[56.437,26.205],[56.435,26.2],[56.432,26.194],[56.445,26.182],[56.46,26.174],[56.473,26.164],[56.48,26.146],[56.468,26.146],[56.457,26.148],[56.448,26.153],[56.439,26.16],[56.425,26.154],[56.412,26.158],[56.405,26.171],[56.404,26.187],[56.398,26.183],[56.383,26.177],[56.377,26.174],[56.377,26.184],[56.379,26.193],[56.384,26.198],[56.391,26.201],[56.368,26.205],[56.344,26.191],[56.329,26.173],[56.336,26.16],[56.331,26.149],[56.33,26.137],[56.332,26.124],[56.336,26.112],[56.345,26.132],[56.353,26.143],[56.364,26.146],[56.37,26.139],[56.371,26.128],[56.368,26.115],[56.364,26.105],[56.383,26.097],[56.473,26.099],[56.464,26.085],[56.449,26.074],[56.418,26.057],[56.389,26.047],[56.38,26.038],[56.384,26.022],[56.409,26.034],[56.423,26.023],[56.423,26.005],[56.4,25.99],[56.405,25.98],[56.418,25.964],[56.422,25.957],[56.431,25.953],[56.453,25.947],[56.445,25.942],[56.443,25.939],[56.439,25.926],[56.424,25.933],[56.408,25.937],[56.393,25.936],[56.384,25.926],[56.399,25.902],[56.393,25.88],[56.376,25.859],[56.364,25.838],[56.363,25.831],[56.364,25.807],[56.344,25.79],[56.327,25.762],[56.316,25.75],[56.302,25.742],[56.302,25.763],[56.288,25.742],[56.274,25.709],[56.267,25.673],[56.274,25.639],[56.279,25.627],[56.238,25.617],[56.222,25.614],[56.206,25.618],[56.199,25.625],[56.189,25.645],[56.18,25.652],[56.156,25.656],[56.152,25.658]]]]}},{"type":"Feature","id":"OM-SH","properties":{"id":"OM-SH","countryCode":"OM","isoSubdivision":"OM-SH","name":"Ash Sharqiyah","name_en":"Ash Sharqiyah","name_ko":"샤르키야 지방","type":"Region","labelLongitude":58.963,"labelLatitude":21.596,"minZoom":8.7},"geometry":{"type":"MultiPolygon","coordinates":[[[[59.484,22.619],[59.507,22.6],[59.53,22.588],[59.535,22.583],[59.536,22.573],[59.53,22.57],[59.522,22.572],[59.516,22.576],[59.516,22.562],[59.523,22.555],[59.535,22.554],[59.55,22.555],[59.627,22.58],[59.653,22.57],[59.694,22.541],[59.7,22.541],[59.716,22.543],[59.721,22.541],[59.724,22.537],[59.726,22.526],[59.729,22.521],[59.728,22.518],[59.727,22.514],[59.728,22.508],[59.735,22.5],[59.74,22.498],[59.746,22.496],[59.753,22.494],[59.759,22.494],[59.763,22.499],[59.756,22.509],[59.742,22.525],[59.746,22.538],[59.756,22.538],[59.776,22.541],[59.803,22.535],[59.825,22.509],[59.839,22.475],[59.845,22.445],[59.825,22.281],[59.812,22.237],[59.792,22.198],[59.735,22.123],[59.705,22.1],[59.688,22.083],[59.681,22.065],[59.678,22.042],[59.66,21.994],[59.655,21.946],[59.645,21.926],[59.606,21.91],[59.593,21.893],[59.577,21.856],[59.498,21.756],[59.468,21.666],[59.449,21.625],[59.355,21.486],[59.348,21.454],[59.344,21.445],[59.336,21.438],[59.195,21.379],[59.166,21.363],[59.054,21.277],[58.919,21.144],[58.878,21.084],[58.868,21.075],[58.854,21.066],[58.839,21.045],[58.808,20.991],[58.804,20.982],[58.802,20.946],[58.799,20.936],[58.793,20.927],[58.735,20.883],[58.739,20.862],[58.722,20.848],[58.68,20.828],[58.681,20.826],[58.674,20.808],[58.673,20.808],[58.666,20.802],[58.661,20.796],[58.659,20.791],[58.661,20.782],[58.668,20.772],[58.676,20.764],[58.687,20.759],[58.701,20.766],[58.718,20.781],[58.729,20.787],[58.728,20.767],[58.718,20.754],[58.7,20.741],[58.682,20.736],[58.673,20.746],[58.667,20.746],[58.661,20.732],[58.653,20.705],[58.645,20.691],[58.637,20.684],[58.615,20.672],[58.605,20.663],[58.592,20.644],[58.581,20.618],[58.573,20.591],[58.57,20.564],[58.545,20.516],[58.531,20.481],[58.532,20.465],[58.527,20.458],[58.521,20.424],[58.519,20.417],[58.51,20.415],[58.497,20.411],[58.484,20.404],[58.474,20.396],[58.467,20.37],[58.446,20.359],[58.418,20.36],[58.392,20.368],[58.373,20.377],[58.359,20.382],[58.326,20.383],[58.314,20.381],[58.29,20.371],[58.276,20.368],[58.279,20.377],[58.285,20.382],[58.28,20.385],[58.244,20.394],[58.224,20.396],[58.203,20.405],[58.201,20.424],[58.213,20.465],[58.213,20.453],[58.217,20.442],[58.225,20.432],[58.235,20.424],[58.238,20.444],[58.228,20.489],[58.238,20.509],[58.251,20.529],[58.262,20.558],[58.264,20.588],[58.255,20.609],[58.397,21.044],[58.29,21.096],[58.178,21.397],[58.082,21.711],[58.34,21.798],[58.593,21.884],[58.828,21.963],[59.051,22.039],[59.268,22.148],[59.391,22.21],[59.44,22.33],[59.45,22.464],[59.431,22.516],[59.429,22.565],[59.484,22.619]]],[[[58.906,20.626],[58.908,20.605],[58.914,20.588],[58.945,20.535],[58.954,20.52],[58.95,20.509],[58.941,20.501],[58.903,20.474],[58.862,20.453],[58.844,20.437],[58.82,20.403],[58.808,20.38],[58.797,20.332],[58.788,20.315],[58.788,20.314],[58.788,20.303],[58.788,20.302],[58.789,20.293],[58.789,20.287],[58.785,20.28],[58.751,20.248],[58.733,20.225],[58.724,20.215],[58.715,20.212],[58.703,20.21],[58.691,20.208],[58.687,20.201],[58.683,20.191],[58.675,20.18],[58.664,20.171],[58.652,20.17],[58.647,20.18],[58.643,20.187],[58.637,20.218],[58.636,20.25],[58.639,20.267],[58.638,20.268],[58.636,20.277],[58.643,20.356],[58.648,20.369],[58.659,20.383],[58.665,20.388],[58.682,20.401],[58.69,20.403],[58.692,20.405],[58.694,20.407],[58.698,20.426],[58.701,20.431],[58.718,20.437],[58.734,20.438],[58.751,20.44],[58.769,20.452],[58.777,20.462],[58.781,20.467],[58.785,20.479],[58.785,20.482],[58.789,20.52],[58.796,20.538],[58.805,20.553],[58.853,20.613],[58.871,20.65],[58.883,20.683],[58.891,20.694],[58.906,20.698],[58.918,20.681],[58.917,20.664],[58.91,20.646],[58.906,20.626]]]]}},{"type":"Feature","id":"OM-SS","properties":{"id":"OM-SS","countryCode":"OM","isoSubdivision":"OM-SS","name":"Ash Sharqiyah North","name_en":"Ash Sharqiyah North","name_ko":"북동부","type":"Region","labelLongitude":58.565,"labelLatitude":22.294,"minZoom":8.7},"geometry":{"type":"Polygon","coordinates":[[[59.259,22.89],[59.286,22.826],[59.29,22.812],[59.298,22.793],[59.316,22.779],[59.352,22.761],[59.392,22.702],[59.397,22.686],[59.411,22.671],[59.452,22.634],[59.484,22.619],[59.429,22.565],[59.431,22.516],[59.45,22.464],[59.44,22.33],[59.391,22.21],[59.268,22.148],[59.051,22.039],[58.828,21.963],[58.593,21.884],[58.34,21.798],[58.082,21.711],[57.834,22.523],[57.933,22.714],[58.162,22.882],[58.224,22.888],[58.39,22.987],[58.541,23.022],[58.841,22.834],[59.17,22.794],[59.236,22.861],[59.259,22.89]]]}},{"type":"Feature","id":"OM-WU","properties":{"id":"OM-WU","countryCode":"OM","isoSubdivision":"OM-WU","name":"Al Wusta","name_en":"Al Wusta","name_ko":"중부","type":"Region","labelLongitude":56.871,"labelLatitude":20.426,"minZoom":8.7},"geometry":{"type":"Polygon","coordinates":[[[55.345,21.097],[55.357,21.136],[55.41,21.294],[55.46,21.443],[55.504,21.576],[55.541,21.689],[55.57,21.775],[55.589,21.831],[55.595,21.851],[55.6,21.866],[55.624,21.87],[56.326,22.015],[57.972,21.248],[58.29,21.096],[58.397,21.044],[58.255,20.609],[58.235,20.616],[58.206,20.613],[58.176,20.605],[58.144,20.585],[58.104,20.575],[58.091,20.567],[58.084,20.558],[58.067,20.511],[58.067,20.5],[58.073,20.489],[58.076,20.48],[58.068,20.472],[58.055,20.467],[58.031,20.462],[58.012,20.453],[57.994,20.442],[57.971,20.421],[57.962,20.411],[57.956,20.4],[57.953,20.386],[57.957,20.377],[57.971,20.362],[57.974,20.352],[57.967,20.33],[57.949,20.318],[57.905,20.301],[57.888,20.291],[57.87,20.277],[57.856,20.261],[57.85,20.242],[57.845,20.231],[57.834,20.218],[57.824,20.201],[57.823,20.177],[57.842,20.136],[57.848,20.112],[57.832,20.075],[57.816,20.021],[57.816,20.007],[57.814,19.977],[57.79,19.924],[57.774,19.868],[57.762,19.843],[57.699,19.754],[57.689,19.728],[57.693,19.697],[57.7,19.686],[57.709,19.677],[57.717,19.667],[57.72,19.653],[57.721,19.623],[57.719,19.608],[57.714,19.595],[57.707,19.569],[57.704,19.549],[57.712,19.529],[57.76,19.454],[57.768,19.437],[57.774,19.41],[57.774,19.383],[57.769,19.358],[57.752,19.312],[57.748,19.291],[57.751,19.268],[57.771,19.217],[57.781,19.201],[57.806,19.173],[57.812,19.157],[57.803,19.115],[57.802,19.095],[57.84,19.03],[57.84,19.015],[57.816,18.992],[57.801,18.981],[57.797,18.979],[57.752,18.973],[57.747,18.968],[57.743,18.962],[57.732,18.954],[57.719,18.947],[57.71,18.944],[57.501,18.954],[57.445,18.945],[56.577,19.166],[55.358,21.078],[55.345,21.097]]]}},{"type":"Feature","id":"OM-ZA","properties":{"id":"OM-ZA","countryCode":"OM","isoSubdivision":"OM-ZA","name":"Ad Dhahirah","name_en":"Ad Dhahirah","name_ko":"다히라","type":"Region","labelLongitude":55.933,"labelLatitude":22.913,"minZoom":8.7},"geometry":{"type":"Polygon","coordinates":[[[55.187,22.704],[55.198,22.849],[55.191,22.995],[55.195,23.025],[55.226,23.121],[55.321,23.275],[55.343,23.336],[55.364,23.436],[55.375,23.469],[55.394,23.495],[55.431,23.533],[55.445,23.552],[55.583,23.54],[55.687,23.595],[55.819,23.63],[55.889,23.672],[55.854,23.818],[55.896,23.867],[55.958,23.895],[55.958,23.978],[56.014,24.013],[56.16,24.041],[56.279,24.041],[56.313,24.14],[56.468,24.077],[56.765,23.836],[56.857,23.512],[56.875,23.491],[56.683,22.697],[56.524,22.254],[56.326,22.015],[55.624,21.87],[55.6,21.866],[55.638,21.979],[55.637,22.002],[55.627,22.024],[55.574,22.106],[55.493,22.231],[55.412,22.356],[55.331,22.481],[55.25,22.605],[55.187,22.704]]]}},{"type":"Feature","id":"OM-ZU","properties":{"id":"OM-ZU","countryCode":"OM","isoSubdivision":"OM-ZU","name":"Dhofar","name_en":"Dhofar","name_ko":"도파르","type":"Province","labelLongitude":54.293,"labelLatitude":18.497,"minZoom":8.7},"geometry":{"type":"MultiPolygon","coordinates":[[[[51.986,18.98],[51.979,18.996],[52.09,19.033],[52.261,19.09],[52.432,19.147],[52.603,19.204],[52.774,19.261],[52.946,19.318],[53.117,19.375],[53.288,19.432],[53.459,19.489],[53.63,19.546],[53.801,19.603],[53.972,19.66],[54.143,19.717],[54.315,19.774],[54.486,19.831],[54.657,19.888],[54.828,19.945],[54.978,19.995],[55.011,20.092],[55.017,20.112],[55.036,20.168],[55.064,20.254],[55.102,20.367],[55.146,20.5],[55.196,20.649],[55.248,20.807],[55.303,20.971],[55.345,21.097],[55.358,21.078],[56.577,19.166],[57.445,18.945],[57.208,18.91],[57.084,18.876],[56.915,18.81],[56.85,18.766],[56.808,18.746],[56.785,18.729],[56.775,18.707],[56.766,18.697],[56.66,18.595],[56.641,18.559],[56.637,18.512],[56.643,18.479],[56.644,18.468],[56.641,18.455],[56.627,18.436],[56.621,18.42],[56.612,18.4],[56.61,18.389],[56.61,18.347],[56.601,18.305],[56.549,18.19],[56.564,18.17],[56.561,18.149],[56.547,18.13],[56.528,18.115],[56.484,18.097],[56.463,18.084],[56.432,18.032],[56.426,18.027],[56.411,18.023],[56.404,18.019],[56.358,17.97],[56.355,17.962],[56.356,17.94],[56.345,17.938],[56.188,17.957],[56.168,17.954],[56.138,17.941],[56.116,17.937],[56.031,17.943],[56.011,17.94],[55.946,17.915],[55.909,17.907],[55.653,17.895],[55.553,17.87],[55.531,17.868],[55.522,17.866],[55.517,17.862],[55.513,17.857],[55.507,17.854],[55.488,17.853],[55.487,17.854],[55.454,17.845],[55.445,17.841],[55.432,17.825],[55.417,17.785],[55.408,17.769],[55.393,17.752],[55.389,17.744],[55.373,17.703],[55.369,17.696],[55.356,17.682],[55.263,17.608],[55.235,17.559],[55.228,17.539],[55.225,17.515],[55.23,17.489],[55.24,17.475],[55.274,17.457],[55.293,17.438],[55.301,17.417],[55.301,17.371],[55.294,17.352],[55.253,17.299],[55.251,17.29],[55.25,17.276],[55.251,17.264],[55.257,17.258],[55.265,17.255],[55.265,17.247],[55.26,17.234],[55.255,17.229],[55.229,17.216],[55.219,17.21],[55.213,17.202],[55.209,17.194],[55.205,17.176],[55.195,17.161],[55.199,17.156],[55.189,17.145],[55.159,17.136],[55.144,17.128],[55.138,17.119],[55.133,17.105],[55.125,17.092],[55.113,17.087],[55.072,17.042],[55.027,17.011],[55.021,17.011],[55.011,17.026],[54.999,17.02],[54.987,17.005],[54.975,16.997],[54.96,16.995],[54.945,16.99],[54.931,16.987],[54.917,16.991],[54.901,16.975],[54.883,16.969],[54.842,16.964],[54.808,16.951],[54.792,16.951],[54.781,16.964],[54.769,16.958],[54.751,16.961],[54.739,16.956],[54.705,16.978],[54.698,16.97],[54.69,16.989],[54.685,17.007],[54.674,17.02],[54.633,17.027],[54.604,17.036],[54.592,17.038],[54.58,17.037],[54.56,17.033],[54.548,17.032],[54.512,17.038],[54.499,17.038],[54.489,17.036],[54.468,17.027],[54.462,17.025],[54.415,17.038],[54.39,17.039],[54.369,17.025],[54.36,17.03],[54.35,17.032],[54.164,17.011],[54.085,17.011],[54.068,17.007],[54.023,16.985],[54.013,16.978],[54.009,16.969],[54.009,16.961],[54.011,16.954],[54.013,16.946],[54.009,16.937],[53.995,16.925],[53.992,16.919],[53.981,16.909],[53.956,16.904],[53.91,16.901],[53.85,16.889],[53.831,16.888],[53.813,16.882],[53.792,16.87],[53.771,16.863],[53.753,16.868],[53.735,16.856],[53.709,16.836],[53.687,16.814],[53.678,16.795],[53.669,16.784],[53.651,16.773],[53.615,16.758],[53.583,16.75],[53.423,16.747],[53.339,16.735],[53.175,16.685],[53.09,16.642],[53.028,16.777],[52.965,16.913],[52.903,17.048],[52.84,17.184],[52.802,17.267],[52.791,17.281],[52.774,17.287],[52.736,17.289],[52.721,17.298],[52.723,17.299],[52.728,17.299],[52.73,17.3],[52.698,17.371],[52.656,17.468],[52.613,17.565],[52.57,17.661],[52.527,17.758],[52.485,17.854],[52.442,17.951],[52.399,18.047],[52.356,18.144],[52.313,18.24],[52.271,18.337],[52.228,18.433],[52.185,18.53],[52.142,18.627],[52.1,18.723],[52.057,18.82],[52.014,18.916],[51.986,18.98]]],[[[55.836,17.491],[55.832,17.5],[55.832,17.502],[55.837,17.51],[55.849,17.515],[55.863,17.519],[55.883,17.507],[55.891,17.505],[55.876,17.496],[55.846,17.496],[55.836,17.491]]],[[[56.055,17.56],[56.058,17.546],[56.058,17.544],[56.068,17.532],[56.081,17.524],[56.096,17.519],[56.064,17.5],[56.047,17.493],[56.031,17.491],[55.987,17.493],[55.973,17.498],[55.964,17.52],[55.991,17.535],[56.029,17.548],[56.055,17.56]]]]}}]}
