{"type":"FeatureCollection","features":[{"type":"Feature","id":"PA-1","properties":{"id":"PA-1","countryCode":"PA","isoSubdivision":"PA-1","name":"comarca Ngäbe-Buglé","name_en":"comarca Ngäbe-Buglé","name_ko":"보카스델토로","type":"Province","labelLongitude":-82.66,"labelLatitude":9.207,"minZoom":7.7},"geometry":{"type":"MultiPolygon","coordinates":[[[[-82.829,9.603],[-82.771,9.58],[-82.729,9.545],[-82.72,9.541],[-82.712,9.545],[-82.701,9.534],[-82.689,9.509],[-82.678,9.498],[-82.668,9.493],[-82.651,9.488],[-82.632,9.485],[-82.619,9.487],[-82.612,9.499],[-82.608,9.538],[-82.601,9.549],[-82.586,9.546],[-82.571,9.538],[-82.563,9.539],[-82.574,9.576],[-82.562,9.569],[-82.466,9.494],[-82.407,9.435],[-82.369,9.415],[-82.343,9.433],[-82.345,9.415],[-82.35,9.402],[-82.377,9.355],[-82.379,9.344],[-82.376,9.33],[-82.368,9.321],[-82.356,9.313],[-82.348,9.306],[-82.349,9.295],[-82.362,9.284],[-82.388,9.286],[-82.39,9.275],[-82.395,9.267],[-82.394,9.262],[-82.389,9.26],[-82.383,9.261],[-82.373,9.255],[-82.364,9.243],[-82.358,9.229],[-82.356,9.217],[-82.351,9.207],[-82.315,9.185],[-82.308,9.185],[-82.3,9.197],[-82.288,9.199],[-82.282,9.202],[-82.294,9.22],[-82.281,9.217],[-82.276,9.206],[-82.273,9.194],[-82.266,9.185],[-82.255,9.183],[-82.248,9.187],[-82.244,9.198],[-82.246,9.213],[-82.239,9.213],[-82.238,9.2],[-82.231,9.194],[-82.223,9.193],[-82.219,9.196],[-82.219,9.209],[-82.217,9.217],[-82.213,9.22],[-82.205,9.213],[-82.204,9.217],[-82.204,9.219],[-82.203,9.221],[-82.198,9.22],[-82.196,9.211],[-82.193,9.204],[-82.19,9.198],[-82.184,9.193],[-82.178,9.193],[-82.178,9.2],[-82.171,9.2],[-82.173,9.185],[-82.172,9.157],[-82.178,9.145],[-82.208,9.164],[-82.224,9.17],[-82.25,9.172],[-82.261,9.164],[-82.264,9.147],[-82.261,9.128],[-82.253,9.117],[-82.253,9.11],[-82.259,9.113],[-82.274,9.117],[-82.268,9.102],[-82.245,9.09],[-82.239,9.079],[-82.246,9.014],[-82.25,9.015],[-82.253,9.016],[-82.256,9.018],[-82.26,9.021],[-82.243,9.004],[-82.219,8.993],[-82.195,8.991],[-82.178,9.001],[-82.142,8.989],[-82.129,8.981],[-82.129,8.973],[-82.114,8.951],[-82.109,8.945],[-82.107,8.942],[-82.105,8.935],[-82.102,8.932],[-82.098,8.931],[-82.087,8.932],[-82.068,8.931],[-82.02,8.945],[-82.007,8.947],[-82.008,8.942],[-82.016,8.919],[-82.035,8.908],[-82.061,8.902],[-82.102,8.902],[-82.132,8.901],[-82.151,8.891],[-82.164,8.871],[-82.17,8.848],[-82.179,8.844],[-82.187,8.856],[-82.192,8.882],[-82.196,8.891],[-82.209,8.899],[-82.211,8.917],[-82.2,8.925],[-82.196,8.942],[-82.202,8.955],[-82.226,8.97],[-82.262,8.977],[-82.273,8.987],[-82.28,8.998],[-82.301,9.002],[-82.322,9.009],[-82.323,9.024],[-82.318,9.039],[-82.303,9.051],[-82.29,9.067],[-82.28,9.081],[-82.288,9.084],[-82.308,9.092],[-82.316,9.099],[-82.31,9.114],[-82.314,9.126],[-82.323,9.128],[-82.338,9.112],[-82.352,9.086],[-82.353,9.062],[-82.38,9.039],[-82.393,9.026],[-82.427,9.013],[-82.44,9],[-82.428,8.989],[-82.408,8.981],[-82.37,8.968],[-82.348,8.949],[-82.335,8.925],[-82.331,8.904],[-82.338,8.889],[-82.348,8.857],[-82.355,8.827],[-82.363,8.809],[-82.446,8.847],[-82.492,8.861],[-82.53,8.863],[-82.541,8.885],[-82.552,8.894],[-82.568,8.9],[-82.625,8.903],[-82.693,8.894],[-82.715,8.916],[-82.72,8.92],[-82.719,8.922],[-82.723,8.931],[-82.749,8.974],[-82.763,8.983],[-82.808,8.998],[-82.854,9.032],[-82.877,9.042],[-82.882,9.045],[-82.887,9.051],[-82.89,9.059],[-82.893,9.067],[-82.9,9.072],[-82.909,9.072],[-82.939,9.06],[-82.94,9.071],[-82.942,9.234],[-82.943,9.354],[-82.944,9.437],[-82.942,9.456],[-82.933,9.47],[-82.915,9.477],[-82.861,9.484],[-82.846,9.493],[-82.845,9.501],[-82.849,9.503],[-82.856,9.505],[-82.86,9.511],[-82.867,9.539],[-82.879,9.56],[-82.877,9.569],[-82.866,9.585],[-82.847,9.601],[-82.829,9.603]]],[[[-82.123,9.323],[-82.098,9.311],[-82.085,9.303],[-82.075,9.289],[-82.094,9.291],[-82.114,9.283],[-82.13,9.268],[-82.139,9.245],[-82.144,9.247],[-82.154,9.258],[-82.154,9.259],[-82.152,9.26],[-82.15,9.264],[-82.15,9.287],[-82.154,9.296],[-82.164,9.302],[-82.164,9.308],[-82.15,9.302],[-82.159,9.323],[-82.174,9.33],[-82.193,9.334],[-82.212,9.343],[-82.212,9.349],[-82.206,9.354],[-82.201,9.356],[-82.196,9.355],[-82.191,9.349],[-82.182,9.346],[-82.174,9.344],[-82.166,9.345],[-82.157,9.349],[-82.147,9.345],[-82.123,9.323]]],[[[-82.328,9.412],[-82.302,9.432],[-82.286,9.439],[-82.266,9.439],[-82.239,9.399],[-82.232,9.373],[-82.246,9.357],[-82.246,9.349],[-82.242,9.345],[-82.24,9.342],[-82.242,9.338],[-82.246,9.33],[-82.26,9.353],[-82.281,9.375],[-82.328,9.412]]],[[[-82.047,9.173],[-82.052,9.178],[-82.052,9.182],[-82.046,9.179],[-82.041,9.173],[-82.036,9.17],[-82.029,9.169],[-82.025,9.161],[-82.023,9.154],[-82.016,9.151],[-82.009,9.148],[-82.01,9.141],[-82.02,9.137],[-82.027,9.133],[-82.033,9.135],[-82.042,9.141],[-82.05,9.146],[-82.055,9.154],[-82.055,9.162],[-82.047,9.173]]]]}},{"type":"Feature","id":"PA-2","properties":{"id":"PA-2","countryCode":"PA","isoSubdivision":"PA-2","name":"Coclé","name_en":"Coclé","name_ko":"코클레","type":"Province","labelLongitude":-80.431,"labelLatitude":8.577,"minZoom":7.7},"geometry":{"type":"Polygon","coordinates":[[[-80.041,8.398],[-80.081,8.372],[-80.126,8.349],[-80.196,8.313],[-80.225,8.301],[-80.273,8.295],[-80.282,8.296],[-80.294,8.3],[-80.3,8.301],[-80.309,8.299],[-80.326,8.29],[-80.334,8.288],[-80.361,8.295],[-80.375,8.303],[-80.381,8.31],[-80.376,8.315],[-80.386,8.311],[-80.386,8.307],[-80.385,8.302],[-80.389,8.295],[-80.407,8.283],[-80.47,8.221],[-80.478,8.202],[-80.475,8.106],[-80.476,8.095],[-80.478,8.091],[-80.491,8.095],[-80.515,8.111],[-80.526,8.116],[-80.532,8.115],[-80.544,8.107],[-80.549,8.106],[-80.558,8.113],[-80.577,8.133],[-80.591,8.139],[-80.61,8.137],[-80.646,8.125],[-80.663,8.124],[-80.687,8.133],[-80.734,8.164],[-80.738,8.181],[-80.712,8.227],[-80.697,8.277],[-80.693,8.309],[-80.718,8.349],[-80.757,8.45],[-80.78,8.491],[-80.801,8.519],[-80.822,8.538],[-80.81,8.548],[-80.779,8.553],[-80.751,8.586],[-80.739,8.615],[-80.716,8.614],[-80.706,8.63],[-80.695,8.642],[-80.693,8.652],[-80.695,8.663],[-80.696,8.675],[-80.695,8.694],[-80.685,8.715],[-80.677,8.738],[-80.667,8.752],[-80.652,8.767],[-80.64,8.772],[-80.63,8.774],[-80.612,8.77],[-80.601,8.769],[-80.586,8.77],[-80.569,8.775],[-80.555,8.782],[-80.542,8.791],[-80.536,8.806],[-80.533,8.821],[-80.535,8.852],[-80.538,8.861],[-80.541,8.866],[-80.543,8.871],[-80.542,8.881],[-80.531,8.917],[-80.524,8.925],[-80.516,8.927],[-80.425,8.893],[-80.411,8.885],[-80.39,8.878],[-80.365,8.875],[-80.355,8.872],[-80.342,8.877],[-80.326,8.889],[-80.247,8.964],[-80.233,8.973],[-80.222,8.978],[-80.215,8.986],[-80.208,8.998],[-80.202,9.027],[-80.192,9.047],[-80.178,9.022],[-80.177,9.011],[-80.171,8.976],[-80.164,8.966],[-80.157,8.959],[-80.15,8.955],[-80.137,8.949],[-80.133,8.922],[-80.156,8.889],[-80.162,8.872],[-80.165,8.854],[-80.164,8.831],[-80.138,8.755],[-80.113,8.643],[-80.107,8.626],[-80.103,8.592],[-80.104,8.583],[-80.105,8.551],[-80.096,8.527],[-80.092,8.471],[-80.086,8.455],[-80.082,8.446],[-80.041,8.398]]]}},{"type":"Feature","id":"PA-3","properties":{"id":"PA-3","countryCode":"PA","isoSubdivision":"PA-3","name":"Colón","name_en":"Colón","name_ko":"콜론","type":"Province","labelLongitude":-79.968,"labelLatitude":9.17,"minZoom":7.7},"geometry":{"type":"Polygon","coordinates":[[[-80.579,9.081],[-80.507,9.111],[-80.408,9.142],[-80.293,9.151],[-80.277,9.156],[-80.245,9.175],[-80.235,9.179],[-80.2,9.183],[-80.163,9.193],[-80.13,9.206],[-80.101,9.222],[-80.065,9.262],[-80.026,9.297],[-80.001,9.321],[-79.999,9.332],[-79.979,9.363],[-79.954,9.373],[-79.947,9.373],[-79.944,9.364],[-79.946,9.326],[-79.944,9.316],[-79.938,9.309],[-79.929,9.304],[-79.919,9.303],[-79.909,9.308],[-79.902,9.327],[-79.9,9.347],[-79.895,9.356],[-79.875,9.343],[-79.877,9.352],[-79.88,9.369],[-79.882,9.377],[-79.879,9.375],[-79.875,9.371],[-79.868,9.377],[-79.88,9.395],[-79.871,9.404],[-79.86,9.399],[-79.841,9.401],[-79.819,9.391],[-79.8,9.361],[-79.793,9.349],[-79.797,9.371],[-79.802,9.387],[-79.803,9.401],[-79.793,9.418],[-79.778,9.432],[-79.748,9.443],[-79.732,9.453],[-79.729,9.456],[-79.727,9.463],[-79.725,9.467],[-79.721,9.469],[-79.715,9.48],[-79.705,9.485],[-79.691,9.496],[-79.684,9.521],[-79.677,9.546],[-79.66,9.552],[-79.652,9.56],[-79.656,9.565],[-79.668,9.561],[-79.677,9.558],[-79.682,9.565],[-79.676,9.569],[-79.67,9.573],[-79.664,9.583],[-79.65,9.59],[-79.639,9.599],[-79.63,9.608],[-79.612,9.614],[-79.596,9.612],[-79.577,9.618],[-79.551,9.629],[-79.533,9.624],[-79.528,9.612],[-79.523,9.603],[-79.522,9.595],[-79.533,9.59],[-79.533,9.583],[-79.523,9.579],[-79.523,9.577],[-79.519,9.569],[-79.514,9.572],[-79.511,9.575],[-79.508,9.577],[-79.505,9.583],[-79.498,9.583],[-79.492,9.579],[-79.484,9.575],[-79.464,9.569],[-79.463,9.578],[-79.457,9.596],[-79.451,9.587],[-79.445,9.584],[-79.437,9.585],[-79.43,9.59],[-79.392,9.581],[-79.336,9.574],[-79.273,9.557],[-79.24,9.546],[-79.194,9.54],[-79.175,9.549],[-79.156,9.555],[-79.133,9.553],[-79.116,9.552],[-79.099,9.556],[-79.08,9.562],[-79.075,9.562],[-79.075,9.541],[-79.075,9.457],[-79.079,9.451],[-79.087,9.449],[-79.096,9.448],[-79.102,9.446],[-79.113,9.439],[-79.121,9.432],[-79.132,9.415],[-79.136,9.406],[-79.137,9.39],[-79.139,9.384],[-79.142,9.378],[-79.148,9.372],[-79.157,9.367],[-79.176,9.36],[-79.193,9.353],[-79.22,9.336],[-79.239,9.32],[-79.243,9.321],[-79.247,9.331],[-79.24,9.34],[-79.239,9.344],[-79.238,9.35],[-79.239,9.357],[-79.243,9.364],[-79.248,9.369],[-79.257,9.372],[-79.262,9.376],[-79.262,9.381],[-79.254,9.391],[-79.252,9.397],[-79.257,9.402],[-79.267,9.407],[-79.29,9.415],[-79.308,9.415],[-79.318,9.412],[-79.329,9.404],[-79.335,9.402],[-79.359,9.403],[-79.368,9.401],[-79.384,9.395],[-79.391,9.394],[-79.396,9.396],[-79.399,9.403],[-79.397,9.409],[-79.394,9.414],[-79.388,9.418],[-79.376,9.423],[-79.371,9.425],[-79.37,9.428],[-79.371,9.433],[-79.381,9.445],[-79.385,9.451],[-79.391,9.46],[-79.4,9.466],[-79.416,9.472],[-79.441,9.479],[-79.485,9.469],[-79.523,9.454],[-79.548,9.366],[-79.551,9.356],[-79.55,9.348],[-79.547,9.344],[-79.548,9.334],[-79.552,9.318],[-79.565,9.285],[-79.57,9.264],[-79.572,9.249],[-79.568,9.231],[-79.569,9.224],[-79.574,9.218],[-79.588,9.212],[-79.605,9.207],[-79.622,9.199],[-79.629,9.194],[-79.635,9.19],[-79.642,9.163],[-79.67,9.128],[-79.688,9.116],[-79.705,9.11],[-79.756,9.109],[-79.778,9.114],[-79.79,9.126],[-79.809,9.158],[-79.819,9.168],[-79.83,9.173],[-79.858,9.179],[-79.889,9.194],[-79.906,9.191],[-79.921,9.175],[-79.963,9.083],[-79.957,9.066],[-79.949,9.051],[-79.946,9.039],[-79.945,9.024],[-79.951,9.008],[-79.956,8.997],[-79.985,8.978],[-80.022,8.966],[-80.05,8.968],[-80.093,8.984],[-80.137,8.949],[-80.15,8.955],[-80.157,8.959],[-80.164,8.966],[-80.171,8.976],[-80.177,9.011],[-80.178,9.022],[-80.192,9.047],[-80.202,9.027],[-80.208,8.998],[-80.215,8.986],[-80.222,8.978],[-80.233,8.973],[-80.247,8.964],[-80.326,8.889],[-80.342,8.877],[-80.355,8.872],[-80.365,8.875],[-80.39,8.878],[-80.411,8.885],[-80.425,8.893],[-80.516,8.927],[-80.524,8.925],[-80.531,8.917],[-80.542,8.881],[-80.543,8.871],[-80.541,8.866],[-80.538,8.861],[-80.535,8.852],[-80.533,8.821],[-80.536,8.806],[-80.542,8.791],[-80.555,8.782],[-80.569,8.775],[-80.586,8.77],[-80.601,8.769],[-80.612,8.77],[-80.63,8.774],[-80.64,8.772],[-80.652,8.767],[-80.667,8.752],[-80.677,8.738],[-80.685,8.715],[-80.695,8.694],[-80.696,8.675],[-80.695,8.663],[-80.693,8.652],[-80.695,8.642],[-80.706,8.63],[-80.716,8.614],[-80.739,8.615],[-80.724,8.646],[-80.726,8.653],[-80.728,8.659],[-80.733,8.664],[-80.738,8.672],[-80.742,8.691],[-80.739,8.703],[-80.733,8.715],[-80.728,8.73],[-80.734,8.745],[-80.74,8.756],[-80.762,8.779],[-80.769,8.784],[-80.78,8.789],[-80.798,8.795],[-80.815,8.803],[-80.833,8.815],[-80.841,8.821],[-80.851,8.833],[-80.857,8.844],[-80.86,8.854],[-80.862,8.874],[-80.862,8.877],[-80.863,8.885],[-80.845,8.884],[-80.822,8.891],[-80.813,8.903],[-80.804,8.912],[-80.784,8.939],[-80.773,8.953],[-80.763,8.96],[-80.759,8.963],[-80.756,8.97],[-80.751,8.977],[-80.742,8.98],[-80.727,8.997],[-80.703,9.008],[-80.667,9.03],[-80.653,9.035],[-80.637,9.052],[-80.579,9.081]]]}},{"type":"Feature","id":"PA-4","properties":{"id":"PA-4","countryCode":"PA","isoSubdivision":"PA-4","name":"Chiriquí","name_en":"Chiriquí","name_ko":"치리키","type":"Province","labelLongitude":-82.099,"labelLatitude":8.308,"minZoom":7.7},"geometry":{"type":"MultiPolygon","coordinates":[[[[-82.989,8.264],[-82.996,8.265],[-83.001,8.269],[-83.011,8.283],[-83.016,8.289],[-83.044,8.305],[-83.053,8.315],[-83.052,8.328],[-83.043,8.335],[-82.998,8.36],[-82.954,8.402],[-82.925,8.417],[-82.897,8.425],[-82.87,8.438],[-82.848,8.465],[-82.839,8.495],[-82.836,8.53],[-82.842,8.599],[-82.85,8.63],[-82.862,8.656],[-82.879,8.679],[-82.91,8.714],[-82.919,8.727],[-82.924,8.741],[-82.923,8.756],[-82.915,8.765],[-82.885,8.783],[-82.876,8.794],[-82.876,8.808],[-82.884,8.812],[-82.888,8.817],[-82.879,8.83],[-82.867,8.838],[-82.764,8.88],[-82.734,8.898],[-82.72,8.92],[-82.715,8.916],[-82.693,8.894],[-82.625,8.903],[-82.568,8.9],[-82.552,8.894],[-82.541,8.885],[-82.53,8.863],[-82.492,8.861],[-82.446,8.847],[-82.363,8.809],[-82.361,8.808],[-82.318,8.791],[-82.3,8.782],[-82.282,8.777],[-82.251,8.772],[-82.224,8.769],[-82.218,8.77],[-82.204,8.772],[-82.196,8.772],[-82.155,8.763],[-82.153,8.763],[-82.14,8.704],[-82.149,8.619],[-82.157,8.59],[-82.153,8.569],[-82.143,8.557],[-82.175,8.482],[-82.18,8.458],[-82.164,8.449],[-82.133,8.449],[-82.1,8.458],[-82.084,8.464],[-82.074,8.467],[-82.064,8.461],[-82.053,8.447],[-82.037,8.418],[-82.021,8.402],[-82.018,8.371],[-81.997,8.34],[-81.949,8.328],[-81.856,8.327],[-81.83,8.318],[-81.813,8.287],[-81.784,8.264],[-81.732,8.262],[-81.716,8.278],[-81.705,8.295],[-81.69,8.297],[-81.68,8.277],[-81.656,8.282],[-81.634,8.297],[-81.624,8.314],[-81.61,8.348],[-81.592,8.372],[-81.548,8.386],[-81.522,8.379],[-81.519,8.342],[-81.513,8.311],[-81.51,8.281],[-81.513,8.251],[-81.516,8.246],[-81.517,8.244],[-81.523,8.239],[-81.573,8.176],[-81.598,8.152],[-81.602,8.145],[-81.606,8.135],[-81.632,8.035],[-81.634,8.023],[-81.638,8.011],[-81.642,8.003],[-81.663,7.998],[-81.664,7.997],[-81.671,8.007],[-81.685,8.045],[-81.691,8.055],[-81.697,8.039],[-81.698,8.031],[-81.698,8.021],[-81.708,8.031],[-81.709,8.046],[-81.71,8.06],[-81.726,8.068],[-81.726,8.076],[-81.717,8.071],[-81.709,8.069],[-81.703,8.07],[-81.698,8.076],[-81.691,8.076],[-81.688,8.073],[-81.685,8.072],[-81.677,8.068],[-81.711,8.13],[-81.734,8.158],[-81.743,8.173],[-81.746,8.192],[-81.752,8.192],[-81.758,8.181],[-81.761,8.17],[-81.757,8.161],[-81.746,8.158],[-81.752,8.149],[-81.767,8.133],[-81.774,8.123],[-81.78,8.123],[-81.798,8.137],[-81.877,8.168],[-81.885,8.173],[-81.927,8.183],[-81.941,8.185],[-81.952,8.191],[-81.948,8.206],[-81.931,8.233],[-81.943,8.23],[-81.957,8.221],[-81.968,8.209],[-81.972,8.196],[-81.978,8.193],[-81.992,8.201],[-82.013,8.219],[-82.028,8.208],[-82.06,8.21],[-82.093,8.22],[-82.109,8.233],[-82.116,8.233],[-82.117,8.215],[-82.142,8.16],[-82.145,8.162],[-82.149,8.164],[-82.15,8.164],[-82.15,8.158],[-82.157,8.158],[-82.147,8.181],[-82.148,8.188],[-82.157,8.185],[-82.155,8.193],[-82.154,8.199],[-82.15,8.203],[-82.143,8.205],[-82.143,8.213],[-82.157,8.212],[-82.174,8.202],[-82.188,8.199],[-82.197,8.202],[-82.209,8.216],[-82.219,8.219],[-82.219,8.226],[-82.214,8.227],[-82.21,8.231],[-82.205,8.233],[-82.217,8.264],[-82.218,8.278],[-82.212,8.288],[-82.212,8.295],[-82.218,8.299],[-82.219,8.304],[-82.216,8.31],[-82.212,8.315],[-82.211,8.313],[-82.211,8.31],[-82.21,8.308],[-82.205,8.308],[-82.21,8.322],[-82.209,8.332],[-82.201,8.339],[-82.184,8.343],[-82.208,8.344],[-82.22,8.343],[-82.225,8.34],[-82.241,8.307],[-82.242,8.301],[-82.262,8.303],[-82.277,8.309],[-82.284,8.322],[-82.28,8.343],[-82.296,8.336],[-82.314,8.331],[-82.332,8.33],[-82.349,8.336],[-82.347,8.329],[-82.345,8.315],[-82.343,8.308],[-82.359,8.306],[-82.387,8.291],[-82.4,8.288],[-82.419,8.293],[-82.433,8.304],[-82.435,8.316],[-82.417,8.323],[-82.417,8.329],[-82.426,8.332],[-82.43,8.338],[-82.432,8.346],[-82.431,8.356],[-82.441,8.349],[-82.443,8.336],[-82.447,8.324],[-82.466,8.315],[-82.466,8.308],[-82.461,8.303],[-82.457,8.296],[-82.454,8.289],[-82.452,8.281],[-82.471,8.277],[-82.478,8.277],[-82.486,8.281],[-82.512,8.276],[-82.553,8.287],[-82.623,8.315],[-82.659,8.323],[-82.699,8.323],[-82.738,8.317],[-82.809,8.296],[-82.839,8.279],[-82.862,8.254],[-82.877,8.219],[-82.88,8.178],[-82.873,8.136],[-82.849,8.068],[-82.849,8.062],[-82.862,8.049],[-82.868,8.032],[-82.877,8.024],[-82.898,8.035],[-82.891,8.058],[-82.886,8.102],[-82.939,8.217],[-82.944,8.249],[-82.951,8.259],[-82.968,8.268],[-82.977,8.269],[-82.989,8.264]]],[[[-82.212,8.199],[-82.233,8.205],[-82.247,8.207],[-82.253,8.202],[-82.253,8.193],[-82.253,8.188],[-82.246,8.171],[-82.274,8.192],[-82.281,8.194],[-82.301,8.196],[-82.308,8.199],[-82.316,8.215],[-82.306,8.224],[-82.274,8.233],[-82.26,8.227],[-82.239,8.221],[-82.22,8.212],[-82.212,8.199]]],[[[-82.343,8.26],[-82.315,8.24],[-82.335,8.235],[-82.37,8.217],[-82.386,8.213],[-82.398,8.218],[-82.413,8.231],[-82.425,8.247],[-82.431,8.26],[-82.425,8.26],[-82.402,8.257],[-82.35,8.294],[-82.328,8.288],[-82.317,8.277],[-82.317,8.268],[-82.327,8.263],[-82.343,8.268],[-82.343,8.26]]],[[[-82.362,8.087],[-82.359,8.099],[-82.352,8.112],[-82.343,8.123],[-82.332,8.13],[-82.321,8.13],[-82.318,8.124],[-82.319,8.113],[-82.318,8.1],[-82.337,8.092],[-82.347,8.088],[-82.362,8.087]]]]}},{"type":"Feature","id":"PA-5","properties":{"id":"PA-5","countryCode":"PA","isoSubdivision":"PA-5","name":"Darién","name_en":"Darién","name_ko":"다리엔","type":"Province","labelLongitude":-77.707,"labelLatitude":7.902,"minZoom":7.7},"geometry":{"type":"Polygon","coordinates":[[[-77.269,8.168],[-77.26,8.154],[-77.231,8.099],[-77.21,8.021],[-77.208,7.997],[-77.201,7.982],[-77.192,7.973],[-77.181,7.965],[-77.171,7.955],[-77.163,7.939],[-77.169,7.935],[-77.206,7.935],[-77.236,7.929],[-77.27,7.918],[-77.3,7.902],[-77.322,7.881],[-77.347,7.824],[-77.377,7.787],[-77.38,7.774],[-77.367,7.745],[-77.346,7.726],[-77.34,7.707],[-77.369,7.681],[-77.509,7.594],[-77.555,7.548],[-77.58,7.528],[-77.603,7.526],[-77.613,7.537],[-77.625,7.587],[-77.633,7.601],[-77.661,7.638],[-77.663,7.64],[-77.672,7.642],[-77.675,7.645],[-77.675,7.648],[-77.671,7.657],[-77.67,7.66],[-77.68,7.671],[-77.73,7.713],[-77.74,7.719],[-77.764,7.706],[-77.771,7.669],[-77.766,7.626],[-77.757,7.596],[-77.734,7.552],[-77.731,7.53],[-77.74,7.505],[-77.755,7.486],[-77.774,7.475],[-77.796,7.471],[-77.82,7.477],[-77.855,7.365],[-77.896,7.235],[-77.897,7.235],[-77.919,7.242],[-77.948,7.268],[-77.99,7.321],[-78.006,7.332],[-78.014,7.341],[-78.018,7.352],[-78.016,7.363],[-78.012,7.373],[-78.01,7.383],[-78.014,7.394],[-78.02,7.398],[-78.023,7.396],[-78.025,7.392],[-78.028,7.39],[-78.036,7.393],[-78.038,7.399],[-78.036,7.405],[-78.031,7.404],[-78.043,7.422],[-78.05,7.426],[-78.059,7.418],[-78.066,7.418],[-78.09,7.445],[-78.106,7.459],[-78.117,7.466],[-78.121,7.47],[-78.123,7.479],[-78.128,7.489],[-78.138,7.493],[-78.144,7.498],[-78.149,7.508],[-78.156,7.528],[-78.162,7.528],[-78.166,7.513],[-78.168,7.522],[-78.169,7.557],[-78.174,7.575],[-78.185,7.579],[-78.194,7.571],[-78.197,7.554],[-78.202,7.567],[-78.2,7.576],[-78.197,7.585],[-78.197,7.596],[-78.2,7.606],[-78.204,7.612],[-78.216,7.623],[-78.238,7.65],[-78.252,7.661],[-78.272,7.664],[-78.269,7.675],[-78.274,7.683],[-78.282,7.688],[-78.292,7.691],[-78.283,7.711],[-78.277,7.724],[-78.278,7.737],[-78.285,7.754],[-78.315,7.8],[-78.32,7.811],[-78.329,7.843],[-78.351,7.87],[-78.376,7.894],[-78.395,7.917],[-78.408,7.948],[-78.416,7.98],[-78.416,7.992],[-78.414,8.004],[-78.416,8.014],[-78.434,8.046],[-78.436,8.058],[-78.431,8.077],[-78.419,8.095],[-78.407,8.102],[-78.396,8.07],[-78.381,8.064],[-78.365,8.066],[-78.354,8.076],[-78.325,8.061],[-78.286,8.081],[-78.252,8.117],[-78.237,8.154],[-78.239,8.174],[-78.245,8.187],[-78.253,8.196],[-78.265,8.205],[-78.294,8.239],[-78.306,8.246],[-78.306,8.254],[-78.279,8.251],[-78.27,8.252],[-78.257,8.26],[-78.257,8.268],[-78.263,8.27],[-78.266,8.273],[-78.268,8.277],[-78.272,8.281],[-78.264,8.284],[-78.261,8.285],[-78.257,8.295],[-78.249,8.289],[-78.237,8.279],[-78.231,8.274],[-78.222,8.272],[-78.214,8.272],[-78.2,8.274],[-78.198,8.278],[-78.186,8.295],[-78.183,8.298],[-78.184,8.325],[-78.183,8.336],[-78.18,8.338],[-78.162,8.356],[-78.158,8.366],[-78.156,8.374],[-78.156,8.394],[-78.151,8.399],[-78.142,8.404],[-78.132,8.405],[-78.128,8.401],[-78.123,8.364],[-78.121,8.356],[-78.111,8.348],[-78.095,8.339],[-78.077,8.332],[-78.062,8.329],[-78.051,8.322],[-78.042,8.307],[-78.025,8.26],[-78.015,8.247],[-78.003,8.237],[-77.987,8.233],[-77.983,8.235],[-77.972,8.238],[-77.961,8.238],[-77.954,8.224],[-77.947,8.218],[-77.938,8.214],[-77.929,8.213],[-77.915,8.213],[-77.915,8.219],[-77.931,8.222],[-77.945,8.231],[-77.956,8.242],[-77.963,8.254],[-77.913,8.244],[-77.886,8.235],[-77.869,8.215],[-77.845,8.203],[-77.84,8.196],[-77.839,8.181],[-77.836,8.17],[-77.829,8.163],[-77.819,8.158],[-77.808,8.164],[-77.797,8.158],[-77.789,8.144],[-77.785,8.127],[-77.778,8.116],[-77.763,8.112],[-77.746,8.116],[-77.737,8.13],[-77.765,8.13],[-77.802,8.174],[-77.819,8.171],[-77.871,8.236],[-77.881,8.243],[-77.895,8.252],[-77.984,8.268],[-78.006,8.276],[-78.023,8.29],[-78.035,8.31],[-78.039,8.332],[-78.061,8.376],[-78.067,8.403],[-78.052,8.418],[-78.063,8.425],[-78.075,8.435],[-78.086,8.446],[-78.094,8.459],[-78.099,8.476],[-78.096,8.485],[-78.09,8.492],[-78.087,8.5],[-78.088,8.513],[-78.094,8.516],[-78.103,8.518],[-78.114,8.528],[-78.119,8.539],[-78.12,8.548],[-78.123,8.556],[-78.134,8.562],[-78.13,8.552],[-78.13,8.527],[-78.125,8.518],[-78.111,8.509],[-78.106,8.508],[-78.106,8.505],[-78.107,8.472],[-78.105,8.463],[-78.091,8.431],[-78.09,8.42],[-78.094,8.411],[-78.1,8.411],[-78.119,8.443],[-78.131,8.458],[-78.141,8.466],[-78.157,8.466],[-78.17,8.458],[-78.179,8.442],[-78.183,8.421],[-78.189,8.406],[-78.204,8.394],[-78.223,8.386],[-78.241,8.384],[-78.249,8.387],[-78.253,8.395],[-78.253,8.404],[-78.251,8.411],[-78.245,8.418],[-78.216,8.432],[-78.213,8.429],[-78.21,8.427],[-78.203,8.425],[-78.202,8.457],[-78.207,8.488],[-78.223,8.542],[-78.231,8.542],[-78.238,8.528],[-78.233,8.518],[-78.223,8.511],[-78.216,8.5],[-78.218,8.482],[-78.226,8.468],[-78.23,8.456],[-78.223,8.446],[-78.223,8.438],[-78.226,8.436],[-78.23,8.434],[-78.237,8.432],[-78.242,8.44],[-78.248,8.445],[-78.254,8.448],[-78.257,8.452],[-78.261,8.461],[-78.259,8.462],[-78.255,8.461],[-78.251,8.466],[-78.24,8.485],[-78.242,8.495],[-78.257,8.5],[-78.253,8.488],[-78.255,8.482],[-78.26,8.478],[-78.265,8.473],[-78.278,8.446],[-78.295,8.443],[-78.303,8.454],[-78.313,8.487],[-78.32,8.479],[-78.321,8.466],[-78.335,8.446],[-78.353,8.429],[-78.367,8.425],[-78.376,8.441],[-78.387,8.5],[-78.395,8.521],[-78.391,8.527],[-78.388,8.534],[-78.395,8.534],[-78.395,8.528],[-78.402,8.528],[-78.402,8.548],[-78.408,8.548],[-78.412,8.524],[-78.394,8.474],[-78.384,8.426],[-78.365,8.411],[-78.361,8.394],[-78.388,8.336],[-78.392,8.344],[-78.399,8.349],[-78.408,8.352],[-78.41,8.353],[-78.413,8.398],[-78.43,8.456],[-78.432,8.478],[-78.445,8.508],[-78.449,8.534],[-78.448,8.546],[-78.451,8.554],[-78.455,8.557],[-78.458,8.56],[-78.458,8.569],[-78.452,8.598],[-78.448,8.639],[-78.445,8.654],[-78.442,8.665],[-78.436,8.676],[-78.432,8.687],[-78.428,8.703],[-78.429,8.714],[-78.433,8.738],[-78.437,8.748],[-78.448,8.806],[-78.451,8.82],[-78.446,8.825],[-78.439,8.83],[-78.393,8.845],[-78.379,8.845],[-78.362,8.842],[-78.338,8.833],[-78.332,8.827],[-78.322,8.812],[-78.309,8.807],[-78.3,8.809],[-78.29,8.816],[-78.286,8.825],[-78.285,8.833],[-78.281,8.843],[-78.271,8.853],[-78.243,8.866],[-78.222,8.87],[-78.205,8.871],[-78.186,8.869],[-78.175,8.872],[-78.167,8.878],[-78.154,8.9],[-78.137,8.914],[-78.12,8.922],[-78.095,8.928],[-78.084,8.934],[-78.079,8.944],[-78.082,8.959],[-78.082,8.977],[-78.08,9.001],[-78.075,9.02],[-78.069,9.035],[-78.048,9.061],[-78.043,9.073],[-78.015,9.073],[-77.942,9.021],[-77.912,8.997],[-77.857,8.941],[-77.846,8.924],[-77.84,8.911],[-77.834,8.9],[-77.824,8.893],[-77.807,8.886],[-77.779,8.867],[-77.764,8.859],[-77.752,8.85],[-77.712,8.814],[-77.701,8.8],[-77.695,8.786],[-77.693,8.772],[-77.702,8.772],[-77.723,8.777],[-77.747,8.773],[-77.769,8.762],[-77.778,8.749],[-77.79,8.74],[-77.806,8.737],[-77.822,8.733],[-77.836,8.716],[-77.847,8.695],[-77.877,8.653],[-77.897,8.642],[-77.909,8.622],[-77.905,8.601],[-77.898,8.584],[-77.886,8.568],[-77.872,8.556],[-77.87,8.537],[-77.876,8.526],[-77.876,8.523],[-77.876,8.522],[-77.873,8.518],[-77.861,8.505],[-77.851,8.502],[-77.84,8.499],[-77.837,8.492],[-77.84,8.487],[-77.84,8.482],[-77.815,8.456],[-77.81,8.446],[-77.809,8.435],[-77.812,8.424],[-77.816,8.417],[-77.817,8.41],[-77.817,8.401],[-77.8,8.375],[-77.797,8.361],[-77.793,8.348],[-77.787,8.34],[-77.777,8.331],[-77.772,8.324],[-77.764,8.314],[-77.763,8.31],[-77.763,8.305],[-77.757,8.296],[-77.747,8.291],[-77.74,8.29],[-77.735,8.288],[-77.735,8.28],[-77.736,8.272],[-77.732,8.258],[-77.721,8.251],[-77.692,8.244],[-77.664,8.231],[-77.626,8.2],[-77.607,8.157],[-77.611,8.141],[-77.601,8.125],[-77.581,8.119],[-77.572,8.111],[-77.553,8.085],[-77.539,8.082],[-77.52,8.093],[-77.499,8.096],[-77.493,8.094],[-77.486,8.093],[-77.463,8.097],[-77.453,8.101],[-77.445,8.11],[-77.439,8.119],[-77.425,8.128],[-77.405,8.133],[-77.383,8.137],[-77.27,8.168],[-77.269,8.168]],[[-78.083,7.918],[-78.092,7.973],[-78.102,7.978],[-78.112,7.987],[-78.118,8.016],[-78.127,8.029],[-78.137,8.04],[-78.167,8.082],[-78.183,8.094],[-78.2,8.081],[-78.225,8.069],[-78.228,8.05],[-78.213,8.043],[-78.21,8.034],[-78.212,8.025],[-78.206,8.013],[-78.202,8.001],[-78.226,7.984],[-78.257,7.996],[-78.278,7.983],[-78.296,7.966],[-78.313,7.964],[-78.329,7.96],[-78.334,7.945],[-78.33,7.936],[-78.332,7.916],[-78.331,7.893],[-78.327,7.88],[-78.321,7.868],[-78.311,7.862],[-78.304,7.86],[-78.285,7.819],[-78.27,7.772],[-78.245,7.731],[-78.197,7.678],[-78.18,7.665],[-78.138,7.677],[-78.121,7.668],[-78.106,7.657],[-78.09,7.652],[-78.081,7.645],[-78.072,7.602],[-78.048,7.59],[-78.038,7.607],[-78.019,7.618],[-78.005,7.606],[-77.991,7.59],[-77.968,7.602],[-77.95,7.619],[-77.945,7.652],[-77.956,7.739],[-77.952,7.749],[-77.948,7.762],[-77.953,7.779],[-77.962,7.794],[-77.971,7.798],[-77.981,7.804],[-77.985,7.836],[-78.016,7.931],[-78.035,7.951],[-78.059,7.931],[-78.083,7.918]]]}},{"type":"Feature","id":"PA-6","properties":{"id":"PA-6","countryCode":"PA","isoSubdivision":"PA-6","name":"Herrera","name_en":"Herrera","name_ko":"에레라","type":"Province","labelLongitude":-80.661,"labelLatitude":7.856,"minZoom":7.7},"geometry":{"type":"Polygon","coordinates":[[[-80.478,8.091],[-80.484,8.083],[-80.468,8.075],[-80.461,8.056],[-80.456,8.036],[-80.447,8.027],[-80.432,8.024],[-80.394,8.008],[-80.383,7.999],[-80.376,7.997],[-80.382,7.983],[-80.389,7.975],[-80.393,7.957],[-80.404,7.942],[-80.415,7.934],[-80.428,7.931],[-80.459,7.933],[-80.491,7.923],[-80.504,7.911],[-80.535,7.856],[-80.546,7.841],[-80.561,7.83],[-80.574,7.821],[-80.579,7.815],[-80.58,7.811],[-80.575,7.805],[-80.575,7.79],[-80.575,7.782],[-80.573,7.774],[-80.571,7.766],[-80.558,7.749],[-80.554,7.741],[-80.553,7.734],[-80.553,7.722],[-80.557,7.709],[-80.567,7.691],[-80.58,7.679],[-80.588,7.673],[-80.595,7.67],[-80.608,7.668],[-80.614,7.663],[-80.665,7.583],[-80.72,7.53],[-80.746,7.556],[-80.752,7.559],[-80.772,7.564],[-80.802,7.581],[-80.879,7.695],[-80.885,7.709],[-80.892,7.737],[-80.898,7.753],[-80.905,7.763],[-80.909,7.768],[-80.919,7.772],[-80.943,7.766],[-80.947,7.788],[-80.943,7.901],[-80.938,7.911],[-80.933,7.915],[-80.907,7.922],[-80.886,7.944],[-80.858,7.97],[-80.85,7.981],[-80.839,8],[-80.838,8.016],[-80.854,8.06],[-80.817,8.074],[-80.781,8.088],[-80.765,8.103],[-80.742,8.13],[-80.732,8.133],[-80.719,8.133],[-80.71,8.131],[-80.687,8.133],[-80.663,8.124],[-80.646,8.125],[-80.61,8.137],[-80.591,8.139],[-80.577,8.133],[-80.558,8.113],[-80.549,8.106],[-80.544,8.107],[-80.532,8.115],[-80.526,8.116],[-80.515,8.111],[-80.491,8.095],[-80.478,8.091]]]}},{"type":"Feature","id":"PA-7","properties":{"id":"PA-7","countryCode":"PA","isoSubdivision":"PA-7","name":"Los Santos","name_en":"Los Santos","name_ko":"로스산토스","type":"Province","labelLongitude":-80.393,"labelLatitude":7.584,"minZoom":7.7},"geometry":{"type":"Polygon","coordinates":[[[-80.376,7.997],[-80.349,7.989],[-80.328,7.953],[-80.313,7.911],[-80.3,7.883],[-80.204,7.808],[-80.144,7.753],[-80.052,7.637],[-80.006,7.552],[-79.994,7.523],[-79.995,7.503],[-80.01,7.465],[-80.018,7.457],[-80.03,7.454],[-80.057,7.453],[-80.065,7.451],[-80.136,7.425],[-80.199,7.425],[-80.211,7.418],[-80.223,7.423],[-80.25,7.43],[-80.259,7.438],[-80.266,7.438],[-80.275,7.434],[-80.307,7.425],[-80.307,7.418],[-80.294,7.419],[-80.284,7.422],[-80.275,7.426],[-80.266,7.431],[-80.259,7.425],[-80.331,7.401],[-80.358,7.382],[-80.361,7.356],[-80.344,7.327],[-80.348,7.318],[-80.372,7.315],[-80.379,7.313],[-80.387,7.308],[-80.394,7.302],[-80.396,7.298],[-80.399,7.287],[-80.405,7.283],[-80.414,7.28],[-80.424,7.274],[-80.428,7.265],[-80.428,7.258],[-80.429,7.252],[-80.437,7.246],[-80.445,7.246],[-80.464,7.252],[-80.474,7.253],[-80.597,7.238],[-80.604,7.237],[-80.607,7.272],[-80.613,7.286],[-80.623,7.297],[-80.644,7.313],[-80.653,7.318],[-80.668,7.323],[-80.669,7.327],[-80.667,7.338],[-80.667,7.353],[-80.673,7.376],[-80.699,7.411],[-80.715,7.459],[-80.722,7.502],[-80.72,7.53],[-80.665,7.583],[-80.614,7.663],[-80.608,7.668],[-80.595,7.67],[-80.588,7.673],[-80.58,7.679],[-80.567,7.691],[-80.557,7.709],[-80.553,7.722],[-80.553,7.734],[-80.554,7.741],[-80.558,7.749],[-80.571,7.766],[-80.573,7.774],[-80.575,7.782],[-80.575,7.79],[-80.575,7.805],[-80.58,7.811],[-80.579,7.815],[-80.574,7.821],[-80.561,7.83],[-80.546,7.841],[-80.535,7.856],[-80.504,7.911],[-80.491,7.923],[-80.459,7.933],[-80.428,7.931],[-80.415,7.934],[-80.404,7.942],[-80.393,7.957],[-80.389,7.975],[-80.382,7.983],[-80.376,7.997]]]}},{"type":"Feature","id":"PA-8","properties":{"id":"PA-8","countryCode":"PA","isoSubdivision":"PA-8","name":"Panamá","name_en":"Panamá","name_ko":"파나마","type":"Province","labelLongitude":-78.928,"labelLatitude":9.086,"minZoom":7.7},"geometry":{"type":"MultiPolygon","coordinates":[[[[-78.41,8.353],[-78.416,8.356],[-78.439,8.384],[-78.45,8.391],[-78.444,8.403],[-78.445,8.421],[-78.45,8.439],[-78.457,8.452],[-78.464,8.446],[-78.468,8.44],[-78.47,8.433],[-78.471,8.425],[-78.475,8.434],[-78.486,8.448],[-78.491,8.459],[-78.491,8.473],[-78.484,8.507],[-78.491,8.524],[-78.52,8.563],[-78.532,8.576],[-78.517,8.575],[-78.506,8.572],[-78.496,8.571],[-78.484,8.576],[-78.5,8.589],[-78.506,8.599],[-78.504,8.634],[-78.566,8.651],[-78.561,8.666],[-78.559,8.671],[-78.566,8.672],[-78.569,8.67],[-78.573,8.665],[-78.582,8.67],[-78.589,8.67],[-78.597,8.666],[-78.604,8.665],[-78.613,8.67],[-78.619,8.681],[-78.628,8.706],[-78.614,8.717],[-78.608,8.735],[-78.609,8.756],[-78.614,8.775],[-78.622,8.775],[-78.623,8.758],[-78.619,8.738],[-78.62,8.724],[-78.635,8.726],[-78.652,8.708],[-78.682,8.748],[-78.71,8.747],[-78.729,8.759],[-78.749,8.802],[-78.765,8.816],[-78.765,8.822],[-78.758,8.822],[-78.758,8.829],[-78.772,8.834],[-78.782,8.843],[-78.79,8.854],[-78.8,8.863],[-78.792,8.847],[-78.79,8.834],[-78.796,8.823],[-78.813,8.816],[-78.828,8.813],[-78.838,8.817],[-78.858,8.84],[-78.865,8.856],[-78.869,8.875],[-78.874,8.891],[-79.005,8.96],[-79.058,8.971],[-79.083,8.989],[-79.087,8.994],[-79.088,9.004],[-79.086,9.01],[-79.082,9.015],[-79.08,9.025],[-79.079,9.045],[-79.081,9.063],[-79.089,9.074],[-79.108,9.076],[-79.108,9.083],[-79.086,9.085],[-79.07,9.093],[-79.059,9.107],[-79.052,9.124],[-79.046,9.124],[-79.037,9.111],[-79.028,9.111],[-79.012,9.124],[-78.991,9.131],[-78.982,9.136],[-78.977,9.145],[-78.984,9.142],[-78.997,9.141],[-79.005,9.138],[-79.012,9.133],[-79.025,9.119],[-79.029,9.117],[-79.037,9.12],[-79.04,9.126],[-79.043,9.131],[-79.052,9.131],[-79.059,9.126],[-79.071,9.107],[-79.077,9.104],[-79.079,9.101],[-79.082,9.097],[-79.088,9.092],[-79.097,9.09],[-79.107,9.089],[-79.114,9.088],[-79.119,9.083],[-79.121,9.076],[-79.115,9.069],[-79.102,9.065],[-79.09,9.056],[-79.087,9.035],[-79.092,9.023],[-79.102,9.006],[-79.116,8.994],[-79.132,8.997],[-79.138,9.001],[-79.162,9.007],[-79.163,9.012],[-79.168,9.02],[-79.173,9.023],[-79.176,9.011],[-79.193,9.005],[-79.273,9.019],[-79.299,9.014],[-79.306,9.014],[-79.306,9.021],[-79.33,9.013],[-79.387,9.019],[-79.409,9.007],[-79.418,9.014],[-79.427,9.013],[-79.437,9.01],[-79.454,9.006],[-79.467,9.002],[-79.475,9.001],[-79.482,8.998],[-79.484,8.994],[-79.485,8.989],[-79.488,8.987],[-79.491,8.983],[-79.519,8.966],[-79.521,8.957],[-79.52,8.949],[-79.522,8.942],[-79.533,8.939],[-79.516,8.91],[-79.512,8.898],[-79.525,8.907],[-79.541,8.923],[-79.555,8.942],[-79.56,8.96],[-79.566,8.96],[-79.565,8.954],[-79.563,8.95],[-79.56,8.945],[-79.56,8.939],[-79.566,8.939],[-79.559,8.914],[-79.564,8.893],[-79.578,8.882],[-79.601,8.891],[-79.647,8.883],[-79.661,8.875],[-79.656,8.863],[-79.656,8.857],[-79.667,8.861],[-79.674,8.866],[-79.681,8.868],[-79.691,8.863],[-79.693,8.867],[-79.695,8.868],[-79.697,8.869],[-79.704,8.87],[-79.704,8.863],[-79.701,8.86],[-79.699,8.855],[-79.697,8.85],[-79.714,8.853],[-79.73,8.844],[-79.744,8.83],[-79.752,8.816],[-79.756,8.796],[-79.752,8.737],[-79.75,8.731],[-79.745,8.728],[-79.74,8.726],[-79.738,8.723],[-79.739,8.716],[-79.741,8.711],[-79.745,8.706],[-79.747,8.698],[-79.751,8.69],[-79.756,8.682],[-79.762,8.675],[-79.766,8.672],[-79.778,8.666],[-79.791,8.663],[-79.792,8.659],[-79.791,8.655],[-79.793,8.651],[-79.81,8.647],[-79.826,8.639],[-79.814,8.626],[-79.78,8.618],[-79.747,8.631],[-79.717,8.646],[-79.706,8.653],[-79.702,8.657],[-79.697,8.657],[-79.697,8.649],[-79.701,8.642],[-79.734,8.615],[-79.774,8.58],[-79.794,8.572],[-79.826,8.562],[-79.864,8.552],[-79.872,8.543],[-79.87,8.532],[-79.872,8.524],[-79.875,8.521],[-79.88,8.519],[-79.891,8.516],[-79.895,8.515],[-79.911,8.5],[-79.918,8.495],[-79.927,8.493],[-79.932,8.489],[-79.942,8.47],[-79.947,8.466],[-79.949,8.462],[-79.97,8.444],[-80.041,8.398],[-80.082,8.446],[-80.086,8.455],[-80.092,8.471],[-80.096,8.527],[-80.105,8.551],[-80.104,8.583],[-80.103,8.592],[-80.107,8.626],[-80.113,8.643],[-80.138,8.755],[-80.164,8.831],[-80.165,8.854],[-80.162,8.872],[-80.156,8.889],[-80.133,8.922],[-80.137,8.949],[-80.093,8.984],[-80.05,8.968],[-80.022,8.966],[-79.985,8.978],[-79.956,8.997],[-79.951,9.008],[-79.945,9.024],[-79.946,9.039],[-79.949,9.051],[-79.957,9.066],[-79.963,9.083],[-79.921,9.175],[-79.906,9.191],[-79.889,9.194],[-79.858,9.179],[-79.83,9.173],[-79.819,9.168],[-79.809,9.158],[-79.79,9.126],[-79.778,9.114],[-79.756,9.109],[-79.705,9.11],[-79.688,9.116],[-79.67,9.128],[-79.642,9.163],[-79.635,9.19],[-79.629,9.194],[-79.622,9.199],[-79.605,9.207],[-79.588,9.212],[-79.574,9.218],[-79.569,9.224],[-79.568,9.231],[-79.572,9.249],[-79.57,9.264],[-79.565,9.285],[-79.552,9.318],[-79.548,9.334],[-79.547,9.344],[-79.55,9.348],[-79.551,9.356],[-79.548,9.366],[-79.523,9.454],[-79.485,9.469],[-79.441,9.479],[-79.416,9.472],[-79.4,9.466],[-79.391,9.46],[-79.385,9.451],[-79.381,9.445],[-79.371,9.433],[-79.37,9.428],[-79.371,9.425],[-79.376,9.423],[-79.388,9.418],[-79.394,9.414],[-79.397,9.409],[-79.399,9.403],[-79.396,9.396],[-79.391,9.394],[-79.384,9.395],[-79.368,9.401],[-79.359,9.403],[-79.335,9.402],[-79.329,9.404],[-79.318,9.412],[-79.308,9.415],[-79.29,9.415],[-79.267,9.407],[-79.257,9.402],[-79.252,9.397],[-79.254,9.391],[-79.262,9.381],[-79.262,9.376],[-79.257,9.372],[-79.248,9.369],[-79.243,9.364],[-79.239,9.357],[-79.238,9.35],[-79.239,9.344],[-79.24,9.34],[-79.247,9.331],[-79.266,9.322],[-79.272,9.314],[-79.279,9.303],[-79.281,9.293],[-79.28,9.287],[-79.272,9.28],[-79.239,9.286],[-79.171,9.308],[-79.157,9.31],[-79.143,9.31],[-79.129,9.309],[-79.115,9.306],[-79.094,9.298],[-79.085,9.29],[-79.078,9.282],[-79.072,9.277],[-79.057,9.276],[-79.011,9.278],[-79.002,9.28],[-78.998,9.284],[-78.998,9.288],[-79.001,9.294],[-79.004,9.3],[-79.006,9.306],[-79.003,9.313],[-78.997,9.317],[-78.973,9.328],[-78.965,9.329],[-78.956,9.328],[-78.946,9.325],[-78.939,9.328],[-78.938,9.333],[-78.938,9.34],[-78.937,9.345],[-78.933,9.346],[-78.926,9.345],[-78.915,9.341],[-78.9,9.341],[-78.891,9.344],[-78.878,9.356],[-78.871,9.359],[-78.857,9.361],[-78.84,9.361],[-78.809,9.357],[-78.796,9.359],[-78.787,9.363],[-78.782,9.368],[-78.778,9.371],[-78.771,9.371],[-78.765,9.372],[-78.759,9.369],[-78.742,9.351],[-78.728,9.345],[-78.721,9.347],[-78.717,9.354],[-78.715,9.371],[-78.71,9.374],[-78.699,9.371],[-78.677,9.357],[-78.642,9.33],[-78.628,9.321],[-78.61,9.318],[-78.595,9.319],[-78.542,9.331],[-78.537,9.335],[-78.528,9.348],[-78.522,9.351],[-78.513,9.35],[-78.5,9.338],[-78.495,9.329],[-78.491,9.312],[-78.486,9.309],[-78.479,9.311],[-78.472,9.317],[-78.465,9.321],[-78.458,9.32],[-78.449,9.312],[-78.445,9.304],[-78.442,9.298],[-78.438,9.295],[-78.43,9.292],[-78.425,9.287],[-78.42,9.279],[-78.417,9.27],[-78.416,9.262],[-78.417,9.255],[-78.414,9.248],[-78.409,9.244],[-78.395,9.241],[-78.366,9.242],[-78.347,9.238],[-78.339,9.237],[-78.331,9.24],[-78.296,9.257],[-78.289,9.256],[-78.285,9.249],[-78.28,9.232],[-78.271,9.205],[-78.265,9.196],[-78.257,9.191],[-78.235,9.193],[-78.209,9.193],[-78.187,9.189],[-78.178,9.19],[-78.174,9.193],[-78.171,9.198],[-78.17,9.202],[-78.166,9.206],[-78.159,9.203],[-78.151,9.194],[-78.146,9.173],[-78.15,9.161],[-78.161,9.145],[-78.159,9.14],[-78.152,9.135],[-78.083,9.119],[-78.072,9.113],[-78.065,9.108],[-78.043,9.073],[-78.048,9.061],[-78.069,9.035],[-78.075,9.02],[-78.08,9.001],[-78.082,8.977],[-78.082,8.959],[-78.079,8.944],[-78.084,8.934],[-78.095,8.928],[-78.12,8.922],[-78.137,8.914],[-78.154,8.9],[-78.167,8.878],[-78.175,8.872],[-78.186,8.869],[-78.205,8.871],[-78.222,8.87],[-78.243,8.866],[-78.271,8.853],[-78.281,8.843],[-78.285,8.833],[-78.286,8.825],[-78.29,8.816],[-78.3,8.809],[-78.309,8.807],[-78.322,8.812],[-78.332,8.827],[-78.338,8.833],[-78.362,8.842],[-78.379,8.845],[-78.393,8.845],[-78.439,8.83],[-78.446,8.825],[-78.451,8.82],[-78.448,8.806],[-78.437,8.748],[-78.433,8.738],[-78.429,8.714],[-78.428,8.703],[-78.432,8.687],[-78.436,8.676],[-78.442,8.665],[-78.445,8.654],[-78.448,8.639],[-78.452,8.598],[-78.458,8.569],[-78.458,8.56],[-78.455,8.557],[-78.451,8.554],[-78.448,8.546],[-78.449,8.534],[-78.445,8.508],[-78.432,8.478],[-78.43,8.456],[-78.413,8.398],[-78.41,8.353]]],[[[-79.094,8.308],[-79.088,8.296],[-79.083,8.274],[-79.076,8.266],[-79.071,8.264],[-79.066,8.261],[-79.07,8.257],[-79.08,8.255],[-79.091,8.26],[-79.104,8.253],[-79.105,8.244],[-79.098,8.238],[-79.099,8.23],[-79.105,8.229],[-79.109,8.224],[-79.11,8.21],[-79.123,8.209],[-79.14,8.244],[-79.137,8.257],[-79.131,8.257],[-79.13,8.264],[-79.126,8.278],[-79.129,8.287],[-79.124,8.303],[-79.112,8.317],[-79.105,8.319],[-79.1,8.317],[-79.095,8.312],[-79.094,8.308]]],[[[-79.084,8.382],[-79.093,8.377],[-79.112,8.391],[-79.13,8.405],[-79.118,8.429],[-79.105,8.419],[-79.095,8.406],[-79.09,8.41],[-79.088,8.42],[-79.082,8.416],[-79.086,8.403],[-79.079,8.399],[-79.08,8.391],[-79.084,8.382]]],[[[-78.892,8.458],[-78.894,8.469],[-78.89,8.474],[-78.88,8.468],[-78.869,8.462],[-78.863,8.454],[-78.858,8.443],[-78.855,8.431],[-78.854,8.421],[-78.855,8.413],[-78.842,8.411],[-78.836,8.398],[-78.837,8.387],[-78.846,8.381],[-78.848,8.369],[-78.834,8.343],[-78.843,8.32],[-78.852,8.312],[-78.852,8.303],[-78.858,8.296],[-78.87,8.297],[-78.875,8.301],[-78.883,8.3],[-78.889,8.299],[-78.896,8.297],[-78.899,8.303],[-78.901,8.309],[-78.905,8.303],[-78.912,8.294],[-78.92,8.283],[-78.92,8.274],[-78.923,8.265],[-78.913,8.254],[-78.911,8.234],[-78.905,8.229],[-78.898,8.229],[-78.898,8.224],[-78.904,8.219],[-78.918,8.227],[-78.928,8.236],[-78.927,8.25],[-78.934,8.273],[-78.94,8.283],[-78.958,8.29],[-78.964,8.295],[-78.97,8.305],[-78.965,8.321],[-78.958,8.329],[-78.955,8.347],[-78.958,8.353],[-78.967,8.362],[-78.97,8.37],[-78.966,8.377],[-78.962,8.384],[-78.961,8.39],[-78.966,8.408],[-78.964,8.418],[-78.975,8.444],[-78.971,8.458],[-78.958,8.459],[-78.949,8.453],[-78.909,8.47],[-78.9,8.462],[-78.897,8.457],[-78.895,8.452],[-78.892,8.458]]],[[[-79.57,8.799],[-79.563,8.805],[-79.557,8.803],[-79.554,8.803],[-79.553,8.8],[-79.555,8.798],[-79.553,8.792],[-79.548,8.789],[-79.542,8.787],[-79.541,8.781],[-79.543,8.776],[-79.548,8.774],[-79.551,8.779],[-79.555,8.783],[-79.563,8.781],[-79.569,8.783],[-79.572,8.789],[-79.57,8.799]]],[[[-79.133,8.957],[-79.131,8.959],[-79.13,8.958],[-79.129,8.955],[-79.123,8.952],[-79.127,8.949],[-79.127,8.943],[-79.131,8.943],[-79.133,8.945],[-79.13,8.948],[-79.131,8.951],[-79.132,8.952],[-79.133,8.955],[-79.133,8.957]]]]}},{"type":"Feature","id":"PA-9","properties":{"id":"PA-9","countryCode":"PA","isoSubdivision":"PA-9","name":"Veraguas","name_en":"Veraguas","name_ko":"베라과스","type":"Province","labelLongitude":-81.145,"labelLatitude":8.226,"minZoom":7.7},"geometry":{"type":"MultiPolygon","coordinates":[[[[-81.808,7.287],[-81.798,7.291],[-81.79,7.29],[-81.781,7.288],[-81.767,7.287],[-81.779,7.277],[-81.792,7.252],[-81.801,7.239],[-81.797,7.234],[-81.793,7.226],[-81.801,7.226],[-81.816,7.271],[-81.815,7.28],[-81.819,7.286],[-81.819,7.289],[-81.815,7.294],[-81.811,7.294],[-81.808,7.293],[-81.807,7.292],[-81.808,7.287]]],[[[-81.149,7.561],[-81.136,7.568],[-81.118,7.575],[-81.088,7.582],[-81.075,7.577],[-81.062,7.576],[-81.033,7.575],[-81.045,7.554],[-81.053,7.545],[-81.064,7.541],[-81.075,7.535],[-81.083,7.534],[-81.091,7.538],[-81.098,7.543],[-81.103,7.546],[-81.11,7.547],[-81.119,7.548],[-81.129,7.545],[-81.134,7.54],[-81.138,7.533],[-81.143,7.528],[-81.171,7.513],[-81.185,7.497],[-81.191,7.493],[-81.199,7.493],[-81.209,7.496],[-81.216,7.498],[-81.218,7.5],[-81.246,7.49],[-81.252,7.49],[-81.243,7.503],[-81.233,7.513],[-81.223,7.521],[-81.21,7.526],[-81.174,7.531],[-81.164,7.541],[-81.158,7.552],[-81.149,7.561]]],[[[-81.664,7.397],[-81.652,7.391],[-81.622,7.394],[-81.616,7.387],[-81.588,7.335],[-81.607,7.328],[-81.628,7.322],[-81.649,7.322],[-81.684,7.341],[-81.727,7.344],[-81.746,7.349],[-81.757,7.358],[-81.781,7.384],[-81.8,7.396],[-81.842,7.431],[-81.865,7.478],[-81.873,7.486],[-81.875,7.49],[-81.883,7.517],[-81.879,7.517],[-81.858,7.518],[-81.849,7.52],[-81.849,7.524],[-81.836,7.547],[-81.834,7.548],[-81.832,7.559],[-81.831,7.568],[-81.83,7.576],[-81.824,7.585],[-81.817,7.59],[-81.798,7.594],[-81.77,7.615],[-81.76,7.62],[-81.76,7.616],[-81.753,7.616],[-81.755,7.624],[-81.757,7.636],[-81.76,7.644],[-81.753,7.644],[-81.753,7.637],[-81.746,7.637],[-81.747,7.642],[-81.745,7.643],[-81.742,7.643],[-81.739,7.644],[-81.716,7.58],[-81.715,7.568],[-81.713,7.566],[-81.705,7.554],[-81.705,7.551],[-81.706,7.543],[-81.705,7.541],[-81.702,7.54],[-81.694,7.541],[-81.691,7.541],[-81.682,7.535],[-81.676,7.532],[-81.672,7.526],[-81.671,7.51],[-81.676,7.506],[-81.708,7.493],[-81.709,7.487],[-81.717,7.458],[-81.719,7.453],[-81.713,7.44],[-81.695,7.424],[-81.691,7.414],[-81.689,7.404],[-81.684,7.395],[-81.678,7.392],[-81.671,7.397],[-81.664,7.397]]],[[[-81.213,8.792],[-81.175,8.797],[-81.13,8.802],[-81.088,8.809],[-81.08,8.805],[-81.071,8.807],[-81.062,8.813],[-81.054,8.822],[-80.975,8.848],[-80.899,8.88],[-80.882,8.886],[-80.863,8.885],[-80.862,8.877],[-80.862,8.874],[-80.86,8.854],[-80.857,8.844],[-80.851,8.833],[-80.841,8.821],[-80.833,8.815],[-80.815,8.803],[-80.798,8.795],[-80.78,8.789],[-80.769,8.784],[-80.762,8.779],[-80.74,8.756],[-80.734,8.745],[-80.728,8.73],[-80.733,8.715],[-80.739,8.703],[-80.742,8.691],[-80.738,8.672],[-80.733,8.664],[-80.728,8.659],[-80.726,8.653],[-80.724,8.646],[-80.739,8.615],[-80.751,8.586],[-80.779,8.553],[-80.81,8.548],[-80.822,8.538],[-80.801,8.519],[-80.78,8.491],[-80.757,8.45],[-80.718,8.349],[-80.693,8.309],[-80.697,8.277],[-80.712,8.227],[-80.738,8.181],[-80.734,8.164],[-80.687,8.133],[-80.71,8.131],[-80.719,8.133],[-80.732,8.133],[-80.742,8.13],[-80.765,8.103],[-80.781,8.088],[-80.817,8.074],[-80.854,8.06],[-80.838,8.016],[-80.839,8],[-80.85,7.981],[-80.858,7.97],[-80.886,7.944],[-80.907,7.922],[-80.933,7.915],[-80.938,7.911],[-80.943,7.901],[-80.947,7.788],[-80.943,7.766],[-80.919,7.772],[-80.909,7.768],[-80.905,7.763],[-80.898,7.753],[-80.892,7.737],[-80.885,7.709],[-80.879,7.695],[-80.802,7.581],[-80.772,7.564],[-80.752,7.559],[-80.746,7.556],[-80.72,7.53],[-80.722,7.502],[-80.715,7.459],[-80.699,7.411],[-80.673,7.376],[-80.667,7.353],[-80.667,7.338],[-80.669,7.327],[-80.668,7.323],[-80.653,7.318],[-80.644,7.313],[-80.623,7.297],[-80.613,7.286],[-80.607,7.272],[-80.604,7.237],[-80.713,7.216],[-80.793,7.214],[-80.814,7.219],[-80.821,7.219],[-80.826,7.213],[-80.831,7.211],[-80.836,7.213],[-80.841,7.219],[-80.848,7.219],[-80.862,7.206],[-80.873,7.213],[-80.889,7.239],[-80.894,7.243],[-80.902,7.248],[-80.911,7.252],[-80.92,7.253],[-80.93,7.256],[-80.93,7.264],[-80.926,7.271],[-80.92,7.274],[-80.916,7.278],[-80.917,7.3],[-80.916,7.308],[-80.911,7.315],[-80.9,7.324],[-80.896,7.328],[-80.892,7.342],[-80.892,7.36],[-80.896,7.377],[-80.921,7.392],[-80.921,7.411],[-80.91,7.442],[-80.915,7.455],[-80.951,7.493],[-80.955,7.496],[-80.962,7.502],[-80.967,7.51],[-80.955,7.517],[-80.953,7.525],[-80.952,7.536],[-80.948,7.544],[-80.946,7.556],[-80.956,7.57],[-80.969,7.582],[-80.979,7.589],[-80.979,7.596],[-80.972,7.596],[-80.972,7.603],[-81.02,7.651],[-81.03,7.656],[-81.038,7.658],[-81.041,7.662],[-81.04,7.671],[-81.035,7.68],[-81.028,7.686],[-81.018,7.688],[-81.006,7.685],[-81.011,7.694],[-81.022,7.703],[-81.034,7.709],[-81.043,7.712],[-81.045,7.717],[-81.026,7.747],[-81.037,7.746],[-81.047,7.747],[-81.055,7.75],[-81.061,7.754],[-81.058,7.755],[-81.055,7.755],[-81.053,7.756],[-81.054,7.76],[-81.077,7.765],[-81.086,7.779],[-81.085,7.794],[-81.078,7.801],[-81.072,7.804],[-81.067,7.808],[-81.061,7.813],[-81.05,7.815],[-81.038,7.815],[-81.028,7.817],[-81.021,7.823],[-81.02,7.836],[-81.026,7.836],[-81.049,7.823],[-81.056,7.849],[-81.054,7.911],[-81.075,7.871],[-81.09,7.858],[-81.102,7.877],[-81.108,7.877],[-81.106,7.866],[-81.102,7.859],[-81.096,7.853],[-81.088,7.849],[-81.088,7.842],[-81.133,7.842],[-81.142,7.844],[-81.155,7.854],[-81.167,7.856],[-81.192,7.863],[-81.197,7.879],[-81.2,7.894],[-81.218,7.898],[-81.208,7.893],[-81.205,7.89],[-81.204,7.883],[-81.218,7.879],[-81.215,7.871],[-81.198,7.856],[-81.18,7.847],[-81.177,7.846],[-81.179,7.837],[-81.182,7.83],[-81.183,7.824],[-81.165,7.789],[-81.174,7.763],[-81.197,7.742],[-81.218,7.726],[-81.222,7.734],[-81.223,7.739],[-81.221,7.743],[-81.218,7.747],[-81.218,7.754],[-81.232,7.755],[-81.246,7.754],[-81.246,7.747],[-81.235,7.744],[-81.229,7.738],[-81.218,7.719],[-81.232,7.714],[-81.237,7.715],[-81.246,7.719],[-81.239,7.707],[-81.232,7.699],[-81.225,7.699],[-81.212,7.706],[-81.198,7.712],[-81.193,7.701],[-81.198,7.657],[-81.195,7.646],[-81.195,7.639],[-81.198,7.63],[-81.201,7.625],[-81.213,7.615],[-81.218,7.609],[-81.225,7.609],[-81.234,7.615],[-81.266,7.632],[-81.273,7.633],[-81.279,7.646],[-81.291,7.651],[-81.314,7.651],[-81.397,7.674],[-81.424,7.671],[-81.428,7.683],[-81.435,7.693],[-81.443,7.7],[-81.451,7.705],[-81.474,7.699],[-81.503,7.702],[-81.526,7.711],[-81.527,7.726],[-81.519,7.729],[-81.5,7.739],[-81.489,7.749],[-81.528,7.761],[-81.539,7.757],[-81.54,7.74],[-81.563,7.756],[-81.575,7.76],[-81.575,7.767],[-81.568,7.776],[-81.574,7.784],[-81.583,7.793],[-81.588,7.804],[-81.586,7.821],[-81.582,7.832],[-81.567,7.849],[-81.567,7.856],[-81.575,7.861],[-81.582,7.862],[-81.589,7.861],[-81.595,7.856],[-81.602,7.856],[-81.609,7.863],[-81.609,7.87],[-81.6,7.878],[-81.6,7.885],[-81.608,7.89],[-81.623,7.89],[-81.62,7.905],[-81.619,7.922],[-81.613,7.931],[-81.595,7.925],[-81.598,7.934],[-81.602,7.94],[-81.616,7.952],[-81.611,7.96],[-81.613,7.974],[-81.609,7.986],[-81.621,7.981],[-81.627,7.983],[-81.629,7.982],[-81.629,7.969],[-81.624,7.955],[-81.623,7.948],[-81.626,7.945],[-81.633,7.946],[-81.638,7.949],[-81.642,7.955],[-81.643,7.962],[-81.646,7.973],[-81.664,7.997],[-81.663,7.998],[-81.642,8.003],[-81.638,8.011],[-81.634,8.023],[-81.632,8.035],[-81.606,8.135],[-81.602,8.145],[-81.598,8.152],[-81.573,8.176],[-81.523,8.239],[-81.517,8.244],[-81.516,8.246],[-81.513,8.251],[-81.51,8.281],[-81.513,8.311],[-81.519,8.342],[-81.522,8.379],[-81.527,8.429],[-81.526,8.444],[-81.523,8.46],[-81.499,8.516],[-81.49,8.556],[-81.489,8.597],[-81.463,8.584],[-81.432,8.577],[-81.421,8.572],[-81.415,8.568],[-81.411,8.559],[-81.363,8.555],[-81.337,8.56],[-81.329,8.558],[-81.282,8.522],[-81.266,8.512],[-81.225,8.501],[-81.203,8.492],[-81.192,8.489],[-81.184,8.489],[-81.156,8.496],[-81.172,8.511],[-81.18,8.527],[-81.184,8.536],[-81.188,8.544],[-81.196,8.552],[-81.205,8.565],[-81.211,8.586],[-81.215,8.623],[-81.211,8.684],[-81.223,8.758],[-81.216,8.783],[-81.216,8.788],[-81.213,8.792]]]]}},{"type":"Feature","id":"PA-EM","properties":{"id":"PA-EM","countryCode":"PA","isoSubdivision":"PA-EM","name":"Emberá-Wounaan Comarca","name_en":"Emberá-Wounaan Comarca","name_ko":"엠베라워우난 특구","type":"Indigenous Territory","labelLongitude":-78.14,"labelLatitude":7.86,"minZoom":7.7},"geometry":{"type":"MultiPolygon","coordinates":[[[[-77.469,8.538],[-77.48,8.526],[-77.489,8.497],[-77.489,8.474],[-77.48,8.468],[-77.45,8.471],[-77.433,8.465],[-77.422,8.456],[-77.406,8.428],[-77.391,8.394],[-77.383,8.325],[-77.374,8.289],[-77.363,8.272],[-77.35,8.267],[-77.337,8.267],[-77.324,8.261],[-77.317,8.251],[-77.295,8.205],[-77.269,8.168],[-77.27,8.168],[-77.383,8.137],[-77.405,8.133],[-77.425,8.128],[-77.439,8.119],[-77.445,8.11],[-77.453,8.101],[-77.463,8.097],[-77.486,8.093],[-77.493,8.094],[-77.499,8.096],[-77.52,8.093],[-77.539,8.082],[-77.553,8.085],[-77.572,8.111],[-77.581,8.119],[-77.601,8.125],[-77.611,8.141],[-77.607,8.157],[-77.626,8.2],[-77.664,8.231],[-77.692,8.244],[-77.721,8.251],[-77.732,8.258],[-77.736,8.272],[-77.735,8.28],[-77.735,8.288],[-77.74,8.29],[-77.747,8.291],[-77.757,8.296],[-77.763,8.305],[-77.763,8.31],[-77.764,8.314],[-77.772,8.324],[-77.777,8.331],[-77.787,8.34],[-77.793,8.348],[-77.797,8.361],[-77.8,8.375],[-77.817,8.401],[-77.817,8.41],[-77.816,8.417],[-77.812,8.424],[-77.809,8.435],[-77.81,8.446],[-77.815,8.456],[-77.84,8.482],[-77.84,8.487],[-77.837,8.492],[-77.84,8.499],[-77.851,8.502],[-77.861,8.505],[-77.873,8.518],[-77.876,8.522],[-77.876,8.523],[-77.876,8.526],[-77.87,8.537],[-77.872,8.556],[-77.886,8.568],[-77.898,8.584],[-77.905,8.601],[-77.909,8.622],[-77.897,8.642],[-77.877,8.653],[-77.847,8.695],[-77.836,8.716],[-77.822,8.733],[-77.806,8.737],[-77.79,8.74],[-77.778,8.749],[-77.769,8.762],[-77.747,8.773],[-77.723,8.777],[-77.702,8.772],[-77.693,8.772],[-77.692,8.767],[-77.686,8.758],[-77.679,8.749],[-77.654,8.731],[-77.626,8.707],[-77.61,8.684],[-77.579,8.655],[-77.569,8.64],[-77.559,8.606],[-77.546,8.59],[-77.508,8.574],[-77.496,8.57],[-77.47,8.538],[-77.469,8.538]]],[[[-78.183,8.094],[-78.167,8.082],[-78.137,8.04],[-78.127,8.029],[-78.118,8.016],[-78.112,7.987],[-78.102,7.978],[-78.092,7.973],[-78.083,7.918],[-78.059,7.931],[-78.035,7.951],[-78.016,7.931],[-77.985,7.836],[-77.981,7.804],[-77.971,7.798],[-77.962,7.794],[-77.953,7.779],[-77.948,7.762],[-77.952,7.749],[-77.956,7.739],[-77.945,7.652],[-77.95,7.619],[-77.968,7.602],[-77.991,7.59],[-78.005,7.606],[-78.019,7.618],[-78.038,7.607],[-78.048,7.59],[-78.072,7.602],[-78.081,7.645],[-78.09,7.652],[-78.106,7.657],[-78.121,7.668],[-78.138,7.677],[-78.18,7.665],[-78.197,7.678],[-78.245,7.731],[-78.27,7.772],[-78.285,7.819],[-78.304,7.86],[-78.311,7.862],[-78.321,7.868],[-78.327,7.88],[-78.331,7.893],[-78.332,7.916],[-78.33,7.936],[-78.334,7.945],[-78.329,7.96],[-78.313,7.964],[-78.296,7.966],[-78.278,7.983],[-78.257,7.996],[-78.226,7.984],[-78.202,8.001],[-78.206,8.013],[-78.212,8.025],[-78.21,8.034],[-78.213,8.043],[-78.228,8.05],[-78.225,8.069],[-78.2,8.081],[-78.183,8.094]]]]}},{"type":"Feature","id":"PA-KY","properties":{"id":"PA-KY","countryCode":"PA","isoSubdivision":"PA-KY","name":"Guna Yala","name_en":"Guna Yala","name_ko":"구나얄라 특구","type":"Indigenous Territory","labelLongitude":-78.327,"labelLatitude":9.283,"minZoom":7.7},"geometry":{"type":"Polygon","coordinates":[[[-77.374,8.665],[-77.375,8.651],[-77.385,8.644],[-77.402,8.642],[-77.418,8.638],[-77.434,8.628],[-77.435,8.621],[-77.43,8.61],[-77.429,8.593],[-77.441,8.568],[-77.469,8.538],[-77.47,8.538],[-77.496,8.57],[-77.508,8.574],[-77.546,8.59],[-77.559,8.606],[-77.569,8.64],[-77.579,8.655],[-77.61,8.684],[-77.626,8.707],[-77.654,8.731],[-77.679,8.749],[-77.686,8.758],[-77.692,8.767],[-77.693,8.772],[-77.695,8.786],[-77.701,8.8],[-77.712,8.814],[-77.752,8.85],[-77.764,8.859],[-77.779,8.867],[-77.807,8.886],[-77.824,8.893],[-77.834,8.9],[-77.84,8.911],[-77.846,8.924],[-77.857,8.941],[-77.912,8.997],[-77.942,9.021],[-78.015,9.073],[-78.043,9.073],[-78.065,9.108],[-78.072,9.113],[-78.083,9.119],[-78.152,9.135],[-78.159,9.14],[-78.161,9.145],[-78.15,9.161],[-78.146,9.173],[-78.151,9.194],[-78.159,9.203],[-78.166,9.206],[-78.17,9.202],[-78.171,9.198],[-78.174,9.193],[-78.178,9.19],[-78.187,9.189],[-78.209,9.193],[-78.235,9.193],[-78.257,9.191],[-78.265,9.196],[-78.271,9.205],[-78.28,9.232],[-78.285,9.249],[-78.289,9.256],[-78.296,9.257],[-78.331,9.24],[-78.339,9.237],[-78.347,9.238],[-78.366,9.242],[-78.395,9.241],[-78.409,9.244],[-78.414,9.248],[-78.417,9.255],[-78.416,9.262],[-78.417,9.27],[-78.42,9.279],[-78.425,9.287],[-78.43,9.292],[-78.438,9.295],[-78.442,9.298],[-78.445,9.304],[-78.449,9.312],[-78.458,9.32],[-78.465,9.321],[-78.472,9.317],[-78.479,9.311],[-78.486,9.309],[-78.491,9.312],[-78.495,9.329],[-78.5,9.338],[-78.513,9.35],[-78.522,9.351],[-78.528,9.348],[-78.537,9.335],[-78.542,9.331],[-78.595,9.319],[-78.61,9.318],[-78.628,9.321],[-78.642,9.33],[-78.677,9.357],[-78.699,9.371],[-78.71,9.374],[-78.715,9.371],[-78.717,9.354],[-78.721,9.347],[-78.728,9.345],[-78.742,9.351],[-78.759,9.369],[-78.765,9.372],[-78.771,9.371],[-78.778,9.371],[-78.782,9.368],[-78.787,9.363],[-78.796,9.359],[-78.809,9.357],[-78.84,9.361],[-78.857,9.361],[-78.871,9.359],[-78.878,9.356],[-78.891,9.344],[-78.9,9.341],[-78.915,9.341],[-78.926,9.345],[-78.933,9.346],[-78.937,9.345],[-78.938,9.34],[-78.938,9.333],[-78.939,9.328],[-78.946,9.325],[-78.956,9.328],[-78.965,9.329],[-78.973,9.328],[-78.997,9.317],[-79.003,9.313],[-79.006,9.306],[-79.004,9.3],[-79.001,9.294],[-78.998,9.288],[-78.998,9.284],[-79.002,9.28],[-79.011,9.278],[-79.057,9.276],[-79.072,9.277],[-79.078,9.282],[-79.085,9.29],[-79.094,9.298],[-79.115,9.306],[-79.129,9.309],[-79.143,9.31],[-79.157,9.31],[-79.171,9.308],[-79.239,9.286],[-79.272,9.28],[-79.28,9.287],[-79.281,9.293],[-79.279,9.303],[-79.272,9.314],[-79.266,9.322],[-79.247,9.331],[-79.243,9.321],[-79.239,9.32],[-79.22,9.336],[-79.193,9.353],[-79.176,9.36],[-79.157,9.367],[-79.148,9.372],[-79.142,9.378],[-79.139,9.384],[-79.137,9.39],[-79.136,9.406],[-79.132,9.415],[-79.121,9.432],[-79.113,9.439],[-79.102,9.446],[-79.096,9.448],[-79.087,9.449],[-79.079,9.451],[-79.075,9.457],[-79.075,9.541],[-79.075,9.562],[-79.048,9.564],[-79.013,9.57],[-78.971,9.573],[-78.957,9.565],[-78.957,9.554],[-78.975,9.545],[-78.987,9.547],[-78.997,9.54],[-79.008,9.539],[-79.038,9.535],[-79.055,9.532],[-79.066,9.514],[-79.063,9.49],[-79.058,9.458],[-79.04,9.452],[-79.024,9.456],[-79.014,9.451],[-79.001,9.453],[-78.988,9.455],[-78.977,9.457],[-78.966,9.455],[-78.953,9.455],[-78.935,9.448],[-78.925,9.444],[-78.916,9.437],[-78.908,9.431],[-78.903,9.423],[-78.896,9.424],[-78.883,9.425],[-78.875,9.425],[-78.865,9.422],[-78.853,9.424],[-78.847,9.433],[-78.836,9.435],[-78.818,9.431],[-78.789,9.437],[-78.781,9.446],[-78.764,9.443],[-78.753,9.444],[-78.742,9.448],[-78.728,9.455],[-78.718,9.442],[-78.702,9.434],[-78.689,9.436],[-78.656,9.426],[-78.633,9.429],[-78.62,9.419],[-78.604,9.416],[-78.59,9.422],[-78.578,9.432],[-78.561,9.438],[-78.546,9.434],[-78.527,9.422],[-78.513,9.416],[-78.48,9.416],[-78.463,9.405],[-78.453,9.409],[-78.438,9.404],[-78.427,9.394],[-78.416,9.384],[-78.389,9.372],[-78.378,9.366],[-78.364,9.361],[-78.338,9.356],[-78.318,9.345],[-78.303,9.333],[-78.287,9.326],[-78.277,9.322],[-78.268,9.321],[-78.255,9.317],[-78.242,9.31],[-78.226,9.301],[-78.208,9.29],[-78.192,9.288],[-78.177,9.29],[-78.167,9.287],[-78.155,9.279],[-78.142,9.278],[-78.124,9.266],[-78.114,9.254],[-78.088,9.248],[-78.056,9.243],[-78.037,9.236],[-78.025,9.226],[-78.021,9.214],[-77.999,9.191],[-77.986,9.189],[-77.969,9.181],[-77.935,9.143],[-77.919,9.117],[-77.905,9.099],[-77.89,9.077],[-77.856,9.054],[-77.861,9.068],[-77.865,9.08],[-77.876,9.104],[-77.878,9.119],[-77.86,9.11],[-77.847,9.088],[-77.839,9.077],[-77.812,9.058],[-77.808,9.035],[-77.798,9.024],[-77.786,9.017],[-77.771,9.004],[-77.767,8.992],[-77.759,8.982],[-77.748,8.973],[-77.744,8.964],[-77.754,8.946],[-77.735,8.923],[-77.721,8.892],[-77.71,8.881],[-77.701,8.889],[-77.697,8.887],[-77.696,8.873],[-77.676,8.862],[-77.656,8.843],[-77.633,8.817],[-77.614,8.809],[-77.619,8.817],[-77.626,8.823],[-77.632,8.83],[-77.634,8.84],[-77.629,8.844],[-77.618,8.835],[-77.607,8.822],[-77.604,8.816],[-77.574,8.793],[-77.578,8.775],[-77.559,8.76],[-77.554,8.777],[-77.544,8.775],[-77.535,8.758],[-77.538,8.741],[-77.54,8.726],[-77.545,8.715],[-77.532,8.703],[-77.501,8.682],[-77.477,8.67],[-77.444,8.664],[-77.413,8.667],[-77.395,8.678],[-77.391,8.674],[-77.386,8.67],[-77.38,8.667],[-77.374,8.665]]]}},{"type":"Feature","id":"PA-NB","properties":{"id":"PA-NB","countryCode":"PA","isoSubdivision":"PA-NB","name":"Ngöbe-Buglé Comarca","name_en":"Ngöbe-Buglé Comarca","name_ko":"응가베부글레 특구","type":"Indigenous Territory","labelLongitude":-81.756,"labelLatitude":8.68,"minZoom":7.7},"geometry":{"type":"MultiPolygon","coordinates":[[[[-82.007,8.947],[-81.998,8.947],[-81.985,8.942],[-81.975,8.935],[-81.959,8.932],[-81.944,8.935],[-81.929,8.944],[-81.921,8.955],[-81.924,8.966],[-81.912,8.971],[-81.904,8.971],[-81.89,8.966],[-81.888,8.963],[-81.878,8.954],[-81.867,8.949],[-81.862,8.956],[-81.852,8.958],[-81.793,8.932],[-81.776,8.94],[-81.771,8.957],[-81.774,8.997],[-81.842,9.035],[-81.877,9.087],[-81.886,9.096],[-81.899,9.102],[-81.918,9.115],[-81.933,9.129],[-81.937,9.138],[-81.922,9.138],[-81.897,9.132],[-81.873,9.13],[-81.862,9.142],[-81.895,9.157],[-81.91,9.168],[-81.903,9.179],[-81.883,9.18],[-81.865,9.167],[-81.842,9.138],[-81.819,9.121],[-81.815,9.117],[-81.816,9.108],[-81.824,9.105],[-81.834,9.107],[-81.842,9.11],[-81.842,9.104],[-81.834,9.094],[-81.826,9.085],[-81.821,9.071],[-81.813,9.068],[-81.8,9.068],[-81.777,9.065],[-81.762,9.064],[-81.737,9.037],[-81.721,9.032],[-81.706,8.999],[-81.702,8.994],[-81.687,8.984],[-81.628,8.899],[-81.587,8.856],[-81.567,8.843],[-81.562,8.834],[-81.551,8.823],[-81.539,8.813],[-81.53,8.809],[-81.521,8.807],[-81.503,8.801],[-81.491,8.801],[-81.473,8.807],[-81.422,8.796],[-81.409,8.8],[-81.382,8.8],[-81.358,8.785],[-81.304,8.782],[-81.266,8.789],[-81.213,8.792],[-81.216,8.788],[-81.216,8.783],[-81.223,8.758],[-81.211,8.684],[-81.215,8.623],[-81.211,8.586],[-81.205,8.565],[-81.196,8.552],[-81.188,8.544],[-81.184,8.536],[-81.18,8.527],[-81.172,8.511],[-81.156,8.496],[-81.184,8.489],[-81.192,8.489],[-81.203,8.492],[-81.225,8.501],[-81.266,8.512],[-81.282,8.522],[-81.329,8.558],[-81.337,8.56],[-81.363,8.555],[-81.411,8.559],[-81.415,8.568],[-81.421,8.572],[-81.432,8.577],[-81.463,8.584],[-81.489,8.597],[-81.49,8.556],[-81.499,8.516],[-81.523,8.46],[-81.526,8.444],[-81.527,8.429],[-81.522,8.379],[-81.548,8.386],[-81.592,8.372],[-81.61,8.348],[-81.624,8.314],[-81.634,8.297],[-81.656,8.282],[-81.68,8.277],[-81.69,8.297],[-81.705,8.295],[-81.716,8.278],[-81.732,8.262],[-81.784,8.264],[-81.813,8.287],[-81.83,8.318],[-81.856,8.327],[-81.949,8.328],[-81.997,8.34],[-82.018,8.371],[-82.021,8.402],[-82.037,8.418],[-82.053,8.447],[-82.064,8.461],[-82.074,8.467],[-82.084,8.464],[-82.1,8.458],[-82.133,8.449],[-82.164,8.449],[-82.18,8.458],[-82.175,8.482],[-82.143,8.557],[-82.153,8.569],[-82.157,8.59],[-82.149,8.619],[-82.14,8.704],[-82.153,8.763],[-82.155,8.763],[-82.196,8.772],[-82.204,8.772],[-82.218,8.77],[-82.224,8.769],[-82.251,8.772],[-82.282,8.777],[-82.3,8.782],[-82.318,8.791],[-82.361,8.808],[-82.363,8.809],[-82.355,8.827],[-82.348,8.857],[-82.338,8.889],[-82.331,8.904],[-82.335,8.925],[-82.348,8.949],[-82.37,8.968],[-82.408,8.981],[-82.428,8.989],[-82.44,9],[-82.427,9.013],[-82.393,9.026],[-82.38,9.039],[-82.353,9.062],[-82.352,9.086],[-82.338,9.112],[-82.323,9.128],[-82.314,9.126],[-82.31,9.114],[-82.316,9.099],[-82.308,9.092],[-82.288,9.084],[-82.28,9.081],[-82.29,9.067],[-82.303,9.051],[-82.318,9.039],[-82.323,9.024],[-82.322,9.009],[-82.301,9.002],[-82.28,8.998],[-82.273,8.987],[-82.262,8.977],[-82.226,8.97],[-82.202,8.955],[-82.196,8.942],[-82.2,8.925],[-82.211,8.917],[-82.209,8.899],[-82.196,8.891],[-82.192,8.882],[-82.187,8.856],[-82.179,8.844],[-82.17,8.848],[-82.164,8.871],[-82.151,8.891],[-82.132,8.901],[-82.102,8.902],[-82.061,8.902],[-82.035,8.908],[-82.016,8.919],[-82.008,8.942],[-82.007,8.947]]],[[[-81.568,9.108],[-81.565,9.105],[-81.56,9.104],[-81.558,9.106],[-81.553,9.106],[-81.547,9.103],[-81.542,9.099],[-81.538,9.095],[-81.537,9.091],[-81.534,9.089],[-81.534,9.086],[-81.539,9.086],[-81.544,9.088],[-81.552,9.09],[-81.562,9.091],[-81.567,9.091],[-81.572,9.09],[-81.573,9.096],[-81.575,9.101],[-81.577,9.105],[-81.575,9.108],[-81.568,9.108]]]]}}]}
