{"type":"FeatureCollection","features":[{"type":"Feature","id":"PF-X01~","properties":{"id":"PF-X01~","countryCode":"PF","isoSubdivision":"PF-X01~","name":"Windward Islands","name_en":"Windward Islands","name_ko":"윈드워드 아일랜즈","type":"Principal subdivision","labelLongitude":-149.519,"labelLatitude":-17.746,"minZoom":11},"geometry":{"type":"MultiPolygon","coordinates":[[[[-150.655,-17.669],[-150.643,-17.655],[-150.64,-17.666],[-150.645,-17.678],[-150.655,-17.669]]],[[[-149.584,-16.987],[-149.576,-16.984],[-149.572,-16.983],[-149.568,-16.982],[-149.572,-16.987],[-149.587,-17],[-149.587,-16.997],[-149.586,-16.994],[-149.584,-16.987]]],[[[-149.183,-17.731],[-149.161,-17.757],[-149.149,-17.802],[-149.156,-17.846],[-149.19,-17.869],[-149.206,-17.867],[-149.261,-17.852],[-149.276,-17.845],[-149.309,-17.804],[-149.334,-17.759],[-149.343,-17.725],[-149.348,-17.718],[-149.358,-17.718],[-149.363,-17.725],[-149.366,-17.734],[-149.372,-17.739],[-149.392,-17.741],[-149.45,-17.759],[-149.472,-17.761],[-149.488,-17.758],[-149.519,-17.746],[-149.576,-17.738],[-149.588,-17.731],[-149.605,-17.672],[-149.612,-17.663],[-149.621,-17.656],[-149.631,-17.639],[-149.639,-17.619],[-149.642,-17.601],[-149.633,-17.553],[-149.604,-17.526],[-149.564,-17.51],[-149.519,-17.498],[-149.475,-17.494],[-149.43,-17.502],[-149.388,-17.518],[-149.354,-17.54],[-149.344,-17.551],[-149.336,-17.564],[-149.33,-17.58],[-149.327,-17.598],[-149.33,-17.664],[-149.327,-17.684],[-149.304,-17.712],[-149.263,-17.723],[-149.183,-17.731]]],[[[-149.797,-17.464],[-149.786,-17.469],[-149.786,-17.479],[-149.805,-17.523],[-149.822,-17.55],[-149.843,-17.568],[-149.862,-17.567],[-149.885,-17.555],[-149.914,-17.535],[-149.937,-17.512],[-149.944,-17.492],[-149.934,-17.482],[-149.916,-17.474],[-149.898,-17.472],[-149.89,-17.482],[-149.886,-17.492],[-149.878,-17.492],[-149.87,-17.488],[-149.868,-17.485],[-149.86,-17.483],[-149.854,-17.479],[-149.846,-17.478],[-149.835,-17.485],[-149.832,-17.473],[-149.823,-17.467],[-149.811,-17.465],[-149.797,-17.464]]]]}},{"type":"Feature","id":"PF-X02~","properties":{"id":"PF-X02~","countryCode":"PF","isoSubdivision":"PF-X02~","name":"Leeward Islands","name_en":"Leeward Islands","name_ko":"리워드 아일랜즈","type":"Principal subdivision","labelLongitude":-151.495,"labelLatitude":-16.669,"minZoom":11},"geometry":{"type":"MultiPolygon","coordinates":[[[[-153.934,-16.798],[-153.929,-16.807],[-153.923,-16.821],[-153.92,-16.832],[-153.924,-16.832],[-153.933,-16.819],[-153.943,-16.788],[-153.951,-16.774],[-153.943,-16.775],[-153.938,-16.779],[-153.935,-16.787],[-153.934,-16.798]]],[[[-152.245,-16.444],[-152.256,-16.451],[-152.264,-16.447],[-152.261,-16.442],[-152.245,-16.444]]],[[[-154.523,-15.819],[-154.521,-15.809],[-154.522,-15.8],[-154.528,-15.795],[-154.537,-15.792],[-154.525,-15.789],[-154.519,-15.796],[-154.517,-15.806],[-154.516,-15.817],[-154.519,-15.823],[-154.525,-15.828],[-154.529,-15.827],[-154.523,-15.819]]],[[[-151.006,-16.769],[-151.002,-16.761],[-150.994,-16.762],[-150.985,-16.769],[-150.979,-16.78],[-150.978,-16.788],[-150.98,-16.8],[-150.984,-16.809],[-150.993,-16.807],[-150.995,-16.814],[-150.999,-16.818],[-151.005,-16.82],[-151.013,-16.821],[-151.031,-16.806],[-151.038,-16.8],[-151.04,-16.79],[-151.035,-16.777],[-151.023,-16.773],[-151.011,-16.772],[-151.006,-16.769]]],[[[-151.479,-16.738],[-151.465,-16.736],[-151.447,-16.74],[-151.431,-16.748],[-151.424,-16.755],[-151.413,-16.78],[-151.352,-16.859],[-151.364,-16.866],[-151.401,-16.885],[-151.414,-16.889],[-151.424,-16.882],[-151.429,-16.882],[-151.432,-16.892],[-151.434,-16.898],[-151.441,-16.901],[-151.449,-16.903],[-151.458,-16.903],[-151.478,-16.89],[-151.488,-16.856],[-151.495,-16.765],[-151.491,-16.75],[-151.479,-16.738]]],[[[-151.026,-16.708],[-151.008,-16.74],[-151.01,-16.746],[-151.016,-16.749],[-151.024,-16.756],[-151.034,-16.763],[-151.047,-16.766],[-151.053,-16.754],[-151.054,-16.742],[-151.052,-16.73],[-151.042,-16.705],[-151.035,-16.694],[-151.029,-16.692],[-151.026,-16.708]]],[[[-151.458,-16.629],[-151.46,-16.661],[-151.463,-16.674],[-151.473,-16.67],[-151.481,-16.665],[-151.535,-16.642],[-151.54,-16.636],[-151.541,-16.631],[-151.536,-16.595],[-151.524,-16.583],[-151.503,-16.58],[-151.473,-16.58],[-151.477,-16.591],[-151.479,-16.594],[-151.46,-16.593],[-151.45,-16.595],[-151.445,-16.598],[-151.444,-16.602],[-151.439,-16.609],[-151.438,-16.615],[-151.441,-16.62],[-151.448,-16.624],[-151.458,-16.629]]],[[[-151.78,-16.478],[-151.764,-16.472],[-151.754,-16.484],[-151.748,-16.504],[-151.747,-16.526],[-151.763,-16.526],[-151.777,-16.512],[-151.784,-16.493],[-151.78,-16.478]]]]}},{"type":"Feature","id":"PF-X03~","properties":{"id":"PF-X03~","countryCode":"PF","isoSubdivision":"PF-X03~","name":"Tuamotu Archipelago","name_en":"Tuamotu Archipelago","name_ko":"투아모투-갬비어","type":"Principal subdivision","labelLongitude":-143.144,"labelLatitude":-16.738,"minZoom":11},"geometry":{"type":"MultiPolygon","coordinates":[[[[-136.166,-22.024],[-136.176,-22.03],[-136.186,-22.034],[-136.164,-22.014],[-136.164,-22.016],[-136.166,-22.024]]],[[[-136.377,-21.468],[-136.386,-21.464],[-136.396,-21.463],[-136.405,-21.465],[-136.413,-21.471],[-136.405,-21.46],[-136.391,-21.456],[-136.38,-21.459],[-136.377,-21.468]]],[[[-136.549,-21.337],[-136.532,-21.331],[-136.526,-21.338],[-136.529,-21.35],[-136.543,-21.36],[-136.534,-21.349],[-136.536,-21.342],[-136.542,-21.339],[-136.549,-21.337]]],[[[-136.636,-21.342],[-136.647,-21.327],[-136.652,-21.323],[-136.644,-21.323],[-136.64,-21.326],[-136.638,-21.333],[-136.636,-21.342]]],[[[-136.734,-21.312],[-136.739,-21.309],[-136.742,-21.304],[-136.746,-21.303],[-136.752,-21.309],[-136.746,-21.299],[-136.739,-21.299],[-136.732,-21.306],[-136.729,-21.318],[-136.731,-21.317],[-136.732,-21.316],[-136.733,-21.314],[-136.734,-21.312]]],[[[-140.414,-19.614],[-140.407,-19.61],[-140.395,-19.615],[-140.383,-19.625],[-140.377,-19.636],[-140.379,-19.649],[-140.387,-19.657],[-140.399,-19.662],[-140.412,-19.664],[-140.397,-19.651],[-140.387,-19.64],[-140.39,-19.629],[-140.414,-19.614]]],[[[-139.202,-19.351],[-139.204,-19.346],[-139.205,-19.341],[-139.208,-19.337],[-139.215,-19.335],[-139.203,-19.335],[-139.196,-19.341],[-139.196,-19.35],[-139.205,-19.359],[-139.202,-19.351]]],[[[-138.797,-19.29],[-138.806,-19.289],[-138.809,-19.287],[-138.812,-19.284],[-138.802,-19.282],[-138.795,-19.282],[-138.792,-19.284],[-138.797,-19.29]]],[[[-141.266,-19.204],[-141.252,-19.19],[-141.237,-19.194],[-141.228,-19.208],[-141.23,-19.227],[-141.234,-19.212],[-141.243,-19.202],[-141.255,-19.199],[-141.266,-19.204]]],[[[-140.722,-19.134],[-140.696,-19.119],[-140.67,-19.132],[-140.661,-19.152],[-140.686,-19.162],[-140.67,-19.143],[-140.681,-19.132],[-140.704,-19.129],[-140.722,-19.134]]],[[[-138.802,-18.765],[-138.795,-18.771],[-138.793,-18.774],[-138.793,-18.779],[-138.83,-18.76],[-138.823,-18.76],[-138.816,-18.761],[-138.802,-18.765]]],[[[-143.092,-17.853],[-143.081,-17.838],[-143.072,-17.84],[-143.06,-17.866],[-143.06,-17.868],[-143.065,-17.864],[-143.07,-17.855],[-143.073,-17.844],[-143.078,-17.852],[-143.082,-17.858],[-143.087,-17.858],[-143.092,-17.853]]],[[[-141.439,-17.368],[-141.442,-17.36],[-141.454,-17.352],[-141.467,-17.349],[-141.482,-17.349],[-141.461,-17.345],[-141.445,-17.352],[-141.436,-17.367],[-141.436,-17.371],[-141.435,-17.384],[-141.435,-17.389],[-141.437,-17.386],[-141.437,-17.383],[-141.439,-17.368]]],[[[-138.442,-17.366],[-138.461,-17.366],[-138.463,-17.36],[-138.464,-17.357],[-138.461,-17.35],[-138.447,-17.333],[-138.426,-17.325],[-138.455,-17.35],[-138.459,-17.357],[-138.458,-17.359],[-138.454,-17.36],[-138.448,-17.362],[-138.442,-17.366]]],[[[-143.085,-17.005],[-143.094,-16.998],[-143.098,-16.994],[-143.101,-16.99],[-143.09,-16.99],[-143.08,-16.993],[-143.07,-17],[-143.062,-17.009],[-143.068,-17.01],[-143.073,-17.009],[-143.079,-17.007],[-143.085,-17.005]]],[[[-144.201,-16.648],[-144.198,-16.642],[-144.188,-16.646],[-144.177,-16.655],[-144.17,-16.667],[-144.178,-16.664],[-144.186,-16.659],[-144.201,-16.648]]],[[[-145.899,-15.888],[-145.951,-15.84],[-145.914,-15.864],[-145.899,-15.878],[-145.899,-15.888]]],[[[-140.889,-15.82],[-140.861,-15.816],[-140.852,-15.816],[-140.86,-15.82],[-140.88,-15.838],[-140.889,-15.837],[-140.895,-15.833],[-140.896,-15.827],[-140.889,-15.82]]],[[[-148.251,-15.867],[-148.272,-15.853],[-148.279,-15.83],[-148.276,-15.81],[-148.262,-15.802],[-148.258,-15.808],[-148.246,-15.832],[-148.239,-15.84],[-148.23,-15.848],[-148.231,-15.857],[-148.239,-15.864],[-148.251,-15.867]]],[[[-146.487,-15.803],[-146.483,-15.815],[-146.482,-15.821],[-146.482,-15.827],[-146.491,-15.808],[-146.496,-15.799],[-146.503,-15.792],[-146.499,-15.794],[-146.487,-15.803]]],[[[-144.65,-15.73],[-144.633,-15.728],[-144.622,-15.736],[-144.62,-15.747],[-144.631,-15.755],[-144.642,-15.755],[-144.649,-15.749],[-144.652,-15.74],[-144.65,-15.73]]],[[[-145.456,-15.48],[-145.444,-15.48],[-145.435,-15.483],[-145.433,-15.489],[-145.438,-15.496],[-145.457,-15.482],[-145.524,-15.47],[-145.55,-15.452],[-145.482,-15.475],[-145.456,-15.48]]],[[[-146.194,-15.359],[-146.203,-15.389],[-146.199,-15.37],[-146.196,-15.348],[-146.198,-15.339],[-146.204,-15.331],[-146.207,-15.329],[-146.217,-15.324],[-146.214,-15.323],[-146.205,-15.328],[-146.201,-15.33],[-146.197,-15.336],[-146.193,-15.346],[-146.194,-15.359]]],[[[-146.621,-15.24],[-146.639,-15.233],[-146.624,-15.235],[-146.612,-15.244],[-146.603,-15.257],[-146.598,-15.272],[-146.61,-15.256],[-146.621,-15.24]]],[[[-147.256,-15.233],[-147.242,-15.232],[-147.239,-15.235],[-147.237,-15.244],[-147.242,-15.239],[-147.246,-15.237],[-147.251,-15.235],[-147.256,-15.233]]],[[[-147.779,-15.216],[-147.774,-15.213],[-147.763,-15.219],[-147.75,-15.229],[-147.737,-15.235],[-147.779,-15.216]]],[[[-147.459,-15.121],[-147.512,-15.08],[-147.531,-15.069],[-147.511,-15.078],[-147.493,-15.091],[-147.459,-15.121]]],[[[-147.932,-15.081],[-147.934,-15.077],[-147.937,-15.074],[-147.938,-15.071],[-147.937,-15.066],[-147.932,-15.081]]],[[[-145.922,-14.434],[-145.933,-14.438],[-145.944,-14.442],[-145.955,-14.444],[-145.966,-14.443],[-145.933,-14.438],[-145.922,-14.434]]],[[[-141.175,-14.19],[-141.18,-14.196],[-141.189,-14.19],[-141.213,-14.165],[-141.203,-14.17],[-141.175,-14.19]]],[[[-135.019,-23.118],[-134.998,-23.116],[-134.965,-23.091],[-134.943,-23.084],[-134.951,-23.097],[-134.985,-23.139],[-134.995,-23.137],[-135.005,-23.134],[-135.019,-23.125],[-135.019,-23.118]]],[[[-140.672,-21.659],[-140.653,-21.647],[-140.634,-21.661],[-140.604,-21.707],[-140.631,-21.722],[-140.658,-21.713],[-140.676,-21.689],[-140.672,-21.659]]],[[[-140.679,-17.78],[-140.727,-17.807],[-140.758,-17.832],[-140.785,-17.859],[-140.796,-17.863],[-140.812,-17.863],[-140.828,-17.86],[-140.837,-17.855],[-140.839,-17.843],[-140.834,-17.83],[-140.823,-17.807],[-140.802,-17.787],[-140.782,-17.752],[-140.746,-17.73],[-140.672,-17.698],[-140.652,-17.684],[-140.625,-17.687],[-140.62,-17.707],[-140.628,-17.728],[-140.648,-17.744],[-140.679,-17.78]]],[[[-146.387,-16.108],[-146.359,-16.1],[-146.338,-16.113],[-146.329,-16.138],[-146.339,-16.163],[-146.367,-16.159],[-146.392,-16.147],[-146.402,-16.13],[-146.387,-16.108]]],[[[-138.85,-21.871],[-138.932,-21.871],[-138.912,-21.864],[-138.892,-21.866],[-138.871,-21.87],[-138.85,-21.871]]],[[[-135.458,-21.528],[-135.526,-21.487],[-135.504,-21.49],[-135.485,-21.497],[-135.469,-21.509],[-135.458,-21.528]]],[[[-138.535,-20.877],[-138.519,-20.861],[-138.517,-20.849],[-138.541,-20.79],[-138.545,-20.785],[-138.55,-20.783],[-138.568,-20.788],[-138.564,-20.785],[-138.554,-20.781],[-138.549,-20.78],[-138.543,-20.78],[-138.52,-20.815],[-138.513,-20.858],[-138.535,-20.877]]],[[[-136.314,-18.567],[-136.314,-18.566],[-136.313,-18.561],[-136.313,-18.554],[-136.316,-18.546],[-136.322,-18.539],[-136.331,-18.533],[-136.344,-18.527],[-136.374,-18.519],[-136.383,-18.515],[-136.389,-18.51],[-136.394,-18.504],[-136.403,-18.497],[-136.449,-18.472],[-136.461,-18.469],[-136.465,-18.474],[-136.465,-18.482],[-136.464,-18.486],[-136.468,-18.482],[-136.47,-18.478],[-136.473,-18.474],[-136.479,-18.472],[-136.459,-18.464],[-136.426,-18.475],[-136.396,-18.494],[-136.382,-18.51],[-136.33,-18.528],[-136.305,-18.546],[-136.314,-18.567]]],[[[-140.672,-18.417],[-140.675,-18.414],[-140.681,-18.402],[-140.695,-18.39],[-140.752,-18.364],[-140.77,-18.35],[-140.779,-18.34],[-140.782,-18.335],[-140.756,-18.354],[-140.687,-18.391],[-140.679,-18.403],[-140.672,-18.417]]],[[[-136.971,-18.362],[-137.068,-18.266],[-137.042,-18.278],[-137.01,-18.304],[-136.983,-18.336],[-136.971,-18.362]]],[[[-140.823,-18.218],[-140.848,-18.183],[-140.895,-18.149],[-140.918,-18.108],[-140.93,-18.096],[-140.974,-18.06],[-140.964,-18.067],[-140.925,-18.085],[-140.899,-18.129],[-140.877,-18.151],[-140.851,-18.17],[-140.83,-18.19],[-140.823,-18.218]]],[[[-142.577,-17.621],[-142.565,-17.602],[-142.64,-17.533],[-142.612,-17.547],[-142.578,-17.572],[-142.558,-17.599],[-142.577,-17.621]]],[[[-143.414,-17.457],[-143.438,-17.439],[-143.475,-17.43],[-143.457,-17.429],[-143.438,-17.433],[-143.422,-17.442],[-143.414,-17.457]]],[[[-145.38,-17.485],[-145.435,-17.417],[-145.419,-17.427],[-145.406,-17.443],[-145.38,-17.485]]],[[[-145.578,-17.383],[-145.586,-17.37],[-145.591,-17.358],[-145.593,-17.343],[-145.593,-17.325],[-145.578,-17.383]]],[[[-143.386,-16.67],[-143.454,-16.625],[-143.506,-16.627],[-143.551,-16.622],[-143.465,-16.615],[-143.441,-16.621],[-143.42,-16.636],[-143.386,-16.67]]],[[[-143.571,-16.636],[-143.62,-16.632],[-143.66,-16.602],[-143.702,-16.58],[-143.666,-16.588],[-143.61,-16.63],[-143.571,-16.636]]],[[[-143.818,-16.54],[-143.821,-16.538],[-143.849,-16.493],[-143.88,-16.469],[-143.914,-16.457],[-143.934,-16.45],[-143.93,-16.45],[-143.91,-16.455],[-143.878,-16.46],[-143.862,-16.467],[-143.833,-16.498],[-143.823,-16.516],[-143.818,-16.54]]],[[[-144.256,-16.478],[-144.259,-16.458],[-144.261,-16.451],[-144.291,-16.416],[-144.276,-16.426],[-144.26,-16.442],[-144.251,-16.461],[-144.256,-16.478]]],[[[-144.373,-16.34],[-144.406,-16.329],[-144.426,-16.333],[-144.435,-16.32],[-144.428,-16.321],[-144.427,-16.322],[-144.428,-16.327],[-144.412,-16.321],[-144.396,-16.324],[-144.382,-16.332],[-144.373,-16.34]]],[[[-145.482,-16.348],[-145.502,-16.337],[-145.53,-16.279],[-145.553,-16.252],[-145.577,-16.203],[-145.59,-16.152],[-145.607,-16.129],[-145.614,-16.08],[-145.611,-16.097],[-145.604,-16.12],[-145.593,-16.14],[-145.582,-16.149],[-145.577,-16.161],[-145.568,-16.213],[-145.562,-16.224],[-145.559,-16.233],[-145.517,-16.279],[-145.494,-16.335],[-145.482,-16.348]]],[[[-145.614,-16.053],[-145.709,-16.06],[-145.658,-16.043],[-145.631,-16.038],[-145.614,-16.053]]],[[[-142.53,-16.108],[-142.522,-16.084],[-142.51,-16.059],[-142.495,-16.036],[-142.481,-16.019],[-142.53,-16.108]]],[[[-140.11,-15.977],[-140.117,-15.962],[-140.143,-15.961],[-140.172,-15.977],[-140.152,-15.958],[-140.125,-15.953],[-140.107,-15.961],[-140.11,-15.977]]],[[[-145.168,-15.95],[-145.236,-15.888],[-145.22,-15.898],[-145.168,-15.95]]],[[[-145.058,-15.902],[-145.076,-15.859],[-145.13,-15.778],[-145.161,-15.758],[-145.134,-15.763],[-145.118,-15.781],[-145.093,-15.826],[-145.067,-15.856],[-145.059,-15.876],[-145.058,-15.902]]],[[[-148.046,-14.998],[-148.054,-14.985],[-148.066,-14.971],[-148.084,-14.955],[-148.111,-14.94],[-148.176,-14.922],[-148.134,-14.925],[-148.089,-14.937],[-148.055,-14.96],[-148.046,-14.998]]],[[[-148.628,-14.895],[-148.648,-14.872],[-148.691,-14.854],[-148.668,-14.857],[-148.641,-14.865],[-148.623,-14.878],[-148.628,-14.895]]],[[[-145.195,-14.662],[-145.205,-14.675],[-145.223,-14.688],[-145.243,-14.698],[-145.26,-14.702],[-145.264,-14.69],[-145.253,-14.663],[-145.23,-14.62],[-145.25,-14.671],[-145.255,-14.693],[-145.234,-14.688],[-145.195,-14.662]]],[[[-146.257,-14.497],[-146.246,-14.476],[-146.239,-14.456],[-146.271,-14.435],[-146.243,-14.439],[-146.232,-14.457],[-146.236,-14.479],[-146.257,-14.497]]],[[[-145.003,-14.511],[-144.955,-14.463],[-144.911,-14.44],[-144.888,-14.418],[-144.913,-14.428],[-144.956,-14.432],[-145.003,-14.443],[-144.985,-14.432],[-144.962,-14.426],[-144.918,-14.422],[-144.897,-14.412],[-144.885,-14.408],[-144.88,-14.412],[-144.881,-14.422],[-144.883,-14.427],[-144.903,-14.442],[-144.935,-14.46],[-144.945,-14.463],[-144.955,-14.47],[-144.986,-14.501],[-145.003,-14.511]]],[[[-145.847,-14.367],[-145.843,-14.347],[-145.86,-14.344],[-145.914,-14.347],[-145.858,-14.337],[-145.835,-14.343],[-145.847,-14.367]]],[[[-136.739,-21.317],[-136.74,-21.32],[-136.742,-21.32],[-136.747,-21.316],[-136.745,-21.316],[-136.741,-21.317],[-136.739,-21.317]]],[[[-139.135,-20.8],[-139.141,-20.803],[-139.145,-20.804],[-139.148,-20.805],[-139.136,-20.8],[-139.135,-20.8]]],[[[-144.107,-16.724],[-144.08,-16.717],[-144.063,-16.731],[-144.054,-16.75],[-144.051,-16.759],[-144.063,-16.749],[-144.076,-16.73],[-144.091,-16.722],[-144.111,-16.74],[-144.111,-16.735],[-144.111,-16.732],[-144.107,-16.724]]]]}},{"type":"Feature","id":"PF-X04~","properties":{"id":"PF-X04~","countryCode":"PF","isoSubdivision":"PF-X04~","name":"Austral Islands","name_en":"Austral Islands","name_ko":"오스트랄 아일랜즈","type":"Principal subdivision","labelLongitude":-151.324,"labelLatitude":-22.522,"minZoom":11},"geometry":{"type":"MultiPolygon","coordinates":[[[[-147.724,-23.872],[-147.724,-23.865],[-147.706,-23.859],[-147.688,-23.855],[-147.648,-23.852],[-147.651,-23.859],[-147.656,-23.864],[-147.662,-23.868],[-147.669,-23.872],[-147.699,-23.878],[-147.713,-23.877],[-147.724,-23.872]]],[[[-149.482,-23.358],[-149.456,-23.365],[-149.451,-23.381],[-149.463,-23.396],[-149.508,-23.4],[-149.519,-23.395],[-149.525,-23.384],[-149.527,-23.368],[-149.521,-23.363],[-149.509,-23.36],[-149.482,-23.358]]],[[[-151.387,-22.422],[-151.378,-22.423],[-151.368,-22.434],[-151.359,-22.448],[-151.356,-22.457],[-151.357,-22.482],[-151.363,-22.508],[-151.369,-22.513],[-151.372,-22.514],[-151.376,-22.514],[-151.38,-22.489],[-151.391,-22.465],[-151.397,-22.442],[-151.387,-22.422]]],[[[-144.284,-27.579],[-144.288,-27.584],[-144.301,-27.595],[-144.304,-27.6],[-144.304,-27.601],[-144.3,-27.62],[-144.297,-27.621],[-144.304,-27.632],[-144.313,-27.64],[-144.324,-27.641],[-144.338,-27.634],[-144.347,-27.615],[-144.348,-27.586],[-144.339,-27.559],[-144.318,-27.551],[-144.298,-27.563],[-144.29,-27.57],[-144.284,-27.579]]]]}},{"type":"Feature","id":"PF-X05~","properties":{"id":"PF-X05~","countryCode":"PF","isoSubdivision":"PF-X05~","name":"Marquesas Islands","name_en":"Marquesas Islands","name_ko":"마르키즈 아일랜즈","type":"Principal subdivision","labelLongitude":-139.037,"labelLatitude":-9.756,"minZoom":11},"geometry":{"type":"MultiPolygon","coordinates":[[[[-138.699,-10.426],[-138.665,-10.427],[-138.65,-10.431],[-138.637,-10.441],[-138.62,-10.472],[-138.62,-10.511],[-138.637,-10.542],[-138.671,-10.55],[-138.686,-10.542],[-138.693,-10.526],[-138.694,-10.508],[-138.68,-10.474],[-138.682,-10.458],[-138.699,-10.426]]],[[[-139.082,-9.9],[-139.069,-9.904],[-139.056,-9.913],[-139.048,-9.923],[-139.051,-9.927],[-139.055,-9.928],[-139.058,-9.932],[-139.06,-9.937],[-139.062,-9.94],[-139.067,-9.943],[-139.077,-9.945],[-139.082,-9.947],[-139.096,-9.962],[-139.118,-10],[-139.131,-10.015],[-139.144,-9.998],[-139.143,-9.979],[-139.139,-9.959],[-139.144,-9.94],[-139.134,-9.928],[-139.121,-9.904],[-139.104,-9.888],[-139.082,-9.9]]],[[[-138.837,-9.741],[-138.814,-9.74],[-138.818,-9.749],[-138.869,-9.792],[-138.892,-9.801],[-138.917,-9.807],[-138.956,-9.81],[-139.009,-9.809],[-139.021,-9.806],[-139.026,-9.803],[-139.038,-9.802],[-139.05,-9.803],[-139.055,-9.806],[-139.055,-9.837],[-139.062,-9.854],[-139.071,-9.855],[-139.086,-9.849],[-139.126,-9.84],[-139.143,-9.829],[-139.157,-9.815],[-139.165,-9.803],[-139.17,-9.79],[-139.173,-9.774],[-139.169,-9.761],[-139.138,-9.751],[-139.051,-9.701],[-139.015,-9.694],[-138.985,-9.699],[-138.973,-9.721],[-138.961,-9.734],[-138.943,-9.742],[-138.921,-9.747],[-138.901,-9.749],[-138.877,-9.754],[-138.867,-9.755],[-138.855,-9.754],[-138.848,-9.749],[-138.842,-9.744],[-138.837,-9.741]]],[[[-140.077,-9.323],[-140.054,-9.346],[-140.041,-9.351],[-140.028,-9.344],[-140.041,-9.374],[-140.049,-9.408],[-140.063,-9.436],[-140.093,-9.448],[-140.111,-9.438],[-140.159,-9.372],[-140.139,-9.358],[-140.121,-9.34],[-140.102,-9.326],[-140.077,-9.323]]],[[[-139.514,-8.884],[-139.503,-8.899],[-139.508,-8.912],[-139.523,-8.922],[-139.542,-8.926],[-139.586,-8.929],[-139.603,-8.937],[-139.617,-8.954],[-139.613,-8.939],[-139.618,-8.925],[-139.626,-8.911],[-139.63,-8.895],[-139.597,-8.858],[-139.589,-8.858],[-139.582,-8.869],[-139.574,-8.87],[-139.558,-8.865],[-139.547,-8.867],[-139.514,-8.884]]],[[[-140.049,-8.823],[-140.022,-8.847],[-140.016,-8.859],[-140.014,-8.881],[-140.019,-8.896],[-140.031,-8.894],[-140.056,-8.879],[-140.061,-8.9],[-140.077,-8.915],[-140.096,-8.919],[-140.11,-8.906],[-140.118,-8.906],[-140.13,-8.916],[-140.17,-8.929],[-140.179,-8.937],[-140.183,-8.954],[-140.194,-8.95],[-140.207,-8.939],[-140.228,-8.927],[-140.235,-8.913],[-140.245,-8.867],[-140.247,-8.847],[-140.25,-8.839],[-140.259,-8.83],[-140.261,-8.823],[-140.248,-8.787],[-140.217,-8.781],[-140.09,-8.802],[-140.059,-8.802],[-140.051,-8.8],[-140.037,-8.792],[-140.028,-8.789],[-140.028,-8.794],[-140.03,-8.796],[-140.032,-8.799],[-140.039,-8.807],[-140.049,-8.823]]],[[[-140.692,-8.015],[-140.699,-8.029],[-140.708,-8.04],[-140.718,-8.041],[-140.727,-8.028],[-140.728,-7.991],[-140.706,-7.963],[-140.673,-7.95],[-140.638,-7.96],[-140.653,-7.971],[-140.658,-7.973],[-140.676,-7.977],[-140.684,-7.985],[-140.692,-8.015]]]]}}]}
