{"type":"FeatureCollection","features":[{"type":"Feature","id":"PL-DS","properties":{"id":"PL-DS","countryCode":"PL","isoSubdivision":"PL-DS","name":"Lower Silesian Voivodeship","name_en":"Lower Silesian Voivodeship","name_ko":"돌니실롱스크","type":"Voivodeship|Province","labelLongitude":16.462,"labelLatitude":51.013,"minZoom":6.7},"geometry":{"type":"Polygon","coordinates":[[[15.108,50.981],[15.094,50.985],[15.082,50.993],[15.074,51.003],[15.023,51.01],[15.004,51.021],[15.001,51.012],[14.997,51.008],[14.982,51.001],[14.976,51],[14.971,50.999],[14.966,50.996],[14.961,50.993],[14.965,50.981],[14.981,50.973],[14.997,50.959],[14.998,50.93],[14.995,50.925],[14.985,50.918],[14.982,50.915],[14.981,50.909],[14.982,50.905],[14.983,50.902],[14.984,50.868],[14.982,50.859],[14.868,50.864],[14.832,50.858],[14.81,50.858],[14.81,50.877],[14.825,50.892],[14.86,50.917],[14.911,50.993],[14.955,51.064],[14.958,51.076],[14.958,51.095],[14.96,51.105],[14.966,51.112],[14.973,51.116],[14.98,51.123],[14.982,51.136],[14.983,51.161],[14.991,51.189],[15.005,51.216],[15.022,51.237],[15.018,51.24],[15.014,51.243],[15.019,51.272],[15.005,51.291],[14.982,51.308],[14.964,51.328],[14.961,51.335],[14.957,51.353],[14.957,51.354],[14.951,51.397],[14.969,51.404],[15.129,51.456],[15.158,51.456],[15.217,51.424],[15.246,51.423],[15.297,51.477],[15.33,51.502],[15.403,51.518],[15.544,51.469],[15.615,51.48],[15.725,51.572],[15.824,51.691],[15.845,51.701],[15.88,51.708],[15.91,51.727],[15.925,51.753],[15.945,51.77],[16.097,51.752],[16.123,51.735],[16.126,51.7],[16.182,51.656],[16.261,51.667],[16.322,51.7],[16.371,51.749],[16.458,51.76],[16.499,51.753],[16.612,51.715],[16.63,51.69],[16.633,51.657],[16.676,51.61],[16.773,51.576],[16.828,51.538],[16.943,51.513],[17.15,51.535],[17.187,51.589],[17.229,51.594],[17.347,51.594],[17.457,51.575],[17.557,51.535],[17.547,51.506],[17.533,51.482],[17.509,51.472],[17.495,51.45],[17.501,51.407],[17.524,51.37],[17.583,51.362],[17.644,51.369],[17.682,51.363],[17.718,51.345],[17.69,51.303],[17.702,51.2],[17.715,51.15],[17.681,51.137],[17.647,51.132],[17.612,51.134],[17.58,51.127],[17.554,51.109],[17.496,51.025],[17.485,51],[17.479,50.974],[17.463,50.944],[17.431,50.931],[17.383,50.892],[17.348,50.839],[17.264,50.761],[17.192,50.674],[17.169,50.618],[17.133,50.579],[17.073,50.572],[17.02,50.547],[16.948,50.432],[16.944,50.42],[16.916,50.431],[16.893,50.433],[16.866,50.422],[16.866,50.408],[16.898,50.378],[16.909,50.36],[16.917,50.339],[16.927,50.319],[16.945,50.307],[16.97,50.298],[16.988,50.285],[16.998,50.267],[17,50.243],[17.013,50.232],[17.015,50.218],[17.008,50.21],[16.996,50.213],[16.986,50.223],[16.981,50.229],[16.975,50.232],[16.96,50.232],[16.958,50.229],[16.958,50.217],[16.955,50.213],[16.946,50.213],[16.928,50.217],[16.919,50.217],[16.907,50.212],[16.89,50.197],[16.881,50.192],[16.87,50.19],[16.858,50.188],[16.838,50.189],[16.818,50.187],[16.795,50.174],[16.777,50.157],[16.766,50.143],[16.754,50.132],[16.732,50.122],[16.701,50.095],[16.661,50.093],[16.619,50.107],[16.584,50.127],[16.567,50.142],[16.557,50.155],[16.546,50.189],[16.535,50.208],[16.505,50.228],[16.492,50.243],[16.478,50.255],[16.452,50.285],[16.438,50.298],[16.416,50.308],[16.371,50.318],[16.353,50.334],[16.351,50.342],[16.351,50.351],[16.351,50.361],[16.344,50.37],[16.334,50.372],[16.289,50.372],[16.277,50.369],[16.27,50.365],[16.263,50.364],[16.25,50.371],[16.245,50.377],[16.232,50.403],[16.2,50.406],[16.19,50.424],[16.198,50.44],[16.218,50.437],[16.216,50.44],[16.211,50.451],[16.217,50.452],[16.227,50.455],[16.232,50.457],[16.247,50.465],[16.265,50.472],[16.28,50.48],[16.288,50.493],[16.303,50.496],[16.335,50.49],[16.353,50.493],[16.362,50.501],[16.383,50.514],[16.391,50.522],[16.388,50.521],[16.388,50.527],[16.39,50.535],[16.391,50.54],[16.396,50.546],[16.398,50.548],[16.398,50.552],[16.394,50.559],[16.426,50.568],[16.417,50.587],[16.332,50.644],[16.301,50.655],[16.268,50.66],[16.232,50.661],[16.219,50.659],[16.212,50.649],[16.205,50.636],[16.192,50.627],[16.175,50.624],[16.16,50.629],[16.129,50.644],[16.086,50.647],[16.024,50.609],[15.982,50.604],[15.98,50.607],[15.979,50.61],[15.98,50.613],[15.982,50.616],[15.996,50.624],[15.999,50.636],[15.993,50.649],[15.984,50.663],[15.971,50.679],[15.958,50.687],[15.941,50.688],[15.882,50.674],[15.855,50.674],[15.848,50.675],[15.798,50.73],[15.794,50.736],[15.792,50.743],[15.767,50.744],[15.684,50.731],[15.674,50.734],[15.666,50.738],[15.653,50.751],[15.642,50.756],[15.522,50.782],[15.442,50.8],[15.4,50.798],[15.391,50.791],[15.381,50.78],[15.37,50.773],[15.369,50.773],[15.356,50.775],[15.35,50.784],[15.351,50.793],[15.353,50.803],[15.353,50.813],[15.341,50.832],[15.326,50.84],[15.308,50.845],[15.288,50.855],[15.277,50.866],[15.265,50.882],[15.256,50.9],[15.253,50.914],[15.26,50.932],[15.269,50.943],[15.27,50.953],[15.254,50.969],[15.227,50.977],[15.17,50.978],[15.161,50.993],[15.156,51.008],[15.144,51.012],[15.132,51.006],[15.123,50.993],[15.119,50.982],[15.108,50.981]]]}},{"type":"Feature","id":"PL-KP","properties":{"id":"PL-KP","countryCode":"PL","isoSubdivision":"PL-KP","name":"Kuyavian-Pomeranian Voivodeship","name_en":"Kuyavian-Pomeranian Voivodeship","name_ko":"쿠야비포모제","type":"Voivodeship|Province","labelLongitude":18.523,"labelLatitude":53.033,"minZoom":6.7},"geometry":{"type":"Polygon","coordinates":[[[19.748,53.093],[19.7,53.07],[19.649,53.055],[19.655,53.036],[19.655,53.017],[19.664,52.987],[19.661,52.967],[19.655,52.948],[19.646,52.931],[19.627,52.932],[19.608,52.94],[19.589,52.945],[19.568,52.933],[19.549,52.916],[19.507,52.894],[19.458,52.898],[19.474,52.857],[19.469,52.82],[19.449,52.807],[19.44,52.787],[19.451,52.766],[19.468,52.747],[19.497,52.705],[19.498,52.672],[19.455,52.665],[19.388,52.546],[19.361,52.512],[19.356,52.474],[19.376,52.461],[19.38,52.443],[19.307,52.368],[19.303,52.351],[19.296,52.334],[19.276,52.335],[19.257,52.333],[19.245,52.321],[19.236,52.31],[19.198,52.303],[19.074,52.301],[19.057,52.295],[19.05,52.286],[19.04,52.278],[18.945,52.323],[18.91,52.32],[18.805,52.293],[18.769,52.291],[18.742,52.329],[18.576,52.412],[18.546,52.434],[18.511,52.443],[18.492,52.442],[18.474,52.437],[18.464,52.426],[18.449,52.421],[18.425,52.426],[18.406,52.443],[18.394,52.459],[18.386,52.477],[18.372,52.483],[18.352,52.487],[18.294,52.445],[18.26,52.435],[18.159,52.452],[18.126,52.47],[18.097,52.492],[18.064,52.501],[18.027,52.502],[17.991,52.514],[17.889,52.571],[17.813,52.596],[17.744,52.598],[17.68,52.611],[17.669,52.615],[17.661,52.621],[17.656,52.638],[17.648,52.651],[17.617,52.667],[17.599,52.657],[17.559,52.649],[17.518,52.654],[17.498,52.673],[17.483,52.697],[17.447,52.718],[17.453,52.744],[17.47,52.752],[17.488,52.751],[17.504,52.754],[17.516,52.768],[17.537,52.839],[17.488,52.904],[17.413,52.939],[17.331,52.956],[17.376,53.019],[17.39,53.081],[17.359,53.117],[17.351,53.159],[17.442,53.205],[17.394,53.271],[17.309,53.31],[17.297,53.34],[17.37,53.397],[17.397,53.434],[17.425,53.444],[17.455,53.507],[17.48,53.539],[17.508,53.562],[17.544,53.564],[17.683,53.542],[17.746,53.557],[17.746,53.578],[17.75,53.593],[17.756,53.606],[17.788,53.624],[17.856,53.639],[17.897,53.683],[17.924,53.696],[18.051,53.681],[18.221,53.696],[18.256,53.694],[18.285,53.672],[18.318,53.653],[18.498,53.635],[18.583,53.605],[18.62,53.62],[18.678,53.632],[18.759,53.625],[18.779,53.619],[18.793,53.609],[18.809,53.603],[18.875,53.562],[18.906,53.55],[18.96,53.538],[19.074,53.542],[19.128,53.556],[19.215,53.455],[19.24,53.412],[19.27,53.378],[19.285,53.365],[19.309,53.359],[19.328,53.358],[19.405,53.343],[19.512,53.304],[19.626,53.286],[19.681,53.263],[19.733,53.185],[19.748,53.093]]]}},{"type":"Feature","id":"PL-LB","properties":{"id":"PL-LB","countryCode":"PL","isoSubdivision":"PL-LB","name":"Lubusz Voivodeship","name_en":"Lubusz Voivodeship","name_ko":"루부시","type":"Voivodeship|Province","labelLongitude":15.455,"labelLatitude":52.237,"minZoom":6.7},"geometry":{"type":"Polygon","coordinates":[[[14.951,51.397],[14.947,51.423],[14.955,51.435],[14.945,51.449],[14.927,51.461],[14.911,51.469],[14.888,51.476],[14.841,51.484],[14.819,51.493],[14.797,51.502],[14.732,51.516],[14.71,51.53],[14.707,51.541],[14.705,51.548],[14.713,51.567],[14.732,51.587],[14.744,51.607],[14.742,51.633],[14.732,51.658],[14.72,51.676],[14.671,51.701],[14.648,51.717],[14.638,51.743],[14.634,51.769],[14.62,51.781],[14.602,51.788],[14.586,51.804],[14.583,51.825],[14.596,51.842],[14.653,51.879],[14.672,51.894],[14.687,51.912],[14.696,51.931],[14.699,51.993],[14.704,52.002],[14.726,52.026],[14.73,52.036],[14.732,52.045],[14.735,52.054],[14.743,52.063],[14.761,52.077],[14.696,52.107],[14.686,52.121],[14.692,52.147],[14.703,52.165],[14.707,52.179],[14.693,52.193],[14.693,52.2],[14.712,52.215],[14.712,52.236],[14.697,52.253],[14.669,52.261],[14.64,52.265],[14.607,52.276],[14.584,52.291],[14.59,52.309],[14.569,52.339],[14.545,52.382],[14.54,52.422],[14.592,52.45],[14.616,52.473],[14.632,52.497],[14.628,52.507],[14.609,52.518],[14.617,52.541],[14.645,52.577],[14.614,52.593],[14.608,52.596],[14.632,52.65],[14.654,52.67],[14.739,52.678],[14.79,52.691],[14.868,52.758],[14.932,52.843],[15.03,52.875],[15.196,52.842],[15.249,52.846],[15.31,52.89],[15.348,52.933],[15.321,52.936],[15.301,52.952],[15.358,52.954],[15.527,52.989],[15.733,52.989],[15.784,53.011],[15.873,53.08],[15.926,53.105],[15.98,53.11],[16.03,53.103],[16.057,53.054],[16.039,53.007],[16.019,52.949],[16.022,52.885],[15.925,52.81],[15.955,52.792],[15.977,52.743],[15.967,52.727],[15.948,52.72],[15.853,52.702],[15.838,52.703],[15.831,52.693],[15.83,52.671],[15.826,52.65],[15.83,52.594],[15.865,52.535],[15.877,52.5],[15.885,52.463],[15.885,52.433],[15.858,52.433],[15.837,52.424],[15.879,52.378],[15.899,52.348],[15.901,52.287],[15.869,52.228],[15.864,52.214],[15.861,52.198],[15.85,52.169],[15.849,52.135],[15.857,52.104],[15.881,52.082],[15.908,52.065],[15.963,52.047],[15.981,52.016],[16.004,51.99],[16.039,51.968],[16.077,51.967],[16.094,51.972],[16.11,51.965],[16.112,51.945],[16.103,51.926],[16.098,51.892],[16.113,51.865],[16.156,51.847],[16.202,51.837],[16.275,51.868],[16.34,51.824],[16.371,51.749],[16.322,51.7],[16.261,51.667],[16.182,51.656],[16.126,51.7],[16.123,51.735],[16.097,51.752],[15.945,51.77],[15.925,51.753],[15.91,51.727],[15.88,51.708],[15.845,51.701],[15.824,51.691],[15.725,51.572],[15.615,51.48],[15.544,51.469],[15.403,51.518],[15.33,51.502],[15.297,51.477],[15.246,51.423],[15.217,51.424],[15.158,51.456],[15.129,51.456],[14.969,51.404],[14.951,51.397]]]}},{"type":"Feature","id":"PL-LD","properties":{"id":"PL-LD","countryCode":"PL","isoSubdivision":"PL-LD","name":"Łódź Voivodeship","name_en":"Łódź Voivodeship","name_ko":"우치","type":"Voivodeship|Province","labelLongitude":19.364,"labelLatitude":51.636,"minZoom":6.7},"geometry":{"type":"Polygon","coordinates":[[[19.296,52.334],[19.392,52.294],[19.498,52.28],[19.549,52.265],[19.641,52.219],[19.849,52.246],[19.881,52.266],[19.918,52.268],[19.945,52.246],[19.969,52.221],[20.001,52.211],[20.036,52.204],[20.064,52.192],[20.076,52.167],[20.08,52.132],[20.1,52.104],[20.115,52.099],[20.13,52.102],[20.199,52.085],[20.238,52.068],[20.252,52.058],[20.241,52.008],[20.208,51.996],[20.216,51.974],[20.243,51.955],[20.267,51.933],[20.264,51.914],[20.273,51.898],[20.309,51.891],[20.415,51.899],[20.482,51.88],[20.554,51.845],[20.613,51.796],[20.619,51.78],[20.61,51.768],[20.6,51.759],[20.595,51.746],[20.604,51.718],[20.658,51.683],[20.674,51.657],[20.671,51.634],[20.658,51.617],[20.585,51.623],[20.525,51.644],[20.448,51.643],[20.422,51.587],[20.451,51.543],[20.461,51.512],[20.465,51.48],[20.472,51.464],[20.509,51.453],[20.522,51.444],[20.522,51.412],[20.505,51.384],[20.441,51.347],[20.429,51.319],[20.432,51.29],[20.403,51.277],[20.367,51.22],[20.333,51.21],[20.3,51.207],[20.268,51.197],[20.199,51.156],[20.167,51.15],[20.056,51.16],[20.025,51.152],[20.001,51.132],[19.976,51.072],[20.021,51.028],[20.052,51.012],[20.062,50.979],[20.054,50.946],[20.031,50.929],[19.899,50.99],[19.864,50.986],[19.851,50.954],[19.85,50.922],[19.854,50.891],[19.837,50.861],[19.803,50.846],[19.774,50.829],[19.751,50.804],[19.642,50.839],[19.542,50.836],[19.508,50.842],[19.415,50.936],[19.354,50.971],[19.287,50.979],[19.253,50.96],[19.173,50.96],[19.108,50.969],[18.977,51.013],[18.947,51.033],[18.911,51.037],[18.88,51.023],[18.847,51.014],[18.706,51.011],[18.656,50.995],[18.581,51.033],[18.557,51.062],[18.53,51.083],[18.519,51.078],[18.509,51.068],[18.496,51.061],[18.426,51.06],[18.202,51.096],[18.173,51.111],[18.15,51.136],[18.144,51.183],[18.134,51.21],[18.076,51.242],[18.058,51.27],[18.055,51.302],[18.071,51.325],[18.144,51.335],[18.169,51.36],[18.186,51.391],[18.236,51.401],[18.29,51.384],[18.338,51.405],[18.366,51.453],[18.364,51.506],[18.354,51.561],[18.359,51.627],[18.385,51.688],[18.431,51.757],[18.457,51.779],[18.514,51.795],[18.659,51.786],[18.671,51.793],[18.719,51.846],[18.723,51.877],[18.704,51.91],[18.693,51.945],[18.7,51.979],[18.714,52.01],[18.745,52.011],[18.78,52.009],[18.847,52.019],[18.897,52.055],[18.906,52.118],[18.917,52.146],[19.017,52.172],[19.079,52.209],[19.076,52.219],[19.061,52.221],[19.042,52.246],[19.04,52.278],[19.05,52.286],[19.057,52.295],[19.074,52.301],[19.198,52.303],[19.236,52.31],[19.245,52.321],[19.257,52.333],[19.276,52.335],[19.296,52.334]]]}},{"type":"Feature","id":"PL-LU","properties":{"id":"PL-LU","countryCode":"PL","isoSubdivision":"PL-LU","name":"Lublin Voivodeship","name_en":"Lublin Voivodeship","name_ko":"루블린","type":"Voivodeship|Province","labelLongitude":22.894,"labelLatitude":51.209,"minZoom":6.7},"geometry":{"type":"Polygon","coordinates":[[[23.176,52.285],[23.184,52.281],[23.194,52.271],[23.198,52.258],[23.19,52.241],[23.212,52.232],[23.284,52.22],[23.3,52.223],[23.313,52.215],[23.375,52.201],[23.396,52.2],[23.396,52.193],[23.388,52.184],[23.391,52.183],[23.406,52.186],[23.418,52.183],[23.427,52.177],[23.437,52.176],[23.45,52.186],[23.454,52.181],[23.464,52.176],[23.471,52.172],[23.488,52.182],[23.492,52.174],[23.489,52.162],[23.485,52.159],[23.512,52.124],[23.532,52.121],[23.579,52.122],[23.598,52.115],[23.605,52.107],[23.61,52.099],[23.616,52.092],[23.625,52.09],[23.637,52.084],[23.641,52.073],[23.643,52.061],[23.651,52.049],[23.665,52.011],[23.676,51.994],[23.661,51.987],[23.648,51.974],[23.629,51.946],[23.622,51.928],[23.621,51.896],[23.615,51.884],[23.619,51.883],[23.621,51.883],[23.621,51.882],[23.622,51.877],[23.61,51.873],[23.606,51.852],[23.595,51.843],[23.61,51.825],[23.629,51.81],[23.618,51.787],[23.598,51.775],[23.577,51.767],[23.56,51.755],[23.556,51.747],[23.552,51.737],[23.547,51.714],[23.55,51.708],[23.557,51.701],[23.559,51.695],[23.55,51.692],[23.546,51.69],[23.549,51.683],[23.555,51.676],[23.56,51.672],[23.548,51.662],[23.541,51.66],[23.532,51.659],[23.532,51.652],[23.544,51.644],[23.545,51.634],[23.54,51.607],[23.543,51.593],[23.552,51.579],[23.574,51.555],[23.567,51.555],[23.56,51.555],[23.573,51.54],[23.589,51.536],[23.602,51.531],[23.606,51.517],[23.608,51.511],[23.615,51.497],[23.631,51.49],[23.649,51.486],[23.663,51.48],[23.647,51.46],[23.649,51.454],[23.689,51.416],[23.698,51.404],[23.686,51.401],[23.679,51.394],[23.678,51.384],[23.684,51.37],[23.666,51.366],[23.648,51.354],[23.634,51.339],[23.629,51.326],[23.635,51.305],[23.651,51.3],[23.67,51.299],[23.687,51.292],[23.743,51.216],[23.765,51.199],[23.816,51.179],[23.864,51.148],[23.875,51.136],[23.858,51.131],[23.854,51.122],[23.869,51.102],[23.896,51.076],[23.904,51.063],[23.916,51.021],[23.916,51.015],[23.912,51.007],[23.919,51.003],[23.932,50.999],[23.944,50.994],[23.955,50.984],[23.958,50.975],[23.959,50.966],[23.964,50.953],[23.979,50.938],[24.047,50.898],[24.13,50.869],[24.143,50.856],[24.131,50.839],[24.1,50.835],[24.067,50.835],[24.047,50.829],[24.02,50.839],[23.993,50.836],[23.97,50.825],[23.958,50.808],[23.959,50.789],[23.974,50.776],[23.998,50.769],[24.026,50.767],[24.026,50.761],[24.013,50.743],[24.027,50.728],[24.054,50.717],[24.081,50.713],[24.075,50.69],[24.083,50.669],[24.108,50.63],[24.085,50.604],[24.095,50.557],[24.103,50.544],[24.108,50.541],[24.106,50.539],[24.094,50.527],[24.075,50.514],[24.011,50.493],[24.008,50.481],[24.009,50.461],[24.008,50.448],[24.003,50.438],[23.981,50.405],[23.929,50.391],[23.748,50.389],[23.713,50.382],[23.696,50.377],[23.682,50.368],[23.671,50.354],[23.659,50.327],[23.658,50.327],[23.558,50.365],[23.526,50.396],[23.463,50.421],[23.389,50.427],[23.332,50.423],[23.305,50.416],[23.223,50.356],[23.158,50.323],[23.083,50.312],[22.858,50.317],[22.721,50.342],[22.711,50.357],[22.745,50.362],[22.761,50.368],[22.734,50.38],[22.595,50.362],[22.56,50.373],[22.534,50.398],[22.527,50.423],[22.543,50.444],[22.568,50.465],[22.599,50.471],[22.63,50.469],[22.658,50.479],[22.646,50.503],[22.623,50.531],[22.62,50.545],[22.621,50.559],[22.612,50.568],[22.455,50.622],[22.222,50.66],[22.203,50.68],[22.248,50.735],[22.262,50.76],[22.231,50.778],[22.195,50.792],[22.157,50.801],[22.117,50.8],[22.051,50.77],[21.976,50.773],[21.844,50.83],[21.839,50.851],[21.814,50.912],[21.812,50.922],[21.81,50.925],[21.805,50.927],[21.8,50.93],[21.798,50.935],[21.799,50.942],[21.802,50.945],[21.805,50.947],[21.806,50.95],[21.813,50.993],[21.81,51.012],[21.791,51.021],[21.791,51.028],[21.799,51.029],[21.807,51.031],[21.815,51.036],[21.819,51.042],[21.815,51.055],[21.791,51.094],[21.783,51.126],[21.774,51.144],[21.772,51.151],[21.773,51.163],[21.777,51.172],[21.785,51.186],[21.803,51.248],[21.816,51.264],[21.825,51.269],[21.836,51.27],[21.834,51.291],[21.846,51.322],[21.852,51.35],[21.812,51.38],[21.815,51.405],[21.838,51.417],[21.862,51.437],[21.863,51.478],[21.832,51.48],[21.832,51.487],[21.848,51.498],[21.844,51.511],[21.826,51.528],[21.824,51.542],[21.825,51.554],[21.821,51.563],[21.806,51.569],[21.796,51.57],[21.772,51.563],[21.754,51.562],[21.703,51.569],[21.675,51.577],[21.66,51.588],[21.647,51.601],[21.646,51.611],[21.656,51.637],[21.692,51.643],[21.728,51.634],[21.801,51.627],[21.872,51.642],[21.897,51.657],[21.904,51.68],[21.853,51.728],[21.892,51.761],[21.947,51.782],[21.912,51.815],[21.887,51.852],[21.883,51.879],[21.864,51.905],[21.848,51.933],[21.841,51.958],[21.912,51.991],[21.988,52.005],[22.133,52.004],[22.27,52.021],[22.321,52.015],[22.356,52.022],[22.451,52.066],[22.49,52.069],[22.6,52.062],[22.655,52.09],[22.66,52.105],[22.666,52.118],[22.683,52.129],[22.701,52.136],[22.742,52.13],[22.859,52.093],[22.898,52.102],[22.931,52.128],[22.96,52.169],[23.055,52.255],[23.087,52.292],[23.101,52.296],[23.119,52.293],[23.15,52.282],[23.168,52.282],[23.176,52.285]]]}},{"type":"Feature","id":"PL-MA","properties":{"id":"PL-MA","countryCode":"PL","isoSubdivision":"PL-MA","name":"Lesser Poland Voivodeship","name_en":"Lesser Poland Voivodeship","name_ko":"마워폴스카","type":"Voivodeship|Province","labelLongitude":20.313,"labelLatitude":49.876,"minZoom":6.7},"geometry":{"type":"Polygon","coordinates":[[[19.706,49.388],[19.685,49.389],[19.627,49.402],[19.629,49.414],[19.629,49.43],[19.63,49.435],[19.635,49.441],[19.595,49.442],[19.574,49.445],[19.557,49.454],[19.552,49.461],[19.535,49.493],[19.517,49.543],[19.505,49.563],[19.482,49.574],[19.474,49.579],[19.457,49.598],[19.449,49.6],[19.444,49.612],[19.42,49.622],[19.407,49.64],[19.416,49.661],[19.433,49.684],[19.436,49.71],[19.369,49.718],[19.331,49.729],[19.299,49.748],[19.284,49.779],[19.263,49.803],[19.213,49.816],[19.183,49.851],[19.18,49.884],[19.159,49.901],[19.133,49.903],[19.112,49.92],[19.124,49.954],[19.146,49.983],[19.168,50.004],[19.405,50.175],[19.358,50.216],[19.305,50.25],[19.337,50.266],[19.404,50.26],[19.447,50.3],[19.475,50.335],[19.502,50.361],[19.557,50.341],[19.583,50.341],[19.608,50.344],[19.697,50.389],[19.751,50.394],[19.808,50.391],[19.839,50.394],[19.966,50.445],[19.963,50.463],[19.956,50.484],[20.051,50.484],[20.09,50.471],[20.124,50.448],[20.208,50.431],[20.285,50.399],[20.33,50.341],[20.347,50.295],[20.364,50.272],[20.41,50.231],[20.429,50.205],[20.502,50.177],[20.634,50.174],[20.663,50.195],[20.667,50.206],[20.68,50.218],[20.712,50.228],[20.726,50.237],[20.729,50.242],[20.73,50.252],[20.734,50.257],[20.738,50.259],[20.747,50.26],[20.75,50.261],[20.771,50.274],[20.777,50.292],[20.784,50.298],[20.822,50.274],[20.839,50.279],[20.852,50.288],[20.865,50.294],[20.881,50.287],[20.895,50.293],[20.922,50.295],[20.931,50.298],[20.941,50.307],[20.949,50.311],[20.96,50.314],[21.034,50.315],[21.049,50.318],[21.06,50.324],[21.07,50.331],[21.079,50.336],[21.12,50.349],[21.13,50.35],[21.145,50.346],[21.154,50.339],[21.164,50.333],[21.181,50.336],[21.181,50.337],[21.199,50.353],[21.206,50.357],[21.211,50.357],[21.215,50.359],[21.216,50.367],[21.221,50.372],[21.233,50.376],[21.245,50.383],[21.25,50.397],[21.26,50.392],[21.266,50.392],[21.277,50.397],[21.279,50.4],[21.277,50.405],[21.277,50.41],[21.281,50.412],[21.295,50.411],[21.284,50.327],[21.254,50.279],[21.216,50.238],[21.21,50.182],[21.237,50.031],[21.229,49.987],[21.228,49.948],[21.237,49.937],[21.245,49.923],[21.266,49.907],[21.295,49.905],[21.332,49.892],[21.345,49.864],[21.246,49.814],[21.229,49.789],[21.259,49.772],[21.366,49.742],[21.426,49.7],[21.461,49.63],[21.464,49.594],[21.459,49.56],[21.477,49.487],[21.513,49.42],[21.514,49.418],[21.514,49.417],[21.496,49.412],[21.482,49.415],[21.444,49.41],[21.428,49.41],[21.33,49.428],[21.274,49.447],[21.261,49.449],[21.242,49.441],[21.211,49.411],[21.194,49.401],[21.173,49.398],[21.157,49.405],[21.143,49.416],[21.125,49.424],[21.109,49.425],[21.069,49.419],[21.054,49.414],[21.033,49.4],[21.045,49.391],[21.069,49.381],[21.081,49.366],[21.073,49.357],[21.054,49.355],[21.033,49.355],[21.017,49.352],[20.997,49.339],[20.964,49.308],[20.942,49.296],[20.919,49.29],[20.901,49.293],[20.884,49.3],[20.868,49.311],[20.849,49.321],[20.834,49.322],[20.817,49.321],[20.794,49.324],[20.778,49.331],[20.69,49.401],[20.674,49.402],[20.636,49.398],[20.614,49.4],[20.605,49.4],[20.595,49.396],[20.579,49.383],[20.568,49.376],[20.544,49.371],[20.522,49.374],[20.438,49.403],[20.422,49.4],[20.422,49.383],[20.37,49.382],[20.33,49.392],[20.318,49.392],[20.307,49.387],[20.304,49.38],[20.302,49.371],[20.296,49.357],[20.289,49.343],[20.284,49.339],[20.207,49.334],[20.192,49.329],[20.17,49.312],[20.16,49.306],[20.138,49.307],[20.136,49.309],[20.13,49.304],[20.111,49.276],[20.105,49.264],[20.098,49.253],[20.086,49.243],[20.08,49.208],[20.07,49.183],[20.05,49.173],[20.017,49.184],[19.966,49.216],[19.938,49.225],[19.906,49.223],[19.888,49.214],[19.868,49.201],[19.854,49.191],[19.832,49.186],[19.786,49.188],[19.761,49.194],[19.748,49.206],[19.752,49.219],[19.79,49.259],[19.794,49.262],[19.8,49.263],[19.806,49.265],[19.809,49.271],[19.807,49.275],[19.806,49.275],[19.799,49.281],[19.797,49.283],[19.783,49.29],[19.78,49.293],[19.78,49.298],[19.788,49.305],[19.79,49.309],[19.784,49.358],[19.779,49.374],[19.769,49.393],[19.76,49.398],[19.727,49.389],[19.706,49.388]]]}},{"type":"Feature","id":"PL-MZ","properties":{"id":"PL-MZ","countryCode":"PL","isoSubdivision":"PL-MZ","name":"Masovian Voivodeship","name_en":"Masovian Voivodeship","name_ko":"마조프셰","type":"Voivodeship|Province","labelLongitude":21.192,"labelLatitude":52.227,"minZoom":6.7},"geometry":{"type":"Polygon","coordinates":[[[21.523,53.444],[21.536,53.409],[21.559,53.376],[21.575,53.337],[21.6,53.222],[21.656,53.138],[21.693,53.095],[21.746,53.078],[21.801,53.073],[21.847,53.052],[21.831,53.034],[21.835,53.008],[21.86,52.981],[21.898,52.968],[21.923,52.953],[21.937,52.928],[21.951,52.891],[21.978,52.862],[22.049,52.84],[22.125,52.846],[22.175,52.879],[22.223,52.857],[22.207,52.802],[22.232,52.78],[22.264,52.767],[22.32,52.784],[22.378,52.794],[22.393,52.747],[22.4,52.695],[22.412,52.66],[22.415,52.622],[22.412,52.601],[22.468,52.564],[22.489,52.547],[22.511,52.535],[22.518,52.529],[22.52,52.52],[22.517,52.511],[22.512,52.503],[22.511,52.495],[22.515,52.482],[22.52,52.473],[22.528,52.469],[22.542,52.467],[22.545,52.463],[22.539,52.429],[22.546,52.419],[22.563,52.404],[22.583,52.395],[22.6,52.399],[22.612,52.387],[22.636,52.384],[22.689,52.385],[22.845,52.366],[22.923,52.372],[22.952,52.367],[22.975,52.353],[22.984,52.33],[23.006,52.337],[23.024,52.33],[23.052,52.31],[23.047,52.304],[23.042,52.294],[23.039,52.289],[23.056,52.283],[23.072,52.286],[23.087,52.292],[23.055,52.255],[22.96,52.169],[22.931,52.128],[22.898,52.102],[22.859,52.093],[22.742,52.13],[22.701,52.136],[22.683,52.129],[22.666,52.118],[22.66,52.105],[22.655,52.09],[22.6,52.062],[22.49,52.069],[22.451,52.066],[22.356,52.022],[22.321,52.015],[22.27,52.021],[22.133,52.004],[21.988,52.005],[21.912,51.991],[21.841,51.958],[21.848,51.933],[21.864,51.905],[21.883,51.879],[21.887,51.852],[21.912,51.815],[21.947,51.782],[21.892,51.761],[21.853,51.728],[21.904,51.68],[21.897,51.657],[21.872,51.642],[21.801,51.627],[21.728,51.634],[21.692,51.643],[21.656,51.637],[21.646,51.611],[21.647,51.601],[21.66,51.588],[21.675,51.577],[21.703,51.569],[21.754,51.562],[21.772,51.563],[21.796,51.57],[21.806,51.569],[21.821,51.563],[21.825,51.554],[21.824,51.542],[21.826,51.528],[21.844,51.511],[21.848,51.498],[21.832,51.487],[21.832,51.48],[21.863,51.478],[21.862,51.437],[21.838,51.417],[21.815,51.405],[21.812,51.38],[21.852,51.35],[21.846,51.322],[21.834,51.291],[21.836,51.27],[21.825,51.269],[21.816,51.264],[21.803,51.248],[21.785,51.186],[21.777,51.172],[21.773,51.163],[21.772,51.151],[21.774,51.144],[21.783,51.126],[21.791,51.094],[21.815,51.055],[21.496,51.013],[21.33,51.046],[21.253,51.05],[21.185,51.078],[21.178,51.093],[21.174,51.11],[21.144,51.131],[21.136,51.165],[21.106,51.171],[21.074,51.153],[21.045,51.127],[21.012,51.115],[20.873,51.101],[20.752,51.117],[20.726,51.129],[20.705,51.15],[20.682,51.167],[20.517,51.23],[20.487,51.277],[20.432,51.29],[20.429,51.319],[20.441,51.347],[20.505,51.384],[20.522,51.412],[20.522,51.444],[20.509,51.453],[20.472,51.464],[20.465,51.48],[20.461,51.512],[20.451,51.543],[20.422,51.587],[20.448,51.643],[20.525,51.644],[20.585,51.623],[20.658,51.617],[20.671,51.634],[20.674,51.657],[20.658,51.683],[20.604,51.718],[20.595,51.746],[20.6,51.759],[20.61,51.768],[20.619,51.78],[20.613,51.796],[20.554,51.845],[20.482,51.88],[20.415,51.899],[20.309,51.891],[20.273,51.898],[20.264,51.914],[20.267,51.933],[20.243,51.955],[20.216,51.974],[20.208,51.996],[20.241,52.008],[20.252,52.058],[20.238,52.068],[20.199,52.085],[20.13,52.102],[20.115,52.099],[20.1,52.104],[20.08,52.132],[20.076,52.167],[20.064,52.192],[20.036,52.204],[20.001,52.211],[19.969,52.221],[19.945,52.246],[19.918,52.268],[19.881,52.266],[19.849,52.246],[19.641,52.219],[19.549,52.265],[19.498,52.28],[19.392,52.294],[19.296,52.334],[19.303,52.351],[19.307,52.368],[19.38,52.443],[19.376,52.461],[19.356,52.474],[19.361,52.512],[19.388,52.546],[19.455,52.665],[19.498,52.672],[19.497,52.705],[19.468,52.747],[19.451,52.766],[19.44,52.787],[19.449,52.807],[19.469,52.82],[19.474,52.857],[19.458,52.898],[19.507,52.894],[19.549,52.916],[19.568,52.933],[19.589,52.945],[19.608,52.94],[19.627,52.932],[19.646,52.931],[19.655,52.948],[19.661,52.967],[19.664,52.987],[19.655,53.017],[19.655,53.036],[19.649,53.055],[19.7,53.07],[19.748,53.093],[19.782,53.098],[19.811,53.113],[19.837,53.144],[19.877,53.151],[19.894,53.149],[19.91,53.142],[19.916,53.134],[19.925,53.127],[20.241,53.098],[20.316,53.106],[20.346,53.115],[20.372,53.134],[20.389,53.167],[20.42,53.182],[20.458,53.18],[20.495,53.186],[20.635,53.235],[20.668,53.258],[20.704,53.276],[20.776,53.275],[20.839,53.283],[20.912,53.309],[21.008,53.308],[21.098,53.326],[21.174,53.38],[21.263,53.375],[21.308,53.379],[21.349,53.396],[21.377,53.43],[21.402,53.438],[21.523,53.444]]]}},{"type":"Feature","id":"PL-OP","properties":{"id":"PL-OP","countryCode":"PL","isoSubdivision":"PL-OP","name":"Opole Voivodeship","name_en":"Opole Voivodeship","name_ko":"오폴레","type":"Voivodeship|Province","labelLongitude":17.8,"labelLatitude":50.55,"minZoom":6.7},"geometry":{"type":"Polygon","coordinates":[[[16.959,50.415],[16.944,50.42],[16.948,50.432],[17.02,50.547],[17.073,50.572],[17.133,50.579],[17.169,50.618],[17.192,50.674],[17.264,50.761],[17.348,50.839],[17.383,50.892],[17.431,50.931],[17.463,50.944],[17.479,50.974],[17.485,51],[17.496,51.025],[17.554,51.109],[17.58,51.127],[17.612,51.134],[17.647,51.132],[17.681,51.137],[17.715,51.15],[17.749,51.151],[17.782,51.141],[17.796,51.119],[17.801,51.095],[17.854,51.068],[17.917,51.066],[18.036,51.093],[18.15,51.136],[18.173,51.111],[18.202,51.096],[18.426,51.06],[18.496,51.061],[18.509,51.068],[18.519,51.078],[18.53,51.083],[18.557,51.062],[18.581,51.033],[18.656,50.995],[18.621,50.918],[18.609,50.909],[18.601,50.893],[18.607,50.871],[18.621,50.852],[18.614,50.817],[18.535,50.785],[18.509,50.749],[18.491,50.686],[18.467,50.646],[18.486,50.608],[18.513,50.585],[18.545,50.569],[18.577,50.547],[18.589,50.511],[18.443,50.512],[18.414,50.507],[18.401,50.485],[18.412,50.467],[18.41,50.449],[18.388,50.443],[18.367,50.44],[18.357,50.419],[18.374,50.291],[18.374,50.24],[18.363,50.211],[18.266,50.182],[18.206,50.153],[18.08,50.136],[18.021,50.061],[18.019,50.044],[18.002,50.047],[18.007,50.024],[18.012,50.023],[18.02,50.024],[18.029,50.024],[18.036,50.017],[18.037,50.007],[18.032,50.003],[18,49.997],[17.96,49.996],[17.942,49.993],[17.912,49.976],[17.876,49.969],[17.839,49.974],[17.775,50.015],[17.763,50.025],[17.755,50.037],[17.75,50.05],[17.743,50.061],[17.732,50.069],[17.723,50.075],[17.719,50.081],[17.723,50.086],[17.732,50.091],[17.732,50.092],[17.733,50.093],[17.732,50.094],[17.732,50.095],[17.718,50.097],[17.691,50.105],[17.678,50.108],[17.667,50.106],[17.658,50.103],[17.648,50.102],[17.633,50.106],[17.584,50.146],[17.582,50.153],[17.589,50.163],[17.6,50.167],[17.649,50.168],[17.675,50.175],[17.718,50.191],[17.738,50.202],[17.748,50.218],[17.732,50.236],[17.721,50.243],[17.719,50.253],[17.721,50.262],[17.732,50.281],[17.734,50.284],[17.735,50.287],[17.734,50.289],[17.732,50.292],[17.714,50.308],[17.708,50.311],[17.691,50.315],[17.685,50.312],[17.682,50.306],[17.676,50.297],[17.647,50.271],[17.63,50.262],[17.606,50.258],[17.517,50.268],[17.469,50.266],[17.44,50.243],[17.435,50.241],[17.43,50.24],[17.424,50.241],[17.419,50.243],[17.41,50.261],[17.388,50.273],[17.366,50.272],[17.355,50.253],[17.342,50.26],[17.335,50.27],[17.333,50.283],[17.334,50.296],[17.33,50.298],[17.325,50.301],[17.322,50.304],[17.319,50.308],[17.337,50.313],[17.317,50.319],[17.27,50.318],[17.246,50.322],[17.211,50.336],[17.201,50.343],[17.195,50.352],[17.189,50.365],[17.185,50.376],[17.188,50.378],[17.176,50.381],[17.145,50.377],[17.132,50.377],[17.119,50.381],[17.096,50.394],[17.085,50.398],[16.982,50.416],[16.959,50.415]]]}},{"type":"Feature","id":"PL-PD","properties":{"id":"PL-PD","countryCode":"PL","isoSubdivision":"PL-PD","name":"Podlaskie Voivodeship","name_en":"Podlaskie Voivodeship","name_ko":"포들라스키에","type":"Voivodeship|Province","labelLongitude":22.723,"labelLatitude":53.34,"minZoom":6.7},"geometry":{"type":"Polygon","coordinates":[[[22.838,54.401],[22.859,54.399],[22.919,54.381],[22.93,54.38],[22.952,54.383],[22.963,54.382],[22.973,54.375],[22.979,54.368],[22.983,54.36],[22.99,54.353],[23.001,54.349],[23.035,54.347],[23.042,54.341],[23.038,54.331],[23.032,54.32],[23.032,54.31],[23.05,54.295],[23.073,54.295],[23.097,54.301],[23.117,54.303],[23.135,54.298],[23.197,54.268],[23.235,54.254],[23.316,54.236],[23.336,54.226],[23.354,54.217],[23.364,54.208],[23.382,54.188],[23.391,54.18],[23.402,54.176],[23.423,54.173],[23.433,54.169],[23.449,54.155],[23.463,54.135],[23.474,54.113],[23.482,54.091],[23.496,54.045],[23.496,54.022],[23.482,54.007],[23.47,54.001],[23.464,53.997],[23.459,53.992],[23.459,53.982],[23.463,53.973],[23.471,53.965],[23.482,53.96],[23.487,53.956],[23.49,53.951],[23.49,53.945],[23.486,53.939],[23.487,53.91],[23.497,53.886],[23.51,53.863],[23.521,53.837],[23.53,53.784],[23.54,53.764],[23.565,53.742],[23.567,53.681],[23.591,53.611],[23.676,53.456],[23.723,53.397],[23.743,53.365],[23.783,53.271],[23.801,53.242],[23.819,53.228],[23.828,53.214],[23.836,53.199],[23.848,53.184],[23.866,53.172],[23.883,53.164],[23.894,53.152],[23.891,53.128],[23.882,53.113],[23.87,53.101],[23.861,53.087],[23.859,53.068],[23.868,53.051],[23.898,53.028],[23.91,53.013],[23.911,53.005],[23.909,52.993],[23.909,52.987],[23.918,52.959],[23.918,52.951],[23.915,52.945],[23.904,52.931],[23.901,52.923],[23.902,52.913],[23.905,52.907],[23.909,52.902],[23.912,52.894],[23.92,52.773],[23.922,52.743],[23.909,52.7],[23.869,52.67],[23.736,52.615],[23.569,52.586],[23.48,52.554],[23.392,52.51],[23.271,52.395],[23.23,52.365],[23.212,52.348],[23.166,52.289],[23.169,52.289],[23.176,52.285],[23.168,52.282],[23.15,52.282],[23.119,52.293],[23.101,52.296],[23.087,52.292],[23.072,52.286],[23.056,52.283],[23.039,52.289],[23.042,52.294],[23.047,52.304],[23.052,52.31],[23.024,52.33],[23.006,52.337],[22.984,52.33],[22.975,52.353],[22.952,52.367],[22.923,52.372],[22.845,52.366],[22.689,52.385],[22.636,52.384],[22.612,52.387],[22.6,52.399],[22.583,52.395],[22.563,52.404],[22.546,52.419],[22.539,52.429],[22.545,52.463],[22.542,52.467],[22.528,52.469],[22.52,52.473],[22.515,52.482],[22.511,52.495],[22.512,52.503],[22.517,52.511],[22.52,52.52],[22.518,52.529],[22.511,52.535],[22.489,52.547],[22.468,52.564],[22.412,52.601],[22.415,52.622],[22.412,52.66],[22.4,52.695],[22.393,52.747],[22.378,52.794],[22.32,52.784],[22.264,52.767],[22.232,52.78],[22.207,52.802],[22.223,52.857],[22.175,52.879],[22.125,52.846],[22.049,52.84],[21.978,52.862],[21.951,52.891],[21.937,52.928],[21.923,52.953],[21.898,52.968],[21.86,52.981],[21.835,53.008],[21.831,53.034],[21.847,53.052],[21.801,53.073],[21.746,53.078],[21.693,53.095],[21.656,53.138],[21.6,53.222],[21.575,53.337],[21.559,53.376],[21.536,53.409],[21.523,53.444],[21.596,53.463],[21.739,53.458],[21.802,53.471],[21.831,53.485],[21.863,53.493],[21.937,53.499],[22.11,53.57],[22.207,53.635],[22.486,53.738],[22.543,53.774],[22.578,53.832],[22.618,53.878],[22.622,53.925],[22.516,54.012],[22.465,54.042],[22.455,54.069],[22.449,54.099],[22.348,54.179],[22.442,54.257],[22.665,54.275],[22.732,54.302],[22.789,54.337],[22.814,54.385],[22.811,54.393],[22.813,54.394],[22.838,54.401]]]}},{"type":"Feature","id":"PL-PK","properties":{"id":"PL-PK","countryCode":"PL","isoSubdivision":"PL-PK","name":"Podkarpackie Voivodeship","name_en":"Podkarpackie Voivodeship","name_ko":"포드카르파츠키에","type":"Voivodeship|Province","labelLongitude":22.434,"labelLatitude":49.856,"minZoom":6.7},"geometry":{"type":"Polygon","coordinates":[[[21.666,49.402],[21.659,49.402],[21.649,49.407],[21.63,49.419],[21.62,49.423],[21.601,49.426],[21.53,49.421],[21.514,49.417],[21.514,49.418],[21.513,49.42],[21.477,49.487],[21.459,49.56],[21.464,49.594],[21.461,49.63],[21.426,49.7],[21.366,49.742],[21.259,49.772],[21.229,49.789],[21.246,49.814],[21.345,49.864],[21.332,49.892],[21.295,49.905],[21.266,49.907],[21.245,49.923],[21.237,49.937],[21.228,49.948],[21.229,49.987],[21.237,50.031],[21.21,50.182],[21.216,50.238],[21.254,50.279],[21.284,50.327],[21.295,50.411],[21.299,50.412],[21.36,50.446],[21.379,50.44],[21.404,50.444],[21.43,50.453],[21.449,50.466],[21.439,50.482],[21.435,50.487],[21.531,50.514],[21.595,50.525],[21.613,50.534],[21.644,50.558],[21.657,50.574],[21.662,50.593],[21.669,50.608],[21.716,50.644],[21.745,50.675],[21.762,50.683],[21.788,50.685],[21.806,50.691],[21.822,50.706],[21.833,50.724],[21.84,50.74],[21.849,50.779],[21.847,50.816],[21.844,50.83],[21.976,50.773],[22.051,50.77],[22.117,50.8],[22.157,50.801],[22.195,50.792],[22.231,50.778],[22.262,50.76],[22.248,50.735],[22.203,50.68],[22.222,50.66],[22.455,50.622],[22.612,50.568],[22.621,50.559],[22.62,50.545],[22.623,50.531],[22.646,50.503],[22.658,50.479],[22.63,50.469],[22.599,50.471],[22.568,50.465],[22.543,50.444],[22.527,50.423],[22.534,50.398],[22.56,50.373],[22.595,50.362],[22.734,50.38],[22.761,50.368],[22.745,50.362],[22.711,50.357],[22.721,50.342],[22.858,50.317],[23.083,50.312],[23.158,50.323],[23.223,50.356],[23.305,50.416],[23.332,50.423],[23.389,50.427],[23.463,50.421],[23.526,50.396],[23.558,50.365],[23.658,50.327],[23.659,50.327],[23.658,50.326],[23.644,50.313],[23.565,50.258],[23.536,50.243],[23.482,50.216],[23.436,50.193],[23.208,50.034],[23.178,50.004],[23.141,49.985],[23.101,49.957],[22.993,49.854],[22.951,49.827],[22.946,49.818],[22.938,49.798],[22.933,49.791],[22.924,49.785],[22.907,49.781],[22.898,49.777],[22.888,49.77],[22.827,49.697],[22.81,49.686],[22.799,49.683],[22.777,49.68],[22.766,49.674],[22.759,49.666],[22.742,49.634],[22.666,49.567],[22.641,49.529],[22.66,49.493],[22.667,49.478],[22.673,49.436],[22.677,49.424],[22.68,49.419],[22.693,49.406],[22.714,49.391],[22.72,49.383],[22.724,49.367],[22.738,49.275],[22.734,49.261],[22.717,49.23],[22.703,49.195],[22.687,49.173],[22.682,49.161],[22.688,49.156],[22.692,49.158],[22.706,49.169],[22.721,49.162],[22.72,49.161],[22.716,49.161],[22.749,49.146],[22.778,49.12],[22.796,49.111],[22.841,49.095],[22.853,49.085],[22.854,49.076],[22.844,49.057],[22.843,49.043],[22.848,49.034],[22.864,49.015],[22.865,49.013],[22.867,49.01],[22.855,48.994],[22.835,49],[22.813,49.013],[22.795,49.019],[22.784,49.021],[22.765,49.038],[22.755,49.045],[22.744,49.046],[22.722,49.041],[22.686,49.043],[22.664,49.041],[22.643,49.043],[22.618,49.054],[22.581,49.081],[22.561,49.086],[22.54,49.072],[22.505,49.083],[22.427,49.086],[22.39,49.093],[22.339,49.126],[22.318,49.132],[22.263,49.131],[22.216,49.14],[22.208,49.144],[22.206,49.15],[22.209,49.157],[22.209,49.164],[22.198,49.172],[22.19,49.173],[22.166,49.171],[22.156,49.172],[22.144,49.175],[22.112,49.189],[22.041,49.197],[22.012,49.211],[22.006,49.243],[21.993,49.278],[21.964,49.309],[21.928,49.331],[21.875,49.348],[21.838,49.37],[21.82,49.377],[21.799,49.375],[21.782,49.364],[21.768,49.353],[21.758,49.349],[21.742,49.357],[21.709,49.391],[21.692,49.402],[21.682,49.404],[21.666,49.402]]]}},{"type":"Feature","id":"PL-PM","properties":{"id":"PL-PM","countryCode":"PL","isoSubdivision":"PL-PM","name":"Pomeranian Voivodeship","name_en":"Pomeranian Voivodeship","name_ko":"포모제","type":"Voivodeship|Province","labelLongitude":18.272,"labelLatitude":54.26,"minZoom":6.7},"geometry":{"type":"Polygon","coordinates":[[[19.61,54.457],[19.631,54.447],[19.68,54.437],[19.758,54.434],[19.754,54.433],[19.743,54.434],[19.745,54.429],[19.748,54.418],[19.749,54.414],[19.734,54.412],[19.726,54.402],[19.72,54.391],[19.712,54.386],[19.697,54.385],[19.684,54.381],[19.619,54.353],[19.58,54.35],[19.563,54.346],[19.486,54.318],[19.473,54.316],[19.46,54.311],[19.435,54.297],[19.409,54.273],[19.403,54.269],[19.396,54.263],[19.378,54.236],[19.365,54.228],[19.366,54.243],[19.37,54.255],[19.377,54.264],[19.386,54.269],[19.386,54.277],[19.363,54.275],[19.274,54.282],[19.25,54.265],[19.243,54.231],[19.265,54.193],[19.285,54.172],[19.296,54.147],[19.284,54.128],[19.269,54.112],[19.225,54.086],[19.209,54.072],[19.212,54.052],[19.23,54.009],[19.264,53.977],[19.312,53.96],[19.363,53.956],[19.389,53.935],[19.37,53.896],[19.405,53.885],[19.504,53.89],[19.554,53.882],[19.55,53.866],[19.55,53.849],[19.538,53.836],[19.52,53.825],[19.504,53.797],[19.492,53.786],[19.49,53.769],[19.434,53.755],[19.353,53.758],[19.311,53.742],[19.276,53.719],[19.128,53.556],[19.074,53.542],[18.96,53.538],[18.906,53.55],[18.875,53.562],[18.809,53.603],[18.793,53.609],[18.779,53.619],[18.759,53.625],[18.678,53.632],[18.62,53.62],[18.583,53.605],[18.498,53.635],[18.318,53.653],[18.285,53.672],[18.256,53.694],[18.221,53.696],[18.051,53.681],[17.924,53.696],[17.897,53.683],[17.856,53.639],[17.788,53.624],[17.756,53.606],[17.75,53.593],[17.746,53.578],[17.746,53.557],[17.683,53.542],[17.544,53.564],[17.508,53.562],[17.48,53.539],[17.455,53.507],[17.425,53.444],[17.397,53.434],[17.353,53.466],[17.299,53.483],[17.096,53.488],[17.037,53.509],[16.996,53.553],[16.948,53.588],[16.93,53.697],[16.972,53.722],[17.002,53.753],[16.991,53.774],[16.973,53.791],[16.953,53.797],[16.952,53.817],[17.002,53.831],[17.058,53.826],[17.039,53.85],[17.016,53.87],[16.988,53.885],[16.95,53.93],[16.926,53.947],[16.883,53.965],[16.883,54.02],[16.875,54.075],[16.811,54.189],[16.951,54.209],[16.967,54.223],[16.963,54.248],[16.944,54.264],[16.933,54.278],[16.94,54.296],[16.967,54.312],[16.977,54.339],[16.97,54.387],[16.939,54.423],[16.857,54.493],[16.787,54.575],[16.785,54.577],[16.86,54.594],[16.902,54.598],[16.94,54.606],[17.036,54.667],[17.337,54.749],[17.716,54.79],[17.885,54.824],[18.152,54.838],[18.317,54.838],[18.34,54.833],[18.376,54.815],[18.389,54.811],[18.41,54.808],[18.752,54.69],[18.814,54.643],[18.824,54.632],[18.834,54.617],[18.835,54.603],[18.818,54.598],[18.813,54.602],[18.808,54.609],[18.802,54.616],[18.784,54.624],[18.772,54.642],[18.755,54.654],[18.708,54.701],[18.698,54.704],[18.663,54.708],[18.655,54.71],[18.645,54.72],[18.617,54.725],[18.557,54.749],[18.498,54.765],[18.489,54.773],[18.456,54.788],[18.448,54.79],[18.436,54.787],[18.429,54.782],[18.415,54.753],[18.413,54.747],[18.413,54.732],[18.418,54.728],[18.442,54.722],[18.448,54.718],[18.46,54.706],[18.474,54.688],[18.474,54.68],[18.47,54.673],[18.47,54.667],[18.482,54.66],[18.476,54.64],[18.487,54.632],[18.506,54.634],[18.523,54.647],[18.517,54.63],[18.525,54.617],[18.538,54.605],[18.563,54.56],[18.571,54.55],[18.567,54.527],[18.568,54.488],[18.574,54.45],[18.588,54.434],[18.604,54.431],[18.634,54.417],[18.65,54.414],[18.663,54.413],[18.68,54.41],[18.694,54.405],[18.7,54.396],[18.717,54.382],[18.886,54.35],[18.923,54.349],[18.954,54.359],[18.963,54.354],[18.975,54.35],[19.002,54.345],[19.377,54.378],[19.46,54.401],[19.499,54.406],[19.531,54.415],[19.593,54.452],[19.61,54.457]]]}},{"type":"Feature","id":"PL-SK","properties":{"id":"PL-SK","countryCode":"PL","isoSubdivision":"PL-SK","name":"Świętokrzyskie Voivodeship","name_en":"Świętokrzyskie Voivodeship","name_ko":"시비엥토크시스키에","type":"Voivodeship|Province","labelLongitude":20.795,"labelLatitude":50.701,"minZoom":6.7},"geometry":{"type":"Polygon","coordinates":[[[20.432,51.29],[20.487,51.277],[20.517,51.23],[20.682,51.167],[20.705,51.15],[20.726,51.129],[20.752,51.117],[20.873,51.101],[21.012,51.115],[21.045,51.127],[21.074,51.153],[21.106,51.171],[21.136,51.165],[21.144,51.131],[21.174,51.11],[21.178,51.093],[21.185,51.078],[21.253,51.05],[21.33,51.046],[21.496,51.013],[21.815,51.055],[21.819,51.042],[21.815,51.036],[21.807,51.031],[21.799,51.029],[21.791,51.028],[21.791,51.021],[21.81,51.012],[21.813,50.993],[21.806,50.95],[21.805,50.947],[21.802,50.945],[21.799,50.942],[21.798,50.935],[21.8,50.93],[21.805,50.927],[21.81,50.925],[21.812,50.922],[21.814,50.912],[21.839,50.851],[21.844,50.83],[21.847,50.816],[21.849,50.779],[21.84,50.74],[21.833,50.724],[21.822,50.706],[21.806,50.691],[21.788,50.685],[21.762,50.683],[21.745,50.675],[21.716,50.644],[21.669,50.608],[21.662,50.593],[21.657,50.574],[21.644,50.558],[21.613,50.534],[21.595,50.525],[21.531,50.514],[21.435,50.487],[21.439,50.482],[21.449,50.466],[21.43,50.453],[21.404,50.444],[21.379,50.44],[21.36,50.446],[21.299,50.412],[21.295,50.411],[21.281,50.412],[21.277,50.41],[21.277,50.405],[21.279,50.4],[21.277,50.397],[21.266,50.392],[21.26,50.392],[21.25,50.397],[21.245,50.383],[21.233,50.376],[21.221,50.372],[21.216,50.367],[21.215,50.359],[21.211,50.357],[21.206,50.357],[21.199,50.353],[21.181,50.337],[21.181,50.336],[21.164,50.333],[21.154,50.339],[21.145,50.346],[21.13,50.35],[21.12,50.349],[21.079,50.336],[21.07,50.331],[21.06,50.324],[21.049,50.318],[21.034,50.315],[20.96,50.314],[20.949,50.311],[20.941,50.307],[20.931,50.298],[20.922,50.295],[20.895,50.293],[20.881,50.287],[20.865,50.294],[20.852,50.288],[20.839,50.279],[20.822,50.274],[20.784,50.298],[20.777,50.292],[20.771,50.274],[20.75,50.261],[20.747,50.26],[20.738,50.259],[20.734,50.257],[20.73,50.252],[20.729,50.242],[20.726,50.237],[20.712,50.228],[20.68,50.218],[20.667,50.206],[20.663,50.195],[20.634,50.174],[20.502,50.177],[20.429,50.205],[20.41,50.231],[20.364,50.272],[20.347,50.295],[20.33,50.341],[20.285,50.399],[20.208,50.431],[20.124,50.448],[20.09,50.471],[20.051,50.484],[19.956,50.484],[19.928,50.491],[19.86,50.498],[19.825,50.51],[19.845,50.537],[19.914,50.574],[19.954,50.578],[19.907,50.615],[19.879,50.654],[19.845,50.671],[19.769,50.685],[19.742,50.706],[19.779,50.751],[19.848,50.758],[19.853,50.766],[19.852,50.778],[19.849,50.789],[19.836,50.794],[19.751,50.804],[19.774,50.829],[19.803,50.846],[19.837,50.861],[19.854,50.891],[19.85,50.922],[19.851,50.954],[19.864,50.986],[19.899,50.99],[20.031,50.929],[20.054,50.946],[20.062,50.979],[20.052,51.012],[20.021,51.028],[19.976,51.072],[20.001,51.132],[20.025,51.152],[20.056,51.16],[20.167,51.15],[20.199,51.156],[20.268,51.197],[20.3,51.207],[20.333,51.21],[20.367,51.22],[20.403,51.277],[20.432,51.29]]]}},{"type":"Feature","id":"PL-SL","properties":{"id":"PL-SL","countryCode":"PL","isoSubdivision":"PL-SL","name":"Silesian Voivodeship","name_en":"Silesian Voivodeship","name_ko":"실롱스크","type":"Voivodeship|Province","labelLongitude":18.992,"labelLatitude":50.198,"minZoom":6.7},"geometry":{"type":"Polygon","coordinates":[[[19.449,49.6],[19.443,49.602],[19.438,49.6],[19.434,49.595],[19.347,49.533],[19.34,49.529],[19.325,49.525],[19.315,49.524],[19.284,49.524],[19.265,49.521],[19.249,49.516],[19.234,49.507],[19.22,49.493],[19.204,49.461],[19.206,49.459],[19.209,49.456],[19.211,49.452],[19.209,49.445],[19.205,49.443],[19.192,49.443],[19.189,49.442],[19.182,49.423],[19.18,49.41],[19.173,49.402],[19.142,49.394],[19.117,49.391],[19.106,49.391],[19.097,49.395],[19.077,49.404],[19.068,49.406],[19.046,49.403],[19.007,49.388],[18.982,49.387],[18.962,49.389],[18.957,49.4],[18.961,49.433],[18.958,49.448],[18.953,49.462],[18.952,49.476],[18.961,49.493],[18.932,49.504],[18.833,49.51],[18.837,49.527],[18.835,49.548],[18.82,49.59],[18.816,49.599],[18.804,49.617],[18.799,49.626],[18.793,49.661],[18.788,49.669],[18.773,49.676],[18.758,49.674],[18.742,49.67],[18.728,49.669],[18.715,49.674],[18.695,49.689],[18.682,49.696],[18.668,49.699],[18.637,49.7],[18.624,49.706],[18.618,49.714],[18.608,49.743],[18.584,49.774],[18.567,49.805],[18.566,49.832],[18.594,49.852],[18.567,49.861],[18.563,49.874],[18.565,49.889],[18.559,49.907],[18.544,49.913],[18.505,49.897],[18.482,49.897],[18.407,49.923],[18.369,49.932],[18.329,49.929],[18.331,49.929],[18.332,49.928],[18.334,49.927],[18.335,49.925],[18.307,49.91],[18.292,49.908],[18.273,49.918],[18.267,49.925],[18.26,49.941],[18.256,49.946],[18.244,49.952],[18.221,49.955],[18.209,49.958],[18.177,49.976],[18.162,49.981],[18.098,49.989],[18.085,49.999],[18.092,50.017],[18.033,50.042],[18.019,50.044],[18.021,50.061],[18.08,50.136],[18.206,50.153],[18.266,50.182],[18.363,50.211],[18.374,50.24],[18.374,50.291],[18.357,50.419],[18.367,50.44],[18.388,50.443],[18.41,50.449],[18.412,50.467],[18.401,50.485],[18.414,50.507],[18.443,50.512],[18.589,50.511],[18.577,50.547],[18.545,50.569],[18.513,50.585],[18.486,50.608],[18.467,50.646],[18.491,50.686],[18.509,50.749],[18.535,50.785],[18.614,50.817],[18.621,50.852],[18.607,50.871],[18.601,50.893],[18.609,50.909],[18.621,50.918],[18.656,50.995],[18.706,51.011],[18.847,51.014],[18.88,51.023],[18.911,51.037],[18.947,51.033],[18.977,51.013],[19.108,50.969],[19.173,50.96],[19.253,50.96],[19.287,50.979],[19.354,50.971],[19.415,50.936],[19.508,50.842],[19.542,50.836],[19.642,50.839],[19.751,50.804],[19.836,50.794],[19.849,50.789],[19.852,50.778],[19.853,50.766],[19.848,50.758],[19.779,50.751],[19.742,50.706],[19.769,50.685],[19.845,50.671],[19.879,50.654],[19.907,50.615],[19.954,50.578],[19.914,50.574],[19.845,50.537],[19.825,50.51],[19.86,50.498],[19.928,50.491],[19.956,50.484],[19.963,50.463],[19.966,50.445],[19.839,50.394],[19.808,50.391],[19.751,50.394],[19.697,50.389],[19.608,50.344],[19.583,50.341],[19.557,50.341],[19.502,50.361],[19.475,50.335],[19.447,50.3],[19.404,50.26],[19.337,50.266],[19.305,50.25],[19.358,50.216],[19.405,50.175],[19.168,50.004],[19.146,49.983],[19.124,49.954],[19.112,49.92],[19.133,49.903],[19.159,49.901],[19.18,49.884],[19.183,49.851],[19.213,49.816],[19.263,49.803],[19.284,49.779],[19.299,49.748],[19.331,49.729],[19.369,49.718],[19.436,49.71],[19.433,49.684],[19.416,49.661],[19.407,49.64],[19.42,49.622],[19.444,49.612],[19.449,49.6]]]}},{"type":"Feature","id":"PL-WN","properties":{"id":"PL-WN","countryCode":"PL","isoSubdivision":"PL-WN","name":"Warmian-Masurian Voivodeship","name_en":"Warmian-Masurian Voivodeship","name_ko":"바르미아마주리","type":"Voivodeship|Province","labelLongitude":20.971,"labelLatitude":53.853,"minZoom":6.7},"geometry":{"type":"Polygon","coordinates":[[[22.767,54.356],[22.786,54.365],[22.811,54.393],[22.814,54.385],[22.789,54.337],[22.732,54.302],[22.665,54.275],[22.442,54.257],[22.348,54.179],[22.449,54.099],[22.455,54.069],[22.465,54.042],[22.516,54.012],[22.622,53.925],[22.618,53.878],[22.578,53.832],[22.543,53.774],[22.486,53.738],[22.207,53.635],[22.11,53.57],[21.937,53.499],[21.863,53.493],[21.831,53.485],[21.802,53.471],[21.739,53.458],[21.596,53.463],[21.523,53.444],[21.402,53.438],[21.377,53.43],[21.349,53.396],[21.308,53.379],[21.263,53.375],[21.174,53.38],[21.098,53.326],[21.008,53.308],[20.912,53.309],[20.839,53.283],[20.776,53.275],[20.704,53.276],[20.668,53.258],[20.635,53.235],[20.495,53.186],[20.458,53.18],[20.42,53.182],[20.389,53.167],[20.372,53.134],[20.346,53.115],[20.316,53.106],[20.241,53.098],[19.925,53.127],[19.916,53.134],[19.91,53.142],[19.894,53.149],[19.877,53.151],[19.837,53.144],[19.811,53.113],[19.782,53.098],[19.748,53.093],[19.733,53.185],[19.681,53.263],[19.626,53.286],[19.512,53.304],[19.405,53.343],[19.328,53.358],[19.309,53.359],[19.285,53.365],[19.27,53.378],[19.24,53.412],[19.215,53.455],[19.128,53.556],[19.276,53.719],[19.311,53.742],[19.353,53.758],[19.434,53.755],[19.49,53.769],[19.492,53.786],[19.504,53.797],[19.52,53.825],[19.538,53.836],[19.55,53.849],[19.55,53.866],[19.554,53.882],[19.504,53.89],[19.405,53.885],[19.37,53.896],[19.389,53.935],[19.363,53.956],[19.312,53.96],[19.264,53.977],[19.23,54.009],[19.212,54.052],[19.209,54.072],[19.225,54.086],[19.269,54.112],[19.284,54.128],[19.296,54.147],[19.285,54.172],[19.265,54.193],[19.243,54.231],[19.25,54.265],[19.274,54.282],[19.363,54.275],[19.386,54.277],[19.386,54.269],[19.377,54.264],[19.37,54.255],[19.366,54.243],[19.365,54.228],[19.378,54.236],[19.396,54.263],[19.403,54.269],[19.409,54.273],[19.435,54.297],[19.46,54.311],[19.473,54.316],[19.486,54.318],[19.563,54.346],[19.58,54.35],[19.619,54.353],[19.684,54.381],[19.697,54.385],[19.712,54.386],[19.72,54.391],[19.726,54.402],[19.734,54.412],[19.749,54.414],[19.748,54.418],[19.745,54.429],[19.743,54.434],[19.754,54.433],[19.758,54.434],[19.965,54.428],[20.352,54.416],[20.641,54.407],[20.93,54.398],[21.287,54.387],[21.721,54.373],[21.999,54.365],[22.277,54.356],[22.51,54.349],[22.698,54.343],[22.767,54.356]]]}},{"type":"Feature","id":"PL-WP","properties":{"id":"PL-WP","countryCode":"PL","isoSubdivision":"PL-WP","name":"Greater Poland Voivodeship","name_en":"Greater Poland Voivodeship","name_ko":"비엘코폴스카","type":"Voivodeship|Province","labelLongitude":17.452,"labelLatitude":52.145,"minZoom":6.7},"geometry":{"type":"Polygon","coordinates":[[[19.04,52.278],[19.042,52.246],[19.061,52.221],[19.076,52.219],[19.079,52.209],[19.017,52.172],[18.917,52.146],[18.906,52.118],[18.897,52.055],[18.847,52.019],[18.78,52.009],[18.745,52.011],[18.714,52.01],[18.7,51.979],[18.693,51.945],[18.704,51.91],[18.723,51.877],[18.719,51.846],[18.671,51.793],[18.659,51.786],[18.514,51.795],[18.457,51.779],[18.431,51.757],[18.385,51.688],[18.359,51.627],[18.354,51.561],[18.364,51.506],[18.366,51.453],[18.338,51.405],[18.29,51.384],[18.236,51.401],[18.186,51.391],[18.169,51.36],[18.144,51.335],[18.071,51.325],[18.055,51.302],[18.058,51.27],[18.076,51.242],[18.134,51.21],[18.144,51.183],[18.15,51.136],[18.036,51.093],[17.917,51.066],[17.854,51.068],[17.801,51.095],[17.796,51.119],[17.782,51.141],[17.749,51.151],[17.715,51.15],[17.702,51.2],[17.69,51.303],[17.718,51.345],[17.682,51.363],[17.644,51.369],[17.583,51.362],[17.524,51.37],[17.501,51.407],[17.495,51.45],[17.509,51.472],[17.533,51.482],[17.547,51.506],[17.557,51.535],[17.457,51.575],[17.347,51.594],[17.229,51.594],[17.187,51.589],[17.15,51.535],[16.943,51.513],[16.828,51.538],[16.773,51.576],[16.676,51.61],[16.633,51.657],[16.63,51.69],[16.612,51.715],[16.499,51.753],[16.458,51.76],[16.371,51.749],[16.34,51.824],[16.275,51.868],[16.202,51.837],[16.156,51.847],[16.113,51.865],[16.098,51.892],[16.103,51.926],[16.112,51.945],[16.11,51.965],[16.094,51.972],[16.077,51.967],[16.039,51.968],[16.004,51.99],[15.981,52.016],[15.963,52.047],[15.908,52.065],[15.881,52.082],[15.857,52.104],[15.849,52.135],[15.85,52.169],[15.861,52.198],[15.864,52.214],[15.869,52.228],[15.901,52.287],[15.899,52.348],[15.879,52.378],[15.837,52.424],[15.858,52.433],[15.885,52.433],[15.885,52.463],[15.877,52.5],[15.865,52.535],[15.83,52.594],[15.826,52.65],[15.83,52.671],[15.831,52.693],[15.838,52.703],[15.853,52.702],[15.948,52.72],[15.967,52.727],[15.977,52.743],[15.955,52.792],[15.925,52.81],[16.022,52.885],[16.019,52.949],[16.039,53.007],[16.094,52.996],[16.155,52.974],[16.217,52.979],[16.279,52.993],[16.375,53.048],[16.456,53.125],[16.601,53.176],[16.675,53.189],[16.704,53.206],[16.727,53.231],[16.758,53.254],[16.752,53.282],[16.72,53.306],[16.683,53.318],[16.608,53.33],[16.545,53.366],[16.53,53.402],[16.529,53.442],[16.551,53.461],[16.735,53.458],[16.765,53.461],[16.791,53.525],[16.81,53.558],[16.837,53.585],[16.872,53.595],[16.91,53.595],[16.948,53.588],[16.996,53.553],[17.037,53.509],[17.096,53.488],[17.299,53.483],[17.353,53.466],[17.397,53.434],[17.37,53.397],[17.297,53.34],[17.309,53.31],[17.394,53.271],[17.442,53.205],[17.351,53.159],[17.359,53.117],[17.39,53.081],[17.376,53.019],[17.331,52.956],[17.413,52.939],[17.488,52.904],[17.537,52.839],[17.516,52.768],[17.504,52.754],[17.488,52.751],[17.47,52.752],[17.453,52.744],[17.447,52.718],[17.483,52.697],[17.498,52.673],[17.518,52.654],[17.559,52.649],[17.599,52.657],[17.617,52.667],[17.648,52.651],[17.656,52.638],[17.661,52.621],[17.669,52.615],[17.68,52.611],[17.744,52.598],[17.813,52.596],[17.889,52.571],[17.991,52.514],[18.027,52.502],[18.064,52.501],[18.097,52.492],[18.126,52.47],[18.159,52.452],[18.26,52.435],[18.294,52.445],[18.352,52.487],[18.372,52.483],[18.386,52.477],[18.394,52.459],[18.406,52.443],[18.425,52.426],[18.449,52.421],[18.464,52.426],[18.474,52.437],[18.492,52.442],[18.511,52.443],[18.546,52.434],[18.576,52.412],[18.742,52.329],[18.769,52.291],[18.805,52.293],[18.91,52.32],[18.945,52.323],[19.04,52.278]]]}},{"type":"Feature","id":"PL-ZP","properties":{"id":"PL-ZP","countryCode":"PL","isoSubdivision":"PL-ZP","name":"West Pomeranian Voivodeship","name_en":"West Pomeranian Voivodeship","name_ko":"서포모제","type":"Voivodeship|Province","labelLongitude":15.591,"labelLatitude":53.588,"minZoom":6.7},"geometry":{"type":"Polygon","coordinates":[[[14.608,52.596],[14.55,52.636],[14.49,52.651],[14.461,52.675],[14.442,52.68],[14.432,52.686],[14.398,52.727],[14.382,52.738],[14.276,52.786],[14.249,52.795],[14.216,52.818],[14.196,52.823],[14.174,52.824],[14.153,52.828],[14.135,52.837],[14.124,52.851],[14.15,52.865],[14.161,52.877],[14.165,52.896],[14.163,52.908],[14.15,52.944],[14.144,52.954],[14.144,52.96],[14.193,52.982],[14.254,53.001],[14.313,53.029],[14.343,53.049],[14.357,53.067],[14.36,53.075],[14.39,53.132],[14.387,53.146],[14.381,53.16],[14.378,53.177],[14.381,53.19],[14.388,53.202],[14.398,53.211],[14.408,53.214],[14.416,53.221],[14.442,53.252],[14.429,53.259],[14.425,53.265],[14.409,53.272],[14.403,53.279],[14.4,53.289],[14.4,53.307],[14.398,53.315],[14.391,53.334],[14.37,53.392],[14.36,53.444],[14.339,53.465],[14.328,53.486],[14.304,53.509],[14.297,53.529],[14.296,53.551],[14.299,53.588],[14.297,53.598],[14.276,53.637],[14.261,53.656],[14.265,53.672],[14.264,53.7],[14.274,53.701],[14.292,53.705],[14.305,53.713],[14.306,53.721],[14.289,53.728],[14.298,53.731],[14.302,53.735],[14.298,53.738],[14.289,53.742],[14.294,53.749],[14.304,53.744],[14.318,53.74],[14.33,53.734],[14.342,53.715],[14.356,53.708],[14.384,53.701],[14.404,53.688],[14.415,53.682],[14.459,53.678],[14.512,53.666],[14.531,53.658],[14.546,53.645],[14.579,53.607],[14.591,53.598],[14.596,53.601],[14.597,53.617],[14.602,53.627],[14.61,53.633],[14.624,53.639],[14.623,53.643],[14.623,53.647],[14.624,53.653],[14.613,53.655],[14.587,53.656],[14.576,53.66],[14.545,53.704],[14.551,53.726],[14.576,53.77],[14.587,53.763],[14.597,53.765],[14.608,53.769],[14.624,53.77],[14.617,53.795],[14.62,53.815],[14.627,53.833],[14.631,53.852],[14.624,53.852],[14.621,53.84],[14.614,53.832],[14.59,53.817],[14.596,53.81],[14.587,53.813],[14.58,53.815],[14.574,53.819],[14.569,53.824],[14.574,53.827],[14.583,53.834],[14.59,53.838],[14.576,53.855],[14.552,53.863],[14.441,53.87],[14.426,53.88],[14.438,53.899],[14.435,53.901],[14.434,53.902],[14.432,53.906],[14.422,53.896],[14.414,53.895],[14.406,53.897],[14.394,53.899],[14.385,53.897],[14.378,53.892],[14.372,53.886],[14.363,53.879],[14.393,53.876],[14.409,53.872],[14.418,53.865],[14.416,53.853],[14.405,53.844],[14.393,53.841],[14.384,53.845],[14.356,53.834],[14.343,53.832],[14.328,53.831],[14.328,53.824],[14.342,53.821],[14.341,53.819],[14.328,53.817],[14.319,53.818],[14.303,53.823],[14.291,53.824],[14.275,53.831],[14.227,53.872],[14.203,53.878],[14.201,53.878],[14.193,53.894],[14.175,53.906],[14.185,53.908],[14.193,53.911],[14.21,53.938],[14.227,53.934],[14.237,53.929],[14.268,53.922],[14.367,53.917],[14.407,53.922],[14.446,53.934],[14.517,53.965],[14.782,54.035],[15.01,54.07],[15.288,54.139],[15.469,54.167],[15.666,54.198],[15.86,54.25],[16.021,54.262],[16.132,54.284],[16.119,54.276],[16.069,54.263],[16.091,54.254],[16.179,54.263],[16.179,54.269],[16.172,54.269],[16.172,54.277],[16.22,54.277],[16.22,54.281],[16.219,54.282],[16.217,54.282],[16.213,54.284],[16.215,54.3],[16.192,54.3],[16.138,54.29],[16.172,54.3],[16.214,54.316],[16.275,54.359],[16.263,54.344],[16.24,54.33],[16.232,54.323],[16.241,54.325],[16.259,54.327],[16.275,54.33],[16.289,54.34],[16.324,54.35],[16.337,54.359],[16.325,54.373],[16.305,54.373],[16.296,54.367],[16.282,54.359],[16.324,54.401],[16.44,54.488],[16.44,54.482],[16.434,54.472],[16.445,54.47],[16.461,54.473],[16.473,54.482],[16.48,54.496],[16.474,54.5],[16.461,54.496],[16.446,54.488],[16.467,54.512],[16.501,54.532],[16.57,54.557],[16.778,54.575],[16.785,54.577],[16.787,54.575],[16.857,54.493],[16.939,54.423],[16.97,54.387],[16.977,54.339],[16.967,54.312],[16.94,54.296],[16.933,54.278],[16.944,54.264],[16.963,54.248],[16.967,54.223],[16.951,54.209],[16.811,54.189],[16.875,54.075],[16.883,54.02],[16.883,53.965],[16.926,53.947],[16.95,53.93],[16.988,53.885],[17.016,53.87],[17.039,53.85],[17.058,53.826],[17.002,53.831],[16.952,53.817],[16.953,53.797],[16.973,53.791],[16.991,53.774],[17.002,53.753],[16.972,53.722],[16.93,53.697],[16.948,53.588],[16.91,53.595],[16.872,53.595],[16.837,53.585],[16.81,53.558],[16.791,53.525],[16.765,53.461],[16.735,53.458],[16.551,53.461],[16.529,53.442],[16.53,53.402],[16.545,53.366],[16.608,53.33],[16.683,53.318],[16.72,53.306],[16.752,53.282],[16.758,53.254],[16.727,53.231],[16.704,53.206],[16.675,53.189],[16.601,53.176],[16.456,53.125],[16.375,53.048],[16.279,52.993],[16.217,52.979],[16.155,52.974],[16.094,52.996],[16.039,53.007],[16.057,53.054],[16.03,53.103],[15.98,53.11],[15.926,53.105],[15.873,53.08],[15.784,53.011],[15.733,52.989],[15.527,52.989],[15.358,52.954],[15.301,52.952],[15.321,52.936],[15.348,52.933],[15.31,52.89],[15.249,52.846],[15.196,52.842],[15.03,52.875],[14.932,52.843],[14.868,52.758],[14.79,52.691],[14.739,52.678],[14.654,52.67],[14.632,52.65],[14.608,52.596]]]}}]}
