{"type":"FeatureCollection","features":[{"type":"Feature","id":"PM-X01~","properties":{"id":"PM-X01~","countryCode":"PM","isoSubdivision":"PM-X01~","name":"Saint Pierre and Miquelon","name_en":"Saint Pierre and Miquelon","name_ko":"생피에르 미클롱","type":"Commune","labelLongitude":-56.192,"labelLatitude":46.78,"minZoom":11},"geometry":{"type":"Polygon","coordinates":[[[-56.151,46.794],[-56.156,46.789],[-56.161,46.784],[-56.164,46.779],[-56.165,46.773],[-56.15,46.767],[-56.145,46.766],[-56.168,46.757],[-56.196,46.753],[-56.222,46.755],[-56.24,46.766],[-56.219,46.788],[-56.208,46.798],[-56.192,46.807],[-56.18,46.81],[-56.161,46.812],[-56.148,46.808],[-56.151,46.794]]]}},{"type":"Feature","id":"PM-X02~","properties":{"id":"PM-X02~","countryCode":"PM","isoSubdivision":"PM-X02~","name":"Miquelon-Langlade","name_en":"Miquelon-Langlade","name_ko":"미클롱-랭글레이드","type":"Commune","labelLongitude":-56.342,"labelLatitude":47.046,"minZoom":11},"geometry":{"type":"Polygon","coordinates":[[[-56.274,46.895],[-56.236,46.872],[-56.249,46.842],[-56.289,46.814],[-56.346,46.784],[-56.359,46.781],[-56.371,46.786],[-56.378,46.799],[-56.375,46.807],[-56.375,46.814],[-56.391,46.824],[-56.396,46.836],[-56.38,46.852],[-56.343,46.876],[-56.328,46.915],[-56.337,46.954],[-56.385,47.036],[-56.388,47.052],[-56.391,47.088],[-56.397,47.104],[-56.396,47.114],[-56.388,47.125],[-56.377,47.134],[-56.366,47.14],[-56.355,47.141],[-56.343,47.136],[-56.361,47.126],[-56.372,47.116],[-56.371,47.106],[-56.357,47.095],[-56.34,47.089],[-56.305,47.083],[-56.253,47.054],[-56.252,47.044],[-56.252,47.03],[-56.256,47.018],[-56.269,47.008],[-56.274,46.999],[-56.28,46.99],[-56.292,46.985],[-56.298,46.988],[-56.3,46.992],[-56.302,46.997],[-56.305,46.999],[-56.312,46.998],[-56.33,46.992],[-56.344,46.996],[-56.35,46.995],[-56.35,46.985],[-56.346,46.98],[-56.34,46.979],[-56.334,46.98],[-56.326,46.976],[-56.32,46.976],[-56.314,46.976],[-56.309,46.972],[-56.307,46.965],[-56.31,46.96],[-56.314,46.957],[-56.316,46.954],[-56.316,46.913],[-56.312,46.9],[-56.301,46.896],[-56.274,46.895]]]}}]}
