{"type":"FeatureCollection","features":[{"type":"Feature","id":"PS-GZZ","properties":{"id":"PS-GZZ","countryCode":"PS","isoSubdivision":"PS-GZZ","name":"Gaza","name_en":"Gaza","name_ko":"가자","type":"Principal subdivision","labelLongitude":34.365,"labelLatitude":31.426,"minZoom":18},"geometry":{"type":"Polygon","coordinates":[[[34.481,31.583],[34.52,31.558],[34.556,31.54],[34.528,31.52],[34.496,31.494],[34.495,31.494],[34.48,31.486],[34.367,31.393],[34.346,31.358],[34.346,31.341],[34.354,31.306],[34.351,31.289],[34.316,31.257],[34.264,31.224],[34.248,31.211],[34.23,31.259],[34.225,31.276],[34.2,31.314],[34.223,31.327],[34.237,31.342],[34.281,31.377],[34.302,31.408],[34.348,31.438],[34.368,31.468],[34.443,31.535],[34.479,31.578],[34.481,31.583]]]}},{"type":"Feature","id":"PS-WBK","properties":{"id":"PS-WBK","countryCode":"PS","isoSubdivision":"PS-WBK","name":"West Bank","name_en":"West Bank","name_ko":"웨스트 뱅크","type":"Principal subdivision","labelLongitude":35.292,"labelLatitude":32.003,"minZoom":18},"geometry":{"type":"Polygon","coordinates":[[[35.21,32.542],[35.224,32.536],[35.252,32.516],[35.27,32.51],[35.333,32.513],[35.363,32.51],[35.393,32.494],[35.402,32.471],[35.401,32.44],[35.407,32.415],[35.433,32.408],[35.457,32.408],[35.48,32.402],[35.561,32.385],[35.564,32.377],[35.566,32.368],[35.559,32.368],[35.559,32.375],[35.552,32.375],[35.552,32.368],[35.557,32.358],[35.557,32.328],[35.566,32.313],[35.561,32.302],[35.561,32.283],[35.565,32.264],[35.573,32.252],[35.568,32.25],[35.564,32.247],[35.561,32.243],[35.559,32.238],[35.573,32.238],[35.56,32.19],[35.555,32.174],[35.559,32.163],[35.559,32.155],[35.551,32.152],[35.547,32.147],[35.547,32.142],[35.552,32.135],[35.535,32.111],[35.535,32.099],[35.545,32.087],[35.528,32.075],[35.523,32.058],[35.525,32.012],[35.536,31.988],[35.538,31.978],[35.538,31.964],[35.54,31.956],[35.546,31.945],[35.545,31.937],[35.541,31.932],[35.534,31.93],[35.527,31.927],[35.525,31.919],[35.549,31.839],[35.538,31.827],[35.538,31.819],[35.559,31.765],[35.528,31.735],[35.502,31.685],[35.48,31.641],[35.464,31.569],[35.459,31.494],[35.459,31.493],[35.459,31.492],[35.458,31.492],[35.39,31.487],[35.332,31.459],[35.223,31.381],[35.165,31.362],[35.04,31.363],[34.98,31.356],[34.955,31.349],[34.927,31.345],[34.901,31.348],[34.879,31.363],[34.867,31.396],[34.882,31.43],[34.927,31.494],[34.932,31.527],[34.933,31.555],[34.937,31.582],[34.953,31.608],[34.955,31.612],[34.974,31.63],[35.059,31.677],[35.093,31.702],[35.114,31.718],[35.126,31.733],[35.149,31.737],[35.154,31.733],[35.167,31.732],[35.179,31.72],[35.205,31.723],[35.219,31.715],[35.224,31.719],[35.228,31.717],[35.231,31.713],[35.238,31.709],[35.242,31.711],[35.244,31.719],[35.249,31.724],[35.252,31.738],[35.258,31.742],[35.263,31.749],[35.26,31.757],[35.253,31.763],[35.253,31.77],[35.258,31.784],[35.263,31.79],[35.26,31.793],[35.259,31.801],[35.256,31.812],[35.261,31.819],[35.265,31.826],[35.26,31.829],[35.254,31.829],[35.252,31.831],[35.257,31.839],[35.254,31.841],[35.25,31.844],[35.245,31.845],[35.233,31.843],[35.227,31.85],[35.226,31.857],[35.227,31.867],[35.222,31.879],[35.212,31.881],[35.205,31.877],[35.205,31.871],[35.209,31.863],[35.213,31.853],[35.216,31.839],[35.216,31.824],[35.216,31.82],[35.213,31.819],[35.197,31.826],[35.19,31.827],[35.184,31.825],[35.182,31.82],[35.186,31.814],[35.186,31.809],[35.174,31.808],[35.137,31.814],[35.121,31.825],[35.112,31.824],[35.098,31.831],[35.088,31.848],[35.076,31.854],[35.064,31.855],[35.056,31.853],[35.046,31.848],[35.027,31.833],[35.013,31.829],[35.002,31.828],[34.98,31.831],[34.977,31.833],[34.979,31.837],[34.99,31.846],[34.999,31.854],[35.007,31.856],[35.03,31.857],[35.034,31.861],[35.039,31.909],[35.03,31.924],[35.016,31.927],[35.005,31.934],[35.004,31.939],[35.008,31.945],[35.001,31.95],[34.987,31.967],[34.998,31.979],[34.999,31.994],[34.997,32.011],[35.007,32.021],[34.984,32.09],[34.987,32.124],[34.977,32.15],[34.963,32.173],[34.958,32.186],[34.961,32.202],[35,32.232],[35.008,32.244],[35.011,32.257],[35.009,32.268],[35.002,32.275],[34.99,32.278],[34.993,32.292],[34.997,32.323],[35.001,32.336],[35.005,32.338],[35.018,32.342],[35.022,32.345],[35.029,32.365],[35.033,32.382],[35.045,32.434],[35.064,32.463],[35.091,32.479],[35.121,32.491],[35.152,32.508],[35.177,32.533],[35.191,32.542],[35.209,32.543],[35.21,32.542]]]}}]}
