{"type":"FeatureCollection","features":[{"type":"Feature","id":"PT-01","properties":{"id":"PT-01","countryCode":"PT","isoSubdivision":"PT-01","name":"Aveiro","name_en":"Aveiro","name_ko":"아베이루현","type":"District","labelLongitude":-8.439,"labelLatitude":40.674,"minZoom":7.7},"geometry":{"type":"Polygon","coordinates":[[[-8.788,40.523],[-8.785,40.537],[-8.766,40.583],[-8.753,40.641],[-8.75,40.644],[-8.745,40.647],[-8.744,40.626],[-8.745,40.619],[-8.725,40.645],[-8.71,40.653],[-8.696,40.647],[-8.69,40.647],[-8.69,40.653],[-8.692,40.656],[-8.696,40.661],[-8.699,40.668],[-8.696,40.674],[-8.686,40.678],[-8.681,40.675],[-8.677,40.67],[-8.672,40.667],[-8.662,40.67],[-8.654,40.677],[-8.642,40.694],[-8.657,40.701],[-8.666,40.713],[-8.664,40.724],[-8.645,40.729],[-8.622,40.731],[-8.604,40.736],[-8.588,40.744],[-8.573,40.756],[-8.59,40.755],[-8.615,40.745],[-8.636,40.742],[-8.64,40.74],[-8.645,40.74],[-8.668,40.747],[-8.676,40.756],[-8.684,40.783],[-8.646,40.824],[-8.655,40.845],[-8.657,40.829],[-8.663,40.815],[-8.671,40.811],[-8.676,40.824],[-8.69,40.804],[-8.701,40.778],[-8.707,40.75],[-8.71,40.725],[-8.714,40.709],[-8.725,40.686],[-8.738,40.664],[-8.751,40.653],[-8.655,40.994],[-8.655,41.017],[-8.646,41.019],[-8.602,41.023],[-8.585,41.015],[-8.554,41.024],[-8.538,41.032],[-8.526,41.032],[-8.517,41.028],[-8.509,41.022],[-8.495,41.017],[-8.484,41.017],[-8.477,41.021],[-8.47,41.035],[-8.466,41.04],[-8.448,41.055],[-8.428,41.039],[-8.423,41.034],[-8.416,41.023],[-8.398,41.012],[-8.39,41.012],[-8.386,41.016],[-8.388,41.023],[-8.392,41.028],[-8.393,41.034],[-8.392,41.04],[-8.366,41.049],[-8.346,41.044],[-8.298,41.07],[-8.294,41.072],[-8.29,41.083],[-8.23,41.054],[-8.226,41.048],[-8.223,41.038],[-8.224,41.031],[-8.224,41.009],[-8.149,40.982],[-8.137,40.982],[-8.124,40.984],[-8.117,40.996],[-8.114,40.999],[-8.111,41.002],[-8.098,41.011],[-8.091,41.01],[-8.088,41.007],[-8.087,41.002],[-8.087,41],[-8.088,40.999],[-8.089,40.993],[-8.121,40.959],[-8.126,40.948],[-8.129,40.936],[-8.128,40.929],[-8.123,40.916],[-8.118,40.89],[-8.11,40.872],[-8.11,40.86],[-8.115,40.853],[-8.124,40.852],[-8.133,40.852],[-8.141,40.855],[-8.149,40.859],[-8.158,40.862],[-8.169,40.862],[-8.187,40.855],[-8.199,40.854],[-8.211,40.855],[-8.219,40.858],[-8.25,40.855],[-8.238,40.825],[-8.24,40.819],[-8.249,40.807],[-8.269,40.774],[-8.292,40.754],[-8.316,40.74],[-8.325,40.727],[-8.326,40.723],[-8.325,40.718],[-8.324,40.712],[-8.319,40.706],[-8.305,40.694],[-8.299,40.686],[-8.296,40.679],[-8.295,40.651],[-8.288,40.638],[-8.283,40.635],[-8.265,40.629],[-8.249,40.619],[-8.289,40.607],[-8.296,40.601],[-8.302,40.594],[-8.301,40.587],[-8.29,40.565],[-8.284,40.547],[-8.278,40.541],[-8.271,40.536],[-8.265,40.53],[-8.253,40.515],[-8.308,40.498],[-8.331,40.484],[-8.333,40.479],[-8.331,40.472],[-8.321,40.458],[-8.322,40.445],[-8.326,40.437],[-8.354,40.403],[-8.35,40.372],[-8.359,40.365],[-8.358,40.356],[-8.37,40.344],[-8.392,40.345],[-8.399,40.344],[-8.408,40.336],[-8.413,40.328],[-8.436,40.306],[-8.441,40.297],[-8.45,40.29],[-8.457,40.286],[-8.515,40.29],[-8.522,40.297],[-8.524,40.303],[-8.524,40.312],[-8.521,40.322],[-8.513,40.338],[-8.507,40.344],[-8.502,40.348],[-8.499,40.35],[-8.495,40.353],[-8.493,40.355],[-8.488,40.37],[-8.486,40.376],[-8.488,40.384],[-8.5,40.4],[-8.505,40.42],[-8.517,40.419],[-8.532,40.414],[-8.548,40.406],[-8.557,40.403],[-8.566,40.404],[-8.573,40.411],[-8.576,40.429],[-8.577,40.439],[-8.57,40.464],[-8.609,40.484],[-8.631,40.458],[-8.634,40.442],[-8.642,40.432],[-8.675,40.435],[-8.786,40.521],[-8.788,40.523]]]}},{"type":"Feature","id":"PT-02","properties":{"id":"PT-02","countryCode":"PT","isoSubdivision":"PT-02","name":"Beja","name_en":"Beja","name_ko":"베자현","type":"District","labelLongitude":-7.887,"labelLatitude":37.851,"minZoom":7.7},"geometry":{"type":"Polygon","coordinates":[[[-6.951,38.198],[-6.948,38.197],[-6.958,38.168],[-6.965,38.153],[-6.979,38.12],[-6.998,38.09],[-7.006,38.059],[-7.016,38.047],[-7.024,38.023],[-7.049,38.02],[-7.106,38.039],[-7.123,38.04],[-7.132,38.032],[-7.142,38.012],[-7.152,38.001],[-7.16,37.997],[-7.173,37.994],[-7.185,37.989],[-7.198,37.99],[-7.21,37.993],[-7.223,37.994],[-7.234,37.988],[-7.266,37.983],[-7.273,37.977],[-7.272,37.969],[-7.269,37.959],[-7.269,37.949],[-7.274,37.932],[-7.296,37.885],[-7.307,37.851],[-7.334,37.812],[-7.426,37.751],[-7.444,37.73],[-7.458,37.7],[-7.466,37.652],[-7.472,37.637],[-7.478,37.629],[-7.505,37.606],[-7.514,37.601],[-7.512,37.595],[-7.513,37.59],[-7.515,37.586],[-7.516,37.581],[-7.526,37.571],[-7.53,37.567],[-7.529,37.557],[-7.528,37.556],[-7.524,37.556],[-7.518,37.542],[-7.518,37.535],[-7.515,37.529],[-7.515,37.528],[-7.54,37.524],[-7.568,37.524],[-7.589,37.515],[-7.609,37.501],[-7.62,37.494],[-7.628,37.493],[-7.635,37.495],[-7.649,37.497],[-7.655,37.5],[-7.707,37.5],[-7.786,37.474],[-7.803,37.464],[-7.81,37.461],[-7.816,37.458],[-7.822,37.457],[-7.84,37.45],[-7.848,37.448],[-7.854,37.445],[-7.856,37.438],[-7.871,37.437],[-7.888,37.428],[-7.89,37.422],[-7.896,37.416],[-7.909,37.409],[-7.936,37.405],[-7.95,37.405],[-7.982,37.401],[-7.996,37.394],[-8,37.387],[-8.001,37.381],[-7.998,37.377],[-7.991,37.368],[-7.991,37.364],[-7.998,37.362],[-8.033,37.346],[-8.055,37.332],[-8.071,37.327],[-8.081,37.327],[-8.119,37.33],[-8.139,37.33],[-8.171,37.337],[-8.241,37.379],[-8.256,37.385],[-8.268,37.396],[-8.271,37.402],[-8.274,37.417],[-8.281,37.428],[-8.306,37.434],[-8.323,37.432],[-8.332,37.428],[-8.343,37.429],[-8.354,37.429],[-8.375,37.425],[-8.414,37.414],[-8.418,37.411],[-8.424,37.404],[-8.426,37.397],[-8.431,37.387],[-8.448,37.381],[-8.466,37.375],[-8.509,37.381],[-8.524,37.386],[-8.562,37.404],[-8.574,37.406],[-8.613,37.401],[-8.621,37.398],[-8.626,37.392],[-8.631,37.387],[-8.637,37.384],[-8.646,37.385],[-8.652,37.389],[-8.679,37.399],[-8.719,37.4],[-8.727,37.404],[-8.736,37.411],[-8.745,37.419],[-8.761,37.429],[-8.776,37.433],[-8.796,37.443],[-8.808,37.449],[-8.804,37.463],[-8.798,37.49],[-8.795,37.535],[-8.801,37.559],[-8.811,37.575],[-8.824,37.588],[-8.827,37.601],[-8.813,37.645],[-8.808,37.672],[-8.799,37.698],[-8.786,37.703],[-8.758,37.707],[-8.752,37.731],[-8.752,37.735],[-8.762,37.728],[-8.784,37.723],[-8.809,37.723],[-8.817,37.74],[-8.81,37.791],[-8.801,37.827],[-8.792,37.819],[-8.786,37.813],[-8.781,37.81],[-8.774,37.81],[-8.767,37.813],[-8.758,37.816],[-8.751,37.818],[-8.734,37.813],[-8.727,37.806],[-8.723,37.801],[-8.698,37.776],[-8.688,37.762],[-8.684,37.758],[-8.678,37.758],[-8.674,37.763],[-8.67,37.768],[-8.664,37.771],[-8.656,37.769],[-8.648,37.765],[-8.641,37.761],[-8.624,37.755],[-8.613,37.754],[-8.596,37.759],[-8.59,37.766],[-8.588,37.774],[-8.587,37.781],[-8.578,37.804],[-8.573,37.811],[-8.556,37.825],[-8.551,37.832],[-8.549,37.839],[-8.539,37.846],[-8.522,37.853],[-8.432,37.867],[-8.389,37.86],[-8.362,37.86],[-8.358,37.859],[-8.329,37.847],[-8.315,37.875],[-8.311,37.882],[-8.299,37.909],[-8.293,37.953],[-8.293,37.982],[-8.303,38.003],[-8.309,38.013],[-8.323,38.021],[-8.336,38.022],[-8.347,38.024],[-8.36,38.029],[-8.375,38.043],[-8.394,38.055],[-8.399,38.065],[-8.401,38.07],[-8.401,38.076],[-8.398,38.083],[-8.397,38.088],[-8.394,38.094],[-8.391,38.102],[-8.386,38.111],[-8.379,38.111],[-8.374,38.109],[-8.368,38.107],[-8.363,38.107],[-8.359,38.112],[-8.357,38.115],[-8.352,38.124],[-8.351,38.129],[-8.351,38.135],[-8.35,38.139],[-8.348,38.143],[-8.341,38.145],[-8.335,38.15],[-8.328,38.151],[-8.318,38.148],[-8.311,38.143],[-8.303,38.141],[-8.296,38.144],[-8.289,38.162],[-8.288,38.17],[-8.285,38.176],[-8.277,38.181],[-8.242,38.179],[-8.235,38.187],[-8.231,38.198],[-8.223,38.202],[-8.188,38.209],[-8.17,38.215],[-8.135,38.223],[-8.13,38.235],[-8.131,38.241],[-8.13,38.251],[-8.138,38.276],[-8.162,38.318],[-8.158,38.327],[-8.084,38.326],[-8.062,38.328],[-8.048,38.326],[-8.043,38.324],[-8.03,38.314],[-8.02,38.308],[-8.011,38.305],[-8.003,38.305],[-7.98,38.314],[-7.969,38.314],[-7.96,38.312],[-7.931,38.303],[-7.909,38.281],[-7.824,38.251],[-7.773,38.247],[-7.747,38.239],[-7.684,38.211],[-7.669,38.207],[-7.604,38.206],[-7.584,38.203],[-7.562,38.197],[-7.517,38.196],[-7.506,38.198],[-7.504,38.205],[-7.491,38.222],[-7.475,38.236],[-7.446,38.247],[-7.444,38.251],[-7.428,38.257],[-7.424,38.262],[-7.414,38.268],[-7.407,38.277],[-7.403,38.287],[-7.402,38.293],[-7.4,38.3],[-7.369,38.307],[-7.336,38.321],[-7.328,38.323],[-7.322,38.323],[-7.296,38.331],[-7.288,38.332],[-7.281,38.331],[-7.278,38.327],[-7.277,38.324],[-7.276,38.319],[-7.274,38.315],[-7.27,38.311],[-7.265,38.306],[-7.261,38.299],[-7.258,38.291],[-7.257,38.284],[-7.252,38.277],[-7.232,38.261],[-7.206,38.251],[-7.2,38.246],[-7.197,38.24],[-7.196,38.232],[-7.185,38.212],[-7.182,38.205],[-7.173,38.19],[-7.164,38.183],[-7.152,38.176],[-7.137,38.176],[-7.128,38.178],[-7.122,38.182],[-7.117,38.184],[-7.104,38.174],[-7.088,38.173],[-7.063,38.178],[-7.039,38.186],[-7.026,38.2],[-7.021,38.198],[-7.018,38.198],[-6.992,38.204],[-6.964,38.206],[-6.951,38.198]]]}},{"type":"Feature","id":"PT-03","properties":{"id":"PT-03","countryCode":"PT","isoSubdivision":"PT-03","name":"Braga","name_en":"Braga","name_ko":"브라가현","type":"District","labelLongitude":-8.319,"labelLatitude":41.566,"minZoom":7.7},"geometry":{"type":"Polygon","coordinates":[[[-8.179,41.813],[-8.18,41.811],[-8.093,41.807],[-8.05,41.816],[-8.048,41.814],[-8.048,41.809],[-8.049,41.803],[-8.055,41.797],[-8.06,41.79],[-8.067,41.761],[-8.076,41.749],[-8.085,41.728],[-8.09,41.718],[-8.095,41.712],[-8.118,41.692],[-8.104,41.692],[-8.092,41.694],[-8.085,41.696],[-8.078,41.696],[-8.07,41.696],[-8.061,41.695],[-8.054,41.696],[-8.035,41.702],[-8.029,41.702],[-8.022,41.7],[-7.996,41.687],[-7.991,41.684],[-7.988,41.678],[-7.992,41.666],[-7.995,41.656],[-7.998,41.611],[-7.978,41.605],[-7.967,41.603],[-7.957,41.599],[-7.947,41.596],[-7.909,41.59],[-7.896,41.59],[-7.867,41.596],[-7.846,41.614],[-7.836,41.61],[-7.83,41.605],[-7.814,41.583],[-7.816,41.571],[-7.856,41.526],[-7.868,41.516],[-7.887,41.509],[-7.89,41.506],[-7.895,41.494],[-7.906,41.487],[-7.914,41.489],[-7.918,41.488],[-7.924,41.486],[-7.933,41.476],[-7.942,41.452],[-7.937,41.445],[-7.939,41.44],[-7.942,41.432],[-7.956,41.414],[-7.959,41.407],[-7.964,41.404],[-7.967,41.403],[-7.969,41.4],[-7.967,41.393],[-7.967,41.388],[-7.976,41.37],[-7.979,41.36],[-7.981,41.356],[-7.985,41.351],[-7.989,41.347],[-7.994,41.345],[-8.002,41.34],[-8.006,41.336],[-8.011,41.333],[-8.018,41.328],[-8.026,41.325],[-8.036,41.325],[-8.047,41.332],[-8.069,41.341],[-8.08,41.339],[-8.112,41.35],[-8.147,41.37],[-8.145,41.379],[-8.149,41.385],[-8.17,41.401],[-8.219,41.415],[-8.234,41.397],[-8.254,41.386],[-8.285,41.375],[-8.292,41.374],[-8.316,41.367],[-8.322,41.367],[-8.336,41.374],[-8.344,41.376],[-8.385,41.372],[-8.416,41.366],[-8.441,41.369],[-8.448,41.373],[-8.455,41.376],[-8.468,41.376],[-8.485,41.373],[-8.504,41.364],[-8.511,41.36],[-8.519,41.355],[-8.527,41.353],[-8.535,41.351],[-8.591,41.351],[-8.601,41.35],[-8.604,41.349],[-8.612,41.352],[-8.617,41.36],[-8.621,41.373],[-8.623,41.381],[-8.615,41.388],[-8.605,41.39],[-8.6,41.393],[-8.596,41.398],[-8.6,41.404],[-8.61,41.411],[-8.621,41.413],[-8.635,41.419],[-8.652,41.433],[-8.658,41.438],[-8.667,41.444],[-8.677,41.447],[-8.702,41.447],[-8.728,41.457],[-8.752,41.467],[-8.775,41.468],[-8.786,41.491],[-8.788,41.512],[-8.793,41.526],[-8.795,41.543],[-8.808,41.573],[-8.813,41.595],[-8.819,41.612],[-8.82,41.618],[-8.815,41.617],[-8.795,41.615],[-8.786,41.616],[-8.713,41.636],[-8.661,41.638],[-8.653,41.639],[-8.645,41.644],[-8.642,41.648],[-8.637,41.651],[-8.629,41.647],[-8.599,41.639],[-8.579,41.636],[-8.568,41.631],[-8.559,41.629],[-8.552,41.629],[-8.534,41.652],[-8.539,41.663],[-8.537,41.669],[-8.532,41.676],[-8.523,41.683],[-8.52,41.689],[-8.518,41.697],[-8.516,41.712],[-8.514,41.72],[-8.511,41.727],[-8.503,41.734],[-8.498,41.736],[-8.49,41.738],[-8.482,41.736],[-8.474,41.736],[-8.457,41.741],[-8.439,41.752],[-8.432,41.756],[-8.418,41.76],[-8.403,41.763],[-8.315,41.766],[-8.291,41.773],[-8.196,41.811],[-8.184,41.811],[-8.18,41.812],[-8.179,41.813]]]}},{"type":"Feature","id":"PT-04","properties":{"id":"PT-04","countryCode":"PT","isoSubdivision":"PT-04","name":"Bragança","name_en":"Bragança","name_ko":"브라간사현","type":"District","labelLongitude":-6.819,"labelLatitude":41.519,"minZoom":7.7},"geometry":{"type":"Polygon","coordinates":[[[-6.482,41.303],[-6.496,41.295],[-6.554,41.276],[-6.563,41.271],[-6.629,41.27],[-6.647,41.268],[-6.658,41.258],[-6.694,41.217],[-6.701,41.202],[-6.707,41.194],[-6.742,41.171],[-6.755,41.159],[-6.759,41.152],[-6.757,41.127],[-6.765,41.109],[-6.804,41.064],[-6.818,41.054],[-6.845,41.052],[-6.907,41.056],[-6.927,41.048],[-6.928,41.048],[-6.945,41.051],[-6.987,41.053],[-7.075,41.087],[-7.086,41.097],[-7.094,41.111],[-7.099,41.124],[-7.098,41.133],[-7.093,41.142],[-7.093,41.149],[-7.102,41.152],[-7.11,41.153],[-7.116,41.156],[-7.122,41.16],[-7.126,41.164],[-7.122,41.171],[-7.113,41.192],[-7.123,41.188],[-7.161,41.168],[-7.17,41.158],[-7.19,41.157],[-7.222,41.164],[-7.301,41.159],[-7.326,41.158],[-7.36,41.166],[-7.372,41.175],[-7.402,41.207],[-7.417,41.216],[-7.432,41.216],[-7.426,41.229],[-7.424,41.234],[-7.42,41.24],[-7.411,41.243],[-7.397,41.245],[-7.393,41.246],[-7.395,41.252],[-7.395,41.258],[-7.395,41.267],[-7.39,41.28],[-7.381,41.289],[-7.372,41.297],[-7.369,41.301],[-7.371,41.307],[-7.369,41.318],[-7.352,41.332],[-7.317,41.34],[-7.341,41.351],[-7.35,41.359],[-7.356,41.372],[-7.362,41.393],[-7.362,41.442],[-7.329,41.461],[-7.32,41.463],[-7.312,41.467],[-7.303,41.476],[-7.296,41.491],[-7.284,41.508],[-7.275,41.517],[-7.265,41.52],[-7.256,41.52],[-7.247,41.522],[-7.24,41.525],[-7.236,41.53],[-7.238,41.537],[-7.242,41.543],[-7.247,41.55],[-7.252,41.557],[-7.255,41.565],[-7.257,41.578],[-7.253,41.604],[-7.22,41.688],[-7.195,41.727],[-7.186,41.734],[-7.181,41.736],[-7.175,41.742],[-7.173,41.747],[-7.173,41.761],[-7.174,41.769],[-7.192,41.788],[-7.201,41.806],[-7.204,41.816],[-7.206,41.834],[-7.204,41.854],[-7.202,41.864],[-7.207,41.884],[-7.209,41.889],[-7.198,41.902],[-7.196,41.917],[-7.202,41.95],[-7.2,41.964],[-7.193,41.97],[-7.177,41.978],[-7.16,41.986],[-7.145,41.987],[-7.113,41.972],[-7.083,41.953],[-7.051,41.942],[-7.016,41.954],[-6.992,41.966],[-6.983,41.963],[-6.97,41.958],[-6.945,41.943],[-6.917,41.939],[-6.855,41.943],[-6.831,41.954],[-6.825,41.984],[-6.794,41.98],[-6.758,41.938],[-6.728,41.931],[-6.657,41.933],[-6.623,41.941],[-6.609,41.962],[-6.585,41.955],[-6.572,41.943],[-6.568,41.926],[-6.576,41.883],[-6.568,41.876],[-6.55,41.874],[-6.524,41.867],[-6.536,41.849],[-6.56,41.767],[-6.564,41.758],[-6.572,41.749],[-6.577,41.74],[-6.574,41.731],[-6.568,41.722],[-6.563,41.713],[-6.56,41.694],[-6.555,41.675],[-6.542,41.659],[-6.513,41.651],[-6.503,41.653],[-6.488,41.659],[-6.474,41.666],[-6.468,41.672],[-6.461,41.677],[-6.447,41.676],[-6.366,41.664],[-6.317,41.65],[-6.272,41.628],[-6.23,41.595],[-6.216,41.58],[-6.206,41.57],[-6.254,41.518],[-6.28,41.497],[-6.286,41.487],[-6.285,41.479],[-6.282,41.472],[-6.283,41.466],[-6.321,41.42],[-6.321,41.411],[-6.352,41.409],[-6.366,41.405],[-6.379,41.397],[-6.376,41.397],[-6.376,41.391],[-6.377,41.383],[-6.379,41.377],[-6.383,41.377],[-6.395,41.378],[-6.4,41.377],[-6.431,41.339],[-6.463,41.314],[-6.482,41.303]]]}},{"type":"Feature","id":"PT-05","properties":{"id":"PT-05","countryCode":"PT","isoSubdivision":"PT-05","name":"Castelo Branco","name_en":"Castelo Branco","name_ko":"카스텔루브랑쿠현","type":"District","labelLongitude":-7.582,"labelLatitude":39.998,"minZoom":7.7},"geometry":{"type":"Polygon","coordinates":[[[-6.942,40.255],[-6.955,40.253],[-6.998,40.232],[-7.016,40.226],[-7.025,40.216],[-7.035,40.193],[-7.043,40.181],[-7.035,40.167],[-7.028,40.133],[-7.016,40.119],[-7.004,40.116],[-6.977,40.113],[-6.966,40.11],[-6.956,40.103],[-6.942,40.086],[-6.92,40.065],[-6.88,40.009],[-6.897,39.987],[-6.902,39.976],[-6.9,39.966],[-6.904,39.957],[-6.91,39.932],[-6.913,39.928],[-6.922,39.922],[-6.925,39.918],[-6.925,39.912],[-6.922,39.902],[-6.922,39.897],[-6.923,39.888],[-6.924,39.872],[-6.928,39.862],[-6.953,39.833],[-6.962,39.829],[-6.985,39.821],[-6.993,39.816],[-7,39.803],[-6.999,39.792],[-6.995,39.783],[-6.993,39.774],[-6.997,39.765],[-7.009,39.748],[-7.013,39.739],[-7.014,39.73],[-7.011,39.723],[-7.01,39.715],[-7.021,39.694],[-7.036,39.689],[-7.183,39.675],[-7.214,39.676],[-7.236,39.687],[-7.253,39.682],[-7.293,39.683],[-7.311,39.68],[-7.328,39.675],[-7.341,39.672],[-7.557,39.68],[-7.556,39.677],[-7.566,39.68],[-7.586,39.675],[-7.603,39.666],[-7.616,39.656],[-7.639,39.642],[-7.656,39.644],[-7.673,39.651],[-7.695,39.653],[-7.712,39.643],[-7.724,39.627],[-7.734,39.611],[-7.74,39.604],[-7.76,39.598],[-7.776,39.585],[-7.79,39.569],[-7.805,39.557],[-7.814,39.567],[-7.821,39.585],[-7.825,39.592],[-7.846,39.617],[-7.867,39.636],[-7.885,39.645],[-7.9,39.654],[-7.92,39.66],[-7.933,39.661],[-7.943,39.663],[-7.95,39.666],[-7.953,39.675],[-7.951,39.69],[-7.952,39.705],[-7.954,39.712],[-7.954,39.72],[-7.956,39.727],[-7.959,39.733],[-7.965,39.738],[-7.99,39.738],[-8.021,39.747],[-8.042,39.744],[-8.047,39.736],[-8.059,39.685],[-8.066,39.675],[-8.071,39.662],[-8.07,39.652],[-8.063,39.636],[-8.062,39.63],[-8.062,39.624],[-8.083,39.618],[-8.118,39.615],[-8.139,39.616],[-8.165,39.63],[-8.22,39.646],[-8.229,39.659],[-8.233,39.695],[-8.233,39.714],[-8.226,39.723],[-8.228,39.742],[-8.227,39.746],[-8.228,39.752],[-8.229,39.757],[-8.232,39.762],[-8.239,39.768],[-8.25,39.772],[-8.263,39.774],[-8.273,39.779],[-8.279,39.795],[-8.284,39.806],[-8.284,39.811],[-8.277,39.82],[-8.27,39.824],[-8.27,39.83],[-8.271,39.835],[-8.265,39.84],[-8.26,39.845],[-8.215,39.856],[-8.206,39.854],[-8.2,39.858],[-8.192,39.867],[-8.183,39.875],[-8.173,39.878],[-8.165,39.879],[-8.156,39.884],[-8.146,39.891],[-8.126,39.921],[-8.11,39.934],[-8.108,39.94],[-8.101,39.944],[-8.096,39.945],[-8.082,39.947],[-8.072,39.957],[-8.049,39.961],[-8.032,39.961],[-8.029,39.965],[-8.027,39.97],[-8.026,39.975],[-8.021,39.977],[-8.006,39.978],[-8.001,39.982],[-7.996,39.984],[-7.987,39.986],[-7.98,39.985],[-7.974,39.984],[-7.97,39.982],[-7.965,39.985],[-7.952,39.999],[-7.944,40.003],[-7.937,40.004],[-7.917,40.004],[-7.908,40.01],[-7.906,40.015],[-7.911,40.029],[-7.907,40.037],[-7.895,40.047],[-7.871,40.056],[-7.857,40.058],[-7.845,40.058],[-7.836,40.056],[-7.827,40.053],[-7.807,40.041],[-7.804,40.061],[-7.806,40.078],[-7.801,40.083],[-7.796,40.086],[-7.791,40.085],[-7.79,40.082],[-7.786,40.078],[-7.779,40.076],[-7.769,40.078],[-7.749,40.088],[-7.74,40.094],[-7.736,40.1],[-7.736,40.106],[-7.736,40.111],[-7.737,40.118],[-7.742,40.128],[-7.769,40.143],[-7.786,40.159],[-7.796,40.166],[-7.802,40.173],[-7.807,40.185],[-7.804,40.193],[-7.782,40.232],[-7.763,40.238],[-7.746,40.24],[-7.734,40.244],[-7.696,40.266],[-7.669,40.274],[-7.643,40.287],[-7.621,40.304],[-7.602,40.327],[-7.577,40.319],[-7.543,40.325],[-7.534,40.331],[-7.527,40.338],[-7.519,40.351],[-7.518,40.358],[-7.504,40.377],[-7.454,40.413],[-7.414,40.388],[-7.391,40.383],[-7.38,40.384],[-7.348,40.391],[-7.326,40.41],[-7.318,40.411],[-7.308,40.413],[-7.291,40.414],[-7.283,40.414],[-7.271,40.41],[-7.28,40.35],[-7.292,40.324],[-7.3,40.317],[-7.309,40.309],[-7.319,40.299],[-7.321,40.291],[-7.32,40.285],[-7.317,40.282],[-7.31,40.28],[-7.303,40.278],[-7.293,40.275],[-7.272,40.272],[-7.247,40.267],[-7.202,40.28],[-7.154,40.28],[-7.141,40.284],[-7.134,40.289],[-7.132,40.296],[-7.127,40.304],[-7.121,40.312],[-7.11,40.319],[-7.104,40.318],[-7.098,40.313],[-7.094,40.306],[-7.084,40.292],[-7.075,40.286],[-7.053,40.283],[-7.03,40.284],[-7.014,40.287],[-7.003,40.286],[-6.997,40.286],[-6.972,40.276],[-6.957,40.268],[-6.947,40.259],[-6.942,40.255]]]}},{"type":"Feature","id":"PT-06","properties":{"id":"PT-06","countryCode":"PT","isoSubdivision":"PT-06","name":"Coimbra","name_en":"Coimbra","name_ko":"코임브라현","type":"District","labelLongitude":-8.322,"labelLatitude":40.165,"minZoom":7.7},"geometry":{"type":"Polygon","coordinates":[[[-8.902,40.047],[-8.868,40.125],[-8.853,40.139],[-8.842,40.126],[-8.825,40.12],[-8.785,40.119],[-8.785,40.126],[-8.801,40.138],[-8.816,40.147],[-8.834,40.152],[-8.879,40.156],[-8.896,40.165],[-8.907,40.179],[-8.908,40.201],[-8.896,40.229],[-8.865,40.275],[-8.799,40.474],[-8.788,40.523],[-8.786,40.521],[-8.675,40.435],[-8.642,40.432],[-8.634,40.442],[-8.631,40.458],[-8.609,40.484],[-8.57,40.464],[-8.577,40.439],[-8.576,40.429],[-8.573,40.411],[-8.566,40.404],[-8.557,40.403],[-8.548,40.406],[-8.532,40.414],[-8.517,40.419],[-8.505,40.42],[-8.5,40.4],[-8.488,40.384],[-8.486,40.376],[-8.488,40.37],[-8.493,40.355],[-8.495,40.353],[-8.499,40.35],[-8.502,40.348],[-8.507,40.344],[-8.513,40.338],[-8.521,40.322],[-8.524,40.312],[-8.524,40.303],[-8.522,40.297],[-8.515,40.29],[-8.457,40.286],[-8.45,40.29],[-8.441,40.297],[-8.436,40.306],[-8.413,40.328],[-8.408,40.336],[-8.399,40.344],[-8.392,40.345],[-8.37,40.344],[-8.358,40.356],[-8.359,40.365],[-8.35,40.372],[-8.339,40.368],[-8.329,40.362],[-8.298,40.356],[-8.275,40.343],[-8.259,40.332],[-8.243,40.327],[-8.235,40.321],[-8.229,40.321],[-8.227,40.323],[-8.224,40.328],[-8.224,40.332],[-8.221,40.337],[-8.217,40.34],[-8.174,40.346],[-8.116,40.339],[-8.04,40.382],[-7.986,40.399],[-7.942,40.423],[-7.925,40.43],[-7.901,40.459],[-7.867,40.478],[-7.856,40.488],[-7.845,40.494],[-7.825,40.498],[-7.814,40.475],[-7.808,40.471],[-7.802,40.464],[-7.801,40.457],[-7.805,40.448],[-7.811,40.441],[-7.819,40.438],[-7.828,40.435],[-7.835,40.43],[-7.838,40.424],[-7.831,40.414],[-7.822,40.409],[-7.805,40.407],[-7.799,40.402],[-7.8,40.393],[-7.792,40.357],[-7.785,40.349],[-7.771,40.34],[-7.767,40.334],[-7.77,40.327],[-7.793,40.315],[-7.801,40.307],[-7.808,40.297],[-7.813,40.281],[-7.825,40.261],[-7.797,40.25],[-7.782,40.232],[-7.804,40.193],[-7.807,40.185],[-7.802,40.173],[-7.796,40.166],[-7.786,40.159],[-7.769,40.143],[-7.742,40.128],[-7.737,40.118],[-7.736,40.111],[-7.736,40.106],[-7.736,40.1],[-7.74,40.094],[-7.749,40.088],[-7.769,40.078],[-7.779,40.076],[-7.786,40.078],[-7.79,40.082],[-7.791,40.085],[-7.796,40.086],[-7.801,40.083],[-7.806,40.078],[-7.804,40.061],[-7.807,40.041],[-7.827,40.053],[-7.836,40.056],[-7.845,40.058],[-7.857,40.058],[-7.871,40.056],[-7.895,40.047],[-7.907,40.037],[-7.911,40.029],[-7.906,40.015],[-7.908,40.01],[-7.917,40.004],[-7.937,40.004],[-7.944,40.003],[-7.952,39.999],[-7.965,39.985],[-7.97,39.982],[-7.974,39.984],[-7.98,39.985],[-7.987,39.986],[-7.996,39.984],[-8.001,39.982],[-8.006,39.978],[-8.021,39.977],[-8.026,39.975],[-8.027,39.97],[-8.029,39.965],[-8.032,39.961],[-8.049,39.961],[-8.072,39.957],[-8.082,39.947],[-8.096,39.945],[-8.101,39.944],[-8.108,39.94],[-8.11,39.934],[-8.126,39.921],[-8.123,39.933],[-8.124,39.935],[-8.126,39.939],[-8.128,39.944],[-8.124,39.954],[-8.119,39.958],[-8.108,39.965],[-8.149,40.017],[-8.152,40.034],[-8.145,40.062],[-8.149,40.069],[-8.155,40.076],[-8.162,40.08],[-8.175,40.086],[-8.205,40.055],[-8.235,40.064],[-8.278,40.035],[-8.293,40.016],[-8.292,40.01],[-8.291,40.003],[-8.287,39.999],[-8.275,39.991],[-8.271,39.985],[-8.273,39.976],[-8.279,39.972],[-8.288,39.971],[-8.304,39.976],[-8.314,39.975],[-8.349,39.944],[-8.39,39.933],[-8.398,39.933],[-8.405,39.934],[-8.4,39.938],[-8.393,39.942],[-8.387,39.948],[-8.385,39.957],[-8.39,39.97],[-8.399,39.989],[-8.413,40.01],[-8.42,40.015],[-8.429,40.016],[-8.431,40.011],[-8.451,40.012],[-8.484,39.99],[-8.51,39.978],[-8.528,39.961],[-8.535,39.956],[-8.54,39.96],[-8.544,39.965],[-8.546,39.972],[-8.546,39.988],[-8.547,39.998],[-8.554,40.02],[-8.56,40.026],[-8.567,40.028],[-8.573,40.028],[-8.581,40.028],[-8.588,40.025],[-8.595,40.021],[-8.61,40.001],[-8.613,39.999],[-8.619,39.997],[-8.629,39.996],[-8.636,39.998],[-8.639,40],[-8.648,40.011],[-8.665,40.022],[-8.677,40.028],[-8.698,40.032],[-8.718,40.033],[-8.769,40.037],[-8.794,40.029],[-8.805,40.022],[-8.815,40.021],[-8.848,40.026],[-8.862,40.032],[-8.871,40.036],[-8.896,40.045],[-8.902,40.047]]]}},{"type":"Feature","id":"PT-07","properties":{"id":"PT-07","countryCode":"PT","isoSubdivision":"PT-07","name":"Évora","name_en":"Évora","name_ko":"에보라현","type":"District","labelLongitude":-7.885,"labelLatitude":38.604,"minZoom":7.7},"geometry":{"type":"Polygon","coordinates":[[[-7.226,38.766],[-7.27,38.738],[-7.272,38.734],[-7.281,38.72],[-7.284,38.713],[-7.291,38.679],[-7.293,38.656],[-7.292,38.646],[-7.291,38.638],[-7.286,38.632],[-7.279,38.629],[-7.274,38.625],[-7.27,38.618],[-7.276,38.604],[-7.318,38.556],[-7.336,38.506],[-7.346,38.494],[-7.334,38.481],[-7.335,38.469],[-7.345,38.458],[-7.359,38.446],[-7.346,38.441],[-7.317,38.425],[-7.211,38.318],[-7.207,38.312],[-7.201,38.298],[-7.196,38.292],[-7.189,38.287],[-7.172,38.277],[-7.167,38.272],[-7.127,38.191],[-7.117,38.184],[-7.122,38.182],[-7.128,38.178],[-7.137,38.176],[-7.152,38.176],[-7.164,38.183],[-7.173,38.19],[-7.182,38.205],[-7.185,38.212],[-7.196,38.232],[-7.197,38.24],[-7.2,38.246],[-7.206,38.251],[-7.232,38.261],[-7.252,38.277],[-7.257,38.284],[-7.258,38.291],[-7.261,38.299],[-7.265,38.306],[-7.27,38.311],[-7.274,38.315],[-7.276,38.319],[-7.277,38.324],[-7.278,38.327],[-7.281,38.331],[-7.288,38.332],[-7.296,38.331],[-7.322,38.323],[-7.328,38.323],[-7.336,38.321],[-7.369,38.307],[-7.4,38.3],[-7.402,38.293],[-7.403,38.287],[-7.407,38.277],[-7.414,38.268],[-7.424,38.262],[-7.428,38.257],[-7.444,38.251],[-7.446,38.247],[-7.475,38.236],[-7.491,38.222],[-7.504,38.205],[-7.506,38.198],[-7.517,38.196],[-7.562,38.197],[-7.584,38.203],[-7.604,38.206],[-7.669,38.207],[-7.684,38.211],[-7.747,38.239],[-7.773,38.247],[-7.824,38.251],[-7.909,38.281],[-7.931,38.303],[-7.96,38.312],[-7.969,38.314],[-7.98,38.314],[-8.003,38.305],[-8.011,38.305],[-8.02,38.308],[-8.03,38.314],[-8.043,38.324],[-8.048,38.326],[-8.062,38.328],[-8.084,38.326],[-8.158,38.327],[-8.162,38.318],[-8.2,38.341],[-8.219,38.346],[-8.227,38.346],[-8.237,38.347],[-8.246,38.349],[-8.267,38.359],[-8.28,38.368],[-8.302,38.374],[-8.308,38.377],[-8.308,38.385],[-8.292,38.407],[-8.289,38.425],[-8.294,38.433],[-8.301,38.437],[-8.315,38.442],[-8.32,38.448],[-8.32,38.453],[-8.316,38.457],[-8.316,38.462],[-8.329,38.49],[-8.33,38.496],[-8.331,38.499],[-8.331,38.5],[-8.331,38.501],[-8.336,38.506],[-8.349,38.517],[-8.369,38.536],[-8.377,38.539],[-8.396,38.536],[-8.419,38.524],[-8.433,38.52],[-8.462,38.519],[-8.474,38.523],[-8.483,38.528],[-8.489,38.533],[-8.492,38.538],[-8.499,38.542],[-8.509,38.543],[-8.513,38.539],[-8.511,38.534],[-8.509,38.527],[-8.51,38.522],[-8.517,38.519],[-8.541,38.526],[-8.57,38.529],[-8.609,38.547],[-8.638,38.55],[-8.644,38.574],[-8.647,38.582],[-8.651,38.589],[-8.652,38.598],[-8.652,38.606],[-8.615,38.642],[-8.532,38.688],[-8.516,38.704],[-8.508,38.713],[-8.506,38.725],[-8.507,38.732],[-8.496,38.748],[-8.499,38.758],[-8.505,38.761],[-8.547,38.767],[-8.499,38.799],[-8.454,38.806],[-8.444,38.811],[-8.423,38.828],[-8.413,38.83],[-8.402,38.829],[-8.394,38.831],[-8.388,38.833],[-8.384,38.837],[-8.379,38.842],[-8.377,38.848],[-8.375,38.853],[-8.368,38.853],[-8.351,38.848],[-8.338,38.847],[-8.326,38.851],[-8.317,38.851],[-8.311,38.85],[-8.305,38.852],[-8.303,38.857],[-8.299,38.861],[-8.293,38.861],[-8.286,38.857],[-8.259,38.835],[-8.25,38.83],[-8.219,38.825],[-8.208,38.822],[-8.202,38.817],[-8.198,38.811],[-8.197,38.805],[-8.193,38.801],[-8.188,38.8],[-8.183,38.801],[-8.178,38.799],[-8.172,38.786],[-8.168,38.781],[-8.152,38.774],[-8.134,38.787],[-8.129,38.801],[-8.131,38.81],[-8.137,38.816],[-8.145,38.818],[-8.153,38.819],[-8.169,38.833],[-8.176,38.842],[-8.175,38.85],[-8.17,38.867],[-8.175,38.874],[-8.179,38.877],[-8.191,38.879],[-8.243,38.897],[-8.25,38.901],[-8.258,38.906],[-8.26,38.914],[-8.257,38.92],[-8.251,38.926],[-8.245,38.932],[-8.241,38.941],[-8.239,38.951],[-8.238,38.968],[-8.235,38.977],[-8.23,38.983],[-8.225,38.984],[-8.212,38.985],[-8.206,38.988],[-8.197,39.001],[-8.177,39.015],[-8.161,39.02],[-8.153,39.024],[-8.146,39.025],[-8.118,39.027],[-8.103,39.022],[-8.103,39.017],[-8.106,39.011],[-8.109,38.997],[-8.105,38.984],[-8.098,38.978],[-8.092,38.979],[-8.09,38.985],[-8.09,38.992],[-8.088,38.997],[-8.087,38.999],[-8.086,39],[-8.085,39.001],[-8.074,39.004],[-8.058,39.006],[-8.049,39.004],[-8.044,39.002],[-8.043,39.001],[-8.021,38.982],[-8.019,38.974],[-8.018,38.959],[-8.019,38.948],[-8.015,38.946],[-7.991,38.943],[-7.982,38.944],[-7.974,38.948],[-7.967,38.952],[-7.961,38.958],[-7.945,38.967],[-7.923,38.97],[-7.912,38.963],[-7.867,38.915],[-7.838,38.9],[-7.828,38.899],[-7.817,38.899],[-7.808,38.9],[-7.787,38.899],[-7.755,38.908],[-7.745,38.916],[-7.729,38.932],[-7.721,38.931],[-7.706,38.924],[-7.698,38.922],[-7.688,38.926],[-7.678,38.926],[-7.668,38.925],[-7.646,38.918],[-7.638,38.919],[-7.633,38.921],[-7.629,38.925],[-7.624,38.932],[-7.617,38.94],[-7.602,38.949],[-7.588,38.953],[-7.567,38.956],[-7.552,38.961],[-7.543,38.966],[-7.539,38.973],[-7.539,38.98],[-7.542,38.985],[-7.549,38.993],[-7.536,39],[-7.531,39],[-7.528,39],[-7.527,39],[-7.522,38.991],[-7.482,38.978],[-7.466,38.966],[-7.46,38.956],[-7.457,38.938],[-7.455,38.932],[-7.454,38.922],[-7.432,38.906],[-7.424,38.886],[-7.422,38.873],[-7.408,38.857],[-7.413,38.842],[-7.406,38.834],[-7.393,38.815],[-7.384,38.808],[-7.369,38.801],[-7.351,38.802],[-7.347,38.8],[-7.332,38.804],[-7.312,38.821],[-7.29,38.835],[-7.261,38.843],[-7.243,38.843],[-7.23,38.839],[-7.218,38.833],[-7.215,38.826],[-7.214,38.812],[-7.216,38.805],[-7.231,38.788],[-7.233,38.782],[-7.234,38.773],[-7.226,38.766]]]}},{"type":"Feature","id":"PT-08","properties":{"id":"PT-08","countryCode":"PT","isoSubdivision":"PT-08","name":"Faro","name_en":"Faro","name_ko":"파루현","type":"District","labelLongitude":-7.939,"labelLatitude":37.17,"minZoom":7.7},"geometry":{"type":"MultiPolygon","coordinates":[[[[-7.515,37.528],[-7.506,37.518],[-7.499,37.512],[-7.481,37.5],[-7.476,37.494],[-7.469,37.476],[-7.463,37.451],[-7.46,37.429],[-7.462,37.418],[-7.445,37.387],[-7.437,37.307],[-7.428,37.275],[-7.434,37.259],[-7.429,37.237],[-7.414,37.193],[-7.411,37.188],[-7.409,37.184],[-7.406,37.18],[-7.4,37.179],[-7.4,37.172],[-7.408,37.165],[-7.424,37.175],[-7.446,37.18],[-7.469,37.18],[-7.49,37.179],[-7.512,37.172],[-7.552,37.149],[-7.569,37.144],[-7.627,37.114],[-7.635,37.105],[-7.787,37.023],[-7.82,36.999],[-7.834,36.999],[-7.85,37.004],[-7.871,37.008],[-7.932,37.009],[-7.95,37.014],[-7.958,37.003],[-7.969,37.004],[-7.982,37.01],[-7.991,37.014],[-7.981,37.002],[-7.978,36.995],[-7.977,36.987],[-7.999,37.013],[-8.035,37.038],[-8.107,37.069],[-8.147,37.077],[-8.179,37.088],[-8.213,37.087],[-8.293,37.078],[-8.327,37.087],[-8.365,37.098],[-8.395,37.087],[-8.439,37.083],[-8.482,37.096],[-8.484,37.094],[-8.537,37.118],[-8.58,37.124],[-8.627,37.121],[-8.642,37.118],[-8.655,37.11],[-8.686,37.083],[-8.748,37.083],[-8.76,37.08],[-8.786,37.067],[-8.799,37.062],[-8.814,37.062],[-8.837,37.057],[-8.859,37.041],[-8.879,37.047],[-8.897,37.033],[-8.905,37.028],[-8.916,37.025],[-8.936,37.011],[-8.946,37.008],[-8.961,37.012],[-8.972,37.021],[-8.983,37.027],[-8.998,37.021],[-8.991,37.05],[-8.986,37.063],[-8.981,37.069],[-8.942,37.119],[-8.927,37.146],[-8.914,37.17],[-8.923,37.2],[-8.905,37.213],[-8.881,37.232],[-8.867,37.277],[-8.875,37.294],[-8.883,37.31],[-8.867,37.335],[-8.839,37.36],[-8.833,37.385],[-8.816,37.418],[-8.808,37.449],[-8.796,37.443],[-8.776,37.433],[-8.761,37.429],[-8.745,37.419],[-8.736,37.411],[-8.727,37.404],[-8.719,37.4],[-8.679,37.399],[-8.652,37.389],[-8.646,37.385],[-8.637,37.384],[-8.631,37.387],[-8.626,37.392],[-8.621,37.398],[-8.613,37.401],[-8.574,37.406],[-8.562,37.404],[-8.524,37.386],[-8.509,37.381],[-8.466,37.375],[-8.448,37.381],[-8.431,37.387],[-8.426,37.397],[-8.424,37.404],[-8.418,37.411],[-8.414,37.414],[-8.375,37.425],[-8.354,37.429],[-8.343,37.429],[-8.332,37.428],[-8.323,37.432],[-8.306,37.434],[-8.281,37.428],[-8.274,37.417],[-8.271,37.402],[-8.268,37.396],[-8.256,37.385],[-8.241,37.379],[-8.171,37.337],[-8.139,37.33],[-8.119,37.33],[-8.081,37.327],[-8.071,37.327],[-8.055,37.332],[-8.033,37.346],[-7.998,37.362],[-7.991,37.364],[-7.991,37.368],[-7.998,37.377],[-8.001,37.381],[-8,37.387],[-7.996,37.394],[-7.982,37.401],[-7.95,37.405],[-7.936,37.405],[-7.909,37.409],[-7.896,37.416],[-7.89,37.422],[-7.888,37.428],[-7.871,37.437],[-7.856,37.438],[-7.854,37.445],[-7.848,37.448],[-7.84,37.45],[-7.822,37.457],[-7.816,37.458],[-7.81,37.461],[-7.803,37.464],[-7.786,37.474],[-7.707,37.5],[-7.655,37.5],[-7.649,37.497],[-7.635,37.495],[-7.628,37.493],[-7.62,37.494],[-7.609,37.501],[-7.589,37.515],[-7.568,37.524],[-7.54,37.524],[-7.515,37.528]]],[[[-7.956,36.981],[-7.904,36.975],[-7.884,36.981],[-7.86,37],[-7.858,36.997],[-7.856,36.994],[-7.853,36.987],[-7.859,36.983],[-7.86,36.981],[-7.878,36.971],[-7.904,36.966],[-7.931,36.966],[-7.956,36.973],[-7.956,36.981]]]]}},{"type":"Feature","id":"PT-09","properties":{"id":"PT-09","countryCode":"PT","isoSubdivision":"PT-09","name":"Guarda","name_en":"Guarda","name_ko":"구아르다현","type":"District","labelLongitude":-7.316,"labelLatitude":40.292,"minZoom":7.7},"geometry":{"type":"Polygon","coordinates":[[[-6.875,40.279],[-6.875,40.271],[-6.878,40.265],[-6.896,40.255],[-6.916,40.254],[-6.935,40.256],[-6.942,40.255],[-6.947,40.259],[-6.957,40.268],[-6.972,40.276],[-6.997,40.286],[-7.003,40.286],[-7.014,40.287],[-7.03,40.284],[-7.053,40.283],[-7.075,40.286],[-7.084,40.292],[-7.094,40.306],[-7.098,40.313],[-7.104,40.318],[-7.11,40.319],[-7.121,40.312],[-7.127,40.304],[-7.132,40.296],[-7.134,40.289],[-7.141,40.284],[-7.154,40.28],[-7.202,40.28],[-7.247,40.267],[-7.272,40.272],[-7.293,40.275],[-7.303,40.278],[-7.31,40.28],[-7.317,40.282],[-7.32,40.285],[-7.321,40.291],[-7.319,40.299],[-7.309,40.309],[-7.3,40.317],[-7.292,40.324],[-7.28,40.35],[-7.271,40.41],[-7.283,40.414],[-7.291,40.414],[-7.308,40.413],[-7.318,40.411],[-7.326,40.41],[-7.348,40.391],[-7.38,40.384],[-7.391,40.383],[-7.414,40.388],[-7.454,40.413],[-7.504,40.377],[-7.518,40.358],[-7.519,40.351],[-7.527,40.338],[-7.534,40.331],[-7.543,40.325],[-7.577,40.319],[-7.602,40.327],[-7.621,40.304],[-7.643,40.287],[-7.669,40.274],[-7.696,40.266],[-7.734,40.244],[-7.746,40.24],[-7.763,40.238],[-7.782,40.232],[-7.797,40.25],[-7.825,40.261],[-7.813,40.281],[-7.808,40.297],[-7.801,40.307],[-7.793,40.315],[-7.77,40.327],[-7.767,40.334],[-7.771,40.34],[-7.785,40.349],[-7.792,40.357],[-7.8,40.393],[-7.799,40.402],[-7.805,40.407],[-7.822,40.409],[-7.831,40.414],[-7.838,40.424],[-7.835,40.43],[-7.828,40.435],[-7.819,40.438],[-7.811,40.441],[-7.805,40.448],[-7.801,40.457],[-7.802,40.464],[-7.808,40.471],[-7.814,40.475],[-7.825,40.498],[-7.815,40.505],[-7.785,40.509],[-7.774,40.511],[-7.748,40.526],[-7.718,40.534],[-7.687,40.552],[-7.644,40.564],[-7.578,40.572],[-7.582,40.593],[-7.558,40.648],[-7.545,40.661],[-7.54,40.685],[-7.557,40.703],[-7.579,40.714],[-7.589,40.729],[-7.578,40.739],[-7.576,40.745],[-7.576,40.752],[-7.579,40.759],[-7.584,40.765],[-7.609,40.78],[-7.617,40.788],[-7.619,40.795],[-7.615,40.802],[-7.604,40.814],[-7.593,40.83],[-7.582,40.857],[-7.577,40.861],[-7.57,40.867],[-7.558,40.872],[-7.533,40.87],[-7.523,40.867],[-7.508,40.858],[-7.475,40.831],[-7.469,40.827],[-7.462,40.82],[-7.446,40.82],[-7.435,40.83],[-7.413,40.871],[-7.412,40.881],[-7.415,40.891],[-7.419,40.897],[-7.423,40.917],[-7.411,40.922],[-7.373,40.916],[-7.341,40.938],[-7.333,40.955],[-7.332,40.966],[-7.334,40.973],[-7.339,40.98],[-7.348,40.982],[-7.357,40.987],[-7.366,40.992],[-7.373,41.004],[-7.374,41.01],[-7.371,41.014],[-7.346,41.013],[-7.334,41.02],[-7.338,41.047],[-7.335,41.065],[-7.326,41.095],[-7.301,41.159],[-7.222,41.164],[-7.19,41.157],[-7.17,41.158],[-7.161,41.168],[-7.123,41.188],[-7.113,41.192],[-7.122,41.171],[-7.126,41.164],[-7.122,41.16],[-7.116,41.156],[-7.11,41.153],[-7.102,41.152],[-7.093,41.149],[-7.093,41.142],[-7.098,41.133],[-7.099,41.124],[-7.094,41.111],[-7.086,41.097],[-7.075,41.087],[-6.987,41.053],[-6.945,41.051],[-6.928,41.048],[-6.927,41.048],[-6.928,41.048],[-6.932,41.029],[-6.942,41.016],[-6.94,41.003],[-6.931,40.992],[-6.899,40.967],[-6.885,40.949],[-6.864,40.908],[-6.855,40.887],[-6.847,40.879],[-6.832,40.876],[-6.821,40.87],[-6.816,40.857],[-6.82,40.844],[-6.837,40.84],[-6.838,40.815],[-6.837,40.808],[-6.834,40.798],[-6.835,40.792],[-6.837,40.787],[-6.839,40.777],[-6.839,40.758],[-6.837,40.743],[-6.824,40.711],[-6.816,40.677],[-6.814,40.659],[-6.814,40.647],[-6.821,40.63],[-6.844,40.598],[-6.85,40.582],[-6.848,40.565],[-6.84,40.555],[-6.829,40.546],[-6.818,40.532],[-6.813,40.515],[-6.815,40.503],[-6.839,40.477],[-6.857,40.442],[-6.851,40.41],[-6.828,40.381],[-6.794,40.356],[-6.812,40.332],[-6.821,40.325],[-6.864,40.301],[-6.87,40.296],[-6.874,40.288],[-6.875,40.279]]]}},{"type":"Feature","id":"PT-10","properties":{"id":"PT-10","countryCode":"PT","isoSubdivision":"PT-10","name":"Leiria","name_en":"Leiria","name_ko":"레이리아현","type":"District","labelLongitude":-8.759,"labelLatitude":39.758,"minZoom":7.7},"geometry":{"type":"Polygon","coordinates":[[[-9.348,39.292],[-9.354,39.316],[-9.366,39.336],[-9.402,39.365],[-9.409,39.375],[-9.398,39.378],[-9.353,39.368],[-9.279,39.406],[-9.261,39.418],[-9.24,39.42],[-9.228,39.408],[-9.218,39.406],[-9.206,39.415],[-9.214,39.429],[-9.23,39.441],[-9.214,39.461],[-9.191,39.482],[-9.183,39.493],[-9.164,39.502],[-9.136,39.516],[-9.121,39.535],[-9.111,39.551],[-9.09,39.579],[-9.088,39.597],[-9.09,39.616],[-9.078,39.642],[-9.072,39.68],[-8.993,39.843],[-8.902,40.047],[-8.896,40.045],[-8.871,40.036],[-8.862,40.032],[-8.848,40.026],[-8.815,40.021],[-8.805,40.022],[-8.794,40.029],[-8.769,40.037],[-8.718,40.033],[-8.698,40.032],[-8.677,40.028],[-8.665,40.022],[-8.648,40.011],[-8.639,40],[-8.636,39.998],[-8.629,39.996],[-8.619,39.997],[-8.613,39.999],[-8.61,40.001],[-8.595,40.021],[-8.588,40.025],[-8.581,40.028],[-8.573,40.028],[-8.567,40.028],[-8.56,40.026],[-8.554,40.02],[-8.547,39.998],[-8.546,39.988],[-8.546,39.972],[-8.544,39.965],[-8.54,39.96],[-8.535,39.956],[-8.528,39.961],[-8.51,39.978],[-8.484,39.99],[-8.451,40.012],[-8.431,40.011],[-8.429,40.016],[-8.42,40.015],[-8.413,40.01],[-8.399,39.989],[-8.39,39.97],[-8.385,39.957],[-8.387,39.948],[-8.393,39.942],[-8.4,39.938],[-8.405,39.934],[-8.398,39.933],[-8.39,39.933],[-8.349,39.944],[-8.314,39.975],[-8.304,39.976],[-8.288,39.971],[-8.279,39.972],[-8.273,39.976],[-8.271,39.985],[-8.275,39.991],[-8.287,39.999],[-8.291,40.003],[-8.292,40.01],[-8.293,40.016],[-8.278,40.035],[-8.235,40.064],[-8.205,40.055],[-8.175,40.086],[-8.162,40.08],[-8.155,40.076],[-8.149,40.069],[-8.145,40.062],[-8.152,40.034],[-8.149,40.017],[-8.108,39.965],[-8.119,39.958],[-8.124,39.954],[-8.128,39.944],[-8.126,39.939],[-8.124,39.935],[-8.123,39.933],[-8.126,39.921],[-8.146,39.891],[-8.156,39.884],[-8.165,39.879],[-8.173,39.878],[-8.183,39.875],[-8.192,39.867],[-8.2,39.858],[-8.206,39.854],[-8.215,39.856],[-8.26,39.845],[-8.265,39.84],[-8.271,39.835],[-8.27,39.83],[-8.27,39.824],[-8.277,39.82],[-8.284,39.811],[-8.284,39.806],[-8.279,39.795],[-8.321,39.798],[-8.328,39.8],[-8.329,39.795],[-8.327,39.788],[-8.324,39.769],[-8.329,39.766],[-8.349,39.769],[-8.371,39.761],[-8.383,39.759],[-8.425,39.747],[-8.443,39.742],[-8.444,39.747],[-8.446,39.753],[-8.448,39.761],[-8.455,39.784],[-8.457,39.795],[-8.471,39.837],[-8.486,39.834],[-8.5,39.826],[-8.509,39.825],[-8.523,39.822],[-8.571,39.794],[-8.59,39.787],[-8.602,39.785],[-8.62,39.789],[-8.666,39.773],[-8.671,39.767],[-8.677,39.758],[-8.676,39.75],[-8.674,39.733],[-8.674,39.721],[-8.671,39.713],[-8.664,39.708],[-8.656,39.703],[-8.648,39.695],[-8.644,39.679],[-8.648,39.67],[-8.656,39.664],[-8.664,39.659],[-8.673,39.655],[-8.695,39.642],[-8.686,39.61],[-8.684,39.592],[-8.672,39.565],[-8.679,39.557],[-8.704,39.532],[-8.712,39.53],[-8.723,39.53],[-8.73,39.532],[-8.738,39.533],[-8.742,39.528],[-8.743,39.521],[-8.742,39.513],[-8.735,39.502],[-8.733,39.5],[-8.733,39.498],[-8.735,39.495],[-8.737,39.487],[-8.751,39.48],[-8.8,39.484],[-8.865,39.479],[-8.895,39.471],[-8.908,39.46],[-8.94,39.408],[-8.949,39.398],[-8.957,39.394],[-8.977,39.39],[-8.999,39.361],[-9.003,39.349],[-8.997,39.332],[-8.994,39.299],[-9.022,39.304],[-9.041,39.311],[-9.056,39.313],[-9.067,39.312],[-9.074,39.309],[-9.084,39.304],[-9.105,39.284],[-9.128,39.253],[-9.148,39.235],[-9.169,39.221],[-9.185,39.233],[-9.208,39.294],[-9.217,39.305],[-9.224,39.313],[-9.231,39.316],[-9.236,39.315],[-9.249,39.317],[-9.257,39.313],[-9.3,39.293],[-9.338,39.293],[-9.348,39.292]]]}},{"type":"Feature","id":"PT-11","properties":{"id":"PT-11","countryCode":"PT","isoSubdivision":"PT-11","name":"Lisbon","name_en":"Lisbon","name_ko":"리스보아현","type":"District","labelLongitude":-9.134,"labelLatitude":38.984,"minZoom":7.7},"geometry":{"type":"MultiPolygon","coordinates":[[[[-8.943,38.776],[-8.943,38.782],[-8.953,38.795],[-8.964,38.815],[-8.97,38.835],[-8.963,38.851],[-8.986,38.849],[-8.997,38.866],[-9.003,38.89],[-9.012,38.913],[-8.969,38.984],[-8.943,39.015],[-8.908,39.036],[-8.888,39.04],[-8.846,39.043],[-8.827,39.049],[-8.79,39.071],[-8.789,39.065],[-8.791,39.062],[-8.797,39.059],[-8.817,39.04],[-8.854,39.031],[-8.851,39.023],[-8.84,39.016],[-8.86,38.993],[-8.865,38.983],[-8.874,38.973],[-8.885,38.956],[-8.919,38.883],[-8.934,38.861],[-8.941,38.853],[-8.956,38.841],[-8.956,38.829],[-8.938,38.812],[-8.935,38.807],[-8.931,38.801],[-8.923,38.778],[-8.932,38.778],[-8.943,38.776]]],[[[-8.792,39.082],[-8.836,39.057],[-8.923,39.049],[-8.936,39.041],[-8.955,39.012],[-9.004,38.958],[-9.059,38.871],[-9.09,38.844],[-9.1,38.83],[-9.107,38.814],[-9.104,38.795],[-9.102,38.762],[-9.098,38.738],[-9.113,38.714],[-9.163,38.702],[-9.22,38.694],[-9.285,38.699],[-9.303,38.688],[-9.322,38.67],[-9.361,38.69],[-9.405,38.704],[-9.429,38.707],[-9.472,38.702],[-9.492,38.708],[-9.491,38.728],[-9.485,38.745],[-9.497,38.788],[-9.497,38.81],[-9.492,38.819],[-9.48,38.831],[-9.455,38.85],[-9.423,38.931],[-9.425,38.992],[-9.437,39.029],[-9.427,39.052],[-9.423,39.079],[-9.384,39.134],[-9.371,39.161],[-9.351,39.197],[-9.347,39.235],[-9.341,39.267],[-9.348,39.292],[-9.338,39.293],[-9.3,39.293],[-9.257,39.313],[-9.249,39.317],[-9.236,39.315],[-9.231,39.316],[-9.224,39.313],[-9.217,39.305],[-9.208,39.294],[-9.185,39.233],[-9.169,39.221],[-9.148,39.235],[-9.128,39.253],[-9.105,39.284],[-9.084,39.304],[-9.074,39.309],[-9.067,39.312],[-9.056,39.313],[-9.041,39.311],[-9.022,39.304],[-8.994,39.299],[-8.982,39.275],[-8.984,39.26],[-8.915,39.245],[-8.875,39.254],[-8.867,39.24],[-8.817,39.201],[-8.831,39.191],[-8.846,39.188],[-8.876,39.189],[-8.888,39.186],[-8.903,39.178],[-8.903,39.172],[-8.898,39.166],[-8.89,39.163],[-8.883,39.159],[-8.876,39.146],[-8.871,39.14],[-8.842,39.119],[-8.835,39.116],[-8.815,39.109],[-8.808,39.105],[-8.804,39.101],[-8.8,39.096],[-8.792,39.082]]],[[[-9.041,38.868],[-9.035,38.871],[-9.035,38.864],[-9.041,38.849],[-9.055,38.833],[-9.073,38.818],[-9.08,38.82],[-9.071,38.838],[-9.061,38.852],[-9.05,38.862],[-9.044,38.866],[-9.041,38.868]]]]}},{"type":"Feature","id":"PT-12","properties":{"id":"PT-12","countryCode":"PT","isoSubdivision":"PT-12","name":"Portalegre","name_en":"Portalegre","name_ko":"포르탈레그르현","type":"District","labelLongitude":-7.654,"labelLatitude":39.282,"minZoom":7.7},"geometry":{"type":"Polygon","coordinates":[[[-7.105,38.827],[-7.151,38.819],[-7.161,38.813],[-7.166,38.803],[-7.18,38.791],[-7.196,38.78],[-7.212,38.775],[-7.226,38.766],[-7.234,38.773],[-7.233,38.782],[-7.231,38.788],[-7.216,38.805],[-7.214,38.812],[-7.215,38.826],[-7.218,38.833],[-7.23,38.839],[-7.243,38.843],[-7.261,38.843],[-7.29,38.835],[-7.312,38.821],[-7.332,38.804],[-7.347,38.8],[-7.351,38.802],[-7.369,38.801],[-7.384,38.808],[-7.393,38.815],[-7.406,38.834],[-7.413,38.842],[-7.408,38.857],[-7.422,38.873],[-7.424,38.886],[-7.432,38.906],[-7.454,38.922],[-7.455,38.932],[-7.457,38.938],[-7.46,38.956],[-7.466,38.966],[-7.482,38.978],[-7.522,38.991],[-7.527,39],[-7.528,39],[-7.531,39],[-7.536,39],[-7.549,38.993],[-7.542,38.985],[-7.539,38.98],[-7.539,38.973],[-7.543,38.966],[-7.552,38.961],[-7.567,38.956],[-7.588,38.953],[-7.602,38.949],[-7.617,38.94],[-7.624,38.932],[-7.629,38.925],[-7.633,38.921],[-7.638,38.919],[-7.646,38.918],[-7.668,38.925],[-7.678,38.926],[-7.688,38.926],[-7.698,38.922],[-7.706,38.924],[-7.721,38.931],[-7.729,38.932],[-7.745,38.916],[-7.755,38.908],[-7.787,38.899],[-7.808,38.9],[-7.817,38.899],[-7.828,38.899],[-7.838,38.9],[-7.867,38.915],[-7.912,38.963],[-7.923,38.97],[-7.945,38.967],[-7.961,38.958],[-7.967,38.952],[-7.974,38.948],[-7.982,38.944],[-7.991,38.943],[-8.015,38.946],[-8.019,38.948],[-8.018,38.959],[-8.019,38.974],[-8.021,38.982],[-8.043,39.001],[-8.044,39.002],[-8.049,39.004],[-8.058,39.006],[-8.074,39.004],[-8.085,39.001],[-8.086,39],[-8.087,38.999],[-8.088,38.997],[-8.09,38.992],[-8.09,38.985],[-8.092,38.979],[-8.098,38.978],[-8.105,38.984],[-8.109,38.997],[-8.106,39.011],[-8.103,39.017],[-8.103,39.022],[-8.118,39.027],[-8.146,39.025],[-8.153,39.024],[-8.161,39.02],[-8.177,39.015],[-8.197,39.001],[-8.241,39.012],[-8.255,39.021],[-8.257,39.028],[-8.26,39.036],[-8.267,39.047],[-8.278,39.054],[-8.284,39.062],[-8.288,39.07],[-8.291,39.08],[-8.3,39.087],[-8.311,39.092],[-8.334,39.101],[-8.334,39.117],[-8.305,39.153],[-8.291,39.164],[-8.236,39.195],[-8.177,39.237],[-8.153,39.252],[-8.142,39.273],[-8.129,39.283],[-8.119,39.285],[-8.1,39.282],[-8.085,39.285],[-8.078,39.29],[-8.074,39.295],[-8.07,39.3],[-8.046,39.322],[-8.032,39.339],[-8.027,39.347],[-8.024,39.36],[-8.017,39.365],[-7.969,39.39],[-7.949,39.415],[-7.95,39.421],[-7.955,39.428],[-7.971,39.437],[-8.01,39.469],[-7.989,39.512],[-7.968,39.537],[-7.95,39.55],[-7.937,39.553],[-7.918,39.55],[-7.877,39.532],[-7.863,39.522],[-7.862,39.52],[-7.857,39.522],[-7.852,39.525],[-7.833,39.543],[-7.826,39.547],[-7.805,39.557],[-7.79,39.569],[-7.776,39.585],[-7.76,39.598],[-7.74,39.604],[-7.734,39.611],[-7.724,39.627],[-7.712,39.643],[-7.695,39.653],[-7.673,39.651],[-7.656,39.644],[-7.639,39.642],[-7.616,39.656],[-7.603,39.666],[-7.586,39.675],[-7.566,39.68],[-7.556,39.677],[-7.548,39.663],[-7.516,39.594],[-7.498,39.581],[-7.468,39.55],[-7.451,39.538],[-7.418,39.524],[-7.409,39.516],[-7.399,39.494],[-7.384,39.484],[-7.363,39.476],[-7.321,39.467],[-7.314,39.457],[-7.314,39.436],[-7.319,39.413],[-7.327,39.399],[-7.332,39.385],[-7.331,39.363],[-7.327,39.341],[-7.319,39.33],[-7.3,39.318],[-7.251,39.271],[-7.264,39.252],[-7.266,39.231],[-7.258,39.211],[-7.244,39.196],[-7.219,39.185],[-7.192,39.179],[-7.168,39.171],[-7.156,39.152],[-7.158,39.141],[-7.169,39.122],[-7.167,39.113],[-7.157,39.105],[-7.143,39.1],[-7.127,39.097],[-7.115,39.101],[-7.091,39.112],[-7.065,39.115],[-7.039,39.109],[-7.016,39.097],[-7,39.085],[-6.986,39.067],[-6.979,39.047],[-6.986,39.03],[-6.975,39.023],[-6.973,39.014],[-6.979,39.004],[-6.989,38.994],[-7.022,38.943],[-7.045,38.919],[-7.066,38.905],[-7.052,38.885],[-7.057,38.869],[-7.056,38.855],[-7.064,38.851],[-7.077,38.843],[-7.089,38.833],[-7.105,38.827]]]}},{"type":"Feature","id":"PT-13","properties":{"id":"PT-13","countryCode":"PT","isoSubdivision":"PT-13","name":"Porto","name_en":"Porto","name_ko":"포르투현","type":"District","labelLongitude":-8.331,"labelLatitude":41.212,"minZoom":7.7},"geometry":{"type":"Polygon","coordinates":[[[-8.655,41.017],[-8.655,41.031],[-8.667,41.098],[-8.666,41.133],[-8.648,41.147],[-8.648,41.153],[-8.686,41.159],[-8.705,41.187],[-8.718,41.222],[-8.737,41.25],[-8.732,41.263],[-8.735,41.274],[-8.74,41.285],[-8.745,41.297],[-8.744,41.328],[-8.749,41.338],[-8.756,41.341],[-8.76,41.351],[-8.764,41.361],[-8.778,41.379],[-8.784,41.394],[-8.784,41.406],[-8.786,41.435],[-8.775,41.468],[-8.752,41.467],[-8.728,41.457],[-8.702,41.447],[-8.677,41.447],[-8.667,41.444],[-8.658,41.438],[-8.652,41.433],[-8.635,41.419],[-8.621,41.413],[-8.61,41.411],[-8.6,41.404],[-8.596,41.398],[-8.6,41.393],[-8.605,41.39],[-8.615,41.388],[-8.623,41.381],[-8.621,41.373],[-8.617,41.36],[-8.612,41.352],[-8.604,41.349],[-8.601,41.35],[-8.591,41.351],[-8.535,41.351],[-8.527,41.353],[-8.519,41.355],[-8.511,41.36],[-8.504,41.364],[-8.485,41.373],[-8.468,41.376],[-8.455,41.376],[-8.448,41.373],[-8.441,41.369],[-8.416,41.366],[-8.385,41.372],[-8.344,41.376],[-8.336,41.374],[-8.322,41.367],[-8.316,41.367],[-8.292,41.374],[-8.285,41.375],[-8.254,41.386],[-8.234,41.397],[-8.219,41.415],[-8.17,41.401],[-8.149,41.385],[-8.145,41.379],[-8.147,41.37],[-8.112,41.35],[-8.08,41.339],[-8.069,41.341],[-8.047,41.332],[-8.036,41.325],[-8.026,41.325],[-8.018,41.328],[-8.011,41.333],[-8.006,41.336],[-8.002,41.34],[-7.994,41.345],[-7.989,41.347],[-7.985,41.351],[-7.981,41.356],[-7.979,41.36],[-7.976,41.37],[-7.959,41.354],[-7.96,41.345],[-7.958,41.337],[-7.951,41.328],[-7.937,41.322],[-7.909,41.307],[-7.914,41.294],[-7.909,41.279],[-7.893,41.256],[-7.88,41.248],[-7.875,41.247],[-7.889,41.207],[-7.891,41.183],[-7.896,41.159],[-7.94,41.138],[-8.062,41.106],[-8.09,41.104],[-8.19,41.109],[-8.223,41.103],[-8.29,41.083],[-8.294,41.072],[-8.298,41.07],[-8.346,41.044],[-8.366,41.049],[-8.392,41.04],[-8.393,41.034],[-8.392,41.028],[-8.388,41.023],[-8.386,41.016],[-8.39,41.012],[-8.398,41.012],[-8.416,41.023],[-8.423,41.034],[-8.428,41.039],[-8.448,41.055],[-8.466,41.04],[-8.47,41.035],[-8.477,41.021],[-8.484,41.017],[-8.495,41.017],[-8.509,41.022],[-8.517,41.028],[-8.526,41.032],[-8.538,41.032],[-8.554,41.024],[-8.585,41.015],[-8.602,41.023],[-8.646,41.019],[-8.655,41.017]]]}},{"type":"Feature","id":"PT-14","properties":{"id":"PT-14","countryCode":"PT","isoSubdivision":"PT-14","name":"Santarém","name_en":"Santarém","name_ko":"산타렝현","type":"District","labelLongitude":-8.404,"labelLatitude":39.291,"minZoom":7.7},"geometry":{"type":"Polygon","coordinates":[[[-8.79,39.071],[-8.775,39.083],[-8.765,39.098],[-8.792,39.082],[-8.8,39.096],[-8.804,39.101],[-8.808,39.105],[-8.815,39.109],[-8.835,39.116],[-8.842,39.119],[-8.871,39.14],[-8.876,39.146],[-8.883,39.159],[-8.89,39.163],[-8.898,39.166],[-8.903,39.172],[-8.903,39.178],[-8.888,39.186],[-8.876,39.189],[-8.846,39.188],[-8.831,39.191],[-8.817,39.201],[-8.867,39.24],[-8.875,39.254],[-8.915,39.245],[-8.984,39.26],[-8.982,39.275],[-8.994,39.299],[-8.997,39.332],[-9.003,39.349],[-8.999,39.361],[-8.977,39.39],[-8.957,39.394],[-8.949,39.398],[-8.94,39.408],[-8.908,39.46],[-8.895,39.471],[-8.865,39.479],[-8.8,39.484],[-8.751,39.48],[-8.737,39.487],[-8.735,39.495],[-8.733,39.498],[-8.733,39.5],[-8.735,39.502],[-8.742,39.513],[-8.743,39.521],[-8.742,39.528],[-8.738,39.533],[-8.73,39.532],[-8.723,39.53],[-8.712,39.53],[-8.704,39.532],[-8.679,39.557],[-8.672,39.565],[-8.684,39.592],[-8.686,39.61],[-8.695,39.642],[-8.673,39.655],[-8.664,39.659],[-8.656,39.664],[-8.648,39.67],[-8.644,39.679],[-8.648,39.695],[-8.656,39.703],[-8.664,39.708],[-8.671,39.713],[-8.674,39.721],[-8.674,39.733],[-8.676,39.75],[-8.677,39.758],[-8.671,39.767],[-8.666,39.773],[-8.62,39.789],[-8.602,39.785],[-8.59,39.787],[-8.571,39.794],[-8.523,39.822],[-8.509,39.825],[-8.5,39.826],[-8.486,39.834],[-8.471,39.837],[-8.457,39.795],[-8.455,39.784],[-8.448,39.761],[-8.446,39.753],[-8.444,39.747],[-8.443,39.742],[-8.425,39.747],[-8.383,39.759],[-8.371,39.761],[-8.349,39.769],[-8.329,39.766],[-8.324,39.769],[-8.327,39.788],[-8.329,39.795],[-8.328,39.8],[-8.321,39.798],[-8.279,39.795],[-8.273,39.779],[-8.263,39.774],[-8.25,39.772],[-8.239,39.768],[-8.232,39.762],[-8.229,39.757],[-8.228,39.752],[-8.227,39.746],[-8.228,39.742],[-8.226,39.723],[-8.233,39.714],[-8.233,39.695],[-8.229,39.659],[-8.22,39.646],[-8.165,39.63],[-8.139,39.616],[-8.118,39.615],[-8.083,39.618],[-8.062,39.624],[-8.062,39.63],[-8.063,39.636],[-8.07,39.652],[-8.071,39.662],[-8.066,39.675],[-8.059,39.685],[-8.047,39.736],[-8.042,39.744],[-8.021,39.747],[-7.99,39.738],[-7.965,39.738],[-7.959,39.733],[-7.956,39.727],[-7.954,39.72],[-7.954,39.712],[-7.952,39.705],[-7.951,39.69],[-7.953,39.675],[-7.95,39.666],[-7.943,39.663],[-7.933,39.661],[-7.92,39.66],[-7.9,39.654],[-7.885,39.645],[-7.867,39.636],[-7.846,39.617],[-7.825,39.592],[-7.821,39.585],[-7.814,39.567],[-7.805,39.557],[-7.826,39.547],[-7.833,39.543],[-7.852,39.525],[-7.857,39.522],[-7.862,39.52],[-7.863,39.522],[-7.877,39.532],[-7.918,39.55],[-7.937,39.553],[-7.95,39.55],[-7.968,39.537],[-7.989,39.512],[-8.01,39.469],[-7.971,39.437],[-7.955,39.428],[-7.95,39.421],[-7.949,39.415],[-7.969,39.39],[-8.017,39.365],[-8.024,39.36],[-8.027,39.347],[-8.032,39.339],[-8.046,39.322],[-8.07,39.3],[-8.074,39.295],[-8.078,39.29],[-8.085,39.285],[-8.1,39.282],[-8.119,39.285],[-8.129,39.283],[-8.142,39.273],[-8.153,39.252],[-8.177,39.237],[-8.236,39.195],[-8.291,39.164],[-8.305,39.153],[-8.334,39.117],[-8.334,39.101],[-8.311,39.092],[-8.3,39.087],[-8.291,39.08],[-8.288,39.07],[-8.284,39.062],[-8.278,39.054],[-8.267,39.047],[-8.26,39.036],[-8.257,39.028],[-8.255,39.021],[-8.241,39.012],[-8.197,39.001],[-8.206,38.988],[-8.212,38.985],[-8.225,38.984],[-8.23,38.983],[-8.235,38.977],[-8.238,38.968],[-8.239,38.951],[-8.241,38.941],[-8.245,38.932],[-8.251,38.926],[-8.257,38.92],[-8.26,38.914],[-8.258,38.906],[-8.25,38.901],[-8.243,38.897],[-8.191,38.879],[-8.179,38.877],[-8.175,38.874],[-8.17,38.867],[-8.175,38.85],[-8.176,38.842],[-8.169,38.833],[-8.153,38.819],[-8.145,38.818],[-8.137,38.816],[-8.131,38.81],[-8.129,38.801],[-8.134,38.787],[-8.152,38.774],[-8.168,38.781],[-8.172,38.786],[-8.178,38.799],[-8.183,38.801],[-8.188,38.8],[-8.193,38.801],[-8.197,38.805],[-8.198,38.811],[-8.202,38.817],[-8.208,38.822],[-8.219,38.825],[-8.25,38.83],[-8.259,38.835],[-8.286,38.857],[-8.293,38.861],[-8.299,38.861],[-8.303,38.857],[-8.305,38.852],[-8.311,38.85],[-8.317,38.851],[-8.326,38.851],[-8.338,38.847],[-8.351,38.848],[-8.368,38.853],[-8.375,38.853],[-8.377,38.848],[-8.379,38.842],[-8.384,38.837],[-8.388,38.833],[-8.394,38.831],[-8.402,38.829],[-8.413,38.83],[-8.423,38.828],[-8.444,38.811],[-8.454,38.806],[-8.499,38.799],[-8.547,38.767],[-8.573,38.77],[-8.582,38.77],[-8.593,38.772],[-8.605,38.784],[-8.606,38.792],[-8.606,38.801],[-8.604,38.808],[-8.604,38.816],[-8.602,38.823],[-8.603,38.828],[-8.608,38.83],[-8.625,38.824],[-8.644,38.815],[-8.671,38.823],[-8.683,38.829],[-8.689,38.833],[-8.696,38.836],[-8.703,38.834],[-8.732,38.789],[-8.744,38.762],[-8.747,38.754],[-8.762,38.738],[-8.779,38.734],[-8.786,38.734],[-8.814,38.742],[-8.823,38.752],[-8.831,38.755],[-8.842,38.756],[-8.859,38.753],[-8.869,38.748],[-8.89,38.741],[-8.901,38.741],[-8.911,38.743],[-8.919,38.75],[-8.924,38.765],[-8.923,38.778],[-8.931,38.801],[-8.935,38.807],[-8.938,38.812],[-8.956,38.829],[-8.956,38.841],[-8.941,38.853],[-8.934,38.861],[-8.919,38.883],[-8.885,38.956],[-8.874,38.973],[-8.865,38.983],[-8.86,38.993],[-8.84,39.016],[-8.851,39.023],[-8.854,39.031],[-8.817,39.04],[-8.797,39.059],[-8.791,39.062],[-8.789,39.065],[-8.79,39.071]]]}},{"type":"Feature","id":"PT-15","properties":{"id":"PT-15","countryCode":"PT","isoSubdivision":"PT-15","name":"Setúbal","name_en":"Setúbal","name_ko":"세투발현","type":"District","labelLongitude":-8.573,"labelLatitude":38.207,"minZoom":7.7},"geometry":{"type":"Polygon","coordinates":[[[-8.801,37.827],[-8.797,37.845],[-8.799,37.878],[-8.805,37.902],[-8.821,37.927],[-8.854,37.932],[-8.895,37.953],[-8.89,37.961],[-8.883,37.965],[-8.875,37.967],[-8.868,37.974],[-8.816,38.062],[-8.797,38.133],[-8.774,38.187],[-8.778,38.241],[-8.785,38.304],[-8.795,38.359],[-8.821,38.399],[-8.847,38.42],[-8.878,38.449],[-8.915,38.473],[-8.943,38.481],[-8.927,38.494],[-8.905,38.486],[-8.868,38.461],[-8.822,38.449],[-8.8,38.439],[-8.799,38.426],[-8.757,38.427],[-8.657,38.406],[-8.607,38.419],[-8.637,38.42],[-8.663,38.425],[-8.736,38.452],[-8.745,38.46],[-8.751,38.474],[-8.753,38.488],[-8.751,38.501],[-8.746,38.51],[-8.737,38.515],[-8.737,38.522],[-8.751,38.526],[-8.761,38.538],[-8.764,38.552],[-8.758,38.563],[-8.773,38.565],[-8.793,38.534],[-8.813,38.529],[-8.813,38.522],[-8.791,38.52],[-8.78,38.505],[-8.78,38.489],[-8.788,38.481],[-8.812,38.483],[-8.832,38.487],[-8.868,38.502],[-8.906,38.512],[-8.955,38.505],[-9,38.464],[-8.992,38.459],[-9.049,38.441],[-9.146,38.431],[-9.166,38.425],[-9.182,38.416],[-9.2,38.412],[-9.226,38.418],[-9.231,38.419],[-9.234,38.424],[-9.234,38.431],[-9.231,38.438],[-9.227,38.44],[-9.22,38.449],[-9.19,38.473],[-9.184,38.504],[-9.184,38.552],[-9.208,38.597],[-9.238,38.635],[-9.253,38.665],[-9.234,38.673],[-9.188,38.678],[-9.145,38.681],[-9.124,38.671],[-9.114,38.659],[-9.108,38.659],[-9.114,38.679],[-9.099,38.686],[-9.067,38.692],[-9.052,38.694],[-9.052,38.7],[-9.037,38.714],[-9.021,38.727],[-8.993,38.744],[-8.957,38.768],[-8.953,38.77],[-8.947,38.774],[-8.943,38.776],[-8.932,38.778],[-8.923,38.778],[-8.924,38.765],[-8.919,38.75],[-8.911,38.743],[-8.901,38.741],[-8.89,38.741],[-8.869,38.748],[-8.859,38.753],[-8.842,38.756],[-8.831,38.755],[-8.823,38.752],[-8.814,38.742],[-8.786,38.734],[-8.779,38.734],[-8.762,38.738],[-8.747,38.754],[-8.744,38.762],[-8.732,38.789],[-8.703,38.834],[-8.696,38.836],[-8.689,38.833],[-8.683,38.829],[-8.671,38.823],[-8.644,38.815],[-8.625,38.824],[-8.608,38.83],[-8.603,38.828],[-8.602,38.823],[-8.604,38.816],[-8.604,38.808],[-8.606,38.801],[-8.606,38.792],[-8.605,38.784],[-8.593,38.772],[-8.582,38.77],[-8.573,38.77],[-8.547,38.767],[-8.505,38.761],[-8.499,38.758],[-8.496,38.748],[-8.507,38.732],[-8.506,38.725],[-8.508,38.713],[-8.516,38.704],[-8.532,38.688],[-8.615,38.642],[-8.652,38.606],[-8.652,38.598],[-8.651,38.589],[-8.647,38.582],[-8.644,38.574],[-8.638,38.55],[-8.609,38.547],[-8.57,38.529],[-8.541,38.526],[-8.517,38.519],[-8.51,38.522],[-8.509,38.527],[-8.511,38.534],[-8.513,38.539],[-8.509,38.543],[-8.499,38.542],[-8.492,38.538],[-8.489,38.533],[-8.483,38.528],[-8.474,38.523],[-8.462,38.519],[-8.433,38.52],[-8.419,38.524],[-8.396,38.536],[-8.377,38.539],[-8.369,38.536],[-8.349,38.517],[-8.336,38.506],[-8.331,38.501],[-8.331,38.5],[-8.331,38.499],[-8.33,38.496],[-8.329,38.49],[-8.316,38.462],[-8.316,38.457],[-8.32,38.453],[-8.32,38.448],[-8.315,38.442],[-8.301,38.437],[-8.294,38.433],[-8.289,38.425],[-8.292,38.407],[-8.308,38.385],[-8.308,38.377],[-8.302,38.374],[-8.28,38.368],[-8.267,38.359],[-8.246,38.349],[-8.237,38.347],[-8.227,38.346],[-8.219,38.346],[-8.2,38.341],[-8.162,38.318],[-8.138,38.276],[-8.13,38.251],[-8.131,38.241],[-8.13,38.235],[-8.135,38.223],[-8.17,38.215],[-8.188,38.209],[-8.223,38.202],[-8.231,38.198],[-8.235,38.187],[-8.242,38.179],[-8.277,38.181],[-8.285,38.176],[-8.288,38.17],[-8.289,38.162],[-8.296,38.144],[-8.303,38.141],[-8.311,38.143],[-8.318,38.148],[-8.328,38.151],[-8.335,38.15],[-8.341,38.145],[-8.348,38.143],[-8.35,38.139],[-8.351,38.135],[-8.351,38.129],[-8.352,38.124],[-8.357,38.115],[-8.359,38.112],[-8.363,38.107],[-8.368,38.107],[-8.374,38.109],[-8.379,38.111],[-8.386,38.111],[-8.391,38.102],[-8.394,38.094],[-8.397,38.088],[-8.398,38.083],[-8.401,38.076],[-8.401,38.07],[-8.399,38.065],[-8.394,38.055],[-8.375,38.043],[-8.36,38.029],[-8.347,38.024],[-8.336,38.022],[-8.323,38.021],[-8.309,38.013],[-8.303,38.003],[-8.293,37.982],[-8.293,37.953],[-8.299,37.909],[-8.311,37.882],[-8.315,37.875],[-8.329,37.847],[-8.358,37.859],[-8.362,37.86],[-8.389,37.86],[-8.432,37.867],[-8.522,37.853],[-8.539,37.846],[-8.549,37.839],[-8.551,37.832],[-8.556,37.825],[-8.573,37.811],[-8.578,37.804],[-8.587,37.781],[-8.588,37.774],[-8.59,37.766],[-8.596,37.759],[-8.613,37.754],[-8.624,37.755],[-8.641,37.761],[-8.648,37.765],[-8.656,37.769],[-8.664,37.771],[-8.67,37.768],[-8.674,37.763],[-8.678,37.758],[-8.684,37.758],[-8.688,37.762],[-8.698,37.776],[-8.723,37.801],[-8.727,37.806],[-8.734,37.813],[-8.751,37.818],[-8.758,37.816],[-8.767,37.813],[-8.774,37.81],[-8.781,37.81],[-8.786,37.813],[-8.792,37.819],[-8.801,37.827]]]}},{"type":"Feature","id":"PT-16","properties":{"id":"PT-16","countryCode":"PT","isoSubdivision":"PT-16","name":"Viana do Castelo","name_en":"Viana do Castelo","name_ko":"비아나두카스텔루현","type":"District","labelLongitude":-8.499,"labelLatitude":41.91,"minZoom":7.7},"geometry":{"type":"Polygon","coordinates":[[[-8.222,42.154],[-8.213,42.144],[-8.204,42.129],[-8.207,42.086],[-8.204,42.07],[-8.191,42.062],[-8.176,42.065],[-8.158,42.071],[-8.138,42.073],[-8.118,42.067],[-8.103,42.056],[-8.095,42.041],[-8.097,42.023],[-8.108,42.011],[-8.124,42.001],[-8.153,41.987],[-8.182,41.965],[-8.221,41.923],[-8.23,41.905],[-8.232,41.886],[-8.22,41.868],[-8.185,41.858],[-8.177,41.85],[-8.175,41.837],[-8.179,41.813],[-8.18,41.812],[-8.184,41.811],[-8.196,41.811],[-8.291,41.773],[-8.315,41.766],[-8.403,41.763],[-8.418,41.76],[-8.432,41.756],[-8.439,41.752],[-8.457,41.741],[-8.474,41.736],[-8.482,41.736],[-8.49,41.738],[-8.498,41.736],[-8.503,41.734],[-8.511,41.727],[-8.514,41.72],[-8.516,41.712],[-8.518,41.697],[-8.52,41.689],[-8.523,41.683],[-8.532,41.676],[-8.537,41.669],[-8.539,41.663],[-8.534,41.652],[-8.552,41.629],[-8.559,41.629],[-8.568,41.631],[-8.579,41.636],[-8.599,41.639],[-8.629,41.647],[-8.637,41.651],[-8.642,41.648],[-8.645,41.644],[-8.653,41.639],[-8.661,41.638],[-8.713,41.636],[-8.786,41.616],[-8.795,41.615],[-8.815,41.617],[-8.82,41.618],[-8.82,41.63],[-8.829,41.648],[-8.831,41.672],[-8.827,41.683],[-8.805,41.689],[-8.743,41.697],[-8.726,41.703],[-8.71,41.712],[-8.696,41.722],[-8.807,41.697],[-8.83,41.695],[-8.843,41.696],[-8.861,41.704],[-8.88,41.737],[-8.88,41.766],[-8.872,41.811],[-8.879,41.839],[-8.875,41.85],[-8.868,41.859],[-8.797,41.903],[-8.763,41.932],[-8.751,41.969],[-8.74,41.975],[-8.717,41.984],[-8.691,41.99],[-8.671,42],[-8.663,42.01],[-8.653,42.031],[-8.644,42.041],[-8.627,42.051],[-8.609,42.054],[-8.573,42.054],[-8.554,42.06],[-8.52,42.078],[-8.501,42.083],[-8.347,42.102],[-8.33,42.108],[-8.304,42.126],[-8.295,42.13],[-8.288,42.131],[-8.271,42.132],[-8.252,42.138],[-8.222,42.154]]]}},{"type":"Feature","id":"PT-17","properties":{"id":"PT-17","countryCode":"PT","isoSubdivision":"PT-17","name":"Vila Real","name_en":"Vila Real","name_ko":"빌라헤알현","type":"District","labelLongitude":-7.645,"labelLatitude":41.528,"minZoom":7.7},"geometry":{"type":"Polygon","coordinates":[[[-8.05,41.816],[-8.049,41.816],[-8.016,41.842],[-8.006,41.854],[-7.994,41.864],[-7.979,41.869],[-7.963,41.867],[-7.945,41.867],[-7.935,41.88],[-7.93,41.897],[-7.926,41.908],[-7.906,41.914],[-7.903,41.887],[-7.897,41.858],[-7.865,41.858],[-7.858,41.864],[-7.854,41.87],[-7.85,41.876],[-7.839,41.878],[-7.812,41.877],[-7.75,41.888],[-7.722,41.899],[-7.706,41.896],[-7.679,41.881],[-7.661,41.875],[-7.607,41.873],[-7.623,41.842],[-7.622,41.832],[-7.606,41.826],[-7.588,41.824],[-7.567,41.827],[-7.547,41.832],[-7.532,41.84],[-7.526,41.847],[-7.525,41.854],[-7.523,41.86],[-7.516,41.865],[-7.508,41.865],[-7.493,41.857],[-7.483,41.856],[-7.469,41.853],[-7.457,41.839],[-7.447,41.822],[-7.443,41.806],[-7.43,41.815],[-7.405,41.835],[-7.392,41.842],[-7.377,41.844],[-7.341,41.843],[-7.322,41.845],[-7.251,41.864],[-7.219,41.879],[-7.209,41.889],[-7.207,41.884],[-7.202,41.864],[-7.204,41.854],[-7.206,41.834],[-7.204,41.816],[-7.201,41.806],[-7.192,41.788],[-7.174,41.769],[-7.173,41.761],[-7.173,41.747],[-7.175,41.742],[-7.181,41.736],[-7.186,41.734],[-7.195,41.727],[-7.22,41.688],[-7.253,41.604],[-7.257,41.578],[-7.255,41.565],[-7.252,41.557],[-7.247,41.55],[-7.242,41.543],[-7.238,41.537],[-7.236,41.53],[-7.24,41.525],[-7.247,41.522],[-7.256,41.52],[-7.265,41.52],[-7.275,41.517],[-7.284,41.508],[-7.296,41.491],[-7.303,41.476],[-7.312,41.467],[-7.32,41.463],[-7.329,41.461],[-7.362,41.442],[-7.362,41.393],[-7.356,41.372],[-7.35,41.359],[-7.341,41.351],[-7.317,41.34],[-7.352,41.332],[-7.369,41.318],[-7.371,41.307],[-7.369,41.301],[-7.372,41.297],[-7.381,41.289],[-7.39,41.28],[-7.395,41.267],[-7.395,41.258],[-7.395,41.252],[-7.393,41.246],[-7.397,41.245],[-7.411,41.243],[-7.42,41.24],[-7.424,41.234],[-7.426,41.229],[-7.432,41.216],[-7.55,41.183],[-7.597,41.178],[-7.639,41.181],[-7.641,41.181],[-7.659,41.18],[-7.673,41.174],[-7.702,41.159],[-7.719,41.155],[-7.738,41.153],[-7.757,41.153],[-7.774,41.157],[-7.786,41.164],[-7.81,41.182],[-7.823,41.186],[-7.843,41.184],[-7.896,41.159],[-7.891,41.183],[-7.889,41.207],[-7.875,41.247],[-7.88,41.248],[-7.893,41.256],[-7.909,41.279],[-7.914,41.294],[-7.909,41.307],[-7.937,41.322],[-7.951,41.328],[-7.958,41.337],[-7.96,41.345],[-7.959,41.354],[-7.976,41.37],[-7.967,41.388],[-7.967,41.393],[-7.969,41.4],[-7.967,41.403],[-7.964,41.404],[-7.959,41.407],[-7.956,41.414],[-7.942,41.432],[-7.939,41.44],[-7.937,41.445],[-7.942,41.452],[-7.933,41.476],[-7.924,41.486],[-7.918,41.488],[-7.914,41.489],[-7.906,41.487],[-7.895,41.494],[-7.89,41.506],[-7.887,41.509],[-7.868,41.516],[-7.856,41.526],[-7.816,41.571],[-7.814,41.583],[-7.83,41.605],[-7.836,41.61],[-7.846,41.614],[-7.867,41.596],[-7.896,41.59],[-7.909,41.59],[-7.947,41.596],[-7.957,41.599],[-7.967,41.603],[-7.978,41.605],[-7.998,41.611],[-7.995,41.656],[-7.992,41.666],[-7.988,41.678],[-7.991,41.684],[-7.996,41.687],[-8.022,41.7],[-8.029,41.702],[-8.035,41.702],[-8.054,41.696],[-8.061,41.695],[-8.07,41.696],[-8.078,41.696],[-8.085,41.696],[-8.092,41.694],[-8.104,41.692],[-8.118,41.692],[-8.095,41.712],[-8.09,41.718],[-8.085,41.728],[-8.076,41.749],[-8.067,41.761],[-8.06,41.79],[-8.055,41.797],[-8.049,41.803],[-8.048,41.809],[-8.048,41.814],[-8.05,41.816]]]}},{"type":"Feature","id":"PT-18","properties":{"id":"PT-18","countryCode":"PT","isoSubdivision":"PT-18","name":"Viseu","name_en":"Viseu","name_ko":"비제우현","type":"District","labelLongitude":-7.827,"labelLatitude":40.842,"minZoom":7.7},"geometry":{"type":"Polygon","coordinates":[[[-7.597,41.178],[-7.55,41.183],[-7.432,41.216],[-7.417,41.216],[-7.402,41.207],[-7.372,41.175],[-7.36,41.166],[-7.326,41.158],[-7.301,41.159],[-7.326,41.095],[-7.335,41.065],[-7.338,41.047],[-7.334,41.02],[-7.346,41.013],[-7.371,41.014],[-7.374,41.01],[-7.373,41.004],[-7.366,40.992],[-7.357,40.987],[-7.348,40.982],[-7.339,40.98],[-7.334,40.973],[-7.332,40.966],[-7.333,40.955],[-7.341,40.938],[-7.373,40.916],[-7.411,40.922],[-7.423,40.917],[-7.419,40.897],[-7.415,40.891],[-7.412,40.881],[-7.413,40.871],[-7.435,40.83],[-7.446,40.82],[-7.462,40.82],[-7.469,40.827],[-7.475,40.831],[-7.508,40.858],[-7.523,40.867],[-7.533,40.87],[-7.558,40.872],[-7.57,40.867],[-7.577,40.861],[-7.582,40.857],[-7.593,40.83],[-7.604,40.814],[-7.615,40.802],[-7.619,40.795],[-7.617,40.788],[-7.609,40.78],[-7.584,40.765],[-7.579,40.759],[-7.576,40.752],[-7.576,40.745],[-7.578,40.739],[-7.589,40.729],[-7.579,40.714],[-7.557,40.703],[-7.54,40.685],[-7.545,40.661],[-7.558,40.648],[-7.582,40.593],[-7.578,40.572],[-7.644,40.564],[-7.687,40.552],[-7.718,40.534],[-7.748,40.526],[-7.774,40.511],[-7.785,40.509],[-7.815,40.505],[-7.825,40.498],[-7.845,40.494],[-7.856,40.488],[-7.867,40.478],[-7.901,40.459],[-7.925,40.43],[-7.942,40.423],[-7.986,40.399],[-8.04,40.382],[-8.116,40.339],[-8.174,40.346],[-8.217,40.34],[-8.221,40.337],[-8.224,40.332],[-8.224,40.328],[-8.227,40.323],[-8.229,40.321],[-8.235,40.321],[-8.243,40.327],[-8.259,40.332],[-8.275,40.343],[-8.298,40.356],[-8.329,40.362],[-8.339,40.368],[-8.35,40.372],[-8.354,40.403],[-8.326,40.437],[-8.322,40.445],[-8.321,40.458],[-8.331,40.472],[-8.333,40.479],[-8.331,40.484],[-8.308,40.498],[-8.253,40.515],[-8.265,40.53],[-8.271,40.536],[-8.278,40.541],[-8.284,40.547],[-8.29,40.565],[-8.301,40.587],[-8.302,40.594],[-8.296,40.601],[-8.289,40.607],[-8.249,40.619],[-8.265,40.629],[-8.283,40.635],[-8.288,40.638],[-8.295,40.651],[-8.296,40.679],[-8.299,40.686],[-8.305,40.694],[-8.319,40.706],[-8.324,40.712],[-8.325,40.718],[-8.326,40.723],[-8.325,40.727],[-8.316,40.74],[-8.292,40.754],[-8.269,40.774],[-8.249,40.807],[-8.24,40.819],[-8.238,40.825],[-8.25,40.855],[-8.219,40.858],[-8.211,40.855],[-8.199,40.854],[-8.187,40.855],[-8.169,40.862],[-8.158,40.862],[-8.149,40.859],[-8.141,40.855],[-8.133,40.852],[-8.124,40.852],[-8.115,40.853],[-8.11,40.86],[-8.11,40.872],[-8.118,40.89],[-8.123,40.916],[-8.128,40.929],[-8.129,40.936],[-8.126,40.948],[-8.121,40.959],[-8.089,40.993],[-8.088,40.999],[-8.087,41],[-8.087,41.002],[-8.088,41.007],[-8.091,41.01],[-8.098,41.011],[-8.111,41.002],[-8.114,40.999],[-8.117,40.996],[-8.124,40.984],[-8.137,40.982],[-8.149,40.982],[-8.224,41.009],[-8.224,41.031],[-8.223,41.038],[-8.226,41.048],[-8.23,41.054],[-8.29,41.083],[-8.223,41.103],[-8.19,41.109],[-8.09,41.104],[-8.062,41.106],[-7.94,41.138],[-7.896,41.159],[-7.843,41.184],[-7.823,41.186],[-7.81,41.182],[-7.786,41.164],[-7.774,41.157],[-7.757,41.153],[-7.738,41.153],[-7.719,41.155],[-7.702,41.159],[-7.673,41.174],[-7.659,41.18],[-7.641,41.181],[-7.639,41.181],[-7.597,41.178]]]}},{"type":"Feature","id":"PT-20","properties":{"id":"PT-20","countryCode":"PT","isoSubdivision":"PT-20","name":"Azores","name_en":"Azores","name_ko":"아소르스 제도","type":"Autonomous region","labelLongitude":-28.039,"labelLatitude":38.635,"minZoom":7.7},"geometry":{"type":"MultiPolygon","coordinates":[[[[-25.067,37.021],[-25.047,37.011],[-25.029,36.992],[-25.017,36.97],[-25.012,36.949],[-25.027,36.934],[-25.061,36.937],[-25.119,36.953],[-25.152,36.946],[-25.169,36.946],[-25.177,36.956],[-25.183,36.969],[-25.195,36.98],[-25.202,36.99],[-25.191,37],[-25.17,37.016],[-25.134,37.023],[-25.094,37.024],[-25.067,37.021]]],[[[-25.198,37.864],[-25.159,37.852],[-25.135,37.822],[-25.132,37.786],[-25.157,37.755],[-25.195,37.741],[-25.328,37.727],[-25.372,37.717],[-25.42,37.714],[-25.465,37.715],[-25.488,37.714],[-25.506,37.707],[-25.533,37.72],[-25.559,37.729],[-25.616,37.741],[-25.704,37.744],[-25.825,37.815],[-25.859,37.854],[-25.841,37.906],[-25.765,37.912],[-25.739,37.906],[-25.704,37.883],[-25.698,37.874],[-25.697,37.863],[-25.694,37.853],[-25.689,37.846],[-25.681,37.843],[-25.554,37.83],[-25.539,37.833],[-25.513,37.847],[-25.499,37.851],[-25.49,37.848],[-25.469,37.835],[-25.458,37.83],[-25.442,37.837],[-25.34,37.862],[-25.198,37.864]]],[[[-28.109,38.447],[-28.064,38.443],[-28.047,38.433],[-28.041,38.409],[-28.054,38.399],[-28.085,38.398],[-28.163,38.407],[-28.185,38.406],[-28.205,38.4],[-28.242,38.378],[-28.254,38.383],[-28.263,38.395],[-28.275,38.406],[-28.297,38.411],[-28.439,38.414],[-28.46,38.406],[-28.525,38.454],[-28.549,38.484],[-28.549,38.529],[-28.519,38.55],[-28.485,38.558],[-28.415,38.556],[-28.375,38.55],[-28.275,38.502],[-28.239,38.49],[-28.237,38.488],[-28.226,38.484],[-28.206,38.471],[-28.196,38.468],[-28.174,38.465],[-28.109,38.447]]],[[[-28.61,38.597],[-28.596,38.553],[-28.603,38.552],[-28.635,38.541],[-28.644,38.535],[-28.638,38.529],[-28.635,38.526],[-28.632,38.524],[-28.623,38.522],[-28.636,38.516],[-28.648,38.516],[-28.672,38.522],[-28.684,38.521],[-28.714,38.515],[-28.727,38.515],[-28.75,38.524],[-28.775,38.554],[-28.795,38.57],[-28.841,38.591],[-28.842,38.599],[-28.809,38.604],[-28.78,38.605],[-28.766,38.607],[-28.754,38.612],[-28.745,38.619],[-28.729,38.639],[-28.72,38.645],[-28.633,38.614],[-28.61,38.597]]],[[[-27.891,38.604],[-27.817,38.583],[-27.779,38.567],[-27.761,38.549],[-27.777,38.544],[-27.796,38.542],[-27.836,38.543],[-27.852,38.547],[-27.885,38.561],[-27.915,38.565],[-27.932,38.57],[-27.949,38.578],[-27.962,38.587],[-27.977,38.593],[-28.004,38.589],[-28.021,38.597],[-28.035,38.59],[-28.044,38.594],[-28.062,38.612],[-28.074,38.618],[-28.178,38.645],[-28.196,38.656],[-28.216,38.682],[-28.223,38.686],[-28.231,38.685],[-28.235,38.683],[-28.239,38.683],[-28.247,38.686],[-28.25,38.69],[-28.249,38.694],[-28.249,38.698],[-28.257,38.7],[-28.265,38.703],[-28.312,38.735],[-28.316,38.742],[-28.316,38.755],[-28.297,38.749],[-28.264,38.732],[-28.25,38.728],[-28.233,38.726],[-28.034,38.666],[-27.891,38.604]]],[[[-27.02,38.694],[-27.026,38.69],[-27.048,38.683],[-27.054,38.679],[-27.056,38.671],[-27.052,38.654],[-27.054,38.645],[-27.06,38.641],[-27.089,38.631],[-27.114,38.639],[-27.182,38.639],[-27.204,38.653],[-27.217,38.641],[-27.228,38.641],[-27.253,38.653],[-27.279,38.657],[-27.305,38.659],[-27.328,38.666],[-27.353,38.684],[-27.373,38.707],[-27.383,38.728],[-27.392,38.759],[-27.369,38.783],[-27.332,38.798],[-27.298,38.804],[-27.144,38.796],[-27.116,38.786],[-27.075,38.767],[-27.043,38.744],[-27.038,38.724],[-27.041,38.714],[-27.033,38.709],[-27.023,38.703],[-27.02,38.694]]],[[[-27.983,39.015],[-28.004,39.016],[-28.025,39.019],[-28.045,39.026],[-28.062,39.036],[-28.073,39.053],[-28.072,39.068],[-28.055,39.098],[-28.045,39.103],[-28.034,39.105],[-28.024,39.103],[-28.014,39.098],[-28.007,39.105],[-27.991,39.088],[-27.958,39.066],[-27.942,39.053],[-27.936,39.036],[-27.947,39.024],[-27.966,39.017],[-27.983,39.015]]],[[[-31.208,39.509],[-31.199,39.502],[-31.186,39.497],[-31.173,39.495],[-31.16,39.502],[-31.141,39.483],[-31.133,39.466],[-31.132,39.423],[-31.139,39.4],[-31.157,39.373],[-31.177,39.356],[-31.194,39.365],[-31.213,39.358],[-31.234,39.356],[-31.255,39.358],[-31.269,39.365],[-31.278,39.378],[-31.285,39.398],[-31.285,39.416],[-31.276,39.426],[-31.281,39.443],[-31.276,39.457],[-31.267,39.472],[-31.263,39.492],[-31.256,39.507],[-31.239,39.518],[-31.219,39.522],[-31.201,39.522],[-31.208,39.509]]],[[[-31.117,39.728],[-31.083,39.723],[-31.08,39.693],[-31.1,39.664],[-31.132,39.659],[-31.133,39.665],[-31.149,39.696],[-31.153,39.701],[-31.15,39.711],[-31.141,39.721],[-31.129,39.727],[-31.117,39.728]]]]}},{"type":"Feature","id":"PT-30","properties":{"id":"PT-30","countryCode":"PT","isoSubdivision":"PT-30","name":"Madeira","name_en":"Madeira","name_ko":"마데이라 제도","type":"Autonomous region","labelLongitude":-16.946,"labelLatitude":32.743,"minZoom":7.7},"geometry":{"type":"MultiPolygon","coordinates":[[[[-16.487,32.492],[-16.522,32.539],[-16.53,32.549],[-16.537,32.558],[-16.541,32.569],[-16.542,32.581],[-16.525,32.567],[-16.507,32.544],[-16.492,32.517],[-16.487,32.492]]],[[[-16.789,32.687],[-16.806,32.657],[-16.848,32.644],[-16.896,32.642],[-16.977,32.647],[-17.143,32.706],[-17.181,32.726],[-17.214,32.751],[-17.241,32.779],[-17.25,32.797],[-17.252,32.815],[-17.246,32.829],[-17.231,32.834],[-17.225,32.839],[-17.2,32.868],[-17.191,32.873],[-17.185,32.874],[-17.178,32.873],[-17.166,32.868],[-17.156,32.861],[-17.132,32.839],[-17.122,32.834],[-17.116,32.833],[-17.094,32.828],[-17.068,32.814],[-17.041,32.812],[-17.014,32.817],[-16.995,32.828],[-16.98,32.833],[-16.958,32.838],[-16.92,32.841],[-16.903,32.836],[-16.873,32.817],[-16.861,32.813],[-16.809,32.78],[-16.797,32.775],[-16.786,32.772],[-16.747,32.771],[-16.73,32.767],[-16.714,32.759],[-16.704,32.765],[-16.693,32.767],[-16.682,32.765],[-16.673,32.759],[-16.69,32.755],[-16.725,32.741],[-16.738,32.738],[-16.75,32.731],[-16.782,32.696],[-16.789,32.687]]],[[[-16.34,33.057],[-16.353,33.044],[-16.364,33.034],[-16.378,33.032],[-16.398,33.04],[-16.398,33.047],[-16.388,33.047],[-16.38,33.051],[-16.374,33.058],[-16.362,33.09],[-16.341,33.106],[-16.317,33.111],[-16.296,33.101],[-16.289,33.109],[-16.29,33.079],[-16.286,33.068],[-16.275,33.06],[-16.311,33.066],[-16.326,33.066],[-16.34,33.057]]],[[[-16.028,30.034],[-16.023,30.032],[-16.023,30.029],[-16.027,30.03],[-16.028,30.034]]],[[[-15.864,30.153],[-15.855,30.147],[-15.855,30.14],[-15.86,30.133],[-15.863,30.135],[-15.87,30.136],[-15.875,30.138],[-15.874,30.14],[-15.874,30.142],[-15.873,30.144],[-15.864,30.153]]]]}}]}
