{"type":"FeatureCollection","features":[{"type":"Feature","id":"PW-002","properties":{"id":"PW-002","countryCode":"PW","isoSubdivision":"PW-002","name":"Aimeliik","name_en":"Aimeliik","name_ko":"아이멜리크","type":"Principal subdivision","labelLongitude":134.533,"labelLatitude":7.432,"minZoom":11},"geometry":{"type":"Polygon","coordinates":[[[134.511,7.404],[134.506,7.424],[134.499,7.438],[134.491,7.445],[134.486,7.444],[134.483,7.446],[134.484,7.459],[134.488,7.47],[134.523,7.47],[134.542,7.461],[134.55,7.441],[134.566,7.432],[134.553,7.412],[134.53,7.397],[134.511,7.404]]]}},{"type":"Feature","id":"PW-004","properties":{"id":"PW-004","countryCode":"PW","isoSubdivision":"PW-004","name":"Airai","name_en":"Airai","name_ko":"아이라이","type":"Principal subdivision","labelLongitude":134.571,"labelLatitude":7.4,"minZoom":11},"geometry":{"type":"Polygon","coordinates":[[[134.594,7.421],[134.601,7.384],[134.596,7.37],[134.592,7.367],[134.587,7.369],[134.575,7.37],[134.566,7.375],[134.559,7.376],[134.555,7.373],[134.544,7.359],[134.539,7.356],[134.528,7.358],[134.524,7.361],[134.522,7.367],[134.513,7.392],[134.511,7.404],[134.53,7.397],[134.553,7.412],[134.566,7.432],[134.594,7.421]]]}},{"type":"Feature","id":"PW-010","properties":{"id":"PW-010","countryCode":"PW","isoSubdivision":"PW-010","name":"Angaur","name_en":"Angaur","name_ko":"앙가우르","type":"Principal subdivision","labelLongitude":134.158,"labelLatitude":6.914,"minZoom":11},"geometry":{"type":"Polygon","coordinates":[[[134.16,6.884],[134.145,6.899],[134.137,6.919],[134.14,6.934],[134.16,6.935],[134.173,6.925],[134.178,6.909],[134.173,6.894],[134.16,6.884]]]}},{"type":"Feature","id":"PW-050","properties":{"id":"PW-050","countryCode":"PW","isoSubdivision":"PW-050","name":"Hatohobei","name_en":"Hatohobei","name_ko":"하토호베이","type":"Principal subdivision","labelLongitude":131.794,"labelLatitude":2.963,"minZoom":11},"geometry":{"type":"MultiPolygon","coordinates":[[[[131.142,3.047],[131.161,3.059],[131.184,3.06],[131.192,3.049],[131.18,3.033],[131.16,3.023],[131.138,3.019],[131.131,3.029],[131.142,3.047]]],[[[131.792,2.978],[131.806,2.974],[131.813,2.96],[131.795,2.949],[131.779,2.953],[131.775,2.964],[131.785,2.974],[131.792,2.978]]]]}},{"type":"Feature","id":"PW-100","properties":{"id":"PW-100","countryCode":"PW","isoSubdivision":"PW-100","name":"Kayangel","name_en":"Kayangel","name_ko":"카양겔","type":"Principal subdivision","labelLongitude":134.711,"labelLatitude":8.07,"minZoom":11},"geometry":{"type":"Polygon","coordinates":[[[134.71,8.097],[134.722,8.096],[134.727,8.083],[134.718,8.059],[134.701,8.05],[134.693,8.061],[134.693,8.076],[134.71,8.097]]]}},{"type":"Feature","id":"PW-150","properties":{"id":"PW-150","countryCode":"PW","isoSubdivision":"PW-150","name":"Koror","name_en":"Koror","name_ko":"코로르","type":"Principal subdivision","labelLongitude":134.446,"labelLatitude":7.266,"minZoom":11},"geometry":{"type":"MultiPolygon","coordinates":[[[[134.464,7.294],[134.449,7.29],[134.451,7.282],[134.459,7.272],[134.464,7.264],[134.458,7.257],[134.446,7.254],[134.426,7.253],[134.417,7.248],[134.393,7.225],[134.378,7.219],[134.365,7.222],[134.355,7.228],[134.349,7.238],[134.347,7.25],[134.348,7.268],[134.351,7.271],[134.383,7.238],[134.389,7.239],[134.402,7.246],[134.437,7.278],[134.444,7.287],[134.445,7.299],[134.441,7.31],[134.441,7.317],[134.449,7.315],[134.455,7.312],[134.459,7.308],[134.462,7.302],[134.464,7.294]]],[[[134.471,7.362],[134.489,7.358],[134.512,7.347],[134.527,7.332],[134.522,7.311],[134.512,7.309],[134.503,7.319],[134.497,7.334],[134.491,7.343],[134.478,7.347],[134.468,7.344],[134.449,7.328],[134.448,7.343],[134.45,7.355],[134.457,7.363],[134.471,7.362]]]]}},{"type":"Feature","id":"PW-212","properties":{"id":"PW-212","countryCode":"PW","isoSubdivision":"PW-212","name":"Melekeok","name_en":"Melekeok","name_ko":"멜레케오크","type":"Principal subdivision","labelLongitude":134.613,"labelLatitude":7.517,"minZoom":11},"geometry":{"type":"Polygon","coordinates":[[[134.626,7.531],[134.625,7.524],[134.636,7.509],[134.636,7.503],[134.631,7.499],[134.628,7.489],[134.619,7.492],[134.61,7.488],[134.605,7.498],[134.595,7.512],[134.608,7.542],[134.626,7.531]]]}},{"type":"Feature","id":"PW-214","properties":{"id":"PW-214","countryCode":"PW","isoSubdivision":"PW-214","name":"Ngaraard","name_en":"Ngaraard","name_ko":"가라르드","type":"Principal subdivision","labelLongitude":134.65,"labelLatitude":7.651,"minZoom":11},"geometry":{"type":"Polygon","coordinates":[[[134.66,7.686],[134.663,7.639],[134.658,7.591],[134.624,7.6],[134.623,7.626],[134.635,7.629],[134.641,7.646],[134.635,7.684],[134.66,7.686]]]}},{"type":"Feature","id":"PW-218","properties":{"id":"PW-218","countryCode":"PW","isoSubdivision":"PW-218","name":"Ngarchelong","name_en":"Ngarchelong","name_ko":"가르첼롱","type":"Principal subdivision","labelLongitude":134.641,"labelLatitude":7.707,"minZoom":11},"geometry":{"type":"Polygon","coordinates":[[[134.635,7.684],[134.633,7.698],[134.624,7.718],[134.621,7.73],[134.625,7.734],[134.634,7.732],[134.643,7.726],[134.648,7.719],[134.66,7.686],[134.635,7.684]]]}},{"type":"Feature","id":"PW-222","properties":{"id":"PW-222","countryCode":"PW","isoSubdivision":"PW-222","name":"Ngardmau","name_en":"Ngardmau","name_ko":"가르드마우","type":"Principal subdivision","labelLongitude":134.597,"labelLatitude":7.601,"minZoom":11},"geometry":{"type":"Polygon","coordinates":[[[134.547,7.58],[134.546,7.582],[134.557,7.601],[134.569,7.614],[134.586,7.621],[134.611,7.623],[134.623,7.626],[134.624,7.6],[134.62,7.573],[134.612,7.574],[134.598,7.59],[134.585,7.576],[134.547,7.58]]]}},{"type":"Feature","id":"PW-224","properties":{"id":"PW-224","countryCode":"PW","isoSubdivision":"PW-224","name":"Ngatpang","name_en":"Ngatpang","name_ko":"가트팡","type":"Principal subdivision","labelLongitude":134.552,"labelLatitude":7.479,"minZoom":11},"geometry":{"type":"Polygon","coordinates":[[[134.488,7.47],[134.493,7.48],[134.501,7.488],[134.512,7.493],[134.515,7.481],[134.524,7.479],[134.534,7.486],[134.539,7.5],[134.536,7.508],[134.528,7.516],[134.544,7.524],[134.581,7.474],[134.566,7.432],[134.55,7.441],[134.542,7.461],[134.523,7.47],[134.488,7.47]]]}},{"type":"Feature","id":"PW-226","properties":{"id":"PW-226","countryCode":"PW","isoSubdivision":"PW-226","name":"Ngchesar","name_en":"Ngchesar","name_ko":"체사르","type":"Principal subdivision","labelLongitude":134.597,"labelLatitude":7.463,"minZoom":11},"geometry":{"type":"Polygon","coordinates":[[[134.628,7.489],[134.623,7.473],[134.6,7.443],[134.594,7.421],[134.566,7.432],[134.581,7.474],[134.595,7.512],[134.605,7.498],[134.61,7.488],[134.619,7.492],[134.628,7.489]]]}},{"type":"Feature","id":"PW-227","properties":{"id":"PW-227","countryCode":"PW","isoSubdivision":"PW-227","name":"Ngeremlengui","name_en":"Ngeremlengui","name_ko":"가렘렝구이","type":"Principal subdivision","labelLongitude":134.575,"labelLatitude":7.538,"minZoom":11},"geometry":{"type":"Polygon","coordinates":[[[134.528,7.516],[134.512,7.528],[134.519,7.535],[134.533,7.554],[134.545,7.562],[134.546,7.561],[134.547,7.567],[134.547,7.58],[134.585,7.576],[134.598,7.59],[134.612,7.574],[134.62,7.573],[134.608,7.542],[134.595,7.512],[134.581,7.474],[134.544,7.524],[134.528,7.516]]]}},{"type":"Feature","id":"PW-228","properties":{"id":"PW-228","countryCode":"PW","isoSubdivision":"PW-228","name":"Ngiwal","name_en":"Ngiwal","name_ko":"기왈","type":"Principal subdivision","labelLongitude":134.636,"labelLatitude":7.573,"minZoom":11},"geometry":{"type":"Polygon","coordinates":[[[134.658,7.591],[134.645,7.557],[134.626,7.531],[134.608,7.542],[134.62,7.573],[134.624,7.6],[134.658,7.591]]]}},{"type":"Feature","id":"PW-350","properties":{"id":"PW-350","countryCode":"PW","isoSubdivision":"PW-350","name":"Peleliu","name_en":"Peleliu","name_ko":"펠렐리우","type":"Principal subdivision","labelLongitude":134.259,"labelLatitude":7.026,"minZoom":11},"geometry":{"type":"Polygon","coordinates":[[[134.271,7.075],[134.279,7.073],[134.283,7.069],[134.284,7.063],[134.285,7.055],[134.281,7.05],[134.271,7.034],[134.28,7.02],[134.276,7.017],[134.266,7.016],[134.258,7.013],[134.243,6.993],[134.234,6.984],[134.23,6.989],[134.236,7.008],[134.271,7.075]]]}},{"type":"Feature","id":"PW-370","properties":{"id":"PW-370","countryCode":"PW","isoSubdivision":"PW-370","name":"Sonsorol","name_en":"Sonsorol","name_ko":"손소롤","type":"Principal subdivision","labelLongitude":132.204,"labelLatitude":5.289,"minZoom":11},"geometry":{"type":"Polygon","coordinates":[[[132.22,5.292],[132.214,5.307],[132.22,5.31],[132.227,5.304],[132.22,5.292]]]}}]}
