{"type":"FeatureCollection","features":[{"type":"Feature","id":"QA-DA","properties":{"id":"QA-DA","countryCode":"QA","isoSubdivision":"QA-DA","name":"Doha","name_en":"Doha","name_ko":"도하","type":"Municipality","labelLongitude":51.528,"labelLatitude":25.269,"minZoom":8.7},"geometry":{"type":"MultiPolygon","coordinates":[[[[51.516,25.383],[51.512,25.33],[51.513,25.308],[51.519,25.297],[51.531,25.292],[51.59,25.284],[51.599,25.275],[51.608,25.255],[51.611,25.238],[51.604,25.238],[51.574,25.243],[51.543,25.218],[51.525,25.248],[51.511,25.26],[51.445,25.36],[51.516,25.383]]],[[[51.494,25.18],[51.477,25.169],[51.462,25.157],[51.429,25.197],[51.453,25.215],[51.494,25.18]]]]}},{"type":"Feature","id":"QA-KH","properties":{"id":"QA-KH","countryCode":"QA","isoSubdivision":"QA-KH","name":"Al Khor","name_en":"Al Khor","name_ko":"알코르","type":"Municipality","labelLongitude":51.421,"labelLatitude":25.751,"minZoom":8.7},"geometry":{"type":"Polygon","coordinates":[[[51.417,25.952],[51.424,25.951],[51.468,25.954],[51.492,25.952],[51.512,25.946],[51.529,25.937],[51.546,25.926],[51.559,25.914],[51.57,25.898],[51.577,25.881],[51.595,25.772],[51.594,25.758],[51.592,25.747],[51.584,25.742],[51.578,25.745],[51.572,25.76],[51.563,25.763],[51.555,25.759],[51.548,25.749],[51.545,25.737],[51.546,25.728],[51.555,25.721],[51.564,25.722],[51.57,25.727],[51.574,25.735],[51.59,25.712],[51.577,25.689],[51.557,25.682],[51.553,25.708],[51.539,25.704],[51.505,25.687],[51.52,25.682],[51.535,25.673],[51.547,25.663],[51.553,25.653],[51.549,25.631],[51.536,25.622],[51.51,25.637],[51.453,25.658],[51.406,25.611],[51.401,25.551],[51.302,25.551],[51.287,25.566],[51.247,25.619],[51.221,25.68],[51.214,25.732],[51.105,25.732],[51.105,25.775],[50.95,25.775],[50.964,25.784],[50.973,25.798],[50.976,25.814],[50.972,25.825],[50.973,25.825],[51.104,25.824],[51.104,25.928],[51.244,25.928],[51.244,25.899],[51.297,25.899],[51.297,25.868],[51.346,25.867],[51.346,25.829],[51.417,25.83],[51.416,25.948],[51.417,25.952]]]}},{"type":"Feature","id":"QA-MS","properties":{"id":"QA-MS","countryCode":"QA","isoSubdivision":"QA-MS","name":"Madinat ash Shamal","name_en":"Madinat ash Shamal","name_ko":"아시샤말","type":"Municipality","labelLongitude":51.183,"labelLatitude":26.01,"minZoom":8.7},"geometry":{"type":"Polygon","coordinates":[[[50.972,25.825],[50.971,25.831],[50.964,25.824],[50.949,25.838],[50.951,25.859],[50.977,25.916],[50.981,25.936],[50.984,25.981],[50.993,25.976],[50.996,25.973],[50.999,25.967],[51.005,25.967],[51.027,26.027],[51.047,26.053],[51.076,26.064],[51.091,26.067],[51.133,26.082],[51.142,26.088],[51.147,26.103],[51.171,26.125],[51.176,26.14],[51.194,26.134],[51.215,26.139],[51.251,26.16],[51.331,26.121],[51.347,26.105],[51.348,26.086],[51.346,26.061],[51.347,26.039],[51.358,26.03],[51.377,26.023],[51.382,26.006],[51.383,25.986],[51.388,25.967],[51.404,25.954],[51.417,25.952],[51.416,25.948],[51.417,25.83],[51.346,25.829],[51.346,25.867],[51.297,25.868],[51.297,25.899],[51.244,25.899],[51.244,25.928],[51.104,25.928],[51.104,25.824],[50.973,25.825],[50.972,25.825]]]}},{"type":"Feature","id":"QA-RA","properties":{"id":"QA-RA","countryCode":"QA","isoSubdivision":"QA-RA","name":"Al Rayyan","name_en":"Al Rayyan","name_ko":"알라이얀","type":"Municipality","labelLongitude":51.161,"labelLatitude":25.165,"minZoom":8.7},"geometry":{"type":"Polygon","coordinates":[[[51.039,24.56],[50.979,24.568],[50.929,24.587],[50.881,24.636],[50.808,24.747],[50.827,24.749],[50.853,24.77],[50.86,24.796],[50.851,24.891],[50.843,24.916],[50.8,24.989],[50.797,25.004],[50.807,25.032],[50.81,25.051],[50.809,25.069],[50.802,25.077],[50.776,25.092],[50.768,25.126],[50.767,25.163],[50.758,25.186],[50.765,25.204],[50.763,25.225],[50.759,25.248],[50.758,25.269],[50.766,25.324],[50.765,25.344],[50.751,25.42],[50.762,25.463],[50.764,25.482],[50.751,25.495],[50.778,25.527],[50.797,25.53],[50.808,25.517],[50.812,25.499],[50.821,25.491],[50.82,25.472],[50.847,25.467],[50.831,25.508],[50.828,25.525],[50.827,25.543],[50.829,25.554],[50.832,25.566],[50.833,25.579],[50.827,25.591],[50.819,25.596],[50.797,25.6],[50.785,25.605],[50.796,25.617],[50.81,25.621],[50.823,25.622],[50.837,25.629],[50.84,25.635],[50.847,25.65],[50.851,25.653],[50.857,25.651],[50.864,25.641],[50.871,25.639],[50.876,25.632],[50.874,25.615],[50.868,25.588],[50.868,25.567],[50.869,25.56],[50.877,25.541],[50.882,25.535],[50.889,25.529],[50.899,25.532],[50.901,25.535],[50.9,25.54],[50.904,25.563],[50.905,25.587],[50.909,25.598],[50.921,25.608],[50.928,25.605],[50.936,25.598],[50.95,25.598],[50.956,25.605],[50.97,25.634],[50.978,25.646],[50.95,25.636],[50.924,25.632],[50.903,25.64],[50.889,25.667],[50.888,25.681],[50.895,25.728],[50.897,25.733],[50.907,25.74],[50.909,25.745],[50.908,25.749],[50.903,25.755],[50.902,25.759],[50.902,25.79],[50.916,25.786],[50.92,25.794],[50.924,25.805],[50.933,25.811],[50.94,25.807],[50.946,25.798],[50.949,25.787],[50.95,25.775],[51.105,25.775],[51.105,25.732],[51.214,25.732],[51.221,25.68],[51.247,25.619],[51.287,25.566],[51.287,25.487],[51.304,25.384],[51.383,25.379],[51.445,25.36],[51.511,25.26],[51.525,25.248],[51.543,25.218],[51.518,25.195],[51.494,25.18],[51.453,25.215],[51.429,25.197],[51.462,25.157],[51.438,25.138],[51.423,25.095],[51.404,25.061],[51.332,25.09],[51.333,25.01],[51.221,25.01],[51.221,24.644],[51.213,24.634],[51.215,24.627],[51.215,24.626],[51.147,24.576],[51.095,24.56],[51.039,24.56]]]}},{"type":"Feature","id":"QA-US","properties":{"id":"QA-US","countryCode":"QA","isoSubdivision":"QA-US","name":"Umm Salal","name_en":"Umm Salal","name_ko":"움살랄","type":"Municipality","labelLongitude":51.355,"labelLatitude":25.459,"minZoom":8.7},"geometry":{"type":"Polygon","coordinates":[[[51.287,25.566],[51.302,25.551],[51.401,25.551],[51.406,25.496],[51.408,25.426],[51.445,25.36],[51.383,25.379],[51.304,25.384],[51.287,25.487],[51.287,25.566]]]}},{"type":"Feature","id":"QA-WA","properties":{"id":"QA-WA","countryCode":"QA","isoSubdivision":"QA-WA","name":"Al Wakrah","name_en":"Al Wakrah","name_ko":"알와크라","type":"Municipality","labelLongitude":51.474,"labelLatitude":24.966,"minZoom":8.7},"geometry":{"type":"Polygon","coordinates":[[[51.611,25.238],[51.615,25.22],[51.617,25.137],[51.606,25.034],[51.611,25.022],[51.602,25.014],[51.587,24.953],[51.574,24.934],[51.539,24.899],[51.529,24.874],[51.521,24.871],[51.512,24.868],[51.505,24.864],[51.5,24.855],[51.474,24.764],[51.473,24.759],[51.468,24.749],[51.456,24.741],[51.45,24.722],[51.444,24.68],[51.43,24.664],[51.39,24.642],[51.382,24.635],[51.376,24.612],[51.364,24.596],[51.35,24.584],[51.341,24.57],[51.329,24.585],[51.333,24.599],[51.342,24.615],[51.347,24.635],[51.339,24.646],[51.321,24.648],[51.286,24.645],[51.284,24.663],[51.278,24.663],[51.268,24.656],[51.255,24.652],[51.237,24.65],[51.221,24.644],[51.221,25.01],[51.333,25.01],[51.332,25.09],[51.404,25.061],[51.423,25.095],[51.438,25.138],[51.462,25.157],[51.477,25.169],[51.494,25.18],[51.518,25.195],[51.543,25.218],[51.574,25.243],[51.604,25.238],[51.611,25.238]]]}},{"type":"Feature","id":"QA-ZA","properties":{"id":"QA-ZA","countryCode":"QA","isoSubdivision":"QA-ZA","name":"Al Daayen","name_en":"Al Daayen","name_ko":"알다옌","type":"Municipality","labelLongitude":51.467,"labelLatitude":25.458,"minZoom":8.7},"geometry":{"type":"Polygon","coordinates":[[[51.536,25.622],[51.519,25.619],[51.505,25.612],[51.498,25.616],[51.491,25.618],[51.494,25.566],[51.492,25.551],[51.491,25.549],[51.486,25.541],[51.478,25.531],[51.472,25.521],[51.474,25.512],[51.511,25.454],[51.517,25.44],[51.519,25.426],[51.516,25.383],[51.445,25.36],[51.408,25.426],[51.406,25.496],[51.401,25.551],[51.406,25.611],[51.453,25.658],[51.51,25.637],[51.536,25.622]]]}}]}
