{"type":"FeatureCollection","features":[{"type":"Feature","id":"RW-01","properties":{"id":"RW-01","countryCode":"RW","isoSubdivision":"RW-01","name":"Kigali","name_en":"Kigali","name_ko":"키갈리","type":"Province","labelLongitude":30.125,"labelLatitude":-1.926,"minZoom":8.7},"geometry":{"type":"Polygon","coordinates":[[[30.018,-2.072],[30.015,-2.07],[30.009,-2.068],[30.003,-2.067],[29.999,-2.066],[29.991,-2.061],[29.984,-2.048],[29.986,-2.039],[29.994,-2.031],[30.002,-2.028],[30.005,-2.024],[30.01,-2.017],[30.003,-2.001],[29.994,-1.986],[29.997,-1.981],[29.999,-1.975],[30,-1.968],[30,-1.965],[30,-1.963],[30.002,-1.958],[29.999,-1.951],[29.996,-1.944],[29.993,-1.937],[29.99,-1.933],[29.988,-1.93],[29.986,-1.923],[29.983,-1.914],[29.981,-1.911],[29.981,-1.909],[29.984,-1.908],[29.987,-1.905],[29.984,-1.893],[29.978,-1.878],[29.983,-1.868],[29.991,-1.855],[29.998,-1.842],[30.008,-1.839],[30.021,-1.848],[30.034,-1.856],[30.047,-1.848],[30.058,-1.836],[30.063,-1.828],[30.083,-1.819],[30.108,-1.815],[30.117,-1.816],[30.123,-1.809],[30.13,-1.792],[30.135,-1.779],[30.143,-1.783],[30.159,-1.793],[30.192,-1.815],[30.223,-1.837],[30.24,-1.842],[30.247,-1.843],[30.248,-1.849],[30.255,-1.858],[30.259,-1.873],[30.258,-1.886],[30.265,-1.894],[30.27,-1.9],[30.273,-1.916],[30.272,-1.936],[30.267,-1.944],[30.254,-1.951],[30.239,-1.957],[30.234,-1.963],[30.233,-1.975],[30.23,-2.011],[30.224,-2.047],[30.216,-2.065],[30.209,-2.075],[30.203,-2.066],[30.195,-2.056],[30.188,-2.046],[30.178,-2.032],[30.165,-2.028],[30.153,-2.033],[30.143,-2.037],[30.137,-2.04],[30.13,-2.045],[30.124,-2.051],[30.121,-2.054],[30.118,-2.055],[30.115,-2.055],[30.107,-2.056],[30.098,-2.058],[30.092,-2.059],[30.086,-2.061],[30.08,-2.062],[30.076,-2.063],[30.074,-2.064],[30.067,-2.065],[30.059,-2.064],[30.054,-2.057],[30.051,-2.053],[30.043,-2.055],[30.038,-2.061],[30.032,-2.064],[30.022,-2.068],[30.018,-2.072]]]}},{"type":"Feature","id":"RW-02","properties":{"id":"RW-02","countryCode":"RW","isoSubdivision":"RW-02","name":"Eastern","name_en":"Eastern","name_ko":"동부","type":"Province","labelLongitude":30.422,"labelLatitude":-1.691,"minZoom":8.7},"geometry":{"type":"Polygon","coordinates":[[[30.415,-2.313],[30.383,-2.306],[30.379,-2.303],[30.363,-2.308],[30.353,-2.317],[30.349,-2.322],[30.344,-2.328],[30.331,-2.34],[30.317,-2.348],[30.298,-2.354],[30.279,-2.358],[30.263,-2.358],[30.25,-2.356],[30.219,-2.34],[30.207,-2.339],[30.204,-2.346],[30.203,-2.355],[30.201,-2.362],[30.156,-2.419],[30.139,-2.431],[30.117,-2.432],[30.094,-2.423],[30.073,-2.409],[30.057,-2.394],[30.026,-2.358],[30.013,-2.348],[30.002,-2.344],[29.992,-2.344],[29.984,-2.345],[29.976,-2.344],[29.959,-2.329],[29.957,-2.327],[29.959,-2.324],[29.96,-2.321],[29.962,-2.319],[29.964,-2.3],[29.968,-2.281],[29.968,-2.279],[29.968,-2.278],[29.98,-2.243],[29.986,-2.194],[29.984,-2.161],[29.995,-2.14],[30.01,-2.124],[30.017,-2.111],[30.017,-2.1],[30.017,-2.082],[30.018,-2.072],[30.022,-2.068],[30.032,-2.064],[30.038,-2.061],[30.043,-2.055],[30.051,-2.053],[30.054,-2.057],[30.059,-2.064],[30.067,-2.065],[30.074,-2.064],[30.076,-2.063],[30.08,-2.062],[30.086,-2.061],[30.092,-2.059],[30.098,-2.058],[30.107,-2.056],[30.115,-2.055],[30.118,-2.055],[30.121,-2.054],[30.124,-2.051],[30.13,-2.045],[30.137,-2.04],[30.143,-2.037],[30.153,-2.033],[30.165,-2.028],[30.178,-2.032],[30.188,-2.046],[30.195,-2.056],[30.203,-2.066],[30.209,-2.075],[30.216,-2.065],[30.224,-2.047],[30.23,-2.011],[30.233,-1.975],[30.234,-1.963],[30.239,-1.957],[30.254,-1.951],[30.267,-1.944],[30.272,-1.936],[30.273,-1.916],[30.27,-1.9],[30.265,-1.894],[30.258,-1.886],[30.259,-1.873],[30.255,-1.858],[30.248,-1.849],[30.247,-1.843],[30.251,-1.84],[30.258,-1.833],[30.267,-1.827],[30.272,-1.824],[30.272,-1.808],[30.264,-1.778],[30.254,-1.743],[30.25,-1.722],[30.254,-1.711],[30.258,-1.7],[30.252,-1.686],[30.237,-1.671],[30.218,-1.647],[30.2,-1.623],[30.187,-1.609],[30.177,-1.592],[30.169,-1.571],[30.165,-1.549],[30.17,-1.532],[30.178,-1.525],[30.179,-1.52],[30.173,-1.517],[30.164,-1.517],[30.152,-1.522],[30.143,-1.524],[30.142,-1.515],[30.139,-1.5],[30.135,-1.49],[30.126,-1.472],[30.118,-1.455],[30.107,-1.438],[30.094,-1.417],[30.087,-1.412],[30.082,-1.405],[30.079,-1.394],[30.073,-1.39],[30.07,-1.389],[30.066,-1.387],[30.096,-1.371],[30.136,-1.355],[30.147,-1.345],[30.152,-1.33],[30.158,-1.291],[30.166,-1.277],[30.173,-1.273],[30.181,-1.271],[30.189,-1.271],[30.197,-1.269],[30.212,-1.26],[30.257,-1.217],[30.27,-1.2],[30.281,-1.182],[30.282,-1.176],[30.285,-1.161],[30.288,-1.155],[30.291,-1.153],[30.295,-1.15],[30.311,-1.142],[30.317,-1.137],[30.323,-1.122],[30.329,-1.081],[30.337,-1.066],[30.353,-1.061],[30.369,-1.063],[30.386,-1.068],[30.403,-1.07],[30.419,-1.066],[30.432,-1.061],[30.446,-1.059],[30.461,-1.063],[30.472,-1.067],[30.464,-1.075],[30.456,-1.086],[30.453,-1.097],[30.456,-1.108],[30.471,-1.118],[30.474,-1.132],[30.472,-1.138],[30.468,-1.143],[30.466,-1.149],[30.467,-1.155],[30.476,-1.161],[30.484,-1.16],[30.491,-1.156],[30.495,-1.155],[30.507,-1.164],[30.511,-1.17],[30.515,-1.196],[30.521,-1.211],[30.539,-1.241],[30.545,-1.261],[30.555,-1.273],[30.557,-1.282],[30.556,-1.285],[30.553,-1.289],[30.551,-1.295],[30.55,-1.302],[30.555,-1.318],[30.568,-1.328],[30.598,-1.34],[30.608,-1.348],[30.623,-1.362],[30.632,-1.368],[30.698,-1.392],[30.718,-1.395],[30.738,-1.407],[30.743,-1.433],[30.741,-1.459],[30.738,-1.471],[30.733,-1.476],[30.739,-1.489],[30.755,-1.512],[30.768,-1.525],[30.772,-1.532],[30.782,-1.568],[30.792,-1.591],[30.807,-1.603],[30.831,-1.594],[30.838,-1.615],[30.837,-1.641],[30.825,-1.72],[30.824,-1.731],[30.827,-1.736],[30.835,-1.75],[30.838,-1.759],[30.826,-1.786],[30.83,-1.797],[30.838,-1.837],[30.832,-1.854],[30.822,-1.869],[30.817,-1.884],[30.824,-1.902],[30.808,-1.915],[30.802,-1.921],[30.797,-1.929],[30.827,-1.934],[30.83,-1.961],[30.817,-2.019],[30.835,-2.015],[30.853,-2.024],[30.869,-2.039],[30.879,-2.053],[30.888,-2.083],[30.853,-2.194],[30.845,-2.238],[30.849,-2.306],[30.845,-2.327],[30.834,-2.345],[30.821,-2.355],[30.805,-2.362],[30.789,-2.371],[30.775,-2.374],[30.768,-2.379],[30.759,-2.381],[30.751,-2.379],[30.698,-2.353],[30.688,-2.35],[30.675,-2.352],[30.663,-2.361],[30.649,-2.388],[30.638,-2.397],[30.617,-2.398],[30.595,-2.392],[30.574,-2.389],[30.555,-2.401],[30.522,-2.399],[30.488,-2.384],[30.434,-2.339],[30.428,-2.331],[30.423,-2.317],[30.418,-2.312],[30.415,-2.313]]]}},{"type":"Feature","id":"RW-03","properties":{"id":"RW-03","countryCode":"RW","isoSubdivision":"RW-03","name":"Northern","name_en":"Northern","name_ko":"북부","type":"Province","labelLongitude":29.859,"labelLatitude":-1.611,"minZoom":8.7},"geometry":{"type":"Polygon","coordinates":[[[29.917,-1.475],[29.938,-1.473],[29.96,-1.465],[30.028,-1.427],[30.039,-1.425],[30.048,-1.403],[30.061,-1.39],[30.066,-1.387],[30.07,-1.389],[30.073,-1.39],[30.079,-1.394],[30.082,-1.405],[30.087,-1.412],[30.094,-1.417],[30.107,-1.438],[30.118,-1.455],[30.126,-1.472],[30.135,-1.49],[30.139,-1.5],[30.142,-1.515],[30.143,-1.524],[30.152,-1.522],[30.164,-1.517],[30.173,-1.517],[30.179,-1.52],[30.178,-1.525],[30.17,-1.532],[30.165,-1.549],[30.169,-1.571],[30.177,-1.592],[30.187,-1.609],[30.2,-1.623],[30.218,-1.647],[30.237,-1.671],[30.252,-1.686],[30.258,-1.7],[30.254,-1.711],[30.25,-1.722],[30.254,-1.743],[30.264,-1.778],[30.272,-1.808],[30.272,-1.824],[30.267,-1.827],[30.258,-1.833],[30.251,-1.84],[30.247,-1.843],[30.24,-1.842],[30.223,-1.837],[30.192,-1.815],[30.159,-1.793],[30.143,-1.783],[30.135,-1.779],[30.13,-1.792],[30.123,-1.809],[30.117,-1.816],[30.108,-1.815],[30.083,-1.819],[30.063,-1.828],[30.058,-1.836],[30.047,-1.848],[30.034,-1.856],[30.021,-1.848],[30.008,-1.839],[29.998,-1.842],[29.991,-1.855],[29.983,-1.868],[29.978,-1.878],[29.984,-1.893],[29.987,-1.905],[29.984,-1.908],[29.981,-1.909],[29.978,-1.908],[29.971,-1.906],[29.961,-1.899],[29.951,-1.889],[29.943,-1.881],[29.937,-1.875],[29.929,-1.87],[29.921,-1.866],[29.914,-1.861],[29.902,-1.857],[29.885,-1.857],[29.865,-1.861],[29.846,-1.861],[29.818,-1.851],[29.8,-1.839],[29.795,-1.825],[29.781,-1.812],[29.769,-1.794],[29.755,-1.774],[29.745,-1.758],[29.742,-1.748],[29.734,-1.747],[29.721,-1.75],[29.703,-1.743],[29.686,-1.732],[29.675,-1.73],[29.664,-1.731],[29.658,-1.733],[29.647,-1.725],[29.634,-1.71],[29.636,-1.688],[29.636,-1.659],[29.635,-1.618],[29.631,-1.588],[29.611,-1.586],[29.591,-1.588],[29.572,-1.578],[29.556,-1.571],[29.551,-1.569],[29.547,-1.567],[29.54,-1.569],[29.532,-1.57],[29.513,-1.564],[29.491,-1.556],[29.467,-1.528],[29.449,-1.503],[29.445,-1.497],[29.464,-1.467],[29.499,-1.431],[29.539,-1.402],[29.578,-1.388],[29.618,-1.391],[29.639,-1.389],[29.658,-1.384],[29.678,-1.372],[29.694,-1.361],[29.711,-1.353],[29.735,-1.348],[29.747,-1.351],[29.768,-1.364],[29.775,-1.366],[29.783,-1.361],[29.789,-1.342],[29.798,-1.331],[29.807,-1.325],[29.816,-1.323],[29.825,-1.324],[29.836,-1.329],[29.864,-1.37],[29.869,-1.391],[29.871,-1.432],[29.881,-1.454],[29.898,-1.47],[29.917,-1.475]]]}},{"type":"Feature","id":"RW-04","properties":{"id":"RW-04","countryCode":"RW","isoSubdivision":"RW-04","name":"Western","name_en":"Western","name_ko":"서부","type":"Province","labelLongitude":29.264,"labelLatitude":-2.132,"minZoom":8.7},"geometry":{"type":"Polygon","coordinates":[[[29.309,-2.69],[29.306,-2.677],[29.307,-2.665],[29.307,-2.66],[29.294,-2.651],[29.276,-2.641],[29.255,-2.636],[29.213,-2.63],[29.19,-2.623],[29.13,-2.597],[29.113,-2.595],[29.055,-2.598],[29.033,-2.621],[29.015,-2.721],[29,-2.704],[28.98,-2.694],[28.95,-2.69],[28.936,-2.685],[28.899,-2.661],[28.891,-2.653],[28.898,-2.576],[28.891,-2.553],[28.881,-2.543],[28.87,-2.537],[28.861,-2.531],[28.857,-2.518],[28.861,-2.505],[28.878,-2.49],[28.875,-2.478],[28.865,-2.459],[28.861,-2.44],[28.859,-2.418],[28.866,-2.392],[28.88,-2.38],[28.907,-2.371],[28.928,-2.364],[28.945,-2.354],[28.96,-2.34],[28.971,-2.322],[28.979,-2.307],[28.982,-2.296],[28.983,-2.287],[28.994,-2.278],[29.002,-2.275],[29.031,-2.276],[29.075,-2.264],[29.11,-2.237],[29.135,-2.198],[29.151,-2.15],[29.156,-2.109],[29.154,-2.073],[29.128,-1.916],[29.126,-1.879],[29.131,-1.843],[29.149,-1.799],[29.187,-1.74],[29.212,-1.699],[29.233,-1.659],[29.245,-1.641],[29.294,-1.601],[29.304,-1.588],[29.331,-1.531],[29.343,-1.517],[29.358,-1.51],[29.435,-1.507],[29.437,-1.506],[29.44,-1.505],[29.442,-1.503],[29.445,-1.497],[29.449,-1.503],[29.467,-1.528],[29.491,-1.556],[29.513,-1.564],[29.532,-1.57],[29.54,-1.569],[29.547,-1.567],[29.551,-1.569],[29.556,-1.571],[29.572,-1.578],[29.591,-1.588],[29.611,-1.586],[29.631,-1.588],[29.635,-1.618],[29.636,-1.659],[29.636,-1.688],[29.634,-1.71],[29.647,-1.725],[29.658,-1.733],[29.66,-1.737],[29.663,-1.747],[29.667,-1.765],[29.67,-1.799],[29.668,-1.826],[29.664,-1.838],[29.664,-1.85],[29.669,-1.875],[29.672,-1.901],[29.666,-1.914],[29.662,-1.922],[29.663,-1.933],[29.667,-1.944],[29.671,-1.952],[29.669,-1.963],[29.66,-1.971],[29.648,-1.975],[29.633,-1.974],[29.623,-1.974],[29.627,-1.984],[29.631,-2.006],[29.63,-2.027],[29.633,-2.038],[29.636,-2.045],[29.635,-2.053],[29.634,-2.062],[29.633,-2.071],[29.626,-2.082],[29.621,-2.089],[29.618,-2.094],[29.615,-2.1],[29.615,-2.108],[29.609,-2.122],[29.6,-2.138],[29.599,-2.149],[29.602,-2.155],[29.605,-2.169],[29.606,-2.182],[29.598,-2.187],[29.587,-2.193],[29.58,-2.197],[29.572,-2.199],[29.565,-2.202],[29.558,-2.2],[29.553,-2.198],[29.549,-2.204],[29.543,-2.21],[29.53,-2.218],[29.519,-2.227],[29.506,-2.235],[29.481,-2.254],[29.467,-2.269],[29.46,-2.269],[29.449,-2.269],[29.431,-2.269],[29.411,-2.273],[29.392,-2.287],[29.38,-2.293],[29.368,-2.289],[29.354,-2.291],[29.339,-2.299],[29.328,-2.311],[29.326,-2.325],[29.332,-2.341],[29.339,-2.355],[29.338,-2.364],[29.328,-2.38],[29.32,-2.394],[29.323,-2.403],[29.326,-2.414],[29.322,-2.423],[29.301,-2.435],[29.28,-2.446],[29.271,-2.459],[29.267,-2.472],[29.268,-2.479],[29.28,-2.485],[29.299,-2.491],[29.312,-2.497],[29.32,-2.508],[29.322,-2.523],[29.328,-2.536],[29.336,-2.546],[29.341,-2.556],[29.345,-2.562],[29.343,-2.572],[29.342,-2.581],[29.343,-2.588],[29.348,-2.595],[29.36,-2.613],[29.357,-2.649],[29.343,-2.674],[29.333,-2.679],[29.328,-2.68],[29.309,-2.69]]]}},{"type":"Feature","id":"RW-05","properties":{"id":"RW-05","countryCode":"RW","isoSubdivision":"RW-05","name":"Southern","name_en":"Southern","name_ko":"남부","type":"Province","labelLongitude":29.642,"labelLatitude":-2.384,"minZoom":8.7},"geometry":{"type":"Polygon","coordinates":[[[29.957,-2.327],[29.95,-2.321],[29.942,-2.317],[29.932,-2.317],[29.929,-2.322],[29.929,-2.332],[29.922,-2.383],[29.93,-2.46],[29.908,-2.535],[29.904,-2.638],[29.903,-2.649],[29.898,-2.671],[29.888,-2.693],[29.876,-2.714],[29.863,-2.732],[29.842,-2.752],[29.824,-2.763],[29.803,-2.767],[29.779,-2.767],[29.756,-2.76],[29.745,-2.76],[29.737,-2.769],[29.734,-2.79],[29.73,-2.8],[29.72,-2.805],[29.698,-2.808],[29.679,-2.805],[29.637,-2.792],[29.626,-2.788],[29.619,-2.788],[29.589,-2.798],[29.582,-2.803],[29.574,-2.806],[29.564,-2.806],[29.542,-2.809],[29.523,-2.82],[29.504,-2.827],[29.481,-2.814],[29.445,-2.807],[29.425,-2.803],[29.407,-2.805],[29.364,-2.824],[29.34,-2.826],[29.331,-2.807],[29.33,-2.795],[29.32,-2.774],[29.318,-2.763],[29.321,-2.752],[29.335,-2.735],[29.338,-2.724],[29.331,-2.711],[29.31,-2.691],[29.309,-2.69],[29.328,-2.68],[29.333,-2.679],[29.343,-2.674],[29.357,-2.649],[29.36,-2.613],[29.348,-2.595],[29.343,-2.588],[29.342,-2.581],[29.343,-2.572],[29.345,-2.562],[29.341,-2.556],[29.336,-2.546],[29.328,-2.536],[29.322,-2.523],[29.32,-2.508],[29.312,-2.497],[29.299,-2.491],[29.28,-2.485],[29.268,-2.479],[29.267,-2.472],[29.271,-2.459],[29.28,-2.446],[29.301,-2.435],[29.322,-2.423],[29.326,-2.414],[29.323,-2.403],[29.32,-2.394],[29.328,-2.38],[29.338,-2.364],[29.339,-2.355],[29.332,-2.341],[29.326,-2.325],[29.328,-2.311],[29.339,-2.299],[29.354,-2.291],[29.368,-2.289],[29.38,-2.293],[29.392,-2.287],[29.411,-2.273],[29.431,-2.269],[29.449,-2.269],[29.46,-2.269],[29.467,-2.269],[29.481,-2.254],[29.506,-2.235],[29.519,-2.227],[29.53,-2.218],[29.543,-2.21],[29.549,-2.204],[29.553,-2.198],[29.558,-2.2],[29.565,-2.202],[29.572,-2.199],[29.58,-2.197],[29.587,-2.193],[29.598,-2.187],[29.606,-2.182],[29.605,-2.169],[29.602,-2.155],[29.599,-2.149],[29.6,-2.138],[29.609,-2.122],[29.615,-2.108],[29.615,-2.1],[29.618,-2.094],[29.621,-2.089],[29.626,-2.082],[29.633,-2.071],[29.634,-2.062],[29.635,-2.053],[29.636,-2.045],[29.633,-2.038],[29.63,-2.027],[29.631,-2.006],[29.627,-1.984],[29.623,-1.974],[29.633,-1.974],[29.648,-1.975],[29.66,-1.971],[29.669,-1.963],[29.671,-1.952],[29.667,-1.944],[29.663,-1.933],[29.662,-1.922],[29.666,-1.914],[29.672,-1.901],[29.669,-1.875],[29.664,-1.85],[29.664,-1.838],[29.668,-1.826],[29.67,-1.799],[29.667,-1.765],[29.663,-1.747],[29.66,-1.737],[29.658,-1.733],[29.664,-1.731],[29.675,-1.73],[29.686,-1.732],[29.703,-1.743],[29.721,-1.75],[29.734,-1.747],[29.742,-1.748],[29.745,-1.758],[29.755,-1.774],[29.769,-1.794],[29.781,-1.812],[29.795,-1.825],[29.8,-1.839],[29.818,-1.851],[29.846,-1.861],[29.865,-1.861],[29.885,-1.857],[29.902,-1.857],[29.914,-1.861],[29.921,-1.866],[29.929,-1.87],[29.937,-1.875],[29.943,-1.881],[29.951,-1.889],[29.961,-1.899],[29.971,-1.906],[29.978,-1.908],[29.981,-1.909],[29.981,-1.911],[29.983,-1.914],[29.986,-1.923],[29.988,-1.93],[29.99,-1.933],[29.993,-1.937],[29.996,-1.944],[29.999,-1.951],[30.002,-1.958],[30,-1.963],[30,-1.965],[30,-1.968],[29.999,-1.975],[29.997,-1.981],[29.994,-1.986],[30.003,-2.001],[30.01,-2.017],[30.005,-2.024],[30.002,-2.028],[29.994,-2.031],[29.986,-2.039],[29.984,-2.048],[29.991,-2.061],[29.999,-2.066],[30.003,-2.067],[30.009,-2.068],[30.015,-2.07],[30.018,-2.072],[30.017,-2.082],[30.017,-2.1],[30.017,-2.111],[30.01,-2.124],[29.995,-2.14],[29.984,-2.161],[29.986,-2.194],[29.98,-2.243],[29.968,-2.278],[29.968,-2.279],[29.968,-2.281],[29.964,-2.3],[29.962,-2.319],[29.96,-2.321],[29.959,-2.324],[29.957,-2.327]]]}}]}
