{"type":"FeatureCollection","features":[{"type":"Feature","id":"SA-01","properties":{"id":"SA-01","countryCode":"SA","isoSubdivision":"SA-01","name":"Riyadh","name_en":"Riyadh","name_ko":"리야드","type":"Region","labelLongitude":45.14,"labelLatitude":23.343,"minZoom":6.6},"geometry":{"type":"Polygon","coordinates":[[[44.672,25.569],[44.694,25.572],[44.712,25.579],[44.724,25.594],[44.731,25.612],[44.735,25.633],[44.737,25.662],[44.736,25.697],[44.727,25.757],[44.716,25.792],[44.703,25.821],[44.675,25.867],[44.668,25.89],[44.672,25.919],[44.683,25.965],[44.678,25.997],[44.676,26.001],[44.6,26.093],[44.511,26.227],[44.487,26.254],[44.408,26.325],[44.392,26.345],[44.381,26.365],[44.376,26.385],[44.376,26.406],[44.397,26.536],[44.396,26.58],[44.389,26.625],[44.392,26.648],[44.41,26.671],[44.433,26.683],[44.457,26.69],[44.496,26.697],[44.507,26.703],[44.525,26.716],[44.597,26.812],[44.635,26.85],[44.68,26.886],[44.705,26.902],[44.73,26.914],[44.778,26.93],[44.801,26.94],[44.821,26.954],[44.834,26.971],[44.841,26.986],[44.845,26.999],[44.845,27.001],[44.845,27.017],[44.843,27.035],[44.837,27.056],[44.828,27.077],[44.815,27.099],[44.798,27.119],[44.778,27.138],[44.737,27.169],[44.692,27.197],[44.628,27.222],[44.622,27.235],[44.611,27.271],[44.61,27.291],[44.611,27.312],[44.614,27.332],[44.624,27.363],[44.64,27.395],[44.668,27.435],[44.694,27.464],[44.725,27.491],[44.739,27.5],[44.741,27.501],[44.799,27.52],[44.817,27.506],[44.822,27.501],[44.824,27.498],[44.84,27.482],[44.858,27.469],[44.879,27.461],[44.902,27.458],[44.928,27.468],[44.949,27.48],[44.99,27.533],[45,27.528],[45.086,27.472],[45.128,27.436],[45.145,27.415],[45.158,27.392],[45.185,27.305],[45.198,27.279],[45.222,27.251],[45.245,27.232],[45.529,27.086],[45.575,27.073],[45.648,27.068],[45.671,27.064],[45.692,27.053],[45.712,27.037],[45.774,26.969],[45.869,26.888],[45.913,26.862],[45.934,26.853],[45.977,26.845],[46.143,26.84],[46.187,26.832],[46.23,26.818],[46.294,26.786],[46.541,26.627],[46.564,26.618],[46.588,26.611],[46.611,26.607],[46.634,26.607],[46.783,26.631],[46.807,26.63],[46.83,26.623],[46.852,26.61],[47.017,26.465],[47.044,26.427],[47.062,26.409],[47.083,26.398],[47.403,26.283],[47.415,26.274],[47.43,26.262],[47.443,26.244],[47.452,26.225],[47.459,26.206],[47.465,26.175],[47.488,24.834],[47.496,24.789],[47.504,24.774],[47.517,24.753],[47.535,24.735],[47.889,24.502],[48.141,24.27],[48.181,24.223],[48.223,24.159],[48.265,24.071],[48.29,24],[48.305,23.878],[48.299,23.655],[48.014,21.5],[47.745,19.531],[47.615,19.496],[45.273,19.257],[45.014,19.274],[44.92,19.295],[44.867,19.314],[44.795,19.348],[44.517,19.513],[44.499,19.524],[44.106,19.867],[44.01,20.019],[43.952,20.083],[43.937,20.107],[43.929,20.138],[43.93,20.163],[43.969,20.334],[43.988,20.373],[44.047,20.459],[44.055,20.477],[44.063,20.498],[44.064,20.502],[44.064,20.521],[44.062,20.539],[44.056,20.561],[44.043,20.585],[43.96,20.67],[43.9,20.745],[43.869,20.793],[43.814,20.854],[43.668,20.976],[43.406,21.341],[43.395,21.362],[43.389,21.382],[43.388,21.403],[43.389,21.423],[43.429,21.569],[43.436,21.612],[43.424,21.779],[43.426,21.799],[43.434,21.819],[43.446,21.837],[43.476,21.874],[43.488,21.893],[43.498,21.913],[43.505,21.934],[43.508,21.956],[43.508,21.976],[43.458,22.31],[43.459,22.351],[43.486,22.498],[43.485,22.502],[43.47,22.517],[43.451,22.527],[43.43,22.533],[43.311,22.554],[43.289,22.555],[43.267,22.552],[43.149,22.522],[43.125,22.52],[43.102,22.522],[43.059,22.536],[43.036,22.549],[43.015,22.567],[42.993,22.604],[42.987,22.63],[42.986,22.654],[42.991,22.756],[43.007,22.799],[43.011,22.818],[43.006,22.838],[42.992,22.86],[42.965,22.88],[42.94,22.892],[42.916,22.9],[42.871,22.909],[42.653,22.926],[42.498,22.923],[42.461,22.929],[42.44,22.935],[42.418,22.944],[42.396,22.957],[42.377,22.972],[42.363,22.987],[42.353,23.001],[42.224,23.284],[42.195,23.427],[42.186,23.452],[42.16,23.504],[42.107,23.663],[42.088,23.693],[42.068,23.713],[42.046,23.728],[42.009,23.748],[41.998,23.757],[41.987,23.772],[41.979,23.792],[41.976,23.855],[41.986,23.949],[41.983,24.042],[41.996,24.213],[42.013,24.288],[42.017,24.326],[42.016,24.35],[42.002,24.383],[42,24.39],[42.001,24.405],[42.007,24.421],[42.022,24.445],[42.069,24.5],[42.071,24.504],[42.084,24.533],[42.096,24.577],[42.096,24.612],[42.115,24.65],[42.182,24.741],[42.195,24.754],[42.222,24.773],[42.245,24.783],[42.269,24.786],[42.29,24.782],[42.397,24.733],[42.441,24.718],[42.512,24.702],[42.693,24.684],[42.742,24.685],[42.884,24.705],[42.932,24.702],[43.01,24.682],[43.029,24.682],[43.05,24.687],[43.074,24.697],[43.098,24.716],[43.118,24.741],[43.134,24.778],[43.135,24.805],[43.128,24.829],[43.102,24.87],[43.092,24.89],[43.088,24.91],[43.093,24.934],[43.106,24.962],[43.203,25.079],[43.298,25.166],[43.322,25.181],[43.346,25.191],[43.68,25.264],[43.72,25.281],[43.745,25.297],[43.798,25.343],[43.869,25.385],[43.891,25.404],[43.91,25.432],[43.947,25.5],[43.974,25.533],[43.99,25.548],[44.003,25.558],[44.019,25.567],[44.039,25.576],[44.061,25.582],[44.084,25.587],[44.13,25.587],[44.343,25.561],[44.581,25.577],[44.672,25.569]]]}},{"type":"Feature","id":"SA-02","properties":{"id":"SA-02","countryCode":"SA","isoSubdivision":"SA-02","name":"Makkah","name_en":"Makkah","name_ko":"메카","type":"Region","labelLongitude":40.254,"labelLatitude":21.435,"minZoom":6.6},"geometry":{"type":"Polygon","coordinates":[[[41.597,18.121],[41.585,18.135],[41.578,18.146],[41.575,18.159],[41.571,18.165],[41.562,18.168],[41.556,18.174],[41.561,18.19],[41.541,18.192],[41.521,18.197],[41.524,18.201],[41.526,18.204],[41.528,18.207],[41.534,18.21],[41.528,18.222],[41.519,18.228],[41.507,18.228],[41.493,18.224],[41.5,18.233],[41.505,18.243],[41.506,18.252],[41.5,18.259],[41.506,18.272],[41.5,18.279],[41.488,18.281],[41.472,18.279],[41.475,18.293],[41.472,18.312],[41.465,18.331],[41.455,18.344],[41.451,18.356],[41.445,18.394],[41.442,18.402],[41.44,18.411],[41.438,18.464],[41.436,18.47],[41.433,18.474],[41.428,18.477],[41.421,18.478],[41.416,18.482],[41.414,18.49],[41.413,18.499],[41.411,18.506],[41.375,18.529],[41.37,18.536],[41.368,18.546],[41.363,18.559],[41.356,18.569],[41.34,18.576],[41.334,18.581],[41.33,18.585],[41.328,18.588],[41.322,18.586],[41.312,18.575],[41.308,18.573],[41.297,18.577],[41.286,18.584],[41.275,18.592],[41.267,18.601],[41.241,18.658],[41.229,18.673],[41.217,18.686],[41.21,18.698],[41.209,18.712],[41.212,18.731],[41.236,18.797],[41.24,18.817],[41.243,18.825],[41.248,18.828],[41.249,18.834],[41.24,18.848],[41.235,18.849],[41.213,18.86],[41.212,18.862],[41.171,18.872],[41.161,18.903],[41.16,18.909],[41.141,18.933],[41.136,18.937],[41.136,18.947],[41.137,18.958],[41.143,18.977],[41.148,18.988],[41.153,18.996],[41.157,19.004],[41.159,19.022],[41.164,19.043],[41.177,19.067],[41.168,19.082],[41.149,19.094],[41.13,19.102],[41.086,19.114],[41.069,19.125],[41.058,19.153],[41.044,19.174],[41.04,19.184],[41.041,19.195],[41.048,19.218],[41.048,19.227],[41.042,19.246],[41.04,19.256],[41.036,19.265],[41.018,19.274],[41.014,19.283],[41.009,19.304],[40.998,19.315],[40.983,19.323],[40.956,19.343],[40.958,19.346],[40.959,19.359],[40.957,19.369],[40.947,19.384],[40.945,19.393],[40.943,19.403],[40.938,19.419],[40.938,19.431],[40.945,19.441],[40.954,19.449],[40.959,19.456],[40.952,19.464],[40.955,19.475],[40.952,19.485],[40.947,19.494],[40.945,19.506],[40.859,19.534],[40.835,19.547],[40.785,19.596],[40.76,19.609],[40.76,19.615],[40.771,19.614],[40.794,19.601],[40.801,19.642],[40.798,19.692],[40.791,19.714],[40.745,19.777],[40.725,19.789],[40.674,19.795],[40.654,19.794],[40.645,19.785],[40.657,19.76],[40.642,19.771],[40.629,19.792],[40.62,19.812],[40.619,19.821],[40.605,19.83],[40.564,19.886],[40.534,19.904],[40.527,19.91],[40.528,19.918],[40.541,19.944],[40.535,19.962],[40.523,19.972],[40.492,19.985],[40.455,20.007],[40.446,20.01],[40.436,20.023],[40.428,20.026],[40.418,20.031],[40.394,20.064],[40.386,20.068],[40.361,20.074],[40.352,20.075],[40.334,20.08],[40.313,20.091],[40.268,20.125],[40.232,20.164],[40.239,20.178],[40.222,20.189],[40.196,20.196],[40.165,20.2],[40.159,20.205],[40.15,20.218],[40.134,20.232],[40.125,20.241],[40.126,20.246],[40.116,20.252],[40.084,20.279],[40.068,20.287],[40.045,20.286],[40.02,20.282],[40,20.275],[39.992,20.267],[39.968,20.275],[39.925,20.299],[39.903,20.308],[39.904,20.296],[39.91,20.288],[39.918,20.284],[39.927,20.277],[39.931,20.275],[39.941,20.269],[39.947,20.262],[39.941,20.259],[39.923,20.264],[39.825,20.32],[39.811,20.331],[39.798,20.337],[39.778,20.343],[39.76,20.351],[39.745,20.381],[39.727,20.397],[39.674,20.436],[39.646,20.462],[39.587,20.552],[39.567,20.568],[39.567,20.575],[39.577,20.575],[39.585,20.576],[39.591,20.58],[39.595,20.589],[39.579,20.591],[39.567,20.598],[39.543,20.619],[39.537,20.63],[39.531,20.659],[39.526,20.671],[39.493,20.706],[39.49,20.723],[39.506,20.746],[39.471,20.757],[39.458,20.759],[39.46,20.752],[39.465,20.746],[39.471,20.742],[39.478,20.739],[39.458,20.745],[39.436,20.757],[39.423,20.772],[39.43,20.787],[39.421,20.792],[39.417,20.798],[39.418,20.805],[39.423,20.814],[39.428,20.806],[39.435,20.801],[39.446,20.797],[39.458,20.794],[39.453,20.806],[39.451,20.812],[39.451,20.818],[39.449,20.827],[39.444,20.828],[39.437,20.826],[39.43,20.828],[39.417,20.847],[39.411,20.847],[39.41,20.828],[39.388,20.841],[39.36,20.863],[39.339,20.887],[39.341,20.91],[39.345,20.905],[39.353,20.899],[39.36,20.897],[39.362,20.904],[39.358,20.915],[39.353,20.92],[39.345,20.922],[39.337,20.927],[39.328,20.932],[39.317,20.93],[39.307,20.926],[39.297,20.924],[39.297,20.928],[39.269,20.969],[39.262,20.983],[39.26,21],[39.259,21.024],[39.256,21.033],[39.242,21.042],[39.239,21.051],[39.238,21.063],[39.234,21.067],[39.228,21.069],[39.185,21.097],[39.174,21.109],[39.168,21.136],[39.159,21.156],[39.157,21.168],[39.159,21.173],[39.168,21.185],[39.17,21.191],[39.163,21.206],[39.126,21.26],[39.112,21.268],[39.081,21.315],[39.16,21.38],[39.171,21.404],[39.172,21.436],[39.165,21.465],[39.15,21.48],[39.15,21.486],[39.16,21.494],[39.159,21.508],[39.143,21.541],[39.13,21.52],[39.12,21.517],[39.11,21.528],[39.101,21.548],[39.109,21.555],[39.092,21.577],[39.089,21.606],[39.09,21.637],[39.088,21.664],[39.077,21.692],[39.079,21.706],[39.098,21.713],[39.104,21.719],[39.109,21.732],[39.109,21.748],[39.101,21.76],[39.094,21.739],[39.088,21.73],[39.081,21.726],[39.067,21.725],[39.063,21.73],[39.064,21.738],[39.06,21.746],[39.054,21.752],[39.049,21.755],[39.045,21.759],[39.04,21.767],[39.037,21.776],[39.036,21.793],[39.033,21.801],[39.031,21.801],[39.019,21.808],[39.017,21.811],[39.014,21.819],[39.012,21.822],[38.979,21.862],[38.95,21.922],[38.931,22.006],[38.933,22.025],[38.959,22.034],[38.986,22.002],[39.006,22.002],[39.01,22.024],[39.01,22.044],[39.012,22.054],[39.017,22.058],[39.03,22.067],[39.033,22.072],[39.035,22.091],[39.044,22.131],[39.047,22.151],[39.04,22.151],[39.026,22.117],[39.019,22.132],[39.023,22.142],[39.029,22.153],[39.033,22.168],[39.033,22.209],[39.04,22.236],[39.073,22.271],[39.084,22.314],[39.091,22.323],[39.1,22.332],[39.109,22.342],[39.122,22.37],[39.139,22.386],[39.143,22.391],[39.143,22.403],[39.137,22.415],[39.128,22.421],[39.115,22.419],[39.108,22.409],[39.101,22.38],[39.095,22.37],[39.07,22.366],[39.069,22.394],[39.082,22.436],[39.074,22.491],[39.082,22.547],[39.074,22.574],[39.066,22.588],[39.039,22.623],[39.012,22.679],[38.993,22.709],[38.986,22.724],[38.988,22.736],[39.015,22.759],[39.013,22.767],[38.965,22.816],[38.945,22.831],[38.937,22.826],[38.94,22.821],[38.958,22.804],[38.965,22.795],[38.968,22.784],[38.969,22.774],[38.971,22.764],[38.978,22.754],[38.971,22.747],[38.958,22.775],[38.93,22.815],[38.903,22.843],[38.851,22.93],[38.851,22.943],[38.88,22.928],[38.913,22.862],[38.931,22.857],[38.941,22.851],[38.951,22.852],[38.959,22.859],[38.965,22.87],[38.954,22.882],[38.937,22.912],[38.927,22.918],[38.92,22.921],[38.911,22.928],[38.905,22.938],[38.903,22.949],[38.894,22.965],[38.874,22.973],[38.851,22.978],[38.834,22.987],[38.814,22.983],[38.8,22.999],[38.779,23.041],[38.79,23.051],[38.799,23.065],[38.804,23.079],[38.806,23.093],[38.804,23.122],[38.799,23.137],[38.798,23.15],[38.787,23.155],[38.778,23.139],[38.765,23.161],[38.748,23.183],[38.729,23.216],[38.711,23.236],[38.704,23.258],[38.692,23.273],[38.689,23.287],[38.68,23.304],[38.68,23.318],[38.673,23.348],[38.659,23.372],[38.647,23.401],[38.644,23.419],[38.675,23.423],[38.799,23.432],[38.87,23.447],[38.9,23.449],[38.926,23.442],[38.946,23.425],[38.988,23.362],[39.001,23.349],[39.082,23.284],[39.16,23.199],[39.183,23.181],[39.207,23.167],[39.24,23.161],[39.279,23.164],[39.385,23.182],[39.415,23.181],[39.434,23.171],[39.445,23.154],[39.45,23.135],[39.453,23.094],[39.464,23.078],[39.487,23.068],[39.563,23.081],[39.776,23.143],[39.87,23.154],[39.892,23.152],[39.913,23.146],[39.931,23.133],[39.943,23.115],[39.95,23.096],[39.953,23.078],[39.954,23.047],[39.948,22.999],[39.942,22.981],[39.887,22.861],[39.882,22.841],[39.885,22.821],[39.898,22.805],[39.918,22.797],[39.984,22.778],[40.015,22.764],[40.033,22.751],[40.052,22.735],[40.067,22.716],[40.077,22.695],[40.082,22.674],[40.083,22.653],[40.077,22.609],[40.067,22.569],[40.064,22.549],[40.068,22.529],[40.08,22.513],[40.1,22.501],[40.105,22.5],[40.169,22.491],[40.193,22.491],[40.215,22.493],[40.24,22.499],[40.245,22.501],[40.266,22.512],[40.368,22.592],[40.409,22.616],[40.439,22.622],[40.464,22.619],[40.617,22.575],[40.641,22.576],[40.665,22.586],[40.691,22.612],[40.762,22.715],[40.802,22.757],[41.087,22.965],[41.227,23.094],[41.257,23.117],[41.284,23.134],[41.4,23.173],[41.423,23.185],[41.443,23.205],[41.453,23.232],[41.447,23.254],[41.43,23.271],[41.321,23.325],[41.299,23.34],[41.282,23.357],[41.276,23.378],[41.286,23.403],[41.317,23.433],[41.361,23.463],[41.491,23.531],[41.669,23.602],[41.693,23.619],[41.718,23.642],[41.744,23.679],[41.757,23.706],[41.765,23.73],[41.766,23.774],[41.764,23.796],[41.76,23.816],[41.734,23.882],[41.732,23.903],[41.736,23.923],[41.75,23.941],[41.77,23.955],[41.792,23.964],[41.855,23.967],[41.986,23.949],[41.976,23.855],[41.979,23.792],[41.987,23.772],[41.998,23.757],[42.009,23.748],[42.046,23.728],[42.068,23.713],[42.088,23.693],[42.107,23.663],[42.16,23.504],[42.186,23.452],[42.195,23.427],[42.224,23.284],[42.353,23.001],[42.363,22.987],[42.377,22.972],[42.396,22.957],[42.418,22.944],[42.44,22.935],[42.461,22.929],[42.498,22.923],[42.653,22.926],[42.871,22.909],[42.916,22.9],[42.94,22.892],[42.965,22.88],[42.992,22.86],[43.006,22.838],[43.011,22.818],[43.007,22.799],[42.991,22.756],[42.986,22.654],[42.987,22.63],[42.993,22.604],[43.015,22.567],[43.036,22.549],[43.059,22.536],[43.102,22.522],[43.125,22.52],[43.149,22.522],[43.267,22.552],[43.289,22.555],[43.311,22.554],[43.43,22.533],[43.451,22.527],[43.47,22.517],[43.485,22.502],[43.486,22.498],[43.459,22.351],[43.458,22.31],[43.508,21.976],[43.508,21.956],[43.505,21.934],[43.498,21.913],[43.488,21.893],[43.476,21.874],[43.446,21.837],[43.434,21.819],[43.426,21.799],[43.424,21.779],[43.436,21.612],[43.429,21.569],[43.389,21.423],[43.388,21.403],[43.389,21.382],[43.395,21.362],[43.406,21.341],[43.668,20.976],[43.561,20.938],[43.404,20.851],[43.37,20.84],[43.341,20.838],[43.276,20.858],[43.25,20.864],[43.222,20.865],[43.179,20.86],[43.146,20.851],[43.086,20.827],[43.065,20.821],[43.05,20.818],[42.988,20.817],[42.952,20.81],[42.924,20.799],[42.899,20.783],[42.86,20.747],[42.833,20.725],[42.635,20.624],[42.381,20.408],[42.347,20.385],[42.293,20.357],[42.26,20.347],[42.231,20.345],[42.209,20.351],[42.189,20.363],[42.169,20.379],[42.153,20.399],[42.05,20.596],[42.032,20.625],[41.976,20.671],[41.956,20.677],[41.932,20.681],[41.91,20.675],[41.817,20.626],[41.795,20.617],[41.773,20.611],[41.666,20.61],[41.634,20.606],[41.607,20.6],[41.558,20.581],[41.528,20.572],[41.507,20.573],[41.494,20.577],[41.479,20.589],[41.466,20.606],[41.454,20.626],[41.423,20.709],[41.407,20.729],[41.385,20.746],[41.355,20.759],[41.331,20.763],[41.307,20.76],[41.285,20.752],[41.265,20.737],[41.25,20.721],[41.24,20.706],[41.234,20.695],[41.229,20.678],[41.227,20.659],[41.229,20.637],[41.237,20.596],[41.255,20.536],[41.257,20.506],[41.257,20.496],[41.25,20.469],[41.179,20.351],[41.151,20.285],[41.139,20.265],[41.115,20.245],[41.091,20.235],[41.068,20.228],[40.971,20.214],[40.94,20.206],[40.914,20.194],[40.892,20.177],[40.816,20.103],[40.802,20.084],[40.799,20.065],[40.806,20.047],[40.822,20.031],[40.841,20.021],[40.916,20],[40.921,19.997],[40.929,19.99],[40.941,19.974],[40.951,19.954],[40.957,19.933],[40.958,19.911],[40.947,19.809],[40.948,19.788],[40.966,19.723],[40.969,19.702],[40.963,19.619],[40.964,19.6],[40.969,19.58],[40.98,19.56],[40.995,19.545],[41.007,19.537],[41.084,19.498],[41.108,19.477],[41.17,19.397],[41.192,19.381],[41.216,19.37],[41.242,19.365],[41.266,19.365],[41.288,19.368],[41.31,19.374],[41.33,19.384],[41.349,19.399],[41.361,19.417],[41.369,19.436],[41.392,19.544],[41.456,19.704],[41.483,19.747],[41.495,19.761],[41.505,19.769],[41.523,19.777],[41.543,19.78],[41.637,19.78],[41.671,19.785],[41.699,19.797],[41.744,19.814],[41.786,19.816],[41.805,19.813],[41.819,19.808],[41.832,19.799],[41.847,19.782],[41.859,19.762],[41.865,19.741],[41.867,19.72],[41.864,19.7],[41.834,19.57],[41.832,19.547],[41.835,19.52],[41.841,19.5],[41.883,19.432],[41.889,19.408],[41.889,19.383],[41.855,19.282],[41.846,19.262],[41.832,19.245],[41.813,19.232],[41.795,19.224],[41.779,19.221],[41.765,19.221],[41.654,19.232],[41.632,19.231],[41.611,19.228],[41.588,19.221],[41.544,19.196],[41.494,19.16],[41.475,19.151],[41.455,19.151],[41.435,19.161],[41.418,19.174],[41.402,19.182],[41.394,19.171],[41.391,19.153],[41.384,18.92],[41.389,18.879],[41.395,18.858],[41.403,18.838],[41.415,18.818],[41.432,18.801],[41.451,18.791],[41.471,18.786],[41.58,18.787],[41.624,18.784],[41.666,18.776],[41.687,18.769],[41.706,18.759],[41.723,18.742],[41.734,18.723],[41.803,18.525],[41.81,18.495],[41.81,18.469],[41.806,18.441],[41.771,18.314],[41.752,18.275],[41.74,18.26],[41.722,18.242],[41.661,18.209],[41.641,18.197],[41.626,18.18],[41.616,18.163],[41.597,18.122],[41.597,18.121]]]}},{"type":"Feature","id":"SA-03","properties":{"id":"SA-03","countryCode":"SA","isoSubdivision":"SA-03","name":"Al Madinah","name_en":"Al Madinah","name_ko":"메디나","type":"Region","labelLongitude":39.438,"labelLatitude":24.928,"minZoom":6.6},"geometry":{"type":"Polygon","coordinates":[[[38.644,23.419],[38.641,23.44],[38.637,23.468],[38.631,23.49],[38.629,23.508],[38.612,23.524],[38.605,23.535],[38.602,23.552],[38.6,23.568],[38.578,23.557],[38.568,23.562],[38.56,23.562],[38.561,23.546],[38.57,23.537],[38.595,23.528],[38.595,23.521],[38.562,23.524],[38.54,23.543],[38.539,23.592],[38.495,23.645],[38.471,23.713],[38.464,23.736],[38.46,23.761],[38.453,23.784],[38.437,23.802],[38.427,23.807],[38.416,23.809],[38.4,23.814],[38.39,23.824],[38.385,23.839],[38.377,23.856],[38.365,23.87],[38.349,23.875],[38.333,23.879],[38.319,23.886],[38.309,23.893],[38.3,23.91],[38.283,23.928],[38.275,23.934],[38.259,23.945],[38.238,23.951],[38.222,23.953],[38.198,23.967],[38.185,23.976],[38.166,23.993],[38.147,24.015],[38.126,24.029],[38.109,24.044],[38.079,24.07],[38.071,24.074],[38.063,24.076],[38.054,24.072],[38.046,24.067],[38.023,24.082],[38.008,24.093],[37.966,24.117],[37.935,24.139],[37.941,24.151],[37.958,24.162],[37.983,24.166],[37.973,24.175],[37.958,24.17],[37.94,24.161],[37.932,24.174],[37.944,24.191],[37.948,24.207],[37.937,24.211],[37.931,24.203],[37.918,24.201],[37.913,24.192],[37.918,24.186],[37.922,24.177],[37.923,24.165],[37.924,24.156],[37.918,24.15],[37.896,24.157],[37.866,24.15],[37.82,24.182],[37.806,24.193],[37.768,24.221],[37.759,24.242],[37.746,24.25],[37.728,24.257],[37.71,24.266],[37.696,24.279],[37.676,24.291],[37.652,24.291],[37.641,24.292],[37.626,24.281],[37.623,24.268],[37.628,24.248],[37.586,24.247],[37.575,24.262],[37.546,24.274],[37.523,24.268],[37.501,24.289],[37.487,24.311],[37.465,24.34],[37.429,24.367],[37.418,24.401],[37.428,24.421],[37.435,24.419],[37.455,24.407],[37.463,24.423],[37.457,24.441],[37.383,24.54],[37.385,24.546],[37.397,24.605],[37.404,24.623],[37.415,24.641],[37.431,24.657],[37.452,24.666],[37.472,24.671],[37.554,24.671],[37.592,24.675],[37.614,24.681],[37.638,24.689],[37.662,24.704],[37.687,24.726],[37.713,24.757],[37.735,24.777],[37.757,24.789],[37.779,24.793],[37.801,24.792],[37.846,24.784],[37.894,24.782],[37.919,24.787],[37.944,24.797],[37.967,24.814],[37.987,24.84],[37.996,24.858],[38.001,24.873],[37.988,25.202],[38.023,25.429],[38.021,25.449],[38.014,25.467],[38.001,25.479],[37.987,25.486],[37.966,25.49],[37.903,25.492],[37.887,25.496],[37.881,25.499],[37.878,25.502],[37.869,25.521],[37.834,25.644],[37.803,25.719],[37.787,25.747],[37.773,25.766],[37.755,25.786],[37.625,25.884],[37.608,25.903],[37.595,25.923],[37.587,25.945],[37.571,25.999],[37.569,26.003],[37.562,26.009],[37.546,26.02],[37.368,26.112],[37.345,26.115],[37.324,26.108],[37.288,26.081],[37.272,26.078],[37.265,26.09],[37.258,26.107],[37.248,26.148],[37.234,26.188],[37.176,26.294],[37.169,26.315],[37.167,26.335],[37.169,26.356],[37.173,26.376],[37.191,26.417],[37.253,26.508],[37.26,26.524],[37.265,26.545],[37.264,26.568],[37.254,26.593],[37.236,26.61],[37.215,26.621],[37.1,26.652],[37.076,26.661],[37.054,26.674],[37.032,26.693],[37.015,26.712],[37.002,26.733],[36.993,26.754],[36.986,26.776],[36.981,26.8],[36.979,26.842],[37.001,26.978],[37.003,27.033],[37,27.059],[36.985,27.12],[36.976,27.138],[36.968,27.149],[36.953,27.164],[36.936,27.175],[36.918,27.181],[36.906,27.183],[36.887,27.182],[36.822,27.171],[36.8,27.172],[36.783,27.182],[36.779,27.199],[36.785,27.216],[36.803,27.231],[36.824,27.241],[36.939,27.266],[37.196,27.375],[37.218,27.381],[37.246,27.381],[37.277,27.376],[37.321,27.359],[37.406,27.311],[37.435,27.3],[37.477,27.294],[37.499,27.293],[37.523,27.296],[37.545,27.303],[37.732,27.393],[37.75,27.394],[37.768,27.39],[37.795,27.372],[37.809,27.355],[37.818,27.339],[37.846,27.247],[37.865,27.205],[37.885,27.171],[37.94,27.095],[37.963,27.078],[37.992,27.064],[38.035,27.057],[38.136,27.053],[38.158,27.05],[38.179,27.044],[38.196,27.033],[38.205,27.018],[38.207,27.006],[38.207,27.001],[38.206,26.997],[38.206,26.989],[38.207,26.973],[38.215,26.956],[38.231,26.94],[38.293,26.905],[38.31,26.888],[38.317,26.87],[38.317,26.849],[38.314,26.828],[38.314,26.809],[38.323,26.794],[38.343,26.789],[38.375,26.796],[38.401,26.811],[38.491,26.875],[38.505,26.881],[38.526,26.885],[38.55,26.883],[38.583,26.874],[38.657,26.842],[38.682,26.835],[38.705,26.834],[38.73,26.844],[38.735,26.86],[38.732,26.879],[38.727,26.899],[38.729,26.916],[38.741,26.928],[38.759,26.926],[38.783,26.908],[38.794,26.888],[38.81,26.848],[38.833,26.829],[38.869,26.813],[38.995,26.772],[39.116,26.689],[39.154,26.677],[39.204,26.671],[39.304,26.672],[39.72,26.73],[39.742,26.727],[39.765,26.714],[39.782,26.701],[39.816,26.657],[39.834,26.614],[39.838,26.595],[39.841,26.57],[39.84,26.547],[39.832,26.511],[39.827,26.499],[39.791,26.44],[39.779,26.409],[39.78,26.385],[39.791,26.364],[39.809,26.348],[39.831,26.34],[39.854,26.338],[39.902,26.347],[39.925,26.346],[39.947,26.33],[39.956,26.31],[39.96,26.288],[39.904,25.953],[39.903,25.922],[39.907,25.898],[39.939,25.788],[39.956,25.688],[39.947,25.422],[39.953,25.395],[39.964,25.371],[39.978,25.352],[39.994,25.337],[40.005,25.329],[40.023,25.321],[40.045,25.315],[40.067,25.312],[40.09,25.313],[40.114,25.316],[40.362,25.396],[40.412,25.404],[40.531,25.401],[40.575,25.405],[40.595,25.408],[40.615,25.414],[40.628,25.419],[40.646,25.428],[40.666,25.441],[40.686,25.458],[40.759,25.541],[40.782,25.559],[40.809,25.574],[40.843,25.586],[40.871,25.592],[41.044,25.598],[41.324,25.558],[41.41,25.537],[41.434,25.529],[41.566,25.5],[41.61,25.486],[41.63,25.474],[41.645,25.454],[41.653,25.43],[41.656,25.406],[41.637,25.147],[41.641,25.125],[41.65,25.102],[41.67,25.075],[41.691,25.058],[41.714,25.047],[41.844,25.015],[41.86,25.008],[41.872,25.001],[41.873,24.999],[41.891,24.971],[41.908,24.932],[41.96,24.744],[41.979,24.703],[41.992,24.685],[42.009,24.671],[42.096,24.612],[42.096,24.577],[42.084,24.533],[42.071,24.504],[42.069,24.5],[42.022,24.445],[42.007,24.421],[42.001,24.405],[42,24.39],[42.002,24.383],[42.016,24.35],[42.017,24.326],[42.013,24.288],[41.996,24.213],[41.983,24.042],[41.986,23.949],[41.855,23.967],[41.792,23.964],[41.77,23.955],[41.75,23.941],[41.736,23.923],[41.732,23.903],[41.734,23.882],[41.76,23.816],[41.764,23.796],[41.766,23.774],[41.765,23.73],[41.757,23.706],[41.744,23.679],[41.718,23.642],[41.693,23.619],[41.669,23.602],[41.491,23.531],[41.361,23.463],[41.317,23.433],[41.286,23.403],[41.276,23.378],[41.282,23.357],[41.299,23.34],[41.321,23.325],[41.43,23.271],[41.447,23.254],[41.453,23.232],[41.443,23.205],[41.423,23.185],[41.4,23.173],[41.284,23.134],[41.257,23.117],[41.227,23.094],[41.087,22.965],[40.802,22.757],[40.762,22.715],[40.691,22.612],[40.665,22.586],[40.641,22.576],[40.617,22.575],[40.464,22.619],[40.439,22.622],[40.409,22.616],[40.368,22.592],[40.266,22.512],[40.245,22.501],[40.24,22.499],[40.215,22.493],[40.193,22.491],[40.169,22.491],[40.105,22.5],[40.1,22.501],[40.08,22.513],[40.068,22.529],[40.064,22.549],[40.067,22.569],[40.077,22.609],[40.083,22.653],[40.082,22.674],[40.077,22.695],[40.067,22.716],[40.052,22.735],[40.033,22.751],[40.015,22.764],[39.984,22.778],[39.918,22.797],[39.898,22.805],[39.885,22.821],[39.882,22.841],[39.887,22.861],[39.942,22.981],[39.948,22.999],[39.954,23.047],[39.953,23.078],[39.95,23.096],[39.943,23.115],[39.931,23.133],[39.913,23.146],[39.892,23.152],[39.87,23.154],[39.776,23.143],[39.563,23.081],[39.487,23.068],[39.464,23.078],[39.453,23.094],[39.45,23.135],[39.445,23.154],[39.434,23.171],[39.415,23.181],[39.385,23.182],[39.279,23.164],[39.24,23.161],[39.207,23.167],[39.183,23.181],[39.16,23.199],[39.082,23.284],[39.001,23.349],[38.988,23.362],[38.946,23.425],[38.926,23.442],[38.9,23.449],[38.87,23.447],[38.799,23.432],[38.675,23.423],[38.644,23.419]]]}},{"type":"Feature","id":"SA-04","properties":{"id":"SA-04","countryCode":"SA","isoSubdivision":"SA-04","name":"Eastern","name_en":"Eastern","name_ko":"동부","type":"Region","labelLongitude":50.171,"labelLatitude":22.988,"minZoom":6.6},"geometry":{"type":"MultiPolygon","coordinates":[[[[50.808,24.747],[50.881,24.636],[50.929,24.587],[50.979,24.568],[51.039,24.56],[51.095,24.56],[51.147,24.576],[51.215,24.626],[51.218,24.618],[51.269,24.624],[51.278,24.619],[51.286,24.608],[51.295,24.603],[51.306,24.611],[51.307,24.603],[51.306,24.594],[51.302,24.587],[51.296,24.584],[51.29,24.579],[51.292,24.568],[51.297,24.558],[51.3,24.556],[51.297,24.522],[51.302,24.517],[51.32,24.523],[51.334,24.532],[51.361,24.576],[51.375,24.589],[51.388,24.597],[51.396,24.608],[51.395,24.631],[51.41,24.624],[51.428,24.623],[51.444,24.62],[51.45,24.607],[51.455,24.594],[51.468,24.592],[51.483,24.592],[51.498,24.584],[51.498,24.576],[51.482,24.569],[51.461,24.563],[51.444,24.555],[51.436,24.539],[51.432,24.539],[51.41,24.516],[51.405,24.508],[51.4,24.495],[51.395,24.488],[51.336,24.448],[51.327,24.436],[51.324,24.431],[51.311,24.415],[51.306,24.406],[51.304,24.396],[51.302,24.374],[51.3,24.364],[51.299,24.359],[51.3,24.352],[51.3,24.346],[51.296,24.344],[51.285,24.344],[51.28,24.344],[51.279,24.341],[51.278,24.319],[51.279,24.308],[51.282,24.303],[51.345,24.298],[51.368,24.303],[51.38,24.31],[51.389,24.317],[51.398,24.322],[51.413,24.323],[51.479,24.311],[51.497,24.298],[51.526,24.268],[51.569,24.256],[51.576,24.218],[51.575,24.192],[51.573,24.128],[51.579,24.102],[51.594,24.078],[51.65,24.011],[51.703,23.949],[51.755,23.887],[51.807,23.824],[51.859,23.763],[51.911,23.701],[51.963,23.639],[52.016,23.576],[52.068,23.514],[52.12,23.453],[52.172,23.39],[52.224,23.328],[52.276,23.266],[52.328,23.204],[52.381,23.142],[52.433,23.08],[52.485,23.018],[52.538,22.955],[52.558,22.939],[52.583,22.931],[52.744,22.911],[52.883,22.894],[53.022,22.877],[53.161,22.86],[53.3,22.843],[53.439,22.826],[53.578,22.809],[53.717,22.792],[53.856,22.775],[53.995,22.757],[54.134,22.74],[54.273,22.723],[54.412,22.706],[54.551,22.689],[54.69,22.672],[54.829,22.655],[54.969,22.638],[55.105,22.621],[55.12,22.623],[55.187,22.704],[55.25,22.605],[55.331,22.481],[55.412,22.356],[55.493,22.231],[55.574,22.106],[55.627,22.024],[55.637,22.002],[55.638,21.979],[55.6,21.866],[55.595,21.851],[55.589,21.831],[55.57,21.775],[55.541,21.689],[55.504,21.576],[55.46,21.443],[55.41,21.294],[55.357,21.136],[55.345,21.097],[55.303,20.971],[55.248,20.807],[55.196,20.649],[55.146,20.5],[55.102,20.367],[55.064,20.254],[55.036,20.168],[55.017,20.112],[55.011,20.092],[54.978,19.995],[54.828,19.945],[54.657,19.888],[54.486,19.831],[54.315,19.774],[54.143,19.717],[53.972,19.66],[53.801,19.603],[53.63,19.546],[53.459,19.489],[53.288,19.432],[53.117,19.375],[52.946,19.318],[52.774,19.261],[52.603,19.204],[52.432,19.147],[52.261,19.09],[52.09,19.033],[51.979,18.996],[51.821,18.974],[51.66,18.953],[51.5,18.931],[51.34,18.91],[51.18,18.888],[51.02,18.867],[50.86,18.845],[50.699,18.824],[50.539,18.802],[50.379,18.78],[50.219,18.759],[50.059,18.737],[49.899,18.716],[49.738,18.694],[49.578,18.673],[49.418,18.651],[49.258,18.63],[49.129,18.612],[49.036,18.58],[48.991,18.558],[48.848,18.488],[48.676,18.404],[48.484,18.31],[48.313,18.227],[48.184,18.164],[48.162,18.149],[48.084,18.056],[47.994,17.948],[47.836,17.758],[47.686,17.58],[47.589,17.463],[47.572,17.432],[47.525,17.308],[47.458,17.131],[47.429,17.093],[47.429,17.094],[47.745,19.531],[48.014,21.5],[48.299,23.655],[48.305,23.878],[48.29,24],[48.265,24.071],[48.223,24.159],[48.181,24.223],[48.141,24.27],[47.889,24.502],[47.535,24.735],[47.517,24.753],[47.504,24.774],[47.496,24.789],[47.488,24.834],[47.465,26.175],[47.459,26.206],[47.452,26.225],[47.443,26.244],[47.43,26.262],[47.415,26.274],[47.403,26.283],[47.083,26.398],[47.062,26.409],[47.044,26.427],[47.017,26.465],[46.852,26.61],[46.83,26.623],[46.807,26.63],[46.783,26.631],[46.634,26.607],[46.611,26.607],[46.588,26.611],[46.564,26.618],[46.541,26.627],[46.294,26.786],[46.23,26.818],[46.187,26.832],[46.143,26.84],[45.977,26.845],[45.934,26.853],[45.913,26.862],[45.869,26.888],[45.774,26.969],[45.712,27.037],[45.692,27.053],[45.671,27.064],[45.648,27.068],[45.575,27.073],[45.529,27.086],[45.245,27.232],[45.222,27.251],[45.198,27.279],[45.185,27.305],[45.158,27.392],[45.145,27.415],[45.128,27.436],[45.086,27.472],[45,27.528],[44.99,27.533],[44.977,27.546],[44.951,27.58],[44.942,27.6],[44.939,27.62],[44.939,27.638],[44.941,27.654],[44.949,27.683],[44.974,27.74],[44.995,27.773],[45.164,27.953],[45.213,28.016],[45.565,28.602],[45.625,28.682],[45.702,28.758],[45.801,28.838],[45.941,28.906],[46.414,29.063],[46.427,29.076],[46.445,29.079],[46.489,29.088],[46.532,29.096],[46.644,29.084],[46.756,29.072],[46.867,29.059],[46.979,29.047],[47.079,29.036],[47.178,29.024],[47.278,29.013],[47.378,29.001],[47.433,28.995],[47.434,28.995],[47.446,28.976],[47.494,28.904],[47.55,28.771],[47.555,28.745],[47.558,28.691],[47.568,28.661],[47.582,28.631],[47.597,28.609],[47.618,28.591],[47.641,28.577],[47.66,28.56],[47.668,28.534],[47.722,28.534],[47.9,28.536],[48.077,28.537],[48.255,28.539],[48.433,28.54],[48.456,28.518],[48.469,28.511],[48.495,28.5],[48.499,28.493],[48.508,28.449],[48.508,28.416],[48.499,28.393],[48.476,28.401],[48.471,28.394],[48.47,28.391],[48.469,28.387],[48.488,28.386],[48.505,28.39],[48.517,28.399],[48.524,28.414],[48.535,28.408],[48.535,28.399],[48.524,28.38],[48.518,28.354],[48.517,28.342],[48.522,28.319],[48.535,28.299],[48.618,28.217],[48.624,28.205],[48.609,28.186],[48.602,28.167],[48.601,28.148],[48.606,28.126],[48.616,28.111],[48.648,28.072],[48.655,28.062],[48.653,28.05],[48.652,28.046],[48.668,28.038],[48.702,28.024],[48.713,28.023],[48.747,28.024],[48.756,28.022],[48.776,28.012],[48.788,28.01],[48.792,28.007],[48.792,28.001],[48.788,27.994],[48.785,27.989],[48.778,27.987],[48.771,27.987],[48.764,27.989],[48.747,27.982],[48.742,27.975],[48.744,27.961],[48.753,27.948],[48.773,27.93],[48.796,27.914],[48.815,27.907],[48.815,27.902],[48.838,27.872],[48.878,27.837],[48.883,27.827],[48.874,27.807],[48.873,27.794],[48.873,27.782],[48.877,27.777],[48.875,27.77],[48.865,27.754],[48.853,27.737],[48.839,27.729],[48.846,27.74],[48.848,27.749],[48.845,27.773],[48.848,27.787],[48.854,27.795],[48.858,27.804],[48.853,27.818],[48.838,27.804],[48.822,27.767],[48.805,27.756],[48.823,27.8],[48.826,27.811],[48.821,27.83],[48.813,27.829],[48.804,27.815],[48.785,27.745],[48.785,27.729],[48.782,27.726],[48.779,27.72],[48.78,27.714],[48.791,27.715],[48.797,27.72],[48.804,27.736],[48.811,27.743],[48.811,27.698],[48.815,27.688],[48.825,27.689],[48.834,27.697],[48.839,27.708],[48.846,27.697],[48.847,27.684],[48.845,27.667],[48.858,27.663],[48.868,27.668],[48.875,27.677],[48.88,27.688],[48.881,27.67],[48.878,27.664],[48.873,27.66],[48.878,27.651],[48.877,27.644],[48.871,27.641],[48.86,27.64],[48.87,27.619],[48.873,27.612],[48.849,27.623],[48.839,27.623],[48.832,27.612],[48.853,27.605],[48.871,27.606],[48.885,27.615],[48.894,27.633],[48.901,27.633],[48.907,27.619],[48.895,27.608],[48.891,27.588],[48.897,27.572],[48.914,27.572],[48.922,27.579],[48.917,27.586],[48.91,27.593],[48.907,27.599],[48.915,27.609],[48.926,27.614],[48.949,27.619],[48.969,27.62],[48.982,27.615],[49.017,27.585],[49.054,27.568],[49.064,27.556],[49.045,27.544],[49.059,27.538],[49.072,27.539],[49.078,27.547],[49.072,27.558],[49.089,27.551],[49.106,27.547],[49.144,27.544],[49.153,27.546],[49.17,27.556],[49.178,27.558],[49.189,27.557],[49.209,27.552],[49.22,27.55],[49.24,27.545],[49.255,27.532],[49.278,27.503],[49.285,27.498],[49.292,27.494],[49.299,27.49],[49.305,27.482],[49.308,27.475],[49.31,27.457],[49.313,27.449],[49.3,27.448],[49.293,27.453],[49.29,27.462],[49.292,27.475],[49.285,27.475],[49.264,27.453],[49.209,27.458],[49.189,27.441],[49.182,27.441],[49.175,27.458],[49.158,27.458],[49.12,27.441],[49.128,27.437],[49.15,27.431],[49.161,27.427],[49.17,27.421],[49.176,27.416],[49.183,27.411],[49.195,27.406],[49.202,27.399],[49.207,27.395],[49.213,27.397],[49.23,27.412],[49.23,27.414],[49.235,27.418],[49.237,27.424],[49.24,27.427],[49.247,27.424],[49.255,27.418],[49.264,27.414],[49.257,27.4],[49.247,27.393],[49.237,27.388],[49.23,27.38],[49.227,27.369],[49.226,27.343],[49.223,27.331],[49.234,27.334],[49.246,27.339],[49.257,27.347],[49.267,27.355],[49.279,27.359],[49.292,27.355],[49.313,27.345],[49.305,27.326],[49.308,27.306],[49.315,27.287],[49.319,27.266],[49.317,27.224],[49.323,27.206],[49.34,27.208],[49.338,27.19],[49.345,27.183],[49.356,27.185],[49.367,27.194],[49.362,27.209],[49.371,27.219],[49.386,27.22],[49.401,27.208],[49.407,27.215],[49.412,27.204],[49.409,27.194],[49.404,27.183],[49.401,27.17],[49.397,27.163],[49.389,27.159],[49.378,27.159],[49.367,27.161],[49.375,27.149],[49.399,27.145],[49.407,27.133],[49.417,27.138],[49.424,27.146],[49.435,27.167],[49.436,27.162],[49.437,27.162],[49.438,27.162],[49.442,27.161],[49.432,27.143],[49.44,27.14],[49.466,27.147],[49.481,27.144],[49.508,27.134],[49.524,27.133],[49.497,27.159],[49.489,27.175],[49.504,27.188],[49.516,27.188],[49.526,27.183],[49.535,27.176],[49.545,27.174],[49.553,27.177],[49.572,27.194],[49.569,27.178],[49.559,27.154],[49.559,27.14],[49.565,27.117],[49.57,27.104],[49.576,27.099],[49.594,27.091],[49.612,27.072],[49.67,26.991],[49.699,26.958],[49.708,26.952],[49.737,26.941],[49.746,26.934],[49.761,26.921],[49.771,26.914],[49.833,26.888],[49.872,26.862],[49.894,26.86],[49.917,26.861],[49.942,26.858],[49.973,26.842],[50.002,26.817],[50.052,26.756],[50.069,26.729],[50.142,26.681],[50.158,26.665],[50.162,26.639],[50.117,26.675],[50.093,26.689],[50.038,26.695],[50.024,26.7],[50.014,26.711],[50.006,26.748],[49.998,26.741],[49.988,26.724],[49.984,26.708],[49.983,26.696],[49.983,26.684],[49.987,26.673],[49.994,26.663],[50.004,26.654],[50.006,26.649],[50.002,26.587],[50.004,26.571],[50.031,26.495],[50.042,26.478],[50.058,26.464],[50.077,26.454],[50.162,26.427],[50.192,26.404],[50.209,26.37],[50.217,26.324],[50.216,26.215],[50.212,26.191],[50.202,26.171],[50.182,26.16],[50.182,26.175],[50.174,26.181],[50.163,26.177],[50.155,26.166],[50.161,26.141],[50.158,26.102],[50.15,26.063],[50.141,26.036],[50.126,26.046],[50.121,26.061],[50.122,26.076],[50.12,26.091],[50.113,26.103],[50.104,26.111],[50.095,26.118],[50.087,26.125],[50.081,26.129],[50.077,26.129],[50.074,26.132],[50.072,26.159],[50.07,26.166],[50.066,26.174],[50.058,26.184],[50.046,26.195],[50.032,26.201],[50.021,26.198],[49.995,26.152],[49.987,26.146],[49.976,26.14],[49.981,26.126],[49.992,26.113],[49.997,26.108],[50,26.101],[50.009,26.086],[50.01,26.077],[50.007,26.074],[50,26.072],[49.993,26.068],[49.99,26.06],[49.992,26.046],[49.996,26.032],[49.997,26.017],[49.99,26.002],[50.007,25.997],[50.021,26.004],[50.028,26.019],[50.024,26.036],[50.034,26.033],[50.041,26.028],[50.052,26.015],[50.057,26.013],[50.062,26.014],[50.065,26.013],[50.066,26.006],[50.066,25.999],[50.067,25.996],[50.07,25.995],[50.076,25.995],[50.101,25.989],[50.112,25.976],[50.117,25.958],[50.128,25.94],[50.128,25.934],[50.108,25.915],[50.118,25.868],[50.142,25.816],[50.162,25.783],[50.222,25.717],[50.247,25.679],[50.257,25.632],[50.251,25.632],[50.234,25.68],[50.227,25.687],[50.215,25.69],[50.2,25.696],[50.188,25.704],[50.175,25.72],[50.159,25.732],[50.145,25.733],[50.141,25.714],[50.149,25.7],[50.174,25.683],[50.182,25.673],[50.188,25.683],[50.189,25.687],[50.196,25.687],[50.234,25.615],[50.348,25.482],[50.374,25.461],[50.371,25.475],[50.365,25.49],[50.362,25.503],[50.371,25.508],[50.381,25.513],[50.386,25.511],[50.39,25.489],[50.395,25.483],[50.4,25.48],[50.402,25.478],[50.41,25.464],[50.429,25.456],[50.463,25.447],[50.472,25.437],[50.491,25.392],[50.483,25.385],[50.496,25.37],[50.509,25.344],[50.52,25.315],[50.525,25.293],[50.524,25.28],[50.519,25.258],[50.518,25.245],[50.52,25.232],[50.524,25.223],[50.529,25.216],[50.535,25.199],[50.549,25.175],[50.552,25.159],[50.545,25.119],[50.553,25.078],[50.562,25.055],[50.573,25.043],[50.58,25.062],[50.606,25.043],[50.633,25.011],[50.645,24.995],[50.662,24.98],[50.681,24.914],[50.707,24.899],[50.726,24.882],[50.735,24.843],[50.737,24.782],[50.741,24.771],[50.75,24.753],[50.761,24.736],[50.771,24.727],[50.786,24.727],[50.808,24.747]]],[[[49.565,27.352],[49.585,27.344],[49.638,27.331],[49.689,27.318],[49.67,27.311],[49.655,27.315],[49.64,27.321],[49.624,27.324],[49.607,27.322],[49.592,27.317],[49.578,27.308],[49.565,27.298],[49.557,27.305],[49.556,27.305],[49.552,27.304],[49.544,27.309],[49.538,27.311],[49.538,27.318],[49.551,27.323],[49.554,27.328],[49.55,27.334],[49.546,27.338],[49.542,27.342],[49.531,27.346],[49.52,27.345],[49.51,27.341],[49.5,27.339],[49.488,27.334],[49.475,27.322],[49.464,27.307],[49.456,27.29],[49.454,27.316],[49.472,27.342],[49.501,27.361],[49.531,27.365],[49.542,27.364],[49.551,27.36],[49.565,27.352]]]]}},{"type":"Feature","id":"SA-05","properties":{"id":"SA-05","countryCode":"SA","isoSubdivision":"SA-05","name":"Al-Qassim","name_en":"Al-Qassim","name_ko":"알 콰심","type":"Region","labelLongitude":43.272,"labelLatitude":25.948,"minZoom":6.6},"geometry":{"type":"Polygon","coordinates":[[[44.628,27.222],[44.692,27.197],[44.737,27.169],[44.778,27.138],[44.798,27.119],[44.815,27.099],[44.828,27.077],[44.837,27.056],[44.843,27.035],[44.845,27.017],[44.845,27.001],[44.845,26.999],[44.841,26.986],[44.834,26.971],[44.821,26.954],[44.801,26.94],[44.778,26.93],[44.73,26.914],[44.705,26.902],[44.68,26.886],[44.635,26.85],[44.597,26.812],[44.525,26.716],[44.507,26.703],[44.496,26.697],[44.457,26.69],[44.433,26.683],[44.41,26.671],[44.392,26.648],[44.389,26.625],[44.396,26.58],[44.397,26.536],[44.376,26.406],[44.376,26.385],[44.381,26.365],[44.392,26.345],[44.408,26.325],[44.487,26.254],[44.511,26.227],[44.6,26.093],[44.676,26.001],[44.678,25.997],[44.683,25.965],[44.672,25.919],[44.668,25.89],[44.675,25.867],[44.703,25.821],[44.716,25.792],[44.727,25.757],[44.736,25.697],[44.737,25.662],[44.735,25.633],[44.731,25.612],[44.724,25.594],[44.712,25.579],[44.694,25.572],[44.672,25.569],[44.581,25.577],[44.343,25.561],[44.13,25.587],[44.084,25.587],[44.061,25.582],[44.039,25.576],[44.019,25.567],[44.003,25.558],[43.99,25.548],[43.974,25.533],[43.947,25.5],[43.91,25.432],[43.891,25.404],[43.869,25.385],[43.798,25.343],[43.745,25.297],[43.72,25.281],[43.68,25.264],[43.346,25.191],[43.322,25.181],[43.298,25.166],[43.203,25.079],[43.106,24.962],[43.093,24.934],[43.088,24.91],[43.092,24.89],[43.102,24.87],[43.128,24.829],[43.135,24.805],[43.134,24.778],[43.118,24.741],[43.098,24.716],[43.074,24.697],[43.05,24.687],[43.029,24.682],[43.01,24.682],[42.932,24.702],[42.884,24.705],[42.742,24.685],[42.693,24.684],[42.512,24.702],[42.441,24.718],[42.397,24.733],[42.29,24.782],[42.269,24.786],[42.245,24.783],[42.222,24.773],[42.195,24.754],[42.182,24.741],[42.115,24.65],[42.096,24.612],[42.009,24.671],[41.992,24.685],[41.979,24.703],[41.96,24.744],[41.908,24.932],[41.891,24.971],[41.873,24.999],[41.872,25.001],[41.86,25.008],[41.844,25.015],[41.714,25.047],[41.691,25.058],[41.67,25.075],[41.65,25.102],[41.641,25.125],[41.637,25.147],[41.656,25.406],[41.653,25.43],[41.645,25.454],[41.63,25.474],[41.61,25.486],[41.566,25.5],[41.434,25.529],[41.41,25.537],[41.449,25.569],[41.489,25.581],[41.549,25.587],[41.583,25.596],[41.743,25.675],[41.781,25.689],[41.813,25.697],[41.909,25.706],[41.932,25.712],[41.95,25.726],[41.955,25.742],[41.952,25.758],[41.947,25.77],[41.9,25.849],[41.893,25.871],[41.89,25.892],[41.896,25.916],[41.909,25.938],[41.934,25.963],[41.958,25.973],[41.98,25.975],[41.997,25.971],[42.075,25.943],[42.099,25.938],[42.122,25.937],[42.142,25.943],[42.154,25.958],[42.157,25.976],[42.157,25.991],[42.156,26],[42.138,26.082],[42.136,26.102],[42.138,26.122],[42.142,26.142],[42.158,26.185],[42.181,26.226],[42.195,26.242],[42.215,26.251],[42.237,26.251],[42.26,26.249],[42.285,26.251],[42.332,26.261],[42.352,26.271],[42.366,26.289],[42.372,26.31],[42.389,26.346],[42.418,26.389],[42.535,26.511],[42.798,26.702],[42.918,26.771],[43.147,26.859],[43.181,26.881],[43.203,26.903],[43.217,26.926],[43.259,27.005],[43.294,27.046],[43.343,27.088],[43.418,27.131],[43.797,27.305],[43.846,27.322],[43.869,27.326],[43.893,27.328],[43.915,27.325],[43.938,27.318],[43.961,27.306],[43.997,27.279],[44.069,27.21],[44.197,27.118],[44.24,27.094],[44.265,27.087],[44.369,27.083],[44.436,27.07],[44.458,27.069],[44.478,27.073],[44.496,27.083],[44.509,27.093],[44.586,27.188],[44.628,27.222]]]}},{"type":"Feature","id":"SA-06","properties":{"id":"SA-06","countryCode":"SA","isoSubdivision":"SA-06","name":"Ha'il","name_en":"Ha'il","name_ko":"하일","type":"Region","labelLongitude":41.708,"labelLatitude":27.265,"minZoom":6.6},"geometry":{"type":"Polygon","coordinates":[[[44.458,27.069],[44.436,27.07],[44.369,27.083],[44.265,27.087],[44.24,27.094],[44.197,27.118],[44.069,27.21],[43.997,27.279],[43.961,27.306],[43.938,27.318],[43.915,27.325],[43.893,27.328],[43.869,27.326],[43.846,27.322],[43.797,27.305],[43.418,27.131],[43.343,27.088],[43.294,27.046],[43.259,27.005],[43.217,26.926],[43.203,26.903],[43.181,26.881],[43.147,26.859],[42.918,26.771],[42.798,26.702],[42.535,26.511],[42.418,26.389],[42.389,26.346],[42.372,26.31],[42.366,26.289],[42.352,26.271],[42.332,26.261],[42.285,26.251],[42.26,26.249],[42.237,26.251],[42.215,26.251],[42.195,26.242],[42.181,26.226],[42.158,26.185],[42.142,26.142],[42.138,26.122],[42.136,26.102],[42.138,26.082],[42.156,26],[42.157,25.991],[42.157,25.976],[42.154,25.958],[42.142,25.943],[42.122,25.937],[42.099,25.938],[42.075,25.943],[41.997,25.971],[41.98,25.975],[41.958,25.973],[41.934,25.963],[41.909,25.938],[41.896,25.916],[41.89,25.892],[41.893,25.871],[41.9,25.849],[41.947,25.77],[41.952,25.758],[41.955,25.742],[41.95,25.726],[41.932,25.712],[41.909,25.706],[41.813,25.697],[41.781,25.689],[41.743,25.675],[41.583,25.596],[41.549,25.587],[41.489,25.581],[41.449,25.569],[41.41,25.537],[41.324,25.558],[41.044,25.598],[40.871,25.592],[40.843,25.586],[40.809,25.574],[40.782,25.559],[40.759,25.541],[40.686,25.458],[40.666,25.441],[40.646,25.428],[40.628,25.419],[40.615,25.414],[40.595,25.408],[40.575,25.405],[40.531,25.401],[40.412,25.404],[40.362,25.396],[40.114,25.316],[40.09,25.313],[40.067,25.312],[40.045,25.315],[40.023,25.321],[40.005,25.329],[39.994,25.337],[39.978,25.352],[39.964,25.371],[39.953,25.395],[39.947,25.422],[39.956,25.688],[39.939,25.788],[39.907,25.898],[39.903,25.922],[39.904,25.953],[39.96,26.288],[39.956,26.31],[39.947,26.33],[39.925,26.346],[39.902,26.347],[39.854,26.338],[39.831,26.34],[39.809,26.348],[39.791,26.364],[39.78,26.385],[39.779,26.409],[39.791,26.44],[39.827,26.499],[39.832,26.511],[39.84,26.547],[39.841,26.57],[39.838,26.595],[39.834,26.614],[39.816,26.657],[39.831,26.667],[39.848,26.688],[39.867,26.72],[39.925,26.882],[39.955,26.936],[40,26.99],[40.123,27.086],[40.142,27.105],[40.158,27.125],[40.167,27.146],[40.17,27.167],[40.166,27.187],[40.144,27.211],[40.121,27.228],[40,27.286],[39.962,27.31],[39.946,27.322],[39.931,27.342],[39.92,27.361],[39.811,27.753],[39.801,27.774],[39.787,27.796],[39.728,27.847],[39.611,27.933],[39.551,27.959],[39.52,27.978],[39.498,27.998],[39.494,28.003],[39.472,28.024],[39.434,28.043],[39.38,28.062],[39.058,28.129],[39.034,28.138],[39.017,28.147],[39,28.168],[39.109,28.274],[39.132,28.289],[39.156,28.303],[39.535,28.461],[39.71,28.504],[40.08,28.69],[40.459,28.827],[40.481,28.829],[40.544,28.816],[40.658,28.774],[40.716,28.76],[40.74,28.76],[41.271,28.868],[41.342,28.876],[41.383,28.875],[41.417,28.87],[41.659,28.801],[41.694,28.796],[41.721,28.795],[41.746,28.799],[41.867,28.826],[41.976,28.832],[42.001,28.831],[42.342,28.761],[42.388,28.744],[42.411,28.732],[42.434,28.715],[42.555,28.587],[42.584,28.565],[42.618,28.546],[42.668,28.53],[42.704,28.525],[42.738,28.527],[42.767,28.533],[42.796,28.543],[42.876,28.582],[42.904,28.593],[42.933,28.599],[42.968,28.599],[42.989,28.589],[42.998,28.58],[43,28.572],[43.005,28.497],[43.008,28.483],[43.014,28.462],[43.03,28.432],[43.053,28.409],[43.087,28.389],[43.115,28.383],[43.141,28.38],[43.241,28.389],[43.275,28.386],[43.303,28.379],[43.409,28.33],[43.447,28.318],[43.474,28.316],[43.496,28.318],[43.537,28.336],[43.653,28.402],[43.681,28.413],[43.716,28.415],[43.742,28.407],[43.765,28.391],[43.782,28.371],[43.951,28.101],[44.035,27.904],[44.07,27.861],[44.094,27.84],[44.121,27.823],[44.155,27.807],[44.182,27.799],[44.491,27.758],[44.525,27.746],[44.571,27.723],[44.593,27.709],[44.759,27.577],[44.785,27.549],[44.799,27.52],[44.741,27.501],[44.739,27.5],[44.725,27.491],[44.694,27.464],[44.668,27.435],[44.64,27.395],[44.624,27.363],[44.614,27.332],[44.611,27.312],[44.61,27.291],[44.611,27.271],[44.622,27.235],[44.628,27.222],[44.586,27.188],[44.509,27.093],[44.496,27.083],[44.478,27.073],[44.458,27.069]]]}},{"type":"Feature","id":"SA-07","properties":{"id":"SA-07","countryCode":"SA","isoSubdivision":"SA-07","name":"Tabuk","name_en":"Tabuk","name_ko":"타부크","type":"Region","labelLongitude":36.801,"labelLatitude":27.915,"minZoom":6.6},"geometry":{"type":"MultiPolygon","coordinates":[[[[37.383,24.54],[37.319,24.624],[37.258,24.702],[37.229,24.738],[37.227,24.765],[37.23,24.773],[37.231,24.783],[37.23,24.793],[37.227,24.8],[37.22,24.803],[37.207,24.791],[37.196,24.79],[37.179,24.799],[37.166,24.815],[37.149,24.851],[37.174,24.851],[37.197,24.847],[37.219,24.847],[37.244,24.854],[37.257,24.871],[37.258,24.922],[37.28,24.964],[37.277,24.987],[37.258,25.029],[37.251,25.053],[37.258,25.111],[37.256,25.134],[37.251,25.155],[37.242,25.175],[37.23,25.194],[37.212,25.214],[37.2,25.224],[37.189,25.231],[37.18,25.239],[37.171,25.258],[37.162,25.266],[37.142,25.28],[37.123,25.3],[37.105,25.322],[37.093,25.344],[37.091,25.354],[37.089,25.377],[37.086,25.385],[37.08,25.395],[37.065,25.41],[37.06,25.42],[37.077,25.431],[37.063,25.454],[37.018,25.495],[37.011,25.507],[36.994,25.55],[36.989,25.557],[36.976,25.565],[36.97,25.57],[36.969,25.576],[36.97,25.589],[36.967,25.594],[36.958,25.606],[36.944,25.635],[36.936,25.646],[36.924,25.655],[36.894,25.666],[36.882,25.673],[36.842,25.73],[36.817,25.758],[36.796,25.759],[36.794,25.748],[36.8,25.737],[36.804,25.727],[36.792,25.721],[36.78,25.724],[36.749,25.744],[36.734,25.749],[36.725,25.754],[36.702,25.78],[36.696,25.79],[36.695,25.796],[36.696,25.817],[36.694,25.823],[36.682,25.826],[36.676,25.831],[36.663,25.856],[36.662,25.879],[36.672,25.901],[36.693,25.923],[36.706,25.944],[36.709,25.971],[36.706,25.999],[36.696,26.022],[36.672,26.045],[36.641,26.06],[36.606,26.068],[36.573,26.071],[36.537,26.082],[36.513,26.111],[36.449,26.247],[36.426,26.282],[36.383,26.335],[36.309,26.498],[36.23,26.626],[36.182,26.68],[36.124,26.727],[36.098,26.754],[36.082,26.797],[36.052,26.845],[36.032,26.907],[36.014,26.902],[36,26.914],[35.977,26.948],[35.912,27],[35.832,27.093],[35.803,27.142],[35.8,27.15],[35.799,27.16],[35.801,27.168],[35.811,27.182],[35.813,27.191],[35.808,27.203],[35.784,27.236],[35.7,27.325],[35.653,27.354],[35.64,27.363],[35.617,27.39],[35.59,27.429],[35.56,27.456],[35.521,27.518],[35.511,27.544],[35.507,27.564],[35.506,27.601],[35.5,27.619],[35.492,27.632],[35.459,27.663],[35.441,27.69],[35.415,27.751],[35.394,27.777],[35.385,27.783],[35.365,27.79],[35.357,27.794],[35.351,27.801],[35.347,27.815],[35.337,27.834],[35.332,27.862],[35.323,27.876],[35.271,27.928],[35.255,27.953],[35.246,27.962],[35.23,27.969],[35.181,28.003],[35.181,27.996],[35.175,27.996],[35.164,28.009],[35.177,28.019],[35.199,28.028],[35.216,28.038],[35.227,28.033],[35.226,28.039],[35.216,28.054],[35.21,28.057],[35.183,28.062],[35.175,28.065],[35.168,28.065],[35.168,28.058],[35.162,28.058],[35.158,28.064],[35.152,28.071],[35.145,28.076],[35.137,28.079],[35.119,28.078],[35.11,28.079],[35.099,28.09],[35.052,28.12],[35.042,28.113],[35.03,28.113],[35.02,28.113],[35.022,28.108],[35.026,28.103],[35.031,28.099],[35.021,28.104],[35.01,28.111],[34.998,28.114],[34.986,28.109],[34.976,28.103],[34.945,28.095],[34.937,28.091],[34.931,28.086],[34.928,28.079],[34.921,28.079],[34.921,28.085],[34.914,28.085],[34.901,28.082],[34.881,28.086],[34.86,28.085],[34.846,28.071],[34.844,28.076],[34.843,28.076],[34.839,28.079],[34.839,28.085],[34.846,28.085],[34.846,28.093],[34.843,28.1],[34.848,28.106],[34.857,28.11],[34.866,28.113],[34.857,28.116],[34.847,28.118],[34.837,28.116],[34.825,28.113],[34.825,28.106],[34.833,28.106],[34.833,28.099],[34.822,28.096],[34.814,28.089],[34.805,28.071],[34.802,28.075],[34.799,28.077],[34.795,28.077],[34.792,28.079],[34.796,28.085],[34.802,28.09],[34.809,28.095],[34.819,28.099],[34.819,28.103],[34.818,28.107],[34.819,28.113],[34.805,28.113],[34.794,28.111],[34.786,28.105],[34.784,28.093],[34.779,28.096],[34.777,28.096],[34.776,28.095],[34.771,28.093],[34.77,28.096],[34.771,28.103],[34.771,28.106],[34.765,28.106],[34.765,28.099],[34.757,28.099],[34.752,28.108],[34.747,28.112],[34.742,28.112],[34.737,28.106],[34.727,28.112],[34.725,28.115],[34.719,28.123],[34.715,28.128],[34.709,28.14],[34.706,28.138],[34.702,28.135],[34.698,28.132],[34.695,28.126],[34.682,28.135],[34.678,28.131],[34.678,28.121],[34.675,28.113],[34.667,28.109],[34.654,28.104],[34.647,28.099],[34.647,28.093],[34.668,28.079],[34.668,28.071],[34.662,28.071],[34.659,28.069],[34.657,28.067],[34.655,28.065],[34.647,28.071],[34.642,28.055],[34.641,28.042],[34.635,28.033],[34.613,28.03],[34.615,28.035],[34.616,28.036],[34.617,28.035],[34.62,28.038],[34.613,28.045],[34.609,28.059],[34.607,28.072],[34.606,28.096],[34.599,28.103],[34.574,28.094],[34.579,28.106],[34.573,28.113],[34.587,28.132],[34.597,28.139],[34.606,28.143],[34.606,28.148],[34.612,28.15],[34.621,28.157],[34.627,28.161],[34.62,28.167],[34.623,28.173],[34.627,28.177],[34.632,28.179],[34.64,28.181],[34.64,28.176],[34.638,28.175],[34.635,28.176],[34.633,28.175],[34.643,28.17],[34.652,28.168],[34.658,28.171],[34.661,28.181],[34.655,28.181],[34.655,28.188],[34.648,28.194],[34.65,28.201],[34.657,28.206],[34.668,28.209],[34.668,28.216],[34.665,28.225],[34.675,28.27],[34.678,28.268],[34.685,28.266],[34.689,28.264],[34.688,28.267],[34.689,28.277],[34.683,28.274],[34.68,28.272],[34.675,28.277],[34.695,28.294],[34.715,28.327],[34.73,28.364],[34.741,28.411],[34.761,28.437],[34.768,28.466],[34.775,28.483],[34.804,28.527],[34.796,28.572],[34.793,28.619],[34.778,28.665],[34.797,28.726],[34.81,28.758],[34.825,28.784],[34.825,28.791],[34.819,28.791],[34.836,28.816],[34.839,28.829],[34.833,28.84],[34.833,28.846],[34.844,28.876],[34.843,28.885],[34.928,28.886],[34.962,28.892],[34.997,28.891],[35.078,28.873],[35.22,28.861],[35.245,28.865],[35.262,28.873],[35.297,28.902],[35.331,28.918],[35.374,28.929],[35.579,28.964],[35.712,28.971],[35.79,28.984],[35.855,28.984],[36.051,28.942],[36.075,28.932],[36.12,28.905],[36.152,28.879],[36.41,28.583],[36.416,28.577],[36.423,28.574],[36.465,28.562],[36.489,28.561],[36.505,28.562],[36.614,28.599],[36.855,28.645],[36.934,28.645],[36.991,28.637],[37.143,28.593],[37.226,28.577],[37.398,28.568],[37.426,28.574],[37.45,28.585],[37.466,28.602],[37.478,28.622],[37.518,28.714],[37.53,28.735],[37.545,28.754],[37.565,28.77],[37.633,28.808],[37.694,28.86],[37.716,28.867],[37.738,28.863],[37.757,28.849],[37.768,28.83],[37.772,28.807],[37.763,28.646],[37.765,28.558],[37.773,28.501],[37.783,28.458],[37.799,28.424],[37.811,28.403],[37.826,28.383],[37.844,28.363],[37.91,28.314],[37.957,28.291],[38.066,28.257],[38.128,28.246],[38.328,28.228],[38.364,28.229],[38.397,28.239],[38.423,28.251],[38.456,28.258],[38.479,28.253],[38.513,28.236],[38.534,28.229],[38.552,28.227],[38.596,28.228],[38.625,28.168],[38.64,28.153],[38.662,28.14],[38.686,28.137],[38.71,28.14],[38.736,28.149],[38.841,28.196],[38.869,28.203],[38.904,28.208],[38.929,28.207],[38.947,28.202],[38.961,28.196],[39,28.168],[39.017,28.147],[39.034,28.138],[39.058,28.129],[39.38,28.062],[39.434,28.043],[39.472,28.024],[39.494,28.003],[39.498,27.998],[39.52,27.978],[39.551,27.959],[39.611,27.933],[39.728,27.847],[39.787,27.796],[39.801,27.774],[39.811,27.753],[39.92,27.361],[39.931,27.342],[39.946,27.322],[39.962,27.31],[40,27.286],[40.121,27.228],[40.144,27.211],[40.166,27.187],[40.17,27.167],[40.167,27.146],[40.158,27.125],[40.142,27.105],[40.123,27.086],[40,26.99],[39.955,26.936],[39.925,26.882],[39.867,26.72],[39.848,26.688],[39.831,26.667],[39.816,26.657],[39.782,26.701],[39.765,26.714],[39.742,26.727],[39.72,26.73],[39.304,26.672],[39.204,26.671],[39.154,26.677],[39.116,26.689],[38.995,26.772],[38.869,26.813],[38.833,26.829],[38.81,26.848],[38.794,26.888],[38.783,26.908],[38.759,26.926],[38.741,26.928],[38.729,26.916],[38.727,26.899],[38.732,26.879],[38.735,26.86],[38.73,26.844],[38.705,26.834],[38.682,26.835],[38.657,26.842],[38.583,26.874],[38.55,26.883],[38.526,26.885],[38.505,26.881],[38.491,26.875],[38.401,26.811],[38.375,26.796],[38.343,26.789],[38.323,26.794],[38.314,26.809],[38.314,26.828],[38.317,26.849],[38.317,26.87],[38.31,26.888],[38.293,26.905],[38.231,26.94],[38.215,26.956],[38.207,26.973],[38.206,26.989],[38.206,26.997],[38.207,27.001],[38.207,27.006],[38.205,27.018],[38.196,27.033],[38.179,27.044],[38.158,27.05],[38.136,27.053],[38.035,27.057],[37.992,27.064],[37.963,27.078],[37.94,27.095],[37.885,27.171],[37.865,27.205],[37.846,27.247],[37.818,27.339],[37.809,27.355],[37.795,27.372],[37.768,27.39],[37.75,27.394],[37.732,27.393],[37.545,27.303],[37.523,27.296],[37.499,27.293],[37.477,27.294],[37.435,27.3],[37.406,27.311],[37.321,27.359],[37.277,27.376],[37.246,27.381],[37.218,27.381],[37.196,27.375],[36.939,27.266],[36.824,27.241],[36.803,27.231],[36.785,27.216],[36.779,27.199],[36.783,27.182],[36.8,27.172],[36.822,27.171],[36.887,27.182],[36.906,27.183],[36.918,27.181],[36.936,27.175],[36.953,27.164],[36.968,27.149],[36.976,27.138],[36.985,27.12],[37,27.059],[37.003,27.033],[37.001,26.978],[36.979,26.842],[36.981,26.8],[36.986,26.776],[36.993,26.754],[37.002,26.733],[37.015,26.712],[37.032,26.693],[37.054,26.674],[37.076,26.661],[37.1,26.652],[37.215,26.621],[37.236,26.61],[37.254,26.593],[37.264,26.568],[37.265,26.545],[37.26,26.524],[37.253,26.508],[37.191,26.417],[37.173,26.376],[37.169,26.356],[37.167,26.335],[37.169,26.315],[37.176,26.294],[37.234,26.188],[37.248,26.148],[37.258,26.107],[37.265,26.09],[37.272,26.078],[37.288,26.081],[37.324,26.108],[37.345,26.115],[37.368,26.112],[37.546,26.02],[37.562,26.009],[37.569,26.003],[37.571,25.999],[37.587,25.945],[37.595,25.923],[37.608,25.903],[37.625,25.884],[37.755,25.786],[37.773,25.766],[37.787,25.747],[37.803,25.719],[37.834,25.644],[37.869,25.521],[37.878,25.502],[37.881,25.499],[37.887,25.496],[37.903,25.492],[37.966,25.49],[37.987,25.486],[38.001,25.479],[38.014,25.467],[38.021,25.449],[38.023,25.429],[37.988,25.202],[38.001,24.873],[37.996,24.858],[37.987,24.84],[37.967,24.814],[37.944,24.797],[37.919,24.787],[37.894,24.782],[37.846,24.784],[37.801,24.792],[37.779,24.793],[37.757,24.789],[37.735,24.777],[37.713,24.757],[37.687,24.726],[37.662,24.704],[37.638,24.689],[37.614,24.681],[37.592,24.675],[37.554,24.671],[37.472,24.671],[37.452,24.666],[37.431,24.657],[37.415,24.641],[37.404,24.623],[37.397,24.605],[37.385,24.546],[37.383,24.54]]],[[[37.027,25.42],[37.037,25.412],[37.042,25.407],[37.04,25.406],[37.036,25.408],[37.028,25.409],[37.027,25.405],[37.031,25.399],[37.023,25.4],[37.004,25.412],[36.999,25.422],[37,25.429],[36.991,25.43],[36.978,25.427],[36.971,25.435],[36.967,25.449],[36.958,25.449],[36.947,25.442],[36.944,25.449],[36.952,25.468],[36.961,25.478],[36.974,25.478],[36.987,25.476],[36.999,25.469],[37.009,25.45],[37.015,25.451],[37.018,25.458],[37.022,25.453],[37.027,25.42]]],[[[36.942,25.418],[36.958,25.419],[36.961,25.414],[36.943,25.406],[36.935,25.4],[36.925,25.389],[36.915,25.371],[36.9,25.361],[36.879,25.374],[36.86,25.393],[36.841,25.406],[36.801,25.445],[36.799,25.447],[36.795,25.453],[36.795,25.457],[36.797,25.457],[36.799,25.459],[36.797,25.465],[36.788,25.474],[36.776,25.489],[36.777,25.496],[36.787,25.494],[36.797,25.487],[36.815,25.466],[36.824,25.46],[36.842,25.451],[36.877,25.437],[36.894,25.433],[36.906,25.432],[36.916,25.427],[36.92,25.42],[36.899,25.419],[36.896,25.406],[36.904,25.394],[36.916,25.397],[36.928,25.409],[36.942,25.418]]],[[[36.849,25.533],[36.84,25.536],[36.827,25.547],[36.829,25.561],[36.841,25.57],[36.856,25.568],[36.867,25.558],[36.866,25.546],[36.855,25.537],[36.849,25.533]]],[[[36.79,25.498],[36.781,25.504],[36.776,25.506],[36.771,25.507],[36.766,25.514],[36.765,25.524],[36.757,25.527],[36.743,25.529],[36.74,25.533],[36.744,25.531],[36.743,25.536],[36.734,25.547],[36.719,25.556],[36.701,25.555],[36.693,25.55],[36.689,25.546],[36.681,25.544],[36.681,25.553],[36.691,25.567],[36.707,25.571],[36.726,25.565],[36.775,25.535],[36.781,25.528],[36.786,25.516],[36.801,25.508],[36.817,25.502],[36.839,25.49],[36.875,25.463],[36.883,25.454],[36.882,25.451],[36.878,25.448],[36.879,25.443],[36.874,25.446],[36.858,25.457],[36.845,25.464],[36.835,25.467],[36.831,25.473],[36.825,25.484],[36.816,25.488],[36.81,25.486],[36.801,25.488],[36.79,25.498]]],[[[36.901,25.549],[36.899,25.578],[36.898,25.584],[36.898,25.595],[36.905,25.603],[36.914,25.607],[36.923,25.603],[36.928,25.593],[36.928,25.584],[36.926,25.577],[36.921,25.576],[36.915,25.581],[36.914,25.579],[36.917,25.571],[36.916,25.568],[36.914,25.569],[36.92,25.555],[36.928,25.529],[36.923,25.519],[36.912,25.535],[36.905,25.539],[36.901,25.549]]],[[[36.683,25.572],[36.682,25.566],[36.676,25.555],[36.668,25.55],[36.661,25.553],[36.648,25.561],[36.568,25.598],[36.546,25.603],[36.539,25.589],[36.529,25.594],[36.511,25.61],[36.498,25.624],[36.491,25.645],[36.5,25.663],[36.524,25.686],[36.535,25.698],[36.544,25.703],[36.545,25.696],[36.539,25.685],[36.523,25.662],[36.524,25.653],[36.531,25.645],[36.538,25.64],[36.544,25.64],[36.549,25.638],[36.554,25.631],[36.562,25.627],[36.57,25.624],[36.596,25.6],[36.609,25.592],[36.623,25.591],[36.631,25.592],[36.634,25.59],[36.635,25.583],[36.638,25.575],[36.647,25.571],[36.656,25.572],[36.657,25.573],[36.654,25.574],[36.655,25.578],[36.659,25.582],[36.668,25.581],[36.683,25.572]]],[[[36.544,25.731],[36.543,25.739],[36.54,25.76],[36.542,25.802],[36.558,25.836],[36.584,25.858],[36.591,25.861],[36.577,25.849],[36.567,25.833],[36.558,25.816],[36.555,25.796],[36.564,25.779],[36.583,25.762],[36.591,25.759],[36.598,25.758],[36.597,25.752],[36.589,25.739],[36.585,25.725],[36.587,25.72],[36.588,25.714],[36.596,25.709],[36.608,25.711],[36.611,25.709],[36.606,25.701],[36.596,25.697],[36.583,25.699],[36.563,25.713],[36.552,25.72],[36.544,25.731]]]]}},{"type":"Feature","id":"SA-08","properties":{"id":"SA-08","countryCode":"SA","isoSubdivision":"SA-08","name":"Northern Borders","name_en":"Northern Borders","name_ko":"북부 변경","type":"Region","labelLongitude":43.312,"labelLatitude":29.227,"minZoom":6.6},"geometry":{"type":"Polygon","coordinates":[[[39.158,32.121],[39.356,32.093],[39.553,32.064],[39.751,32.035],[39.949,32.006],[40.029,31.994],[40.37,31.938],[40.424,31.921],[40.48,31.893],[40.583,31.84],[40.67,31.796],[40.758,31.751],[40.846,31.706],[40.934,31.662],[41.021,31.617],[41.109,31.572],[41.197,31.528],[41.285,31.483],[41.372,31.438],[41.46,31.393],[41.548,31.349],[41.635,31.304],[41.723,31.259],[41.811,31.215],[41.899,31.17],[41.986,31.125],[42.075,31.08],[42.142,31.03],[42.226,30.967],[42.311,30.905],[42.395,30.842],[42.48,30.779],[42.574,30.708],[42.669,30.637],[42.764,30.566],[42.783,30.551],[42.859,30.495],[42.965,30.42],[43.053,30.358],[43.141,30.296],[43.229,30.234],[43.317,30.171],[43.432,30.091],[43.546,30.01],[43.661,29.929],[43.775,29.848],[43.824,29.814],[43.89,29.767],[44.005,29.687],[44.119,29.606],[44.234,29.525],[44.329,29.458],[44.424,29.391],[44.52,29.323],[44.615,29.256],[44.692,29.202],[44.698,29.2],[44.705,29.197],[44.711,29.195],[44.717,29.193],[44.809,29.186],[44.889,29.18],[44.968,29.173],[45.048,29.167],[45.127,29.161],[45.23,29.152],[45.332,29.144],[45.435,29.136],[45.537,29.128],[45.64,29.12],[45.742,29.112],[45.845,29.104],[45.947,29.096],[46.024,29.09],[46.1,29.084],[46.176,29.077],[46.252,29.071],[46.357,29.063],[46.401,29.071],[46.427,29.076],[46.414,29.063],[45.941,28.906],[45.801,28.838],[45.702,28.758],[45.625,28.682],[45.565,28.602],[45.213,28.016],[45.164,27.953],[44.995,27.773],[44.974,27.74],[44.949,27.683],[44.941,27.654],[44.939,27.638],[44.939,27.62],[44.942,27.6],[44.951,27.58],[44.977,27.546],[44.99,27.533],[44.949,27.48],[44.928,27.468],[44.902,27.458],[44.879,27.461],[44.858,27.469],[44.84,27.482],[44.824,27.498],[44.822,27.501],[44.817,27.506],[44.799,27.52],[44.785,27.549],[44.759,27.577],[44.593,27.709],[44.571,27.723],[44.525,27.746],[44.491,27.758],[44.182,27.799],[44.155,27.807],[44.121,27.823],[44.094,27.84],[44.07,27.861],[44.035,27.904],[43.951,28.101],[43.782,28.371],[43.765,28.391],[43.742,28.407],[43.716,28.415],[43.681,28.413],[43.653,28.402],[43.537,28.336],[43.496,28.318],[43.474,28.316],[43.447,28.318],[43.409,28.33],[43.303,28.379],[43.275,28.386],[43.241,28.389],[43.141,28.38],[43.115,28.383],[43.087,28.389],[43.053,28.409],[43.03,28.432],[43.014,28.462],[43.008,28.483],[43.005,28.497],[43,28.572],[42.998,28.58],[42.989,28.589],[42.968,28.599],[42.933,28.599],[42.904,28.593],[42.876,28.582],[42.796,28.543],[42.767,28.533],[42.738,28.527],[42.704,28.525],[42.668,28.53],[42.618,28.546],[42.584,28.565],[42.555,28.587],[42.434,28.715],[42.411,28.732],[42.388,28.744],[42.342,28.761],[42.001,28.831],[41.976,28.832],[41.867,28.826],[41.746,28.799],[41.721,28.795],[41.694,28.796],[41.659,28.801],[41.417,28.87],[41.383,28.875],[41.342,28.876],[41.271,28.868],[40.74,28.76],[40.716,28.76],[40.658,28.774],[40.544,28.816],[40.685,28.939],[40.701,28.96],[40.711,28.979],[40.715,28.993],[40.716,29],[40.742,29.334],[40.746,29.355],[40.753,29.376],[40.767,29.397],[40.787,29.417],[40.811,29.438],[40.92,29.511],[41.755,29.964],[41.838,30.022],[41.883,30.062],[41.9,30.083],[41.905,30.102],[41.898,30.122],[41.879,30.14],[41.73,30.241],[41.681,30.282],[41.663,30.303],[41.635,30.348],[41.589,30.438],[41.577,30.455],[41.552,30.482],[41.531,30.501],[41.494,30.521],[41.464,30.53],[41.346,30.544],[41.265,30.545],[41.211,30.551],[41.177,30.56],[41.15,30.572],[40.951,30.711],[40.919,30.724],[40.88,30.733],[40.782,30.732],[40.722,30.725],[40.175,30.736],[40.081,30.754],[40.048,30.765],[40.021,30.777],[39.948,30.834],[39.925,30.849],[39.901,30.861],[39.868,30.868],[39.192,30.958],[39.059,30.961],[38.751,30.922],[38.306,30.883],[38.258,30.886],[38.213,30.895],[38.191,30.903],[38.169,30.914],[38.147,30.93],[38.13,30.949],[38.096,31],[38.078,31.035],[38.049,31.078],[38.016,31.118],[37.986,31.144],[37.9,31.197],[37.884,31.215],[37.876,31.231],[37.873,31.244],[37.872,31.25],[37.867,31.276],[37.862,31.338],[37.866,31.372],[37.987,31.753],[38.175,31.8],[38.4,31.855],[38.625,31.911],[38.85,31.966],[38.963,31.994],[38.998,32.007],[39.117,32.103],[39.136,32.115],[39.146,32.118],[39.149,32.119],[39.152,32.12],[39.155,32.121],[39.158,32.121]]]}},{"type":"Feature","id":"SA-09","properties":{"id":"SA-09","countryCode":"SA","isoSubdivision":"SA-09","name":"Jazan","name_en":"Jazan","name_ko":"지잔","type":"Region","labelLongitude":42.726,"labelLatitude":17.303,"minZoom":6.6},"geometry":{"type":"MultiPolygon","coordinates":[[[[43.186,16.685],[43.186,16.683],[43.18,16.665],[43.163,16.662],[43.123,16.673],[43.098,16.678],[43.085,16.673],[43.08,16.659],[43.079,16.638],[43.075,16.619],[43.049,16.553],[43.036,16.536],[43.015,16.521],[42.971,16.496],[42.956,16.491],[42.917,16.484],[42.907,16.479],[42.903,16.466],[42.906,16.451],[42.907,16.435],[42.898,16.419],[42.872,16.402],[42.837,16.387],[42.789,16.371],[42.788,16.374],[42.788,16.41],[42.781,16.42],[42.795,16.453],[42.788,16.472],[42.74,16.525],[42.729,16.547],[42.725,16.566],[42.726,16.61],[42.738,16.653],[42.737,16.671],[42.719,16.675],[42.726,16.683],[42.714,16.694],[42.704,16.709],[42.702,16.723],[42.712,16.731],[42.706,16.741],[42.678,16.765],[42.672,16.772],[42.659,16.79],[42.636,16.815],[42.629,16.82],[42.597,16.837],[42.587,16.838],[42.576,16.832],[42.542,16.878],[42.556,16.922],[42.549,16.938],[42.549,16.987],[42.544,17.004],[42.535,17.01],[42.525,17.015],[42.521,17.028],[42.513,17.037],[42.494,17.038],[42.474,17.037],[42.46,17.038],[42.448,17.049],[42.438,17.065],[42.425,17.093],[42.421,17.108],[42.416,17.142],[42.411,17.156],[42.402,17.164],[42.357,17.182],[42.359,17.165],[42.366,17.149],[42.384,17.121],[42.364,17.109],[42.374,17.043],[42.363,17.025],[42.357,17.046],[42.357,17.114],[42.353,17.135],[42.339,17.174],[42.322,17.309],[42.315,17.333],[42.311,17.351],[42.317,17.401],[42.315,17.422],[42.308,17.444],[42.302,17.454],[42.292,17.457],[42.281,17.458],[42.274,17.46],[42.269,17.465],[42.267,17.474],[42.261,17.485],[42.153,17.574],[42.144,17.577],[42.141,17.571],[42.134,17.58],[42.123,17.601],[42.104,17.628],[42.098,17.644],[42.094,17.652],[42.086,17.655],[42.063,17.651],[42.053,17.653],[42.049,17.666],[42.044,17.674],[42,17.717],[41.999,17.715],[41.992,17.713],[41.985,17.711],[41.979,17.711],[41.97,17.72],[41.939,17.762],[41.929,17.767],[41.869,17.821],[41.848,17.812],[41.81,17.837],[41.788,17.834],[41.778,17.86],[41.761,17.877],[41.739,17.891],[41.719,17.909],[41.677,17.961],[41.671,17.978],[41.672,17.99],[41.675,18.001],[41.674,18.009],[41.661,18.012],[41.654,18.015],[41.652,18.023],[41.653,18.031],[41.651,18.039],[41.609,18.075],[41.594,18.096],[41.603,18.115],[41.597,18.121],[41.597,18.122],[41.616,18.163],[41.626,18.18],[41.641,18.197],[41.661,18.209],[41.722,18.242],[41.74,18.26],[41.752,18.275],[41.771,18.314],[41.884,18.322],[41.923,18.312],[41.933,18.296],[41.937,18.278],[41.938,18.258],[41.917,18.138],[41.916,18.115],[41.918,18.092],[41.927,18.065],[41.943,18.05],[41.962,18.045],[42.029,18.054],[42.051,18.052],[42.074,18.046],[42.101,18.031],[42.116,18.016],[42.123,18.005],[42.136,17.969],[42.145,17.948],[42.167,17.924],[42.188,17.913],[42.21,17.907],[42.368,17.905],[42.392,17.9],[42.42,17.885],[42.439,17.866],[42.452,17.845],[42.46,17.824],[42.472,17.801],[42.489,17.777],[42.582,17.685],[42.606,17.669],[42.629,17.661],[42.649,17.661],[42.668,17.668],[42.682,17.683],[42.691,17.702],[42.736,17.867],[42.759,17.907],[42.772,17.926],[42.79,17.943],[42.832,17.973],[42.878,17.998],[42.886,18],[42.925,17.993],[42.938,17.978],[42.943,17.959],[42.94,17.917],[42.947,17.893],[42.963,17.867],[43.04,17.807],[43.065,17.783],[43.079,17.762],[43.111,17.699],[43.126,17.68],[43.145,17.666],[43.222,17.64],[43.242,17.623],[43.259,17.603],[43.342,17.482],[43.303,17.459],[43.216,17.387],[43.168,17.331],[43.165,17.326],[43.222,17.308],[43.242,17.293],[43.252,17.272],[43.249,17.252],[43.226,17.241],[43.203,17.236],[43.177,17.226],[43.156,17.21],[43.15,17.19],[43.151,17.167],[43.145,17.147],[43.124,17.107],[43.118,17.086],[43.122,17.07],[43.13,17.053],[43.136,17.031],[43.136,17.01],[43.132,16.99],[43.115,16.952],[43.109,16.927],[43.113,16.91],[43.134,16.871],[43.146,16.834],[43.157,16.825],[43.194,16.815],[43.205,16.808],[43.212,16.797],[43.213,16.784],[43.209,16.773],[43.201,16.768],[43.192,16.764],[43.183,16.758],[43.169,16.737],[43.171,16.723],[43.18,16.708],[43.186,16.685]]],[[[42.186,16.706],[42.186,16.691],[42.183,16.673],[42.177,16.652],[42.179,16.635],[42.188,16.605],[42.178,16.585],[42.179,16.583],[42.156,16.585],[42.128,16.617],[42.105,16.625],[42.084,16.627],[42.073,16.636],[42.101,16.647],[42.118,16.66],[42.111,16.68],[42.086,16.694],[42.06,16.69],[42.031,16.688],[42.011,16.683],[41.992,16.672],[41.976,16.664],[41.955,16.67],[41.933,16.691],[41.917,16.705],[41.894,16.71],[41.867,16.729],[41.843,16.747],[41.831,16.767],[41.825,16.798],[41.808,16.81],[41.79,16.81],[41.778,16.813],[41.781,16.819],[41.78,16.841],[41.765,16.859],[41.756,16.878],[41.757,16.896],[41.772,16.892],[41.777,16.885],[41.789,16.876],[41.828,16.859],[41.849,16.835],[41.86,16.821],[41.864,16.797],[41.863,16.785],[41.881,16.766],[41.898,16.751],[41.905,16.748],[41.941,16.751],[41.953,16.733],[41.973,16.732],[41.994,16.738],[42.011,16.739],[42.023,16.727],[42.023,16.716],[42.035,16.716],[42.065,16.728],[42.036,16.734],[42.022,16.756],[42.034,16.774],[42.041,16.802],[42.048,16.812],[42.062,16.814],[42.069,16.812],[42.077,16.809],[42.104,16.792],[42.105,16.776],[42.118,16.755],[42.117,16.744],[42.141,16.741],[42.148,16.721],[42.186,16.706]]],[[[41.919,16.791],[41.904,16.803],[41.89,16.821],[41.864,16.852],[41.843,16.88],[41.835,16.892],[41.846,16.901],[41.87,16.903],[41.888,16.908],[41.901,16.918],[41.911,16.936],[41.921,16.935],[41.923,16.935],[41.928,16.955],[41.921,16.979],[41.907,16.985],[41.894,16.991],[41.881,16.992],[41.859,16.996],[41.846,16.997],[41.844,17.002],[41.851,17.01],[41.861,17.014],[41.863,17.005],[41.896,17.002],[41.921,16.992],[41.938,16.973],[41.939,16.969],[41.945,16.942],[41.945,16.923],[41.94,16.901],[41.944,16.883],[41.976,16.876],[41.985,16.854],[41.944,16.853],[41.932,16.838],[41.938,16.821],[41.963,16.813],[41.977,16.805],[41.995,16.797],[42.002,16.773],[42.002,16.761],[41.972,16.778],[41.936,16.788],[41.919,16.791]]]]}},{"type":"Feature","id":"SA-10","properties":{"id":"SA-10","countryCode":"SA","isoSubdivision":"SA-10","name":"Najran","name_en":"Najran","name_ko":"나즈란","type":"Region","labelLongitude":45.692,"labelLatitude":18.293,"minZoom":6.6},"geometry":{"type":"Polygon","coordinates":[[[47.429,17.093],[47.428,17.092],[47.314,17.028],[47.191,16.959],[47.161,16.947],[47.129,16.943],[46.997,16.949],[46.983,16.949],[46.97,16.957],[46.886,17.07],[46.812,17.168],[46.747,17.255],[46.71,17.275],[46.488,17.246],[46.323,17.224],[46.08,17.248],[45.891,17.267],[45.642,17.291],[45.43,17.312],[45.385,17.326],[45.222,17.417],[45.165,17.428],[44.997,17.43],[44.972,17.43],[44.849,17.431],[44.646,17.432],[44.625,17.427],[44.562,17.404],[44.534,17.403],[44.465,17.416],[44.404,17.419],[44.307,17.409],[44.231,17.392],[44.212,17.391],[44.169,17.402],[44.149,17.405],[44.134,17.395],[44.12,17.37],[44.104,17.352],[44.085,17.343],[44.059,17.347],[44.021,17.366],[44.004,17.368],[43.982,17.357],[43.967,17.34],[43.954,17.32],[43.939,17.305],[43.915,17.302],[43.903,17.304],[43.897,17.307],[43.894,17.312],[43.89,17.32],[43.893,17.34],[43.893,17.351],[43.887,17.354],[43.863,17.347],[43.846,17.346],[43.806,17.35],[43.769,17.346],[43.751,17.346],[43.731,17.352],[43.689,17.384],[43.638,17.439],[43.639,17.47],[43.666,17.57],[43.664,17.623],[43.644,17.685],[43.641,17.709],[43.641,17.736],[43.651,17.776],[43.676,17.998],[43.674,18.04],[43.664,18.081],[43.649,18.125],[43.638,18.169],[43.639,18.194],[43.648,18.222],[43.668,18.258],[43.694,18.291],[43.856,18.453],[43.968,18.544],[44,18.576],[44.012,18.593],[44.024,18.613],[44.047,18.667],[44.061,18.692],[44.082,18.714],[44.106,18.729],[44.129,18.739],[44.199,18.752],[44.243,18.767],[44.289,18.789],[44.332,18.817],[44.351,18.834],[44.367,18.853],[44.379,18.873],[44.389,18.897],[44.396,18.925],[44.399,18.962],[44.399,18.997],[44.395,19.042],[44.36,19.168],[44.359,19.193],[44.366,19.219],[44.391,19.255],[44.414,19.274],[44.48,19.308],[44.496,19.319],[44.505,19.332],[44.513,19.354],[44.517,19.387],[44.517,19.513],[44.795,19.348],[44.867,19.314],[44.92,19.295],[45.014,19.274],[45.273,19.257],[47.615,19.496],[47.745,19.531],[47.429,17.094],[47.429,17.093]]]}},{"type":"Feature","id":"SA-11","properties":{"id":"SA-11","countryCode":"SA","isoSubdivision":"SA-11","name":"Al-Baha","name_en":"Al-Baha","name_ko":"바하","type":"Region","labelLongitude":41.417,"labelLatitude":20.161,"minZoom":6.6},"geometry":{"type":"Polygon","coordinates":[[[42.032,20.625],[41.984,20.471],[41.986,20.445],[41.993,20.415],[42.018,20.391],[42.031,20.373],[42.034,20.35],[42.027,20.325],[42.004,20.295],[41.983,20.276],[41.865,20.197],[41.843,20.178],[41.828,20.151],[41.82,20.125],[41.814,20.053],[41.8,20.004],[41.699,19.797],[41.671,19.785],[41.637,19.78],[41.543,19.78],[41.523,19.777],[41.505,19.769],[41.495,19.761],[41.483,19.747],[41.456,19.704],[41.392,19.544],[41.369,19.436],[41.361,19.417],[41.349,19.399],[41.33,19.384],[41.31,19.374],[41.288,19.368],[41.266,19.365],[41.242,19.365],[41.216,19.37],[41.192,19.381],[41.17,19.397],[41.108,19.477],[41.084,19.498],[41.007,19.537],[40.995,19.545],[40.98,19.56],[40.969,19.58],[40.964,19.6],[40.963,19.619],[40.969,19.702],[40.966,19.723],[40.948,19.788],[40.947,19.809],[40.958,19.911],[40.957,19.933],[40.951,19.954],[40.941,19.974],[40.929,19.99],[40.921,19.997],[40.916,20],[40.841,20.021],[40.822,20.031],[40.806,20.047],[40.799,20.065],[40.802,20.084],[40.816,20.103],[40.892,20.177],[40.914,20.194],[40.94,20.206],[40.971,20.214],[41.068,20.228],[41.091,20.235],[41.115,20.245],[41.139,20.265],[41.151,20.285],[41.179,20.351],[41.25,20.469],[41.257,20.496],[41.257,20.506],[41.255,20.536],[41.237,20.596],[41.229,20.637],[41.227,20.659],[41.229,20.678],[41.234,20.695],[41.24,20.706],[41.25,20.721],[41.265,20.737],[41.285,20.752],[41.307,20.76],[41.331,20.763],[41.355,20.759],[41.385,20.746],[41.407,20.729],[41.423,20.709],[41.454,20.626],[41.466,20.606],[41.479,20.589],[41.494,20.577],[41.507,20.573],[41.528,20.572],[41.558,20.581],[41.607,20.6],[41.634,20.606],[41.666,20.61],[41.773,20.611],[41.795,20.617],[41.817,20.626],[41.91,20.675],[41.932,20.681],[41.956,20.677],[41.976,20.671],[42.032,20.625]]]}},{"type":"Feature","id":"SA-12","properties":{"id":"SA-12","countryCode":"SA","isoSubdivision":"SA-12","name":"Al-Jowf","name_en":"Al-Jowf","name_ko":"자우프","type":"Region","labelLongitude":38.365,"labelLatitude":29.559,"minZoom":6.6},"geometry":{"type":"Polygon","coordinates":[[[36.016,29.19],[36.044,29.191],[36.069,29.2],[36.178,29.278],[36.284,29.355],[36.4,29.439],[36.477,29.495],[36.541,29.589],[36.604,29.681],[36.65,29.749],[36.705,29.831],[36.729,29.854],[36.756,29.866],[36.843,29.881],[36.932,29.897],[37.076,29.923],[37.219,29.949],[37.352,29.973],[37.47,29.995],[37.492,30.011],[37.536,30.105],[37.569,30.175],[37.605,30.251],[37.635,30.313],[37.648,30.331],[37.671,30.348],[37.779,30.4],[37.9,30.459],[37.973,30.495],[37.98,30.498],[37.981,30.498],[37.981,30.499],[37.932,30.55],[37.822,30.661],[37.712,30.772],[37.602,30.883],[37.493,30.994],[37.489,30.998],[37.486,31.001],[37.483,31.004],[37.48,31.007],[37.35,31.128],[37.222,31.247],[37.22,31.249],[37.09,31.37],[36.96,31.491],[36.998,31.501],[37.207,31.554],[37.455,31.618],[37.703,31.681],[37.761,31.696],[37.95,31.744],[37.987,31.753],[37.866,31.372],[37.862,31.338],[37.867,31.276],[37.872,31.25],[37.873,31.244],[37.876,31.231],[37.884,31.215],[37.9,31.197],[37.986,31.144],[38.016,31.118],[38.049,31.078],[38.078,31.035],[38.096,31],[38.13,30.949],[38.147,30.93],[38.169,30.914],[38.191,30.903],[38.213,30.895],[38.258,30.886],[38.306,30.883],[38.751,30.922],[39.059,30.961],[39.192,30.958],[39.868,30.868],[39.901,30.861],[39.925,30.849],[39.948,30.834],[40.021,30.777],[40.048,30.765],[40.081,30.754],[40.175,30.736],[40.722,30.725],[40.782,30.732],[40.88,30.733],[40.919,30.724],[40.951,30.711],[41.15,30.572],[41.177,30.56],[41.211,30.551],[41.265,30.545],[41.346,30.544],[41.464,30.53],[41.494,30.521],[41.531,30.501],[41.552,30.482],[41.577,30.455],[41.589,30.438],[41.635,30.348],[41.663,30.303],[41.681,30.282],[41.73,30.241],[41.879,30.14],[41.898,30.122],[41.905,30.102],[41.9,30.083],[41.883,30.062],[41.838,30.022],[41.755,29.964],[40.92,29.511],[40.811,29.438],[40.787,29.417],[40.767,29.397],[40.753,29.376],[40.746,29.355],[40.742,29.334],[40.716,29],[40.715,28.993],[40.711,28.979],[40.701,28.96],[40.685,28.939],[40.544,28.816],[40.481,28.829],[40.459,28.827],[40.08,28.69],[39.71,28.504],[39.535,28.461],[39.156,28.303],[39.132,28.289],[39.109,28.274],[39,28.168],[38.961,28.196],[38.947,28.202],[38.929,28.207],[38.904,28.208],[38.869,28.203],[38.841,28.196],[38.736,28.149],[38.71,28.14],[38.686,28.137],[38.662,28.14],[38.64,28.153],[38.625,28.168],[38.596,28.228],[38.552,28.227],[38.534,28.229],[38.513,28.236],[38.479,28.253],[38.456,28.258],[38.423,28.251],[38.397,28.239],[38.364,28.229],[38.328,28.228],[38.128,28.246],[38.066,28.257],[37.957,28.291],[37.91,28.314],[37.844,28.363],[37.826,28.383],[37.811,28.403],[37.799,28.424],[37.783,28.458],[37.773,28.501],[37.765,28.558],[37.763,28.646],[37.772,28.807],[37.768,28.83],[37.757,28.849],[37.738,28.863],[37.716,28.867],[37.694,28.86],[37.633,28.808],[37.565,28.77],[37.545,28.754],[37.53,28.735],[37.518,28.714],[37.478,28.622],[37.466,28.602],[37.45,28.585],[37.426,28.574],[37.398,28.568],[37.226,28.577],[37.143,28.593],[36.991,28.637],[36.934,28.645],[36.855,28.645],[36.614,28.599],[36.505,28.562],[36.489,28.561],[36.465,28.562],[36.423,28.574],[36.416,28.577],[36.41,28.583],[36.152,28.879],[36.12,28.905],[36.075,28.932],[36.051,28.942],[35.855,28.984],[35.79,28.984],[35.712,28.971],[35.579,28.964],[35.374,28.929],[35.331,28.918],[35.297,28.902],[35.262,28.873],[35.245,28.865],[35.22,28.861],[35.078,28.873],[34.997,28.891],[34.962,28.892],[34.928,28.886],[34.843,28.885],[34.842,28.89],[34.825,28.894],[34.825,28.9],[34.84,28.922],[34.856,28.964],[34.864,29.006],[34.853,29.031],[34.853,29.045],[34.864,29.064],[34.874,29.085],[34.894,29.175],[34.898,29.188],[34.909,29.21],[34.908,29.216],[34.909,29.231],[34.919,29.239],[34.942,29.25],[34.935,29.267],[34.933,29.289],[34.936,29.304],[34.948,29.298],[34.949,29.302],[34.949,29.304],[34.951,29.306],[34.956,29.305],[34.948,29.32],[34.945,29.337],[34.949,29.352],[35.06,29.335],[35.179,29.317],[35.335,29.293],[35.474,29.272],[35.622,29.25],[35.74,29.232],[35.797,29.223],[35.912,29.206],[36.016,29.19]]]}},{"type":"Feature","id":"SA-14","properties":{"id":"SA-14","countryCode":"SA","isoSubdivision":"SA-14","name":"'Asir","name_en":"'Asir","name_ko":"아시르","type":"Region","labelLongitude":42.95,"labelLatitude":19.348,"minZoom":6.6},"geometry":{"type":"Polygon","coordinates":[[[43.638,17.439],[43.62,17.459],[43.577,17.483],[43.503,17.513],[43.487,17.517],[43.453,17.519],[43.435,17.523],[43.413,17.52],[43.391,17.512],[43.342,17.482],[43.259,17.603],[43.242,17.623],[43.222,17.64],[43.145,17.666],[43.126,17.68],[43.111,17.699],[43.079,17.762],[43.065,17.783],[43.04,17.807],[42.963,17.867],[42.947,17.893],[42.94,17.917],[42.943,17.959],[42.938,17.978],[42.925,17.993],[42.886,18],[42.878,17.998],[42.832,17.973],[42.79,17.943],[42.772,17.926],[42.759,17.907],[42.736,17.867],[42.691,17.702],[42.682,17.683],[42.668,17.668],[42.649,17.661],[42.629,17.661],[42.606,17.669],[42.582,17.685],[42.489,17.777],[42.472,17.801],[42.46,17.824],[42.452,17.845],[42.439,17.866],[42.42,17.885],[42.392,17.9],[42.368,17.905],[42.21,17.907],[42.188,17.913],[42.167,17.924],[42.145,17.948],[42.136,17.969],[42.123,18.005],[42.116,18.016],[42.101,18.031],[42.074,18.046],[42.051,18.052],[42.029,18.054],[41.962,18.045],[41.943,18.05],[41.927,18.065],[41.918,18.092],[41.916,18.115],[41.917,18.138],[41.938,18.258],[41.937,18.278],[41.933,18.296],[41.923,18.312],[41.884,18.322],[41.771,18.314],[41.806,18.441],[41.81,18.469],[41.81,18.495],[41.803,18.525],[41.734,18.723],[41.723,18.742],[41.706,18.759],[41.687,18.769],[41.666,18.776],[41.624,18.784],[41.58,18.787],[41.471,18.786],[41.451,18.791],[41.432,18.801],[41.415,18.818],[41.403,18.838],[41.395,18.858],[41.389,18.879],[41.384,18.92],[41.391,19.153],[41.394,19.171],[41.402,19.182],[41.418,19.174],[41.435,19.161],[41.455,19.151],[41.475,19.151],[41.494,19.16],[41.544,19.196],[41.588,19.221],[41.611,19.228],[41.632,19.231],[41.654,19.232],[41.765,19.221],[41.779,19.221],[41.795,19.224],[41.813,19.232],[41.832,19.245],[41.846,19.262],[41.855,19.282],[41.889,19.383],[41.889,19.408],[41.883,19.432],[41.841,19.5],[41.835,19.52],[41.832,19.547],[41.834,19.57],[41.864,19.7],[41.867,19.72],[41.865,19.741],[41.859,19.762],[41.847,19.782],[41.832,19.799],[41.819,19.808],[41.805,19.813],[41.786,19.816],[41.744,19.814],[41.699,19.797],[41.8,20.004],[41.814,20.053],[41.82,20.125],[41.828,20.151],[41.843,20.178],[41.865,20.197],[41.983,20.276],[42.004,20.295],[42.027,20.325],[42.034,20.35],[42.031,20.373],[42.018,20.391],[41.993,20.415],[41.986,20.445],[41.984,20.471],[42.032,20.625],[42.05,20.596],[42.153,20.399],[42.169,20.379],[42.189,20.363],[42.209,20.351],[42.231,20.345],[42.26,20.347],[42.293,20.357],[42.347,20.385],[42.381,20.408],[42.635,20.624],[42.833,20.725],[42.86,20.747],[42.899,20.783],[42.924,20.799],[42.952,20.81],[42.988,20.817],[43.05,20.818],[43.065,20.821],[43.086,20.827],[43.146,20.851],[43.179,20.86],[43.222,20.865],[43.25,20.864],[43.276,20.858],[43.341,20.838],[43.37,20.84],[43.404,20.851],[43.561,20.938],[43.668,20.976],[43.814,20.854],[43.869,20.793],[43.9,20.745],[43.96,20.67],[44.043,20.585],[44.056,20.561],[44.062,20.539],[44.064,20.521],[44.064,20.502],[44.063,20.498],[44.055,20.477],[44.047,20.459],[43.988,20.373],[43.969,20.334],[43.93,20.163],[43.929,20.138],[43.937,20.107],[43.952,20.083],[44.01,20.019],[44.106,19.867],[44.499,19.524],[44.517,19.513],[44.517,19.387],[44.513,19.354],[44.505,19.332],[44.496,19.319],[44.48,19.308],[44.414,19.274],[44.391,19.255],[44.366,19.219],[44.359,19.193],[44.36,19.168],[44.395,19.042],[44.399,18.997],[44.399,18.962],[44.396,18.925],[44.389,18.897],[44.379,18.873],[44.367,18.853],[44.351,18.834],[44.332,18.817],[44.289,18.789],[44.243,18.767],[44.199,18.752],[44.129,18.739],[44.106,18.729],[44.082,18.714],[44.061,18.692],[44.047,18.667],[44.024,18.613],[44.012,18.593],[44,18.576],[43.968,18.544],[43.856,18.453],[43.694,18.291],[43.668,18.258],[43.648,18.222],[43.639,18.194],[43.638,18.169],[43.649,18.125],[43.664,18.081],[43.674,18.04],[43.676,17.998],[43.651,17.776],[43.641,17.736],[43.641,17.709],[43.644,17.685],[43.664,17.623],[43.666,17.57],[43.639,17.47],[43.638,17.439]]]}}]}
