{"type":"FeatureCollection","features":[{"type":"Feature","id":"SC-01","properties":{"id":"SC-01","countryCode":"SC","isoSubdivision":"SC-01","name":"Anse-aux-Pins","name_en":"Anse-aux-Pins","name_ko":"앙스오팽 구","type":"Principal subdivision","labelLongitude":55.521,"labelLatitude":-4.683,"minZoom":11},"geometry":{"type":"Polygon","coordinates":[[[55.529,-4.68],[55.526,-4.689],[55.504,-4.681],[55.506,-4.677],[55.529,-4.68]]]}},{"type":"Feature","id":"SC-02","properties":{"id":"SC-02","countryCode":"SC","isoSubdivision":"SC-02","name":"Anse Boileau","name_en":"Anse Boileau","name_ko":"앙스부알로 구","type":"Principal subdivision","labelLongitude":55.492,"labelLatitude":-4.714,"minZoom":11},"geometry":{"type":"Polygon","coordinates":[[[55.492,-4.736],[55.485,-4.727],[55.48,-4.721],[55.482,-4.713],[55.478,-4.706],[55.481,-4.697],[55.492,-4.688],[55.495,-4.678],[55.5,-4.68],[55.504,-4.706],[55.508,-4.72],[55.505,-4.739],[55.492,-4.736]]]}},{"type":"Feature","id":"SC-03","properties":{"id":"SC-03","countryCode":"SC","isoSubdivision":"SC-03","name":"Anse Etoile","name_en":"Anse Etoile","name_ko":"앙스에투알 구","type":"Principal subdivision","labelLongitude":55.454,"labelLatitude":-4.588,"minZoom":11},"geometry":{"type":"Polygon","coordinates":[[[55.464,-4.571],[55.467,-4.583],[55.463,-4.588],[55.46,-4.599],[55.454,-4.597],[55.441,-4.605],[55.439,-4.596],[55.441,-4.587],[55.447,-4.574],[55.459,-4.576],[55.464,-4.571]]]}},{"type":"Feature","id":"SC-04","properties":{"id":"SC-04","countryCode":"SC","isoSubdivision":"SC-04","name":"Au Cap","name_en":"Au Cap","name_ko":"오카프 구","type":"Principal subdivision","labelLongitude":55.514,"labelLatitude":-4.704,"minZoom":11},"geometry":{"type":"Polygon","coordinates":[[[55.526,-4.689],[55.522,-4.708],[55.525,-4.714],[55.528,-4.737],[55.51,-4.725],[55.508,-4.72],[55.504,-4.706],[55.5,-4.68],[55.504,-4.681],[55.526,-4.689]]]}},{"type":"Feature","id":"SC-05","properties":{"id":"SC-05","countryCode":"SC","isoSubdivision":"SC-05","name":"Anse Royale","name_en":"Anse Royale","name_ko":"앙스루아얄 구","type":"Principal subdivision","labelLongitude":55.512,"labelLatitude":-4.746,"minZoom":11},"geometry":{"type":"Polygon","coordinates":[[[55.528,-4.737],[55.52,-4.739],[55.517,-4.75],[55.526,-4.77],[55.51,-4.771],[55.506,-4.761],[55.504,-4.743],[55.505,-4.739],[55.508,-4.72],[55.51,-4.725],[55.528,-4.737]]]}},{"type":"Feature","id":"SC-06","properties":{"id":"SC-06","countryCode":"SC","isoSubdivision":"SC-06","name":"Baie Lazare","name_en":"Baie Lazare","name_ko":"베라자르 구","type":"Principal subdivision","labelLongitude":55.492,"labelLatitude":-4.755,"minZoom":11},"geometry":{"type":"Polygon","coordinates":[[[55.493,-4.777],[55.491,-4.773],[55.487,-4.762],[55.478,-4.759],[55.471,-4.764],[55.463,-4.76],[55.468,-4.742],[55.485,-4.742],[55.492,-4.736],[55.505,-4.739],[55.504,-4.743],[55.506,-4.761],[55.51,-4.771],[55.51,-4.777],[55.493,-4.777]]]}},{"type":"Feature","id":"SC-07","properties":{"id":"SC-07","countryCode":"SC","isoSubdivision":"SC-07","name":"Baie Sainte Anne","name_en":"Baie Sainte Anne","name_ko":"베생트안 구","type":"Principal subdivision","labelLongitude":55.76,"labelLatitude":-4.329,"minZoom":11},"geometry":{"type":"MultiPolygon","coordinates":[[[[55.683,-4.294],[55.69,-4.292],[55.697,-4.291],[55.704,-4.29],[55.719,-4.303],[55.732,-4.309],[55.747,-4.311],[55.754,-4.321],[55.765,-4.317],[55.777,-4.318],[55.787,-4.331],[55.771,-4.331],[55.768,-4.34],[55.768,-4.35],[55.748,-4.339],[55.741,-4.329],[55.683,-4.294]]],[[[55.712,-4.28],[55.715,-4.277],[55.722,-4.277],[55.738,-4.278],[55.743,-4.278],[55.741,-4.283],[55.732,-4.283],[55.733,-4.289],[55.733,-4.292],[55.721,-4.288],[55.712,-4.28]]]]}},{"type":"Feature","id":"SC-08","properties":{"id":"SC-08","countryCode":"SC","isoSubdivision":"SC-08","name":"Beau Vallon","name_en":"Beau Vallon","name_ko":"보발롱 구","type":"Principal subdivision","labelLongitude":55.432,"labelLatitude":-4.603,"minZoom":11},"geometry":{"type":"Polygon","coordinates":[[[55.414,-4.613],[55.418,-4.611],[55.422,-4.603],[55.426,-4.595],[55.432,-4.592],[55.433,-4.587],[55.441,-4.587],[55.439,-4.596],[55.441,-4.605],[55.436,-4.608],[55.439,-4.615],[55.432,-4.624],[55.426,-4.613],[55.417,-4.616],[55.414,-4.613]]]}},{"type":"Feature","id":"SC-09","properties":{"id":"SC-09","countryCode":"SC","isoSubdivision":"SC-09","name":"Bel Air","name_en":"Bel Air","name_ko":"벨에르 구","type":"Principal subdivision","labelLongitude":55.448,"labelLatitude":-4.632,"minZoom":11},"geometry":{"type":"Polygon","coordinates":[[[55.459,-4.618],[55.462,-4.623],[55.457,-4.624],[55.457,-4.626],[55.461,-4.626],[55.461,-4.63],[55.455,-4.632],[55.464,-4.647],[55.459,-4.658],[55.445,-4.651],[55.441,-4.636],[55.435,-4.63],[55.447,-4.621],[55.459,-4.618]]]}},{"type":"Feature","id":"SC-10","properties":{"id":"SC-10","countryCode":"SC","isoSubdivision":"SC-10","name":"Bel Ombre","name_en":"Bel Ombre","name_ko":"벨옴브르 구","type":"Principal subdivision","labelLongitude":55.409,"labelLatitude":-4.624,"minZoom":11},"geometry":{"type":"Polygon","coordinates":[[[55.38,-4.627],[55.388,-4.62],[55.395,-4.617],[55.407,-4.616],[55.414,-4.613],[55.417,-4.616],[55.426,-4.613],[55.432,-4.624],[55.418,-4.629],[55.42,-4.637],[55.409,-4.641],[55.38,-4.627]]]}},{"type":"Feature","id":"SC-11","properties":{"id":"SC-11","countryCode":"SC","isoSubdivision":"SC-11","name":"Cascade","name_en":"Cascade","name_ko":"카스카드 구","type":"Principal subdivision","labelLongitude":55.499,"labelLatitude":-4.667,"minZoom":11},"geometry":{"type":"Polygon","coordinates":[[[55.492,-4.651],[55.498,-4.655],[55.514,-4.666],[55.506,-4.677],[55.504,-4.681],[55.5,-4.68],[55.495,-4.678],[55.483,-4.662],[55.489,-4.659],[55.492,-4.651]]]}},{"type":"Feature","id":"SC-12","properties":{"id":"SC-12","countryCode":"SC","isoSubdivision":"SC-12","name":"Glacis","name_en":"Glacis","name_ko":"글라시 구","type":"Principal subdivision","labelLongitude":55.443,"labelLatitude":-4.569,"minZoom":11},"geometry":{"type":"Polygon","coordinates":[[[55.433,-4.587],[55.434,-4.58],[55.434,-4.563],[55.441,-4.561],[55.448,-4.561],[55.455,-4.562],[55.464,-4.571],[55.459,-4.576],[55.447,-4.574],[55.441,-4.587],[55.433,-4.587]]]}},{"type":"Feature","id":"SC-13","properties":{"id":"SC-13","countryCode":"SC","isoSubdivision":"SC-13","name":"Grand'Anse Praslin","name_en":"Grand'Anse Praslin","name_ko":"그랑당스프라슬랭 구","type":"Principal subdivision","labelLongitude":55.474,"labelLatitude":-4.687,"minZoom":11},"geometry":{"type":"Polygon","coordinates":[[[55.478,-4.706],[55.468,-4.705],[55.458,-4.691],[55.449,-4.678],[55.45,-4.674],[55.446,-4.673],[55.447,-4.666],[55.455,-4.665],[55.459,-4.658],[55.48,-4.672],[55.477,-4.665],[55.483,-4.662],[55.495,-4.678],[55.492,-4.688],[55.481,-4.697],[55.478,-4.706]]]}},{"type":"Feature","id":"SC-14","properties":{"id":"SC-14","countryCode":"SC","isoSubdivision":"SC-14","name":"Grand'Anse Praslin","name_en":"Grand'Anse Praslin","name_ko":"그랑당스프라슬랭 구","type":"Principal subdivision","labelLongitude":55.744,"labelLatitude":-4.345,"minZoom":11},"geometry":{"type":"MultiPolygon","coordinates":[[[[55.768,-4.35],[55.759,-4.358],[55.747,-4.358],[55.733,-4.352],[55.723,-4.343],[55.718,-4.33],[55.704,-4.328],[55.692,-4.326],[55.685,-4.319],[55.684,-4.312],[55.677,-4.296],[55.683,-4.294],[55.741,-4.329],[55.748,-4.339],[55.768,-4.35]]],[[[55.663,-4.328],[55.666,-4.329],[55.666,-4.334],[55.66,-4.335],[55.66,-4.33],[55.663,-4.328]]],[[[55.647,-4.347],[55.649,-4.349],[55.651,-4.353],[55.648,-4.353],[55.644,-4.349],[55.647,-4.347]]],[[[55.667,-4.21],[55.67,-4.211],[55.675,-4.212],[55.672,-4.215],[55.664,-4.214],[55.659,-4.213],[55.66,-4.21],[55.667,-4.21]]]]}},{"type":"Feature","id":"SC-15","properties":{"id":"SC-15","countryCode":"SC","isoSubdivision":"SC-15","name":"La Digue","name_en":"La Digue","name_ko":"라디그섬","type":"Principal subdivision","labelLongitude":55.839,"labelLatitude":-4.359,"minZoom":11},"geometry":{"type":"MultiPolygon","coordinates":[[[[55.66,-3.791],[55.666,-3.812],[55.659,-3.812],[55.652,-3.801],[55.66,-3.791]]],[[[55.26,-4.5],[55.242,-4.504],[55.228,-4.487],[55.221,-4.463],[55.225,-4.445],[55.242,-4.45],[55.26,-4.463],[55.269,-4.48],[55.26,-4.5]]],[[[55.832,-4.337],[55.844,-4.343],[55.851,-4.355],[55.857,-4.365],[55.85,-4.368],[55.844,-4.374],[55.841,-4.383],[55.834,-4.381],[55.826,-4.372],[55.823,-4.36],[55.828,-4.347],[55.832,-4.337]]],[[[55.869,-4.317],[55.873,-4.318],[55.883,-4.329],[55.885,-4.337],[55.879,-4.338],[55.873,-4.333],[55.867,-4.323],[55.869,-4.317]]],[[[55.866,-4.283],[55.87,-4.284],[55.871,-4.29],[55.874,-4.296],[55.87,-4.297],[55.866,-4.289],[55.866,-4.283]]],[[[55.92,-4.334],[55.925,-4.337],[55.924,-4.343],[55.923,-4.35],[55.919,-4.348],[55.918,-4.34],[55.92,-4.334]]],[[[55.94,-4.579],[55.944,-4.58],[55.949,-4.586],[55.95,-4.591],[55.945,-4.593],[55.939,-4.592],[55.933,-4.586],[55.933,-4.582],[55.936,-4.58],[55.94,-4.579]]]]}},{"type":"Feature","id":"SC-16","properties":{"id":"SC-16","countryCode":"SC","isoSubdivision":"SC-16","name":"La Rivière Anglaise","name_en":"La Rivière Anglaise","name_ko":"라리비에르앙글레즈 구","type":"Principal subdivision","labelLongitude":55.453,"labelLatitude":-4.607,"minZoom":11},"geometry":{"type":"Polygon","coordinates":[[[55.46,-4.599],[55.46,-4.606],[55.459,-4.618],[55.447,-4.621],[55.449,-4.613],[55.441,-4.605],[55.454,-4.597],[55.46,-4.599]]]}},{"type":"Feature","id":"SC-17","properties":{"id":"SC-17","countryCode":"SC","isoSubdivision":"SC-17","name":"Mont Buxton","name_en":"Mont Buxton","name_ko":"몽뷕스통 구","type":"Principal subdivision","labelLongitude":55.443,"labelLatitude":-4.612,"minZoom":11},"geometry":{"type":"Polygon","coordinates":[[[55.439,-4.615],[55.436,-4.608],[55.441,-4.605],[55.449,-4.613],[55.447,-4.621],[55.439,-4.615]]]}},{"type":"Feature","id":"SC-18","properties":{"id":"SC-18","countryCode":"SC","isoSubdivision":"SC-18","name":"Mont Fleuri","name_en":"Mont Fleuri","name_ko":"몽플뢰리 구","type":"Principal subdivision","labelLongitude":55.463,"labelLatitude":-4.634,"minZoom":11},"geometry":{"type":"MultiPolygon","coordinates":[[[[55.461,-4.626],[55.464,-4.625],[55.472,-4.635],[55.467,-4.642],[55.464,-4.647],[55.455,-4.632],[55.461,-4.63],[55.461,-4.626]]],[[[55.502,-4.629],[55.504,-4.63],[55.507,-4.637],[55.506,-4.64],[55.503,-4.64],[55.499,-4.638],[55.496,-4.636],[55.492,-4.634],[55.492,-4.63],[55.494,-4.628],[55.497,-4.628],[55.5,-4.63],[55.502,-4.629]]],[[[55.504,-4.621],[55.506,-4.622],[55.508,-4.624],[55.512,-4.625],[55.513,-4.627],[55.511,-4.63],[55.508,-4.628],[55.505,-4.626],[55.503,-4.624],[55.504,-4.621]]],[[[55.498,-4.601],[55.499,-4.6],[55.504,-4.598],[55.508,-4.599],[55.513,-4.599],[55.514,-4.601],[55.513,-4.605],[55.509,-4.609],[55.503,-4.612],[55.499,-4.614],[55.497,-4.615],[55.496,-4.612],[55.497,-4.607],[55.497,-4.603],[55.498,-4.601]]]]}},{"type":"Feature","id":"SC-19","properties":{"id":"SC-19","countryCode":"SC","isoSubdivision":"SC-19","name":"Plaisance","name_en":"Plaisance","name_ko":"플레장스 구","type":"Principal subdivision","labelLongitude":55.469,"labelLatitude":-4.655,"minZoom":11},"geometry":{"type":"Polygon","coordinates":[[[55.472,-4.635],[55.476,-4.64],[55.475,-4.648],[55.476,-4.653],[55.474,-4.655],[55.477,-4.665],[55.48,-4.672],[55.459,-4.658],[55.464,-4.647],[55.467,-4.642],[55.472,-4.635]]]}},{"type":"Feature","id":"SC-20","properties":{"id":"SC-20","countryCode":"SC","isoSubdivision":"SC-20","name":"Pointe La Rue","name_en":"Pointe La Rue","name_ko":"푸앵트라루 구","type":"Principal subdivision","labelLongitude":55.516,"labelLatitude":-4.674,"minZoom":11},"geometry":{"type":"Polygon","coordinates":[[[55.514,-4.666],[55.516,-4.668],[55.529,-4.68],[55.506,-4.677],[55.514,-4.666]]]}},{"type":"Feature","id":"SC-21","properties":{"id":"SC-21","countryCode":"SC","isoSubdivision":"SC-21","name":"Port Glaud","name_en":"Port Glaud","name_ko":"포르글로드 구","type":"Principal subdivision","labelLongitude":55.426,"labelLatitude":-4.654,"minZoom":11},"geometry":{"type":"MultiPolygon","coordinates":[[[[55.449,-4.678],[55.435,-4.676],[55.418,-4.666],[55.409,-4.661],[55.402,-4.661],[55.394,-4.658],[55.395,-4.654],[55.4,-4.653],[55.398,-4.65],[55.39,-4.647],[55.38,-4.649],[55.371,-4.647],[55.366,-4.643],[55.367,-4.639],[55.375,-4.64],[55.378,-4.638],[55.375,-4.633],[55.38,-4.627],[55.409,-4.641],[55.42,-4.637],[55.418,-4.629],[55.432,-4.624],[55.435,-4.63],[55.441,-4.636],[55.445,-4.651],[55.459,-4.658],[55.455,-4.665],[55.447,-4.666],[55.446,-4.673],[55.45,-4.674],[55.449,-4.678]]],[[[55.363,-4.659],[55.366,-4.661],[55.371,-4.664],[55.374,-4.666],[55.373,-4.668],[55.37,-4.667],[55.365,-4.666],[55.362,-4.664],[55.361,-4.661],[55.363,-4.659]]],[[[55.399,-4.669],[55.401,-4.67],[55.405,-4.672],[55.407,-4.675],[55.406,-4.678],[55.405,-4.68],[55.404,-4.68],[55.4,-4.676],[55.398,-4.673],[55.398,-4.671],[55.396,-4.67],[55.397,-4.668],[55.399,-4.669]]]]}},{"type":"Feature","id":"SC-22","properties":{"id":"SC-22","countryCode":"SC","isoSubdivision":"SC-22","name":"Saint Louis","name_en":"Saint Louis","name_ko":"생루이 구","type":"Principal subdivision","labelLongitude":55.439,"labelLatitude":-4.622,"minZoom":11},"geometry":{"type":"Polygon","coordinates":[[[55.432,-4.624],[55.439,-4.615],[55.447,-4.621],[55.435,-4.63],[55.432,-4.624]]]}},{"type":"Feature","id":"SC-23","properties":{"id":"SC-23","countryCode":"SC","isoSubdivision":"SC-23","name":"Takamaka","name_en":"Takamaka","name_ko":"타카마카 구","type":"Principal subdivision","labelLongitude":55.517,"labelLatitude":-4.791,"minZoom":11},"geometry":{"type":"Polygon","coordinates":[[[55.526,-4.77],[55.527,-4.784],[55.535,-4.79],[55.538,-4.804],[55.52,-4.804],[55.504,-4.796],[55.493,-4.777],[55.51,-4.777],[55.51,-4.771],[55.526,-4.77]]]}},{"type":"Feature","id":"SC-24","properties":{"id":"SC-24","countryCode":"SC","isoSubdivision":"SC-24","name":"Les Mamelles","name_en":"Les Mamelles","name_ko":"레마멜 구","type":"Principal subdivision","labelLongitude":55.481,"labelLatitude":-4.658,"minZoom":11},"geometry":{"type":"Polygon","coordinates":[[[55.477,-4.665],[55.474,-4.655],[55.476,-4.653],[55.475,-4.648],[55.489,-4.659],[55.483,-4.662],[55.477,-4.665]]]}},{"type":"Feature","id":"SC-25","properties":{"id":"SC-25","countryCode":"SC","isoSubdivision":"SC-25","name":"Roche Caiman","name_en":"Roche Caiman","name_ko":"로슈카이망 구","type":"Principal subdivision","labelLongitude":55.483,"labelLatitude":-4.649,"minZoom":11},"geometry":{"type":"Polygon","coordinates":[[[55.476,-4.64],[55.492,-4.651],[55.489,-4.659],[55.475,-4.648],[55.476,-4.64]]]}},{"type":"Feature","id":"SC-X02~","properties":{"id":"SC-X02~","countryCode":"SC","isoSubdivision":"SC-X02~","name":"Coralline Seychelles","name_en":"Coralline Seychelles","name_ko":"아우터 아일랜즈","type":"Principal subdivision","labelLongitude":46.495,"labelLatitude":-9.739,"minZoom":11},"geometry":{"type":"MultiPolygon","coordinates":[[[[46.51,-9.72],[46.508,-9.732],[46.501,-9.747],[46.49,-9.756],[46.48,-9.751],[46.479,-9.74],[46.487,-9.73],[46.499,-9.723],[46.51,-9.72]]],[[[47.507,-9.713],[47.507,-9.698],[47.513,-9.694],[47.516,-9.7],[47.507,-9.713]]],[[[53.334,-5.42],[53.342,-5.43],[53.344,-5.435],[53.345,-5.441],[53.341,-5.436],[53.338,-5.431],[53.334,-5.42]]],[[[46.495,-9.358],[46.516,-9.372],[46.525,-9.381],[46.52,-9.386],[46.507,-9.391],[46.473,-9.416],[46.455,-9.426],[46.381,-9.425],[46.3,-9.449],[46.234,-9.452],[46.207,-9.386],[46.23,-9.414],[46.274,-9.426],[46.32,-9.424],[46.352,-9.406],[46.369,-9.407],[46.396,-9.398],[46.422,-9.387],[46.435,-9.378],[46.441,-9.386],[46.448,-9.378],[46.458,-9.383],[46.469,-9.386],[46.469,-9.378],[46.459,-9.372],[46.453,-9.362],[46.45,-9.351],[46.448,-9.338],[46.495,-9.358]]],[[[46.284,-9.351],[46.282,-9.348],[46.283,-9.346],[46.282,-9.344],[46.276,-9.344],[46.276,-9.339],[46.278,-9.338],[46.281,-9.339],[46.315,-9.326],[46.354,-9.329],[46.393,-9.336],[46.427,-9.338],[46.411,-9.353],[46.379,-9.357],[46.348,-9.353],[46.331,-9.344],[46.318,-9.351],[46.296,-9.348],[46.284,-9.351]]],[[[56.247,-7.193],[56.259,-7.14],[56.269,-7.12],[56.287,-7.11],[56.283,-7.132],[56.272,-7.154],[56.247,-7.193]]],[[[52.742,-6.994],[52.747,-7.005],[52.743,-7.004],[52.742,-7.002],[52.742,-6.998],[52.742,-6.994]]],[[[55.383,-5.854],[55.382,-5.865],[55.38,-5.869],[55.38,-5.865],[55.383,-5.854]]]]}}]}
