{"type":"FeatureCollection","features":[{"type":"Feature","id":"SG-01","properties":{"id":"SG-01","countryCode":"SG","isoSubdivision":"SG-01","name":"Central Singapore Community Development Council","name_en":"Central Singapore Community Development Council","name_ko":"중앙싱가포르 지구 사회 발전 이사회","type":"Principal subdivision","labelLongitude":103.846,"labelLatitude":1.317,"minZoom":11},"geometry":{"type":"Polygon","coordinates":[[[103.898,1.305],[103.888,1.301],[103.853,1.277],[103.847,1.272],[103.84,1.274],[103.828,1.278],[103.819,1.283],[103.81,1.294],[103.807,1.304],[103.808,1.312],[103.806,1.325],[103.815,1.331],[103.824,1.34],[103.824,1.351],[103.819,1.358],[103.824,1.366],[103.835,1.371],[103.843,1.378],[103.841,1.386],[103.837,1.393],[103.831,1.401],[103.834,1.409],[103.841,1.417],[103.85,1.417],[103.863,1.417],[103.874,1.418],[103.881,1.427],[103.909,1.413],[103.905,1.406],[103.901,1.397],[103.899,1.386],[103.89,1.383],[103.884,1.38],[103.877,1.373],[103.873,1.363],[103.873,1.353],[103.875,1.343],[103.881,1.333],[103.888,1.322],[103.895,1.311],[103.898,1.305]]]}},{"type":"Feature","id":"SG-02","properties":{"id":"SG-02","countryCode":"SG","isoSubdivision":"SG-02","name":"North East Community Development Council","name_en":"North East Community Development Council","name_ko":"북동부 지구 사회 발전 이사회","type":"Principal subdivision","labelLongitude":103.925,"labelLatitude":1.384,"minZoom":11},"geometry":{"type":"Polygon","coordinates":[[[103.909,1.413],[103.932,1.401],[103.961,1.391],[103.966,1.39],[103.962,1.383],[103.955,1.377],[103.946,1.373],[103.946,1.365],[103.942,1.354],[103.935,1.354],[103.93,1.359],[103.917,1.364],[103.906,1.368],[103.898,1.375],[103.899,1.386],[103.901,1.397],[103.905,1.406],[103.909,1.413]]]}},{"type":"Feature","id":"SG-03","properties":{"id":"SG-03","countryCode":"SG","isoSubdivision":"SG-03","name":"North West","name_en":"North West","name_ko":"노스 웨스트 케이프","type":"Principal subdivision","labelLongitude":103.808,"labelLatitude":1.418,"minZoom":11},"geometry":{"type":"Polygon","coordinates":[[[103.762,1.431],[103.79,1.444],[103.805,1.449],[103.832,1.447],[103.857,1.439],[103.881,1.427],[103.874,1.418],[103.863,1.417],[103.85,1.417],[103.841,1.417],[103.834,1.409],[103.831,1.401],[103.837,1.393],[103.841,1.386],[103.843,1.378],[103.835,1.371],[103.824,1.366],[103.819,1.358],[103.824,1.351],[103.824,1.34],[103.815,1.331],[103.806,1.325],[103.798,1.334],[103.79,1.34],[103.782,1.343],[103.78,1.348],[103.784,1.351],[103.788,1.356],[103.788,1.362],[103.778,1.37],[103.771,1.376],[103.764,1.383],[103.758,1.39],[103.758,1.402],[103.759,1.41],[103.761,1.421],[103.762,1.431]]]}},{"type":"Feature","id":"SG-04","properties":{"id":"SG-04","countryCode":"SG","isoSubdivision":"SG-04","name":"South East Community Development Council","name_en":"South East Community Development Council","name_ko":"남동부 지구 사회 발전 이사회","type":"Principal subdivision","labelLongitude":103.932,"labelLatitude":1.335,"minZoom":11},"geometry":{"type":"Polygon","coordinates":[[[103.966,1.39],[103.986,1.385],[104,1.38],[104.003,1.374],[103.992,1.355],[103.975,1.334],[103.954,1.318],[103.932,1.311],[103.907,1.309],[103.898,1.305],[103.895,1.311],[103.888,1.322],[103.881,1.333],[103.875,1.343],[103.873,1.353],[103.873,1.363],[103.877,1.373],[103.884,1.38],[103.89,1.383],[103.899,1.386],[103.898,1.375],[103.906,1.368],[103.917,1.364],[103.93,1.359],[103.935,1.354],[103.942,1.354],[103.946,1.365],[103.946,1.373],[103.955,1.377],[103.962,1.383],[103.966,1.39]]]}},{"type":"Feature","id":"SG-05","properties":{"id":"SG-05","countryCode":"SG","isoSubdivision":"SG-05","name":"South West Community Development Council","name_en":"South West Community Development Council","name_ko":"남서부 지구 사회 발전 이사회","type":"Principal subdivision","labelLongitude":103.705,"labelLatitude":1.337,"minZoom":11},"geometry":{"type":"Polygon","coordinates":[[[103.847,1.272],[103.844,1.269],[103.839,1.266],[103.826,1.264],[103.802,1.265],[103.79,1.268],[103.784,1.274],[103.776,1.288],[103.755,1.297],[103.73,1.303],[103.709,1.305],[103.665,1.304],[103.648,1.308],[103.64,1.322],[103.645,1.338],[103.675,1.38],[103.679,1.399],[103.684,1.41],[103.695,1.421],[103.708,1.429],[103.718,1.431],[103.74,1.428],[103.762,1.431],[103.761,1.421],[103.759,1.41],[103.758,1.402],[103.758,1.39],[103.764,1.383],[103.771,1.376],[103.778,1.37],[103.788,1.362],[103.788,1.356],[103.784,1.351],[103.78,1.348],[103.782,1.343],[103.79,1.34],[103.798,1.334],[103.806,1.325],[103.808,1.312],[103.807,1.304],[103.81,1.294],[103.819,1.283],[103.828,1.278],[103.84,1.274],[103.847,1.272]]]}}]}
