{"type":"FeatureCollection","features":[{"type":"Feature","id":"SK-BC","properties":{"id":"SK-BC","countryCode":"SK","isoSubdivision":"SK-BC","name":"Banská Bystrica","name_en":"Banská Bystrica","name_ko":"반스카비스트리차","type":"Region","labelLongitude":19.477,"labelLatitude":48.521,"minZoom":7.7},"geometry":{"type":"Polygon","coordinates":[[[20.466,48.464],[20.436,48.442],[20.421,48.429],[20.409,48.414],[20.37,48.334],[20.349,48.305],[20.324,48.28],[20.295,48.26],[20.272,48.252],[20.26,48.256],[20.249,48.264],[20.229,48.271],[20.218,48.268],[20.188,48.249],[20.171,48.244],[20.153,48.245],[20.143,48.248],[20.135,48.247],[20.122,48.237],[20.118,48.23],[20.113,48.212],[20.105,48.203],[20.097,48.198],[20.078,48.194],[20.038,48.177],[20.035,48.176],[19.997,48.168],[19.974,48.158],[19.929,48.13],[19.905,48.124],[19.884,48.13],[19.846,48.153],[19.822,48.158],[19.786,48.149],[19.776,48.15],[19.767,48.159],[19.769,48.167],[19.775,48.176],[19.774,48.186],[19.757,48.2],[19.733,48.203],[19.687,48.197],[19.677,48.2],[19.655,48.218],[19.644,48.225],[19.634,48.227],[19.623,48.227],[19.531,48.211],[19.514,48.204],[19.503,48.189],[19.494,48.151],[19.482,48.135],[19.481,48.134],[19.481,48.133],[19.482,48.133],[19.483,48.127],[19.484,48.122],[19.483,48.116],[19.482,48.111],[19.428,48.086],[19.293,48.088],[19.233,48.062],[19.223,48.061],[19.099,48.071],[19.039,48.065],[19.019,48.065],[19.019,48.066],[19.018,48.075],[19.018,48.087],[19.019,48.091],[19.031,48.102],[19.034,48.107],[19.037,48.11],[19.04,48.112],[19.045,48.114],[19.05,48.117],[19.056,48.121],[19.063,48.128],[19.067,48.135],[19.067,48.141],[19.061,48.16],[19.061,48.165],[19.063,48.172],[19.065,48.177],[19.067,48.179],[19.072,48.184],[19.073,48.186],[19.073,48.188],[19.073,48.191],[19.074,48.192],[19.072,48.195],[19.071,48.197],[19.058,48.207],[19.042,48.197],[19.036,48.194],[19.031,48.192],[19.026,48.192],[19.023,48.192],[19.017,48.193],[19.014,48.193],[19.011,48.192],[18.994,48.189],[18.98,48.184],[18.975,48.183],[18.968,48.182],[18.96,48.18],[18.956,48.179],[18.952,48.178],[18.945,48.176],[18.942,48.175],[18.939,48.172],[18.936,48.168],[18.934,48.165],[18.934,48.163],[18.933,48.161],[18.932,48.161],[18.93,48.161],[18.924,48.161],[18.92,48.161],[18.91,48.159],[18.905,48.159],[18.9,48.159],[18.892,48.161],[18.889,48.161],[18.884,48.16],[18.881,48.16],[18.877,48.161],[18.872,48.163],[18.853,48.173],[18.848,48.175],[18.843,48.176],[18.838,48.176],[18.834,48.176],[18.83,48.175],[18.828,48.173],[18.826,48.169],[18.824,48.167],[18.821,48.166],[18.819,48.165],[18.816,48.166],[18.813,48.167],[18.81,48.17],[18.808,48.174],[18.807,48.179],[18.807,48.185],[18.809,48.19],[18.814,48.195],[18.821,48.199],[18.825,48.202],[18.83,48.204],[18.831,48.206],[18.831,48.209],[18.827,48.215],[18.819,48.225],[18.817,48.229],[18.817,48.231],[18.821,48.233],[18.823,48.235],[18.823,48.236],[18.813,48.243],[18.814,48.247],[18.818,48.251],[18.829,48.262],[18.841,48.27],[18.844,48.274],[18.846,48.278],[18.855,48.306],[18.816,48.366],[18.809,48.371],[18.783,48.386],[18.755,48.414],[18.743,48.416],[18.738,48.415],[18.733,48.413],[18.723,48.405],[18.709,48.396],[18.706,48.393],[18.703,48.389],[18.697,48.385],[18.696,48.383],[18.695,48.38],[18.694,48.378],[18.692,48.376],[18.688,48.372],[18.687,48.369],[18.686,48.366],[18.686,48.364],[18.683,48.361],[18.651,48.354],[18.588,48.348],[18.576,48.345],[18.567,48.339],[18.561,48.332],[18.559,48.33],[18.552,48.326],[18.549,48.324],[18.546,48.32],[18.541,48.32],[18.531,48.331],[18.536,48.336],[18.545,48.341],[18.547,48.344],[18.549,48.346],[18.55,48.349],[18.551,48.351],[18.552,48.353],[18.559,48.357],[18.563,48.359],[18.567,48.363],[18.569,48.368],[18.572,48.374],[18.572,48.381],[18.571,48.389],[18.567,48.402],[18.56,48.412],[18.554,48.416],[18.55,48.417],[18.547,48.417],[18.545,48.418],[18.544,48.422],[18.545,48.427],[18.545,48.433],[18.542,48.439],[18.534,48.449],[18.531,48.455],[18.532,48.461],[18.534,48.464],[18.543,48.471],[18.544,48.473],[18.543,48.474],[18.538,48.475],[18.536,48.477],[18.535,48.479],[18.537,48.486],[18.538,48.49],[18.538,48.495],[18.536,48.5],[18.533,48.502],[18.524,48.504],[18.515,48.504],[18.491,48.501],[18.489,48.502],[18.49,48.506],[18.496,48.514],[18.511,48.526],[18.513,48.528],[18.511,48.531],[18.504,48.534],[18.49,48.549],[18.501,48.565],[18.599,48.574],[18.599,48.576],[18.6,48.577],[18.603,48.584],[18.604,48.586],[18.604,48.587],[18.604,48.589],[18.604,48.59],[18.604,48.592],[18.606,48.595],[18.608,48.598],[18.613,48.603],[18.628,48.614],[18.655,48.64],[18.709,48.63],[18.715,48.63],[18.722,48.631],[18.722,48.635],[18.72,48.644],[18.721,48.646],[18.725,48.649],[18.739,48.657],[18.743,48.66],[18.767,48.69],[18.771,48.694],[18.777,48.696],[18.792,48.697],[18.796,48.697],[18.8,48.699],[18.814,48.713],[18.826,48.73],[18.829,48.733],[18.831,48.736],[18.832,48.737],[18.833,48.744],[18.876,48.764],[18.888,48.767],[18.89,48.765],[18.891,48.763],[18.892,48.761],[18.893,48.759],[18.894,48.758],[18.896,48.757],[18.899,48.754],[18.899,48.753],[18.916,48.75],[19.001,48.747],[19.015,48.764],[19.017,48.77],[19.02,48.781],[19.021,48.786],[19.02,48.79],[19.019,48.791],[19.005,48.799],[19,48.806],[18.999,48.81],[19,48.813],[19.003,48.816],[19.007,48.82],[19.008,48.824],[19.007,48.83],[19.001,48.842],[19.001,48.845],[19.003,48.848],[19.02,48.853],[19.025,48.857],[19.028,48.859],[19.039,48.877],[19.087,48.875],[19.252,48.891],[19.26,48.891],[19.261,48.889],[19.263,48.885],[19.265,48.884],[19.268,48.883],[19.27,48.881],[19.272,48.877],[19.274,48.869],[19.274,48.865],[19.274,48.863],[19.273,48.863],[19.269,48.862],[19.268,48.862],[19.267,48.861],[19.265,48.856],[19.266,48.856],[19.27,48.856],[19.31,48.86],[19.316,48.861],[19.321,48.864],[19.323,48.865],[19.324,48.867],[19.325,48.869],[19.327,48.875],[19.328,48.879],[19.339,48.888],[19.36,48.896],[19.394,48.924],[19.562,48.942],[19.637,48.936],[19.702,48.92],[19.709,48.917],[19.715,48.913],[19.718,48.911],[19.728,48.909],[19.732,48.908],[19.735,48.906],[19.738,48.904],[19.743,48.901],[19.747,48.9],[19.75,48.9],[19.762,48.904],[19.808,48.913],[19.817,48.913],[19.845,48.908],[19.941,48.906],[19.944,48.907],[19.956,48.908],[19.973,48.913],[19.979,48.914],[19.983,48.913],[19.996,48.907],[20.14,48.895],[20.159,48.896],[20.175,48.905],[20.181,48.905],[20.2,48.899],[20.219,48.894],[20.225,48.892],[20.232,48.889],[20.273,48.873],[20.25,48.868],[20.203,48.822],[20.199,48.816],[20.2,48.811],[20.199,48.808],[20.199,48.805],[20.198,48.796],[20.198,48.788],[20.201,48.778],[20.201,48.773],[20.197,48.768],[20.192,48.764],[20.187,48.761],[20.184,48.758],[20.181,48.756],[20.181,48.751],[20.181,48.745],[20.184,48.734],[20.188,48.727],[20.196,48.722],[20.207,48.721],[20.21,48.72],[20.261,48.692],[20.266,48.684],[20.287,48.644],[20.294,48.626],[20.293,48.624],[20.292,48.622],[20.292,48.62],[20.292,48.618],[20.294,48.616],[20.297,48.614],[20.306,48.611],[20.313,48.609],[20.324,48.608],[20.328,48.607],[20.336,48.604],[20.345,48.602],[20.347,48.601],[20.348,48.599],[20.345,48.593],[20.341,48.58],[20.339,48.576],[20.338,48.574],[20.335,48.572],[20.332,48.568],[20.33,48.565],[20.327,48.559],[20.32,48.535],[20.317,48.531],[20.312,48.526],[20.308,48.521],[20.305,48.516],[20.304,48.509],[20.304,48.505],[20.305,48.502],[20.309,48.497],[20.31,48.495],[20.31,48.492],[20.309,48.489],[20.309,48.487],[20.311,48.483],[20.316,48.48],[20.334,48.473],[20.336,48.471],[20.335,48.469],[20.333,48.468],[20.332,48.466],[20.331,48.464],[20.332,48.463],[20.336,48.463],[20.378,48.465],[20.394,48.464],[20.402,48.464],[20.419,48.47],[20.427,48.472],[20.449,48.472],[20.465,48.464],[20.466,48.464]]]}},{"type":"Feature","id":"SK-BL","properties":{"id":"SK-BL","countryCode":"SK","isoSubdivision":"SK-BL","name":"Bratislava","name_en":"Bratislava","name_ko":"브라티슬라바","type":"Region","labelLongitude":17.188,"labelLatitude":48.294,"minZoom":7.7},"geometry":{"type":"Polygon","coordinates":[[[17.148,48.005],[17.125,48.02],[17.093,48.027],[17.07,48.036],[17.075,48.052],[17.063,48.059],[17.059,48.06],[17.065,48.079],[17.07,48.089],[17.08,48.098],[17.067,48.107],[17.062,48.113],[17.047,48.131],[17.037,48.136],[17.021,48.137],[17.007,48.143],[16.982,48.161],[16.975,48.177],[16.975,48.199],[16.97,48.217],[16.954,48.253],[16.954,48.257],[16.955,48.269],[16.954,48.273],[16.951,48.277],[16.944,48.278],[16.933,48.285],[16.924,48.288],[16.917,48.291],[16.913,48.297],[16.912,48.301],[16.909,48.307],[16.905,48.312],[16.903,48.314],[16.898,48.316],[16.9,48.321],[16.904,48.327],[16.906,48.331],[16.902,48.339],[16.892,48.347],[16.881,48.353],[16.875,48.355],[16.855,48.356],[16.848,48.36],[16.844,48.366],[16.845,48.377],[16.847,48.381],[16.849,48.384],[16.852,48.39],[16.861,48.444],[16.865,48.458],[16.875,48.472],[16.901,48.497],[16.906,48.51],[16.914,48.519],[16.93,48.528],[16.947,48.54],[16.949,48.545],[16.952,48.545],[17.013,48.558],[17.058,48.559],[17.061,48.559],[17.062,48.561],[17.061,48.563],[17.058,48.568],[17.064,48.568],[17.077,48.566],[17.121,48.552],[17.131,48.55],[17.137,48.551],[17.178,48.563],[17.192,48.568],[17.21,48.572],[17.222,48.572],[17.23,48.574],[17.234,48.576],[17.238,48.583],[17.242,48.586],[17.246,48.588],[17.256,48.59],[17.263,48.594],[17.265,48.595],[17.267,48.597],[17.269,48.601],[17.271,48.603],[17.273,48.605],[17.278,48.608],[17.284,48.611],[17.286,48.612],[17.288,48.612],[17.289,48.612],[17.29,48.613],[17.291,48.615],[17.32,48.645],[17.328,48.653],[17.335,48.656],[17.34,48.655],[17.342,48.654],[17.344,48.653],[17.346,48.652],[17.357,48.65],[17.36,48.648],[17.364,48.646],[17.368,48.643],[17.372,48.64],[17.376,48.635],[17.378,48.628],[17.379,48.618],[17.373,48.607],[17.368,48.6],[17.35,48.584],[17.347,48.582],[17.344,48.581],[17.34,48.581],[17.337,48.581],[17.334,48.581],[17.332,48.579],[17.325,48.566],[17.323,48.565],[17.321,48.563],[17.31,48.559],[17.31,48.553],[17.305,48.545],[17.359,48.509],[17.35,48.505],[17.346,48.503],[17.341,48.498],[17.326,48.482],[17.317,48.471],[17.321,48.46],[17.333,48.456],[17.347,48.456],[17.349,48.456],[17.351,48.455],[17.354,48.454],[17.356,48.452],[17.364,48.448],[17.369,48.445],[17.372,48.444],[17.376,48.443],[17.394,48.442],[17.397,48.441],[17.398,48.439],[17.395,48.435],[17.393,48.433],[17.393,48.431],[17.395,48.429],[17.404,48.424],[17.408,48.421],[17.415,48.414],[17.422,48.409],[17.427,48.404],[17.444,48.382],[17.448,48.378],[17.451,48.377],[17.456,48.376],[17.46,48.375],[17.464,48.373],[17.469,48.369],[17.472,48.365],[17.475,48.362],[17.478,48.36],[17.478,48.356],[17.475,48.35],[17.467,48.337],[17.459,48.329],[17.459,48.326],[17.458,48.324],[17.464,48.313],[17.519,48.284],[17.491,48.262],[17.486,48.256],[17.485,48.251],[17.487,48.242],[17.489,48.238],[17.492,48.237],[17.496,48.236],[17.517,48.23],[17.519,48.226],[17.519,48.222],[17.517,48.211],[17.519,48.207],[17.521,48.206],[17.526,48.206],[17.527,48.206],[17.529,48.206],[17.531,48.203],[17.532,48.202],[17.532,48.199],[17.531,48.194],[17.524,48.183],[17.521,48.179],[17.517,48.177],[17.512,48.178],[17.501,48.176],[17.469,48.159],[17.443,48.151],[17.438,48.151],[17.433,48.152],[17.426,48.156],[17.421,48.158],[17.408,48.159],[17.405,48.159],[17.404,48.161],[17.404,48.162],[17.405,48.164],[17.409,48.17],[17.407,48.173],[17.406,48.175],[17.406,48.176],[17.405,48.178],[17.403,48.178],[17.4,48.178],[17.394,48.175],[17.39,48.174],[17.386,48.172],[17.384,48.17],[17.381,48.16],[17.381,48.157],[17.382,48.155],[17.384,48.153],[17.388,48.15],[17.39,48.148],[17.392,48.146],[17.392,48.145],[17.391,48.143],[17.388,48.141],[17.382,48.139],[17.378,48.139],[17.374,48.137],[17.37,48.135],[17.362,48.13],[17.352,48.126],[17.348,48.125],[17.337,48.125],[17.313,48.128],[17.31,48.128],[17.308,48.128],[17.307,48.126],[17.313,48.12],[17.313,48.118],[17.313,48.115],[17.312,48.111],[17.311,48.109],[17.312,48.107],[17.313,48.105],[17.321,48.101],[17.326,48.098],[17.328,48.097],[17.33,48.096],[17.346,48.097],[17.348,48.097],[17.35,48.096],[17.351,48.096],[17.353,48.094],[17.352,48.093],[17.348,48.09],[17.337,48.085],[17.322,48.077],[17.315,48.075],[17.31,48.074],[17.308,48.075],[17.305,48.075],[17.304,48.073],[17.303,48.067],[17.305,48.063],[17.306,48.059],[17.305,48.056],[17.302,48.054],[17.292,48.05],[17.286,48.048],[17.268,48.033],[17.262,48.008],[17.262,48.007],[17.221,48.015],[17.185,48.02],[17.148,48.005]]]}},{"type":"Feature","id":"SK-KI","properties":{"id":"SK-KI","countryCode":"SK","isoSubdivision":"SK-KI","name":"Košice","name_en":"Košice","name_ko":"코시체","type":"Region","labelLongitude":21.275,"labelLatitude":48.662,"minZoom":7.7},"geometry":{"type":"Polygon","coordinates":[[[22.371,48.858],[22.369,48.856],[22.362,48.844],[22.362,48.836],[22.364,48.828],[22.366,48.794],[22.363,48.788],[22.356,48.776],[22.348,48.768],[22.338,48.763],[22.331,48.756],[22.328,48.743],[22.329,48.722],[22.322,48.7],[22.31,48.682],[22.294,48.668],[22.282,48.662],[22.256,48.657],[22.243,48.651],[22.236,48.644],[22.225,48.628],[22.219,48.621],[22.154,48.586],[22.139,48.57],[22.137,48.549],[22.148,48.509],[22.145,48.493],[22.134,48.477],[22.133,48.405],[22.114,48.389],[22.096,48.379],[22.078,48.376],[22.018,48.38],[22,48.379],[21.982,48.375],[21.929,48.373],[21.915,48.369],[21.884,48.357],[21.841,48.353],[21.789,48.336],[21.759,48.334],[21.728,48.341],[21.701,48.354],[21.678,48.372],[21.622,48.43],[21.613,48.44],[21.6,48.482],[21.592,48.493],[21.575,48.496],[21.538,48.495],[21.522,48.5],[21.515,48.507],[21.506,48.526],[21.499,48.535],[21.491,48.54],[21.473,48.545],[21.439,48.558],[21.425,48.561],[21.373,48.55],[21.339,48.55],[21.322,48.548],[21.302,48.54],[21.294,48.531],[21.288,48.52],[21.277,48.509],[21.262,48.503],[21.25,48.506],[21.238,48.513],[21.22,48.519],[21.187,48.514],[21.109,48.489],[21.084,48.493],[21.064,48.506],[21.036,48.515],[21.007,48.518],[20.981,48.517],[20.946,48.519],[20.891,48.541],[20.86,48.543],[20.845,48.546],[20.816,48.564],[20.8,48.569],[20.784,48.569],[20.573,48.537],[20.511,48.534],[20.482,48.526],[20.481,48.519],[20.48,48.51],[20.482,48.493],[20.483,48.489],[20.483,48.486],[20.483,48.482],[20.482,48.479],[20.468,48.465],[20.466,48.464],[20.465,48.464],[20.449,48.472],[20.427,48.472],[20.419,48.47],[20.402,48.464],[20.394,48.464],[20.378,48.465],[20.336,48.463],[20.332,48.463],[20.331,48.464],[20.332,48.466],[20.333,48.468],[20.335,48.469],[20.336,48.471],[20.334,48.473],[20.316,48.48],[20.311,48.483],[20.309,48.487],[20.309,48.489],[20.31,48.492],[20.31,48.495],[20.309,48.497],[20.305,48.502],[20.304,48.505],[20.304,48.509],[20.305,48.516],[20.308,48.521],[20.312,48.526],[20.317,48.531],[20.32,48.535],[20.327,48.559],[20.33,48.565],[20.332,48.568],[20.335,48.572],[20.338,48.574],[20.339,48.576],[20.341,48.58],[20.345,48.593],[20.348,48.599],[20.347,48.601],[20.345,48.602],[20.336,48.604],[20.328,48.607],[20.324,48.608],[20.313,48.609],[20.306,48.611],[20.297,48.614],[20.294,48.616],[20.292,48.618],[20.292,48.62],[20.292,48.622],[20.293,48.624],[20.294,48.626],[20.287,48.644],[20.266,48.684],[20.261,48.692],[20.21,48.72],[20.207,48.721],[20.196,48.722],[20.188,48.727],[20.184,48.734],[20.181,48.745],[20.181,48.751],[20.181,48.756],[20.184,48.758],[20.187,48.761],[20.192,48.764],[20.197,48.768],[20.201,48.773],[20.201,48.778],[20.198,48.788],[20.198,48.796],[20.199,48.805],[20.199,48.808],[20.2,48.811],[20.199,48.816],[20.203,48.822],[20.25,48.868],[20.273,48.873],[20.287,48.882],[20.299,48.901],[20.306,48.908],[20.312,48.912],[20.341,48.924],[20.327,48.937],[20.314,48.939],[20.302,48.941],[20.299,48.943],[20.3,48.945],[20.311,48.952],[20.324,48.964],[20.329,48.967],[20.342,48.973],[20.386,48.986],[20.393,48.99],[20.396,48.991],[20.398,48.991],[20.401,48.99],[20.404,48.99],[20.408,48.992],[20.424,49.002],[20.428,49.003],[20.43,49.003],[20.433,49.001],[20.434,49],[20.441,48.999],[20.464,48.989],[20.48,48.974],[20.483,48.971],[20.485,48.97],[20.485,48.971],[20.484,48.972],[20.482,48.973],[20.48,48.975],[20.478,48.978],[20.477,48.983],[20.476,48.985],[20.477,48.986],[20.48,48.987],[20.503,48.993],[20.507,48.994],[20.506,48.996],[20.501,49.002],[20.503,49.005],[20.505,49.008],[20.513,49.014],[20.518,49.015],[20.523,49.013],[20.524,49.011],[20.521,49.003],[20.524,49],[20.529,48.997],[20.555,48.984],[20.579,48.974],[20.6,48.973],[20.608,48.972],[20.614,48.97],[20.615,48.968],[20.628,48.954],[20.634,48.952],[20.646,48.952],[20.658,48.953],[20.668,48.956],[20.672,48.958],[20.675,48.959],[20.68,48.963],[20.681,48.964],[20.68,48.965],[20.678,48.969],[20.677,48.971],[20.677,48.972],[20.678,48.973],[20.682,48.975],[20.689,48.976],[20.707,48.977],[20.77,48.97],[20.773,48.971],[20.775,48.972],[20.775,48.973],[20.773,48.974],[20.768,48.976],[20.767,48.977],[20.766,48.978],[20.766,48.98],[20.766,48.983],[20.767,48.986],[20.768,48.989],[20.767,48.992],[20.765,48.995],[20.764,48.997],[20.765,49],[20.768,49],[20.779,48.999],[20.803,48.992],[20.819,48.989],[20.824,48.987],[20.825,48.985],[20.821,48.982],[20.821,48.98],[20.824,48.977],[20.836,48.974],[20.842,48.973],[20.847,48.972],[20.878,48.977],[20.898,48.965],[20.919,48.963],[20.947,48.951],[20.952,48.951],[20.953,48.952],[20.954,48.953],[20.957,48.954],[20.963,48.956],[20.977,48.957],[20.983,48.957],[20.986,48.955],[20.989,48.95],[20.99,48.948],[20.99,48.945],[20.989,48.942],[20.991,48.938],[20.996,48.933],[21.013,48.923],[21.015,48.92],[21.015,48.918],[21.017,48.916],[21.019,48.913],[21.024,48.907],[21.028,48.905],[21.032,48.904],[21.036,48.904],[21.039,48.905],[21.053,48.906],[21.091,48.897],[21.11,48.896],[21.115,48.896],[21.133,48.9],[21.138,48.9],[21.141,48.899],[21.145,48.897],[21.15,48.895],[21.153,48.894],[21.156,48.892],[21.158,48.89],[21.161,48.887],[21.166,48.883],[21.175,48.878],[21.181,48.876],[21.201,48.879],[21.216,48.875],[21.225,48.875],[21.232,48.873],[21.239,48.869],[21.244,48.868],[21.25,48.869],[21.256,48.87],[21.259,48.87],[21.26,48.869],[21.26,48.867],[21.262,48.864],[21.262,48.862],[21.26,48.861],[21.254,48.857],[21.252,48.855],[21.251,48.853],[21.245,48.848],[21.243,48.846],[21.242,48.844],[21.242,48.842],[21.243,48.839],[21.254,48.828],[21.272,48.817],[21.283,48.813],[21.295,48.812],[21.308,48.813],[21.311,48.814],[21.312,48.815],[21.312,48.816],[21.31,48.817],[21.306,48.819],[21.304,48.821],[21.303,48.823],[21.303,48.825],[21.304,48.827],[21.305,48.829],[21.308,48.831],[21.311,48.832],[21.317,48.833],[21.331,48.833],[21.335,48.833],[21.347,48.836],[21.363,48.837],[21.366,48.838],[21.37,48.839],[21.374,48.841],[21.377,48.846],[21.38,48.853],[21.382,48.866],[21.382,48.869],[21.38,48.871],[21.377,48.875],[21.378,48.877],[21.382,48.879],[21.391,48.881],[21.396,48.881],[21.4,48.88],[21.407,48.876],[21.411,48.873],[21.414,48.873],[21.415,48.875],[21.417,48.879],[21.418,48.886],[21.42,48.888],[21.422,48.888],[21.423,48.886],[21.423,48.883],[21.426,48.88],[21.43,48.876],[21.443,48.872],[21.451,48.871],[21.459,48.873],[21.463,48.875],[21.466,48.876],[21.48,48.881],[21.492,48.862],[21.493,48.857],[21.494,48.847],[21.497,48.841],[21.503,48.833],[21.508,48.828],[21.537,48.794],[21.6,48.777],[21.625,48.774],[21.643,48.775],[21.651,48.774],[21.658,48.772],[21.677,48.763],[21.688,48.761],[21.697,48.76],[21.705,48.761],[21.711,48.762],[21.715,48.764],[21.718,48.765],[21.719,48.767],[21.721,48.77],[21.721,48.772],[21.728,48.774],[21.751,48.777],[21.767,48.786],[21.786,48.791],[21.792,48.793],[21.796,48.796],[21.799,48.801],[21.801,48.806],[21.801,48.809],[21.799,48.813],[21.793,48.822],[21.792,48.825],[21.792,48.828],[21.792,48.834],[21.792,48.836],[21.787,48.846],[21.787,48.85],[21.787,48.863],[21.786,48.866],[21.785,48.868],[21.785,48.87],[21.786,48.895],[21.823,48.895],[21.92,48.874],[21.934,48.869],[21.939,48.867],[21.942,48.865],[21.941,48.864],[21.947,48.86],[21.993,48.842],[22.014,48.839],[22.033,48.838],[22.063,48.842],[22.12,48.842],[22.124,48.843],[22.126,48.844],[22.127,48.847],[22.127,48.852],[22.124,48.861],[22.12,48.87],[22.119,48.873],[22.119,48.875],[22.119,48.877],[22.123,48.88],[22.125,48.882],[22.147,48.888],[22.184,48.921],[22.211,48.922],[22.228,48.915],[22.232,48.911],[22.233,48.907],[22.233,48.904],[22.235,48.899],[22.25,48.875],[22.251,48.868],[22.252,48.863],[22.255,48.861],[22.261,48.86],[22.294,48.861],[22.319,48.866],[22.324,48.866],[22.37,48.858],[22.371,48.858]]]}},{"type":"Feature","id":"SK-NI","properties":{"id":"SK-NI","countryCode":"SK","isoSubdivision":"SK-NI","name":"Nitra","name_en":"Nitra","name_ko":"니트라","type":"Region","labelLongitude":18.397,"labelLatitude":48.144,"minZoom":7.7},"geometry":{"type":"Polygon","coordinates":[[[19.019,48.065],[18.996,48.066],[18.982,48.062],[18.934,48.054],[18.838,48.04],[18.821,48.03],[18.794,47.993],[18.785,47.988],[18.765,47.985],[18.756,47.982],[18.743,47.971],[18.745,47.967],[18.751,47.963],[18.755,47.952],[18.745,47.911],[18.742,47.889],[18.749,47.871],[18.778,47.851],[18.816,47.833],[18.815,47.832],[18.79,47.826],[18.768,47.822],[18.75,47.814],[18.717,47.788],[18.693,47.778],[18.664,47.776],[18.634,47.78],[18.597,47.791],[18.553,47.793],[18.348,47.777],[18.273,47.756],[18.236,47.754],[18.113,47.762],[17.884,47.753],[17.826,47.75],[17.742,47.765],[17.719,47.774],[17.727,47.78],[17.731,47.787],[17.738,47.81],[17.74,47.814],[17.743,47.815],[17.745,47.815],[17.749,47.813],[17.751,47.813],[17.753,47.813],[17.755,47.813],[17.758,47.812],[17.764,47.813],[17.772,47.816],[17.791,47.826],[17.798,47.831],[17.802,47.835],[17.802,47.856],[17.806,47.863],[17.81,47.868],[17.815,47.872],[17.818,47.874],[17.821,47.874],[17.823,47.874],[17.827,47.875],[17.834,47.879],[17.845,47.89],[17.869,47.904],[17.886,47.912],[17.892,47.916],[17.894,47.919],[17.89,47.924],[17.884,47.932],[17.886,47.944],[17.888,47.947],[17.889,47.95],[17.89,47.954],[17.888,47.958],[17.887,47.961],[17.88,47.965],[17.882,47.991],[17.875,48.026],[17.88,48.047],[17.88,48.053],[17.877,48.057],[17.875,48.058],[17.872,48.059],[17.869,48.059],[17.867,48.059],[17.863,48.06],[17.856,48.06],[17.852,48.061],[17.848,48.064],[17.847,48.065],[17.847,48.068],[17.851,48.076],[17.849,48.079],[17.846,48.08],[17.84,48.08],[17.823,48.076],[17.818,48.076],[17.814,48.077],[17.807,48.081],[17.804,48.083],[17.803,48.086],[17.805,48.09],[17.814,48.104],[17.814,48.112],[17.809,48.119],[17.765,48.151],[17.764,48.155],[17.768,48.158],[17.784,48.162],[17.79,48.163],[17.793,48.162],[17.8,48.16],[17.807,48.157],[17.81,48.157],[17.813,48.157],[17.816,48.157],[17.819,48.158],[17.821,48.16],[17.823,48.162],[17.825,48.167],[17.826,48.172],[17.823,48.178],[17.814,48.189],[17.812,48.194],[17.811,48.197],[17.818,48.199],[17.822,48.2],[17.824,48.201],[17.827,48.2],[17.841,48.188],[17.843,48.187],[17.845,48.188],[17.857,48.194],[17.873,48.2],[17.877,48.203],[17.88,48.206],[17.883,48.214],[17.883,48.219],[17.882,48.223],[17.878,48.226],[17.868,48.233],[17.866,48.235],[17.863,48.235],[17.861,48.237],[17.858,48.24],[17.854,48.247],[17.853,48.251],[17.854,48.254],[17.857,48.256],[17.86,48.26],[17.86,48.262],[17.858,48.265],[17.857,48.268],[17.859,48.271],[17.863,48.275],[17.87,48.283],[17.844,48.298],[17.843,48.3],[17.842,48.303],[17.844,48.305],[17.846,48.307],[17.848,48.31],[17.852,48.326],[17.852,48.33],[17.854,48.334],[17.855,48.337],[17.859,48.352],[17.876,48.363],[17.946,48.448],[17.968,48.464],[17.924,48.494],[17.902,48.506],[17.898,48.508],[17.895,48.508],[17.851,48.523],[17.868,48.536],[17.87,48.538],[17.901,48.591],[17.906,48.596],[17.908,48.596],[17.912,48.595],[17.924,48.589],[17.931,48.588],[17.939,48.589],[17.985,48.602],[17.99,48.604],[17.993,48.606],[17.992,48.608],[17.991,48.61],[17.988,48.616],[18.007,48.63],[18.01,48.631],[18.014,48.632],[18.017,48.631],[18.021,48.629],[18.023,48.631],[18.025,48.633],[18.027,48.639],[18.027,48.644],[18.026,48.65],[18.025,48.656],[18.023,48.657],[18.022,48.658],[18.021,48.659],[18.02,48.66],[18.019,48.661],[18.019,48.662],[18.017,48.662],[18.017,48.663],[18.016,48.663],[18.012,48.67],[18.011,48.673],[18.01,48.675],[18.009,48.676],[18.008,48.676],[18.007,48.678],[18.006,48.681],[18.006,48.688],[18.006,48.692],[18.005,48.696],[18.002,48.702],[18.002,48.706],[18.003,48.708],[18.008,48.713],[18.015,48.716],[18.036,48.715],[18.039,48.714],[18.042,48.713],[18.042,48.711],[18.042,48.708],[18.043,48.704],[18.045,48.702],[18.116,48.692],[18.124,48.689],[18.146,48.674],[18.151,48.669],[18.162,48.655],[18.171,48.648],[18.214,48.631],[18.231,48.628],[18.243,48.621],[18.251,48.612],[18.251,48.606],[18.245,48.597],[18.237,48.588],[18.229,48.578],[18.228,48.571],[18.23,48.567],[18.232,48.565],[18.236,48.563],[18.236,48.558],[18.239,48.556],[18.243,48.556],[18.255,48.556],[18.259,48.555],[18.262,48.552],[18.268,48.549],[18.287,48.54],[18.292,48.537],[18.301,48.523],[18.313,48.5],[18.337,48.494],[18.344,48.494],[18.344,48.495],[18.347,48.498],[18.349,48.502],[18.351,48.503],[18.353,48.502],[18.36,48.496],[18.367,48.492],[18.369,48.492],[18.37,48.493],[18.37,48.494],[18.371,48.495],[18.373,48.496],[18.387,48.502],[18.419,48.521],[18.49,48.549],[18.504,48.534],[18.511,48.531],[18.513,48.528],[18.511,48.526],[18.496,48.514],[18.49,48.506],[18.489,48.502],[18.491,48.501],[18.515,48.504],[18.524,48.504],[18.533,48.502],[18.536,48.5],[18.538,48.495],[18.538,48.49],[18.537,48.486],[18.535,48.479],[18.536,48.477],[18.538,48.475],[18.543,48.474],[18.544,48.473],[18.543,48.471],[18.534,48.464],[18.532,48.461],[18.531,48.455],[18.534,48.449],[18.542,48.439],[18.545,48.433],[18.545,48.427],[18.544,48.422],[18.545,48.418],[18.547,48.417],[18.55,48.417],[18.554,48.416],[18.56,48.412],[18.567,48.402],[18.571,48.389],[18.572,48.381],[18.572,48.374],[18.569,48.368],[18.567,48.363],[18.563,48.359],[18.559,48.357],[18.552,48.353],[18.551,48.351],[18.55,48.349],[18.549,48.346],[18.547,48.344],[18.545,48.341],[18.536,48.336],[18.531,48.331],[18.541,48.32],[18.546,48.32],[18.549,48.324],[18.552,48.326],[18.559,48.33],[18.561,48.332],[18.567,48.339],[18.576,48.345],[18.588,48.348],[18.651,48.354],[18.683,48.361],[18.686,48.364],[18.686,48.366],[18.687,48.369],[18.688,48.372],[18.692,48.376],[18.694,48.378],[18.695,48.38],[18.696,48.383],[18.697,48.385],[18.703,48.389],[18.706,48.393],[18.709,48.396],[18.723,48.405],[18.733,48.413],[18.738,48.415],[18.743,48.416],[18.755,48.414],[18.783,48.386],[18.809,48.371],[18.816,48.366],[18.855,48.306],[18.846,48.278],[18.844,48.274],[18.841,48.27],[18.829,48.262],[18.818,48.251],[18.814,48.247],[18.813,48.243],[18.823,48.236],[18.823,48.235],[18.821,48.233],[18.817,48.231],[18.817,48.229],[18.819,48.225],[18.827,48.215],[18.831,48.209],[18.831,48.206],[18.83,48.204],[18.825,48.202],[18.821,48.199],[18.814,48.195],[18.809,48.19],[18.807,48.185],[18.807,48.179],[18.808,48.174],[18.81,48.17],[18.813,48.167],[18.816,48.166],[18.819,48.165],[18.821,48.166],[18.824,48.167],[18.826,48.169],[18.828,48.173],[18.83,48.175],[18.834,48.176],[18.838,48.176],[18.843,48.176],[18.848,48.175],[18.853,48.173],[18.872,48.163],[18.877,48.161],[18.881,48.16],[18.884,48.16],[18.889,48.161],[18.892,48.161],[18.9,48.159],[18.905,48.159],[18.91,48.159],[18.92,48.161],[18.924,48.161],[18.93,48.161],[18.932,48.161],[18.933,48.161],[18.934,48.163],[18.934,48.165],[18.936,48.168],[18.939,48.172],[18.942,48.175],[18.945,48.176],[18.952,48.178],[18.956,48.179],[18.96,48.18],[18.968,48.182],[18.975,48.183],[18.98,48.184],[18.994,48.189],[19.011,48.192],[19.014,48.193],[19.017,48.193],[19.023,48.192],[19.026,48.192],[19.031,48.192],[19.036,48.194],[19.042,48.197],[19.058,48.207],[19.071,48.197],[19.072,48.195],[19.074,48.192],[19.073,48.191],[19.073,48.188],[19.073,48.186],[19.072,48.184],[19.067,48.179],[19.065,48.177],[19.063,48.172],[19.061,48.165],[19.061,48.16],[19.067,48.141],[19.067,48.135],[19.063,48.128],[19.056,48.121],[19.05,48.117],[19.045,48.114],[19.04,48.112],[19.037,48.11],[19.034,48.107],[19.031,48.102],[19.019,48.091],[19.018,48.087],[19.018,48.075],[19.019,48.066],[19.019,48.065]]]}},{"type":"Feature","id":"SK-PV","properties":{"id":"SK-PV","countryCode":"SK","isoSubdivision":"SK-PV","name":"Prešov","name_en":"Prešov","name_ko":"프레쇼우","type":"Region","labelLongitude":21.204,"labelLatitude":49.143,"minZoom":7.7},"geometry":{"type":"Polygon","coordinates":[[[21.261,49.449],[21.274,49.447],[21.33,49.428],[21.428,49.41],[21.444,49.41],[21.482,49.415],[21.496,49.412],[21.514,49.417],[21.53,49.421],[21.601,49.426],[21.62,49.423],[21.63,49.419],[21.649,49.407],[21.659,49.402],[21.666,49.402],[21.682,49.404],[21.692,49.402],[21.709,49.391],[21.742,49.357],[21.758,49.349],[21.768,49.353],[21.782,49.364],[21.799,49.375],[21.82,49.377],[21.838,49.37],[21.875,49.348],[21.928,49.331],[21.964,49.309],[21.993,49.278],[22.006,49.243],[22.012,49.211],[22.041,49.197],[22.112,49.189],[22.144,49.175],[22.156,49.172],[22.166,49.171],[22.19,49.173],[22.198,49.172],[22.209,49.164],[22.209,49.157],[22.206,49.15],[22.208,49.144],[22.216,49.14],[22.263,49.131],[22.318,49.132],[22.339,49.126],[22.39,49.093],[22.427,49.086],[22.505,49.083],[22.54,49.072],[22.532,49.056],[22.525,49.033],[22.52,49.01],[22.521,48.993],[22.505,48.984],[22.467,48.981],[22.449,48.971],[22.427,48.929],[22.415,48.912],[22.414,48.907],[22.414,48.894],[22.412,48.888],[22.402,48.879],[22.378,48.865],[22.371,48.858],[22.37,48.858],[22.324,48.866],[22.319,48.866],[22.294,48.861],[22.261,48.86],[22.255,48.861],[22.252,48.863],[22.251,48.868],[22.25,48.875],[22.235,48.899],[22.233,48.904],[22.233,48.907],[22.232,48.911],[22.228,48.915],[22.211,48.922],[22.184,48.921],[22.147,48.888],[22.125,48.882],[22.123,48.88],[22.119,48.877],[22.119,48.875],[22.119,48.873],[22.12,48.87],[22.124,48.861],[22.127,48.852],[22.127,48.847],[22.126,48.844],[22.124,48.843],[22.12,48.842],[22.063,48.842],[22.033,48.838],[22.014,48.839],[21.993,48.842],[21.947,48.86],[21.941,48.864],[21.942,48.865],[21.939,48.867],[21.934,48.869],[21.92,48.874],[21.823,48.895],[21.786,48.895],[21.785,48.87],[21.785,48.868],[21.786,48.866],[21.787,48.863],[21.787,48.85],[21.787,48.846],[21.792,48.836],[21.792,48.834],[21.792,48.828],[21.792,48.825],[21.793,48.822],[21.799,48.813],[21.801,48.809],[21.801,48.806],[21.799,48.801],[21.796,48.796],[21.792,48.793],[21.786,48.791],[21.767,48.786],[21.751,48.777],[21.728,48.774],[21.721,48.772],[21.721,48.77],[21.719,48.767],[21.718,48.765],[21.715,48.764],[21.711,48.762],[21.705,48.761],[21.697,48.76],[21.688,48.761],[21.677,48.763],[21.658,48.772],[21.651,48.774],[21.643,48.775],[21.625,48.774],[21.6,48.777],[21.537,48.794],[21.508,48.828],[21.503,48.833],[21.497,48.841],[21.494,48.847],[21.493,48.857],[21.492,48.862],[21.48,48.881],[21.466,48.876],[21.463,48.875],[21.459,48.873],[21.451,48.871],[21.443,48.872],[21.43,48.876],[21.426,48.88],[21.423,48.883],[21.423,48.886],[21.422,48.888],[21.42,48.888],[21.418,48.886],[21.417,48.879],[21.415,48.875],[21.414,48.873],[21.411,48.873],[21.407,48.876],[21.4,48.88],[21.396,48.881],[21.391,48.881],[21.382,48.879],[21.378,48.877],[21.377,48.875],[21.38,48.871],[21.382,48.869],[21.382,48.866],[21.38,48.853],[21.377,48.846],[21.374,48.841],[21.37,48.839],[21.366,48.838],[21.363,48.837],[21.347,48.836],[21.335,48.833],[21.331,48.833],[21.317,48.833],[21.311,48.832],[21.308,48.831],[21.305,48.829],[21.304,48.827],[21.303,48.825],[21.303,48.823],[21.304,48.821],[21.306,48.819],[21.31,48.817],[21.312,48.816],[21.312,48.815],[21.311,48.814],[21.308,48.813],[21.295,48.812],[21.283,48.813],[21.272,48.817],[21.254,48.828],[21.243,48.839],[21.242,48.842],[21.242,48.844],[21.243,48.846],[21.245,48.848],[21.251,48.853],[21.252,48.855],[21.254,48.857],[21.26,48.861],[21.262,48.862],[21.262,48.864],[21.26,48.867],[21.26,48.869],[21.259,48.87],[21.256,48.87],[21.25,48.869],[21.244,48.868],[21.239,48.869],[21.232,48.873],[21.225,48.875],[21.216,48.875],[21.201,48.879],[21.181,48.876],[21.175,48.878],[21.166,48.883],[21.161,48.887],[21.158,48.89],[21.156,48.892],[21.153,48.894],[21.15,48.895],[21.145,48.897],[21.141,48.899],[21.138,48.9],[21.133,48.9],[21.115,48.896],[21.11,48.896],[21.091,48.897],[21.053,48.906],[21.039,48.905],[21.036,48.904],[21.032,48.904],[21.028,48.905],[21.024,48.907],[21.019,48.913],[21.017,48.916],[21.015,48.918],[21.015,48.92],[21.013,48.923],[20.996,48.933],[20.991,48.938],[20.989,48.942],[20.99,48.945],[20.99,48.948],[20.989,48.95],[20.986,48.955],[20.983,48.957],[20.977,48.957],[20.963,48.956],[20.957,48.954],[20.954,48.953],[20.953,48.952],[20.952,48.951],[20.947,48.951],[20.919,48.963],[20.898,48.965],[20.878,48.977],[20.847,48.972],[20.842,48.973],[20.836,48.974],[20.824,48.977],[20.821,48.98],[20.821,48.982],[20.825,48.985],[20.824,48.987],[20.819,48.989],[20.803,48.992],[20.779,48.999],[20.768,49],[20.765,49],[20.764,48.997],[20.765,48.995],[20.767,48.992],[20.768,48.989],[20.767,48.986],[20.766,48.983],[20.766,48.98],[20.766,48.978],[20.767,48.977],[20.768,48.976],[20.773,48.974],[20.775,48.973],[20.775,48.972],[20.773,48.971],[20.77,48.97],[20.707,48.977],[20.689,48.976],[20.682,48.975],[20.678,48.973],[20.677,48.972],[20.677,48.971],[20.678,48.969],[20.68,48.965],[20.681,48.964],[20.68,48.963],[20.675,48.959],[20.672,48.958],[20.668,48.956],[20.658,48.953],[20.646,48.952],[20.634,48.952],[20.628,48.954],[20.615,48.968],[20.614,48.97],[20.608,48.972],[20.6,48.973],[20.579,48.974],[20.555,48.984],[20.529,48.997],[20.524,49],[20.521,49.003],[20.524,49.011],[20.523,49.013],[20.518,49.015],[20.513,49.014],[20.505,49.008],[20.503,49.005],[20.501,49.002],[20.506,48.996],[20.507,48.994],[20.503,48.993],[20.48,48.987],[20.477,48.986],[20.476,48.985],[20.477,48.983],[20.478,48.978],[20.48,48.975],[20.482,48.973],[20.484,48.972],[20.485,48.971],[20.485,48.97],[20.483,48.971],[20.48,48.974],[20.464,48.989],[20.441,48.999],[20.434,49],[20.433,49.001],[20.43,49.003],[20.428,49.003],[20.424,49.002],[20.408,48.992],[20.404,48.99],[20.401,48.99],[20.398,48.991],[20.396,48.991],[20.393,48.99],[20.386,48.986],[20.342,48.973],[20.329,48.967],[20.324,48.964],[20.311,48.952],[20.3,48.945],[20.299,48.943],[20.302,48.941],[20.314,48.939],[20.327,48.937],[20.341,48.924],[20.312,48.912],[20.306,48.908],[20.299,48.901],[20.287,48.882],[20.273,48.873],[20.232,48.889],[20.225,48.892],[20.219,48.894],[20.2,48.899],[20.181,48.905],[20.175,48.905],[20.159,48.896],[20.14,48.895],[19.996,48.907],[20.03,48.917],[20.041,48.922],[20.052,48.93],[20.054,48.934],[20.052,48.936],[20.041,48.937],[20.036,48.939],[20.033,48.941],[20.03,48.943],[20.028,48.947],[20.024,48.957],[20.023,48.966],[20.02,48.971],[20.015,48.975],[20.009,48.979],[19.975,49.008],[19.974,49.012],[19.975,49.015],[19.978,49.015],[19.985,49.015],[19.991,49.015],[20.001,49.018],[20.008,49.019],[20.012,49.021],[20.014,49.027],[20.015,49.04],[20.019,49.054],[20.021,49.063],[20.021,49.074],[20.027,49.103],[20.026,49.111],[20.024,49.115],[20.018,49.115],[20.013,49.114],[19.999,49.11],[19.98,49.107],[19.976,49.107],[19.973,49.109],[19.97,49.112],[19.967,49.116],[19.964,49.117],[19.961,49.116],[19.958,49.114],[19.955,49.115],[19.951,49.119],[19.945,49.129],[19.94,49.134],[19.934,49.137],[19.928,49.138],[19.921,49.138],[19.917,49.136],[19.913,49.134],[19.912,49.132],[19.909,49.131],[19.906,49.133],[19.901,49.138],[19.9,49.145],[19.899,49.157],[19.895,49.166],[19.89,49.174],[19.869,49.198],[19.868,49.201],[19.888,49.214],[19.906,49.223],[19.938,49.225],[19.966,49.216],[20.017,49.184],[20.05,49.173],[20.07,49.183],[20.08,49.208],[20.086,49.243],[20.098,49.253],[20.105,49.264],[20.111,49.276],[20.13,49.304],[20.136,49.309],[20.138,49.307],[20.16,49.306],[20.17,49.312],[20.192,49.329],[20.207,49.334],[20.284,49.339],[20.289,49.343],[20.296,49.357],[20.302,49.371],[20.304,49.38],[20.307,49.387],[20.318,49.392],[20.33,49.392],[20.37,49.382],[20.422,49.383],[20.422,49.4],[20.438,49.403],[20.522,49.374],[20.544,49.371],[20.568,49.376],[20.579,49.383],[20.595,49.396],[20.605,49.4],[20.614,49.4],[20.636,49.398],[20.674,49.402],[20.69,49.401],[20.778,49.331],[20.794,49.324],[20.817,49.321],[20.834,49.322],[20.849,49.321],[20.868,49.311],[20.884,49.3],[20.901,49.293],[20.919,49.29],[20.942,49.296],[20.964,49.308],[20.997,49.339],[21.017,49.352],[21.033,49.355],[21.054,49.355],[21.073,49.357],[21.081,49.366],[21.069,49.381],[21.045,49.391],[21.033,49.4],[21.054,49.414],[21.069,49.419],[21.109,49.425],[21.125,49.424],[21.143,49.416],[21.157,49.405],[21.173,49.398],[21.194,49.401],[21.211,49.411],[21.242,49.441],[21.261,49.449]]]}},{"type":"Feature","id":"SK-TA","properties":{"id":"SK-TA","countryCode":"SK","isoSubdivision":"SK-TA","name":"Trnava","name_en":"Trnava","name_ko":"트르나바","type":"Region","labelLongitude":17.699,"labelLatitude":48.342,"minZoom":7.7},"geometry":{"type":"Polygon","coordinates":[[[16.949,48.545],[16.954,48.557],[16.945,48.604],[16.948,48.623],[16.963,48.636],[16.975,48.65],[17.025,48.746],[17.05,48.774],[17.084,48.794],[17.099,48.806],[17.105,48.825],[17.114,48.834],[17.167,48.86],[17.212,48.866],[17.26,48.858],[17.374,48.82],[17.392,48.822],[17.411,48.83],[17.408,48.824],[17.399,48.81],[17.389,48.8],[17.357,48.78],[17.379,48.775],[17.391,48.773],[17.395,48.773],[17.397,48.773],[17.4,48.775],[17.417,48.789],[17.422,48.789],[17.427,48.785],[17.439,48.774],[17.449,48.767],[17.45,48.766],[17.452,48.765],[17.454,48.764],[17.456,48.763],[17.465,48.762],[17.468,48.76],[17.472,48.757],[17.48,48.75],[17.485,48.743],[17.489,48.737],[17.488,48.73],[17.486,48.727],[17.482,48.725],[17.481,48.723],[17.48,48.719],[17.478,48.716],[17.474,48.712],[17.472,48.709],[17.471,48.706],[17.471,48.703],[17.473,48.701],[17.478,48.697],[17.481,48.694],[17.484,48.683],[17.487,48.68],[17.491,48.677],[17.501,48.671],[17.512,48.66],[17.534,48.628],[17.557,48.642],[17.564,48.644],[17.566,48.646],[17.568,48.647],[17.57,48.647],[17.572,48.647],[17.587,48.642],[17.619,48.648],[17.622,48.652],[17.625,48.655],[17.625,48.657],[17.625,48.658],[17.625,48.66],[17.625,48.661],[17.625,48.664],[17.625,48.669],[17.626,48.671],[17.627,48.672],[17.629,48.673],[17.631,48.672],[17.638,48.667],[17.64,48.667],[17.65,48.667],[17.653,48.667],[17.656,48.668],[17.662,48.672],[17.693,48.681],[17.71,48.684],[17.723,48.679],[17.732,48.672],[17.743,48.659],[17.745,48.657],[17.749,48.656],[17.767,48.65],[17.785,48.648],[17.82,48.648],[17.826,48.649],[17.826,48.65],[17.826,48.652],[17.826,48.653],[17.825,48.655],[17.826,48.656],[17.827,48.657],[17.83,48.656],[17.834,48.654],[17.841,48.649],[17.849,48.641],[17.854,48.638],[17.858,48.637],[17.863,48.639],[17.867,48.64],[17.87,48.641],[17.876,48.641],[17.881,48.639],[17.887,48.634],[17.889,48.632],[17.891,48.63],[17.988,48.616],[17.991,48.61],[17.992,48.608],[17.993,48.606],[17.99,48.604],[17.985,48.602],[17.939,48.589],[17.931,48.588],[17.924,48.589],[17.912,48.595],[17.908,48.596],[17.906,48.596],[17.901,48.591],[17.87,48.538],[17.868,48.536],[17.851,48.523],[17.895,48.508],[17.898,48.508],[17.902,48.506],[17.924,48.494],[17.968,48.464],[17.946,48.448],[17.876,48.363],[17.859,48.352],[17.855,48.337],[17.854,48.334],[17.852,48.33],[17.852,48.326],[17.848,48.31],[17.846,48.307],[17.844,48.305],[17.842,48.303],[17.843,48.3],[17.844,48.298],[17.87,48.283],[17.863,48.275],[17.859,48.271],[17.857,48.268],[17.858,48.265],[17.86,48.262],[17.86,48.26],[17.857,48.256],[17.854,48.254],[17.853,48.251],[17.854,48.247],[17.858,48.24],[17.861,48.237],[17.863,48.235],[17.866,48.235],[17.868,48.233],[17.878,48.226],[17.882,48.223],[17.883,48.219],[17.883,48.214],[17.88,48.206],[17.877,48.203],[17.873,48.2],[17.857,48.194],[17.845,48.188],[17.843,48.187],[17.841,48.188],[17.827,48.2],[17.824,48.201],[17.822,48.2],[17.818,48.199],[17.811,48.197],[17.812,48.194],[17.814,48.189],[17.823,48.178],[17.826,48.172],[17.825,48.167],[17.823,48.162],[17.821,48.16],[17.819,48.158],[17.816,48.157],[17.813,48.157],[17.81,48.157],[17.807,48.157],[17.8,48.16],[17.793,48.162],[17.79,48.163],[17.784,48.162],[17.768,48.158],[17.764,48.155],[17.765,48.151],[17.809,48.119],[17.814,48.112],[17.814,48.104],[17.805,48.09],[17.803,48.086],[17.804,48.083],[17.807,48.081],[17.814,48.077],[17.818,48.076],[17.823,48.076],[17.84,48.08],[17.846,48.08],[17.849,48.079],[17.851,48.076],[17.847,48.068],[17.847,48.065],[17.848,48.064],[17.852,48.061],[17.856,48.06],[17.863,48.06],[17.867,48.059],[17.869,48.059],[17.872,48.059],[17.875,48.058],[17.877,48.057],[17.88,48.053],[17.88,48.047],[17.875,48.026],[17.882,47.991],[17.88,47.965],[17.887,47.961],[17.888,47.958],[17.89,47.954],[17.889,47.95],[17.888,47.947],[17.886,47.944],[17.884,47.932],[17.89,47.924],[17.894,47.919],[17.892,47.916],[17.886,47.912],[17.869,47.904],[17.845,47.89],[17.834,47.879],[17.827,47.875],[17.823,47.874],[17.821,47.874],[17.818,47.874],[17.815,47.872],[17.81,47.868],[17.806,47.863],[17.802,47.856],[17.802,47.835],[17.798,47.831],[17.791,47.826],[17.772,47.816],[17.764,47.813],[17.758,47.812],[17.755,47.813],[17.753,47.813],[17.751,47.813],[17.749,47.813],[17.745,47.815],[17.743,47.815],[17.74,47.814],[17.738,47.81],[17.731,47.787],[17.727,47.78],[17.719,47.774],[17.677,47.789],[17.666,47.797],[17.658,47.807],[17.64,47.819],[17.619,47.829],[17.604,47.834],[17.593,47.833],[17.583,47.83],[17.573,47.83],[17.56,47.838],[17.527,47.872],[17.517,47.876],[17.492,47.88],[17.482,47.883],[17.472,47.889],[17.369,47.981],[17.338,47.999],[17.273,48.005],[17.262,48.007],[17.262,48.008],[17.268,48.033],[17.286,48.048],[17.292,48.05],[17.302,48.054],[17.305,48.056],[17.306,48.059],[17.305,48.063],[17.303,48.067],[17.304,48.073],[17.305,48.075],[17.308,48.075],[17.31,48.074],[17.315,48.075],[17.322,48.077],[17.337,48.085],[17.348,48.09],[17.352,48.093],[17.353,48.094],[17.351,48.096],[17.35,48.096],[17.348,48.097],[17.346,48.097],[17.33,48.096],[17.328,48.097],[17.326,48.098],[17.321,48.101],[17.313,48.105],[17.312,48.107],[17.311,48.109],[17.312,48.111],[17.313,48.115],[17.313,48.118],[17.313,48.12],[17.307,48.126],[17.308,48.128],[17.31,48.128],[17.313,48.128],[17.337,48.125],[17.348,48.125],[17.352,48.126],[17.362,48.13],[17.37,48.135],[17.374,48.137],[17.378,48.139],[17.382,48.139],[17.388,48.141],[17.391,48.143],[17.392,48.145],[17.392,48.146],[17.39,48.148],[17.388,48.15],[17.384,48.153],[17.382,48.155],[17.381,48.157],[17.381,48.16],[17.384,48.17],[17.386,48.172],[17.39,48.174],[17.394,48.175],[17.4,48.178],[17.403,48.178],[17.405,48.178],[17.406,48.176],[17.406,48.175],[17.407,48.173],[17.409,48.17],[17.405,48.164],[17.404,48.162],[17.404,48.161],[17.405,48.159],[17.408,48.159],[17.421,48.158],[17.426,48.156],[17.433,48.152],[17.438,48.151],[17.443,48.151],[17.469,48.159],[17.501,48.176],[17.512,48.178],[17.517,48.177],[17.521,48.179],[17.524,48.183],[17.531,48.194],[17.532,48.199],[17.532,48.202],[17.531,48.203],[17.529,48.206],[17.527,48.206],[17.526,48.206],[17.521,48.206],[17.519,48.207],[17.517,48.211],[17.519,48.222],[17.519,48.226],[17.517,48.23],[17.496,48.236],[17.492,48.237],[17.489,48.238],[17.487,48.242],[17.485,48.251],[17.486,48.256],[17.491,48.262],[17.519,48.284],[17.464,48.313],[17.458,48.324],[17.459,48.326],[17.459,48.329],[17.467,48.337],[17.475,48.35],[17.478,48.356],[17.478,48.36],[17.475,48.362],[17.472,48.365],[17.469,48.369],[17.464,48.373],[17.46,48.375],[17.456,48.376],[17.451,48.377],[17.448,48.378],[17.444,48.382],[17.427,48.404],[17.422,48.409],[17.415,48.414],[17.408,48.421],[17.404,48.424],[17.395,48.429],[17.393,48.431],[17.393,48.433],[17.395,48.435],[17.398,48.439],[17.397,48.441],[17.394,48.442],[17.376,48.443],[17.372,48.444],[17.369,48.445],[17.364,48.448],[17.356,48.452],[17.354,48.454],[17.351,48.455],[17.349,48.456],[17.347,48.456],[17.333,48.456],[17.321,48.46],[17.317,48.471],[17.326,48.482],[17.341,48.498],[17.346,48.503],[17.35,48.505],[17.359,48.509],[17.305,48.545],[17.31,48.553],[17.31,48.559],[17.321,48.563],[17.323,48.565],[17.325,48.566],[17.332,48.579],[17.334,48.581],[17.337,48.581],[17.34,48.581],[17.344,48.581],[17.347,48.582],[17.35,48.584],[17.368,48.6],[17.373,48.607],[17.379,48.618],[17.378,48.628],[17.376,48.635],[17.372,48.64],[17.368,48.643],[17.364,48.646],[17.36,48.648],[17.357,48.65],[17.346,48.652],[17.344,48.653],[17.342,48.654],[17.34,48.655],[17.335,48.656],[17.328,48.653],[17.32,48.645],[17.291,48.615],[17.29,48.613],[17.289,48.612],[17.288,48.612],[17.286,48.612],[17.284,48.611],[17.278,48.608],[17.273,48.605],[17.271,48.603],[17.269,48.601],[17.267,48.597],[17.265,48.595],[17.263,48.594],[17.256,48.59],[17.246,48.588],[17.242,48.586],[17.238,48.583],[17.234,48.576],[17.23,48.574],[17.222,48.572],[17.21,48.572],[17.192,48.568],[17.178,48.563],[17.137,48.551],[17.131,48.55],[17.121,48.552],[17.077,48.566],[17.064,48.568],[17.058,48.568],[17.061,48.563],[17.062,48.561],[17.061,48.559],[17.058,48.559],[17.013,48.558],[16.952,48.545],[16.949,48.545]]]}},{"type":"Feature","id":"SK-TC","properties":{"id":"SK-TC","countryCode":"SK","isoSubdivision":"SK-TC","name":"Trenčín","name_en":"Trenčín","name_ko":"트렌친","type":"Region","labelLongitude":18.095,"labelLatitude":48.882,"minZoom":7.7},"geometry":{"type":"Polygon","coordinates":[[[18.013,49.019],[18.046,49.029],[18.076,49.047],[18.096,49.07],[18.103,49.092],[18.102,49.137],[18.101,49.143],[18.105,49.17],[18.118,49.203],[18.136,49.233],[18.161,49.259],[18.19,49.277],[18.325,49.311],[18.362,49.33],[18.366,49.326],[18.384,49.322],[18.385,49.314],[18.385,49.312],[18.385,49.31],[18.387,49.308],[18.448,49.241],[18.451,49.238],[18.452,49.235],[18.451,49.234],[18.45,49.231],[18.45,49.23],[18.45,49.228],[18.455,49.222],[18.457,49.22],[18.457,49.218],[18.457,49.217],[18.458,49.215],[18.471,49.2],[18.476,49.195],[18.482,49.192],[18.506,49.181],[18.508,49.181],[18.511,49.181],[18.513,49.18],[18.517,49.179],[18.529,49.171],[18.533,49.17],[18.537,49.168],[18.543,49.168],[18.561,49.16],[18.566,49.157],[18.574,49.149],[18.577,49.144],[18.578,49.137],[18.577,49.133],[18.578,49.129],[18.579,49.127],[18.591,49.115],[18.564,49.096],[18.561,49.093],[18.562,49.091],[18.564,49.09],[18.568,49.09],[18.582,49.087],[18.584,49.086],[18.586,49.085],[18.588,49.083],[18.59,49.082],[18.593,49.077],[18.594,49.076],[18.595,49.075],[18.599,49.074],[18.601,49.073],[18.603,49.072],[18.604,49.07],[18.604,49.069],[18.604,49.067],[18.602,49.063],[18.602,49.061],[18.602,49.06],[18.603,49.059],[18.603,49.057],[18.603,49.056],[18.601,49.053],[18.6,49.051],[18.6,49.049],[18.603,49.035],[18.601,49.03],[18.595,49.023],[18.582,49.01],[18.571,49.001],[18.561,48.996],[18.531,48.991],[18.525,48.988],[18.519,48.985],[18.51,48.974],[18.504,48.97],[18.5,48.968],[18.471,48.956],[18.476,48.948],[18.485,48.944],[18.503,48.942],[18.517,48.939],[18.521,48.938],[18.528,48.939],[18.555,48.95],[18.562,48.954],[18.565,48.957],[18.566,48.959],[18.566,48.961],[18.568,48.962],[18.581,48.972],[18.583,48.972],[18.586,48.97],[18.592,48.962],[18.594,48.96],[18.603,48.96],[18.636,48.966],[18.677,48.959],[18.696,48.958],[18.702,48.956],[18.706,48.954],[18.726,48.937],[18.721,48.934],[18.719,48.932],[18.716,48.93],[18.714,48.929],[18.712,48.928],[18.711,48.927],[18.71,48.926],[18.71,48.924],[18.709,48.922],[18.707,48.92],[18.705,48.917],[18.703,48.915],[18.703,48.911],[18.709,48.896],[18.71,48.891],[18.709,48.887],[18.707,48.881],[18.706,48.878],[18.706,48.875],[18.707,48.871],[18.708,48.868],[18.707,48.866],[18.706,48.859],[18.706,48.854],[18.708,48.851],[18.712,48.847],[18.735,48.833],[18.738,48.832],[18.74,48.831],[18.745,48.831],[18.747,48.83],[18.751,48.828],[18.753,48.827],[18.758,48.826],[18.773,48.816],[18.779,48.814],[18.782,48.813],[18.783,48.812],[18.78,48.81],[18.78,48.807],[18.78,48.804],[18.783,48.797],[18.787,48.792],[18.793,48.785],[18.827,48.757],[18.83,48.754],[18.833,48.744],[18.832,48.737],[18.831,48.736],[18.829,48.733],[18.826,48.73],[18.814,48.713],[18.8,48.699],[18.796,48.697],[18.792,48.697],[18.777,48.696],[18.771,48.694],[18.767,48.69],[18.743,48.66],[18.739,48.657],[18.725,48.649],[18.721,48.646],[18.72,48.644],[18.722,48.635],[18.722,48.631],[18.715,48.63],[18.709,48.63],[18.655,48.64],[18.628,48.614],[18.613,48.603],[18.608,48.598],[18.606,48.595],[18.604,48.592],[18.604,48.59],[18.604,48.589],[18.604,48.587],[18.604,48.586],[18.603,48.584],[18.6,48.577],[18.599,48.576],[18.599,48.574],[18.501,48.565],[18.49,48.549],[18.419,48.521],[18.387,48.502],[18.373,48.496],[18.371,48.495],[18.37,48.494],[18.37,48.493],[18.369,48.492],[18.367,48.492],[18.36,48.496],[18.353,48.502],[18.351,48.503],[18.349,48.502],[18.347,48.498],[18.344,48.495],[18.344,48.494],[18.337,48.494],[18.313,48.5],[18.301,48.523],[18.292,48.537],[18.287,48.54],[18.268,48.549],[18.262,48.552],[18.259,48.555],[18.255,48.556],[18.243,48.556],[18.239,48.556],[18.236,48.558],[18.236,48.563],[18.232,48.565],[18.23,48.567],[18.228,48.571],[18.229,48.578],[18.237,48.588],[18.245,48.597],[18.251,48.606],[18.251,48.612],[18.243,48.621],[18.231,48.628],[18.214,48.631],[18.171,48.648],[18.162,48.655],[18.151,48.669],[18.146,48.674],[18.124,48.689],[18.116,48.692],[18.045,48.702],[18.043,48.704],[18.042,48.708],[18.042,48.711],[18.042,48.713],[18.039,48.714],[18.036,48.715],[18.015,48.716],[18.008,48.713],[18.003,48.708],[18.002,48.706],[18.002,48.702],[18.005,48.696],[18.006,48.692],[18.006,48.688],[18.006,48.681],[18.007,48.678],[18.008,48.676],[18.009,48.676],[18.01,48.675],[18.011,48.673],[18.012,48.67],[18.016,48.663],[18.017,48.663],[18.017,48.662],[18.019,48.662],[18.019,48.661],[18.02,48.66],[18.021,48.659],[18.022,48.658],[18.023,48.657],[18.025,48.656],[18.026,48.65],[18.027,48.644],[18.027,48.639],[18.025,48.633],[18.023,48.631],[18.021,48.629],[18.017,48.631],[18.014,48.632],[18.01,48.631],[18.007,48.63],[17.988,48.616],[17.891,48.63],[17.889,48.632],[17.887,48.634],[17.881,48.639],[17.876,48.641],[17.87,48.641],[17.867,48.64],[17.863,48.639],[17.858,48.637],[17.854,48.638],[17.849,48.641],[17.841,48.649],[17.834,48.654],[17.83,48.656],[17.827,48.657],[17.826,48.656],[17.825,48.655],[17.826,48.653],[17.826,48.652],[17.826,48.65],[17.826,48.649],[17.82,48.648],[17.785,48.648],[17.767,48.65],[17.749,48.656],[17.745,48.657],[17.743,48.659],[17.732,48.672],[17.723,48.679],[17.71,48.684],[17.693,48.681],[17.662,48.672],[17.656,48.668],[17.653,48.667],[17.65,48.667],[17.64,48.667],[17.638,48.667],[17.631,48.672],[17.629,48.673],[17.627,48.672],[17.626,48.671],[17.625,48.669],[17.625,48.664],[17.625,48.661],[17.625,48.66],[17.625,48.658],[17.625,48.657],[17.625,48.655],[17.622,48.652],[17.619,48.648],[17.587,48.642],[17.572,48.647],[17.57,48.647],[17.568,48.647],[17.566,48.646],[17.564,48.644],[17.557,48.642],[17.534,48.628],[17.512,48.66],[17.501,48.671],[17.491,48.677],[17.487,48.68],[17.484,48.683],[17.481,48.694],[17.478,48.697],[17.473,48.701],[17.471,48.703],[17.471,48.706],[17.472,48.709],[17.474,48.712],[17.478,48.716],[17.48,48.719],[17.481,48.723],[17.482,48.725],[17.486,48.727],[17.488,48.73],[17.489,48.737],[17.485,48.743],[17.48,48.75],[17.472,48.757],[17.468,48.76],[17.465,48.762],[17.456,48.763],[17.454,48.764],[17.452,48.765],[17.45,48.766],[17.449,48.767],[17.439,48.774],[17.427,48.785],[17.422,48.789],[17.417,48.789],[17.4,48.775],[17.397,48.773],[17.395,48.773],[17.391,48.773],[17.379,48.775],[17.357,48.78],[17.389,48.8],[17.399,48.81],[17.408,48.824],[17.411,48.83],[17.43,48.838],[17.453,48.843],[17.468,48.838],[17.498,48.817],[17.535,48.813],[17.646,48.842],[17.727,48.863],[17.745,48.873],[17.779,48.912],[17.796,48.921],[17.82,48.923],[17.841,48.921],[17.86,48.922],[17.879,48.934],[17.887,48.947],[17.895,48.978],[17.901,48.993],[17.914,49.01],[17.935,49.019],[17.959,49.022],[18.013,49.019]]]}},{"type":"Feature","id":"SK-ZI","properties":{"id":"SK-ZI","countryCode":"SK","isoSubdivision":"SK-ZI","name":"Žilina","name_en":"Žilina","name_ko":"질리나","type":"Region","labelLongitude":19.208,"labelLatitude":49.166,"minZoom":7.7},"geometry":{"type":"Polygon","coordinates":[[[19.443,49.602],[19.449,49.6],[19.457,49.598],[19.474,49.579],[19.482,49.574],[19.505,49.563],[19.517,49.543],[19.535,49.493],[19.552,49.461],[19.557,49.454],[19.574,49.445],[19.595,49.442],[19.635,49.441],[19.63,49.435],[19.629,49.43],[19.629,49.414],[19.627,49.402],[19.685,49.389],[19.706,49.388],[19.727,49.389],[19.76,49.398],[19.769,49.393],[19.779,49.374],[19.784,49.358],[19.79,49.309],[19.788,49.305],[19.78,49.298],[19.78,49.293],[19.783,49.29],[19.797,49.283],[19.799,49.281],[19.806,49.275],[19.807,49.275],[19.809,49.271],[19.806,49.265],[19.8,49.263],[19.794,49.262],[19.79,49.259],[19.752,49.219],[19.748,49.206],[19.761,49.194],[19.786,49.188],[19.832,49.186],[19.854,49.191],[19.868,49.201],[19.869,49.198],[19.89,49.174],[19.895,49.166],[19.899,49.157],[19.9,49.145],[19.901,49.138],[19.906,49.133],[19.909,49.131],[19.912,49.132],[19.913,49.134],[19.917,49.136],[19.921,49.138],[19.928,49.138],[19.934,49.137],[19.94,49.134],[19.945,49.129],[19.951,49.119],[19.955,49.115],[19.958,49.114],[19.961,49.116],[19.964,49.117],[19.967,49.116],[19.97,49.112],[19.973,49.109],[19.976,49.107],[19.98,49.107],[19.999,49.11],[20.013,49.114],[20.018,49.115],[20.024,49.115],[20.026,49.111],[20.027,49.103],[20.021,49.074],[20.021,49.063],[20.019,49.054],[20.015,49.04],[20.014,49.027],[20.012,49.021],[20.008,49.019],[20.001,49.018],[19.991,49.015],[19.985,49.015],[19.978,49.015],[19.975,49.015],[19.974,49.012],[19.975,49.008],[20.009,48.979],[20.015,48.975],[20.02,48.971],[20.023,48.966],[20.024,48.957],[20.028,48.947],[20.03,48.943],[20.033,48.941],[20.036,48.939],[20.041,48.937],[20.052,48.936],[20.054,48.934],[20.052,48.93],[20.041,48.922],[20.03,48.917],[19.996,48.907],[19.983,48.913],[19.979,48.914],[19.973,48.913],[19.956,48.908],[19.944,48.907],[19.941,48.906],[19.845,48.908],[19.817,48.913],[19.808,48.913],[19.762,48.904],[19.75,48.9],[19.747,48.9],[19.743,48.901],[19.738,48.904],[19.735,48.906],[19.732,48.908],[19.728,48.909],[19.718,48.911],[19.715,48.913],[19.709,48.917],[19.702,48.92],[19.637,48.936],[19.562,48.942],[19.394,48.924],[19.36,48.896],[19.339,48.888],[19.328,48.879],[19.327,48.875],[19.325,48.869],[19.324,48.867],[19.323,48.865],[19.321,48.864],[19.316,48.861],[19.31,48.86],[19.27,48.856],[19.266,48.856],[19.265,48.856],[19.267,48.861],[19.268,48.862],[19.269,48.862],[19.273,48.863],[19.274,48.863],[19.274,48.865],[19.274,48.869],[19.272,48.877],[19.27,48.881],[19.268,48.883],[19.265,48.884],[19.263,48.885],[19.261,48.889],[19.26,48.891],[19.252,48.891],[19.087,48.875],[19.039,48.877],[19.028,48.859],[19.025,48.857],[19.02,48.853],[19.003,48.848],[19.001,48.845],[19.001,48.842],[19.007,48.83],[19.008,48.824],[19.007,48.82],[19.003,48.816],[19,48.813],[18.999,48.81],[19,48.806],[19.005,48.799],[19.019,48.791],[19.02,48.79],[19.021,48.786],[19.02,48.781],[19.017,48.77],[19.015,48.764],[19.001,48.747],[18.916,48.75],[18.899,48.753],[18.899,48.754],[18.896,48.757],[18.894,48.758],[18.893,48.759],[18.892,48.761],[18.891,48.763],[18.89,48.765],[18.888,48.767],[18.876,48.764],[18.833,48.744],[18.83,48.754],[18.827,48.757],[18.793,48.785],[18.787,48.792],[18.783,48.797],[18.78,48.804],[18.78,48.807],[18.78,48.81],[18.783,48.812],[18.782,48.813],[18.779,48.814],[18.773,48.816],[18.758,48.826],[18.753,48.827],[18.751,48.828],[18.747,48.83],[18.745,48.831],[18.74,48.831],[18.738,48.832],[18.735,48.833],[18.712,48.847],[18.708,48.851],[18.706,48.854],[18.706,48.859],[18.707,48.866],[18.708,48.868],[18.707,48.871],[18.706,48.875],[18.706,48.878],[18.707,48.881],[18.709,48.887],[18.71,48.891],[18.709,48.896],[18.703,48.911],[18.703,48.915],[18.705,48.917],[18.707,48.92],[18.709,48.922],[18.71,48.924],[18.71,48.926],[18.711,48.927],[18.712,48.928],[18.714,48.929],[18.716,48.93],[18.719,48.932],[18.721,48.934],[18.726,48.937],[18.706,48.954],[18.702,48.956],[18.696,48.958],[18.677,48.959],[18.636,48.966],[18.603,48.96],[18.594,48.96],[18.592,48.962],[18.586,48.97],[18.583,48.972],[18.581,48.972],[18.568,48.962],[18.566,48.961],[18.566,48.959],[18.565,48.957],[18.562,48.954],[18.555,48.95],[18.528,48.939],[18.521,48.938],[18.517,48.939],[18.503,48.942],[18.485,48.944],[18.476,48.948],[18.471,48.956],[18.5,48.968],[18.504,48.97],[18.51,48.974],[18.519,48.985],[18.525,48.988],[18.531,48.991],[18.561,48.996],[18.571,49.001],[18.582,49.01],[18.595,49.023],[18.601,49.03],[18.603,49.035],[18.6,49.049],[18.6,49.051],[18.601,49.053],[18.603,49.056],[18.603,49.057],[18.603,49.059],[18.602,49.06],[18.602,49.061],[18.602,49.063],[18.604,49.067],[18.604,49.069],[18.604,49.07],[18.603,49.072],[18.601,49.073],[18.599,49.074],[18.595,49.075],[18.594,49.076],[18.593,49.077],[18.59,49.082],[18.588,49.083],[18.586,49.085],[18.584,49.086],[18.582,49.087],[18.568,49.09],[18.564,49.09],[18.562,49.091],[18.561,49.093],[18.564,49.096],[18.591,49.115],[18.579,49.127],[18.578,49.129],[18.577,49.133],[18.578,49.137],[18.577,49.144],[18.574,49.149],[18.566,49.157],[18.561,49.16],[18.543,49.168],[18.537,49.168],[18.533,49.17],[18.529,49.171],[18.517,49.179],[18.513,49.18],[18.511,49.181],[18.508,49.181],[18.506,49.181],[18.482,49.192],[18.476,49.195],[18.471,49.2],[18.458,49.215],[18.457,49.217],[18.457,49.218],[18.457,49.22],[18.455,49.222],[18.45,49.228],[18.45,49.23],[18.45,49.231],[18.451,49.234],[18.452,49.235],[18.451,49.238],[18.448,49.241],[18.387,49.308],[18.385,49.31],[18.385,49.312],[18.385,49.314],[18.384,49.322],[18.366,49.326],[18.362,49.33],[18.385,49.342],[18.387,49.378],[18.388,49.39],[18.417,49.385],[18.439,49.395],[18.482,49.429],[18.515,49.441],[18.523,49.446],[18.528,49.455],[18.53,49.473],[18.536,49.482],[18.556,49.49],[18.6,49.486],[18.629,49.496],[18.636,49.497],[18.643,49.496],[18.676,49.485],[18.705,49.479],[18.733,49.48],[18.774,49.505],[18.792,49.51],[18.833,49.51],[18.932,49.504],[18.961,49.493],[18.952,49.476],[18.953,49.462],[18.958,49.448],[18.961,49.433],[18.957,49.4],[18.962,49.389],[18.982,49.387],[19.007,49.388],[19.046,49.403],[19.068,49.406],[19.077,49.404],[19.097,49.395],[19.106,49.391],[19.117,49.391],[19.142,49.394],[19.173,49.402],[19.18,49.41],[19.182,49.423],[19.189,49.442],[19.192,49.443],[19.205,49.443],[19.209,49.445],[19.211,49.452],[19.209,49.456],[19.206,49.459],[19.204,49.461],[19.22,49.493],[19.234,49.507],[19.249,49.516],[19.265,49.521],[19.284,49.524],[19.315,49.524],[19.325,49.525],[19.34,49.529],[19.347,49.533],[19.434,49.595],[19.438,49.6],[19.443,49.602]]]}}]}
