{"type":"FeatureCollection","features":[{"type":"Feature","id":"SL-E","properties":{"id":"SL-E","countryCode":"SL","isoSubdivision":"SL-E","name":"Eastern","name_en":"Eastern","name_ko":"동부","type":"Province","labelLongitude":-10.931,"labelLatitude":8.274,"minZoom":7.7},"geometry":{"type":"Polygon","coordinates":[[[-10.592,9.042],[-10.592,9.039],[-10.607,8.98],[-10.612,8.945],[-10.61,8.872],[-10.608,8.862],[-10.599,8.834],[-10.599,8.83],[-10.6,8.819],[-10.6,8.815],[-10.596,8.811],[-10.589,8.807],[-10.586,8.804],[-10.545,8.75],[-10.53,8.739],[-10.525,8.73],[-10.482,8.672],[-10.49,8.651],[-10.503,8.632],[-10.522,8.619],[-10.545,8.617],[-10.565,8.613],[-10.585,8.597],[-10.601,8.576],[-10.616,8.547],[-10.632,8.532],[-10.639,8.52],[-10.641,8.507],[-10.641,8.495],[-10.644,8.487],[-10.655,8.486],[-10.669,8.399],[-10.684,8.375],[-10.702,8.354],[-10.725,8.32],[-10.735,8.287],[-10.715,8.27],[-10.708,8.303],[-10.688,8.324],[-10.66,8.333],[-10.627,8.332],[-10.612,8.325],[-10.583,8.307],[-10.573,8.305],[-10.554,8.312],[-10.519,8.335],[-10.46,8.392],[-10.448,8.408],[-10.424,8.457],[-10.414,8.47],[-10.402,8.481],[-10.39,8.489],[-10.375,8.495],[-10.344,8.499],[-10.338,8.499],[-10.31,8.49],[-10.302,8.486],[-10.294,8.483],[-10.282,8.485],[-10.283,8.433],[-10.314,8.31],[-10.331,8.272],[-10.333,8.25],[-10.326,8.222],[-10.318,8.202],[-10.321,8.183],[-10.346,8.159],[-10.365,8.148],[-10.385,8.142],[-10.405,8.139],[-10.486,8.139],[-10.506,8.136],[-10.529,8.124],[-10.544,8.106],[-10.567,8.063],[-10.578,8.053],[-10.603,8.039],[-10.612,8.032],[-10.616,8.023],[-10.618,8.011],[-10.615,7.769],[-10.638,7.766],[-10.645,7.763],[-10.693,7.738],[-10.731,7.705],[-10.864,7.544],[-10.875,7.531],[-10.886,7.522],[-10.899,7.516],[-10.937,7.508],[-10.978,7.485],[-11.126,7.368],[-11.144,7.345],[-11.145,7.345],[-11.218,7.374],[-11.244,7.389],[-11.278,7.403],[-11.304,7.411],[-11.316,7.412],[-11.329,7.413],[-11.341,7.414],[-11.352,7.417],[-11.356,7.42],[-11.358,7.424],[-11.357,7.447],[-11.359,7.47],[-11.36,7.491],[-11.359,7.498],[-11.362,7.542],[-11.361,7.553],[-11.359,7.561],[-11.336,7.585],[-11.334,7.588],[-11.349,7.608],[-11.353,7.611],[-11.357,7.614],[-11.362,7.617],[-11.367,7.618],[-11.373,7.618],[-11.378,7.617],[-11.388,7.613],[-11.396,7.607],[-11.427,7.57],[-11.449,7.55],[-11.453,7.547],[-11.458,7.544],[-11.463,7.543],[-11.468,7.543],[-11.473,7.544],[-11.478,7.546],[-11.483,7.548],[-11.488,7.56],[-11.492,7.582],[-11.496,7.636],[-11.501,7.659],[-11.507,7.672],[-11.517,7.676],[-11.52,7.678],[-11.52,7.681],[-11.493,7.697],[-11.46,7.72],[-11.457,7.721],[-11.453,7.721],[-11.45,7.718],[-11.448,7.714],[-11.444,7.704],[-11.441,7.701],[-11.436,7.699],[-11.431,7.7],[-11.427,7.703],[-11.423,7.706],[-11.418,7.715],[-11.414,7.724],[-11.41,7.748],[-11.408,7.753],[-11.406,7.757],[-11.405,7.763],[-11.407,7.77],[-11.423,7.813],[-11.426,7.815],[-11.429,7.814],[-11.432,7.811],[-11.446,7.791],[-11.449,7.788],[-11.452,7.788],[-11.454,7.793],[-11.455,7.801],[-11.454,7.826],[-11.444,7.872],[-11.442,7.877],[-11.439,7.881],[-11.375,7.927],[-11.371,7.93],[-11.359,7.944],[-11.351,7.949],[-11.348,7.952],[-11.345,7.956],[-11.342,7.96],[-11.338,7.97],[-11.332,7.991],[-11.331,8.002],[-11.332,8.013],[-11.335,8.04],[-11.336,8.078],[-11.34,8.098],[-11.364,8.165],[-11.366,8.171],[-11.366,8.176],[-11.366,8.181],[-11.366,8.184],[-11.366,8.189],[-11.369,8.196],[-11.375,8.206],[-11.443,8.273],[-11.486,8.328],[-11.503,8.344],[-11.508,8.347],[-11.529,8.367],[-11.532,8.373],[-11.535,8.381],[-11.535,8.397],[-11.534,8.414],[-11.535,8.42],[-11.539,8.428],[-11.553,8.445],[-11.562,8.452],[-11.57,8.466],[-11.58,8.508],[-11.558,8.528],[-11.542,8.539],[-11.537,8.542],[-11.53,8.545],[-11.518,8.546],[-11.511,8.547],[-11.504,8.546],[-11.489,8.54],[-11.483,8.539],[-11.478,8.539],[-11.472,8.539],[-11.422,8.552],[-11.416,8.552],[-11.411,8.55],[-11.407,8.548],[-11.399,8.542],[-11.395,8.539],[-11.39,8.538],[-11.385,8.538],[-11.38,8.536],[-11.376,8.533],[-11.373,8.53],[-11.369,8.527],[-11.365,8.525],[-11.359,8.526],[-11.354,8.53],[-11.348,8.537],[-11.342,8.549],[-11.33,8.588],[-11.329,8.591],[-11.329,8.596],[-11.33,8.6],[-11.332,8.605],[-11.338,8.613],[-11.34,8.617],[-11.341,8.623],[-11.338,8.633],[-11.328,8.664],[-11.326,8.675],[-11.326,8.681],[-11.327,8.686],[-11.33,8.691],[-11.335,8.7],[-11.337,8.704],[-11.338,8.709],[-11.337,8.734],[-11.341,8.777],[-11.34,8.781],[-11.337,8.785],[-11.332,8.789],[-11.309,8.804],[-11.3,8.811],[-11.294,8.819],[-11.292,8.823],[-11.281,8.847],[-11.263,8.903],[-11.26,8.907],[-11.257,8.911],[-11.248,8.916],[-11.175,8.941],[-11.165,8.946],[-11.136,8.965],[-11.129,8.972],[-11.123,8.98],[-11.121,8.985],[-11.119,8.99],[-11.119,8.995],[-11.117,9.014],[-11.115,9.025],[-11.111,9.035],[-11.1,9.052],[-11.097,9.056],[-11.092,9.059],[-11.087,9.063],[-11.077,9.067],[-11.07,9.069],[-11.062,9.07],[-10.96,9.057],[-10.951,9.055],[-10.945,9.052],[-10.931,9.038],[-10.912,9.015],[-10.905,9.008],[-10.894,9],[-10.828,8.954],[-10.815,8.947],[-10.809,8.945],[-10.801,8.944],[-10.79,8.946],[-10.76,8.954],[-10.754,8.955],[-10.747,8.954],[-10.725,8.95],[-10.712,8.949],[-10.699,8.95],[-10.693,8.953],[-10.687,8.957],[-10.68,8.967],[-10.681,8.973],[-10.683,8.977],[-10.702,8.987],[-10.706,8.99],[-10.709,8.993],[-10.71,8.996],[-10.709,8.999],[-10.709,9],[-10.649,9.039],[-10.631,9.043],[-10.593,9.042],[-10.592,9.042]]]}},{"type":"Feature","id":"SL-N","properties":{"id":"SL-N","countryCode":"SL","isoSubdivision":"SL-N","name":"Northern","name_en":"Northern","name_ko":"북부","type":"Province","labelLongitude":-11.947,"labelLatitude":9.141,"minZoom":7.7},"geometry":{"type":"Polygon","coordinates":[[[-11.273,9.996],[-11.247,9.993],[-11.213,9.983],[-11.2,9.982],[-11.189,9.973],[-11.181,9.95],[-11.168,9.884],[-11.16,9.873],[-11.086,9.826],[-11.045,9.787],[-11.01,9.743],[-10.986,9.698],[-10.975,9.664],[-10.968,9.654],[-10.963,9.651],[-10.947,9.645],[-10.94,9.64],[-10.936,9.632],[-10.929,9.606],[-10.922,9.596],[-10.896,9.578],[-10.886,9.568],[-10.883,9.56],[-10.878,9.533],[-10.871,9.523],[-10.86,9.519],[-10.853,9.512],[-10.854,9.498],[-10.859,9.473],[-10.855,9.455],[-10.844,9.44],[-10.829,9.424],[-10.813,9.414],[-10.811,9.408],[-10.822,9.401],[-10.832,9.392],[-10.819,9.388],[-10.802,9.387],[-10.795,9.389],[-10.785,9.387],[-10.775,9.387],[-10.765,9.385],[-10.753,9.368],[-10.742,9.357],[-10.728,9.348],[-10.718,9.343],[-10.675,9.306],[-10.674,9.294],[-10.678,9.283],[-10.683,9.272],[-10.688,9.259],[-10.688,9.251],[-10.684,9.234],[-10.685,9.225],[-10.693,9.213],[-10.704,9.206],[-10.715,9.201],[-10.725,9.195],[-10.743,9.163],[-10.753,9.12],[-10.746,9.084],[-10.71,9.073],[-10.669,9.074],[-10.629,9.07],[-10.606,9.064],[-10.594,9.054],[-10.593,9.048],[-10.592,9.042],[-10.593,9.042],[-10.631,9.043],[-10.649,9.039],[-10.709,9],[-10.709,8.999],[-10.71,8.996],[-10.709,8.993],[-10.706,8.99],[-10.702,8.987],[-10.683,8.977],[-10.681,8.973],[-10.68,8.967],[-10.687,8.957],[-10.693,8.953],[-10.699,8.95],[-10.712,8.949],[-10.725,8.95],[-10.747,8.954],[-10.754,8.955],[-10.76,8.954],[-10.79,8.946],[-10.801,8.944],[-10.809,8.945],[-10.815,8.947],[-10.828,8.954],[-10.894,9],[-10.905,9.008],[-10.912,9.015],[-10.931,9.038],[-10.945,9.052],[-10.951,9.055],[-10.96,9.057],[-11.062,9.07],[-11.07,9.069],[-11.077,9.067],[-11.087,9.063],[-11.092,9.059],[-11.097,9.056],[-11.1,9.052],[-11.111,9.035],[-11.115,9.025],[-11.117,9.014],[-11.119,8.995],[-11.119,8.99],[-11.121,8.985],[-11.123,8.98],[-11.129,8.972],[-11.136,8.965],[-11.165,8.946],[-11.175,8.941],[-11.248,8.916],[-11.257,8.911],[-11.26,8.907],[-11.263,8.903],[-11.281,8.847],[-11.292,8.823],[-11.294,8.819],[-11.3,8.811],[-11.309,8.804],[-11.332,8.789],[-11.337,8.785],[-11.34,8.781],[-11.341,8.777],[-11.337,8.734],[-11.338,8.709],[-11.337,8.704],[-11.335,8.7],[-11.33,8.691],[-11.327,8.686],[-11.326,8.681],[-11.326,8.675],[-11.328,8.664],[-11.338,8.633],[-11.341,8.623],[-11.34,8.617],[-11.338,8.613],[-11.332,8.605],[-11.33,8.6],[-11.329,8.596],[-11.329,8.591],[-11.33,8.588],[-11.342,8.549],[-11.348,8.537],[-11.354,8.53],[-11.359,8.526],[-11.365,8.525],[-11.369,8.527],[-11.373,8.53],[-11.376,8.533],[-11.38,8.536],[-11.385,8.538],[-11.39,8.538],[-11.395,8.539],[-11.399,8.542],[-11.407,8.548],[-11.411,8.55],[-11.416,8.552],[-11.422,8.552],[-11.472,8.539],[-11.478,8.539],[-11.483,8.539],[-11.489,8.54],[-11.504,8.546],[-11.511,8.547],[-11.518,8.546],[-11.53,8.545],[-11.537,8.542],[-11.542,8.539],[-11.558,8.528],[-11.58,8.508],[-11.603,8.493],[-11.618,8.49],[-11.674,8.493],[-11.686,8.492],[-11.697,8.489],[-11.719,8.479],[-11.725,8.475],[-11.728,8.472],[-11.73,8.467],[-11.731,8.461],[-11.733,8.436],[-11.738,8.414],[-11.742,8.406],[-11.749,8.398],[-11.772,8.376],[-11.779,8.372],[-11.826,8.351],[-11.844,8.346],[-11.871,8.345],[-11.896,8.346],[-11.934,8.356],[-11.952,8.367],[-11.959,8.369],[-11.966,8.367],[-11.976,8.362],[-11.983,8.36],[-11.989,8.36],[-12.002,8.363],[-12.018,8.362],[-12.027,8.358],[-12.034,8.358],[-12.039,8.358],[-12.042,8.356],[-12.059,8.332],[-12.062,8.328],[-12.063,8.322],[-12.063,8.317],[-12.061,8.313],[-12.051,8.294],[-12.048,8.291],[-12.044,8.288],[-12.04,8.286],[-12.037,8.282],[-12.034,8.272],[-12.033,8.267],[-12.033,8.262],[-12.035,8.251],[-12.039,8.245],[-12.043,8.245],[-12.053,8.248],[-12.058,8.248],[-12.064,8.25],[-12.068,8.253],[-12.071,8.256],[-12.077,8.264],[-12.08,8.268],[-12.085,8.284],[-12.088,8.288],[-12.092,8.29],[-12.142,8.31],[-12.203,8.344],[-12.21,8.346],[-12.23,8.349],[-12.244,8.349],[-12.253,8.348],[-12.26,8.346],[-12.288,8.334],[-12.297,8.333],[-12.303,8.334],[-12.307,8.336],[-12.312,8.338],[-12.32,8.34],[-12.348,8.339],[-12.358,8.337],[-12.365,8.335],[-12.372,8.328],[-12.378,8.323],[-12.387,8.317],[-12.418,8.304],[-12.422,8.301],[-12.425,8.298],[-12.429,8.294],[-12.435,8.28],[-12.438,8.274],[-12.443,8.27],[-12.453,8.265],[-12.458,8.265],[-12.462,8.269],[-12.464,8.273],[-12.467,8.278],[-12.471,8.281],[-12.475,8.283],[-12.552,8.287],[-12.558,8.289],[-12.562,8.292],[-12.565,8.297],[-12.566,8.302],[-12.568,8.307],[-12.568,8.319],[-12.569,8.325],[-12.572,8.328],[-12.576,8.331],[-12.586,8.335],[-12.603,8.338],[-12.622,8.337],[-12.631,8.34],[-12.636,8.344],[-12.638,8.348],[-12.641,8.352],[-12.645,8.355],[-12.65,8.357],[-12.656,8.358],[-12.716,8.357],[-12.725,8.355],[-12.745,8.345],[-12.752,8.344],[-12.758,8.345],[-12.761,8.349],[-12.764,8.353],[-12.766,8.358],[-12.769,8.362],[-12.772,8.366],[-12.779,8.369],[-12.788,8.372],[-12.807,8.374],[-12.816,8.373],[-12.823,8.37],[-12.826,8.367],[-12.829,8.362],[-12.833,8.353],[-12.838,8.345],[-12.844,8.337],[-12.856,8.321],[-12.872,8.303],[-12.884,8.294],[-12.9,8.275],[-12.914,8.295],[-12.917,8.309],[-12.916,8.327],[-12.917,8.333],[-12.919,8.338],[-12.928,8.342],[-12.943,8.347],[-13.005,8.359],[-13.012,8.365],[-13.022,8.372],[-13.039,8.374],[-13.042,8.375],[-13.034,8.377],[-13.034,8.384],[-13.046,8.386],[-13.056,8.391],[-13.064,8.399],[-13.068,8.411],[-13.054,8.411],[-13.054,8.418],[-13.083,8.424],[-13.111,8.434],[-13.126,8.449],[-13.116,8.473],[-13.104,8.482],[-13.074,8.493],[-13.062,8.5],[-13.054,8.51],[-13.048,8.521],[-13.04,8.527],[-13.027,8.521],[-13.027,8.532],[-13.024,8.543],[-13.019,8.553],[-13.013,8.562],[-13.003,8.559],[-12.937,8.554],[-12.918,8.549],[-12.907,8.548],[-12.899,8.551],[-12.879,8.565],[-12.87,8.569],[-12.888,8.573],[-12.909,8.571],[-12.928,8.572],[-12.93,8.583],[-12.931,8.583],[-12.912,8.607],[-12.876,8.685],[-12.901,8.655],[-12.917,8.628],[-12.936,8.607],[-12.972,8.596],[-12.99,8.597],[-13.005,8.6],[-13.018,8.6],[-13.044,8.585],[-13.062,8.583],[-13.078,8.589],[-13.089,8.603],[-13.066,8.607],[-13.054,8.619],[-13.044,8.633],[-13.027,8.644],[-13.027,8.651],[-13.036,8.652],[-13.041,8.654],[-13.045,8.658],[-13.048,8.665],[-13.054,8.665],[-13.064,8.634],[-13.071,8.622],[-13.082,8.617],[-13.098,8.622],[-13.112,8.634],[-13.13,8.658],[-13.141,8.652],[-13.148,8.653],[-13.154,8.66],[-13.158,8.671],[-13.163,8.654],[-13.154,8.643],[-13.139,8.636],[-13.123,8.631],[-13.137,8.624],[-13.109,8.603],[-13.107,8.581],[-13.122,8.56],[-13.143,8.542],[-13.139,8.533],[-13.139,8.524],[-13.144,8.517],[-13.154,8.515],[-13.162,8.518],[-13.169,8.525],[-13.195,8.569],[-13.203,8.585],[-13.209,8.614],[-13.217,8.633],[-13.227,8.65],[-13.237,8.661],[-13.241,8.672],[-13.242,8.689],[-13.24,8.719],[-13.235,8.72],[-13.24,8.826],[-13.212,8.857],[-13.201,8.86],[-13.197,8.856],[-13.193,8.85],[-13.185,8.843],[-13.108,8.844],[-13.092,8.847],[-13.072,8.856],[-13.043,8.858],[-12.986,8.857],[-13.027,8.87],[-13.034,8.867],[-13.041,8.861],[-13.058,8.861],[-13.077,8.865],[-13.089,8.87],[-13.1,8.865],[-13.116,8.862],[-13.13,8.864],[-13.137,8.874],[-13.14,8.881],[-13.147,8.883],[-13.154,8.883],[-13.158,8.884],[-13.158,8.892],[-13.156,8.895],[-13.153,8.897],[-13.143,8.917],[-13.123,8.926],[-13.098,8.93],[-13.075,8.932],[-13.075,8.939],[-13.093,8.945],[-13.115,8.941],[-13.158,8.925],[-13.181,8.923],[-13.206,8.928],[-13.226,8.943],[-13.233,8.966],[-13.237,8.962],[-13.239,8.961],[-13.24,8.96],[-13.24,8.952],[-13.255,8.966],[-13.26,8.965],[-13.262,8.961],[-13.265,8.958],[-13.267,8.952],[-13.288,8.969],[-13.285,9.017],[-13.301,9.035],[-13.301,9.041],[-13.277,9.059],[-13.234,9.072],[-13.208,9.077],[-13.192,9.073],[-13.154,9.049],[-13.131,9.041],[-13.116,9.044],[-13.086,9.066],[-13.047,9.085],[-13.029,9.096],[-13.015,9.113],[-13.002,9.144],[-12.994,9.159],[-12.984,9.172],[-12.978,9.175],[-12.963,9.177],[-12.959,9.178],[-12.96,9.186],[-12.974,9.203],[-12.978,9.213],[-12.974,9.242],[-12.958,9.272],[-12.937,9.287],[-12.918,9.267],[-12.896,9.279],[-12.876,9.28],[-12.857,9.279],[-12.836,9.282],[-12.819,9.296],[-12.795,9.335],[-12.778,9.344],[-12.764,9.348],[-12.764,9.355],[-12.768,9.364],[-12.768,9.372],[-12.76,9.383],[-12.754,9.388],[-12.737,9.397],[-12.733,9.397],[-12.728,9.393],[-12.723,9.392],[-12.719,9.398],[-12.716,9.404],[-12.713,9.408],[-12.706,9.414],[-12.702,9.42],[-12.668,9.529],[-12.667,9.534],[-12.669,9.538],[-12.669,9.542],[-12.661,9.546],[-12.655,9.548],[-12.652,9.549],[-12.65,9.552],[-12.647,9.557],[-12.639,9.589],[-12.634,9.598],[-12.625,9.601],[-12.615,9.6],[-12.607,9.601],[-12.603,9.609],[-12.602,9.652],[-12.599,9.655],[-12.582,9.683],[-12.573,9.693],[-12.542,9.711],[-12.539,9.712],[-12.537,9.716],[-12.538,9.728],[-12.536,9.733],[-12.531,9.733],[-12.526,9.732],[-12.522,9.734],[-12.523,9.739],[-12.527,9.751],[-12.527,9.754],[-12.514,9.828],[-12.514,9.838],[-12.515,9.845],[-12.514,9.851],[-12.508,9.86],[-12.472,9.881],[-12.427,9.898],[-12.277,9.929],[-12.254,9.928],[-12.236,9.917],[-12.217,9.901],[-12.194,9.886],[-12.175,9.879],[-12.158,9.876],[-12.141,9.875],[-12.11,9.882],[-11.922,9.922],[-11.915,9.931],[-11.91,9.993],[-11.588,9.994],[-11.485,9.995],[-11.449,9.995],[-11.273,9.996]]]}},{"type":"Feature","id":"SL-S","properties":{"id":"SL-S","countryCode":"SL","isoSubdivision":"SL-S","name":"Southern","name_en":"Southern","name_ko":"남부","type":"Province","labelLongitude":-12.051,"labelLatitude":7.854,"minZoom":7.7},"geometry":{"type":"MultiPolygon","coordinates":[[[[-11.144,7.345],[-11.209,7.262],[-11.218,7.254],[-11.3,7.217],[-11.317,7.214],[-11.352,7.159],[-11.37,7.143],[-11.373,7.139],[-11.371,7.128],[-11.356,7.105],[-11.353,7.093],[-11.355,7.084],[-11.36,7.079],[-11.368,7.076],[-11.39,7.074],[-11.393,7.067],[-11.389,7.047],[-11.392,7.032],[-11.398,7.013],[-11.407,6.996],[-11.435,6.981],[-11.439,6.964],[-11.437,6.939],[-11.444,6.934],[-11.476,6.919],[-11.493,6.933],[-11.534,6.942],[-11.554,6.953],[-11.573,6.966],[-11.588,6.979],[-11.579,6.98],[-11.574,6.983],[-11.571,6.986],[-11.567,6.993],[-11.596,6.993],[-11.608,6.991],[-11.616,6.986],[-11.622,6.986],[-11.631,7.008],[-11.645,7.023],[-11.698,7.067],[-11.84,7.149],[-12.074,7.234],[-12.315,7.329],[-12.507,7.39],[-12.476,7.415],[-12.44,7.416],[-12.402,7.405],[-12.369,7.39],[-12.371,7.399],[-12.376,7.405],[-12.383,7.409],[-12.393,7.41],[-12.401,7.413],[-12.409,7.425],[-12.417,7.431],[-12.436,7.438],[-12.447,7.439],[-12.464,7.43],[-12.473,7.434],[-12.481,7.441],[-12.489,7.445],[-12.492,7.454],[-12.484,7.472],[-12.471,7.491],[-12.452,7.508],[-12.442,7.523],[-12.428,7.534],[-12.41,7.528],[-12.399,7.533],[-12.388,7.535],[-12.363,7.534],[-12.358,7.536],[-12.345,7.54],[-12.339,7.541],[-12.331,7.539],[-12.319,7.53],[-12.315,7.528],[-12.295,7.533],[-12.278,7.543],[-12.259,7.552],[-12.232,7.554],[-12.234,7.557],[-12.237,7.565],[-12.238,7.568],[-12.22,7.573],[-12.202,7.576],[-12.188,7.583],[-12.184,7.603],[-12.191,7.603],[-12.197,7.601],[-12.204,7.601],[-12.211,7.6],[-12.218,7.596],[-12.224,7.605],[-12.225,7.609],[-12.235,7.607],[-12.247,7.607],[-12.256,7.605],[-12.26,7.599],[-12.263,7.591],[-12.269,7.586],[-12.287,7.582],[-12.299,7.576],[-12.318,7.575],[-12.328,7.573],[-12.348,7.563],[-12.37,7.559],[-12.391,7.55],[-12.404,7.548],[-12.41,7.548],[-12.43,7.553],[-12.441,7.554],[-12.464,7.562],[-12.471,7.581],[-12.476,7.602],[-12.493,7.616],[-12.493,7.623],[-12.488,7.627],[-12.485,7.633],[-12.484,7.641],[-12.486,7.651],[-12.493,7.644],[-12.5,7.639],[-12.507,7.639],[-12.513,7.644],[-12.52,7.644],[-12.52,7.63],[-12.544,7.654],[-12.531,7.687],[-12.493,7.74],[-12.477,7.731],[-12.471,7.726],[-12.465,7.733],[-12.471,7.746],[-12.472,7.76],[-12.466,7.771],[-12.452,7.774],[-12.472,7.788],[-12.49,7.772],[-12.52,7.726],[-12.569,7.696],[-12.602,7.684],[-12.616,7.695],[-12.624,7.695],[-12.688,7.707],[-12.695,7.707],[-12.701,7.708],[-12.711,7.712],[-12.751,7.74],[-12.766,7.747],[-12.778,7.756],[-12.787,7.774],[-12.791,7.792],[-12.788,7.805],[-12.777,7.813],[-12.76,7.822],[-12.778,7.819],[-12.829,7.798],[-12.876,7.829],[-12.889,7.855],[-12.899,7.866],[-12.914,7.87],[-12.925,7.875],[-12.938,7.886],[-12.959,7.911],[-12.939,7.915],[-12.906,7.934],[-12.887,7.939],[-12.871,7.937],[-12.854,7.932],[-12.821,7.917],[-12.841,7.938],[-12.867,7.955],[-12.888,7.975],[-12.905,8.024],[-12.907,8.027],[-12.912,8.031],[-12.91,8.038],[-12.904,8.052],[-12.901,8.066],[-12.895,8.08],[-12.886,8.092],[-12.876,8.103],[-12.908,8.107],[-12.921,8.12],[-12.929,8.139],[-12.945,8.164],[-12.956,8.172],[-12.97,8.178],[-12.981,8.186],[-12.986,8.202],[-12.985,8.217],[-12.983,8.23],[-12.979,8.242],[-12.976,8.246],[-12.976,8.247],[-12.974,8.248],[-12.925,8.259],[-12.914,8.264],[-12.9,8.275],[-12.884,8.294],[-12.872,8.303],[-12.856,8.321],[-12.844,8.337],[-12.838,8.345],[-12.833,8.353],[-12.829,8.362],[-12.826,8.367],[-12.823,8.37],[-12.816,8.373],[-12.807,8.374],[-12.788,8.372],[-12.779,8.369],[-12.772,8.366],[-12.769,8.362],[-12.766,8.358],[-12.764,8.353],[-12.761,8.349],[-12.758,8.345],[-12.752,8.344],[-12.745,8.345],[-12.725,8.355],[-12.716,8.357],[-12.656,8.358],[-12.65,8.357],[-12.645,8.355],[-12.641,8.352],[-12.638,8.348],[-12.636,8.344],[-12.631,8.34],[-12.622,8.337],[-12.603,8.338],[-12.586,8.335],[-12.576,8.331],[-12.572,8.328],[-12.569,8.325],[-12.568,8.319],[-12.568,8.307],[-12.566,8.302],[-12.565,8.297],[-12.562,8.292],[-12.558,8.289],[-12.552,8.287],[-12.475,8.283],[-12.471,8.281],[-12.467,8.278],[-12.464,8.273],[-12.462,8.269],[-12.458,8.265],[-12.453,8.265],[-12.443,8.27],[-12.438,8.274],[-12.435,8.28],[-12.429,8.294],[-12.425,8.298],[-12.422,8.301],[-12.418,8.304],[-12.387,8.317],[-12.378,8.323],[-12.372,8.328],[-12.365,8.335],[-12.358,8.337],[-12.348,8.339],[-12.32,8.34],[-12.312,8.338],[-12.307,8.336],[-12.303,8.334],[-12.297,8.333],[-12.288,8.334],[-12.26,8.346],[-12.253,8.348],[-12.244,8.349],[-12.23,8.349],[-12.21,8.346],[-12.203,8.344],[-12.142,8.31],[-12.092,8.29],[-12.088,8.288],[-12.085,8.284],[-12.08,8.268],[-12.077,8.264],[-12.071,8.256],[-12.068,8.253],[-12.064,8.25],[-12.058,8.248],[-12.053,8.248],[-12.043,8.245],[-12.039,8.245],[-12.035,8.251],[-12.033,8.262],[-12.033,8.267],[-12.034,8.272],[-12.037,8.282],[-12.04,8.286],[-12.044,8.288],[-12.048,8.291],[-12.051,8.294],[-12.061,8.313],[-12.063,8.317],[-12.063,8.322],[-12.062,8.328],[-12.059,8.332],[-12.042,8.356],[-12.039,8.358],[-12.034,8.358],[-12.027,8.358],[-12.018,8.362],[-12.002,8.363],[-11.989,8.36],[-11.983,8.36],[-11.976,8.362],[-11.966,8.367],[-11.959,8.369],[-11.952,8.367],[-11.934,8.356],[-11.896,8.346],[-11.871,8.345],[-11.844,8.346],[-11.826,8.351],[-11.779,8.372],[-11.772,8.376],[-11.749,8.398],[-11.742,8.406],[-11.738,8.414],[-11.733,8.436],[-11.731,8.461],[-11.73,8.467],[-11.728,8.472],[-11.725,8.475],[-11.719,8.479],[-11.697,8.489],[-11.686,8.492],[-11.674,8.493],[-11.618,8.49],[-11.603,8.493],[-11.58,8.508],[-11.57,8.466],[-11.562,8.452],[-11.553,8.445],[-11.539,8.428],[-11.535,8.42],[-11.534,8.414],[-11.535,8.397],[-11.535,8.381],[-11.532,8.373],[-11.529,8.367],[-11.508,8.347],[-11.503,8.344],[-11.486,8.328],[-11.443,8.273],[-11.375,8.206],[-11.369,8.196],[-11.366,8.189],[-11.366,8.184],[-11.366,8.181],[-11.366,8.176],[-11.366,8.171],[-11.364,8.165],[-11.34,8.098],[-11.336,8.078],[-11.335,8.04],[-11.332,8.013],[-11.331,8.002],[-11.332,7.991],[-11.338,7.97],[-11.342,7.96],[-11.345,7.956],[-11.348,7.952],[-11.351,7.949],[-11.359,7.944],[-11.371,7.93],[-11.375,7.927],[-11.439,7.881],[-11.442,7.877],[-11.444,7.872],[-11.454,7.826],[-11.455,7.801],[-11.454,7.793],[-11.452,7.788],[-11.449,7.788],[-11.446,7.791],[-11.432,7.811],[-11.429,7.814],[-11.426,7.815],[-11.423,7.813],[-11.407,7.77],[-11.405,7.763],[-11.406,7.757],[-11.408,7.753],[-11.41,7.748],[-11.414,7.724],[-11.418,7.715],[-11.423,7.706],[-11.427,7.703],[-11.431,7.7],[-11.436,7.699],[-11.441,7.701],[-11.444,7.704],[-11.448,7.714],[-11.45,7.718],[-11.453,7.721],[-11.457,7.721],[-11.46,7.72],[-11.493,7.697],[-11.52,7.681],[-11.52,7.678],[-11.517,7.676],[-11.507,7.672],[-11.501,7.659],[-11.496,7.636],[-11.492,7.582],[-11.488,7.56],[-11.483,7.548],[-11.478,7.546],[-11.473,7.544],[-11.468,7.543],[-11.463,7.543],[-11.458,7.544],[-11.453,7.547],[-11.449,7.55],[-11.427,7.57],[-11.396,7.607],[-11.388,7.613],[-11.378,7.617],[-11.373,7.618],[-11.367,7.618],[-11.362,7.617],[-11.357,7.614],[-11.353,7.611],[-11.349,7.608],[-11.334,7.588],[-11.336,7.585],[-11.359,7.561],[-11.361,7.553],[-11.362,7.542],[-11.359,7.498],[-11.36,7.491],[-11.359,7.47],[-11.357,7.447],[-11.358,7.424],[-11.356,7.42],[-11.352,7.417],[-11.341,7.414],[-11.329,7.413],[-11.316,7.412],[-11.304,7.411],[-11.278,7.403],[-11.244,7.389],[-11.218,7.374],[-11.145,7.345],[-11.144,7.345]]],[[[-12.493,7.568],[-12.504,7.561],[-12.505,7.55],[-12.499,7.52],[-12.502,7.502],[-12.509,7.492],[-12.518,7.482],[-12.526,7.466],[-12.527,7.45],[-12.519,7.417],[-12.52,7.404],[-12.532,7.392],[-12.55,7.39],[-12.566,7.396],[-12.575,7.41],[-12.554,7.41],[-12.568,7.435],[-12.586,7.46],[-12.606,7.479],[-12.626,7.486],[-12.641,7.487],[-12.732,7.511],[-12.764,7.528],[-12.849,7.541],[-12.952,7.568],[-12.952,7.575],[-12.914,7.584],[-12.91,7.598],[-12.898,7.611],[-12.883,7.616],[-12.845,7.623],[-12.736,7.623],[-12.719,7.625],[-12.681,7.635],[-12.621,7.64],[-12.601,7.638],[-12.581,7.63],[-12.596,7.613],[-12.586,7.608],[-12.548,7.609],[-12.53,7.604],[-12.515,7.595],[-12.504,7.583],[-12.493,7.568]]]]}},{"type":"Feature","id":"SL-W","properties":{"id":"SL-W","countryCode":"SL","isoSubdivision":"SL-W","name":"Western Area","name_en":"Western Area","name_ko":"서부구","type":"Province","labelLongitude":-13.093,"labelLatitude":8.31,"minZoom":7.7},"geometry":{"type":"Polygon","coordinates":[[[-12.976,8.246],[-12.972,8.254],[-12.981,8.252],[-12.987,8.248],[-12.992,8.244],[-12.999,8.24],[-13.006,8.239],[-13.011,8.239],[-13.015,8.24],[-13.024,8.24],[-13.068,8.233],[-13.09,8.225],[-13.118,8.209],[-13.143,8.19],[-13.158,8.171],[-13.164,8.171],[-13.162,8.187],[-13.164,8.23],[-13.168,8.251],[-13.169,8.263],[-13.164,8.274],[-13.176,8.284],[-13.21,8.339],[-13.212,8.34],[-13.214,8.343],[-13.219,8.344],[-13.224,8.346],[-13.226,8.353],[-13.231,8.364],[-13.256,8.397],[-13.264,8.402],[-13.268,8.411],[-13.274,8.421],[-13.287,8.425],[-13.273,8.442],[-13.269,8.45],[-13.267,8.463],[-13.27,8.472],[-13.283,8.491],[-13.287,8.5],[-13.265,8.497],[-13.26,8.493],[-13.253,8.498],[-13.25,8.495],[-13.246,8.487],[-13.229,8.494],[-13.211,8.493],[-13.193,8.488],[-13.178,8.479],[-13.165,8.465],[-13.144,8.431],[-13.11,8.413],[-13.086,8.39],[-13.06,8.373],[-13.042,8.375],[-13.039,8.374],[-13.022,8.372],[-13.012,8.365],[-13.005,8.359],[-12.943,8.347],[-12.928,8.342],[-12.919,8.338],[-12.917,8.333],[-12.916,8.327],[-12.917,8.309],[-12.914,8.295],[-12.9,8.275],[-12.914,8.264],[-12.925,8.259],[-12.974,8.248],[-12.976,8.247],[-12.976,8.246]]]}}]}
