{"type":"FeatureCollection","features":[{"type":"Feature","id":"SO-BK","properties":{"id":"SO-BK","countryCode":"SO","isoSubdivision":"SO-BK","name":"Bakool","name_en":"Bakool","name_ko":"바콜","type":"Region","labelLongitude":43.835,"labelLatitude":4.406,"minZoom":7},"geometry":{"type":"Polygon","coordinates":[[[43.969,4.954],[44.029,4.95],[44.081,4.947],[44.133,4.944],[44.185,4.941],[44.236,4.938],[44.288,4.935],[44.34,4.932],[44.392,4.929],[44.444,4.926],[44.496,4.923],[44.547,4.92],[44.597,4.918],[44.68,4.41],[44.75,4.07],[44.8,3.86],[44.77,3.7],[44.78,3.27],[44.66,3.25],[44.61,3.27],[44.41,3.26],[44.28,3.34],[44.31,3.39],[44.31,3.57],[44.29,3.61],[44.18,3.85],[43.95,3.92],[43.88,3.92],[43.79,3.88],[43.75,3.85],[43.68,3.72],[43.58,3.61],[43.41,3.57],[43.12,3.67],[43.14,3.85],[43.1,3.93],[42.89,4.29],[42.87,4.328],[42.9,4.361],[42.915,4.393],[42.933,4.463],[42.946,4.497],[42.953,4.508],[42.96,4.517],[43.035,4.579],[43.119,4.648],[43.233,4.701],[43.347,4.756],[43.459,4.809],[43.528,4.842],[43.641,4.867],[43.716,4.885],[43.815,4.907],[43.845,4.914],[43.932,4.945],[43.969,4.954]]]}},{"type":"Feature","id":"SO-BN","properties":{"id":"SO-BN","countryCode":"SO","isoSubdivision":"SO-BN","name":"Banaadir","name_en":"Banaadir","name_ko":"바나디르","type":"Region","labelLongitude":45.436,"labelLatitude":2.124,"minZoom":7},"geometry":{"type":"Polygon","coordinates":[[[45.606,2.183],[45.266,1.987],[45.266,1.988],[45.39,2.15],[45.46,2.17],[45.603,2.183],[45.606,2.183]]]}},{"type":"Feature","id":"SO-BR","properties":{"id":"SO-BR","countryCode":"SO","isoSubdivision":"SO-BR","name":"Bari","name_en":"Bari","name_ko":"바리","type":"Region","labelLongitude":50.178,"labelLatitude":9.956,"minZoom":7},"geometry":{"type":"Polygon","coordinates":[[[48.939,9.563],[48.939,9.564],[48.939,9.676],[48.939,9.788],[48.939,9.901],[48.939,10.013],[48.939,10.125],[48.939,10.238],[48.939,10.35],[48.939,10.463],[48.939,10.575],[48.939,10.687],[48.939,10.8],[48.939,10.912],[48.939,11.024],[48.939,11.137],[48.939,11.249],[48.977,11.251],[49.108,11.277],[49.24,11.3],[49.278,11.317],[49.293,11.338],[49.303,11.345],[49.316,11.341],[49.325,11.335],[49.336,11.335],[49.4,11.341],[49.419,11.345],[49.435,11.351],[49.489,11.382],[49.507,11.385],[49.522,11.394],[49.544,11.437],[49.559,11.454],[49.577,11.46],[49.6,11.462],[49.645,11.46],[49.65,11.462],[49.666,11.471],[49.675,11.474],[49.687,11.474],[49.716,11.468],[49.805,11.458],[49.851,11.465],[49.881,11.488],[49.889,11.487],[49.906,11.499],[49.918,11.502],[49.922,11.504],[49.934,11.513],[49.942,11.516],[49.949,11.515],[49.956,11.513],[49.961,11.51],[49.963,11.509],[50.054,11.511],[50.073,11.509],[50.132,11.54],[50.151,11.558],[50.162,11.563],[50.198,11.563],[50.207,11.567],[50.214,11.573],[50.225,11.578],[50.268,11.589],[50.289,11.602],[50.372,11.669],[50.418,11.678],[50.437,11.691],[50.47,11.728],[50.501,11.755],[50.513,11.771],[50.518,11.793],[50.519,11.815],[50.523,11.838],[50.529,11.86],[50.539,11.879],[50.561,11.908],[50.576,11.921],[50.59,11.926],[50.602,11.928],[50.627,11.94],[50.632,11.947],[50.636,11.952],[50.641,11.954],[50.647,11.954],[50.656,11.948],[50.661,11.948],[50.683,11.953],[50.725,11.971],[50.762,11.979],[50.772,11.986],[50.798,11.989],[50.867,11.943],[50.97,11.932],[51.029,11.885],[51.049,11.879],[51.128,11.879],[51.147,11.874],[51.181,11.855],[51.2,11.851],[51.223,11.851],[51.247,11.848],[51.267,11.839],[51.293,11.833],[51.277,11.801],[51.266,11.759],[51.249,11.729],[51.256,11.682],[51.248,11.652],[51.23,11.636],[51.213,11.608],[51.181,11.579],[51.148,11.536],[51.125,11.512],[51.121,11.505],[51.122,11.494],[51.127,11.479],[51.128,11.471],[51.125,11.448],[51.118,11.426],[51.086,11.357],[51.081,11.341],[51.079,11.276],[51.073,11.234],[51.086,11.188],[51.131,11.161],[51.174,11.159],[51.19,11.138],[51.164,11.117],[51.142,11.068],[51.131,11.053],[51.124,11.039],[51.118,11.017],[51.115,10.993],[51.125,10.855],[51.138,10.677],[51.161,10.598],[51.154,10.588],[51.131,10.584],[51.107,10.577],[51.102,10.559],[51.107,10.515],[51.102,10.495],[51.092,10.482],[51.077,10.476],[51.056,10.474],[51.036,10.468],[51.018,10.452],[51.01,10.434],[51.018,10.419],[51.038,10.416],[51.19,10.446],[51.201,10.445],[51.212,10.442],[51.22,10.442],[51.224,10.45],[51.22,10.461],[51.21,10.467],[51.201,10.472],[51.197,10.477],[51.196,10.5],[51.193,10.521],[51.187,10.542],[51.176,10.563],[51.192,10.549],[51.207,10.538],[51.221,10.525],[51.238,10.515],[51.247,10.509],[51.258,10.504],[51.281,10.487],[51.293,10.48],[51.311,10.476],[51.326,10.473],[51.336,10.475],[51.346,10.48],[51.357,10.484],[51.378,10.482],[51.395,10.479],[51.403,10.457],[51.417,10.447],[51.411,10.43],[51.398,10.396],[51.385,10.392],[51.38,10.387],[51.373,10.381],[51.376,10.368],[51.367,10.368],[51.349,10.375],[51.336,10.374],[51.32,10.378],[51.301,10.373],[51.273,10.378],[51.265,10.397],[51.263,10.409],[51.257,10.42],[51.241,10.426],[51.09,10.407],[51.017,10.382],[50.927,10.328],[50.91,10.296],[50.902,10.234],[50.913,10.177],[50.884,10.101],[50.889,10.056],[50.9,10.024],[50.902,10.012],[50.9,10.001],[50.891,9.986],[50.878,9.917],[50.881,9.905],[50.87,9.884],[50.863,9.866],[50.854,9.816],[50.841,9.78],[50.833,9.769],[50.839,9.741],[50.837,9.731],[50.832,9.712],[50.824,9.651],[50.806,9.624],[50.806,9.594],[50.813,9.541],[50.837,9.477],[50.84,9.456],[50.837,9.437],[50.83,9.42],[50.768,9.319],[50.748,9.304],[50.706,9.286],[50.689,9.275],[50.677,9.259],[50.647,9.211],[50.641,9.196],[50.649,9.133],[50.648,9.11],[50.634,9.073],[50.605,9.038],[50.495,8.952],[50.464,8.921],[50.44,8.888],[50.422,8.857],[50.408,8.816],[50.39,8.734],[50.374,8.699],[50.327,8.641],[50.32,8.62],[50.323,8.56],[50.32,8.542],[50.303,8.505],[50.29,8.487],[50.275,8.479],[50.256,8.473],[50.246,8.456],[50.239,8.436],[50.23,8.418],[50.166,8.333],[50.05,8.44],[49.93,8.46],[49.89,8.4],[49.84,8.33],[49.78,8.53],[49.68,8.58],[49.45,8.59],[49.29,8.69],[49.18,8.77],[49.11,8.9],[49.08,9.14],[49.06,9.57],[48.939,9.563]]]}},{"type":"Feature","id":"SO-BY","properties":{"id":"SO-BY","countryCode":"SO","isoSubdivision":"SO-BY","name":"Bay","name_en":"Bay","name_ko":"바이","type":"Region","labelLongitude":43.545,"labelLatitude":2.672,"minZoom":7},"geometry":{"type":"Polygon","coordinates":[[[43.95,3.92],[44.18,3.85],[44.29,3.61],[44.31,3.57],[44.31,3.39],[44.28,3.34],[44.41,3.26],[44.61,3.27],[44.66,3.25],[44.69,3.05],[44.64,2.81],[44.66,2.75],[44.62,2.48],[44.65,2.22],[43.88,1.88],[43.58,1.76],[43.32,1.63],[42.98,1.46],[42.9,1.52],[42.52,1.88],[42.4,1.95],[42.51,2.57],[42.54,2.74],[42.6,3.07],[42.93,3.04],[43.1,3.06],[43.1,3.23],[43.12,3.67],[43.41,3.57],[43.58,3.61],[43.68,3.72],[43.75,3.85],[43.79,3.88],[43.88,3.92],[43.95,3.92]]]}},{"type":"Feature","id":"SO-GA","properties":{"id":"SO-GA","countryCode":"SO","isoSubdivision":"SO-GA","name":"Galguduud","name_en":"Galguduud","name_ko":"갈구두드","type":"Region","labelLongitude":46.68,"labelLatitude":5.096,"minZoom":7},"geometry":{"type":"Polygon","coordinates":[[[45.518,5.541],[45.614,5.645],[45.721,5.762],[45.829,5.88],[45.936,5.997],[45.997,6.059],[46.058,6.122],[46.119,6.184],[46.18,6.247],[46.241,6.309],[46.302,6.372],[46.363,6.434],[46.424,6.497],[46.467,6.538],[46.845,6.452],[47.222,6.366],[47.6,6.28],[47.35,5.75],[47.47,5.57],[47.61,5.19],[47.5,4.49],[47.835,4.343],[47.841,4.341],[47.578,4.06],[47.489,3.936],[47.336,3.779],[47.207,3.645],[47.04,3.469],[47.036,3.472],[46.39,3.89],[46.4,4.23],[46.15,4.43],[46.11,4.74],[46.21,4.94],[46.23,5.08],[46.04,5.03],[45.71,5.11],[45.67,5.19],[45.518,5.541]]]}},{"type":"Feature","id":"SO-GE","properties":{"id":"SO-GE","countryCode":"SO","isoSubdivision":"SO-GE","name":"Gedo","name_en":"Gedo","name_ko":"게도","type":"Region","labelLongitude":42.052,"labelLatitude":3.054,"minZoom":7},"geometry":{"type":"Polygon","coordinates":[[[41.885,3.977],[41.898,3.997],[41.912,4.008],[41.917,4.02],[41.917,4.051],[41.923,4.071],[41.941,4.086],[42.012,4.129],[42.068,4.175],[42.103,4.192],[42.135,4.2],[42.222,4.201],[42.297,4.202],[42.415,4.222],[42.568,4.248],[42.719,4.273],[42.79,4.286],[42.832,4.302],[42.869,4.327],[42.87,4.328],[42.89,4.29],[43.1,3.93],[43.14,3.85],[43.12,3.67],[43.1,3.23],[43.1,3.06],[42.93,3.04],[42.6,3.07],[42.54,2.74],[42.51,2.57],[42.4,1.95],[41.64,1.94],[41.42,1.26],[40.968,1.23],[40.968,1.247],[40.968,1.372],[40.968,1.497],[40.968,1.622],[40.968,1.747],[40.968,1.872],[40.968,1.997],[40.968,2.104],[40.968,2.21],[40.968,2.317],[40.968,2.423],[40.968,2.497],[40.967,2.632],[40.966,2.761],[40.965,2.814],[40.98,2.842],[41.014,2.876],[41.096,2.957],[41.178,3.038],[41.261,3.12],[41.343,3.201],[41.395,3.275],[41.446,3.349],[41.498,3.423],[41.55,3.497],[41.634,3.617],[41.717,3.737],[41.801,3.857],[41.885,3.977]]]}},{"type":"Feature","id":"SO-HI","properties":{"id":"SO-HI","countryCode":"SO","isoSubdivision":"SO-HI","name":"Hiran","name_en":"Hiran","name_ko":"히란","type":"Region","labelLongitude":45.498,"labelLatitude":4.368,"minZoom":7},"geometry":{"type":"Polygon","coordinates":[[[44.913,4.899],[44.942,4.911],[45.021,4.997],[45.078,5.059],[45.185,5.176],[45.292,5.293],[45.4,5.411],[45.507,5.528],[45.518,5.541],[45.67,5.19],[45.71,5.11],[46.04,5.03],[46.23,5.08],[46.21,4.94],[46.11,4.74],[46.15,4.43],[46.4,4.23],[46.39,3.89],[46.08,3.57],[46.079,3.567],[46.032,3.519],[46.03,3.52],[45.94,3.25],[45.27,3.2],[45.15,3.21],[45.07,3.25],[44.78,3.27],[44.77,3.7],[44.8,3.86],[44.75,4.07],[44.68,4.41],[44.597,4.918],[44.599,4.918],[44.651,4.915],[44.703,4.912],[44.755,4.909],[44.807,4.906],[44.858,4.903],[44.913,4.899]]]}},{"type":"Feature","id":"SO-JD","properties":{"id":"SO-JD","countryCode":"SO","isoSubdivision":"SO-JD","name":"Middle Juba","name_en":"Middle Juba","name_ko":"주바다데헤","type":"Region","labelLongitude":42.471,"labelLatitude":1.553,"minZoom":7},"geometry":{"type":"Polygon","coordinates":[[[43.521,0.672],[43.468,0.621],[43.285,0.415],[43.185,0.316],[43.18,0.316],[42.73,0.31],[42.63,0.72],[42.43,1.32],[42.2,1.31],[41.42,1.26],[41.64,1.94],[42.4,1.95],[42.52,1.88],[42.9,1.52],[42.98,1.46],[43.27,1.03],[43.35,0.92],[43.518,0.676],[43.521,0.672]]]}},{"type":"Feature","id":"SO-JH","properties":{"id":"SO-JH","countryCode":"SO","isoSubdivision":"SO-JH","name":"Lower Juba","name_en":"Lower Juba","name_ko":"주바다호세","type":"Region","labelLongitude":41.809,"labelLatitude":0.008,"minZoom":7},"geometry":{"type":"Polygon","coordinates":[[[41.536,-1.676],[41.539,-1.614],[41.535,-1.595],[41.523,-1.573],[41.485,-1.523],[41.434,-1.458],[41.384,-1.393],[41.332,-1.326],[41.283,-1.263],[41.237,-1.204],[41.182,-1.133],[41.131,-1.066],[41.082,-1.003],[41.056,-0.97],[41.031,-0.937],[41.005,-0.904],[40.98,-0.871],[40.979,-0.795],[40.978,-0.724],[40.977,-0.654],[40.976,-0.545],[40.974,-0.437],[40.973,-0.328],[40.971,-0.22],[40.97,-0.152],[40.97,-0.085],[40.968,-0.003],[40.968,0.122],[40.968,0.247],[40.968,0.372],[40.968,0.497],[40.968,0.622],[40.968,0.747],[40.968,0.872],[40.968,0.997],[40.968,1.122],[40.968,1.23],[41.42,1.26],[42.2,1.31],[42.43,1.32],[42.63,0.72],[42.73,0.31],[43.18,0.316],[43.185,0.316],[43.09,0.223],[42.891,0.003],[42.77,-0.129],[42.712,-0.177],[42.648,-0.229],[42.58,-0.298],[42.556,-0.332],[42.554,-0.342],[42.554,-0.351],[42.551,-0.358],[42.527,-0.363],[42.519,-0.369],[42.48,-0.422],[42.474,-0.439],[42.487,-0.449],[42.476,-0.466],[42.473,-0.47],[42.473,-0.464],[42.472,-0.459],[42.47,-0.454],[42.466,-0.449],[42.413,-0.491],[42.405,-0.501],[42.398,-0.517],[42.383,-0.535],[42.35,-0.566],[42.25,-0.686],[42.247,-0.694],[42.247,-0.702],[42.245,-0.707],[42.236,-0.71],[42.233,-0.713],[42.192,-0.776],[42.167,-0.803],[42.152,-0.814],[42.136,-0.822],[42.116,-0.826],[42.087,-0.826],[42.072,-0.829],[42.063,-0.839],[42.082,-0.843],[42.081,-0.863],[42.072,-0.884],[42.066,-0.894],[42.051,-0.902],[42.037,-0.92],[42.026,-0.942],[42.021,-0.96],[42.016,-0.968],[41.983,-0.994],[41.972,-1],[41.968,-0.993],[41.964,-0.951],[41.965,-0.912],[41.959,-0.894],[41.953,-0.894],[41.955,-0.91],[41.952,-0.921],[41.948,-0.931],[41.945,-0.943],[41.946,-0.955],[41.951,-0.969],[41.953,-0.98],[41.956,-0.993],[41.962,-0.999],[41.969,-1.003],[41.973,-1.011],[41.972,-1.024],[41.961,-1.044],[41.959,-1.056],[41.953,-1.069],[41.93,-1.09],[41.925,-1.097],[41.923,-1.11],[41.918,-1.121],[41.912,-1.131],[41.874,-1.176],[41.869,-1.186],[41.873,-1.195],[41.881,-1.195],[41.89,-1.189],[41.897,-1.183],[41.885,-1.21],[41.863,-1.212],[41.842,-1.197],[41.835,-1.169],[41.829,-1.169],[41.83,-1.189],[41.842,-1.225],[41.843,-1.244],[41.837,-1.262],[41.732,-1.431],[41.709,-1.46],[41.69,-1.49],[41.652,-1.565],[41.633,-1.58],[41.611,-1.593],[41.575,-1.653],[41.555,-1.67],[41.561,-1.67],[41.535,-1.696],[41.536,-1.676]]]}},{"type":"Feature","id":"SO-MU","properties":{"id":"SO-MU","countryCode":"SO","isoSubdivision":"SO-MU","name":"Mudug","name_en":"Mudug","name_ko":"무두그","type":"Region","labelLongitude":48.101,"labelLatitude":5.51,"minZoom":7},"geometry":{"type":"Polygon","coordinates":[[[46.467,6.538],[46.488,6.559],[46.508,6.578],[46.553,6.621],[46.598,6.665],[46.618,6.684],[46.667,6.731],[46.716,6.778],[46.764,6.825],[46.813,6.872],[46.861,6.919],[46.91,6.965],[46.959,7.012],[47.007,7.059],[47.056,7.106],[47.104,7.153],[47.153,7.2],[47.201,7.247],[47.25,7.294],[47.299,7.34],[47.347,7.387],[47.396,7.434],[47.445,7.481],[47.493,7.528],[47.532,7.566],[47.558,7.56],[47.566,7.559],[48.5,7.41],[49.03,7.71],[49.19,7.7],[49.44,7.58],[49.5,7.57],[49.641,7.409],[49.587,7.315],[49.521,7.24],[49.367,7.026],[49.293,6.881],[49.247,6.811],[49.198,6.674],[49.075,6.415],[49.072,6.393],[49.074,6.371],[49.084,6.329],[49.086,6.307],[49.071,6.22],[49.036,6.144],[48.951,5.999],[48.85,5.824],[48.696,5.587],[48.647,5.48],[48.62,5.444],[48.548,5.375],[48.448,5.209],[48.329,5.08],[48.202,4.909],[48.056,4.613],[47.948,4.457],[47.841,4.341],[47.835,4.343],[47.5,4.49],[47.61,5.19],[47.47,5.57],[47.35,5.75],[47.6,6.28],[47.222,6.366],[46.845,6.452],[46.467,6.538]]]}},{"type":"Feature","id":"SO-NU","properties":{"id":"SO-NU","countryCode":"SO","isoSubdivision":"SO-NU","name":"Nugal","name_en":"Nugal","name_ko":"누갈","type":"Region","labelLongitude":48.849,"labelLatitude":8.461,"minZoom":7},"geometry":{"type":"Polygon","coordinates":[[[47.532,7.566],[47.542,7.575],[47.59,7.622],[47.639,7.669],[47.688,7.715],[47.736,7.762],[47.785,7.809],[47.833,7.856],[47.882,7.903],[47.931,7.95],[47.979,7.997],[48.039,8.087],[48.099,8.179],[48.159,8.269],[48.219,8.36],[48.279,8.451],[48.339,8.542],[48.399,8.633],[48.459,8.724],[48.519,8.815],[48.579,8.906],[48.639,8.997],[48.699,9.088],[48.759,9.179],[48.819,9.269],[48.879,9.36],[48.939,9.451],[48.939,9.563],[49.06,9.57],[49.08,9.14],[49.11,8.9],[49.18,8.77],[49.29,8.69],[49.45,8.59],[49.68,8.58],[49.78,8.53],[49.84,8.33],[49.89,8.4],[49.93,8.46],[50.05,8.44],[50.166,8.333],[50.156,8.321],[50.141,8.288],[50.113,8.2],[50.091,8.161],[50.058,8.13],[49.929,8.052],[49.842,7.963],[49.824,7.934],[49.813,7.898],[49.803,7.827],[49.809,7.815],[49.823,7.805],[49.828,7.783],[49.825,7.758],[49.819,7.74],[49.791,7.7],[49.761,7.667],[49.752,7.65],[49.748,7.607],[49.744,7.589],[49.641,7.409],[49.5,7.57],[49.44,7.58],[49.19,7.7],[49.03,7.71],[48.5,7.41],[47.566,7.559],[47.558,7.56],[47.532,7.566]]]}},{"type":"Feature","id":"SO-SD","properties":{"id":"SO-SD","countryCode":"SO","isoSubdivision":"SO-SD","name":"Middle Shebelle","name_en":"Middle Shebelle","name_ko":"샤벨라하데헤","type":"Region","labelLongitude":46.055,"labelLatitude":3.006,"minZoom":7},"geometry":{"type":"Polygon","coordinates":[[[47.04,3.469],[47.013,3.441],[46.834,3.232],[46.7,3.113],[46.626,3.024],[46.488,2.909],[46.414,2.833],[46.352,2.789],[46.35,2.78],[46.345,2.77],[46.339,2.762],[46.334,2.758],[46.318,2.752],[46.308,2.736],[46.3,2.716],[46.289,2.696],[46.275,2.686],[46.237,2.668],[46.142,2.569],[46.131,2.554],[46.115,2.523],[46.105,2.511],[46.063,2.484],[46.048,2.455],[46.027,2.438],[45.826,2.309],[45.712,2.244],[45.606,2.183],[45.603,2.183],[45.46,2.17],[45.39,2.15],[45.33,2.18],[45.34,2.72],[45.12,3.04],[45.07,3.25],[45.15,3.21],[45.27,3.2],[45.94,3.25],[46.03,3.52],[46.032,3.519],[46.079,3.567],[46.08,3.57],[46.39,3.89],[47.036,3.472],[47.04,3.469]]]}},{"type":"Feature","id":"SO-SH","properties":{"id":"SO-SH","countryCode":"SO","isoSubdivision":"SO-SH","name":"Lower Shebelle","name_en":"Lower Shebelle","name_ko":"샤벨라하호세","type":"Region","labelLongitude":44.185,"labelLatitude":1.636,"minZoom":7},"geometry":{"type":"Polygon","coordinates":[[[45.266,1.987],[45.232,1.968],[45.211,1.963],[45.2,1.96],[45.001,1.866],[44.832,1.75],[44.824,1.74],[44.812,1.736],[44.676,1.638],[44.55,1.559],[44.333,1.39],[44.221,1.276],[44.198,1.266],[44.158,1.241],[44.146,1.23],[44.142,1.221],[44.14,1.211],[44.138,1.192],[44.134,1.188],[44.115,1.182],[44.111,1.178],[44.104,1.168],[44.033,1.097],[44.013,1.084],[43.991,1.079],[43.979,1.069],[43.933,1.01],[43.82,0.949],[43.782,0.922],[43.734,0.855],[43.717,0.845],[43.703,0.841],[43.659,0.805],[43.521,0.672],[43.518,0.676],[43.35,0.92],[43.27,1.03],[42.98,1.46],[43.32,1.63],[43.58,1.76],[43.88,1.88],[44.65,2.22],[44.62,2.48],[44.66,2.75],[44.64,2.81],[44.69,3.05],[44.66,3.25],[44.78,3.27],[45.07,3.25],[45.12,3.04],[45.34,2.72],[45.33,2.18],[45.39,2.15],[45.266,1.988],[45.266,1.987]]]}}]}
