{"type":"FeatureCollection","features":[{"type":"Feature","id":"SR-BR","properties":{"id":"SR-BR","countryCode":"SR","isoSubdivision":"SR-BR","name":"Brokopondo","name_en":"Brokopondo","name_ko":"브로코폰도 구","type":"District","labelLongitude":-55.121,"labelLatitude":4.713,"minZoom":8},"geometry":{"type":"Polygon","coordinates":[[[-55.026,5.323],[-55.005,5.319],[-54.999,5.312],[-54.994,5.302],[-54.991,5.242],[-54.988,5.231],[-54.982,5.221],[-54.973,5.212],[-54.92,5.176],[-54.911,5.168],[-54.903,5.158],[-54.897,5.147],[-54.894,5.137],[-54.893,5.126],[-54.897,5.105],[-54.897,5.096],[-54.892,5.087],[-54.884,5.08],[-54.876,5.071],[-54.873,5.061],[-54.871,5.051],[-54.871,5.011],[-54.875,4.995],[-54.875,4.988],[-54.873,4.98],[-54.866,4.975],[-54.859,4.975],[-54.851,4.981],[-54.784,4.955],[-54.757,4.931],[-54.745,4.909],[-54.742,4.901],[-54.74,4.89],[-54.741,4.88],[-54.745,4.87],[-54.758,4.849],[-54.763,4.838],[-54.766,4.827],[-54.767,4.802],[-54.77,4.79],[-54.774,4.778],[-54.786,4.756],[-54.79,4.746],[-54.793,4.735],[-54.795,4.712],[-54.799,4.701],[-54.814,4.671],[-54.818,4.66],[-54.818,4.649],[-54.817,4.561],[-54.821,4.538],[-54.825,4.527],[-54.832,4.516],[-54.851,4.494],[-54.884,4.464],[-54.892,4.453],[-54.897,4.44],[-54.899,4.429],[-54.899,4.417],[-54.898,4.405],[-54.893,4.383],[-54.875,4.33],[-54.874,4.32],[-54.873,4.298],[-54.875,4.289],[-54.897,4.229],[-54.924,4.185],[-54.929,4.174],[-54.936,4.152],[-54.94,4.141],[-54.947,4.133],[-54.957,4.129],[-54.967,4.135],[-54.984,4.161],[-54.995,4.171],[-55.002,4.173],[-55.011,4.172],[-55.019,4.166],[-55.025,4.157],[-55.037,4.136],[-55.046,4.126],[-55.055,4.119],[-55.065,4.116],[-55.097,4.112],[-55.109,4.109],[-55.12,4.105],[-55.131,4.098],[-55.174,4.057],[-55.184,4.049],[-55.249,4.016],[-55.26,4.013],[-55.27,4.012],[-55.281,4.014],[-55.29,4.019],[-55.299,4.027],[-55.304,4.037],[-55.311,4.07],[-55.331,4.422],[-55.334,4.436],[-55.34,4.452],[-55.353,4.475],[-55.365,4.489],[-55.366,4.49],[-55.367,4.49],[-55.367,4.497],[-55.36,4.69],[-55.376,4.854],[-55.388,4.891],[-55.402,4.922],[-55.503,5.08],[-55.469,5.12],[-55.42,5.156],[-55.387,5.189],[-55.351,5.248],[-55.348,5.257],[-55.347,5.263],[-55.349,5.27],[-55.353,5.276],[-55.358,5.282],[-55.362,5.291],[-55.36,5.301],[-55.35,5.315],[-55.324,5.32],[-55.026,5.323]]]}},{"type":"Feature","id":"SR-CM","properties":{"id":"SR-CM","countryCode":"SR","isoSubdivision":"SR-CM","name":"Commewijne","name_en":"Commewijne","name_ko":"코메베이너 구","type":"District","labelLongitude":-54.896,"labelLatitude":5.707,"minZoom":8},"geometry":{"type":"Polygon","coordinates":[[[-55.129,5.821],[-55.101,5.83],[-55.092,5.853],[-55.091,5.875],[-55.086,5.883],[-55.063,5.883],[-55.03,5.86],[-55.01,5.856],[-54.997,5.858],[-54.989,5.864],[-54.981,5.865],[-54.959,5.852],[-54.95,5.85],[-54.942,5.852],[-54.932,5.856],[-54.924,5.86],[-54.919,5.867],[-54.912,5.873],[-54.9,5.875],[-54.891,5.873],[-54.881,5.868],[-54.863,5.856],[-54.868,5.864],[-54.874,5.872],[-54.882,5.878],[-54.89,5.883],[-54.903,5.885],[-54.913,5.884],[-54.922,5.877],[-54.933,5.87],[-54.956,5.868],[-54.972,5.877],[-54.986,5.88],[-55.002,5.871],[-55.017,5.872],[-55.032,5.884],[-55.047,5.892],[-55.105,5.909],[-55.126,5.919],[-55.143,5.93],[-55.15,5.941],[-55.154,5.951],[-55.16,5.958],[-55.153,5.969],[-55.144,5.974],[-55.117,5.985],[-55.085,5.991],[-55.045,5.993],[-55.014,5.993],[-54.774,5.985],[-54.755,5.981],[-54.713,5.976],[-54.705,5.975],[-54.71,5.963],[-54.717,5.941],[-54.71,5.861],[-54.717,5.847],[-54.736,5.824],[-54.74,5.813],[-54.741,5.8],[-54.738,5.774],[-54.737,5.767],[-54.729,5.745],[-54.721,5.729],[-54.712,5.7],[-54.704,5.683],[-54.673,5.637],[-54.653,5.595],[-54.628,5.559],[-55.01,5.531],[-55.03,5.532],[-55.049,5.538],[-55.047,5.594],[-55.048,5.604],[-55.051,5.609],[-55.055,5.61],[-55.055,5.615],[-55.053,5.619],[-55.055,5.622],[-55.061,5.623],[-55.067,5.62],[-55.072,5.617],[-55.075,5.615],[-55.085,5.617],[-55.089,5.615],[-55.089,5.616],[-55.089,5.626],[-55.087,5.628],[-55.075,5.65],[-55.039,5.667],[-55.034,5.669],[-55.027,5.677],[-55.036,5.69],[-55.056,5.699],[-55.096,5.712],[-55.114,5.725],[-55.129,5.741],[-55.141,5.76],[-55.144,5.766],[-55.15,5.78],[-55.157,5.801],[-55.145,5.807],[-55.129,5.821]]]}},{"type":"Feature","id":"SR-CR","properties":{"id":"SR-CR","countryCode":"SR","isoSubdivision":"SR-CR","name":"Coronie","name_en":"Coronie","name_ko":"코로니 구","type":"District","labelLongitude":-56.25,"labelLatitude":5.641,"minZoom":8},"geometry":{"type":"Polygon","coordinates":[[[-56.604,5.95],[-56.593,5.946],[-56.574,5.941],[-56.527,5.937],[-56.418,5.911],[-56.355,5.895],[-56.304,5.893],[-56.257,5.88],[-56.223,5.871],[-56.192,5.863],[-56.124,5.848],[-56.083,5.834],[-56.059,5.828],[-56.038,5.824],[-55.999,5.811],[-55.936,5.805],[-55.918,5.785],[-55.904,5.776],[-55.898,5.763],[-55.898,5.677],[-55.897,5.677],[-55.899,5.672],[-55.913,5.658],[-55.928,5.654],[-55.956,5.651],[-55.964,5.648],[-55.97,5.644],[-55.972,5.639],[-55.974,5.631],[-55.974,5.625],[-55.972,5.618],[-55.968,5.611],[-55.96,5.599],[-55.934,5.57],[-55.93,5.567],[-55.923,5.559],[-55.917,5.54],[-55.958,5.527],[-55.971,5.519],[-55.973,5.514],[-55.972,5.509],[-55.963,5.492],[-55.964,5.482],[-55.967,5.478],[-55.981,5.474],[-56.005,5.46],[-56.011,5.453],[-56.02,5.438],[-56.024,5.434],[-56.042,5.429],[-56.06,5.395],[-56.069,5.391],[-56.13,5.387],[-56.229,5.392],[-56.287,5.388],[-56.307,5.382],[-56.322,5.373],[-56.34,5.354],[-56.361,5.337],[-56.374,5.328],[-56.39,5.32],[-56.484,5.317],[-56.473,5.329],[-56.466,5.333],[-56.461,5.342],[-56.462,5.352],[-56.467,5.361],[-56.474,5.378],[-56.479,5.389],[-56.487,5.4],[-56.494,5.403],[-56.5,5.403],[-56.504,5.399],[-56.508,5.393],[-56.511,5.378],[-56.513,5.373],[-56.519,5.371],[-56.528,5.374],[-56.544,5.378],[-56.551,5.381],[-56.552,5.385],[-56.55,5.391],[-56.546,5.397],[-56.546,5.408],[-56.541,5.415],[-56.536,5.42],[-56.531,5.427],[-56.526,5.436],[-56.525,5.45],[-56.528,5.46],[-56.533,5.468],[-56.566,5.502],[-56.57,5.512],[-56.568,5.518],[-56.563,5.519],[-56.556,5.518],[-56.55,5.518],[-56.544,5.523],[-56.539,5.528],[-56.533,5.533],[-56.527,5.534],[-56.52,5.532],[-56.508,5.525],[-56.503,5.526],[-56.5,5.531],[-56.498,5.543],[-56.5,5.553],[-56.502,5.56],[-56.539,5.604],[-56.564,5.655],[-56.566,5.666],[-56.568,5.688],[-56.572,5.697],[-56.583,5.714],[-56.599,5.749],[-56.602,5.774],[-56.604,5.941],[-56.604,5.95]]]}},{"type":"Feature","id":"SR-MA","properties":{"id":"SR-MA","countryCode":"SR","isoSubdivision":"SR-MA","name":"Marowijne","name_en":"Marowijne","name_ko":"마로베이너 구","type":"District","labelLongitude":-54.367,"labelLatitude":5.579,"minZoom":8},"geometry":{"type":"Polygon","coordinates":[[[-54.171,5.348],[-54.19,5.326],[-54.269,5.269],[-54.311,5.226],[-54.321,5.212],[-54.321,5.213],[-54.345,5.237],[-54.354,5.242],[-54.368,5.249],[-54.404,5.261],[-54.459,5.299],[-54.473,5.306],[-54.655,5.375],[-54.622,5.421],[-54.617,5.432],[-54.613,5.442],[-54.61,5.454],[-54.608,5.468],[-54.608,5.489],[-54.613,5.524],[-54.628,5.559],[-54.653,5.595],[-54.673,5.637],[-54.704,5.683],[-54.712,5.7],[-54.721,5.729],[-54.729,5.745],[-54.737,5.767],[-54.738,5.774],[-54.741,5.8],[-54.74,5.813],[-54.736,5.824],[-54.717,5.847],[-54.71,5.861],[-54.717,5.941],[-54.71,5.963],[-54.705,5.975],[-54.674,5.969],[-54.472,5.941],[-54.349,5.914],[-54.253,5.895],[-54.169,5.868],[-54.097,5.847],[-54.074,5.845],[-54.062,5.841],[-54.037,5.842],[-54.031,5.834],[-54.02,5.83],[-54.015,5.82],[-54.016,5.81],[-53.992,5.763],[-53.986,5.746],[-53.996,5.735],[-54.02,5.689],[-54.031,5.669],[-54.036,5.63],[-54.05,5.552],[-54.061,5.513],[-54.074,5.49],[-54.092,5.468],[-54.109,5.453],[-54.118,5.443],[-54.123,5.433],[-54.129,5.414],[-54.171,5.348]]]}},{"type":"Feature","id":"SR-NI","properties":{"id":"SR-NI","countryCode":"SR","isoSubdivision":"SR-NI","name":"Nickerie","name_en":"Nickerie","name_ko":"니케리 구","type":"District","labelLongitude":-56.899,"labelLatitude":5.65,"minZoom":8},"geometry":{"type":"Polygon","coordinates":[[[-57.332,5.308],[-57.336,5.317],[-57.332,5.328],[-57.324,5.339],[-57.275,5.387],[-57.265,5.403],[-57.261,5.427],[-57.26,5.448],[-57.257,5.464],[-57.248,5.485],[-57.234,5.499],[-57.225,5.508],[-57.193,5.52],[-57.18,5.531],[-57.17,5.543],[-57.164,5.557],[-57.14,5.665],[-57.135,5.76],[-57.128,5.793],[-57.126,5.818],[-57.114,5.859],[-57.102,5.886],[-57.076,5.93],[-57.072,5.941],[-57.066,5.95],[-57.058,5.956],[-57.035,5.96],[-57.028,5.964],[-57.023,5.969],[-57.017,5.971],[-57.013,5.974],[-57,5.988],[-56.994,5.993],[-56.985,5.996],[-56.975,5.998],[-56.964,6.009],[-56.957,6.012],[-56.929,6.004],[-56.867,5.99],[-56.83,5.986],[-56.781,5.986],[-56.703,5.982],[-56.66,5.98],[-56.642,5.973],[-56.611,5.954],[-56.604,5.95],[-56.604,5.941],[-56.602,5.774],[-56.599,5.749],[-56.583,5.714],[-56.572,5.697],[-56.568,5.688],[-56.566,5.666],[-56.564,5.655],[-56.539,5.604],[-56.502,5.56],[-56.5,5.553],[-56.498,5.543],[-56.5,5.531],[-56.503,5.526],[-56.508,5.525],[-56.52,5.532],[-56.527,5.534],[-56.533,5.533],[-56.539,5.528],[-56.544,5.523],[-56.55,5.518],[-56.556,5.518],[-56.563,5.519],[-56.568,5.518],[-56.57,5.512],[-56.566,5.502],[-56.533,5.468],[-56.528,5.46],[-56.525,5.45],[-56.526,5.436],[-56.531,5.427],[-56.536,5.42],[-56.541,5.415],[-56.546,5.408],[-56.546,5.397],[-56.55,5.391],[-56.552,5.385],[-56.551,5.381],[-56.544,5.378],[-56.528,5.374],[-56.519,5.371],[-56.513,5.373],[-56.511,5.378],[-56.508,5.393],[-56.504,5.399],[-56.5,5.403],[-56.494,5.403],[-56.487,5.4],[-56.479,5.389],[-56.474,5.378],[-56.467,5.361],[-56.462,5.352],[-56.461,5.342],[-56.466,5.333],[-56.473,5.329],[-56.484,5.317],[-56.724,5.333],[-57.125,5.271],[-57.183,5.268],[-57.233,5.261],[-57.233,5.263],[-57.238,5.269],[-57.248,5.272],[-57.259,5.271],[-57.267,5.266],[-57.269,5.257],[-57.264,5.247],[-57.254,5.235],[-57.256,5.228],[-57.263,5.224],[-57.272,5.223],[-57.28,5.225],[-57.285,5.231],[-57.287,5.239],[-57.289,5.309],[-57.292,5.311],[-57.298,5.311],[-57.308,5.313],[-57.323,5.308],[-57.332,5.308]]]}},{"type":"Feature","id":"SR-PM","properties":{"id":"SR-PM","countryCode":"SR","isoSubdivision":"SR-PM","name":"Paramaribo","name_en":"Paramaribo","name_ko":"파라마리보 구","type":"District","labelLongitude":-55.171,"labelLatitude":5.843,"minZoom":8},"geometry":{"type":"Polygon","coordinates":[[[-55.23,5.902],[-55.221,5.9],[-55.213,5.9],[-55.202,5.899],[-55.188,5.897],[-55.177,5.901],[-55.164,5.907],[-55.148,5.908],[-55.131,5.896],[-55.111,5.881],[-55.103,5.866],[-55.115,5.837],[-55.13,5.821],[-55.129,5.821],[-55.145,5.807],[-55.157,5.801],[-55.15,5.78],[-55.144,5.766],[-55.187,5.78],[-55.204,5.791],[-55.211,5.799],[-55.217,5.809],[-55.221,5.819],[-55.229,5.847],[-55.231,5.883],[-55.23,5.898],[-55.23,5.902]]]}},{"type":"Feature","id":"SR-PR","properties":{"id":"SR-PR","countryCode":"SR","isoSubdivision":"SR-PR","name":"Para","name_en":"Para","name_ko":"파라 구","type":"District","labelLongitude":-55.304,"labelLatitude":5.494,"minZoom":8},"geometry":{"type":"Polygon","coordinates":[[[-55.039,5.667],[-55.075,5.65],[-55.087,5.628],[-55.089,5.626],[-55.089,5.616],[-55.089,5.615],[-55.085,5.617],[-55.075,5.615],[-55.072,5.617],[-55.067,5.62],[-55.061,5.623],[-55.055,5.622],[-55.053,5.619],[-55.055,5.615],[-55.055,5.61],[-55.051,5.609],[-55.048,5.604],[-55.047,5.594],[-55.049,5.538],[-55.03,5.532],[-55.01,5.531],[-54.628,5.559],[-54.613,5.524],[-54.608,5.489],[-54.608,5.468],[-54.61,5.454],[-54.613,5.442],[-54.617,5.432],[-54.622,5.421],[-54.655,5.375],[-54.669,5.379],[-54.679,5.365],[-54.738,5.252],[-54.75,5.22],[-54.756,5.211],[-54.792,5.18],[-54.799,5.17],[-54.803,5.163],[-54.824,5.086],[-54.835,5.028],[-54.851,4.981],[-54.859,4.975],[-54.866,4.975],[-54.873,4.98],[-54.875,4.988],[-54.875,4.995],[-54.871,5.011],[-54.871,5.051],[-54.873,5.061],[-54.876,5.071],[-54.884,5.08],[-54.892,5.087],[-54.897,5.096],[-54.897,5.105],[-54.893,5.126],[-54.894,5.137],[-54.897,5.147],[-54.903,5.158],[-54.911,5.168],[-54.92,5.176],[-54.973,5.212],[-54.982,5.221],[-54.988,5.231],[-54.991,5.242],[-54.994,5.302],[-54.999,5.312],[-55.005,5.319],[-55.026,5.323],[-55.324,5.32],[-55.35,5.315],[-55.36,5.301],[-55.362,5.291],[-55.358,5.282],[-55.353,5.276],[-55.349,5.27],[-55.347,5.263],[-55.348,5.257],[-55.351,5.248],[-55.387,5.189],[-55.42,5.156],[-55.469,5.12],[-55.503,5.08],[-55.511,5.076],[-55.522,5.074],[-55.527,5.07],[-55.535,5.058],[-55.54,5.053],[-55.544,5.048],[-55.547,5.043],[-55.55,5.03],[-55.554,5.025],[-55.56,5.021],[-55.571,5.018],[-55.574,5.015],[-55.585,5.01],[-55.603,5],[-55.633,4.987],[-55.677,4.978],[-55.688,4.982],[-55.698,4.991],[-55.706,5.013],[-55.708,5.028],[-55.709,5.04],[-55.712,5.051],[-55.718,5.062],[-55.731,5.074],[-55.742,5.082],[-55.753,5.087],[-55.817,5.108],[-55.837,5.111],[-55.858,5.109],[-55.881,5.105],[-55.93,5.091],[-55.941,5.09],[-55.952,5.091],[-55.999,5.103],[-56.001,5.121],[-56,5.154],[-55.97,5.381],[-55.917,5.54],[-55.904,5.525],[-55.9,5.512],[-55.89,5.502],[-55.89,5.492],[-55.896,5.481],[-55.906,5.471],[-55.913,5.455],[-55.914,5.441],[-55.91,5.429],[-55.907,5.413],[-55.9,5.407],[-55.891,5.405],[-55.846,5.417],[-55.834,5.416],[-55.795,5.406],[-55.491,5.43],[-55.479,5.433],[-55.472,5.437],[-55.464,5.44],[-55.458,5.437],[-55.453,5.432],[-55.446,5.426],[-55.44,5.428],[-55.437,5.434],[-55.435,5.44],[-55.43,5.445],[-55.421,5.445],[-55.406,5.452],[-55.399,5.457],[-55.396,5.462],[-55.394,5.474],[-55.392,5.481],[-55.387,5.487],[-55.382,5.494],[-55.381,5.501],[-55.381,5.507],[-55.386,5.514],[-55.401,5.526],[-55.405,5.532],[-55.406,5.539],[-55.399,5.552],[-55.396,5.566],[-55.393,5.574],[-55.385,5.581],[-55.379,5.588],[-55.376,5.595],[-55.377,5.602],[-55.381,5.609],[-55.386,5.614],[-55.39,5.62],[-55.387,5.626],[-55.376,5.635],[-55.359,5.639],[-55.349,5.643],[-55.344,5.649],[-55.344,5.656],[-55.347,5.662],[-55.352,5.673],[-55.255,5.662],[-55.222,5.662],[-55.115,5.683],[-55.089,5.682],[-55.039,5.667]]]}},{"type":"Feature","id":"SR-SA","properties":{"id":"SR-SA","countryCode":"SR","isoSubdivision":"SR-SA","name":"Saramacca","name_en":"Saramacca","name_ko":"사라마카 구","type":"District","labelLongitude":-55.614,"labelLatitude":5.702,"minZoom":8},"geometry":{"type":"Polygon","coordinates":[[[-55.897,5.677],[-55.89,5.677],[-55.885,5.692],[-55.883,5.708],[-55.884,5.742],[-55.887,5.759],[-55.905,5.797],[-55.915,5.822],[-55.9,5.842],[-55.91,5.851],[-55.922,5.85],[-55.934,5.85],[-55.948,5.862],[-55.951,5.882],[-55.947,5.896],[-55.93,5.918],[-55.924,5.928],[-55.91,5.942],[-55.901,5.952],[-55.886,5.963],[-55.868,5.97],[-55.844,5.976],[-55.82,5.977],[-55.729,5.981],[-55.679,5.985],[-55.637,5.986],[-55.395,5.974],[-55.336,5.963],[-55.308,5.943],[-55.292,5.937],[-55.271,5.93],[-55.264,5.926],[-55.253,5.918],[-55.254,5.916],[-55.318,5.78],[-55.346,5.75],[-55.355,5.744],[-55.357,5.733],[-55.358,5.709],[-55.352,5.673],[-55.347,5.662],[-55.344,5.656],[-55.344,5.649],[-55.349,5.643],[-55.359,5.639],[-55.376,5.635],[-55.387,5.626],[-55.39,5.62],[-55.386,5.614],[-55.381,5.609],[-55.377,5.602],[-55.376,5.595],[-55.379,5.588],[-55.385,5.581],[-55.393,5.574],[-55.396,5.566],[-55.399,5.552],[-55.406,5.539],[-55.405,5.532],[-55.401,5.526],[-55.386,5.514],[-55.381,5.507],[-55.381,5.501],[-55.382,5.494],[-55.387,5.487],[-55.392,5.481],[-55.394,5.474],[-55.396,5.462],[-55.399,5.457],[-55.406,5.452],[-55.421,5.445],[-55.43,5.445],[-55.435,5.44],[-55.437,5.434],[-55.44,5.428],[-55.446,5.426],[-55.453,5.432],[-55.458,5.437],[-55.464,5.44],[-55.472,5.437],[-55.479,5.433],[-55.491,5.43],[-55.795,5.406],[-55.834,5.416],[-55.846,5.417],[-55.891,5.405],[-55.9,5.407],[-55.907,5.413],[-55.91,5.429],[-55.914,5.441],[-55.913,5.455],[-55.906,5.471],[-55.896,5.481],[-55.89,5.492],[-55.89,5.502],[-55.9,5.512],[-55.904,5.525],[-55.917,5.54],[-55.923,5.559],[-55.93,5.567],[-55.934,5.57],[-55.96,5.599],[-55.968,5.611],[-55.972,5.618],[-55.974,5.625],[-55.974,5.631],[-55.972,5.639],[-55.97,5.644],[-55.964,5.648],[-55.956,5.651],[-55.928,5.654],[-55.913,5.658],[-55.899,5.672],[-55.897,5.677]]]}},{"type":"Feature","id":"SR-SI","properties":{"id":"SR-SI","countryCode":"SR","isoSubdivision":"SR-SI","name":"Sipaliwini","name_en":"Sipaliwini","name_ko":"시팔리비니 구","type":"District","labelLongitude":-55.992,"labelLatitude":3.532,"minZoom":8},"geometry":{"type":"Polygon","coordinates":[[[-54.08,3.31],[-54.081,3.309],[-54.114,3.285],[-54.14,3.245],[-54.177,3.201],[-54.19,3.178],[-54.211,3.127],[-54.188,3.131],[-54.177,3.117],[-54.175,3.094],[-54.177,3.073],[-54.179,3.07],[-54.184,3.068],[-54.188,3.065],[-54.191,3.059],[-54.189,3.058],[-54.179,3.052],[-54.177,3.049],[-54.171,3.025],[-54.169,3.011],[-54.174,3.005],[-54.185,2.998],[-54.18,2.984],[-54.169,2.971],[-54.163,2.97],[-54.163,2.956],[-54.17,2.925],[-54.173,2.92],[-54.187,2.899],[-54.191,2.888],[-54.191,2.877],[-54.19,2.871],[-54.183,2.864],[-54.17,2.853],[-54.182,2.847],[-54.189,2.838],[-54.205,2.792],[-54.213,2.776],[-54.285,2.678],[-54.32,2.607],[-54.359,2.508],[-54.376,2.484],[-54.423,2.436],[-54.435,2.431],[-54.451,2.429],[-54.473,2.429],[-54.483,2.423],[-54.493,2.417],[-54.52,2.349],[-54.532,2.34],[-54.551,2.338],[-54.585,2.348],[-54.599,2.346],[-54.615,2.326],[-54.634,2.32],[-54.653,2.317],[-54.673,2.316],[-54.692,2.319],[-54.704,2.325],[-54.707,2.333],[-54.705,2.343],[-54.707,2.353],[-54.716,2.376],[-54.71,2.395],[-54.707,2.396],[-54.702,2.396],[-54.697,2.397],[-54.696,2.404],[-54.697,2.409],[-54.701,2.42],[-54.703,2.426],[-54.703,2.446],[-54.708,2.45],[-54.721,2.458],[-54.743,2.467],[-54.76,2.466],[-54.775,2.457],[-54.792,2.448],[-54.842,2.433],[-54.88,2.447],[-54.979,2.543],[-54.983,2.552],[-54.98,2.566],[-54.96,2.586],[-54.954,2.599],[-54.959,2.609],[-54.977,2.607],[-55.018,2.591],[-55.038,2.578],[-55.076,2.545],[-55.112,2.528],[-55.121,2.525],[-55.129,2.526],[-55.137,2.534],[-55.133,2.553],[-55.138,2.562],[-55.172,2.559],[-55.252,2.498],[-55.275,2.499],[-55.287,2.514],[-55.303,2.52],[-55.321,2.518],[-55.338,2.511],[-55.355,2.495],[-55.36,2.476],[-55.363,2.458],[-55.371,2.443],[-55.4,2.43],[-55.436,2.431],[-55.474,2.436],[-55.511,2.436],[-55.568,2.431],[-55.587,2.434],[-55.608,2.434],[-55.645,2.417],[-55.724,2.397],[-55.744,2.401],[-55.755,2.409],[-55.766,2.431],[-55.774,2.44],[-55.783,2.445],[-55.854,2.463],[-55.871,2.471],[-55.925,2.516],[-55.947,2.528],[-55.971,2.53],[-55.983,2.526],[-55.989,2.521],[-55.997,2.503],[-56.008,2.461],[-56.008,2.416],[-56.013,2.399],[-56.043,2.355],[-56.05,2.347],[-56.062,2.342],[-56.073,2.342],[-56.082,2.348],[-56.091,2.352],[-56.104,2.349],[-56.117,2.333],[-56.132,2.304],[-56.144,2.275],[-56.147,2.256],[-56.135,2.249],[-56.091,2.246],[-56.073,2.242],[-56.054,2.224],[-56.045,2.185],[-56.031,2.163],[-56.004,2.145],[-55.996,2.137],[-55.96,2.091],[-55.926,2.062],[-55.918,2.05],[-55.915,2.038],[-55.917,2.029],[-55.92,2.019],[-55.924,2.007],[-55.922,1.962],[-55.917,1.922],[-55.922,1.886],[-55.954,1.853],[-56.02,1.834],[-56.083,1.847],[-56.145,1.872],[-56.21,1.889],[-56.258,1.886],[-56.274,1.888],[-56.293,1.895],[-56.329,1.918],[-56.348,1.927],[-56.367,1.929],[-56.397,1.922],[-56.415,1.92],[-56.43,1.923],[-56.482,1.942],[-56.485,1.953],[-56.491,1.963],[-56.5,1.97],[-56.521,1.977],[-56.529,1.982],[-56.536,1.989],[-56.542,1.997],[-56.58,2.017],[-56.678,2.018],[-56.705,2.03],[-56.801,2.166],[-56.809,2.196],[-56.816,2.218],[-56.826,2.262],[-56.839,2.281],[-56.848,2.286],[-56.871,2.29],[-56.88,2.295],[-56.884,2.304],[-56.884,2.34],[-56.895,2.362],[-56.931,2.393],[-56.938,2.411],[-56.932,2.426],[-56.93,2.436],[-56.935,2.446],[-56.952,2.461],[-56.956,2.47],[-56.96,2.484],[-56.958,2.493],[-56.953,2.505],[-56.951,2.515],[-56.96,2.525],[-56.98,2.51],[-56.994,2.505],[-57.001,2.514],[-56.995,2.548],[-56.997,2.555],[-57.022,2.585],[-57.027,2.594],[-57.028,2.611],[-57.023,2.624],[-57.02,2.635],[-57.027,2.648],[-57.048,2.636],[-57.056,2.642],[-57.062,2.682],[-57.072,2.7],[-57.098,2.727],[-57.103,2.74],[-57.099,2.75],[-57.092,2.763],[-57.09,2.774],[-57.1,2.779],[-57.134,2.773],[-57.137,2.771],[-57.144,2.79],[-57.126,2.826],[-57.133,2.833],[-57.145,2.83],[-57.165,2.821],[-57.175,2.819],[-57.187,2.823],[-57.191,2.833],[-57.194,2.842],[-57.202,2.846],[-57.206,2.857],[-57.22,2.908],[-57.21,2.918],[-57.195,2.931],[-57.184,2.945],[-57.189,2.96],[-57.222,2.963],[-57.235,2.97],[-57.226,2.983],[-57.221,2.993],[-57.222,3],[-57.225,3.009],[-57.226,3.021],[-57.223,3.025],[-57.209,3.024],[-57.206,3.028],[-57.207,3.036],[-57.212,3.048],[-57.213,3.056],[-57.222,3.078],[-57.239,3.094],[-57.249,3.112],[-57.233,3.142],[-57.237,3.143],[-57.237,3.144],[-57.238,3.145],[-57.239,3.148],[-57.246,3.142],[-57.255,3.136],[-57.265,3.133],[-57.275,3.134],[-57.286,3.142],[-57.284,3.149],[-57.278,3.157],[-57.275,3.169],[-57.286,3.192],[-57.288,3.203],[-57.287,3.215],[-57.282,3.236],[-57.28,3.248],[-57.284,3.26],[-57.29,3.268],[-57.292,3.276],[-57.284,3.289],[-57.283,3.295],[-57.28,3.33],[-57.284,3.344],[-57.308,3.395],[-57.34,3.37],[-57.367,3.366],[-57.393,3.374],[-57.425,3.387],[-57.424,3.369],[-57.431,3.361],[-57.459,3.353],[-57.462,3.35],[-57.469,3.343],[-57.476,3.339],[-57.48,3.343],[-57.482,3.349],[-57.488,3.352],[-57.496,3.353],[-57.504,3.353],[-57.51,3.358],[-57.522,3.365],[-57.535,3.368],[-57.545,3.348],[-57.554,3.347],[-57.565,3.35],[-57.596,3.367],[-57.613,3.377],[-57.641,3.382],[-57.65,3.386],[-57.655,3.39],[-57.658,3.395],[-57.663,3.407],[-57.665,3.418],[-57.664,3.426],[-57.659,3.444],[-57.658,3.451],[-57.661,3.463],[-57.661,3.47],[-57.645,3.499],[-57.644,3.517],[-57.66,3.535],[-57.681,3.547],[-57.685,3.549],[-57.687,3.552],[-57.698,3.554],[-57.703,3.556],[-57.707,3.561],[-57.709,3.564],[-57.71,3.568],[-57.717,3.582],[-57.722,3.6],[-57.726,3.607],[-57.764,3.632],[-57.813,3.652],[-57.83,3.662],[-57.841,3.681],[-57.847,3.702],[-57.85,3.747],[-57.854,3.767],[-57.875,3.812],[-57.926,3.886],[-57.942,3.905],[-58.008,3.957],[-58.032,3.988],[-58.042,4.023],[-58.055,4.108],[-58.068,4.151],[-58.066,4.172],[-58.052,4.193],[-57.965,4.282],[-57.954,4.299],[-57.947,4.319],[-57.945,4.344],[-57.948,4.36],[-57.953,4.376],[-57.957,4.391],[-57.953,4.41],[-57.943,4.425],[-57.931,4.438],[-57.922,4.451],[-57.914,4.484],[-57.896,4.529],[-57.879,4.557],[-57.863,4.608],[-57.845,4.634],[-57.837,4.651],[-57.836,4.67],[-57.844,4.688],[-57.871,4.722],[-57.885,4.763],[-57.901,4.774],[-57.918,4.782],[-57.925,4.796],[-57.919,4.83],[-57.902,4.853],[-57.884,4.872],[-57.871,4.889],[-57.85,4.923],[-57.843,4.93],[-57.83,4.933],[-57.821,4.93],[-57.811,4.926],[-57.798,4.923],[-57.774,4.926],[-57.762,4.936],[-57.747,4.964],[-57.72,4.99],[-57.687,5.006],[-57.649,5.008],[-57.61,4.991],[-57.566,5.007],[-57.543,5.011],[-57.518,5.012],[-57.512,5.009],[-57.497,4.995],[-57.49,4.991],[-57.477,4.992],[-57.46,4.998],[-57.381,5.006],[-57.356,5.012],[-57.346,5.017],[-57.338,5.021],[-57.329,5.024],[-57.315,5.026],[-57.306,5.024],[-57.299,5.021],[-57.29,5.02],[-57.28,5.026],[-57.317,5.059],[-57.321,5.07],[-57.32,5.083],[-57.317,5.095],[-57.302,5.128],[-57.296,5.157],[-57.289,5.171],[-57.278,5.177],[-57.26,5.176],[-57.247,5.172],[-57.239,5.162],[-57.233,5.142],[-57.218,5.149],[-57.202,5.158],[-57.19,5.169],[-57.185,5.183],[-57.192,5.203],[-57.226,5.244],[-57.233,5.261],[-57.183,5.268],[-57.125,5.271],[-56.724,5.333],[-56.484,5.317],[-56.39,5.32],[-56.374,5.328],[-56.361,5.337],[-56.34,5.354],[-56.322,5.373],[-56.307,5.382],[-56.287,5.388],[-56.229,5.392],[-56.13,5.387],[-56.069,5.391],[-56.06,5.395],[-56.042,5.429],[-56.024,5.434],[-56.02,5.438],[-56.011,5.453],[-56.005,5.46],[-55.981,5.474],[-55.967,5.478],[-55.964,5.482],[-55.963,5.492],[-55.972,5.509],[-55.973,5.514],[-55.971,5.519],[-55.958,5.527],[-55.917,5.54],[-55.97,5.381],[-56,5.154],[-56.001,5.121],[-55.999,5.103],[-55.952,5.091],[-55.941,5.09],[-55.93,5.091],[-55.881,5.105],[-55.858,5.109],[-55.837,5.111],[-55.817,5.108],[-55.753,5.087],[-55.742,5.082],[-55.731,5.074],[-55.718,5.062],[-55.712,5.051],[-55.709,5.04],[-55.708,5.028],[-55.706,5.013],[-55.698,4.991],[-55.688,4.982],[-55.677,4.978],[-55.633,4.987],[-55.603,5],[-55.585,5.01],[-55.574,5.015],[-55.571,5.018],[-55.56,5.021],[-55.554,5.025],[-55.55,5.03],[-55.547,5.043],[-55.544,5.048],[-55.54,5.053],[-55.535,5.058],[-55.527,5.07],[-55.522,5.074],[-55.511,5.076],[-55.503,5.08],[-55.402,4.922],[-55.388,4.891],[-55.376,4.854],[-55.36,4.69],[-55.367,4.497],[-55.367,4.49],[-55.366,4.49],[-55.365,4.489],[-55.353,4.475],[-55.34,4.452],[-55.334,4.436],[-55.331,4.422],[-55.311,4.07],[-55.304,4.037],[-55.299,4.027],[-55.29,4.019],[-55.281,4.014],[-55.27,4.012],[-55.26,4.013],[-55.249,4.016],[-55.184,4.049],[-55.174,4.057],[-55.131,4.098],[-55.12,4.105],[-55.109,4.109],[-55.097,4.112],[-55.065,4.116],[-55.055,4.119],[-55.046,4.126],[-55.037,4.136],[-55.025,4.157],[-55.019,4.166],[-55.011,4.172],[-55.002,4.173],[-54.995,4.171],[-54.984,4.161],[-54.967,4.135],[-54.957,4.129],[-54.947,4.133],[-54.94,4.141],[-54.936,4.152],[-54.929,4.174],[-54.924,4.185],[-54.897,4.229],[-54.875,4.289],[-54.873,4.298],[-54.874,4.32],[-54.875,4.33],[-54.893,4.383],[-54.898,4.405],[-54.899,4.417],[-54.899,4.429],[-54.897,4.44],[-54.892,4.453],[-54.884,4.464],[-54.851,4.494],[-54.832,4.516],[-54.825,4.527],[-54.821,4.538],[-54.817,4.561],[-54.818,4.649],[-54.818,4.66],[-54.814,4.671],[-54.799,4.701],[-54.795,4.712],[-54.793,4.735],[-54.79,4.746],[-54.786,4.756],[-54.774,4.778],[-54.77,4.79],[-54.767,4.802],[-54.766,4.827],[-54.763,4.838],[-54.758,4.849],[-54.745,4.87],[-54.741,4.88],[-54.74,4.89],[-54.742,4.901],[-54.745,4.909],[-54.757,4.931],[-54.784,4.955],[-54.851,4.981],[-54.835,5.028],[-54.824,5.086],[-54.803,5.163],[-54.799,5.17],[-54.792,5.18],[-54.756,5.211],[-54.75,5.22],[-54.738,5.252],[-54.679,5.365],[-54.669,5.379],[-54.655,5.375],[-54.473,5.306],[-54.459,5.299],[-54.404,5.261],[-54.368,5.249],[-54.354,5.242],[-54.345,5.237],[-54.321,5.213],[-54.321,5.212],[-54.332,5.196],[-54.344,5.156],[-54.35,5.15],[-54.365,5.139],[-54.37,5.132],[-54.372,5.121],[-54.376,5.115],[-54.43,5.053],[-54.449,5.024],[-54.455,5.009],[-54.458,4.991],[-54.449,4.951],[-54.451,4.937],[-54.456,4.931],[-54.482,4.913],[-54.487,4.903],[-54.485,4.893],[-54.479,4.879],[-54.479,4.755],[-54.475,4.742],[-54.467,4.736],[-54.457,4.733],[-54.447,4.728],[-54.435,4.709],[-54.435,4.692],[-54.439,4.673],[-54.438,4.649],[-54.425,4.616],[-54.423,4.604],[-54.423,4.563],[-54.428,4.546],[-54.448,4.51],[-54.451,4.484],[-54.433,4.376],[-54.403,4.313],[-54.394,4.27],[-54.393,4.244],[-54.4,4.227],[-54.411,4.209],[-54.407,4.192],[-54.395,4.178],[-54.382,4.17],[-54.349,4.161],[-54.339,4.152],[-54.335,4.132],[-54.338,4.117],[-54.351,4.082],[-54.355,4.067],[-54.354,4.042],[-54.344,4.025],[-54.31,3.994],[-54.304,3.984],[-54.293,3.95],[-54.286,3.941],[-54.273,3.93],[-54.266,3.923],[-54.241,3.876],[-54.222,3.866],[-54.218,3.858],[-54.215,3.858],[-54.207,3.846],[-54.197,3.827],[-54.187,3.815],[-54.182,3.811],[-54.17,3.806],[-54.136,3.796],[-54.126,3.789],[-54.105,3.758],[-54.094,3.747],[-54.074,3.676],[-54.051,3.641],[-54.05,3.635],[-54.039,3.636],[-54.028,3.64],[-54.018,3.641],[-54.009,3.638],[-53.995,3.624],[-53.989,3.611],[-53.99,3.596],[-53.998,3.573],[-54.006,3.531],[-54.003,3.455],[-54.019,3.415],[-54.056,3.378],[-54.06,3.364],[-54.063,3.347],[-54.069,3.327],[-54.08,3.31]]]}},{"type":"Feature","id":"SR-WA","properties":{"id":"SR-WA","countryCode":"SR","isoSubdivision":"SR-WA","name":"Wanica","name_en":"Wanica","name_ko":"바니카 구","type":"District","labelLongitude":-55.193,"labelLatitude":5.726,"minZoom":8},"geometry":{"type":"Polygon","coordinates":[[[-55.253,5.918],[-55.243,5.909],[-55.233,5.903],[-55.23,5.902],[-55.23,5.898],[-55.231,5.883],[-55.229,5.847],[-55.221,5.819],[-55.217,5.809],[-55.211,5.799],[-55.204,5.791],[-55.187,5.78],[-55.144,5.766],[-55.141,5.76],[-55.129,5.741],[-55.114,5.725],[-55.096,5.712],[-55.056,5.699],[-55.036,5.69],[-55.027,5.677],[-55.034,5.669],[-55.039,5.667],[-55.089,5.682],[-55.115,5.683],[-55.222,5.662],[-55.255,5.662],[-55.352,5.673],[-55.358,5.709],[-55.357,5.733],[-55.355,5.744],[-55.346,5.75],[-55.318,5.78],[-55.254,5.916],[-55.253,5.918]]]}}]}
