{"type":"FeatureCollection","features":[{"type":"Feature","id":"SS-BN","properties":{"id":"SS-BN","countryCode":"SS","isoSubdivision":"SS-BN","name":"Northern Bahr el Ghazal","name_en":"Northern Bahr el Ghazal","name_ko":"북바르알가잘","type":"State","labelLongitude":27.535,"labelLatitude":8.904,"minZoom":6.6},"geometry":{"type":"Polygon","coordinates":[[[27.895,9.595],[27.997,9.385],[28.045,9.331],[28.444,9.328],[28.843,9.325],[28.844,9.325],[28.845,9.324],[28.858,9.321],[28.865,9.321],[28.874,9.317],[28.88,9.313],[28.886,9.312],[28.892,9.313],[28.9,9.315],[28.908,9.316],[28.915,9.319],[28.923,9.316],[28.931,9.313],[28.942,9.311],[28.951,9.307],[28.969,9.297],[28.977,9.291],[28.99,9.278],[29,9.272],[28.999,9.267],[28.996,9.259],[28.975,9.242],[28.953,9.232],[28.906,9.217],[28.886,9.198],[28.869,9.167],[28.845,9.059],[28.834,9.032],[28.401,9],[28.399,8.999],[28.384,8.992],[28.375,8.991],[28.365,8.991],[28.299,8.998],[28.289,9.001],[28.118,9.007],[28.004,8.997],[27.961,8.987],[27.932,8.974],[27.912,8.959],[27.891,8.931],[27.871,8.872],[27.858,8.72],[27.845,8.676],[27.816,8.623],[27.786,8.582],[27.765,8.538],[27.7,8.251],[27.558,8.214],[26.958,7.931],[26.848,7.857],[26.786,7.824],[26.76,7.814],[26.735,7.809],[26.707,7.807],[26.673,7.812],[26.633,7.828],[26.304,8.041],[26.245,8.093],[26.185,8.179],[26.149,8.291],[26.127,8.428],[26.123,8.567],[26.07,8.905],[26.074,9.564],[26.107,9.906],[26.102,9.988],[26.103,9.988],[26.179,9.959],[26.368,9.74],[26.557,9.52],[26.601,9.492],[26.626,9.481],[26.684,9.476],[26.694,9.477],[27.08,9.607],[27.339,9.613],[27.385,9.605],[27.528,9.605],[27.609,9.595],[27.615,9.596],[27.636,9.601],[27.641,9.602],[27.77,9.583],[27.868,9.589],[27.885,9.591],[27.895,9.595]]]}},{"type":"Feature","id":"SS-BW","properties":{"id":"SS-BW","countryCode":"SS","isoSubdivision":"SS-BW","name":"Western Bahr el Ghazal","name_en":"Western Bahr el Ghazal","name_ko":"서바르알가잘","type":"State","labelLongitude":26.38,"labelLatitude":7.311,"minZoom":6.6},"geometry":{"type":"Polygon","coordinates":[[[24.263,8.269],[24.257,8.269],[24.222,8.277],[24.207,8.283],[24.18,8.298],[24.153,8.318],[24.131,8.343],[24.122,8.372],[24.125,8.405],[24.137,8.439],[24.193,8.532],[24.203,8.543],[24.244,8.57],[24.251,8.58],[24.246,8.592],[24.218,8.613],[24.211,8.627],[24.215,8.641],[24.233,8.668],[24.236,8.682],[24.218,8.692],[24.18,8.691],[24.17,8.689],[24.175,8.696],[24.177,8.71],[24.183,8.718],[24.241,8.762],[24.271,8.776],[24.38,8.844],[24.403,8.849],[24.494,8.858],[24.543,8.875],[24.553,8.88],[24.558,8.887],[24.558,8.993],[24.559,9],[24.565,9.015],[24.656,9.167],[24.66,9.177],[24.661,9.182],[24.68,9.373],[24.687,9.391],[24.695,9.403],[24.724,9.429],[24.785,9.498],[24.793,9.52],[24.794,9.532],[24.793,9.798],[24.796,9.819],[24.8,9.825],[24.804,9.829],[24.807,9.83],[24.817,9.831],[24.828,9.833],[24.836,9.837],[24.845,9.842],[24.879,9.87],[24.914,9.891],[24.927,9.905],[24.954,9.942],[24.968,9.956],[24.976,9.967],[24.985,9.986],[24.991,10.003],[25.017,10.057],[25.028,10.086],[25.029,10.092],[25.029,10.098],[25.029,10.104],[25.026,10.114],[25.017,10.133],[25.016,10.138],[25.014,10.149],[25.014,10.157],[25.017,10.168],[25.067,10.275],[25.077,10.287],[25.084,10.293],[25.09,10.296],[25.106,10.3],[25.121,10.306],[25.131,10.308],[25.157,10.306],[25.168,10.308],[25.193,10.317],[25.198,10.318],[25.21,10.316],[25.217,10.317],[25.226,10.321],[25.233,10.322],[25.24,10.323],[25.252,10.321],[25.257,10.319],[25.267,10.315],[25.273,10.313],[25.279,10.312],[25.285,10.312],[25.29,10.313],[25.3,10.317],[25.305,10.317],[25.316,10.316],[25.322,10.316],[25.327,10.317],[25.346,10.325],[25.351,10.327],[25.363,10.328],[25.369,10.328],[25.381,10.329],[25.392,10.333],[25.401,10.337],[25.416,10.342],[25.427,10.344],[25.439,10.345],[25.48,10.344],[25.491,10.346],[25.503,10.349],[25.506,10.35],[25.58,10.375],[25.623,10.386],[25.629,10.387],[25.661,10.387],[25.684,10.391],[25.7,10.395],[25.706,10.396],[25.746,10.394],[25.754,10.395],[25.763,10.398],[25.784,10.408],[25.828,10.42],[25.839,10.421],[25.843,10.418],[25.887,10.364],[25.892,10.356],[25.894,10.351],[25.895,10.346],[25.901,10.191],[25.903,10.186],[25.905,10.181],[25.912,10.174],[25.92,10.168],[25.956,10.147],[25.971,10.14],[25.998,10.132],[26.001,10.131],[26.007,10.126],[26.011,10.123],[26.017,10.115],[26.076,10.018],[26.088,10.003],[26.102,9.988],[26.107,9.906],[26.074,9.564],[26.07,8.905],[26.123,8.567],[26.127,8.428],[26.149,8.291],[26.185,8.179],[26.245,8.093],[26.304,8.041],[26.633,7.828],[26.673,7.812],[26.707,7.807],[26.735,7.809],[26.76,7.814],[26.786,7.824],[26.848,7.857],[26.958,7.931],[27.558,8.214],[27.7,8.251],[27.744,8.205],[27.874,7.993],[27.936,7.915],[27.959,7.892],[27.974,7.882],[27.993,7.874],[28.145,7.848],[28.194,7.827],[28.265,7.783],[28.349,7.719],[28.475,7.65],[28.517,7.635],[28.55,7.617],[28.564,7.594],[28.562,7.568],[28.551,7.543],[28.547,7.522],[28.555,7.503],[28.594,7.472],[28.606,7.448],[28.611,7.408],[28.608,7.246],[28.59,7.089],[28.599,6.965],[28.64,6.736],[28.132,6.693],[28.119,6.694],[28.106,6.699],[28.097,6.703],[27.935,6.817],[26.406,6.635],[26.379,6.631],[26.378,6.653],[26.33,6.681],[26.271,6.702],[26.236,6.72],[26.219,6.738],[26.179,6.766],[26.148,6.805],[26.132,6.812],[26.114,6.816],[26.091,6.83],[26.081,6.842],[26.077,6.853],[26.076,6.865],[26.072,6.877],[26.071,6.884],[26.073,6.89],[26.074,6.895],[26.069,6.899],[26.063,6.899],[26.057,6.897],[26.051,6.897],[26.045,6.9],[26.036,6.922],[26.032,6.974],[26.026,6.997],[25.981,7],[25.969,7.004],[25.967,7.01],[25.966,7.017],[25.96,7.024],[25.95,7.029],[25.93,7.032],[25.92,7.034],[25.889,7.052],[25.884,7.061],[25.882,7.08],[25.877,7.088],[25.861,7.096],[25.816,7.1],[25.801,7.105],[25.792,7.121],[25.792,7.134],[25.786,7.143],[25.761,7.144],[25.75,7.147],[25.734,7.162],[25.725,7.167],[25.705,7.166],[25.697,7.169],[25.673,7.188],[25.654,7.195],[25.592,7.211],[25.577,7.22],[25.532,7.261],[25.517,7.27],[25.5,7.273],[25.481,7.266],[25.455,7.278],[25.416,7.308],[25.36,7.336],[25.347,7.345],[25.336,7.36],[25.331,7.374],[25.324,7.403],[25.316,7.417],[25.31,7.422],[25.293,7.427],[25.285,7.432],[25.279,7.438],[25.27,7.454],[25.263,7.461],[25.25,7.47],[25.19,7.501],[25.169,7.551],[25.165,7.567],[25.165,7.58],[25.187,7.6],[25.253,7.622],[25.275,7.642],[25.279,7.659],[25.276,7.674],[25.271,7.688],[25.267,7.703],[25.271,7.746],[25.27,7.761],[25.265,7.778],[25.25,7.804],[25.239,7.836],[25.23,7.852],[25.217,7.864],[25.192,7.872],[25.185,7.878],[25.181,7.884],[25.173,7.889],[25.149,7.893],[25.134,7.893],[25.103,7.886],[25.09,7.885],[25.059,7.896],[25.029,7.919],[24.981,7.972],[24.973,7.977],[24.965,7.983],[24.958,7.989],[24.953,7.997],[24.951,8.014],[24.93,8.035],[24.928,8.071],[24.918,8.087],[24.832,8.166],[24.8,8.18],[24.742,8.187],[24.711,8.204],[24.69,8.207],[24.671,8.207],[24.615,8.217],[24.545,8.206],[24.513,8.207],[24.481,8.227],[24.472,8.229],[24.464,8.233],[24.459,8.24],[24.455,8.249],[24.431,8.271],[24.397,8.268],[24.332,8.246],[24.327,8.249],[24.31,8.262],[24.303,8.265],[24.295,8.267],[24.281,8.267],[24.263,8.269]]]}},{"type":"Feature","id":"SS-EC","properties":{"id":"SS-EC","countryCode":"SS","isoSubdivision":"SS-EC","name":"Central Equatoria","name_en":"Central Equatoria","name_ko":"중앙에콰토리아","type":"State","labelLongitude":31.285,"labelLatitude":4.681,"minZoom":6.6},"geometry":{"type":"Polygon","coordinates":[[[29.815,4.347],[29.788,4.369],[29.776,4.406],[29.777,4.449],[29.786,4.479],[29.787,4.49],[29.785,4.499],[29.779,4.515],[29.778,4.524],[29.784,4.534],[29.788,4.539],[29.817,4.555],[30,4.698],[30.038,4.74],[30.062,4.761],[30.085,4.777],[30.111,4.787],[30.132,4.792],[30.158,4.791],[30.18,4.783],[30.202,4.767],[30.267,4.708],[30.292,4.693],[30.318,4.687],[30.35,4.692],[30.385,4.71],[30.517,4.839],[30.563,4.873],[30.677,4.931],[30.816,4.976],[30.838,4.989],[30.85,5],[30.856,5.011],[30.86,5.024],[30.863,5.044],[30.879,5.34],[30.889,5.389],[30.907,5.432],[30.953,5.502],[30.964,5.538],[30.96,5.581],[30.938,5.63],[30.908,5.681],[30.835,5.748],[30.778,5.787],[30.757,5.811],[30.73,5.857],[30.706,5.888],[30.666,5.926],[30.556,6.01],[30.435,6.12],[30.657,6.139],[30.746,6.157],[30.819,6.194],[30.87,6.193],[31.056,6.035],[31.178,5.983],[31.517,5.921],[31.584,5.886],[31.621,5.882],[31.671,5.927],[32.208,5.896],[32.183,5.785],[32.192,5.157],[32.216,5.068],[32.23,5.029],[32.31,4.891],[32.325,4.856],[32.335,4.82],[32.333,4.789],[32.322,4.755],[32.302,4.717],[32.245,4.633],[32.152,4.43],[32.114,4.282],[32.095,4.242],[32.071,4.211],[32.037,4.178],[31.933,4.103],[31.914,4.081],[31.895,4.045],[31.829,3.863],[31.804,3.824],[31.801,3.807],[31.801,3.806],[31.781,3.816],[31.778,3.816],[31.776,3.811],[31.696,3.721],[31.687,3.713],[31.669,3.705],[31.614,3.697],[31.565,3.69],[31.547,3.681],[31.536,3.666],[31.535,3.666],[31.524,3.656],[31.505,3.66],[31.378,3.729],[31.295,3.774],[31.256,3.787],[31.215,3.792],[31.168,3.792],[31.141,3.785],[31.104,3.756],[31.078,3.735],[31.069,3.732],[31.05,3.728],[31.04,3.724],[31.01,3.7],[30.996,3.694],[30.986,3.692],[30.966,3.693],[30.956,3.689],[30.944,3.679],[30.939,3.668],[30.936,3.657],[30.932,3.645],[30.866,3.549],[30.844,3.506],[30.84,3.49],[30.828,3.511],[30.838,3.563],[30.823,3.58],[30.792,3.593],[30.779,3.603],[30.772,3.618],[30.769,3.652],[30.765,3.662],[30.747,3.675],[30.731,3.663],[30.715,3.644],[30.693,3.632],[30.665,3.632],[30.654,3.631],[30.636,3.624],[30.605,3.607],[30.592,3.604],[30.573,3.601],[30.562,3.601],[30.553,3.605],[30.543,3.613],[30.543,3.618],[30.549,3.624],[30.555,3.636],[30.562,3.675],[30.563,3.695],[30.539,3.842],[30.525,3.868],[30.516,3.871],[30.506,3.87],[30.495,3.867],[30.486,3.866],[30.466,3.866],[30.457,3.868],[30.419,3.88],[30.338,3.928],[30.271,3.949],[30.206,3.95],[30.189,3.956],[30.182,3.966],[30.18,3.976],[30.18,3.986],[30.178,3.997],[30.172,4.008],[30.147,4.037],[30.139,4.06],[30.133,4.083],[30.123,4.102],[30.1,4.115],[30.058,4.124],[30.043,4.133],[30.028,4.154],[30.005,4.199],[29.989,4.218],[29.966,4.232],[29.954,4.234],[29.943,4.234],[29.932,4.236],[29.924,4.246],[29.923,4.258],[29.929,4.268],[29.937,4.278],[29.94,4.288],[29.93,4.309],[29.908,4.329],[29.883,4.344],[29.861,4.347],[29.815,4.347]]]}},{"type":"Feature","id":"SS-EE","properties":{"id":"SS-EE","countryCode":"SS","isoSubdivision":"SS-EE","name":"Eastern Equatoria","name_en":"Eastern Equatoria","name_ko":"동에콰토리아","type":"State","labelLongitude":33.535,"labelLatitude":4.796,"minZoom":6.6},"geometry":{"type":"Polygon","coordinates":[[[35.269,5.492],[35.274,5.48],[35.268,5.469],[35.259,5.458],[35.252,5.447],[35.251,5.435],[35.255,5.426],[35.287,5.374],[35.302,5.357],[35.321,5.349],[35.345,5.352],[35.367,5.368],[35.408,5.413],[35.43,5.427],[35.448,5.431],[35.469,5.431],[35.49,5.428],[35.508,5.423],[35.531,5.41],[35.574,5.375],[35.598,5.369],[35.622,5.374],[35.64,5.382],[35.658,5.386],[35.684,5.38],[35.749,5.339],[35.804,5.318],[35.809,5.309],[35.782,5.27],[35.775,5.247],[35.778,5.227],[35.798,5.189],[35.807,5.165],[35.807,5.145],[35.799,5.125],[35.761,5.076],[35.756,5.063],[35.752,4.854],[35.76,4.806],[35.785,4.764],[35.921,4.619],[35.857,4.62],[35.781,4.62],[35.778,4.678],[35.739,4.681],[35.712,4.662],[35.706,4.62],[35.706,4.619],[35.7,4.589],[35.612,4.619],[35.611,4.62],[35.61,4.621],[35.563,4.707],[35.522,4.78],[35.571,4.904],[35.496,4.926],[35.396,4.926],[35.434,5.004],[35.412,5.03],[35.334,4.987],[35.263,4.949],[35.246,4.982],[35.176,4.956],[35.094,4.925],[35.003,4.89],[34.921,4.86],[34.845,4.831],[34.764,4.8],[34.666,4.765],[34.598,4.731],[34.529,4.696],[34.46,4.661],[34.381,4.62],[34.28,4.52],[34.179,4.42],[34.078,4.32],[33.977,4.22],[33.896,4.138],[33.814,4.056],[33.702,3.944],[33.606,3.848],[33.533,3.774],[33.528,3.771],[33.491,3.75],[33.447,3.744],[33.287,3.753],[33.264,3.754],[33.195,3.757],[33.164,3.763],[33.143,3.774],[33.017,3.877],[32.997,3.886],[32.98,3.879],[32.919,3.834],[32.84,3.794],[32.756,3.769],[32.599,3.756],[32.416,3.741],[32.372,3.731],[32.188,3.619],[32.176,3.606],[32.175,3.593],[32.179,3.557],[32.179,3.541],[32.176,3.527],[32.175,3.521],[32.168,3.512],[32.156,3.512],[32.093,3.524],[32.076,3.533],[32.061,3.549],[32.054,3.56],[32.042,3.58],[32.03,3.586],[32.022,3.586],[31.944,3.591],[31.93,3.598],[31.923,3.615],[31.92,3.661],[31.916,3.68],[31.902,3.704],[31.831,3.784],[31.807,3.804],[31.801,3.806],[31.801,3.807],[31.804,3.824],[31.829,3.863],[31.895,4.045],[31.914,4.081],[31.933,4.103],[32.037,4.178],[32.071,4.211],[32.095,4.242],[32.114,4.282],[32.152,4.43],[32.245,4.633],[32.302,4.717],[32.322,4.755],[32.333,4.789],[32.335,4.82],[32.325,4.856],[32.31,4.891],[32.23,5.029],[32.216,5.068],[32.192,5.157],[32.183,5.785],[32.208,5.896],[34.188,5.775],[34.968,6.008],[34.97,5.997],[34.959,5.976],[34.956,5.964],[34.955,5.953],[34.96,5.942],[34.977,5.924],[34.98,5.913],[34.978,5.899],[34.975,5.887],[34.973,5.876],[34.974,5.863],[34.984,5.841],[35.065,5.726],[35.08,5.7],[35.088,5.642],[35.099,5.622],[35.143,5.59],[35.223,5.543],[35.262,5.512],[35.269,5.492]]]}},{"type":"Feature","id":"SS-EW","properties":{"id":"SS-EW","countryCode":"SS","isoSubdivision":"SS-EW","name":"Western Equatoria","name_en":"Western Equatoria","name_ko":"서에콰토리아","type":"State","labelLongitude":28.617,"labelLatitude":5.413,"minZoom":6.6},"geometry":{"type":"Polygon","coordinates":[[[26.465,6.224],[26.456,6.23],[26.455,6.254],[26.452,6.28],[26.436,6.292],[26.395,6.301],[26.376,6.313],[26.352,6.344],[26.335,6.361],[26.316,6.372],[26.301,6.378],[26.29,6.387],[26.283,6.408],[26.285,6.426],[26.291,6.445],[26.289,6.459],[26.27,6.466],[26.277,6.477],[26.286,6.484],[26.296,6.49],[26.305,6.497],[26.324,6.537],[26.356,6.579],[26.372,6.61],[26.38,6.62],[26.379,6.631],[26.406,6.635],[27.935,6.817],[28.097,6.703],[28.106,6.699],[28.119,6.694],[28.132,6.693],[28.64,6.736],[28.615,6.602],[28.621,6.558],[28.611,6.522],[28.618,6.482],[28.602,6.448],[28.615,6.416],[28.625,6.358],[28.618,6.322],[28.622,6.292],[28.63,6.268],[28.669,6.208],[28.688,6.171],[28.704,6.119],[28.731,6.089],[28.776,6.064],[28.835,6.001],[28.862,5.958],[28.935,5.862],[28.962,5.839],[28.996,5.829],[29.024,5.817],[29.044,5.805],[29.062,5.791],[29.078,5.77],[29.112,5.751],[29.147,5.741],[29.585,5.698],[29.655,5.7],[29.704,5.729],[29.716,5.776],[29.748,5.869],[29.769,5.906],[29.839,5.997],[29.877,6.032],[29.893,6.06],[29.911,6.105],[29.929,6.203],[29.93,6.249],[29.918,6.288],[29.907,6.351],[29.91,6.438],[29.922,6.457],[29.938,6.467],[30.14,6.471],[30.184,6.477],[30.202,6.469],[30.221,6.454],[30.256,6.421],[30.289,6.378],[30.392,6.173],[30.435,6.12],[30.556,6.01],[30.666,5.926],[30.706,5.888],[30.73,5.857],[30.757,5.811],[30.778,5.787],[30.835,5.748],[30.908,5.681],[30.938,5.63],[30.96,5.581],[30.964,5.538],[30.953,5.502],[30.907,5.432],[30.889,5.389],[30.879,5.34],[30.863,5.044],[30.86,5.024],[30.856,5.011],[30.85,5],[30.838,4.989],[30.816,4.976],[30.677,4.931],[30.563,4.873],[30.517,4.839],[30.385,4.71],[30.35,4.692],[30.318,4.687],[30.292,4.693],[30.267,4.708],[30.202,4.767],[30.18,4.783],[30.158,4.791],[30.132,4.792],[30.111,4.787],[30.085,4.777],[30.062,4.761],[30.038,4.74],[30,4.698],[29.817,4.555],[29.788,4.539],[29.793,4.545],[29.797,4.556],[29.785,4.563],[29.774,4.568],[29.752,4.581],[29.745,4.584],[29.723,4.578],[29.715,4.58],[29.701,4.588],[29.672,4.614],[29.66,4.622],[29.619,4.642],[29.607,4.644],[29.577,4.644],[29.546,4.657],[29.535,4.661],[29.529,4.66],[29.513,4.652],[29.508,4.655],[29.498,4.666],[29.494,4.668],[29.473,4.672],[29.458,4.67],[29.449,4.657],[29.447,4.622],[29.444,4.605],[29.445,4.594],[29.443,4.583],[29.424,4.566],[29.417,4.555],[29.411,4.532],[29.403,4.512],[29.39,4.494],[29.339,4.45],[29.329,4.435],[29.319,4.411],[29.304,4.387],[29.287,4.384],[29.267,4.388],[29.243,4.387],[29.232,4.376],[29.229,4.357],[29.221,4.341],[29.196,4.337],[29.173,4.348],[29.11,4.412],[29.099,4.421],[29.059,4.438],[29.056,4.437],[29.053,4.451],[29.042,4.455],[28.994,4.487],[28.986,4.496],[28.926,4.481],[28.904,4.479],[28.856,4.482],[28.826,4.478],[28.815,4.478],[28.79,4.489],[28.785,4.508],[28.784,4.53],[28.769,4.55],[28.755,4.554],[28.747,4.549],[28.738,4.541],[28.725,4.534],[28.704,4.534],[28.695,4.533],[28.654,4.453],[28.639,4.432],[28.624,4.422],[28.582,4.413],[28.571,4.405],[28.567,4.394],[28.564,4.383],[28.557,4.374],[28.548,4.371],[28.538,4.372],[28.529,4.374],[28.519,4.374],[28.497,4.369],[28.482,4.359],[28.444,4.308],[28.425,4.291],[28.404,4.278],[28.382,4.275],[28.357,4.283],[28.349,4.292],[28.346,4.306],[28.337,4.327],[28.303,4.352],[28.261,4.35],[28.217,4.342],[28.178,4.347],[28.159,4.361],[28.14,4.379],[28.112,4.415],[28.108,4.434],[28.102,4.442],[28.086,4.443],[28.076,4.438],[28.06,4.42],[28.05,4.419],[28.019,4.463],[28.014,4.472],[28.011,4.48],[28.01,4.488],[28.009,4.499],[28.012,4.522],[28.017,4.539],[28.014,4.55],[27.963,4.557],[27.951,4.556],[27.945,4.557],[27.934,4.568],[27.929,4.57],[27.92,4.565],[27.916,4.562],[27.918,4.561],[27.917,4.558],[27.916,4.554],[27.914,4.549],[27.908,4.549],[27.891,4.556],[27.886,4.557],[27.857,4.552],[27.849,4.553],[27.838,4.56],[27.819,4.58],[27.809,4.588],[27.801,4.591],[27.777,4.596],[27.772,4.596],[27.765,4.612],[27.761,4.636],[27.759,4.677],[27.767,4.735],[27.763,4.757],[27.759,4.766],[27.753,4.778],[27.744,4.788],[27.735,4.793],[27.726,4.793],[27.707,4.787],[27.699,4.787],[27.686,4.798],[27.68,4.814],[27.672,4.856],[27.659,4.88],[27.641,4.891],[27.553,4.901],[27.533,4.908],[27.515,4.922],[27.509,4.932],[27.505,4.954],[27.501,4.963],[27.493,4.973],[27.462,4.997],[27.455,5],[27.448,5.003],[27.442,5.008],[27.436,5.013],[27.443,5.058],[27.441,5.071],[27.431,5.084],[27.402,5.104],[27.386,5.144],[27.359,5.167],[27.301,5.205],[27.281,5.231],[27.264,5.26],[27.238,5.323],[27.234,5.338],[27.228,5.388],[27.22,5.413],[27.218,5.426],[27.22,5.441],[27.261,5.55],[27.259,5.56],[27.261,5.578],[27.257,5.586],[27.248,5.593],[27.24,5.592],[27.235,5.589],[27.231,5.588],[27.227,5.587],[27.223,5.584],[27.217,5.585],[27.211,5.595],[27.211,5.602],[27.215,5.616],[27.217,5.633],[27.219,5.64],[27.218,5.645],[27.201,5.657],[27.196,5.661],[27.194,5.667],[27.194,5.676],[27.191,5.692],[27.182,5.707],[27.17,5.72],[27.156,5.727],[27.136,5.734],[27.131,5.741],[27.131,5.752],[27.124,5.769],[27.115,5.775],[27.073,5.791],[27.064,5.791],[27.045,5.785],[27.036,5.785],[27.03,5.79],[27.022,5.805],[27.003,5.819],[26.992,5.848],[26.981,5.859],[26.937,5.849],[26.916,5.85],[26.904,5.867],[26.894,5.89],[26.882,5.892],[26.865,5.886],[26.842,5.884],[26.819,5.895],[26.811,5.912],[26.805,5.957],[26.794,5.97],[26.776,5.982],[26.705,6.01],[26.634,6.006],[26.602,6.011],[26.544,6.031],[26.528,6.043],[26.518,6.061],[26.51,6.083],[26.499,6.1],[26.481,6.105],[26.441,6.077],[26.425,6.072],[26.421,6.094],[26.429,6.113],[26.446,6.13],[26.465,6.144],[26.484,6.154],[26.5,6.168],[26.509,6.186],[26.509,6.205],[26.496,6.221],[26.48,6.225],[26.465,6.224]]]}},{"type":"Feature","id":"SS-JG","properties":{"id":"SS-JG","countryCode":"SS","isoSubdivision":"SS-JG","name":"Jonglei","name_en":"Jonglei","name_ko":"종글레이","type":"State","labelLongitude":32.58,"labelLatitude":7.246,"minZoom":6.6},"geometry":{"type":"Polygon","coordinates":[[[33.008,7.944],[33.007,7.942],[32.994,7.928],[32.99,7.917],[33.015,7.851],[33.023,7.835],[33.041,7.825],[33.045,7.816],[33.048,7.807],[33.051,7.801],[33.058,7.798],[33.085,7.795],[33.108,7.785],[33.121,7.783],[33.127,7.792],[33.132,7.794],[33.165,7.801],[33.173,7.8],[33.201,7.788],[33.234,7.783],[33.242,7.781],[33.258,7.767],[33.274,7.749],[33.292,7.733],[33.347,7.719],[33.36,7.719],[33.384,7.735],[33.393,7.74],[33.436,7.749],[33.462,7.75],[33.48,7.743],[33.488,7.736],[33.507,7.731],[33.517,7.726],[33.527,7.717],[33.54,7.699],[33.551,7.691],[33.572,7.685],[33.637,7.691],[33.648,7.689],[33.675,7.671],[33.707,7.662],[33.716,7.657],[33.729,7.642],[33.761,7.598],[33.812,7.561],[33.821,7.558],[33.842,7.556],[33.853,7.554],[33.882,7.536],[34.007,7.41],[34.024,7.382],[34.031,7.349],[34.031,7.255],[34.034,7.25],[34.04,7.247],[34.086,7.211],[34.113,7.178],[34.132,7.163],[34.151,7.167],[34.168,7.175],[34.181,7.167],[34.191,7.15],[34.196,7.129],[34.196,7.098],[34.196,7.087],[34.198,7.064],[34.206,7.055],[34.214,7.052],[34.22,7.046],[34.23,7.033],[34.271,7.003],[34.276,6.997],[34.281,6.98],[34.288,6.975],[34.294,6.972],[34.298,6.969],[34.439,6.935],[34.504,6.89],[34.512,6.877],[34.519,6.862],[34.523,6.844],[34.525,6.825],[34.523,6.822],[34.513,6.815],[34.511,6.814],[34.512,6.808],[34.517,6.798],[34.518,6.794],[34.525,6.753],[34.536,6.743],[34.554,6.739],[34.597,6.739],[34.618,6.737],[34.636,6.73],[34.704,6.685],[34.71,6.674],[34.715,6.656],[34.727,6.642],[34.734,6.638],[34.744,6.597],[34.754,6.556],[34.776,6.499],[34.784,6.442],[34.793,6.422],[34.833,6.354],[34.839,6.328],[34.84,6.269],[34.845,6.249],[34.88,6.188],[34.899,6.139],[34.916,6.12],[34.934,6.102],[34.951,6.081],[34.959,6.062],[34.968,6.008],[34.188,5.775],[32.208,5.896],[31.671,5.927],[31.666,5.942],[31.659,5.942],[31.652,5.938],[31.646,5.938],[31.638,5.946],[31.628,5.958],[31.621,5.971],[31.618,5.982],[31.615,6.002],[31.585,6.08],[31.575,6.096],[31.564,6.11],[31.553,6.116],[31.542,6.127],[31.533,6.152],[31.522,6.198],[31.498,6.249],[31.494,6.288],[31.49,6.306],[31.483,6.323],[31.475,6.335],[31.411,6.412],[31.399,6.438],[31.396,6.48],[31.39,6.499],[31.375,6.507],[31.357,6.51],[31.345,6.519],[31.337,6.534],[31.331,6.555],[31.324,6.601],[31.318,6.622],[31.307,6.63],[31.3,6.634],[31.298,6.642],[31.297,6.653],[31.293,6.661],[31.262,6.691],[31.254,6.709],[31.25,6.727],[31.242,6.74],[31.225,6.746],[31.212,6.752],[31.202,6.765],[31.187,6.794],[31.164,6.818],[31.148,6.83],[31.129,6.838],[31.122,6.844],[31.108,6.859],[31.1,6.864],[31.083,6.872],[31.077,6.876],[31.073,6.885],[31.07,6.907],[31.064,6.918],[31.053,6.924],[31.028,6.929],[31.019,6.935],[31.004,6.945],[30.971,6.96],[30.903,7.017],[30.895,7.02],[30.87,7.026],[30.862,7.027],[30.853,7.029],[30.846,7.034],[30.819,7.073],[30.816,7.081],[30.813,7.088],[30.81,7.106],[30.803,7.118],[30.755,7.144],[30.735,7.171],[30.722,7.18],[30.717,7.186],[30.712,7.217],[30.706,7.23],[30.697,7.241],[30.687,7.261],[30.68,7.288],[30.663,7.306],[30.657,7.322],[30.652,7.363],[30.642,7.383],[30.611,7.416],[30.604,7.435],[30.601,7.448],[30.594,7.45],[30.585,7.449],[30.577,7.453],[30.576,7.457],[30.578,7.469],[30.577,7.473],[30.566,7.483],[30.563,7.486],[30.558,7.489],[30.547,7.499],[30.54,7.509],[30.546,7.513],[30.558,7.514],[30.566,7.518],[30.569,7.525],[30.57,7.538],[30.567,7.557],[30.558,7.576],[30.546,7.59],[30.523,7.6],[30.522,7.61],[30.524,7.621],[30.522,7.63],[30.516,7.637],[30.5,7.649],[30.494,7.657],[30.496,7.666],[30.504,7.672],[30.51,7.678],[30.501,7.697],[30.509,7.742],[30.513,7.748],[30.517,7.753],[30.522,7.761],[30.528,7.767],[30.535,7.774],[30.537,7.781],[30.529,7.788],[30.529,7.795],[30.536,7.796],[30.54,7.798],[30.544,7.8],[30.55,7.801],[30.53,7.807],[30.522,7.808],[30.522,7.815],[30.536,7.824],[30.529,7.831],[30.516,7.837],[30.508,7.846],[30.508,7.874],[30.506,7.881],[30.497,7.887],[30.486,7.923],[30.426,7.993],[30.437,8.002],[30.425,8.021],[30.406,8.043],[30.393,8.062],[30.391,8.076],[30.392,8.091],[30.391,8.105],[30.384,8.116],[30.372,8.117],[30.36,8.112],[30.351,8.112],[30.351,8.13],[30.325,8.119],[30.311,8.15],[30.308,8.192],[30.313,8.213],[30.329,8.218],[30.327,8.23],[30.32,8.241],[30.32,8.247],[30.338,8.253],[30.337,8.268],[30.317,8.301],[30.324,8.304],[30.344,8.315],[30.338,8.326],[30.333,8.354],[30.324,8.364],[30.33,8.391],[30.336,8.396],[30.342,8.4],[30.348,8.405],[30.354,8.432],[30.359,8.446],[30.36,8.46],[30.351,8.479],[30.347,8.48],[30.335,8.478],[30.33,8.479],[30.33,8.484],[30.332,8.496],[30.33,8.5],[30.301,8.52],[30.296,8.524],[30.293,8.535],[30.278,8.55],[30.275,8.559],[30.279,8.572],[30.284,8.582],[30.285,8.59],[30.275,8.597],[30.275,8.593],[30.276,8.586],[30.275,8.583],[30.269,8.583],[30.27,8.595],[30.272,8.608],[30.277,8.62],[30.283,8.631],[30.302,8.656],[30.31,8.67],[30.309,8.685],[30.304,8.693],[30.297,8.696],[30.289,8.696],[30.283,8.699],[30.243,8.736],[30.235,8.747],[30.227,8.76],[30.24,8.77],[30.25,8.781],[30.254,8.794],[30.249,8.809],[30.241,8.802],[30.236,8.818],[30.237,8.853],[30.235,8.87],[30.23,8.879],[30.218,8.89],[30.214,8.898],[30.213,8.904],[30.214,8.918],[30.214,8.926],[30.21,8.941],[30.198,8.961],[30.193,8.973],[30.191,8.99],[30.194,9.007],[30.2,9.02],[30.207,9.029],[30.213,9.031],[30.23,9.034],[30.235,9.035],[30.253,9.054],[30.255,9.055],[30.256,9.061],[30.259,9.077],[30.262,9.083],[30.267,9.087],[30.281,9.092],[30.289,9.096],[30.3,9.108],[30.304,9.119],[30.309,9.151],[30.319,9.17],[30.333,9.18],[30.347,9.188],[30.358,9.2],[30.351,9.207],[30.354,9.213],[30.36,9.219],[30.365,9.227],[30.365,9.292],[30.362,9.307],[30.356,9.312],[30.347,9.315],[30.337,9.323],[30.325,9.348],[30.336,9.358],[30.355,9.365],[30.365,9.381],[30.369,9.404],[30.381,9.417],[30.394,9.427],[30.405,9.439],[30.416,9.472],[30.425,9.483],[30.443,9.487],[30.457,9.492],[30.468,9.504],[30.478,9.518],[30.488,9.528],[30.505,9.536],[30.523,9.54],[30.646,9.535],[30.774,9.505],[30.816,9.5],[30.896,9.5],[30.911,9.504],[30.924,9.51],[30.939,9.518],[30.96,9.515],[31.004,9.5],[31.125,9.433],[31.283,9.392],[31.328,9.387],[31.349,9.38],[31.358,9.367],[31.366,9.36],[31.385,9.352],[31.405,9.346],[31.42,9.343],[31.464,9.349],[31.51,9.365],[31.514,9.367],[31.521,9.366],[31.527,9.364],[31.539,9.353],[31.871,8.913],[31.905,8.883],[31.945,8.867],[31.983,8.868],[32.016,8.876],[32.149,8.94],[32.271,9.014],[32.295,9.026],[32.318,9.032],[32.337,9.031],[32.357,9.018],[32.377,8.993],[32.413,8.923],[32.43,8.878],[32.608,8.569],[32.666,8.5],[32.751,8.427],[32.856,8.377],[32.881,8.355],[32.896,8.323],[32.901,8.274],[32.897,8.233],[32.889,8.192],[32.876,8.154],[32.845,8.09],[32.838,8.061],[32.841,8.034],[32.865,8.011],[32.887,7.996],[33.006,7.945],[33.007,7.944],[33.008,7.944]]]}},{"type":"Feature","id":"SS-LK","properties":{"id":"SS-LK","countryCode":"SS","isoSubdivision":"SS-LK","name":"Lakes","name_en":"Lakes","name_ko":"레이크스","type":"State","labelLongitude":30.137,"labelLatitude":6.88,"minZoom":6.6},"geometry":{"type":"Polygon","coordinates":[[[29.699,7.821],[29.851,7.809],[29.868,7.805],[29.885,7.797],[29.896,7.783],[30.215,7.129],[30.332,7.092],[30.816,7.081],[30.819,7.073],[30.846,7.034],[30.853,7.029],[30.862,7.027],[30.87,7.026],[30.895,7.02],[30.903,7.017],[30.971,6.96],[31.004,6.945],[31.019,6.935],[31.028,6.929],[31.053,6.924],[31.064,6.918],[31.07,6.907],[31.073,6.885],[31.077,6.876],[31.083,6.872],[31.1,6.864],[31.108,6.859],[31.122,6.844],[31.129,6.838],[31.148,6.83],[31.164,6.818],[31.187,6.794],[31.202,6.765],[31.212,6.752],[31.225,6.746],[31.242,6.74],[31.25,6.727],[31.254,6.709],[31.262,6.691],[31.293,6.661],[31.297,6.653],[31.298,6.642],[31.3,6.634],[31.307,6.63],[31.318,6.622],[31.324,6.601],[31.331,6.555],[31.337,6.534],[31.345,6.519],[31.357,6.51],[31.375,6.507],[31.39,6.499],[31.396,6.48],[31.399,6.438],[31.411,6.412],[31.475,6.335],[31.483,6.323],[31.49,6.306],[31.494,6.288],[31.498,6.249],[31.522,6.198],[31.533,6.152],[31.542,6.127],[31.553,6.116],[31.564,6.11],[31.575,6.096],[31.585,6.08],[31.615,6.002],[31.618,5.982],[31.621,5.971],[31.628,5.958],[31.638,5.946],[31.646,5.938],[31.652,5.938],[31.659,5.942],[31.666,5.942],[31.671,5.927],[31.621,5.882],[31.584,5.886],[31.517,5.921],[31.178,5.983],[31.056,6.035],[30.87,6.193],[30.819,6.194],[30.746,6.157],[30.657,6.139],[30.435,6.12],[30.392,6.173],[30.289,6.378],[30.256,6.421],[30.221,6.454],[30.202,6.469],[30.184,6.477],[30.14,6.471],[29.938,6.467],[29.922,6.457],[29.91,6.438],[29.907,6.351],[29.918,6.288],[29.93,6.249],[29.929,6.203],[29.911,6.105],[29.893,6.06],[29.877,6.032],[29.839,5.997],[29.769,5.906],[29.748,5.869],[29.716,5.776],[29.704,5.729],[29.655,5.7],[29.585,5.698],[29.147,5.741],[29.112,5.751],[29.078,5.77],[29.062,5.791],[29.044,5.805],[29.024,5.817],[28.996,5.829],[28.962,5.839],[28.935,5.862],[28.862,5.958],[28.835,6.001],[28.776,6.064],[28.731,6.089],[28.704,6.119],[28.688,6.171],[28.669,6.208],[28.63,6.268],[28.622,6.292],[28.618,6.322],[28.625,6.358],[28.615,6.416],[28.602,6.448],[28.618,6.482],[28.611,6.522],[28.621,6.558],[28.615,6.602],[28.64,6.736],[28.721,6.673],[28.802,6.64],[28.836,6.635],[28.869,6.636],[28.905,6.641],[28.939,6.649],[28.973,6.663],[29.003,6.681],[29.023,6.708],[29.035,6.731],[29.158,7.132],[29.176,7.168],[29.241,7.263],[29.569,7.625],[29.699,7.821]]]}},{"type":"Feature","id":"SS-NU","properties":{"id":"SS-NU","countryCode":"SS","isoSubdivision":"SS-NU","name":"Upper Nile","name_en":"Upper Nile","name_ko":"상나일","type":"State","labelLongitude":32.525,"labelLatitude":10.358,"minZoom":6.6},"geometry":{"type":"Polygon","coordinates":[[[34.107,8.602],[34.103,8.579],[34.09,8.557],[34.07,8.534],[33.971,8.445],[33.95,8.433],[33.932,8.428],[33.875,8.428],[33.841,8.424],[33.824,8.419],[33.808,8.413],[33.798,8.406],[33.756,8.37],[33.752,8.369],[33.741,8.367],[33.696,8.373],[33.671,8.4],[33.652,8.434],[33.62,8.461],[33.6,8.464],[33.585,8.458],[33.571,8.45],[33.552,8.447],[33.537,8.453],[33.522,8.465],[33.505,8.475],[33.485,8.474],[33.49,8.467],[33.49,8.463],[33.481,8.458],[33.413,8.45],[33.4,8.453],[33.392,8.452],[33.385,8.448],[33.371,8.437],[33.361,8.434],[33.253,8.458],[33.235,8.456],[33.206,8.431],[33.207,8.427],[33.21,8.421],[33.203,8.414],[33.188,8.411],[33.174,8.404],[33.17,8.397],[33.168,8.39],[33.168,8.373],[33.167,8.368],[33.162,8.362],[33.161,8.356],[33.163,8.353],[33.172,8.347],[33.174,8.343],[33.172,8.331],[33.163,8.312],[33.161,8.305],[33.164,8.293],[33.171,8.283],[33.178,8.276],[33.186,8.265],[33.195,8.259],[33.208,8.254],[33.207,8.241],[33.2,8.236],[33.191,8.232],[33.182,8.226],[33.174,8.215],[33.17,8.205],[33.168,8.195],[33.168,8.181],[33.171,8.176],[33.185,8.166],[33.188,8.161],[33.185,8.141],[33.177,8.127],[33.165,8.117],[33.148,8.109],[33.118,8.104],[33.113,8.099],[33.111,8.091],[33.107,8.08],[33.101,8.071],[33.044,8.013],[33.031,7.996],[33.026,7.986],[33.022,7.965],[33.017,7.958],[33.012,7.953],[33.008,7.944],[33.007,7.944],[33.006,7.945],[32.887,7.996],[32.865,8.011],[32.841,8.034],[32.838,8.061],[32.845,8.09],[32.876,8.154],[32.889,8.192],[32.897,8.233],[32.901,8.274],[32.896,8.323],[32.881,8.355],[32.856,8.377],[32.751,8.427],[32.666,8.5],[32.608,8.569],[32.43,8.878],[32.413,8.923],[32.377,8.993],[32.357,9.018],[32.337,9.031],[32.318,9.032],[32.295,9.026],[32.271,9.014],[32.149,8.94],[32.016,8.876],[31.983,8.868],[31.945,8.867],[31.905,8.883],[31.871,8.913],[31.539,9.353],[31.527,9.364],[31.521,9.366],[31.514,9.367],[31.51,9.365],[31.464,9.349],[31.42,9.343],[31.405,9.346],[31.385,9.352],[31.366,9.36],[31.358,9.367],[31.349,9.38],[31.328,9.387],[31.283,9.392],[31.125,9.433],[31.004,9.5],[30.96,9.515],[30.939,9.518],[30.95,9.752],[31.164,9.764],[31.235,9.792],[31.45,10.003],[31.665,10.214],[31.774,10.349],[31.802,10.376],[31.864,10.472],[31.93,10.637],[31.943,10.656],[32.178,10.853],[32.414,11.051],[32.431,11.082],[32.435,11.107],[32.364,11.24],[32.349,11.308],[32.346,11.412],[32.36,11.573],[32.355,11.676],[32.353,11.687],[32.348,11.703],[32.345,11.709],[32.082,12],[32.414,12.001],[32.747,12.003],[32.748,12.027],[32.748,12.04],[32.746,12.051],[32.733,12.086],[32.726,12.132],[32.725,12.145],[32.726,12.158],[32.73,12.182],[32.73,12.195],[32.73,12.201],[32.729,12.207],[32.729,12.212],[32.732,12.216],[33.209,12.21],[33.203,12.128],[33.145,11.935],[33.146,11.819],[33.132,11.686],[33.129,11.675],[33.116,11.647],[33.105,11.631],[33.091,11.615],[33.088,11.609],[33.083,11.599],[33.083,11.585],[33.133,11.214],[33.182,10.843],[33.178,10.825],[33.175,10.812],[33.148,10.766],[33.141,10.751],[33.14,10.739],[33.151,10.731],[33.371,10.651],[33.381,10.646],[33.39,10.639],[33.469,10.544],[33.686,10.368],[33.902,10.192],[33.917,10.175],[33.962,10.064],[33.967,10.047],[33.968,10.021],[33.967,10],[33.956,9.934],[33.96,9.904],[33.967,9.885],[33.973,9.862],[33.973,9.855],[33.972,9.849],[33.969,9.838],[33.905,9.711],[33.884,9.62],[33.878,9.543],[33.881,9.499],[33.889,9.471],[33.892,9.464],[33.895,9.459],[33.898,9.457],[33.901,9.455],[34.071,9.455],[34.083,9.205],[34.097,8.916],[34.112,8.627],[34.107,8.602]]]}},{"type":"Feature","id":"SS-UY","properties":{"id":"SS-UY","countryCode":"SS","isoSubdivision":"SS-UY","name":"Unity","name_en":"Unity","name_ko":"유니티","type":"State","labelLongitude":29.888,"labelLatitude":8.999,"minZoom":6.6},"geometry":{"type":"Polygon","coordinates":[[[30.779,9.72],[30.793,9.728],[30.805,9.739],[30.824,9.746],[30.837,9.749],[30.95,9.752],[30.939,9.518],[30.924,9.51],[30.911,9.504],[30.896,9.5],[30.816,9.5],[30.774,9.505],[30.646,9.535],[30.523,9.54],[30.505,9.536],[30.488,9.528],[30.478,9.518],[30.468,9.504],[30.457,9.492],[30.443,9.487],[30.425,9.483],[30.416,9.472],[30.405,9.439],[30.394,9.427],[30.381,9.417],[30.369,9.404],[30.365,9.381],[30.355,9.365],[30.336,9.358],[30.325,9.348],[30.337,9.323],[30.347,9.315],[30.356,9.312],[30.362,9.307],[30.365,9.292],[30.365,9.227],[30.36,9.219],[30.354,9.213],[30.351,9.207],[30.358,9.2],[30.347,9.188],[30.333,9.18],[30.319,9.17],[30.309,9.151],[30.304,9.119],[30.3,9.108],[30.289,9.096],[30.281,9.092],[30.267,9.087],[30.262,9.083],[30.259,9.077],[30.256,9.061],[30.255,9.055],[30.253,9.054],[30.235,9.035],[30.23,9.034],[30.213,9.031],[30.207,9.029],[30.2,9.02],[30.194,9.007],[30.191,8.99],[30.193,8.973],[30.198,8.961],[30.21,8.941],[30.214,8.926],[30.214,8.918],[30.213,8.904],[30.214,8.898],[30.218,8.89],[30.23,8.879],[30.235,8.87],[30.237,8.853],[30.236,8.818],[30.241,8.802],[30.249,8.809],[30.254,8.794],[30.25,8.781],[30.24,8.77],[30.227,8.76],[30.235,8.747],[30.243,8.736],[30.283,8.699],[30.289,8.696],[30.297,8.696],[30.304,8.693],[30.309,8.685],[30.31,8.67],[30.302,8.656],[30.283,8.631],[30.277,8.62],[30.272,8.608],[30.27,8.595],[30.269,8.583],[30.275,8.583],[30.276,8.586],[30.275,8.593],[30.275,8.597],[30.285,8.59],[30.284,8.582],[30.279,8.572],[30.275,8.559],[30.278,8.55],[30.293,8.535],[30.296,8.524],[30.301,8.52],[30.33,8.5],[30.332,8.496],[30.33,8.484],[30.33,8.479],[30.335,8.478],[30.347,8.48],[30.351,8.479],[30.36,8.46],[30.359,8.446],[30.354,8.432],[30.348,8.405],[30.342,8.4],[30.336,8.396],[30.33,8.391],[30.324,8.364],[30.333,8.354],[30.338,8.326],[30.344,8.315],[30.324,8.304],[30.317,8.301],[30.337,8.268],[30.338,8.253],[30.32,8.247],[30.32,8.241],[30.327,8.23],[30.329,8.218],[30.313,8.213],[30.308,8.192],[30.311,8.15],[30.325,8.119],[30.351,8.13],[30.351,8.112],[30.36,8.112],[30.372,8.117],[30.384,8.116],[30.391,8.105],[30.392,8.091],[30.391,8.076],[30.393,8.062],[30.406,8.043],[30.425,8.021],[30.437,8.002],[30.426,7.993],[30.486,7.923],[30.497,7.887],[30.506,7.881],[30.508,7.874],[30.508,7.846],[30.516,7.837],[30.529,7.831],[30.536,7.824],[30.522,7.815],[30.522,7.808],[30.53,7.807],[30.55,7.801],[30.544,7.8],[30.54,7.798],[30.536,7.796],[30.529,7.795],[30.529,7.788],[30.537,7.781],[30.535,7.774],[30.528,7.767],[30.522,7.761],[30.517,7.753],[30.513,7.748],[30.509,7.742],[30.501,7.697],[30.51,7.678],[30.504,7.672],[30.496,7.666],[30.494,7.657],[30.5,7.649],[30.516,7.637],[30.522,7.63],[30.524,7.621],[30.522,7.61],[30.523,7.6],[30.546,7.59],[30.558,7.576],[30.567,7.557],[30.57,7.538],[30.569,7.525],[30.566,7.518],[30.558,7.514],[30.546,7.513],[30.54,7.509],[30.547,7.499],[30.558,7.489],[30.563,7.486],[30.566,7.483],[30.577,7.473],[30.578,7.469],[30.576,7.457],[30.577,7.453],[30.585,7.449],[30.594,7.45],[30.601,7.448],[30.604,7.435],[30.611,7.416],[30.642,7.383],[30.652,7.363],[30.657,7.322],[30.663,7.306],[30.68,7.288],[30.687,7.261],[30.697,7.241],[30.706,7.23],[30.712,7.217],[30.717,7.186],[30.722,7.18],[30.735,7.171],[30.755,7.144],[30.803,7.118],[30.81,7.106],[30.813,7.088],[30.816,7.081],[30.332,7.092],[30.215,7.129],[29.896,7.783],[29.885,7.797],[29.868,7.805],[29.851,7.809],[29.699,7.821],[29.662,8.404],[29.653,8.425],[29.636,8.446],[29.351,8.642],[29.095,9.03],[29.039,9.048],[28.834,9.032],[28.845,9.059],[28.869,9.167],[28.886,9.198],[28.906,9.217],[28.953,9.232],[28.975,9.242],[28.996,9.259],[28.999,9.267],[29,9.272],[28.99,9.278],[28.977,9.291],[28.969,9.297],[28.951,9.307],[28.942,9.311],[28.931,9.313],[28.923,9.316],[28.915,9.319],[28.908,9.316],[28.9,9.315],[28.892,9.313],[28.886,9.312],[28.88,9.313],[28.874,9.317],[28.865,9.321],[28.858,9.321],[28.845,9.324],[28.844,9.325],[28.831,9.349],[28.827,9.385],[28.829,9.427],[28.849,9.466],[28.914,9.529],[28.989,9.587],[29.009,9.603],[29.132,9.668],[29.252,9.711],[29.483,9.762],[29.567,9.841],[29.614,9.914],[29.615,10.058],[29.646,10.082],[29.701,10.115],[29.968,10.243],[30.013,10.27],[30.249,10.121],[30.485,9.972],[30.749,9.736],[30.765,9.724],[30.779,9.72]]]}},{"type":"Feature","id":"SS-WR","properties":{"id":"SS-WR","countryCode":"SS","isoSubdivision":"SS-WR","name":"Warrap","name_en":"Warrap","name_ko":"와랍","type":"State","labelLongitude":28.699,"labelLatitude":7.856,"minZoom":6.6},"geometry":{"type":"Polygon","coordinates":[[[28.375,8.991],[28.384,8.992],[28.399,8.999],[28.401,9],[28.834,9.032],[29.039,9.048],[29.095,9.03],[29.351,8.642],[29.636,8.446],[29.653,8.425],[29.662,8.404],[29.699,7.821],[29.569,7.625],[29.241,7.263],[29.176,7.168],[29.158,7.132],[29.035,6.731],[29.023,6.708],[29.003,6.681],[28.973,6.663],[28.939,6.649],[28.905,6.641],[28.869,6.636],[28.836,6.635],[28.802,6.64],[28.721,6.673],[28.64,6.736],[28.599,6.965],[28.59,7.089],[28.608,7.246],[28.611,7.408],[28.606,7.448],[28.594,7.472],[28.555,7.503],[28.547,7.522],[28.551,7.543],[28.562,7.568],[28.564,7.594],[28.55,7.617],[28.517,7.635],[28.475,7.65],[28.349,7.719],[28.265,7.783],[28.194,7.827],[28.145,7.848],[27.993,7.874],[27.974,7.882],[27.959,7.892],[27.936,7.915],[27.874,7.993],[27.744,8.205],[27.7,8.251],[27.765,8.538],[27.786,8.582],[27.816,8.623],[27.845,8.676],[27.858,8.72],[27.871,8.872],[27.891,8.931],[27.912,8.959],[27.932,8.974],[27.961,8.987],[28.004,8.997],[28.118,9.007],[28.289,9.001],[28.299,8.998],[28.365,8.991],[28.375,8.991]]]}}]}
