{"type":"FeatureCollection","features":[{"type":"Feature","id":"ST-P","properties":{"id":"ST-P","countryCode":"ST","isoSubdivision":"ST-P","name":"Príncipe","name_en":"Príncipe","name_ko":"프린시페","type":"Principal subdivision","labelLongitude":7.394,"labelLatitude":1.608,"minZoom":11},"geometry":{"type":"Polygon","coordinates":[[[7.463,1.675],[7.457,1.67],[7.446,1.665],[7.435,1.659],[7.429,1.648],[7.444,1.645],[7.457,1.638],[7.462,1.631],[7.453,1.627],[7.438,1.624],[7.434,1.615],[7.436,1.593],[7.431,1.573],[7.426,1.563],[7.418,1.558],[7.406,1.556],[7.402,1.551],[7.403,1.542],[7.401,1.531],[7.399,1.535],[7.396,1.542],[7.394,1.545],[7.387,1.542],[7.381,1.538],[7.372,1.554],[7.358,1.559],[7.344,1.56],[7.333,1.565],[7.329,1.596],[7.33,1.615],[7.339,1.613],[7.356,1.62],[7.364,1.629],[7.366,1.642],[7.367,1.658],[7.372,1.677],[7.385,1.692],[7.403,1.7],[7.421,1.696],[7.449,1.693],[7.46,1.688],[7.463,1.675]]]}},{"type":"Feature","id":"ST-S","properties":{"id":"ST-S","countryCode":"ST","isoSubdivision":"ST-S","name":"São Tomé","name_en":"São Tomé","name_ko":"상 투메","type":"Principal subdivision","labelLongitude":6.612,"labelLatitude":0.235,"minZoom":11},"geometry":{"type":"Polygon","coordinates":[[[6.681,0.407],[6.704,0.392],[6.727,0.367],[6.746,0.338],[6.757,0.311],[6.761,0.284],[6.761,0.268],[6.757,0.25],[6.749,0.231],[6.74,0.219],[6.716,0.195],[6.703,0.18],[6.675,0.133],[6.668,0.131],[6.659,0.129],[6.653,0.125],[6.66,0.107],[6.653,0.103],[6.641,0.101],[6.634,0.099],[6.618,0.081],[6.616,0.078],[6.583,0.077],[6.578,0.078],[6.568,0.042],[6.557,0.028],[6.544,0.044],[6.537,0.026],[6.527,0.024],[6.516,0.034],[6.51,0.051],[6.512,0.053],[6.517,0.07],[6.517,0.078],[6.514,0.088],[6.51,0.093],[6.506,0.095],[6.503,0.099],[6.467,0.212],[6.462,0.222],[6.466,0.231],[6.468,0.24],[6.469,0.26],[6.471,0.268],[6.49,0.291],[6.494,0.3],[6.495,0.306],[6.498,0.313],[6.533,0.348],[6.541,0.352],[6.578,0.365],[6.61,0.39],[6.642,0.411],[6.681,0.407]]]}}]}
