{"type":"FeatureCollection","features":[{"type":"Feature","id":"SV-AH","properties":{"id":"SV-AH","countryCode":"SV","isoSubdivision":"SV-AH","name":"Ahuachapán","name_en":"Ahuachapán","name_ko":"아우아차판","type":"Department","labelLongitude":-89.906,"labelLatitude":13.866,"minZoom":10},"geometry":{"type":"Polygon","coordinates":[[[-90.098,13.731],[-90.114,13.796],[-90.115,13.812],[-90.112,13.828],[-90.107,13.844],[-90.099,13.859],[-90.087,13.87],[-90.06,13.885],[-90.047,13.894],[-90.038,13.908],[-90.031,13.923],[-90.023,13.937],[-90.008,13.95],[-89.912,14.015],[-89.891,14.036],[-89.88,14.043],[-89.836,14.059],[-89.821,14.06],[-89.803,14.055],[-89.777,14.036],[-89.762,14.03],[-89.748,14.038],[-89.747,14.043],[-89.748,14.045],[-89.74,14.041],[-89.722,14.03],[-89.718,14.027],[-89.716,14.025],[-89.715,14.023],[-89.713,14.015],[-89.712,14.013],[-89.71,14.01],[-89.707,14.007],[-89.703,14.004],[-89.699,14],[-89.697,13.996],[-89.696,13.994],[-89.699,13.976],[-89.719,13.909],[-89.737,13.902],[-89.759,13.896],[-89.771,13.894],[-89.773,13.892],[-89.776,13.889],[-89.777,13.883],[-89.777,13.879],[-89.774,13.86],[-89.773,13.854],[-89.771,13.85],[-89.769,13.845],[-89.768,13.843],[-89.768,13.839],[-89.789,13.809],[-89.791,13.804],[-89.791,13.8],[-89.783,13.774],[-89.782,13.768],[-89.783,13.764],[-89.786,13.759],[-89.794,13.751],[-89.796,13.745],[-89.798,13.741],[-89.799,13.732],[-89.799,13.729],[-89.812,13.707],[-89.814,13.702],[-89.82,13.68],[-89.825,13.678],[-89.833,13.677],[-89.863,13.678],[-89.869,13.68],[-89.871,13.681],[-89.879,13.688],[-89.892,13.702],[-89.894,13.704],[-89.898,13.707],[-89.9,13.708],[-89.903,13.709],[-89.907,13.709],[-89.911,13.709],[-89.916,13.708],[-89.92,13.707],[-89.923,13.706],[-89.925,13.704],[-89.928,13.702],[-89.935,13.693],[-89.951,13.669],[-89.953,13.665],[-90.021,13.695],[-90.098,13.731]]]}},{"type":"Feature","id":"SV-CA","properties":{"id":"SV-CA","countryCode":"SV","isoSubdivision":"SV-CA","name":"Cabañas","name_en":"Cabañas","name_ko":"카바냐스","type":"Department","labelLongitude":-88.733,"labelLatitude":13.908,"minZoom":10},"geometry":{"type":"Polygon","coordinates":[[[-88.691,14.012],[-88.691,14.01],[-88.685,14.012],[-88.659,14.016],[-88.634,14.014],[-88.558,13.991],[-88.514,13.988],[-88.504,13.984],[-88.495,13.975],[-88.496,13.972],[-88.497,13.97],[-88.497,13.969],[-88.498,13.968],[-88.502,13.969],[-88.501,13.967],[-88.496,13.956],[-88.497,13.944],[-88.5,13.932],[-88.502,13.917],[-88.5,13.908],[-88.489,13.881],[-88.488,13.865],[-88.497,13.851],[-88.499,13.85],[-88.503,13.846],[-88.497,13.833],[-88.498,13.821],[-88.505,13.811],[-88.516,13.805],[-88.514,13.791],[-88.523,13.777],[-88.532,13.76],[-88.532,13.759],[-88.549,13.749],[-88.558,13.751],[-88.583,13.754],[-88.587,13.755],[-88.589,13.757],[-88.59,13.759],[-88.591,13.762],[-88.592,13.767],[-88.594,13.769],[-88.596,13.771],[-88.603,13.773],[-88.606,13.774],[-88.612,13.778],[-88.623,13.781],[-88.625,13.782],[-88.644,13.796],[-88.646,13.797],[-88.657,13.799],[-88.671,13.799],[-88.677,13.801],[-88.709,13.8],[-88.716,13.801],[-88.721,13.802],[-88.736,13.812],[-88.739,13.812],[-88.743,13.81],[-88.748,13.804],[-88.751,13.8],[-88.754,13.798],[-88.76,13.799],[-88.767,13.8],[-88.774,13.799],[-88.805,13.785],[-88.815,13.782],[-88.822,13.781],[-88.832,13.784],[-88.838,13.786],[-88.844,13.786],[-88.847,13.782],[-88.849,13.779],[-88.85,13.751],[-88.885,13.76],[-88.894,13.765],[-88.895,13.767],[-88.901,13.777],[-88.911,13.787],[-88.915,13.792],[-88.917,13.797],[-88.919,13.803],[-88.92,13.807],[-88.925,13.816],[-88.926,13.82],[-88.927,13.824],[-88.931,13.832],[-88.935,13.837],[-88.944,13.843],[-88.95,13.849],[-88.969,13.876],[-88.974,13.885],[-88.977,13.891],[-88.976,13.894],[-88.975,13.897],[-88.974,13.899],[-88.973,13.901],[-88.971,13.903],[-88.969,13.905],[-88.956,13.912],[-88.952,13.915],[-88.949,13.919],[-88.946,13.923],[-88.944,13.925],[-88.93,13.948],[-88.9,13.949],[-88.874,13.946],[-88.86,13.95],[-88.845,13.955],[-88.784,13.975],[-88.772,13.98],[-88.765,13.985],[-88.758,13.995],[-88.737,14.005],[-88.691,14.012]]]}},{"type":"Feature","id":"SV-CH","properties":{"id":"SV-CH","countryCode":"SV","isoSubdivision":"SV-CH","name":"Chalatenango","name_en":"Chalatenango","name_ko":"찰라테낭고","type":"Department","labelLongitude":-89.059,"labelLatitude":14.19,"minZoom":10},"geometry":{"type":"Polygon","coordinates":[[[-89.346,14.413],[-89.308,14.407],[-89.277,14.393],[-89.226,14.382],[-89.2,14.365],[-89.154,14.351],[-89.145,14.36],[-89.13,14.387],[-89.122,14.395],[-89.113,14.397],[-89.107,14.396],[-89.103,14.392],[-89.097,14.384],[-89.092,14.375],[-89.09,14.365],[-89.091,14.355],[-89.094,14.345],[-89.083,14.335],[-89.049,14.331],[-89.033,14.324],[-89.027,14.311],[-89.023,14.281],[-89.018,14.272],[-88.993,14.253],[-88.984,14.242],[-88.975,14.227],[-88.971,14.215],[-88.97,14.21],[-88.969,14.202],[-88.966,14.191],[-88.957,14.185],[-88.947,14.187],[-88.936,14.194],[-88.922,14.2],[-88.906,14.2],[-88.881,14.184],[-88.86,14.159],[-88.845,14.129],[-88.839,14.1],[-88.821,14.103],[-88.777,14.1],[-88.765,14.104],[-88.755,14.11],[-88.746,14.111],[-88.739,14.1],[-88.74,14.083],[-88.746,14.067],[-88.747,14.052],[-88.731,14.042],[-88.71,14.04],[-88.705,14.038],[-88.698,14.032],[-88.693,14.025],[-88.69,14.017],[-88.691,14.012],[-88.737,14.005],[-88.758,13.995],[-88.765,13.985],[-88.772,13.98],[-88.784,13.975],[-88.845,13.955],[-88.86,13.95],[-88.874,13.946],[-88.9,13.949],[-88.93,13.948],[-88.946,13.95],[-88.962,13.956],[-88.98,13.954],[-89.001,13.964],[-89.005,13.966],[-89.009,13.97],[-89.015,13.978],[-89.017,13.983],[-89.019,13.988],[-89.02,13.99],[-89.02,13.993],[-89.02,13.996],[-89.019,14],[-89.02,14.002],[-89.022,14.005],[-89.044,14.03],[-89.048,14.038],[-89.05,14.04],[-89.067,14.051],[-89.074,14.058],[-89.079,14.06],[-89.105,14.069],[-89.117,14.075],[-89.121,14.076],[-89.124,14.076],[-89.141,14.067],[-89.169,14.055],[-89.18,14.057],[-89.194,14.068],[-89.201,14.056],[-89.215,14.056],[-89.235,14.065],[-89.243,14.062],[-89.256,14.053],[-89.26,14.051],[-89.267,14.052],[-89.277,14.056],[-89.28,14.057],[-89.296,14.06],[-89.314,14.07],[-89.325,14.072],[-89.335,14.064],[-89.344,14.06],[-89.355,14.057],[-89.364,14.054],[-89.367,14.047],[-89.371,14.041],[-89.383,14.037],[-89.398,14.037],[-89.413,14.04],[-89.424,14.05],[-89.427,14.072],[-89.408,14.136],[-89.389,14.135],[-89.387,14.136],[-89.384,14.137],[-89.382,14.139],[-89.38,14.142],[-89.368,14.163],[-89.366,14.164],[-89.364,14.166],[-89.362,14.167],[-89.359,14.167],[-89.357,14.168],[-89.346,14.168],[-89.343,14.169],[-89.34,14.17],[-89.338,14.171],[-89.336,14.172],[-89.334,14.173],[-89.33,14.177],[-89.311,14.203],[-89.309,14.207],[-89.309,14.211],[-89.31,14.222],[-89.309,14.242],[-89.272,14.257],[-89.263,14.267],[-89.259,14.287],[-89.247,14.323],[-89.265,14.334],[-89.27,14.34],[-89.272,14.342],[-89.287,14.35],[-89.29,14.352],[-89.292,14.355],[-89.297,14.362],[-89.3,14.369],[-89.301,14.371],[-89.308,14.379],[-89.346,14.413]]]}},{"type":"Feature","id":"SV-CU","properties":{"id":"SV-CU","countryCode":"SV","isoSubdivision":"SV-CU","name":"Cuscatlán","name_en":"Cuscatlán","name_ko":"쿠스카틀란","type":"Department","labelLongitude":-89.005,"labelLatitude":13.817,"minZoom":10},"geometry":{"type":"Polygon","coordinates":[[[-88.93,13.948],[-88.944,13.925],[-88.946,13.923],[-88.949,13.919],[-88.952,13.915],[-88.956,13.912],[-88.969,13.905],[-88.971,13.903],[-88.973,13.901],[-88.974,13.899],[-88.975,13.897],[-88.976,13.894],[-88.977,13.891],[-88.974,13.885],[-88.969,13.876],[-88.95,13.849],[-88.944,13.843],[-88.935,13.837],[-88.931,13.832],[-88.927,13.824],[-88.926,13.82],[-88.925,13.816],[-88.92,13.807],[-88.919,13.803],[-88.917,13.797],[-88.915,13.792],[-88.911,13.787],[-88.901,13.777],[-88.895,13.767],[-88.894,13.765],[-88.885,13.76],[-88.85,13.751],[-88.868,13.703],[-88.872,13.689],[-88.874,13.685],[-88.877,13.681],[-88.896,13.663],[-88.903,13.659],[-88.909,13.657],[-88.921,13.655],[-88.924,13.654],[-88.926,13.653],[-88.928,13.651],[-88.93,13.647],[-88.931,13.645],[-88.934,13.644],[-88.935,13.643],[-88.94,13.642],[-88.943,13.642],[-88.962,13.648],[-88.98,13.657],[-89.024,13.673],[-89.024,13.703],[-89.027,13.708],[-89.028,13.713],[-89.033,13.719],[-89.051,13.752],[-89.052,13.756],[-89.05,13.778],[-89.051,13.782],[-89.053,13.785],[-89.056,13.786],[-89.059,13.788],[-89.064,13.793],[-89.076,13.811],[-89.078,13.812],[-89.081,13.813],[-89.084,13.814],[-89.09,13.814],[-89.097,13.819],[-89.106,13.83],[-89.133,13.87],[-89.136,13.878],[-89.134,13.88],[-89.127,13.883],[-89.124,13.885],[-89.122,13.887],[-89.12,13.89],[-89.121,13.893],[-89.127,13.9],[-89.148,13.933],[-89.158,13.952],[-89.16,13.96],[-89.161,13.969],[-89.16,13.97],[-89.159,13.972],[-89.157,13.973],[-89.155,13.975],[-89.152,13.979],[-89.151,13.981],[-89.151,13.984],[-89.15,13.99],[-89.148,13.995],[-89.148,13.999],[-89.148,14],[-89.148,14.002],[-89.149,14.012],[-89.152,14.028],[-89.152,14.033],[-89.151,14.036],[-89.146,14.045],[-89.142,14.057],[-89.141,14.067],[-89.124,14.076],[-89.121,14.076],[-89.117,14.075],[-89.105,14.069],[-89.079,14.06],[-89.074,14.058],[-89.067,14.051],[-89.05,14.04],[-89.048,14.038],[-89.044,14.03],[-89.022,14.005],[-89.02,14.002],[-89.019,14],[-89.02,13.996],[-89.02,13.993],[-89.02,13.99],[-89.019,13.988],[-89.017,13.983],[-89.015,13.978],[-89.009,13.97],[-89.005,13.966],[-89.001,13.964],[-88.98,13.954],[-88.962,13.956],[-88.946,13.95],[-88.93,13.948]]]}},{"type":"Feature","id":"SV-LI","properties":{"id":"SV-LI","countryCode":"SV","isoSubdivision":"SV-LI","name":"La Libertad","name_en":"La Libertad","name_ko":"라리베르타드","type":"Department","labelLongitude":-89.359,"labelLatitude":13.773,"minZoom":10},"geometry":{"type":"Polygon","coordinates":[[[-89.136,13.414],[-89.184,13.443],[-89.251,13.472],[-89.325,13.489],[-89.359,13.489],[-89.385,13.495],[-89.527,13.494],[-89.588,13.509],[-89.609,13.513],[-89.607,13.519],[-89.596,13.543],[-89.591,13.551],[-89.565,13.573],[-89.561,13.578],[-89.558,13.582],[-89.557,13.594],[-89.555,13.602],[-89.553,13.607],[-89.55,13.61],[-89.548,13.612],[-89.546,13.614],[-89.525,13.635],[-89.52,13.642],[-89.517,13.646],[-89.517,13.65],[-89.518,13.672],[-89.516,13.683],[-89.513,13.695],[-89.511,13.701],[-89.509,13.704],[-89.507,13.706],[-89.503,13.708],[-89.501,13.709],[-89.494,13.71],[-89.49,13.711],[-89.486,13.714],[-89.474,13.729],[-89.469,13.734],[-89.454,13.742],[-89.447,13.746],[-89.44,13.752],[-89.438,13.756],[-89.436,13.76],[-89.437,13.763],[-89.438,13.765],[-89.439,13.767],[-89.441,13.769],[-89.443,13.77],[-89.445,13.772],[-89.457,13.775],[-89.452,13.803],[-89.434,13.849],[-89.433,13.871],[-89.433,13.889],[-89.432,13.916],[-89.431,13.921],[-89.429,13.923],[-89.427,13.924],[-89.425,13.925],[-89.422,13.925],[-89.42,13.924],[-89.417,13.924],[-89.414,13.927],[-89.406,13.939],[-89.403,13.94],[-89.401,13.94],[-89.397,13.94],[-89.394,13.941],[-89.389,13.943],[-89.386,13.945],[-89.385,13.949],[-89.384,13.968],[-89.384,13.971],[-89.382,13.985],[-89.371,14.041],[-89.367,14.047],[-89.364,14.054],[-89.355,14.057],[-89.344,14.06],[-89.335,14.064],[-89.325,14.072],[-89.314,14.07],[-89.296,14.06],[-89.28,14.057],[-89.277,14.056],[-89.267,14.052],[-89.268,14.018],[-89.274,13.997],[-89.274,13.992],[-89.273,13.988],[-89.267,13.983],[-89.265,13.98],[-89.262,13.975],[-89.257,13.963],[-89.254,13.958],[-89.251,13.954],[-89.247,13.952],[-89.242,13.95],[-89.234,13.947],[-89.231,13.947],[-89.222,13.948],[-89.219,13.948],[-89.216,13.947],[-89.213,13.947],[-89.21,13.946],[-89.207,13.944],[-89.203,13.941],[-89.198,13.938],[-89.197,13.936],[-89.196,13.934],[-89.199,13.928],[-89.2,13.922],[-89.201,13.921],[-89.201,13.92],[-89.209,13.921],[-89.211,13.92],[-89.213,13.918],[-89.214,13.915],[-89.219,13.859],[-89.221,13.853],[-89.222,13.851],[-89.224,13.85],[-89.229,13.848],[-89.231,13.847],[-89.233,13.845],[-89.236,13.841],[-89.238,13.836],[-89.24,13.832],[-89.241,13.814],[-89.244,13.807],[-89.247,13.799],[-89.249,13.79],[-89.25,13.774],[-89.251,13.77],[-89.251,13.767],[-89.258,13.755],[-89.263,13.742],[-89.262,13.738],[-89.261,13.736],[-89.258,13.735],[-89.255,13.735],[-89.25,13.729],[-89.251,13.719],[-89.25,13.709],[-89.249,13.707],[-89.248,13.705],[-89.246,13.703],[-89.242,13.7],[-89.24,13.698],[-89.239,13.694],[-89.237,13.686],[-89.236,13.682],[-89.234,13.679],[-89.232,13.678],[-89.217,13.67],[-89.215,13.669],[-89.211,13.665],[-89.204,13.656],[-89.203,13.653],[-89.204,13.65],[-89.207,13.644],[-89.209,13.638],[-89.209,13.635],[-89.207,13.633],[-89.199,13.629],[-89.198,13.627],[-89.199,13.625],[-89.2,13.623],[-89.202,13.621],[-89.204,13.615],[-89.205,13.606],[-89.203,13.565],[-89.203,13.562],[-89.209,13.546],[-89.212,13.537],[-89.212,13.532],[-89.211,13.529],[-89.195,13.503],[-89.19,13.492],[-89.188,13.49],[-89.186,13.488],[-89.183,13.488],[-89.18,13.488],[-89.174,13.49],[-89.164,13.493],[-89.158,13.494],[-89.154,13.493],[-89.152,13.492],[-89.144,13.489],[-89.141,13.473],[-89.138,13.469],[-89.135,13.469],[-89.131,13.469],[-89.126,13.467],[-89.116,13.464],[-89.113,13.46],[-89.112,13.457],[-89.114,13.453],[-89.119,13.447],[-89.121,13.445],[-89.122,13.443],[-89.13,13.43],[-89.133,13.424],[-89.136,13.415],[-89.136,13.414]]]}},{"type":"Feature","id":"SV-MO","properties":{"id":"SV-MO","countryCode":"SV","isoSubdivision":"SV-MO","name":"Morazán","name_en":"Morazán","name_ko":"모라산","type":"Department","labelLongitude":-88.105,"labelLatitude":13.774,"minZoom":10},"geometry":{"type":"Polygon","coordinates":[[[-88.235,13.993],[-88.22,13.991],[-88.218,13.991],[-88.193,13.986],[-88.178,13.985],[-88.125,13.991],[-88.099,13.99],[-88.088,13.981],[-88.073,13.943],[-88.058,13.926],[-88.04,13.91],[-88.024,13.891],[-88.015,13.866],[-87.97,13.889],[-87.955,13.892],[-87.953,13.892],[-87.949,13.872],[-87.945,13.856],[-87.943,13.828],[-87.947,13.767],[-87.947,13.764],[-87.946,13.761],[-87.945,13.759],[-87.941,13.753],[-87.939,13.751],[-87.938,13.749],[-87.937,13.746],[-87.936,13.74],[-87.937,13.721],[-87.94,13.698],[-87.946,13.671],[-87.969,13.613],[-87.97,13.595],[-87.978,13.584],[-88.009,13.551],[-88.03,13.555],[-88.04,13.554],[-88.08,13.543],[-88.087,13.542],[-88.092,13.542],[-88.093,13.544],[-88.095,13.547],[-88.096,13.549],[-88.098,13.552],[-88.102,13.555],[-88.116,13.563],[-88.118,13.565],[-88.12,13.567],[-88.121,13.569],[-88.124,13.587],[-88.126,13.592],[-88.129,13.599],[-88.134,13.604],[-88.137,13.607],[-88.141,13.608],[-88.18,13.605],[-88.185,13.603],[-88.19,13.602],[-88.198,13.597],[-88.204,13.595],[-88.206,13.597],[-88.206,13.598],[-88.205,13.6],[-88.199,13.608],[-88.198,13.611],[-88.197,13.613],[-88.199,13.616],[-88.201,13.618],[-88.208,13.622],[-88.211,13.624],[-88.212,13.626],[-88.213,13.628],[-88.214,13.631],[-88.214,13.634],[-88.216,13.638],[-88.22,13.643],[-88.23,13.65],[-88.233,13.653],[-88.235,13.659],[-88.238,13.664],[-88.251,13.675],[-88.256,13.681],[-88.259,13.686],[-88.261,13.711],[-88.261,13.714],[-88.26,13.716],[-88.258,13.718],[-88.225,13.741],[-88.221,13.743],[-88.213,13.746],[-88.211,13.747],[-88.209,13.749],[-88.207,13.751],[-88.206,13.754],[-88.206,13.757],[-88.208,13.763],[-88.211,13.767],[-88.213,13.77],[-88.251,13.795],[-88.257,13.8],[-88.26,13.803],[-88.261,13.806],[-88.262,13.809],[-88.262,13.818],[-88.261,13.824],[-88.261,13.826],[-88.26,13.827],[-88.259,13.829],[-88.256,13.833],[-88.254,13.835],[-88.252,13.836],[-88.25,13.838],[-88.249,13.84],[-88.248,13.842],[-88.247,13.844],[-88.246,13.847],[-88.246,13.853],[-88.249,13.862],[-88.253,13.869],[-88.255,13.873],[-88.255,13.877],[-88.257,13.885],[-88.269,13.912],[-88.274,13.919],[-88.27,13.926],[-88.264,13.933],[-88.252,13.938],[-88.243,13.937],[-88.236,13.938],[-88.232,13.952],[-88.233,13.954],[-88.242,13.963],[-88.244,13.966],[-88.245,13.986],[-88.245,13.989],[-88.235,13.993]]]}},{"type":"Feature","id":"SV-PA","properties":{"id":"SV-PA","countryCode":"SV","isoSubdivision":"SV-PA","name":"La Paz","name_en":"La Paz","name_ko":"라파스","type":"Department","labelLongitude":-88.963,"labelLatitude":13.487,"minZoom":10},"geometry":{"type":"Polygon","coordinates":[[[-88.832,13.266],[-89.065,13.372],[-89.136,13.414],[-89.136,13.415],[-89.133,13.424],[-89.13,13.43],[-89.122,13.443],[-89.121,13.445],[-89.119,13.447],[-89.114,13.453],[-89.112,13.457],[-89.113,13.46],[-89.116,13.464],[-89.126,13.467],[-89.131,13.469],[-89.135,13.469],[-89.138,13.469],[-89.141,13.473],[-89.144,13.489],[-89.142,13.498],[-89.139,13.5],[-89.132,13.507],[-89.127,13.518],[-89.118,13.543],[-89.116,13.554],[-89.116,13.561],[-89.118,13.565],[-89.125,13.579],[-89.128,13.587],[-89.13,13.595],[-89.13,13.6],[-89.128,13.603],[-89.126,13.604],[-89.123,13.605],[-89.12,13.605],[-89.117,13.604],[-89.101,13.599],[-89.098,13.599],[-89.095,13.599],[-89.09,13.603],[-89.06,13.64],[-89.024,13.673],[-88.98,13.657],[-88.962,13.648],[-88.943,13.642],[-88.94,13.642],[-88.935,13.643],[-88.934,13.644],[-88.931,13.645],[-88.93,13.647],[-88.928,13.651],[-88.926,13.653],[-88.924,13.654],[-88.921,13.655],[-88.909,13.657],[-88.903,13.659],[-88.896,13.663],[-88.889,13.643],[-88.888,13.627],[-88.889,13.61],[-88.888,13.603],[-88.886,13.599],[-88.883,13.598],[-88.88,13.598],[-88.877,13.599],[-88.853,13.606],[-88.849,13.606],[-88.844,13.606],[-88.837,13.603],[-88.834,13.6],[-88.809,13.548],[-88.808,13.545],[-88.808,13.542],[-88.808,13.536],[-88.809,13.53],[-88.817,13.51],[-88.818,13.507],[-88.819,13.505],[-88.819,13.502],[-88.819,13.5],[-88.823,13.478],[-88.824,13.474],[-88.822,13.456],[-88.821,13.451],[-88.819,13.446],[-88.813,13.439],[-88.807,13.435],[-88.798,13.43],[-88.791,13.423],[-88.785,13.415],[-88.782,13.41],[-88.781,13.405],[-88.782,13.402],[-88.783,13.397],[-88.784,13.394],[-88.785,13.392],[-88.791,13.387],[-88.793,13.386],[-88.794,13.384],[-88.795,13.381],[-88.795,13.378],[-88.796,13.375],[-88.791,13.334],[-88.791,13.328],[-88.793,13.326],[-88.794,13.324],[-88.796,13.322],[-88.798,13.321],[-88.807,13.316],[-88.815,13.314],[-88.819,13.311],[-88.823,13.308],[-88.825,13.306],[-88.826,13.304],[-88.827,13.302],[-88.828,13.299],[-88.829,13.296],[-88.832,13.266]]]}},{"type":"Feature","id":"SV-SA","properties":{"id":"SV-SA","countryCode":"SV","isoSubdivision":"SV-SA","name":"Santa Ana","name_en":"Santa Ana","name_ko":"산타아나","type":"Department","labelLongitude":-89.501,"labelLatitude":14.102,"minZoom":10},"geometry":{"type":"Polygon","coordinates":[[[-89.748,14.045],[-89.754,14.059],[-89.755,14.067],[-89.753,14.075],[-89.71,14.149],[-89.69,14.17],[-89.665,14.189],[-89.638,14.201],[-89.531,14.226],[-89.525,14.232],[-89.525,14.247],[-89.528,14.251],[-89.541,14.258],[-89.545,14.262],[-89.547,14.268],[-89.549,14.284],[-89.55,14.288],[-89.556,14.299],[-89.559,14.303],[-89.564,14.308],[-89.571,14.311],[-89.592,14.314],[-89.598,14.328],[-89.592,14.336],[-89.582,14.343],[-89.576,14.353],[-89.579,14.365],[-89.586,14.375],[-89.591,14.386],[-89.584,14.402],[-89.57,14.412],[-89.555,14.411],[-89.544,14.4],[-89.541,14.382],[-89.528,14.391],[-89.503,14.42],[-89.496,14.423],[-89.485,14.427],[-89.469,14.425],[-89.458,14.42],[-89.447,14.416],[-89.431,14.419],[-89.408,14.442],[-89.398,14.445],[-89.397,14.426],[-89.392,14.434],[-89.391,14.436],[-89.362,14.416],[-89.362,14.415],[-89.346,14.413],[-89.308,14.379],[-89.301,14.371],[-89.3,14.369],[-89.297,14.362],[-89.292,14.355],[-89.29,14.352],[-89.287,14.35],[-89.272,14.342],[-89.27,14.34],[-89.265,14.334],[-89.247,14.323],[-89.259,14.287],[-89.263,14.267],[-89.272,14.257],[-89.309,14.242],[-89.31,14.222],[-89.309,14.211],[-89.309,14.207],[-89.311,14.203],[-89.33,14.177],[-89.334,14.173],[-89.336,14.172],[-89.338,14.171],[-89.34,14.17],[-89.343,14.169],[-89.346,14.168],[-89.357,14.168],[-89.359,14.167],[-89.362,14.167],[-89.364,14.166],[-89.366,14.164],[-89.368,14.163],[-89.38,14.142],[-89.382,14.139],[-89.384,14.137],[-89.387,14.136],[-89.389,14.135],[-89.408,14.136],[-89.427,14.072],[-89.424,14.05],[-89.413,14.04],[-89.398,14.037],[-89.383,14.037],[-89.371,14.041],[-89.382,13.985],[-89.384,13.971],[-89.384,13.968],[-89.385,13.949],[-89.386,13.945],[-89.389,13.943],[-89.394,13.941],[-89.397,13.94],[-89.401,13.94],[-89.403,13.94],[-89.406,13.939],[-89.414,13.927],[-89.417,13.924],[-89.42,13.924],[-89.422,13.925],[-89.425,13.925],[-89.427,13.924],[-89.429,13.923],[-89.431,13.921],[-89.432,13.916],[-89.433,13.889],[-89.433,13.871],[-89.434,13.849],[-89.452,13.803],[-89.457,13.775],[-89.504,13.784],[-89.517,13.788],[-89.519,13.79],[-89.52,13.792],[-89.526,13.807],[-89.539,13.819],[-89.56,13.834],[-89.57,13.84],[-89.577,13.843],[-89.58,13.842],[-89.582,13.841],[-89.583,13.839],[-89.586,13.835],[-89.589,13.828],[-89.59,13.822],[-89.59,13.813],[-89.591,13.811],[-89.593,13.808],[-89.597,13.807],[-89.604,13.805],[-89.609,13.806],[-89.612,13.807],[-89.614,13.809],[-89.616,13.811],[-89.617,13.813],[-89.618,13.816],[-89.621,13.819],[-89.625,13.824],[-89.632,13.825],[-89.635,13.827],[-89.636,13.829],[-89.636,13.832],[-89.635,13.834],[-89.633,13.836],[-89.629,13.839],[-89.627,13.841],[-89.626,13.843],[-89.625,13.846],[-89.625,13.849],[-89.626,13.854],[-89.631,13.861],[-89.637,13.866],[-89.64,13.87],[-89.642,13.872],[-89.645,13.88],[-89.648,13.884],[-89.664,13.899],[-89.67,13.903],[-89.675,13.905],[-89.678,13.905],[-89.681,13.905],[-89.687,13.904],[-89.696,13.903],[-89.719,13.909],[-89.699,13.976],[-89.696,13.994],[-89.697,13.996],[-89.699,14],[-89.703,14.004],[-89.707,14.007],[-89.71,14.01],[-89.712,14.013],[-89.713,14.015],[-89.715,14.023],[-89.716,14.025],[-89.718,14.027],[-89.722,14.03],[-89.74,14.041],[-89.748,14.045]]]}},{"type":"Feature","id":"SV-SM","properties":{"id":"SV-SM","countryCode":"SV","isoSubdivision":"SV-SM","name":"San Miguel","name_en":"San Miguel","name_ko":"산미겔","type":"Department","labelLongitude":-88.195,"labelLatitude":13.488,"minZoom":10},"geometry":{"type":"Polygon","coordinates":[[[-88.326,13.885],[-88.319,13.898],[-88.308,13.901],[-88.296,13.902],[-88.285,13.906],[-88.278,13.913],[-88.274,13.919],[-88.269,13.912],[-88.257,13.885],[-88.255,13.877],[-88.255,13.873],[-88.253,13.869],[-88.249,13.862],[-88.246,13.853],[-88.246,13.847],[-88.247,13.844],[-88.248,13.842],[-88.249,13.84],[-88.25,13.838],[-88.252,13.836],[-88.254,13.835],[-88.256,13.833],[-88.259,13.829],[-88.26,13.827],[-88.261,13.826],[-88.261,13.824],[-88.262,13.818],[-88.262,13.809],[-88.261,13.806],[-88.26,13.803],[-88.257,13.8],[-88.251,13.795],[-88.213,13.77],[-88.211,13.767],[-88.208,13.763],[-88.206,13.757],[-88.206,13.754],[-88.207,13.751],[-88.209,13.749],[-88.211,13.747],[-88.213,13.746],[-88.221,13.743],[-88.225,13.741],[-88.258,13.718],[-88.26,13.716],[-88.261,13.714],[-88.261,13.711],[-88.259,13.686],[-88.256,13.681],[-88.251,13.675],[-88.238,13.664],[-88.235,13.659],[-88.233,13.653],[-88.23,13.65],[-88.22,13.643],[-88.216,13.638],[-88.214,13.634],[-88.214,13.631],[-88.213,13.628],[-88.212,13.626],[-88.211,13.624],[-88.208,13.622],[-88.201,13.618],[-88.199,13.616],[-88.197,13.613],[-88.198,13.611],[-88.199,13.608],[-88.205,13.6],[-88.206,13.598],[-88.206,13.597],[-88.204,13.595],[-88.198,13.597],[-88.19,13.602],[-88.185,13.603],[-88.18,13.605],[-88.141,13.608],[-88.137,13.607],[-88.134,13.604],[-88.129,13.599],[-88.126,13.592],[-88.124,13.587],[-88.121,13.569],[-88.12,13.567],[-88.118,13.565],[-88.116,13.563],[-88.102,13.555],[-88.098,13.552],[-88.096,13.549],[-88.095,13.547],[-88.093,13.544],[-88.092,13.542],[-88.087,13.542],[-88.08,13.543],[-88.04,13.554],[-88.03,13.555],[-88.009,13.551],[-88.015,13.543],[-88.017,13.53],[-88.017,13.5],[-88.013,13.486],[-88.013,13.482],[-88.014,13.479],[-88.018,13.475],[-88.02,13.472],[-88.023,13.47],[-88.027,13.468],[-88.029,13.466],[-88.031,13.462],[-88.032,13.456],[-88.031,13.43],[-88.028,13.413],[-88.027,13.41],[-88.026,13.408],[-88.017,13.393],[-88.016,13.391],[-88.015,13.388],[-88.014,13.386],[-88.027,13.314],[-88.027,13.31],[-88.025,13.304],[-88.026,13.298],[-88.039,13.256],[-88.041,13.254],[-88.046,13.252],[-88.049,13.253],[-88.053,13.253],[-88.063,13.257],[-88.072,13.262],[-88.08,13.268],[-88.082,13.269],[-88.085,13.259],[-88.086,13.251],[-88.091,13.173],[-88.098,13.174],[-88.105,13.174],[-88.113,13.171],[-88.174,13.241],[-88.176,13.242],[-88.179,13.242],[-88.182,13.242],[-88.21,13.238],[-88.212,13.239],[-88.214,13.241],[-88.214,13.246],[-88.213,13.249],[-88.213,13.252],[-88.205,13.266],[-88.206,13.268],[-88.208,13.271],[-88.215,13.275],[-88.218,13.278],[-88.221,13.281],[-88.221,13.296],[-88.221,13.299],[-88.222,13.302],[-88.224,13.305],[-88.227,13.309],[-88.231,13.309],[-88.235,13.309],[-88.244,13.304],[-88.249,13.302],[-88.252,13.301],[-88.255,13.301],[-88.257,13.302],[-88.26,13.302],[-88.262,13.304],[-88.266,13.307],[-88.268,13.308],[-88.271,13.309],[-88.273,13.309],[-88.276,13.309],[-88.279,13.311],[-88.283,13.315],[-88.292,13.325],[-88.297,13.329],[-88.301,13.332],[-88.321,13.334],[-88.326,13.336],[-88.334,13.339],[-88.336,13.34],[-88.338,13.342],[-88.345,13.35],[-88.355,13.366],[-88.36,13.377],[-88.366,13.395],[-88.367,13.402],[-88.368,13.408],[-88.368,13.415],[-88.368,13.418],[-88.37,13.42],[-88.374,13.422],[-88.378,13.42],[-88.38,13.42],[-88.381,13.421],[-88.383,13.424],[-88.386,13.443],[-88.386,13.449],[-88.388,13.463],[-88.388,13.466],[-88.388,13.469],[-88.387,13.471],[-88.385,13.473],[-88.383,13.474],[-88.382,13.473],[-88.381,13.472],[-88.379,13.47],[-88.378,13.469],[-88.376,13.469],[-88.375,13.471],[-88.374,13.473],[-88.373,13.479],[-88.373,13.486],[-88.373,13.489],[-88.372,13.491],[-88.371,13.494],[-88.369,13.495],[-88.364,13.5],[-88.364,13.501],[-88.363,13.503],[-88.362,13.505],[-88.363,13.509],[-88.367,13.522],[-88.367,13.527],[-88.367,13.532],[-88.365,13.539],[-88.365,13.542],[-88.367,13.545],[-88.379,13.57],[-88.38,13.573],[-88.38,13.576],[-88.38,13.582],[-88.38,13.585],[-88.379,13.587],[-88.378,13.59],[-88.376,13.592],[-88.374,13.593],[-88.368,13.594],[-88.366,13.596],[-88.364,13.597],[-88.363,13.599],[-88.362,13.602],[-88.362,13.605],[-88.362,13.608],[-88.364,13.612],[-88.366,13.619],[-88.368,13.628],[-88.368,13.631],[-88.368,13.634],[-88.363,13.647],[-88.363,13.649],[-88.366,13.652],[-88.372,13.654],[-88.397,13.657],[-88.405,13.659],[-88.413,13.665],[-88.42,13.672],[-88.428,13.685],[-88.435,13.692],[-88.446,13.693],[-88.487,13.688],[-88.499,13.706],[-88.53,13.736],[-88.532,13.759],[-88.532,13.76],[-88.523,13.777],[-88.514,13.791],[-88.516,13.805],[-88.505,13.811],[-88.498,13.821],[-88.497,13.833],[-88.503,13.846],[-88.499,13.85],[-88.497,13.851],[-88.47,13.852],[-88.451,13.864],[-88.433,13.871],[-88.393,13.88],[-88.383,13.879],[-88.367,13.873],[-88.36,13.872],[-88.359,13.875],[-88.359,13.881],[-88.358,13.887],[-88.355,13.891],[-88.349,13.891],[-88.341,13.89],[-88.333,13.888],[-88.326,13.885]]]}},{"type":"Feature","id":"SV-SO","properties":{"id":"SV-SO","countryCode":"SV","isoSubdivision":"SV-SO","name":"Sonsonate","name_en":"Sonsonate","name_ko":"손소나테","type":"Department","labelLongitude":-89.694,"labelLatitude":13.717,"minZoom":10},"geometry":{"type":"Polygon","coordinates":[[[-89.609,13.513],[-89.616,13.514],[-89.68,13.535],[-89.713,13.528],[-89.808,13.527],[-89.823,13.537],[-89.833,13.574],[-89.837,13.597],[-89.85,13.607],[-89.87,13.619],[-89.951,13.664],[-89.953,13.665],[-89.951,13.669],[-89.935,13.693],[-89.928,13.702],[-89.925,13.704],[-89.923,13.706],[-89.92,13.707],[-89.916,13.708],[-89.911,13.709],[-89.907,13.709],[-89.903,13.709],[-89.9,13.708],[-89.898,13.707],[-89.894,13.704],[-89.892,13.702],[-89.879,13.688],[-89.871,13.681],[-89.869,13.68],[-89.863,13.678],[-89.833,13.677],[-89.825,13.678],[-89.82,13.68],[-89.814,13.702],[-89.812,13.707],[-89.799,13.729],[-89.799,13.732],[-89.798,13.741],[-89.796,13.745],[-89.794,13.751],[-89.786,13.759],[-89.783,13.764],[-89.782,13.768],[-89.783,13.774],[-89.791,13.8],[-89.791,13.804],[-89.789,13.809],[-89.768,13.839],[-89.768,13.843],[-89.769,13.845],[-89.771,13.85],[-89.773,13.854],[-89.774,13.86],[-89.777,13.879],[-89.777,13.883],[-89.776,13.889],[-89.773,13.892],[-89.771,13.894],[-89.759,13.896],[-89.737,13.902],[-89.719,13.909],[-89.696,13.903],[-89.687,13.904],[-89.681,13.905],[-89.678,13.905],[-89.675,13.905],[-89.67,13.903],[-89.664,13.899],[-89.648,13.884],[-89.645,13.88],[-89.642,13.872],[-89.64,13.87],[-89.637,13.866],[-89.631,13.861],[-89.626,13.854],[-89.625,13.849],[-89.625,13.846],[-89.626,13.843],[-89.627,13.841],[-89.629,13.839],[-89.633,13.836],[-89.635,13.834],[-89.636,13.832],[-89.636,13.829],[-89.635,13.827],[-89.632,13.825],[-89.625,13.824],[-89.621,13.819],[-89.618,13.816],[-89.617,13.813],[-89.616,13.811],[-89.614,13.809],[-89.612,13.807],[-89.609,13.806],[-89.604,13.805],[-89.597,13.807],[-89.593,13.808],[-89.591,13.811],[-89.59,13.813],[-89.59,13.822],[-89.589,13.828],[-89.586,13.835],[-89.583,13.839],[-89.582,13.841],[-89.58,13.842],[-89.577,13.843],[-89.57,13.84],[-89.56,13.834],[-89.539,13.819],[-89.526,13.807],[-89.52,13.792],[-89.519,13.79],[-89.517,13.788],[-89.504,13.784],[-89.457,13.775],[-89.445,13.772],[-89.443,13.77],[-89.441,13.769],[-89.439,13.767],[-89.438,13.765],[-89.437,13.763],[-89.436,13.76],[-89.438,13.756],[-89.44,13.752],[-89.447,13.746],[-89.454,13.742],[-89.469,13.734],[-89.474,13.729],[-89.486,13.714],[-89.49,13.711],[-89.494,13.71],[-89.501,13.709],[-89.503,13.708],[-89.507,13.706],[-89.509,13.704],[-89.511,13.701],[-89.513,13.695],[-89.516,13.683],[-89.518,13.672],[-89.517,13.65],[-89.517,13.646],[-89.52,13.642],[-89.525,13.635],[-89.546,13.614],[-89.548,13.612],[-89.55,13.61],[-89.553,13.607],[-89.555,13.602],[-89.557,13.594],[-89.558,13.582],[-89.561,13.578],[-89.565,13.573],[-89.591,13.551],[-89.596,13.543],[-89.607,13.519],[-89.609,13.513]]]}},{"type":"Feature","id":"SV-SS","properties":{"id":"SV-SS","countryCode":"SV","isoSubdivision":"SV-SS","name":"San Salvador","name_en":"San Salvador","name_ko":"산살바도르","type":"Department","labelLongitude":-89.149,"labelLatitude":13.713,"minZoom":10},"geometry":{"type":"Polygon","coordinates":[[[-89.141,14.067],[-89.142,14.057],[-89.146,14.045],[-89.151,14.036],[-89.152,14.033],[-89.152,14.028],[-89.149,14.012],[-89.148,14.002],[-89.148,14],[-89.148,13.999],[-89.148,13.995],[-89.15,13.99],[-89.151,13.984],[-89.151,13.981],[-89.152,13.979],[-89.155,13.975],[-89.157,13.973],[-89.159,13.972],[-89.16,13.97],[-89.161,13.969],[-89.16,13.96],[-89.158,13.952],[-89.148,13.933],[-89.127,13.9],[-89.121,13.893],[-89.12,13.89],[-89.122,13.887],[-89.124,13.885],[-89.127,13.883],[-89.134,13.88],[-89.136,13.878],[-89.133,13.87],[-89.106,13.83],[-89.097,13.819],[-89.09,13.814],[-89.084,13.814],[-89.081,13.813],[-89.078,13.812],[-89.076,13.811],[-89.064,13.793],[-89.059,13.788],[-89.056,13.786],[-89.053,13.785],[-89.051,13.782],[-89.05,13.778],[-89.052,13.756],[-89.051,13.752],[-89.033,13.719],[-89.028,13.713],[-89.027,13.708],[-89.024,13.703],[-89.024,13.673],[-89.06,13.64],[-89.09,13.603],[-89.095,13.599],[-89.098,13.599],[-89.101,13.599],[-89.117,13.604],[-89.12,13.605],[-89.123,13.605],[-89.126,13.604],[-89.128,13.603],[-89.13,13.6],[-89.13,13.595],[-89.128,13.587],[-89.125,13.579],[-89.118,13.565],[-89.116,13.561],[-89.116,13.554],[-89.118,13.543],[-89.127,13.518],[-89.132,13.507],[-89.139,13.5],[-89.142,13.498],[-89.144,13.489],[-89.152,13.492],[-89.154,13.493],[-89.158,13.494],[-89.164,13.493],[-89.174,13.49],[-89.18,13.488],[-89.183,13.488],[-89.186,13.488],[-89.188,13.49],[-89.19,13.492],[-89.195,13.503],[-89.211,13.529],[-89.212,13.532],[-89.212,13.537],[-89.209,13.546],[-89.203,13.562],[-89.203,13.565],[-89.205,13.606],[-89.204,13.615],[-89.202,13.621],[-89.2,13.623],[-89.199,13.625],[-89.198,13.627],[-89.199,13.629],[-89.207,13.633],[-89.209,13.635],[-89.209,13.638],[-89.207,13.644],[-89.204,13.65],[-89.203,13.653],[-89.204,13.656],[-89.211,13.665],[-89.215,13.669],[-89.217,13.67],[-89.232,13.678],[-89.234,13.679],[-89.236,13.682],[-89.237,13.686],[-89.239,13.694],[-89.24,13.698],[-89.242,13.7],[-89.246,13.703],[-89.248,13.705],[-89.249,13.707],[-89.25,13.709],[-89.251,13.719],[-89.25,13.729],[-89.255,13.735],[-89.258,13.735],[-89.261,13.736],[-89.262,13.738],[-89.263,13.742],[-89.258,13.755],[-89.251,13.767],[-89.251,13.77],[-89.25,13.774],[-89.249,13.79],[-89.247,13.799],[-89.244,13.807],[-89.241,13.814],[-89.24,13.832],[-89.238,13.836],[-89.236,13.841],[-89.233,13.845],[-89.231,13.847],[-89.229,13.848],[-89.224,13.85],[-89.222,13.851],[-89.221,13.853],[-89.219,13.859],[-89.214,13.915],[-89.213,13.918],[-89.211,13.92],[-89.209,13.921],[-89.201,13.92],[-89.201,13.921],[-89.2,13.922],[-89.199,13.928],[-89.196,13.934],[-89.197,13.936],[-89.198,13.938],[-89.203,13.941],[-89.207,13.944],[-89.21,13.946],[-89.213,13.947],[-89.216,13.947],[-89.219,13.948],[-89.222,13.948],[-89.231,13.947],[-89.234,13.947],[-89.242,13.95],[-89.247,13.952],[-89.251,13.954],[-89.254,13.958],[-89.257,13.963],[-89.262,13.975],[-89.265,13.98],[-89.267,13.983],[-89.273,13.988],[-89.274,13.992],[-89.274,13.997],[-89.268,14.018],[-89.267,14.052],[-89.26,14.051],[-89.256,14.053],[-89.243,14.062],[-89.235,14.065],[-89.215,14.056],[-89.201,14.056],[-89.194,14.068],[-89.18,14.057],[-89.169,14.055],[-89.141,14.067]]]}},{"type":"Feature","id":"SV-SV","properties":{"id":"SV-SV","countryCode":"SV","isoSubdivision":"SV-SV","name":"San Vicente","name_en":"San Vicente","name_ko":"산비센테","type":"Department","labelLongitude":-88.692,"labelLatitude":13.629,"minZoom":10},"geometry":{"type":"Polygon","coordinates":[[[-88.817,13.259],[-88.832,13.266],[-88.829,13.296],[-88.828,13.299],[-88.827,13.302],[-88.826,13.304],[-88.825,13.306],[-88.823,13.308],[-88.819,13.311],[-88.815,13.314],[-88.807,13.316],[-88.798,13.321],[-88.796,13.322],[-88.794,13.324],[-88.793,13.326],[-88.791,13.328],[-88.791,13.334],[-88.796,13.375],[-88.795,13.378],[-88.795,13.381],[-88.794,13.384],[-88.793,13.386],[-88.791,13.387],[-88.785,13.392],[-88.784,13.394],[-88.783,13.397],[-88.782,13.402],[-88.781,13.405],[-88.782,13.41],[-88.785,13.415],[-88.791,13.423],[-88.798,13.43],[-88.807,13.435],[-88.813,13.439],[-88.819,13.446],[-88.821,13.451],[-88.822,13.456],[-88.824,13.474],[-88.823,13.478],[-88.819,13.5],[-88.819,13.502],[-88.819,13.505],[-88.818,13.507],[-88.817,13.51],[-88.809,13.53],[-88.808,13.536],[-88.808,13.542],[-88.808,13.545],[-88.809,13.548],[-88.834,13.6],[-88.837,13.603],[-88.844,13.606],[-88.849,13.606],[-88.853,13.606],[-88.877,13.599],[-88.88,13.598],[-88.883,13.598],[-88.886,13.599],[-88.888,13.603],[-88.889,13.61],[-88.888,13.627],[-88.889,13.643],[-88.896,13.663],[-88.877,13.681],[-88.874,13.685],[-88.872,13.689],[-88.868,13.703],[-88.85,13.751],[-88.849,13.779],[-88.847,13.782],[-88.844,13.786],[-88.838,13.786],[-88.832,13.784],[-88.822,13.781],[-88.815,13.782],[-88.805,13.785],[-88.774,13.799],[-88.767,13.8],[-88.76,13.799],[-88.754,13.798],[-88.751,13.8],[-88.748,13.804],[-88.743,13.81],[-88.739,13.812],[-88.736,13.812],[-88.721,13.802],[-88.716,13.801],[-88.709,13.8],[-88.677,13.801],[-88.671,13.799],[-88.657,13.799],[-88.646,13.797],[-88.644,13.796],[-88.625,13.782],[-88.623,13.781],[-88.612,13.778],[-88.606,13.774],[-88.603,13.773],[-88.596,13.771],[-88.594,13.769],[-88.592,13.767],[-88.591,13.762],[-88.59,13.759],[-88.589,13.757],[-88.587,13.755],[-88.583,13.754],[-88.558,13.751],[-88.549,13.749],[-88.532,13.759],[-88.53,13.736],[-88.499,13.706],[-88.487,13.688],[-88.55,13.644],[-88.556,13.626],[-88.571,13.606],[-88.591,13.594],[-88.613,13.599],[-88.642,13.564],[-88.643,13.558],[-88.659,13.555],[-88.665,13.547],[-88.667,13.517],[-88.676,13.487],[-88.721,13.403],[-88.726,13.392],[-88.728,13.379],[-88.729,13.348],[-88.732,13.341],[-88.749,13.325],[-88.759,13.311],[-88.765,13.3],[-88.774,13.293],[-88.794,13.29],[-88.806,13.286],[-88.813,13.276],[-88.817,13.262],[-88.817,13.26],[-88.817,13.259]]]}},{"type":"Feature","id":"SV-UN","properties":{"id":"SV-UN","countryCode":"SV","isoSubdivision":"SV-UN","name":"La Unión","name_en":"La Unión","name_ko":"라우니온","type":"Department","labelLongitude":-87.93,"labelLatitude":13.302,"minZoom":10},"geometry":{"type":"MultiPolygon","coordinates":[[[[-87.818,13.916],[-87.808,13.909],[-87.799,13.882],[-87.791,13.87],[-87.785,13.867],[-87.771,13.862],[-87.765,13.859],[-87.75,13.846],[-87.721,13.822],[-87.704,13.815],[-87.713,13.8],[-87.733,13.755],[-87.738,13.739],[-87.731,13.722],[-87.736,13.711],[-87.746,13.702],[-87.755,13.69],[-87.759,13.672],[-87.758,13.635],[-87.76,13.617],[-87.784,13.56],[-87.79,13.533],[-87.779,13.51],[-87.769,13.506],[-87.748,13.513],[-87.733,13.508],[-87.726,13.499],[-87.721,13.487],[-87.719,13.474],[-87.721,13.461],[-87.738,13.442],[-87.817,13.407],[-87.818,13.407],[-87.826,13.411],[-87.831,13.42],[-87.838,13.441],[-87.866,13.393],[-87.874,13.365],[-87.855,13.353],[-87.844,13.348],[-87.81,13.317],[-87.792,13.305],[-87.79,13.299],[-87.79,13.287],[-87.798,13.266],[-87.818,13.25],[-87.892,13.214],[-87.912,13.198],[-87.916,13.182],[-87.893,13.167],[-87.928,13.159],[-88.066,13.168],[-88.091,13.173],[-88.086,13.251],[-88.085,13.259],[-88.082,13.269],[-88.08,13.268],[-88.072,13.262],[-88.063,13.257],[-88.053,13.253],[-88.049,13.253],[-88.046,13.252],[-88.041,13.254],[-88.039,13.256],[-88.026,13.298],[-88.025,13.304],[-88.027,13.31],[-88.027,13.314],[-88.014,13.386],[-88.015,13.388],[-88.016,13.391],[-88.017,13.393],[-88.026,13.408],[-88.027,13.41],[-88.028,13.413],[-88.031,13.43],[-88.032,13.456],[-88.031,13.462],[-88.029,13.466],[-88.027,13.468],[-88.023,13.47],[-88.02,13.472],[-88.018,13.475],[-88.014,13.479],[-88.013,13.482],[-88.013,13.486],[-88.017,13.5],[-88.017,13.53],[-88.015,13.543],[-88.009,13.551],[-87.978,13.584],[-87.97,13.595],[-87.969,13.613],[-87.946,13.671],[-87.94,13.698],[-87.937,13.721],[-87.936,13.74],[-87.937,13.746],[-87.938,13.749],[-87.939,13.751],[-87.941,13.753],[-87.945,13.759],[-87.946,13.761],[-87.947,13.764],[-87.947,13.767],[-87.943,13.828],[-87.945,13.856],[-87.949,13.872],[-87.953,13.892],[-87.947,13.891],[-87.932,13.882],[-87.925,13.88],[-87.921,13.882],[-87.908,13.892],[-87.9,13.894],[-87.89,13.894],[-87.871,13.89],[-87.861,13.89],[-87.851,13.897],[-87.843,13.907],[-87.833,13.915],[-87.818,13.916]]],[[[-87.726,13.198],[-87.727,13.211],[-87.72,13.216],[-87.706,13.212],[-87.698,13.193],[-87.697,13.178],[-87.693,13.168],[-87.702,13.163],[-87.715,13.168],[-87.723,13.164],[-87.723,13.175],[-87.728,13.186],[-87.726,13.198]]],[[[-87.766,13.248],[-87.758,13.244],[-87.751,13.229],[-87.757,13.221],[-87.764,13.214],[-87.777,13.226],[-87.78,13.242],[-87.774,13.247],[-87.766,13.248]]]]}},{"type":"Feature","id":"SV-US","properties":{"id":"SV-US","countryCode":"SV","isoSubdivision":"SV-US","name":"Usulután","name_en":"Usulután","name_ko":"우술루탄","type":"Department","labelLongitude":-88.529,"labelLatitude":13.41,"minZoom":10},"geometry":{"type":"Polygon","coordinates":[[[-88.113,13.171],[-88.122,13.168],[-88.208,13.16],[-88.301,13.174],[-88.325,13.167],[-88.338,13.171],[-88.352,13.174],[-88.352,13.18],[-88.33,13.182],[-88.328,13.197],[-88.34,13.216],[-88.358,13.229],[-88.354,13.221],[-88.343,13.205],[-88.338,13.195],[-88.374,13.196],[-88.392,13.194],[-88.407,13.188],[-88.397,13.184],[-88.389,13.185],[-88.38,13.187],[-88.366,13.188],[-88.366,13.18],[-88.389,13.171],[-88.415,13.172],[-88.435,13.184],[-88.441,13.208],[-88.431,13.204],[-88.427,13.201],[-88.414,13.215],[-88.414,13.221],[-88.431,13.229],[-88.45,13.255],[-88.462,13.262],[-88.459,13.248],[-88.453,13.236],[-88.45,13.225],[-88.455,13.215],[-88.469,13.223],[-88.512,13.233],[-88.53,13.243],[-88.546,13.272],[-88.554,13.276],[-88.566,13.277],[-88.599,13.284],[-88.613,13.284],[-88.654,13.276],[-88.71,13.275],[-88.723,13.27],[-88.716,13.264],[-88.709,13.261],[-88.701,13.259],[-88.695,13.262],[-88.667,13.256],[-88.586,13.264],[-88.577,13.263],[-88.564,13.256],[-88.557,13.25],[-88.545,13.235],[-88.537,13.229],[-88.537,13.221],[-88.555,13.224],[-88.569,13.227],[-88.599,13.236],[-88.599,13.229],[-88.517,13.212],[-88.474,13.199],[-88.455,13.18],[-88.462,13.168],[-88.48,13.171],[-88.5,13.181],[-88.513,13.191],[-88.527,13.198],[-88.786,13.245],[-88.817,13.259],[-88.817,13.26],[-88.817,13.262],[-88.813,13.276],[-88.806,13.286],[-88.794,13.29],[-88.774,13.293],[-88.765,13.3],[-88.759,13.311],[-88.749,13.325],[-88.732,13.341],[-88.729,13.348],[-88.728,13.379],[-88.726,13.392],[-88.721,13.403],[-88.676,13.487],[-88.667,13.517],[-88.665,13.547],[-88.659,13.555],[-88.643,13.558],[-88.642,13.564],[-88.613,13.599],[-88.591,13.594],[-88.571,13.606],[-88.556,13.626],[-88.55,13.644],[-88.487,13.688],[-88.446,13.693],[-88.435,13.692],[-88.428,13.685],[-88.42,13.672],[-88.413,13.665],[-88.405,13.659],[-88.397,13.657],[-88.372,13.654],[-88.366,13.652],[-88.363,13.649],[-88.363,13.647],[-88.368,13.634],[-88.368,13.631],[-88.368,13.628],[-88.366,13.619],[-88.364,13.612],[-88.362,13.608],[-88.362,13.605],[-88.362,13.602],[-88.363,13.599],[-88.364,13.597],[-88.366,13.596],[-88.368,13.594],[-88.374,13.593],[-88.376,13.592],[-88.378,13.59],[-88.379,13.587],[-88.38,13.585],[-88.38,13.582],[-88.38,13.576],[-88.38,13.573],[-88.379,13.57],[-88.367,13.545],[-88.365,13.542],[-88.365,13.539],[-88.367,13.532],[-88.367,13.527],[-88.367,13.522],[-88.363,13.509],[-88.362,13.505],[-88.363,13.503],[-88.364,13.501],[-88.364,13.5],[-88.369,13.495],[-88.371,13.494],[-88.372,13.491],[-88.373,13.489],[-88.373,13.486],[-88.373,13.479],[-88.374,13.473],[-88.375,13.471],[-88.376,13.469],[-88.378,13.469],[-88.379,13.47],[-88.381,13.472],[-88.382,13.473],[-88.383,13.474],[-88.385,13.473],[-88.387,13.471],[-88.388,13.469],[-88.388,13.466],[-88.388,13.463],[-88.386,13.449],[-88.386,13.443],[-88.383,13.424],[-88.381,13.421],[-88.38,13.42],[-88.378,13.42],[-88.374,13.422],[-88.37,13.42],[-88.368,13.418],[-88.368,13.415],[-88.368,13.408],[-88.367,13.402],[-88.366,13.395],[-88.36,13.377],[-88.355,13.366],[-88.345,13.35],[-88.338,13.342],[-88.336,13.34],[-88.334,13.339],[-88.326,13.336],[-88.321,13.334],[-88.301,13.332],[-88.297,13.329],[-88.292,13.325],[-88.283,13.315],[-88.279,13.311],[-88.276,13.309],[-88.273,13.309],[-88.271,13.309],[-88.268,13.308],[-88.266,13.307],[-88.262,13.304],[-88.26,13.302],[-88.257,13.302],[-88.255,13.301],[-88.252,13.301],[-88.249,13.302],[-88.244,13.304],[-88.235,13.309],[-88.231,13.309],[-88.227,13.309],[-88.224,13.305],[-88.222,13.302],[-88.221,13.299],[-88.221,13.296],[-88.221,13.281],[-88.218,13.278],[-88.215,13.275],[-88.208,13.271],[-88.206,13.268],[-88.205,13.266],[-88.213,13.252],[-88.213,13.249],[-88.214,13.246],[-88.214,13.241],[-88.212,13.239],[-88.21,13.238],[-88.182,13.242],[-88.179,13.242],[-88.176,13.242],[-88.174,13.241],[-88.113,13.171]]]}}]}
