{"type":"FeatureCollection","features":[{"type":"Feature","id":"TC-X01~","properties":{"id":"TC-X01~","countryCode":"TC","isoSubdivision":"TC-X01~","name":"Middle Caicos","name_en":"Middle Caicos","name_ko":"미들 카이코스","type":"Principal subdivision","labelLongitude":-71.767,"labelLatitude":21.82,"minZoom":11},"geometry":{"type":"Polygon","coordinates":[[[-71.803,21.788],[-71.828,21.786],[-71.836,21.791],[-71.844,21.808],[-71.848,21.819],[-71.851,21.856],[-71.842,21.856],[-71.834,21.854],[-71.826,21.851],[-71.809,21.84],[-71.8,21.84],[-71.791,21.842],[-71.782,21.843],[-71.72,21.836],[-71.692,21.841],[-71.679,21.842],[-71.666,21.836],[-71.655,21.823],[-71.631,21.774],[-71.648,21.78],[-71.659,21.794],[-71.668,21.81],[-71.679,21.822],[-71.671,21.8],[-71.652,21.765],[-71.645,21.746],[-71.659,21.744],[-71.669,21.75],[-71.686,21.774],[-71.692,21.764],[-71.694,21.76],[-71.7,21.76],[-71.715,21.787],[-71.741,21.795],[-71.803,21.788]]]}},{"type":"Feature","id":"TC-X02~","properties":{"id":"TC-X02~","countryCode":"TC","isoSubdivision":"TC-X02~","name":"North Caicos","name_en":"North Caicos","name_ko":"노스 케이커스","type":"Principal subdivision","labelLongitude":-71.93,"labelLatitude":21.892,"minZoom":11},"geometry":{"type":"Polygon","coordinates":[[[-72.022,21.905],[-72.026,21.914],[-72.024,21.924],[-72.025,21.933],[-72.036,21.939],[-72.032,21.946],[-72.025,21.953],[-72.017,21.957],[-72.008,21.959],[-71.95,21.959],[-71.944,21.958],[-71.93,21.953],[-71.923,21.952],[-71.911,21.948],[-71.909,21.94],[-71.912,21.925],[-71.903,21.867],[-71.889,21.846],[-71.857,21.843],[-71.877,21.828],[-71.895,21.832],[-71.91,21.843],[-71.923,21.849],[-71.931,21.852],[-71.943,21.858],[-71.954,21.867],[-71.961,21.877],[-71.959,21.89],[-71.944,21.913],[-71.94,21.925],[-71.948,21.942],[-71.964,21.933],[-71.988,21.908],[-71.992,21.9],[-72.002,21.898],[-72.013,21.9],[-72.022,21.905]]]}},{"type":"Feature","id":"TC-X03~","properties":{"id":"TC-X03~","countryCode":"TC","isoSubdivision":"TC-X03~","name":"Providenciales and West Caicos","name_en":"Providenciales and West Caicos","name_ko":"프로비덴시알레스 앤 웨스트 케이커스","type":"Principal subdivision","labelLongitude":-72.286,"labelLatitude":21.799,"minZoom":11},"geometry":{"type":"MultiPolygon","coordinates":[[[[-72.461,21.705],[-72.433,21.709],[-72.433,21.68],[-72.452,21.645],[-72.481,21.63],[-72.481,21.637],[-72.47,21.647],[-72.463,21.665],[-72.46,21.686],[-72.461,21.705]]],[[[-72.337,21.801],[-72.34,21.814],[-72.33,21.845],[-72.33,21.862],[-72.308,21.852],[-72.245,21.798],[-72.232,21.793],[-72.212,21.793],[-72.193,21.797],[-72.18,21.801],[-72.165,21.814],[-72.157,21.825],[-72.146,21.827],[-72.124,21.815],[-72.124,21.808],[-72.151,21.784],[-72.159,21.774],[-72.164,21.789],[-72.165,21.795],[-72.193,21.781],[-72.19,21.78],[-72.186,21.779],[-72.183,21.778],[-72.18,21.774],[-72.194,21.767],[-72.22,21.77],[-72.234,21.767],[-72.234,21.781],[-72.274,21.751],[-72.292,21.749],[-72.303,21.774],[-72.297,21.774],[-72.291,21.766],[-72.281,21.762],[-72.274,21.764],[-72.275,21.774],[-72.281,21.78],[-72.316,21.795],[-72.313,21.781],[-72.315,21.771],[-72.324,21.764],[-72.337,21.76],[-72.34,21.767],[-72.34,21.771],[-72.339,21.775],[-72.337,21.781],[-72.336,21.777],[-72.335,21.776],[-72.334,21.776],[-72.33,21.774],[-72.327,21.787],[-72.314,21.809],[-72.31,21.822],[-72.331,21.807],[-72.337,21.801]]],[[[-72.125,21.855],[-72.119,21.858],[-72.116,21.854],[-72.124,21.847],[-72.133,21.848],[-72.125,21.855]]],[[[-72.095,21.883],[-72.09,21.885],[-72.087,21.881],[-72.087,21.873],[-72.093,21.867],[-72.1,21.865],[-72.102,21.872],[-72.095,21.883]]]]}},{"type":"Feature","id":"TC-X04~","properties":{"id":"TC-X04~","countryCode":"TC","isoSubdivision":"TC-X04~","name":"South Caicos and East Caicos","name_en":"South Caicos and East Caicos","name_ko":"사우스 케이커스 앤 이스트 케이커스","type":"Principal subdivision","labelLongitude":-71.478,"labelLatitude":21.703,"minZoom":11},"geometry":{"type":"MultiPolygon","coordinates":[[[[-71.508,21.705],[-71.529,21.717],[-71.573,21.735],[-71.591,21.754],[-71.586,21.757],[-71.582,21.758],[-71.578,21.761],[-71.576,21.767],[-71.543,21.747],[-71.526,21.74],[-71.501,21.733],[-71.481,21.725],[-71.462,21.711],[-71.452,21.69],[-71.46,21.664],[-71.471,21.662],[-71.485,21.675],[-71.508,21.705]]],[[[-71.688,21.3],[-71.68,21.304],[-71.674,21.307],[-71.679,21.299],[-71.696,21.29],[-71.699,21.292],[-71.688,21.3]]],[[[-71.634,21.319],[-71.629,21.324],[-71.628,21.31],[-71.635,21.295],[-71.641,21.303],[-71.634,21.319]]],[[[-71.498,21.569],[-71.496,21.563],[-71.497,21.53],[-71.496,21.507],[-71.504,21.494],[-71.521,21.489],[-71.538,21.499],[-71.54,21.517],[-71.528,21.524],[-71.516,21.523],[-71.509,21.528],[-71.509,21.552],[-71.502,21.569],[-71.498,21.569]]]]}},{"type":"Feature","id":"TC-X05~","properties":{"id":"TC-X05~","countryCode":"TC","isoSubdivision":"TC-X05~","name":"Grand Turk","name_en":"Grand Turk","name_ko":"그랜드 터크","type":"Principal subdivision","labelLongitude":-71.137,"labelLatitude":21.473,"minZoom":11},"geometry":{"type":"Polygon","coordinates":[[[-71.138,21.514],[-71.13,21.498],[-71.129,21.472],[-71.134,21.446],[-71.145,21.432],[-71.152,21.451],[-71.151,21.473],[-71.145,21.495],[-71.138,21.514]]]}},{"type":"Feature","id":"TC-X06~","properties":{"id":"TC-X06~","countryCode":"TC","isoSubdivision":"TC-X06~","name":"Salt Cay","name_en":"Salt Cay","name_ko":"솔트 케이","type":"Principal subdivision","labelLongitude":-71.207,"labelLatitude":21.33,"minZoom":11},"geometry":{"type":"Polygon","coordinates":[[[-71.21,21.341],[-71.2,21.341],[-71.192,21.335],[-71.201,21.323],[-71.214,21.311],[-71.219,21.314],[-71.214,21.333],[-71.21,21.341]]]}}]}
