{"type":"FeatureCollection","features":[{"type":"Feature","id":"TD-BA","properties":{"id":"TD-BA","countryCode":"TD","isoSubdivision":"TD-BA","name":"Batha","name_en":"Batha","name_ko":"바타","type":"Prefecture","labelLongitude":18.622,"labelLatitude":14.082,"minZoom":6.6},"geometry":{"type":"Polygon","coordinates":[[[17.132,13.144],[17.196,13.235],[17.202,13.251],[17.204,13.271],[17.197,13.501],[17.198,13.511],[17.229,13.696],[17.233,13.709],[17.238,13.721],[17.25,13.728],[17.551,13.82],[17.993,15.616],[18.085,15.532],[18.209,15.457],[18.271,15.431],[18.48,15.384],[18.563,15.384],[18.592,15.39],[18.791,15.451],[18.892,15.495],[18.935,15.522],[19.047,15.615],[19.101,15.675],[19.13,15.731],[19.207,15.94],[19.21,15.952],[19.219,16.073],[19.215,16.173],[19.216,16.179],[19.221,16.182],[19.228,16.182],[19.238,16.179],[19.253,16.165],[19.26,16.161],[19.271,16.161],[19.29,16.164],[19.296,16.164],[19.308,16.163],[19.342,16.153],[19.349,16.149],[19.357,16.144],[19.369,16.133],[19.375,16.127],[19.379,16.121],[19.384,16.099],[19.398,16.006],[19.399,16],[19.402,15.995],[19.41,15.983],[19.423,15.968],[19.555,15.886],[19.572,15.88],[19.65,15.867],[19.772,15.831],[19.811,15.813],[19.864,15.799],[20,15.784],[20,14.156],[20,14.011],[20.225,13.899],[20.235,13.892],[20.239,13.886],[20.232,13.67],[20.237,13.647],[20.245,13.627],[20.281,13.572],[20.283,13.563],[20.282,13.403],[20.305,13.223],[20.304,13.118],[20.301,13.107],[20.295,13.092],[20.268,13.051],[20.26,13.044],[20.256,13.041],[20.245,13.038],[19.988,12.986],[19.981,12.983],[19.982,12.978],[19.99,12.971],[19.706,13.056],[19.471,12.953],[19.167,12.776],[19.113,12.752],[19.096,12.749],[19.081,12.748],[18.473,12.771],[18.455,12.769],[18.435,12.764],[18.075,12.57],[18.046,12.55],[18,12.494],[17.987,12.482],[17.974,12.479],[17.86,12.468],[17.844,12.464],[17.826,12.457],[17.565,12.236],[17.545,12.209],[17.56,12.156],[17.552,12.159],[17.543,12.163],[17.539,12.166],[17.531,12.172],[17.526,12.174],[17.52,12.175],[17.498,12.177],[17.493,12.179],[17.489,12.181],[17.481,12.187],[17.476,12.189],[17.471,12.19],[17.465,12.19],[17.459,12.189],[17.448,12.186],[17.443,12.185],[17.437,12.185],[17.424,12.186],[17.412,12.188],[17.407,12.189],[17.402,12.192],[17.398,12.195],[17.384,12.209],[17.382,12.214],[17.38,12.221],[17.382,12.249],[17.381,12.256],[17.377,12.263],[17.37,12.273],[17.361,12.283],[17.357,12.288],[17.351,12.304],[17.348,12.31],[17.344,12.314],[17.341,12.317],[17.316,12.326],[17.312,12.328],[17.308,12.332],[17.289,12.355],[17.285,12.369],[17.26,12.494],[17.26,12.506],[17.258,12.516],[17.251,12.526],[17.244,12.53],[17.237,12.532],[17.231,12.533],[17.218,12.532],[17.212,12.532],[17.206,12.533],[17.201,12.535],[17.197,12.538],[17.194,12.542],[17.186,12.553],[17.177,12.56],[17.173,12.566],[17.169,12.574],[17.16,12.598],[17.156,12.604],[17.152,12.607],[17.148,12.61],[17.137,12.614],[17.133,12.616],[17.129,12.619],[17.125,12.623],[17.122,12.627],[17.116,12.639],[17.102,12.675],[17.086,12.74],[17.082,12.749],[17.039,12.83],[17.032,12.837],[17.002,12.861],[16.978,12.875],[16.947,12.9],[16.944,12.904],[16.941,12.908],[16.94,12.914],[16.94,12.922],[16.941,12.928],[16.944,12.933],[16.97,12.971],[17.059,13.054],[17.073,13.064],[17.088,13.081],[17.132,13.144]]]}},{"type":"Feature","id":"TD-BG","properties":{"id":"TD-BG","countryCode":"TD","isoSubdivision":"TD-BG","name":"Bahr el Gazel","name_en":"Bahr el Gazel","name_ko":"바르엘가젤","type":"Prefecture","labelLongitude":16.95,"labelLatitude":14.53,"minZoom":6.6},"geometry":{"type":"Polygon","coordinates":[[[15.884,13.188],[15.897,13.227],[15.9,13.25],[15.898,13.522],[15.897,13.536],[15.891,13.544],[15.87,13.565],[15.861,13.577],[15.858,13.581],[15.853,13.595],[15.851,13.609],[15.84,13.643],[15.84,13.65],[15.842,13.657],[15.86,13.688],[15.865,13.701],[15.865,13.707],[15.861,13.73],[15.857,13.745],[15.853,13.757],[15.847,13.762],[15.842,13.766],[15.82,13.773],[15.796,13.779],[15.775,13.787],[15.764,13.79],[15.758,13.79],[15.752,13.79],[15.748,13.787],[15.726,13.76],[15.722,13.757],[15.716,13.755],[15.601,13.754],[15.59,14.077],[15.774,14.148],[16.05,14.475],[16.111,14.577],[16.132,14.812],[16.264,15.261],[16.489,16.037],[16.671,16.342],[17.843,15.793],[17.855,15.785],[17.863,15.776],[17.909,15.708],[17.993,15.616],[17.551,13.82],[17.25,13.728],[17.238,13.721],[17.233,13.709],[17.229,13.696],[17.198,13.511],[17.197,13.501],[17.204,13.271],[17.202,13.251],[17.196,13.235],[17.132,13.144],[17.06,13.171],[17.006,13.182],[16.997,13.182],[16.994,13.18],[16.98,13.166],[16.974,13.163],[16.966,13.16],[16.909,13.152],[16.898,13.15],[16.88,13.143],[16.872,13.143],[16.847,13.147],[16.839,13.151],[16.824,13.16],[16.819,13.16],[16.811,13.157],[16.801,13.153],[16.781,13.147],[16.771,13.143],[16.763,13.14],[16.748,13.126],[16.74,13.121],[16.731,13.116],[16.719,13.113],[16.489,13.082],[16.481,13.076],[16.473,13.07],[16.462,13.059],[16.456,13.055],[16.448,13.051],[16.441,13.05],[16.435,13.051],[16.424,13.055],[16.41,13.062],[16.397,13.065],[16.373,13.066],[16.362,13.069],[16.325,13.074],[16.315,13.074],[16.307,13.073],[16.291,13.068],[16.272,13.058],[16.257,13.053],[16.247,13.052],[16,13.048],[15.987,13.052],[15.97,13.114],[15.965,13.122],[15.884,13.188]]]}},{"type":"Feature","id":"TD-BO","properties":{"id":"TD-BO","countryCode":"TD","isoSubdivision":"TD-BO","name":"Borkou","name_en":"Borkou","name_ko":"보르쿠","type":"Préfecture","labelLongitude":19.482,"labelLatitude":18.825,"minZoom":6.6},"geometry":{"type":"Polygon","coordinates":[[[19.186,21.864],[19.288,21.814],[19.411,21.753],[19.535,21.692],[19.658,21.631],[19.782,21.57],[19.905,21.509],[20.029,21.448],[20.152,21.387],[20.276,21.326],[20.399,21.265],[20.523,21.204],[20.646,21.143],[20.77,21.082],[20.893,21.021],[20.004,19.28],[20.153,18.686],[20.424,17.97],[20.424,17.624],[20.4,17.179],[20.301,16.759],[20.548,16.067],[20.637,15.844],[20.484,15.712],[20.393,15.7],[20.353,15.683],[20.304,15.67],[20.298,15.669],[20.292,15.669],[20.278,15.674],[20.183,15.718],[20.133,15.753],[20.113,15.764],[20.08,15.773],[20,15.784],[19.864,15.799],[19.811,15.813],[19.772,15.831],[19.65,15.867],[19.572,15.88],[19.555,15.886],[19.423,15.968],[19.41,15.983],[19.402,15.995],[19.399,16],[19.398,16.006],[19.384,16.099],[19.379,16.121],[19.375,16.127],[19.369,16.133],[19.357,16.144],[19.349,16.149],[19.342,16.153],[19.308,16.163],[19.296,16.164],[19.29,16.164],[19.271,16.161],[19.26,16.161],[19.253,16.165],[19.238,16.179],[19.228,16.182],[19.221,16.182],[19.216,16.179],[19.215,16.173],[19.219,16.073],[19.21,15.952],[19.207,15.94],[19.13,15.731],[19.101,15.675],[19.047,15.615],[18.935,15.522],[18.892,15.495],[18.791,15.451],[18.592,15.39],[18.563,15.384],[18.48,15.384],[18.271,15.431],[18.209,15.457],[18.085,15.532],[17.993,15.616],[17.909,15.708],[17.863,15.776],[17.855,15.785],[17.843,15.793],[16.671,16.342],[15.485,16.898],[15.469,16.905],[15.472,16.917],[15.474,16.942],[15.478,16.988],[15.482,17.033],[15.486,17.079],[15.49,17.125],[16.271,18.5],[16.818,19.462],[17.36,20.416],[17.409,20.688],[17.706,20.688],[17.829,20.713],[17.953,20.837],[18.151,20.935],[18.521,21.059],[18.744,21.133],[18.769,21.356],[18.744,21.603],[18.719,21.85],[18.917,21.997],[19.041,21.936],[19.164,21.875],[19.186,21.864]]]}},{"type":"Feature","id":"TD-CB","properties":{"id":"TD-CB","countryCode":"TD","isoSubdivision":"TD-CB","name":"Chari-Baguirmi","name_en":"Chari-Baguirmi","name_ko":"샤리바기르미","type":"Prefecture","labelLongitude":16.209,"labelLatitude":11.468,"minZoom":6.6},"geometry":{"type":"Polygon","coordinates":[[[14.965,12.092],[14.951,12.103],[14.929,12.129],[14.903,12.146],[14.898,12.153],[14.895,12.167],[14.9,12.172],[14.907,12.173],[14.912,12.18],[14.91,12.19],[14.906,12.196],[14.901,12.2],[14.898,12.207],[14.898,12.219],[14.903,12.236],[14.905,12.248],[14.905,12.249],[14.998,12.259],[15.07,12.259],[15.162,12.279],[15.264,12.3],[15.305,12.341],[15.366,12.331],[15.407,12.279],[15.499,12.269],[15.55,12.31],[15.713,12.351],[15.876,12.341],[15.978,12.371],[16.06,12.463],[16.52,12.29],[16.642,12.228],[16.673,12.116],[16.673,12.004],[16.724,11.943],[16.775,11.881],[16.785,11.738],[16.836,11.697],[16.918,11.697],[16.989,11.687],[17.061,11.626],[17.122,11.565],[17.265,11.493],[17.255,11.238],[17.296,10.972],[17.316,10.748],[17.296,10.584],[17.534,10.464],[17.33,9.816],[17.315,9.815],[17.307,9.816],[17.298,9.818],[17.284,9.825],[17.27,9.829],[17.256,9.831],[17.242,9.829],[17.235,9.829],[17.228,9.832],[17.218,9.839],[17.199,9.851],[17.164,9.868],[17.156,9.874],[17.153,9.878],[17.151,9.883],[17.138,9.911],[17.135,9.914],[17.13,9.917],[17.125,9.919],[17.116,9.918],[17.104,9.914],[17.1,9.914],[17.096,9.916],[17.094,9.921],[17.083,9.926],[17.065,9.931],[17.029,9.939],[17,9.942],[16.994,9.941],[16.944,9.937],[16.937,9.939],[16.93,9.942],[16.923,9.951],[16.915,9.969],[16.912,9.973],[16.898,9.98],[16.891,9.987],[16.885,9.995],[16.883,9.998],[16.88,10],[16.85,10],[16.83,10.004],[16.822,10.008],[16.804,10.019],[16.796,10.022],[16.769,10.025],[16.754,10.024],[16.747,10.024],[16.74,10.026],[16.73,10.033],[16.725,10.039],[16.722,10.044],[16.718,10.048],[16.711,10.053],[16.644,10.086],[16.636,10.092],[16.633,10.096],[16.63,10.1],[16.628,10.104],[16.623,10.126],[16.621,10.131],[16.61,10.141],[16.608,10.145],[16.607,10.151],[16.609,10.177],[16.608,10.203],[16.607,10.208],[16.605,10.213],[16.602,10.217],[16.599,10.22],[16.587,10.23],[16.584,10.233],[16.581,10.238],[16.579,10.242],[16.576,10.246],[16.573,10.25],[16.568,10.252],[16.562,10.251],[16.501,10.204],[16.44,10.193],[16.219,10.196],[16.196,10.212],[16.189,10.224],[16.186,10.241],[16.182,10.256],[16.177,10.263],[16.173,10.268],[16.169,10.271],[16.153,10.279],[16.146,10.284],[16.135,10.294],[16.13,10.303],[16.126,10.315],[16.108,10.446],[16.139,10.734],[16.138,10.739],[16.134,10.746],[16.101,10.763],[16.075,10.767],[16.063,10.751],[16.054,10.754],[16.001,10.789],[15.983,10.788],[15.945,10.778],[15.922,10.776],[15.883,10.78],[15.803,10.799],[15.765,10.803],[15.746,10.811],[15.686,10.872],[15.665,10.889],[15.649,10.897],[15.632,10.899],[15.608,10.899],[15.592,10.901],[15.575,10.908],[15.56,10.917],[15.549,10.926],[15.533,10.953],[15.524,10.971],[15.521,10.984],[15.519,11.004],[15.514,11.01],[15.503,11.011],[15.487,11.015],[15.471,11.023],[15.453,11.035],[15.438,11.05],[15.432,11.067],[15.432,11.116],[15.422,11.124],[15.413,11.127],[15.406,11.13],[15.371,11.156],[15.353,11.166],[15.343,11.17],[15.296,11.181],[15.243,11.186],[15.237,11.186],[15.231,11.185],[15.227,11.182],[15.223,11.179],[15.216,11.172],[15.213,11.168],[15.205,11.163],[15.183,11.141],[15.151,11.118],[15.137,11.111],[15.117,11.103],[15.029,11.08],[15.021,11.183],[15.028,11.244],[15.033,11.26],[15.056,11.293],[15.063,11.31],[15.062,11.32],[15.058,11.325],[15.053,11.33],[15.049,11.337],[15.049,11.349],[15.054,11.364],[15.061,11.416],[15.067,11.436],[15.076,11.453],[15.122,11.503],[15.136,11.531],[15.124,11.563],[15.096,11.598],[15.085,11.616],[15.069,11.661],[15.067,11.681],[15.068,11.7],[15.076,11.721],[15.08,11.723],[15.086,11.722],[15.093,11.723],[15.097,11.728],[15.096,11.734],[15.085,11.744],[15.084,11.748],[15.089,11.758],[15.105,11.773],[15.111,11.783],[15.086,11.84],[15.08,11.851],[15.063,11.853],[15.051,11.862],[15.044,11.877],[15.042,11.902],[15.047,11.91],[15.057,11.918],[15.063,11.927],[15.059,11.937],[15.056,11.942],[15.051,11.953],[15.048,11.963],[15.053,11.967],[15.081,11.972],[15.077,11.983],[15.06,11.997],[15.049,12.012],[15.051,12.024],[15.054,12.032],[15.053,12.038],[15.046,12.046],[15.041,12.056],[15.069,12.058],[15.088,12.061],[15.105,12.071],[15.123,12.091],[15.125,12.114],[15.119,12.135],[15.107,12.154],[15.089,12.168],[15.074,12.179],[15.05,12.181],[15.036,12.175],[15.022,12.155],[15.013,12.134],[15.012,12.109],[14.994,12.107],[14.977,12.094],[14.965,12.092]]]}},{"type":"Feature","id":"TD-GR","properties":{"id":"TD-GR","countryCode":"TD","isoSubdivision":"TD-GR","name":"Guéra","name_en":"Guéra","name_ko":"게라","type":"Prefecture","labelLongitude":18.095,"labelLatitude":11.312,"minZoom":6.6},"geometry":{"type":"Polygon","coordinates":[[[17.265,11.493],[17.459,11.667],[17.626,11.715],[17.524,11.915],[17.517,11.933],[17.517,11.948],[17.52,11.962],[17.567,12.129],[17.56,12.156],[17.545,12.209],[17.565,12.236],[17.826,12.457],[17.844,12.464],[17.86,12.468],[17.974,12.479],[17.987,12.482],[18,12.494],[18.046,12.55],[18.075,12.57],[18.435,12.764],[18.455,12.769],[18.473,12.771],[19.081,12.748],[19.096,12.749],[19.113,12.752],[19.167,12.776],[19.471,12.953],[19.706,13.056],[19.99,12.971],[20.136,12.86],[20.142,12.858],[20.146,12.859],[20.155,12.862],[20.16,12.863],[20.164,12.861],[20.167,12.858],[20.171,12.854],[20.173,12.849],[20.175,12.841],[20.173,12.826],[20.175,12.804],[20.173,12.797],[20.169,12.788],[20.159,12.776],[20.151,12.772],[20.144,12.771],[20.138,12.773],[20.133,12.773],[20.128,12.772],[20.122,12.768],[20.055,12.68],[20.049,12.668],[20.048,12.66],[20.05,12.655],[20.056,12.646],[20.088,12.615],[20.093,12.607],[20.095,12.603],[20.096,12.599],[20.094,12.595],[20.09,12.589],[20.075,12.578],[20.059,12.571],[20.055,12.569],[20.051,12.566],[20.043,12.559],[20.037,12.551],[20.012,12.515],[19.975,12.48],[19.952,12.446],[19.944,12.437],[19.938,12.432],[19.934,12.43],[19.93,12.427],[19.926,12.423],[19.92,12.415],[19.915,12.408],[19.886,12.343],[19.821,12.163],[19.819,12.143],[19.82,12.087],[19.642,12.098],[19.435,12.152],[19.39,12.159],[19.219,11.999],[19.288,11.888],[19.294,11.873],[19.291,11.859],[19.286,11.845],[19.191,11.674],[19.176,11.66],[19.162,11.652],[19.074,11.619],[19.061,11.616],[19.053,11.617],[19.046,11.626],[19.019,11.693],[19.012,11.703],[19.003,11.707],[18.996,11.708],[18.887,11.706],[18.873,11.703],[18.868,11.692],[18.865,11.68],[18.846,11.389],[18.847,11.38],[18.849,11.374],[18.854,11.365],[18.856,11.359],[18.857,11.35],[18.86,11.345],[18.865,11.342],[18.884,11.34],[18.89,11.338],[18.894,11.335],[18.896,11.331],[18.899,11.326],[18.901,11.322],[18.905,11.319],[18.911,11.318],[18.923,11.317],[18.928,11.315],[18.932,11.312],[18.934,11.308],[18.939,11.298],[18.941,11.294],[18.945,11.291],[18.949,11.288],[18.954,11.286],[18.96,11.284],[18.97,11.28],[18.974,11.278],[18.99,11.265],[19.03,11.24],[19.035,11.238],[19.053,11.235],[19.058,11.233],[19.062,11.23],[19.065,11.226],[19.067,11.222],[19.07,11.218],[19.075,11.216],[19.093,11.211],[19.098,11.21],[19.112,11.202],[19.132,11.187],[19.136,11.184],[19.142,11.183],[19.16,11.182],[19.166,11.181],[19.171,11.179],[19.175,11.176],[19.178,11.173],[19.182,11.169],[19.191,11.165],[19.208,11.159],[19.221,11.151],[19.226,11.149],[19.232,11.148],[19.25,11.144],[19.255,11.143],[19.26,11.14],[19.264,11.137],[19.274,11.126],[19.277,11.123],[19.315,11.104],[19.321,11.102],[19.326,11.102],[19.343,11.105],[19.349,11.105],[19.355,11.104],[19.36,11.103],[19.364,11.1],[19.368,11.096],[19.371,11.092],[19.381,11.074],[19.384,11.07],[19.388,11.067],[19.393,11.064],[19.398,11.062],[19.409,11.059],[19.422,11.058],[19.428,11.059],[19.444,11.063],[19.45,11.064],[19.455,11.064],[19.461,11.063],[19.465,11.06],[19.469,11.057],[19.48,11.047],[19.484,11.044],[19.488,11.041],[19.493,11.039],[19.498,11.038],[19.501,11.039],[19.51,11.041],[19.516,11.041],[19.521,11.041],[19.526,11.039],[19.536,11.035],[19.541,11.033],[19.55,11.027],[19.554,11.024],[19.558,11.021],[19.563,11.019],[19.568,11.017],[19.58,11.015],[19.586,11.013],[19.591,11.011],[19.595,11.008],[19.601,11.001],[19.602,11],[19.611,10.996],[19.623,10.994],[19.629,10.992],[19.633,10.989],[19.636,10.985],[19.651,10.965],[19.657,10.952],[19.662,10.945],[19.666,10.94],[19.671,10.937],[19.677,10.936],[19.683,10.934],[19.688,10.93],[19.693,10.923],[19.693,10.918],[19.69,10.914],[19.674,10.902],[19.667,10.896],[19.666,10.878],[19.677,10.705],[19.658,10.618],[19.64,10.604],[19.614,10.595],[19.61,10.591],[19.61,10.587],[19.611,10.582],[19.608,10.576],[19.6,10.571],[19.595,10.566],[19.591,10.561],[19.585,10.545],[19.58,10.541],[19.576,10.541],[19.573,10.544],[19.569,10.548],[19.565,10.552],[19.558,10.553],[19.555,10.55],[19.555,10.545],[19.556,10.54],[19.556,10.534],[19.534,10.495],[19.528,10.493],[19.521,10.492],[19.513,10.493],[19.489,10.486],[19.479,10.485],[19.464,10.482],[19.457,10.483],[19.453,10.487],[19.453,10.491],[19.454,10.496],[19.453,10.5],[19.452,10.501],[19.449,10.502],[19.442,10.502],[19.436,10.499],[19.427,10.494],[19.42,10.491],[19.41,10.488],[19.403,10.485],[19.394,10.478],[19.385,10.475],[19.379,10.469],[19.362,10.453],[19.352,10.44],[19.347,10.432],[19.337,10.42],[19.333,10.412],[19.332,10.406],[19.336,10.396],[19.336,10.39],[19.332,10.387],[19.325,10.386],[19.321,10.383],[19.319,10.379],[19.318,10.375],[19.319,10.369],[19.319,10.364],[19.316,10.357],[19.312,10.354],[19.306,10.353],[19.294,10.354],[19.285,10.353],[19.282,10.349],[19.281,10.345],[19.284,10.341],[19.289,10.339],[19.292,10.336],[19.295,10.331],[19.294,10.326],[19.292,10.32],[19.29,10.315],[19.292,10.311],[19.3,10.305],[19.303,10.3],[19.3,10.297],[19.295,10.296],[19.289,10.296],[19.283,10.294],[19.281,10.29],[19.28,10.284],[19.276,10.278],[19.269,10.273],[19.256,10.266],[19.25,10.261],[19.245,10.255],[19.241,10.248],[19.236,10.237],[19.228,10.228],[19.225,10.22],[19.22,10.216],[19.215,10.213],[19.208,10.212],[19.198,10.207],[19.194,10.203],[19.19,10.198],[19.173,10.166],[19.169,10.149],[19.164,10.138],[19.161,10.136],[19.158,10.137],[19.155,10.139],[19.149,10.138],[19.141,10.135],[19.131,10.126],[19.125,10.122],[19.12,10.122],[19.115,10.123],[19.112,10.12],[19.109,10.116],[19.105,10.106],[19.099,10.095],[19.093,10.088],[19.08,10.068],[19.064,10.049],[19.049,10.036],[19.037,10.027],[18.999,10.007],[18.944,10],[18.807,9.999],[18.795,9.995],[18.788,9.984],[18.766,9.893],[18.763,9.885],[18.757,9.882],[18.729,9.876],[18.709,9.868],[18.698,9.867],[18.69,9.867],[18.678,9.876],[18.658,9.897],[18.653,9.9],[18.648,9.902],[18.64,9.903],[18.629,9.902],[18.622,9.903],[18.615,9.904],[18.606,9.909],[18.602,9.911],[18.6,9.913],[18.6,9.915],[18.61,10.002],[18.61,10.01],[18.609,10.016],[18.607,10.021],[18.604,10.024],[18.599,10.027],[18.588,10.03],[18.584,10.033],[18.58,10.036],[18.578,10.041],[18.575,10.051],[18.573,10.056],[18.57,10.06],[18.557,10.068],[18.553,10.071],[18.532,10.092],[18.528,10.094],[18.522,10.096],[18.516,10.098],[18.511,10.1],[18.507,10.102],[18.501,10.108],[18.487,10.131],[18.481,10.144],[18.478,10.148],[18.47,10.155],[18.463,10.162],[18.456,10.175],[18.453,10.179],[18.449,10.182],[18.446,10.185],[18.391,10.2],[18.382,10.205],[18.374,10.211],[18.367,10.218],[18.355,10.234],[18.35,10.236],[18.343,10.238],[18.333,10.239],[18.312,10.245],[18.27,10.246],[18.265,10.248],[18.261,10.251],[18.256,10.254],[18.253,10.259],[18.232,10.268],[18.229,10.271],[18.226,10.275],[18.222,10.285],[18.219,10.289],[18.213,10.291],[18.193,10.292],[18.187,10.294],[18.18,10.301],[18.176,10.304],[18.167,10.306],[18.161,10.308],[18.157,10.311],[18.155,10.316],[18.153,10.328],[18.152,10.333],[18.149,10.338],[18.145,10.341],[18.139,10.344],[18.131,10.346],[18.125,10.345],[18.121,10.341],[18.117,10.337],[18.111,10.333],[18.106,10.333],[18.102,10.335],[18.095,10.343],[18.09,10.347],[18.07,10.349],[18.062,10.352],[18.057,10.354],[18.052,10.353],[18.043,10.345],[18.039,10.345],[18.035,10.347],[18.031,10.35],[18.025,10.353],[18.017,10.354],[17.993,10.361],[17.978,10.364],[17.972,10.366],[17.959,10.373],[17.949,10.378],[17.937,10.38],[17.931,10.382],[17.925,10.386],[17.841,10.465],[17.834,10.47],[17.827,10.474],[17.534,10.464],[17.296,10.584],[17.316,10.748],[17.296,10.972],[17.255,11.238],[17.265,11.493]]]}},{"type":"Feature","id":"TD-HL","properties":{"id":"TD-HL","countryCode":"TD","isoSubdivision":"TD-HL","name":"Hadjer-Lamis","name_en":"Hadjer-Lamis","name_ko":"하제르라미","type":"Prefecture","labelLongitude":15.824,"labelLatitude":12.77,"minZoom":6.6},"geometry":{"type":"Polygon","coordinates":[[[14.561,12.766],[14.555,12.767],[14.551,12.772],[14.549,12.78],[14.549,12.818],[14.531,12.836],[14.5,12.859],[14.49,12.874],[14.491,12.886],[14.506,12.932],[14.508,12.952],[14.505,12.969],[14.496,12.984],[14.482,12.999],[14.481,13.001],[14.501,13.001],[14.998,13],[15.007,13.001],[15.014,13.003],[15.017,13.01],[15.024,13.033],[15.038,13.069],[15.043,13.092],[15.043,13.098],[15.042,13.104],[15.024,13.16],[15.022,13.165],[15.019,13.169],[15.015,13.173],[15.007,13.179],[15.004,13.183],[15.003,13.188],[15.002,13.207],[14.998,13.224],[14.994,13.234],[14.99,13.243],[14.988,13.248],[14.989,13.253],[14.991,13.257],[14.997,13.26],[15.004,13.26],[15.025,13.254],[15.04,13.246],[15.062,13.239],[15.074,13.236],[15.079,13.235],[15.084,13.233],[15.088,13.23],[15.095,13.227],[15.105,13.223],[15.135,13.218],[15.17,13.206],[15.174,13.204],[15.178,13.201],[15.18,13.197],[15.182,13.193],[15.182,13.182],[15.183,13.177],[15.186,13.174],[15.19,13.171],[15.214,13.16],[15.218,13.157],[15.224,13.149],[15.227,13.145],[15.232,13.142],[15.235,13.139],[15.239,13.135],[15.246,13.115],[15.249,13.111],[15.252,13.107],[15.255,13.104],[15.26,13.101],[15.265,13.1],[15.27,13.102],[15.276,13.109],[15.278,13.115],[15.28,13.122],[15.282,13.134],[15.284,13.14],[15.287,13.144],[15.29,13.146],[15.293,13.147],[15.301,13.15],[15.307,13.151],[15.312,13.15],[15.319,13.142],[15.323,13.141],[15.328,13.144],[15.379,13.185],[15.382,13.189],[15.383,13.194],[15.383,13.199],[15.378,13.214],[15.376,13.219],[15.372,13.222],[15.367,13.224],[15.318,13.233],[15.313,13.235],[15.309,13.238],[15.306,13.241],[15.219,13.361],[15.215,13.372],[15.219,13.378],[15.23,13.381],[15.357,13.405],[15.368,13.405],[15.374,13.4],[15.378,13.396],[15.402,13.357],[15.414,13.341],[15.432,13.324],[15.441,13.319],[15.56,13.265],[15.743,13.182],[15.776,13.172],[15.848,13.169],[15.872,13.171],[15.884,13.188],[15.965,13.122],[15.97,13.114],[15.987,13.052],[16,13.048],[16.247,13.052],[16.257,13.053],[16.272,13.058],[16.291,13.068],[16.307,13.073],[16.315,13.074],[16.325,13.074],[16.362,13.069],[16.373,13.066],[16.397,13.065],[16.41,13.062],[16.424,13.055],[16.435,13.051],[16.441,13.05],[16.448,13.051],[16.456,13.055],[16.462,13.059],[16.473,13.07],[16.481,13.076],[16.489,13.082],[16.719,13.113],[16.731,13.116],[16.74,13.121],[16.748,13.126],[16.763,13.14],[16.771,13.143],[16.781,13.147],[16.801,13.153],[16.811,13.157],[16.819,13.16],[16.824,13.16],[16.839,13.151],[16.847,13.147],[16.872,13.143],[16.88,13.143],[16.898,13.15],[16.909,13.152],[16.966,13.16],[16.974,13.163],[16.98,13.166],[16.994,13.18],[16.997,13.182],[17.006,13.182],[17.06,13.171],[17.132,13.144],[17.088,13.081],[17.073,13.064],[17.059,13.054],[16.97,12.971],[16.944,12.933],[16.941,12.928],[16.94,12.922],[16.94,12.914],[16.941,12.908],[16.944,12.904],[16.947,12.9],[16.978,12.875],[17.002,12.861],[17.032,12.837],[17.039,12.83],[17.082,12.749],[17.086,12.74],[17.102,12.675],[17.116,12.639],[17.122,12.627],[17.125,12.623],[17.129,12.619],[17.133,12.616],[17.137,12.614],[17.148,12.61],[17.152,12.607],[17.156,12.604],[17.16,12.598],[17.169,12.574],[17.173,12.566],[17.177,12.56],[17.186,12.553],[17.194,12.542],[17.197,12.538],[17.201,12.535],[17.206,12.533],[17.212,12.532],[17.218,12.532],[17.231,12.533],[17.237,12.532],[17.244,12.53],[17.251,12.526],[17.258,12.516],[17.26,12.506],[17.26,12.494],[17.285,12.369],[17.289,12.355],[17.308,12.332],[17.312,12.328],[17.316,12.326],[17.341,12.317],[17.344,12.314],[17.348,12.31],[17.351,12.304],[17.357,12.288],[17.361,12.283],[17.37,12.273],[17.377,12.263],[17.381,12.256],[17.382,12.249],[17.38,12.221],[17.382,12.214],[17.384,12.209],[17.398,12.195],[17.402,12.192],[17.407,12.189],[17.412,12.188],[17.424,12.186],[17.437,12.185],[17.443,12.185],[17.448,12.186],[17.459,12.189],[17.465,12.19],[17.471,12.19],[17.476,12.189],[17.481,12.187],[17.489,12.181],[17.493,12.179],[17.498,12.177],[17.52,12.175],[17.526,12.174],[17.531,12.172],[17.539,12.166],[17.543,12.163],[17.552,12.159],[17.56,12.156],[17.567,12.129],[17.52,11.962],[17.517,11.948],[17.517,11.933],[17.524,11.915],[17.626,11.715],[17.459,11.667],[17.265,11.493],[17.122,11.565],[17.061,11.626],[16.989,11.687],[16.918,11.697],[16.836,11.697],[16.785,11.738],[16.775,11.881],[16.724,11.943],[16.673,12.004],[16.673,12.116],[16.642,12.228],[16.52,12.29],[16.06,12.463],[15.978,12.371],[15.876,12.341],[15.713,12.351],[15.55,12.31],[15.499,12.269],[15.407,12.279],[15.366,12.331],[15.305,12.341],[15.264,12.3],[15.162,12.279],[15.07,12.259],[14.998,12.259],[14.905,12.249],[14.906,12.318],[14.908,12.327],[14.891,12.403],[14.877,12.427],[14.877,12.432],[14.879,12.443],[14.877,12.447],[14.872,12.45],[14.866,12.453],[14.862,12.452],[14.864,12.447],[14.855,12.455],[14.851,12.455],[14.85,12.457],[14.85,12.468],[14.852,12.475],[14.86,12.49],[14.864,12.495],[14.831,12.618],[14.819,12.639],[14.786,12.631],[14.769,12.633],[14.761,12.649],[14.759,12.659],[14.752,12.669],[14.743,12.677],[14.734,12.68],[14.729,12.677],[14.714,12.653],[14.702,12.669],[14.717,12.702],[14.71,12.718],[14.694,12.724],[14.664,12.716],[14.648,12.725],[14.642,12.731],[14.624,12.742],[14.621,12.748],[14.62,12.754],[14.618,12.759],[14.611,12.762],[14.604,12.761],[14.585,12.746],[14.575,12.745],[14.571,12.75],[14.569,12.76],[14.569,12.769],[14.561,12.766]]]}},{"type":"Feature","id":"TD-KA","properties":{"id":"TD-KA","countryCode":"TD","isoSubdivision":"TD-KA","name":"Kanem","name_en":"Kanem","name_ko":"카넴","type":"Prefecture","labelLongitude":15.8,"labelLatitude":15.264,"minZoom":6.6},"geometry":{"type":"Polygon","coordinates":[[[13.608,14.518],[13.624,14.521],[13.658,14.549],[13.666,14.567],[13.667,14.586],[13.66,14.624],[13.657,14.63],[13.646,14.639],[13.645,14.644],[13.648,14.649],[13.668,14.663],[13.7,14.698],[13.71,14.705],[13.73,14.71],[13.749,14.711],[13.764,14.719],[13.773,14.743],[13.772,14.763],[13.758,14.806],[13.754,14.826],[13.755,14.847],[13.761,14.866],[13.775,14.897],[13.808,14.966],[13.834,15.02],[13.863,15.059],[13.893,15.1],[13.923,15.14],[13.953,15.181],[13.982,15.222],[14.012,15.263],[14.042,15.303],[14.072,15.344],[14.102,15.385],[14.132,15.426],[14.161,15.466],[14.191,15.507],[14.221,15.548],[14.251,15.588],[14.281,15.629],[14.311,15.67],[14.34,15.711],[14.369,15.75],[14.424,15.806],[14.482,15.867],[14.521,15.908],[14.577,15.966],[14.633,16.024],[14.689,16.083],[14.745,16.141],[14.801,16.199],[14.857,16.258],[14.914,16.316],[14.97,16.374],[15.026,16.433],[15.082,16.491],[15.138,16.549],[15.194,16.608],[15.25,16.666],[15.306,16.724],[15.362,16.783],[15.418,16.841],[15.452,16.876],[15.466,16.895],[15.469,16.905],[15.485,16.898],[16.671,16.342],[16.489,16.037],[16.264,15.261],[16.132,14.812],[16.111,14.577],[16.05,14.475],[15.774,14.148],[15.59,14.077],[15.601,13.754],[15.716,13.755],[15.722,13.757],[15.726,13.76],[15.748,13.787],[15.752,13.79],[15.758,13.79],[15.764,13.79],[15.775,13.787],[15.796,13.779],[15.82,13.773],[15.842,13.766],[15.847,13.762],[15.853,13.757],[15.857,13.745],[15.861,13.73],[15.865,13.707],[15.865,13.701],[15.86,13.688],[15.842,13.657],[15.84,13.65],[15.84,13.643],[15.851,13.609],[15.853,13.595],[15.858,13.581],[15.861,13.577],[15.87,13.565],[15.891,13.544],[15.897,13.536],[15.898,13.522],[15.9,13.25],[15.897,13.227],[15.884,13.188],[15.872,13.171],[15.848,13.169],[15.776,13.172],[15.743,13.182],[15.56,13.265],[15.376,13.752],[15.213,13.751],[14.916,13.679],[14.908,13.678],[14.858,13.688],[14.851,13.688],[14.84,13.686],[14.816,13.668],[14.805,13.664],[14.796,13.671],[14.644,13.909],[14.616,13.941],[14.576,13.975],[14.565,13.987],[14.477,14.105],[14.47,14.111],[14.464,14.115],[14.454,14.119],[14.442,14.122],[14.376,14.128],[14.368,14.13],[14.357,14.135],[14.347,14.146],[14.319,14.186],[14.307,14.199],[14.262,14.213],[14.248,14.224],[14.19,14.286],[14.156,14.304],[14.149,14.308],[14.146,14.314],[14.141,14.329],[14.134,14.371],[14.132,14.378],[14.127,14.387],[14.122,14.39],[14.115,14.391],[14.109,14.391],[14.105,14.394],[14.087,14.417],[14.08,14.421],[14.074,14.424],[14.061,14.426],[14.026,14.427],[14.017,14.428],[14.012,14.431],[14.008,14.435],[13.996,14.452],[13.95,14.466],[13.785,14.476],[13.778,14.481],[13.771,14.488],[13.761,14.502],[13.748,14.513],[13.736,14.516],[13.722,14.517],[13.615,14.517],[13.608,14.518]]]}},{"type":"Feature","id":"TD-LC","properties":{"id":"TD-LC","countryCode":"TD","isoSubdivision":"TD-LC","name":"Lac","name_en":"Lac","name_ko":"라크","type":"Prefecture","labelLongitude":14.674,"labelLatitude":13.431,"minZoom":6.6},"geometry":{"type":"Polygon","coordinates":[[[14.065,13.078],[13.836,13.391],[13.607,13.704],[13.6,13.736],[13.593,13.768],[13.586,13.8],[13.579,13.832],[13.571,13.863],[13.564,13.895],[13.557,13.927],[13.55,13.959],[13.543,13.991],[13.536,14.023],[13.528,14.055],[13.521,14.086],[13.514,14.118],[13.507,14.15],[13.5,14.182],[13.493,14.214],[13.482,14.26],[13.468,14.311],[13.449,14.38],[13.449,14.439],[13.482,14.484],[13.508,14.496],[13.544,14.511],[13.584,14.514],[13.608,14.518],[13.615,14.517],[13.722,14.517],[13.736,14.516],[13.748,14.513],[13.761,14.502],[13.771,14.488],[13.778,14.481],[13.785,14.476],[13.95,14.466],[13.996,14.452],[14.008,14.435],[14.012,14.431],[14.017,14.428],[14.026,14.427],[14.061,14.426],[14.074,14.424],[14.08,14.421],[14.087,14.417],[14.105,14.394],[14.109,14.391],[14.115,14.391],[14.122,14.39],[14.127,14.387],[14.132,14.378],[14.134,14.371],[14.141,14.329],[14.146,14.314],[14.149,14.308],[14.156,14.304],[14.19,14.286],[14.248,14.224],[14.262,14.213],[14.307,14.199],[14.319,14.186],[14.347,14.146],[14.357,14.135],[14.368,14.13],[14.376,14.128],[14.442,14.122],[14.454,14.119],[14.464,14.115],[14.47,14.111],[14.477,14.105],[14.565,13.987],[14.576,13.975],[14.616,13.941],[14.644,13.909],[14.796,13.671],[14.805,13.664],[14.816,13.668],[14.84,13.686],[14.851,13.688],[14.858,13.688],[14.908,13.678],[14.916,13.679],[15.213,13.751],[15.376,13.752],[15.56,13.265],[15.441,13.319],[15.432,13.324],[15.414,13.341],[15.402,13.357],[15.378,13.396],[15.374,13.4],[15.368,13.405],[15.357,13.405],[15.23,13.381],[15.219,13.378],[15.215,13.372],[15.219,13.361],[15.306,13.241],[15.309,13.238],[15.313,13.235],[15.318,13.233],[15.367,13.224],[15.372,13.222],[15.376,13.219],[15.378,13.214],[15.383,13.199],[15.383,13.194],[15.382,13.189],[15.379,13.185],[15.328,13.144],[15.323,13.141],[15.319,13.142],[15.312,13.15],[15.307,13.151],[15.301,13.15],[15.293,13.147],[15.29,13.146],[15.287,13.144],[15.284,13.14],[15.282,13.134],[15.28,13.122],[15.278,13.115],[15.276,13.109],[15.27,13.102],[15.265,13.1],[15.26,13.101],[15.255,13.104],[15.252,13.107],[15.249,13.111],[15.246,13.115],[15.239,13.135],[15.235,13.139],[15.232,13.142],[15.227,13.145],[15.224,13.149],[15.218,13.157],[15.214,13.16],[15.19,13.171],[15.186,13.174],[15.183,13.177],[15.182,13.182],[15.182,13.193],[15.18,13.197],[15.178,13.201],[15.174,13.204],[15.17,13.206],[15.135,13.218],[15.105,13.223],[15.095,13.227],[15.088,13.23],[15.084,13.233],[15.079,13.235],[15.074,13.236],[15.062,13.239],[15.04,13.246],[15.025,13.254],[15.004,13.26],[14.997,13.26],[14.991,13.257],[14.989,13.253],[14.988,13.248],[14.99,13.243],[14.994,13.234],[14.998,13.224],[15.002,13.207],[15.003,13.188],[15.004,13.183],[15.007,13.179],[15.015,13.173],[15.019,13.169],[15.022,13.165],[15.024,13.16],[15.042,13.104],[15.043,13.098],[15.043,13.092],[15.038,13.069],[15.024,13.033],[15.017,13.01],[15.014,13.003],[15.007,13.001],[14.998,13],[14.501,13.001],[14.481,13.001],[14.435,13.07],[14.418,13.081],[14.065,13.078]]]}},{"type":"Feature","id":"TD-LO","properties":{"id":"TD-LO","countryCode":"TD","isoSubdivision":"TD-LO","name":"Logone Occidental","name_en":"Logone Occidental","name_ko":"로곤옥시당탈","type":"Prefecture","labelLongitude":15.931,"labelLatitude":8.77,"minZoom":6.6},"geometry":{"type":"Polygon","coordinates":[[[16.357,9.239],[16.371,9.238],[16.379,9.225],[16.421,9.181],[16.433,9.151],[16.434,9.136],[16.435,9.128],[16.44,9.117],[16.451,9.102],[16.454,9.096],[16.461,9.069],[16.464,9.061],[16.467,9.057],[16.471,9.053],[16.49,9.021],[16.512,8.997],[16.515,8.993],[16.518,8.984],[16.521,8.98],[16.525,8.979],[16.538,8.981],[16.542,8.98],[16.546,8.973],[16.547,8.958],[16.549,8.952],[16.555,8.948],[16.56,8.948],[16.566,8.947],[16.57,8.945],[16.584,8.93],[16.592,8.917],[16.596,8.903],[16.597,8.881],[16.513,8.753],[16.49,8.732],[16.454,8.719],[16.432,8.715],[16.41,8.707],[16.392,8.694],[16.38,8.658],[16.365,8.649],[16.287,8.64],[16.145,8.598],[16.099,8.561],[16.022,8.518],[16.011,8.515],[16.004,8.511],[15.98,8.487],[15.893,8.439],[15.868,8.414],[15.858,8.377],[15.858,8.373],[15.857,8.366],[15.854,8.36],[15.819,8.319],[15.814,8.316],[15.806,8.314],[15.79,8.314],[15.737,8.323],[15.728,8.323],[15.719,8.318],[15.699,8.311],[15.695,8.309],[15.691,8.305],[15.68,8.289],[15.669,8.279],[15.665,8.276],[15.66,8.275],[15.641,8.274],[15.636,8.273],[15.631,8.271],[15.622,8.266],[15.618,8.264],[15.614,8.262],[15.577,8.258],[15.571,8.258],[15.566,8.261],[15.563,8.267],[15.562,8.276],[15.558,8.278],[15.55,8.279],[15.536,8.278],[15.53,8.278],[15.524,8.28],[15.52,8.284],[15.517,8.291],[15.517,8.297],[15.518,8.304],[15.522,8.313],[15.52,8.317],[15.514,8.322],[15.501,8.328],[15.492,8.336],[15.487,8.342],[15.482,8.348],[15.474,8.352],[15.455,8.356],[15.431,8.355],[15.42,8.361],[15.348,8.409],[15.313,8.424],[15.273,8.449],[15.271,8.461],[15.266,8.476],[15.265,8.481],[15.264,8.493],[15.265,8.502],[15.306,8.672],[15.309,8.679],[15.317,8.688],[15.373,8.742],[15.375,8.746],[15.377,8.752],[15.376,8.77],[15.379,8.792],[15.378,8.798],[15.377,8.804],[15.372,8.82],[15.371,8.831],[15.373,8.864],[15.377,8.883],[15.418,9.004],[15.428,9.013],[15.464,9.027],[15.48,9.013],[15.489,9.008],[15.509,8.998],[15.519,8.995],[15.53,8.992],[15.543,8.991],[15.57,8.991],[15.596,8.994],[15.755,9.032],[15.793,9.025],[15.818,9.025],[15.829,9.028],[15.978,9.106],[16.001,9.114],[16.022,9.117],[16.034,9.118],[16.042,9.117],[16.141,9.088],[16.147,9.089],[16.154,9.092],[16.162,9.098],[16.175,9.112],[16.188,9.137],[16.197,9.149],[16.204,9.156],[16.212,9.161],[16.249,9.177],[16.272,9.184],[16.294,9.189],[16.304,9.192],[16.311,9.197],[16.319,9.204],[16.348,9.234],[16.357,9.239]]]}},{"type":"Feature","id":"TD-LR","properties":{"id":"TD-LR","countryCode":"TD","isoSubdivision":"TD-LR","name":"Logone Oriental","name_en":"Logone Oriental","name_ko":"로곤오리앙탈","type":"Prefecture","labelLongitude":16.23,"labelLatitude":8.126,"minZoom":6.6},"geometry":{"type":"Polygon","coordinates":[[[17.234,7.811],[17.221,7.798],[17.214,7.787],[17.211,7.768],[17.205,7.764],[17.196,7.765],[17.189,7.764],[17.171,7.748],[17.136,7.705],[17.116,7.687],[17.102,7.678],[17.096,7.678],[17.09,7.684],[17.079,7.69],[17.059,7.697],[17.046,7.685],[17.041,7.676],[17.042,7.667],[17.039,7.662],[17.008,7.668],[16.998,7.667],[16.989,7.661],[16.982,7.649],[16.963,7.651],[16.92,7.644],[16.881,7.633],[16.865,7.624],[16.855,7.611],[16.847,7.592],[16.848,7.585],[16.852,7.58],[16.856,7.575],[16.854,7.567],[16.85,7.566],[16.84,7.567],[16.837,7.567],[16.815,7.55],[16.813,7.548],[16.806,7.544],[16.782,7.541],[16.769,7.55],[16.747,7.587],[16.71,7.628],[16.687,7.646],[16.663,7.657],[16.625,7.669],[16.614,7.68],[16.61,7.702],[16.612,7.714],[16.616,7.724],[16.618,7.734],[16.613,7.748],[16.605,7.757],[16.596,7.761],[16.587,7.764],[16.576,7.768],[16.56,7.78],[16.549,7.795],[16.545,7.813],[16.55,7.844],[16.551,7.853],[16.55,7.862],[16.549,7.87],[16.509,7.858],[16.492,7.849],[16.476,7.836],[16.469,7.826],[16.457,7.8],[16.451,7.792],[16.437,7.788],[16.427,7.791],[16.418,7.796],[16.407,7.796],[16.392,7.784],[16.387,7.763],[16.387,7.695],[16.383,7.681],[16.371,7.673],[16.283,7.66],[16.262,7.652],[16.227,7.626],[16.207,7.614],[16.186,7.611],[16.163,7.611],[16.129,7.599],[16.065,7.591],[16.043,7.584],[16.026,7.575],[16.012,7.56],[15.99,7.529],[15.976,7.515],[15.943,7.495],[15.925,7.488],[15.794,7.458],[15.758,7.456],[15.72,7.469],[15.669,7.516],[15.625,7.52],[15.552,7.51],[15.516,7.512],[15.481,7.523],[15.522,7.576],[15.549,7.631],[15.562,7.69],[15.563,7.792],[15.541,7.797],[15.509,7.804],[15.488,7.805],[15.441,7.839],[15.407,7.922],[15.345,8.136],[15.211,8.422],[15.228,8.43],[15.273,8.449],[15.313,8.424],[15.348,8.409],[15.42,8.361],[15.431,8.355],[15.455,8.356],[15.474,8.352],[15.482,8.348],[15.487,8.342],[15.492,8.336],[15.501,8.328],[15.514,8.322],[15.52,8.317],[15.522,8.313],[15.518,8.304],[15.517,8.297],[15.517,8.291],[15.52,8.284],[15.524,8.28],[15.53,8.278],[15.536,8.278],[15.55,8.279],[15.558,8.278],[15.562,8.276],[15.563,8.267],[15.566,8.261],[15.571,8.258],[15.577,8.258],[15.614,8.262],[15.618,8.264],[15.622,8.266],[15.631,8.271],[15.636,8.273],[15.641,8.274],[15.66,8.275],[15.665,8.276],[15.669,8.279],[15.68,8.289],[15.691,8.305],[15.695,8.309],[15.699,8.311],[15.719,8.318],[15.728,8.323],[15.737,8.323],[15.79,8.314],[15.806,8.314],[15.814,8.316],[15.819,8.319],[15.854,8.36],[15.857,8.366],[15.858,8.373],[15.858,8.377],[15.868,8.414],[15.893,8.439],[15.98,8.487],[16.004,8.511],[16.011,8.515],[16.022,8.518],[16.099,8.561],[16.145,8.598],[16.287,8.64],[16.365,8.649],[16.38,8.658],[16.392,8.694],[16.41,8.707],[16.432,8.715],[16.454,8.719],[16.49,8.732],[16.513,8.753],[16.597,8.881],[16.596,8.903],[16.592,8.917],[16.584,8.93],[16.57,8.945],[16.566,8.947],[16.56,8.948],[16.555,8.948],[16.549,8.952],[16.547,8.958],[16.546,8.973],[16.542,8.98],[16.538,8.981],[16.525,8.979],[16.521,8.98],[16.518,8.984],[16.515,8.993],[16.512,8.997],[16.49,9.021],[16.471,9.053],[16.467,9.057],[16.464,9.061],[16.461,9.069],[16.454,9.096],[16.451,9.102],[16.44,9.117],[16.435,9.128],[16.453,9.128],[16.516,9.14],[16.544,9.14],[16.569,9.136],[16.613,9.124],[16.653,9.108],[16.667,9.1],[16.72,9.089],[16.75,9.077],[16.919,9.036],[16.945,9.035],[16.999,9.037],[17.105,9.07],[17.124,9.006],[17.126,8.996],[17.117,8.784],[17.11,8.761],[17.102,8.742],[17.048,8.662],[17.033,8.633],[17.036,8.62],[17.039,8.612],[17.249,8.291],[17.249,8.285],[17.247,8.281],[17.242,8.279],[17.238,8.276],[17.235,8.272],[17.233,8.267],[17.23,8.248],[17.229,8.243],[17.226,8.238],[17.223,8.234],[17.219,8.231],[17.213,8.224],[17.207,8.216],[17.197,8.197],[17.194,8.194],[17.183,8.184],[17.18,8.18],[17.173,8.166],[17.17,8.162],[17.167,8.158],[17.163,8.156],[17.157,8.155],[17.151,8.155],[17.139,8.156],[17.133,8.157],[17.127,8.156],[17.111,8.151],[17.093,8.149],[17.087,8.147],[17.083,8.144],[17.08,8.137],[17.081,8.132],[17.084,8.128],[17.088,8.125],[17.091,8.12],[17.234,7.811]]]}},{"type":"Feature","id":"TD-MA","properties":{"id":"TD-MA","countryCode":"TD","isoSubdivision":"TD-MA","name":"Mandoul","name_en":"Mandoul","name_ko":"망둘","type":"Prefecture","labelLongitude":17.549,"labelLatitude":8.678,"minZoom":6.6},"geometry":{"type":"Polygon","coordinates":[[[18.175,8.022],[18.07,8.019],[17.977,7.997],[17.898,7.967],[17.859,7.96],[17.817,7.962],[17.68,7.985],[17.662,7.986],[17.64,7.985],[17.621,7.979],[17.6,7.95],[17.581,7.941],[17.56,7.935],[17.524,7.931],[17.504,7.926],[17.487,7.914],[17.478,7.892],[17.466,7.884],[17.419,7.898],[17.406,7.883],[17.386,7.87],[17.251,7.823],[17.235,7.812],[17.234,7.811],[17.091,8.12],[17.088,8.125],[17.084,8.128],[17.081,8.132],[17.08,8.137],[17.083,8.144],[17.087,8.147],[17.093,8.149],[17.111,8.151],[17.127,8.156],[17.133,8.157],[17.139,8.156],[17.151,8.155],[17.157,8.155],[17.163,8.156],[17.167,8.158],[17.17,8.162],[17.173,8.166],[17.18,8.18],[17.183,8.184],[17.194,8.194],[17.197,8.197],[17.207,8.216],[17.213,8.224],[17.219,8.231],[17.223,8.234],[17.226,8.238],[17.229,8.243],[17.23,8.248],[17.233,8.267],[17.235,8.272],[17.238,8.276],[17.242,8.279],[17.247,8.281],[17.249,8.285],[17.249,8.291],[17.039,8.612],[17.036,8.62],[17.033,8.633],[17.048,8.662],[17.102,8.742],[17.11,8.761],[17.117,8.784],[17.126,8.996],[17.124,9.006],[17.105,9.07],[17.18,9.147],[17.186,9.157],[17.182,9.164],[17.173,9.173],[17.079,9.242],[17.069,9.253],[17.063,9.263],[17.072,9.276],[17.202,9.377],[17.21,9.386],[17.211,9.395],[17.211,9.408],[17.207,9.435],[17.207,9.452],[17.209,9.47],[17.218,9.496],[17.218,9.507],[17.217,9.515],[17.215,9.519],[17.213,9.53],[17.211,9.535],[17.207,9.539],[17.199,9.545],[17.198,9.55],[17.198,9.555],[17.199,9.561],[17.204,9.568],[17.213,9.577],[17.234,9.592],[17.245,9.598],[17.255,9.601],[17.301,9.599],[17.307,9.6],[17.334,9.609],[17.348,9.617],[17.354,9.62],[17.36,9.622],[17.366,9.623],[17.385,9.622],[17.396,9.623],[17.4,9.624],[17.403,9.625],[17.428,9.639],[17.438,9.643],[17.444,9.644],[17.45,9.643],[17.455,9.642],[17.46,9.639],[17.463,9.636],[17.466,9.632],[17.472,9.624],[17.475,9.62],[17.479,9.617],[17.488,9.612],[17.498,9.609],[17.506,9.607],[17.516,9.604],[17.521,9.602],[17.525,9.599],[17.534,9.588],[17.537,9.587],[17.579,9.559],[17.607,9.516],[17.625,9.452],[17.713,9.456],[17.734,9.431],[17.756,9.392],[17.783,9.328],[17.795,9.291],[17.853,9.273],[17.929,9.234],[17.996,9.2],[18.078,9.197],[18.142,9.188],[18.165,9.16],[18.154,9.149],[18.146,9.145],[18.142,9.115],[18.121,9.076],[18.091,9.041],[18.064,9.021],[18.047,9.019],[18.033,9.021],[18.022,9.017],[18.004,8.999],[17.99,9.008],[17.984,9.017],[17.978,9.018],[17.967,9.007],[17.955,8.901],[17.959,8.895],[17.962,8.891],[17.961,8.884],[17.954,8.879],[17.948,8.878],[17.942,8.868],[17.938,8.86],[17.941,8.85],[17.957,8.842],[17.993,8.824],[18.014,8.804],[18.023,8.771],[18.014,8.741],[18.007,8.684],[18.012,8.622],[18.032,8.577],[18.068,8.552],[18.089,8.521],[18.091,8.467],[18.104,8.424],[18.129,8.379],[18.134,8.339],[18.13,8.27],[18.127,8.214],[18.143,8.152],[18.156,8.081],[18.175,8.022]]]}},{"type":"Feature","id":"TD-MC","properties":{"id":"TD-MC","countryCode":"TD","isoSubdivision":"TD-MC","name":"Moyen-Chari","name_en":"Moyen-Chari","name_ko":"무아얭샤리","type":"Prefecture","labelLongitude":18.483,"labelLatitude":9.085,"minZoom":6.6},"geometry":{"type":"Polygon","coordinates":[[[19.932,9.063],[19.929,9.063],[19.914,9.069],[19.902,9.052],[19.889,9.046],[19.806,9.051],[19.785,9.049],[19.758,9.042],[19.747,9.041],[19.738,9.039],[19.714,9.029],[19.709,9.025],[19.7,9.021],[19.656,9.021],[19.64,9.014],[19.614,9.032],[19.583,9.025],[19.554,9.013],[19.531,9.014],[19.521,9.009],[19.516,9.009],[19.512,9.012],[19.507,9.014],[19.43,9.013],[19.421,9.017],[19.383,9.003],[19.369,9],[19.352,9.002],[19.333,9.007],[19.316,9.013],[19.305,9.021],[19.295,9.01],[19.286,9.013],[19.275,9.022],[19.263,9.028],[19.253,9.028],[19.233,9.022],[19.192,9.02],[19.18,9.015],[19.175,9.004],[19.169,9.002],[19.142,9.009],[19.134,9.007],[19.127,9.007],[19.101,9.015],[19.061,9.004],[19.022,8.985],[18.999,8.97],[18.985,8.956],[18.979,8.949],[18.976,8.942],[18.972,8.938],[18.952,8.932],[18.936,8.923],[18.929,8.922],[18.923,8.918],[18.921,8.908],[18.918,8.899],[18.911,8.894],[18.901,8.894],[18.893,8.898],[18.87,8.864],[18.87,8.849],[18.887,8.836],[18.903,8.845],[18.91,8.835],[18.912,8.818],[18.917,8.805],[18.929,8.797],[19.049,8.746],[19.058,8.73],[19.073,8.721],[19.104,8.698],[19.124,8.675],[19.091,8.653],[19.082,8.637],[19.072,8.632],[19.061,8.626],[19.02,8.546],[18.921,8.432],[18.91,8.413],[18.901,8.389],[18.887,8.371],[18.855,8.34],[18.813,8.276],[18.791,8.257],[18.774,8.249],[18.715,8.229],[18.673,8.208],[18.639,8.178],[18.619,8.139],[18.618,8.09],[18.589,8.048],[18.508,8.031],[18.175,8.022],[18.156,8.081],[18.143,8.152],[18.127,8.214],[18.13,8.27],[18.134,8.339],[18.129,8.379],[18.104,8.424],[18.091,8.467],[18.089,8.521],[18.068,8.552],[18.032,8.577],[18.012,8.622],[18.007,8.684],[18.014,8.741],[18.023,8.771],[18.014,8.804],[17.993,8.824],[17.957,8.842],[17.941,8.85],[17.938,8.86],[17.942,8.868],[17.948,8.878],[17.954,8.879],[17.961,8.884],[17.962,8.891],[17.959,8.895],[17.955,8.901],[17.967,9.007],[17.978,9.018],[17.984,9.017],[17.99,9.008],[18.004,8.999],[18.022,9.017],[18.033,9.021],[18.047,9.019],[18.064,9.021],[18.091,9.041],[18.121,9.076],[18.142,9.115],[18.146,9.145],[18.154,9.149],[18.165,9.16],[18.142,9.188],[18.078,9.197],[17.996,9.2],[17.929,9.234],[17.853,9.273],[17.795,9.291],[17.783,9.328],[17.756,9.392],[17.734,9.431],[17.713,9.456],[17.625,9.452],[17.607,9.516],[17.579,9.559],[17.537,9.587],[17.54,9.592],[17.559,9.641],[17.561,9.654],[17.558,9.663],[17.544,9.684],[17.523,9.705],[17.427,9.775],[17.353,9.812],[17.348,9.814],[17.341,9.816],[17.33,9.816],[17.534,10.464],[17.827,10.474],[17.834,10.47],[17.841,10.465],[17.925,10.386],[17.931,10.382],[17.937,10.38],[17.949,10.378],[17.959,10.373],[17.972,10.366],[17.978,10.364],[17.993,10.361],[18.017,10.354],[18.025,10.353],[18.031,10.35],[18.035,10.347],[18.039,10.345],[18.043,10.345],[18.052,10.353],[18.057,10.354],[18.062,10.352],[18.07,10.349],[18.09,10.347],[18.095,10.343],[18.102,10.335],[18.106,10.333],[18.111,10.333],[18.117,10.337],[18.121,10.341],[18.125,10.345],[18.131,10.346],[18.139,10.344],[18.145,10.341],[18.149,10.338],[18.152,10.333],[18.153,10.328],[18.155,10.316],[18.157,10.311],[18.161,10.308],[18.167,10.306],[18.176,10.304],[18.18,10.301],[18.187,10.294],[18.193,10.292],[18.213,10.291],[18.219,10.289],[18.222,10.285],[18.226,10.275],[18.229,10.271],[18.232,10.268],[18.253,10.259],[18.256,10.254],[18.261,10.251],[18.265,10.248],[18.27,10.246],[18.312,10.245],[18.333,10.239],[18.343,10.238],[18.35,10.236],[18.355,10.234],[18.367,10.218],[18.374,10.211],[18.382,10.205],[18.391,10.2],[18.446,10.185],[18.449,10.182],[18.453,10.179],[18.456,10.175],[18.463,10.162],[18.47,10.155],[18.478,10.148],[18.481,10.144],[18.487,10.131],[18.501,10.108],[18.507,10.102],[18.511,10.1],[18.516,10.098],[18.522,10.096],[18.528,10.094],[18.532,10.092],[18.553,10.071],[18.557,10.068],[18.57,10.06],[18.573,10.056],[18.575,10.051],[18.578,10.041],[18.58,10.036],[18.584,10.033],[18.588,10.03],[18.599,10.027],[18.604,10.024],[18.607,10.021],[18.609,10.016],[18.61,10.01],[18.61,10.002],[18.6,9.915],[18.6,9.913],[18.602,9.911],[18.606,9.909],[18.615,9.904],[18.622,9.903],[18.629,9.902],[18.64,9.903],[18.648,9.902],[18.653,9.9],[18.658,9.897],[18.678,9.876],[18.69,9.867],[18.698,9.867],[18.709,9.868],[18.729,9.876],[18.757,9.882],[18.763,9.885],[18.766,9.893],[18.788,9.984],[18.795,9.995],[18.807,9.999],[18.944,10],[18.999,10.007],[19.037,10.027],[19.049,10.036],[19.064,10.049],[19.08,10.068],[19.093,10.088],[19.099,10.095],[19.105,10.106],[19.109,10.116],[19.112,10.12],[19.115,10.123],[19.12,10.122],[19.125,10.122],[19.131,10.126],[19.141,10.135],[19.149,10.138],[19.155,10.139],[19.158,10.137],[19.161,10.136],[19.164,10.138],[19.169,10.149],[19.173,10.166],[19.19,10.198],[19.194,10.203],[19.198,10.207],[19.208,10.212],[19.215,10.213],[19.22,10.216],[19.225,10.22],[19.228,10.228],[19.236,10.237],[19.241,10.248],[19.245,10.255],[19.25,10.261],[19.256,10.266],[19.269,10.273],[19.276,10.278],[19.28,10.284],[19.281,10.29],[19.283,10.294],[19.289,10.296],[19.295,10.296],[19.3,10.297],[19.303,10.3],[19.3,10.305],[19.292,10.311],[19.29,10.315],[19.292,10.32],[19.294,10.326],[19.295,10.331],[19.292,10.336],[19.289,10.339],[19.284,10.341],[19.281,10.345],[19.282,10.349],[19.285,10.353],[19.294,10.354],[19.306,10.353],[19.312,10.354],[19.316,10.357],[19.319,10.364],[19.319,10.369],[19.318,10.375],[19.319,10.379],[19.321,10.383],[19.325,10.386],[19.332,10.387],[19.336,10.39],[19.336,10.396],[19.332,10.406],[19.333,10.412],[19.337,10.42],[19.347,10.432],[19.352,10.44],[19.362,10.453],[19.379,10.469],[19.385,10.475],[19.394,10.478],[19.403,10.485],[19.41,10.488],[19.42,10.491],[19.427,10.494],[19.436,10.499],[19.442,10.502],[19.449,10.502],[19.452,10.501],[19.453,10.5],[19.454,10.496],[19.453,10.491],[19.453,10.487],[19.457,10.483],[19.464,10.482],[19.479,10.485],[19.489,10.486],[19.513,10.493],[19.521,10.492],[19.528,10.493],[19.534,10.495],[19.556,10.534],[19.556,10.54],[19.555,10.545],[19.555,10.55],[19.558,10.553],[19.565,10.552],[19.569,10.548],[19.573,10.544],[19.576,10.541],[19.58,10.541],[19.585,10.545],[19.591,10.561],[19.595,10.566],[19.6,10.571],[19.608,10.576],[19.611,10.582],[19.61,10.587],[19.61,10.591],[19.614,10.595],[19.64,10.604],[19.658,10.618],[19.606,10.359],[19.616,10.292],[19.629,10.279],[19.639,10.252],[19.641,10.237],[19.641,10.225],[19.638,10.214],[19.635,10.208],[19.632,10.202],[19.625,10.196],[19.622,10.191],[19.62,10.186],[19.615,10.172],[19.614,10.165],[19.616,10.156],[19.614,10.15],[19.61,10.144],[19.603,10.138],[19.602,10.131],[19.603,10.124],[19.605,10.115],[19.605,10.109],[19.602,10.105],[19.584,10.094],[19.58,10.091],[19.577,10.087],[19.574,10.082],[19.572,10.076],[19.576,10.064],[19.651,9.928],[19.932,9.064],[19.932,9.063]]]}},{"type":"Feature","id":"TD-ME","properties":{"id":"TD-ME","countryCode":"TD","isoSubdivision":"TD-ME","name":"Mayo-Kebbi Est","name_en":"Mayo-Kebbi Est","name_ko":"마요케비에스트","type":"Prefecture","labelLongitude":15.437,"labelLatitude":9.716,"minZoom":6.6},"geometry":{"type":"Polygon","coordinates":[[[15.383,9.93],[15.439,9.932],[15.664,9.986],[15.681,9.991],[15.638,10.03],[15.603,10.041],[15.536,10.081],[15.49,10.12],[15.491,10.124],[15.476,10.133],[15.439,10.185],[15.301,10.312],[15.291,10.329],[15.284,10.349],[15.282,10.375],[15.278,10.394],[15.269,10.406],[15.256,10.417],[15.241,10.433],[15.227,10.47],[15.218,10.487],[15.198,10.496],[15.193,10.501],[15.187,10.506],[15.176,10.508],[15.165,10.509],[15.154,10.512],[15.144,10.516],[15.138,10.522],[15.132,10.541],[15.132,10.565],[15.138,10.59],[15.148,10.607],[15.15,10.623],[15.142,10.647],[15.066,10.793],[15.063,10.831],[15.076,10.873],[15.079,10.898],[15.073,10.916],[15.062,10.931],[15.035,10.995],[15.029,11.08],[15.117,11.103],[15.137,11.111],[15.151,11.118],[15.183,11.141],[15.205,11.163],[15.213,11.168],[15.216,11.172],[15.223,11.179],[15.227,11.182],[15.231,11.185],[15.237,11.186],[15.243,11.186],[15.296,11.181],[15.343,11.17],[15.353,11.166],[15.371,11.156],[15.406,11.13],[15.413,11.127],[15.422,11.124],[15.432,11.116],[15.432,11.067],[15.438,11.05],[15.453,11.035],[15.471,11.023],[15.487,11.015],[15.503,11.011],[15.514,11.01],[15.519,11.004],[15.521,10.984],[15.524,10.971],[15.533,10.953],[15.549,10.926],[15.56,10.917],[15.575,10.908],[15.592,10.901],[15.608,10.899],[15.632,10.899],[15.649,10.897],[15.665,10.889],[15.686,10.872],[15.746,10.811],[15.765,10.803],[15.803,10.799],[15.883,10.78],[15.922,10.776],[15.945,10.778],[15.983,10.788],[16.001,10.789],[16.054,10.754],[16.063,10.751],[16.075,10.767],[16.101,10.763],[16.134,10.746],[16.138,10.739],[16.139,10.734],[16.108,10.446],[16.126,10.315],[16.13,10.303],[16.135,10.294],[16.146,10.284],[16.153,10.279],[16.169,10.271],[16.173,10.268],[16.177,10.263],[16.182,10.256],[16.186,10.241],[16.189,10.224],[16.196,10.212],[16.219,10.196],[16.229,10.186],[16.242,10.165],[16.244,10.16],[16.246,10.15],[16.241,10.095],[16.243,10.072],[16.235,10.024],[16.211,9.955],[16.166,9.867],[16.158,9.856],[15.974,9.683],[15.968,9.683],[15.962,9.688],[15.912,9.731],[15.888,9.74],[15.854,9.743],[15.844,9.745],[15.831,9.741],[15.716,9.604],[15.708,9.591],[15.705,9.578],[15.676,9.5],[15.674,9.496],[15.671,9.491],[15.598,9.419],[15.576,9.39],[15.569,9.372],[15.56,9.36],[15.554,9.353],[15.543,9.348],[15.54,9.344],[15.532,9.334],[15.524,9.326],[15.515,9.314],[15.504,9.29],[15.502,9.287],[15.476,9.241],[15.469,9.234],[15.462,9.224],[15.445,9.196],[15.438,9.187],[15.374,9.213],[15.3,9.245],[15.22,9.292],[15.13,9.367],[15.09,9.394],[15.071,9.528],[15.023,9.591],[15.026,9.642],[14.995,9.671],[14.941,9.696],[14.89,9.683],[14.793,9.663],[14.738,9.666],[14.723,9.787],[14.732,9.924],[14.773,9.922],[14.898,9.96],[14.944,9.959],[15.002,9.945],[15.033,9.943],[15.061,9.949],[15.072,9.956],[15.089,9.972],[15.101,9.979],[15.11,9.982],[15.155,9.987],[15.215,9.984],[15.383,9.93]]]}},{"type":"Feature","id":"TD-MO","properties":{"id":"TD-MO","countryCode":"TD","isoSubdivision":"TD-MO","name":"Mayo-Kebbi Ouest","name_en":"Mayo-Kebbi Ouest","name_ko":"마요케비우에스트","type":"Prefecture","labelLongitude":14.736,"labelLatitude":9.262,"minZoom":6.6},"geometry":{"type":"Polygon","coordinates":[[[14.44,9.995],[14.732,9.924],[14.723,9.787],[14.738,9.666],[14.793,9.663],[14.89,9.683],[14.941,9.696],[14.995,9.671],[15.026,9.642],[15.023,9.591],[15.071,9.528],[15.09,9.394],[15.13,9.367],[15.22,9.292],[15.3,9.245],[15.374,9.213],[15.438,9.187],[15.438,9.185],[15.439,9.184],[15.442,9.183],[15.444,9.179],[15.446,9.174],[15.451,9.151],[15.452,9.142],[15.449,9.12],[15.45,9.067],[15.452,9.05],[15.464,9.027],[15.428,9.013],[15.418,9.004],[15.377,8.883],[15.373,8.864],[15.371,8.831],[15.372,8.82],[15.377,8.804],[15.378,8.798],[15.379,8.792],[15.376,8.77],[15.377,8.752],[15.375,8.746],[15.373,8.742],[15.317,8.688],[15.309,8.679],[15.306,8.672],[15.265,8.502],[15.264,8.493],[15.265,8.481],[15.266,8.476],[15.271,8.461],[15.273,8.449],[15.228,8.43],[15.211,8.422],[15.184,8.479],[15.169,8.499],[15.111,8.555],[15.069,8.624],[15.052,8.644],[15.031,8.659],[15.006,8.667],[14.969,8.672],[14.955,8.676],[14.951,8.683],[14.951,8.692],[14.949,8.704],[14.94,8.73],[14.934,8.739],[14.927,8.745],[14.92,8.748],[14.913,8.752],[14.908,8.765],[14.899,8.774],[14.86,8.803],[14.846,8.811],[14.837,8.813],[14.828,8.813],[14.819,8.812],[14.81,8.809],[14.794,8.814],[14.572,8.991],[14.35,9.168],[14.331,9.2],[14.321,9.243],[14.036,9.569],[13.948,9.638],[13.946,9.653],[14.007,9.739],[14.088,9.81],[14.12,9.852],[14.168,9.948],[14.171,9.958],[14.171,9.968],[14.174,9.975],[14.182,9.978],[14.196,9.979],[14.44,9.995]]]}},{"type":"Feature","id":"TD-ND","properties":{"id":"TD-ND","countryCode":"TD","isoSubdivision":"TD-ND","name":"N'Djamena","name_en":"N'Djamena","name_ko":"은자메나","type":"Capital","labelLongitude":15.058,"labelLatitude":12.141,"minZoom":6.6},"geometry":{"type":"Polygon","coordinates":[[[15.041,12.056],[15.041,12.068],[15.045,12.078],[15.049,12.085],[15.03,12.101],[15.012,12.109],[15.013,12.134],[15.022,12.155],[15.036,12.175],[15.05,12.181],[15.074,12.179],[15.089,12.168],[15.107,12.154],[15.119,12.135],[15.125,12.114],[15.123,12.091],[15.105,12.071],[15.088,12.061],[15.069,12.058],[15.041,12.056]]]}},{"type":"Feature","id":"TD-OD","properties":{"id":"TD-OD","countryCode":"TD","isoSubdivision":"TD-OD","name":"Ouaddaï","name_en":"Ouaddaï","name_ko":"와다이","type":"Prefecture","labelLongitude":21.107,"labelLatitude":13.471,"minZoom":6.6},"geometry":{"type":"Polygon","coordinates":[[[22.181,13.921],[22.099,13.819],[22.075,13.78],[22.074,13.771],[22.097,13.75],[22.113,13.73],[22.116,13.715],[22.114,13.7],[22.114,13.677],[22.132,13.639],[22.196,13.58],[22.211,13.542],[22.211,13.484],[22.216,13.465],[22.229,13.441],[22.264,13.399],[22.276,13.376],[22.268,13.335],[22.232,13.289],[22.14,13.194],[22.123,13.182],[22.016,13.14],[21.998,13.131],[21.964,13.098],[21.935,13.059],[21.853,12.906],[21.828,12.831],[21.812,12.8],[21.809,12.794],[21.697,12.831],[21.574,12.882],[21.483,12.851],[21.38,12.79],[21.289,12.698],[21.237,12.678],[21.197,12.688],[21.095,12.698],[20.982,12.668],[20.849,12.719],[20.849,12.81],[20.839,12.882],[20.758,12.892],[20.686,12.913],[20.676,13.045],[20.523,13.045],[20.41,13.045],[20.295,13.092],[20.301,13.107],[20.304,13.118],[20.305,13.223],[20.282,13.403],[20.283,13.563],[20.281,13.572],[20.245,13.627],[20.237,13.647],[20.232,13.67],[20.239,13.886],[20.235,13.892],[20.225,13.899],[20,14.011],[20,14.156],[20.158,14.326],[20.214,14.371],[20.229,14.381],[20.234,14.395],[20.238,14.401],[20.241,14.405],[20.266,14.411],[20.271,14.415],[20.274,14.419],[20.281,14.432],[20.288,14.441],[20.295,14.445],[20.302,14.447],[20.32,14.448],[20.326,14.447],[20.338,14.445],[20.343,14.443],[20.348,14.441],[20.353,14.439],[20.358,14.439],[20.362,14.441],[20.371,14.446],[20.376,14.447],[20.381,14.447],[20.416,14.439],[20.429,14.438],[20.435,14.438],[20.441,14.439],[20.487,14.462],[20.492,14.464],[20.497,14.465],[20.542,14.471],[20.552,14.47],[20.559,14.469],[20.736,14.412],[20.74,14.409],[20.748,14.403],[20.753,14.4],[20.775,14.394],[20.78,14.391],[20.784,14.389],[20.799,14.375],[20.807,14.369],[20.816,14.365],[20.844,14.355],[20.848,14.352],[20.851,14.348],[20.854,14.344],[20.875,14.297],[20.899,14.265],[20.958,14.204],[20.963,14.201],[20.969,14.198],[20.978,14.196],[20.99,14.198],[20.996,14.197],[21,14.197],[21.071,14.149],[21.168,14.101],[21.202,14.093],[21.221,14.092],[21.232,14.093],[21.252,14.099],[21.261,14.103],[21.279,14.114],[21.287,14.12],[21.333,14.143],[21.362,14.148],[21.422,14.152],[21.436,14.151],[21.702,14.111],[22.042,13.999],[22.085,13.973],[22.089,13.969],[22.114,13.931],[22.125,13.92],[22.138,13.917],[22.153,13.917],[22.18,13.92],[22.181,13.921]]]}},{"type":"Feature","id":"TD-SA","properties":{"id":"TD-SA","countryCode":"TD","isoSubdivision":"TD-SA","name":"Salamat","name_en":"Salamat","name_ko":"살라마트","type":"Prefecture","labelLongitude":20.605,"labelLatitude":10.581,"minZoom":6.6},"geometry":{"type":"Polygon","coordinates":[[[22.365,10.954],[22.361,10.954],[22.339,10.948],[22.319,10.939],[22.306,10.933],[22.287,10.916],[22.277,10.909],[22.268,10.909],[22.253,10.915],[22.24,10.906],[22.229,10.892],[22.201,10.869],[22.19,10.837],[22.176,10.816],[22.148,10.831],[22.132,10.829],[22.049,10.837],[22.029,10.829],[22.018,10.81],[22.011,10.789],[22.005,10.776],[22.015,10.755],[22.004,10.743],[21.943,10.728],[21.926,10.72],[21.895,10.699],[21.872,10.678],[21.868,10.676],[21.864,10.668],[21.853,10.67],[21.833,10.68],[21.823,10.679],[21.804,10.674],[21.795,10.672],[21.785,10.669],[21.779,10.662],[21.774,10.655],[21.768,10.652],[21.753,10.651],[21.736,10.646],[21.723,10.637],[21.717,10.621],[21.715,10.601],[21.705,10.572],[21.703,10.552],[21.705,10.532],[21.715,10.494],[21.717,10.477],[21.72,10.468],[21.738,10.448],[21.744,10.439],[21.744,10.432],[21.743,10.426],[21.744,10.419],[21.751,10.412],[21.72,10.361],[21.717,10.34],[21.718,10.329],[21.722,10.314],[21.723,10.306],[21.719,10.297],[21.709,10.294],[21.697,10.292],[21.689,10.289],[21.677,10.269],[21.669,10.249],[21.656,10.234],[21.631,10.227],[21.625,10.224],[21.593,10.215],[21.59,10.217],[21.579,10.212],[21.567,10.214],[21.554,10.219],[21.545,10.22],[21.513,10.201],[21.485,10.164],[21.433,10.046],[21.407,10.006],[21.374,9.973],[21.34,9.96],[21.326,9.963],[21.285,9.979],[21.271,9.987],[21.257,9.976],[21.206,9.917],[21.198,9.903],[21.195,9.887],[21.187,9.885],[21.132,9.849],[21.122,9.832],[21.107,9.795],[21.106,9.792],[21.107,9.778],[21.105,9.774],[21.102,9.774],[21.097,9.775],[21.093,9.774],[21.08,9.763],[21.073,9.758],[21.066,9.754],[21.062,9.756],[21.053,9.766],[21.048,9.768],[21.043,9.767],[21.04,9.765],[21.039,9.762],[21.038,9.761],[21.032,9.758],[21.026,9.753],[21.02,9.748],[21.017,9.744],[21.014,9.724],[21,9.697],[20.997,9.682],[20.996,9.648],[20.99,9.636],[20.976,9.631],[20.976,9.624],[20.98,9.62],[20.982,9.617],[20.983,9.604],[20.968,9.611],[20.962,9.607],[20.961,9.598],[20.956,9.589],[20.934,9.577],[20.925,9.57],[20.921,9.559],[20.913,9.544],[20.874,9.502],[20.864,9.494],[20.841,9.484],[20.834,9.462],[20.833,9.437],[20.826,9.418],[20.82,9.416],[20.814,9.419],[20.813,9.419],[20.807,9.423],[20.802,9.426],[20.798,9.423],[20.792,9.414],[20.788,9.412],[20.777,9.408],[20.771,9.398],[20.767,9.387],[20.758,9.377],[20.75,9.385],[20.741,9.377],[20.696,9.363],[20.655,9.343],[20.668,9.302],[20.617,9.302],[20.61,9.303],[20.593,9.308],[20.592,9.308],[20.574,9.309],[20.572,9.308],[20.551,9.32],[20.542,9.322],[20.538,9.312],[20.537,9.299],[20.534,9.29],[20.526,9.284],[20.514,9.282],[20.496,9.271],[20.503,9.247],[20.513,9.224],[20.507,9.213],[20.482,9.205],[20.468,9.184],[20.455,9.159],[20.435,9.138],[20.423,9.143],[20.412,9.142],[20.403,9.137],[20.384,9.124],[20.378,9.12],[20.359,9.116],[20.277,9.121],[20.257,9.116],[20.234,9.135],[20.223,9.142],[20.213,9.145],[20.198,9.141],[20.17,9.121],[20.155,9.116],[20.138,9.122],[20.126,9.134],[20.117,9.146],[20.11,9.151],[20.101,9.148],[20.1,9.141],[20.101,9.134],[20.099,9.131],[20.091,9.131],[20.077,9.137],[20.069,9.138],[20.061,9.134],[20.031,9.11],[20.028,9.105],[20.03,9.099],[20.03,9.094],[20.024,9.09],[20.018,9.091],[20.014,9.106],[20.007,9.11],[20.003,9.109],[20,9.104],[19.997,9.099],[19.996,9.093],[19.993,9.085],[19.985,9.083],[19.976,9.084],[19.969,9.083],[19.943,9.066],[19.932,9.063],[19.932,9.064],[19.651,9.928],[19.576,10.064],[19.572,10.076],[19.574,10.082],[19.577,10.087],[19.58,10.091],[19.584,10.094],[19.602,10.105],[19.605,10.109],[19.605,10.115],[19.603,10.124],[19.602,10.131],[19.603,10.138],[19.61,10.144],[19.614,10.15],[19.616,10.156],[19.614,10.165],[19.615,10.172],[19.62,10.186],[19.622,10.191],[19.625,10.196],[19.632,10.202],[19.635,10.208],[19.638,10.214],[19.641,10.225],[19.641,10.237],[19.639,10.252],[19.629,10.279],[19.616,10.292],[19.606,10.359],[19.658,10.618],[19.677,10.705],[19.666,10.878],[19.667,10.896],[19.674,10.902],[19.69,10.914],[19.693,10.918],[19.693,10.923],[19.688,10.93],[19.683,10.934],[19.677,10.936],[19.671,10.937],[19.666,10.94],[19.662,10.945],[19.657,10.952],[19.651,10.965],[19.636,10.985],[19.633,10.989],[19.629,10.992],[19.623,10.994],[19.611,10.996],[19.602,11],[19.601,11.001],[19.595,11.008],[19.591,11.011],[19.586,11.013],[19.58,11.015],[19.568,11.017],[19.563,11.019],[19.558,11.021],[19.554,11.024],[19.55,11.027],[19.541,11.033],[19.536,11.035],[19.526,11.039],[19.521,11.041],[19.516,11.041],[19.51,11.041],[19.501,11.039],[19.498,11.038],[19.493,11.039],[19.488,11.041],[19.484,11.044],[19.48,11.047],[19.469,11.057],[19.465,11.06],[19.461,11.063],[19.455,11.064],[19.45,11.064],[19.444,11.063],[19.428,11.059],[19.422,11.058],[19.409,11.059],[19.398,11.062],[19.393,11.064],[19.388,11.067],[19.384,11.07],[19.381,11.074],[19.371,11.092],[19.368,11.096],[19.364,11.1],[19.36,11.103],[19.355,11.104],[19.349,11.105],[19.343,11.105],[19.326,11.102],[19.321,11.102],[19.315,11.104],[19.277,11.123],[19.274,11.126],[19.264,11.137],[19.26,11.14],[19.255,11.143],[19.25,11.144],[19.232,11.148],[19.226,11.149],[19.221,11.151],[19.208,11.159],[19.191,11.165],[19.182,11.169],[19.178,11.173],[19.175,11.176],[19.171,11.179],[19.166,11.181],[19.16,11.182],[19.142,11.183],[19.136,11.184],[19.132,11.187],[19.112,11.202],[19.098,11.21],[19.093,11.211],[19.075,11.216],[19.07,11.218],[19.067,11.222],[19.065,11.226],[19.062,11.23],[19.058,11.233],[19.053,11.235],[19.035,11.238],[19.03,11.24],[18.99,11.265],[18.974,11.278],[18.97,11.28],[18.96,11.284],[18.954,11.286],[18.949,11.288],[18.945,11.291],[18.941,11.294],[18.939,11.298],[18.934,11.308],[18.932,11.312],[18.928,11.315],[18.923,11.317],[18.911,11.318],[18.905,11.319],[18.901,11.322],[18.899,11.326],[18.896,11.331],[18.894,11.335],[18.89,11.338],[18.884,11.34],[18.865,11.342],[18.86,11.345],[18.857,11.35],[18.856,11.359],[18.854,11.365],[18.849,11.374],[18.847,11.38],[18.846,11.389],[18.865,11.68],[18.868,11.692],[18.873,11.703],[18.887,11.706],[18.996,11.708],[19.003,11.707],[19.012,11.703],[19.019,11.693],[19.046,11.626],[19.053,11.617],[19.061,11.616],[19.074,11.619],[19.162,11.652],[19.176,11.66],[19.191,11.674],[19.286,11.845],[19.291,11.859],[19.294,11.873],[19.288,11.888],[19.219,11.999],[19.39,12.159],[19.435,12.152],[19.642,12.098],[19.82,12.087],[19.834,12.062],[19.838,12.048],[19.844,11.994],[19.848,11.984],[19.853,11.977],[19.859,11.975],[19.868,11.974],[19.894,11.975],[19.94,11.974],[19.947,11.975],[19.952,11.977],[19.954,11.981],[19.954,11.987],[19.944,12.043],[19.944,12.056],[19.946,12.063],[19.95,12.068],[19.96,12.07],[20.222,12.078],[20.25,12.072],[20.273,12.065],[20.521,11.899],[21.029,11.65],[21.261,11.596],[21.821,11.698],[21.839,11.698],[21.854,11.693],[21.893,11.67],[22.046,11.625],[22.068,11.61],[22.083,11.595],[22.364,10.955],[22.365,10.954]]]}},{"type":"Feature","id":"TD-SI","properties":{"id":"TD-SI","countryCode":"TD","isoSubdivision":"TD-SI","name":"Sila","name_en":"Sila","name_ko":"실라","type":"Prefecture","labelLongitude":21.135,"labelLatitude":12.234,"minZoom":6.6},"geometry":{"type":"Polygon","coordinates":[[[22.556,10.979],[22.535,10.981],[22.512,11.001],[22.503,10.992],[22.491,10.993],[22.476,10.998],[22.46,11.001],[22.447,10.998],[22.438,10.992],[22.419,10.971],[22.407,10.963],[22.392,10.959],[22.365,10.954],[22.364,10.955],[22.083,11.595],[22.068,11.61],[22.046,11.625],[21.893,11.67],[21.854,11.693],[21.839,11.698],[21.821,11.698],[21.261,11.596],[21.029,11.65],[20.521,11.899],[20.273,12.065],[20.25,12.072],[20.222,12.078],[19.96,12.07],[19.95,12.068],[19.946,12.063],[19.944,12.056],[19.944,12.043],[19.954,11.987],[19.954,11.981],[19.952,11.977],[19.947,11.975],[19.94,11.974],[19.894,11.975],[19.868,11.974],[19.859,11.975],[19.853,11.977],[19.848,11.984],[19.844,11.994],[19.838,12.048],[19.834,12.062],[19.82,12.087],[19.819,12.143],[19.821,12.163],[19.886,12.343],[19.915,12.408],[19.92,12.415],[19.926,12.423],[19.93,12.427],[19.934,12.43],[19.938,12.432],[19.944,12.437],[19.952,12.446],[19.975,12.48],[20.012,12.515],[20.037,12.551],[20.043,12.559],[20.051,12.566],[20.055,12.569],[20.059,12.571],[20.075,12.578],[20.09,12.589],[20.094,12.595],[20.096,12.599],[20.095,12.603],[20.093,12.607],[20.088,12.615],[20.056,12.646],[20.05,12.655],[20.048,12.66],[20.049,12.668],[20.055,12.68],[20.122,12.768],[20.128,12.772],[20.133,12.773],[20.138,12.773],[20.144,12.771],[20.151,12.772],[20.159,12.776],[20.169,12.788],[20.173,12.797],[20.175,12.804],[20.173,12.826],[20.175,12.841],[20.173,12.849],[20.171,12.854],[20.167,12.858],[20.164,12.861],[20.16,12.863],[20.155,12.862],[20.146,12.859],[20.142,12.858],[20.136,12.86],[19.99,12.971],[19.982,12.978],[19.981,12.983],[19.988,12.986],[20.245,13.038],[20.256,13.041],[20.26,13.044],[20.268,13.051],[20.295,13.092],[20.41,13.045],[20.523,13.045],[20.676,13.045],[20.686,12.913],[20.758,12.892],[20.839,12.882],[20.849,12.81],[20.849,12.719],[20.982,12.668],[21.095,12.698],[21.197,12.688],[21.237,12.678],[21.289,12.698],[21.38,12.79],[21.483,12.851],[21.574,12.882],[21.697,12.831],[21.809,12.794],[21.814,12.782],[21.841,12.749],[21.88,12.676],[21.901,12.656],[21.936,12.64],[21.977,12.632],[22.02,12.631],[22.059,12.637],[22.106,12.65],[22.144,12.671],[22.176,12.702],[22.205,12.743],[22.33,12.661],[22.432,12.624],[22.446,12.611],[22.396,12.496],[22.373,12.463],[22.375,12.451],[22.408,12.4],[22.481,12.177],[22.484,12.165],[22.485,12.153],[22.484,12.14],[22.458,12.03],[22.464,12.033],[22.47,12.036],[22.481,12.044],[22.546,12.064],[22.586,12.071],[22.599,12.063],[22.607,12.078],[22.612,12.073],[22.614,12.057],[22.611,12.04],[22.593,11.989],[22.537,11.681],[22.542,11.633],[22.562,11.586],[22.592,11.544],[22.628,11.51],[22.663,11.493],[22.743,11.466],[22.769,11.442],[22.772,11.433],[22.772,11.403],[22.782,11.399],[22.877,11.409],[22.9,11.408],[22.915,11.396],[22.928,11.325],[22.954,11.251],[22.955,11.238],[22.956,11.209],[22.952,11.191],[22.935,11.156],[22.929,11.138],[22.926,11.118],[22.925,11.098],[22.922,11.087],[22.907,11.07],[22.9,11.06],[22.861,10.919],[22.806,10.925],[22.745,10.944],[22.72,10.965],[22.683,10.974],[22.673,10.975],[22.638,10.974],[22.628,10.976],[22.609,10.985],[22.601,10.988],[22.577,10.985],[22.556,10.979]]]}},{"type":"Feature","id":"TD-TA","properties":{"id":"TD-TA","countryCode":"TD","isoSubdivision":"TD-TA","name":"Tandjilé","name_en":"Tandjilé","name_ko":"탕질레","type":"Prefecture","labelLongitude":16.499,"labelLatitude":9.671,"minZoom":6.6},"geometry":{"type":"Polygon","coordinates":[[[16.435,9.128],[16.434,9.136],[16.433,9.151],[16.421,9.181],[16.379,9.225],[16.371,9.238],[16.357,9.239],[16.348,9.234],[16.319,9.204],[16.311,9.197],[16.304,9.192],[16.294,9.189],[16.272,9.184],[16.249,9.177],[16.212,9.161],[16.204,9.156],[16.197,9.149],[16.188,9.137],[16.175,9.112],[16.162,9.098],[16.154,9.092],[16.147,9.089],[16.141,9.088],[16.042,9.117],[16.034,9.118],[16.022,9.117],[16.001,9.114],[15.978,9.106],[15.829,9.028],[15.818,9.025],[15.793,9.025],[15.755,9.032],[15.596,8.994],[15.57,8.991],[15.543,8.991],[15.53,8.992],[15.519,8.995],[15.509,8.998],[15.489,9.008],[15.48,9.013],[15.464,9.027],[15.452,9.05],[15.45,9.067],[15.449,9.12],[15.452,9.142],[15.451,9.151],[15.446,9.174],[15.444,9.179],[15.442,9.183],[15.439,9.184],[15.438,9.185],[15.438,9.187],[15.445,9.196],[15.462,9.224],[15.469,9.234],[15.476,9.241],[15.502,9.287],[15.504,9.29],[15.515,9.314],[15.524,9.326],[15.532,9.334],[15.54,9.344],[15.543,9.348],[15.554,9.353],[15.56,9.36],[15.569,9.372],[15.576,9.39],[15.598,9.419],[15.671,9.491],[15.674,9.496],[15.676,9.5],[15.705,9.578],[15.708,9.591],[15.716,9.604],[15.831,9.741],[15.844,9.745],[15.854,9.743],[15.888,9.74],[15.912,9.731],[15.962,9.688],[15.968,9.683],[15.974,9.683],[16.158,9.856],[16.166,9.867],[16.211,9.955],[16.235,10.024],[16.243,10.072],[16.241,10.095],[16.246,10.15],[16.244,10.16],[16.242,10.165],[16.229,10.186],[16.219,10.196],[16.44,10.193],[16.501,10.204],[16.562,10.251],[16.568,10.252],[16.573,10.25],[16.576,10.246],[16.579,10.242],[16.581,10.238],[16.584,10.233],[16.587,10.23],[16.599,10.22],[16.602,10.217],[16.605,10.213],[16.607,10.208],[16.608,10.203],[16.609,10.177],[16.607,10.151],[16.608,10.145],[16.61,10.141],[16.621,10.131],[16.623,10.126],[16.628,10.104],[16.63,10.1],[16.633,10.096],[16.636,10.092],[16.644,10.086],[16.711,10.053],[16.718,10.048],[16.722,10.044],[16.725,10.039],[16.73,10.033],[16.74,10.026],[16.747,10.024],[16.754,10.024],[16.769,10.025],[16.796,10.022],[16.804,10.019],[16.822,10.008],[16.83,10.004],[16.85,10],[16.88,10],[16.883,9.998],[16.885,9.995],[16.891,9.987],[16.898,9.98],[16.912,9.973],[16.915,9.969],[16.923,9.951],[16.93,9.942],[16.937,9.939],[16.944,9.937],[16.994,9.941],[17,9.942],[17.029,9.939],[17.065,9.931],[17.083,9.926],[17.094,9.921],[17.096,9.916],[17.1,9.914],[17.104,9.914],[17.116,9.918],[17.125,9.919],[17.13,9.917],[17.135,9.914],[17.138,9.911],[17.151,9.883],[17.153,9.878],[17.156,9.874],[17.164,9.868],[17.199,9.851],[17.218,9.839],[17.228,9.832],[17.235,9.829],[17.242,9.829],[17.256,9.831],[17.27,9.829],[17.284,9.825],[17.298,9.818],[17.307,9.816],[17.315,9.815],[17.33,9.816],[17.341,9.816],[17.348,9.814],[17.353,9.812],[17.427,9.775],[17.523,9.705],[17.544,9.684],[17.558,9.663],[17.561,9.654],[17.559,9.641],[17.54,9.592],[17.537,9.587],[17.534,9.588],[17.525,9.599],[17.521,9.602],[17.516,9.604],[17.506,9.607],[17.498,9.609],[17.488,9.612],[17.479,9.617],[17.475,9.62],[17.472,9.624],[17.466,9.632],[17.463,9.636],[17.46,9.639],[17.455,9.642],[17.45,9.643],[17.444,9.644],[17.438,9.643],[17.428,9.639],[17.403,9.625],[17.4,9.624],[17.396,9.623],[17.385,9.622],[17.366,9.623],[17.36,9.622],[17.354,9.62],[17.348,9.617],[17.334,9.609],[17.307,9.6],[17.301,9.599],[17.255,9.601],[17.245,9.598],[17.234,9.592],[17.213,9.577],[17.204,9.568],[17.199,9.561],[17.198,9.555],[17.198,9.55],[17.199,9.545],[17.207,9.539],[17.211,9.535],[17.213,9.53],[17.215,9.519],[17.217,9.515],[17.218,9.507],[17.218,9.496],[17.209,9.47],[17.207,9.452],[17.207,9.435],[17.211,9.408],[17.211,9.395],[17.21,9.386],[17.202,9.377],[17.072,9.276],[17.063,9.263],[17.069,9.253],[17.079,9.242],[17.173,9.173],[17.182,9.164],[17.186,9.157],[17.18,9.147],[17.105,9.07],[16.999,9.037],[16.945,9.035],[16.919,9.036],[16.75,9.077],[16.72,9.089],[16.667,9.1],[16.653,9.108],[16.613,9.124],[16.569,9.136],[16.544,9.14],[16.516,9.14],[16.453,9.128],[16.435,9.128]]]}},{"type":"Feature","id":"TD-TI","properties":{"id":"TD-TI","countryCode":"TD","isoSubdivision":"TD-TI","name":"Tibesti","name_en":"Tibesti","name_ko":"티베스티","type":"Préfecture","labelLongitude":16.618,"labelLatitude":21.472,"minZoom":6.6},"geometry":{"type":"Polygon","coordinates":[[[15.985,23.445],[16.076,23.4],[16.2,23.339],[16.323,23.278],[16.447,23.217],[16.57,23.156],[16.694,23.095],[16.817,23.034],[16.941,22.973],[17.064,22.912],[17.188,22.851],[17.311,22.79],[17.435,22.729],[17.558,22.668],[17.682,22.607],[17.805,22.546],[17.929,22.485],[18.052,22.424],[18.176,22.363],[18.3,22.302],[18.423,22.241],[18.547,22.18],[18.67,22.119],[18.794,22.058],[18.917,21.997],[18.719,21.85],[18.744,21.603],[18.769,21.356],[18.744,21.133],[18.521,21.059],[18.151,20.935],[17.953,20.837],[17.829,20.713],[17.706,20.688],[17.409,20.688],[17.36,20.416],[16.818,19.462],[16.271,18.5],[15.49,17.125],[15.494,17.17],[15.498,17.216],[15.502,17.261],[15.506,17.307],[15.511,17.353],[15.515,17.398],[15.519,17.444],[15.523,17.49],[15.527,17.535],[15.531,17.581],[15.535,17.626],[15.539,17.672],[15.543,17.718],[15.547,17.763],[15.551,17.809],[15.555,17.855],[15.559,17.9],[15.563,17.946],[15.567,17.991],[15.568,18],[15.571,18.037],[15.575,18.083],[15.579,18.128],[15.583,18.174],[15.587,18.219],[15.591,18.265],[15.595,18.311],[15.599,18.356],[15.603,18.402],[15.607,18.448],[15.611,18.493],[15.615,18.539],[15.619,18.584],[15.623,18.63],[15.628,18.676],[15.632,18.721],[15.636,18.767],[15.64,18.813],[15.644,18.858],[15.648,18.904],[15.652,18.949],[15.656,18.995],[15.66,19.041],[15.664,19.086],[15.668,19.132],[15.672,19.178],[15.676,19.223],[15.68,19.269],[15.684,19.314],[15.688,19.36],[15.692,19.406],[15.696,19.451],[15.7,19.497],[15.704,19.543],[15.708,19.588],[15.712,19.634],[15.716,19.679],[15.72,19.725],[15.724,19.771],[15.728,19.816],[15.732,19.862],[15.736,19.904],[15.767,19.982],[15.782,20.008],[15.822,20.077],[15.862,20.146],[15.902,20.215],[15.943,20.284],[15.963,20.319],[15.97,20.336],[15.968,20.353],[15.954,20.375],[15.93,20.399],[15.872,20.46],[15.814,20.521],[15.756,20.582],[15.697,20.643],[15.669,20.672],[15.588,20.733],[15.57,20.752],[15.556,20.774],[15.544,20.799],[15.536,20.844],[15.544,20.89],[15.569,20.929],[15.609,20.951],[15.593,20.975],[15.576,20.999],[15.559,21.024],[15.543,21.048],[15.526,21.073],[15.509,21.097],[15.492,21.122],[15.476,21.146],[15.459,21.171],[15.442,21.195],[15.425,21.22],[15.408,21.244],[15.392,21.269],[15.375,21.293],[15.358,21.318],[15.341,21.342],[15.325,21.367],[15.301,21.401],[15.267,21.441],[15.247,21.453],[15.2,21.476],[15.185,21.491],[15.18,21.507],[15.18,21.533],[15.18,21.553],[15.179,21.605],[15.178,21.679],[15.176,21.763],[15.175,21.848],[15.173,21.922],[15.172,21.974],[15.172,21.993],[15.164,22.034],[15.156,22.076],[15.148,22.119],[15.136,22.181],[15.124,22.244],[15.112,22.307],[15.1,22.369],[15.088,22.432],[15.076,22.495],[15.064,22.557],[15.052,22.62],[15.04,22.683],[15.028,22.745],[15.016,22.808],[15.004,22.87],[14.992,22.933],[14.98,22.996],[14.997,23.004],[15.055,23.03],[15.113,23.056],[15.17,23.082],[15.228,23.108],[15.286,23.134],[15.343,23.161],[15.401,23.187],[15.459,23.213],[15.516,23.239],[15.574,23.265],[15.632,23.291],[15.69,23.318],[15.747,23.344],[15.805,23.37],[15.863,23.396],[15.92,23.422],[15.965,23.442],[15.985,23.445]]]}},{"type":"Feature","id":"TD-WF","properties":{"id":"TD-WF","countryCode":"TD","isoSubdivision":"TD-WF","name":"Wadi Fira","name_en":"Wadi Fira","name_ko":"와디피라","type":"Prefecture","labelLongitude":21.56,"labelLatitude":15.046,"minZoom":6.6},"geometry":{"type":"Polygon","coordinates":[[[23.119,15.707],[23.095,15.704],[23.068,15.687],[23.005,15.611],[22.926,15.564],[22.907,15.541],[22.9,15.51],[22.907,15.481],[22.924,15.456],[22.945,15.433],[22.966,15.405],[22.976,15.374],[22.978,15.34],[22.966,15.224],[22.958,15.202],[22.913,15.122],[22.906,15.113],[22.872,15.1],[22.849,15.088],[22.829,15.072],[22.739,14.98],[22.727,14.959],[22.722,14.935],[22.721,14.916],[22.715,14.899],[22.695,14.881],[22.659,14.857],[22.651,14.842],[22.651,14.816],[22.659,14.761],[22.665,14.744],[22.68,14.712],[22.681,14.703],[22.677,14.689],[22.666,14.682],[22.465,14.629],[22.423,14.609],[22.382,14.579],[22.364,14.544],[22.386,14.507],[22.417,14.484],[22.425,14.47],[22.439,14.363],[22.442,14.357],[22.447,14.352],[22.451,14.346],[22.45,14.338],[22.445,14.333],[22.431,14.327],[22.427,14.323],[22.418,14.306],[22.417,14.298],[22.42,14.286],[22.429,14.265],[22.441,14.25],[22.458,14.241],[22.514,14.231],[22.532,14.221],[22.541,14.201],[22.548,14.169],[22.546,14.14],[22.531,14.123],[22.508,14.114],[22.481,14.109],[22.459,14.096],[22.422,14.062],[22.402,14.049],[22.244,13.975],[22.215,13.957],[22.191,13.933],[22.181,13.921],[22.18,13.92],[22.153,13.917],[22.138,13.917],[22.125,13.92],[22.114,13.931],[22.089,13.969],[22.085,13.973],[22.042,13.999],[21.702,14.111],[21.436,14.151],[21.422,14.152],[21.362,14.148],[21.333,14.143],[21.287,14.12],[21.279,14.114],[21.261,14.103],[21.252,14.099],[21.232,14.093],[21.221,14.092],[21.202,14.093],[21.168,14.101],[21.071,14.149],[21,14.197],[20.996,14.197],[20.99,14.198],[20.978,14.196],[20.969,14.198],[20.963,14.201],[20.958,14.204],[20.899,14.265],[20.875,14.297],[20.854,14.344],[20.851,14.348],[20.848,14.352],[20.844,14.355],[20.816,14.365],[20.807,14.369],[20.799,14.375],[20.784,14.389],[20.78,14.391],[20.775,14.394],[20.753,14.4],[20.748,14.403],[20.74,14.409],[20.736,14.412],[20.559,14.469],[20.552,14.47],[20.542,14.471],[20.497,14.465],[20.492,14.464],[20.487,14.462],[20.441,14.439],[20.435,14.438],[20.429,14.438],[20.416,14.439],[20.381,14.447],[20.376,14.447],[20.371,14.446],[20.362,14.441],[20.358,14.439],[20.353,14.439],[20.348,14.441],[20.343,14.443],[20.338,14.445],[20.326,14.447],[20.32,14.448],[20.302,14.447],[20.295,14.445],[20.288,14.441],[20.281,14.432],[20.274,14.419],[20.271,14.415],[20.266,14.411],[20.241,14.405],[20.238,14.401],[20.234,14.395],[20.229,14.381],[20.214,14.371],[20.158,14.326],[20,14.156],[20,15.784],[20.08,15.773],[20.113,15.764],[20.133,15.753],[20.183,15.718],[20.278,15.674],[20.292,15.669],[20.298,15.669],[20.304,15.67],[20.353,15.683],[20.393,15.7],[20.484,15.712],[20.492,15.711],[20.497,15.709],[20.506,15.703],[20.524,15.695],[20.547,15.687],[20.558,15.685],[20.567,15.685],[20.587,15.693],[20.597,15.697],[20.625,15.718],[20.66,15.737],[20.833,15.799],[20.896,15.839],[20.91,15.854],[20.923,15.87],[20.941,15.902],[20.944,15.906],[20.951,15.913],[20.959,15.919],[20.977,15.929],[21.035,15.945],[21.053,15.955],[21.077,15.975],[21.092,15.984],[21.097,15.985],[21.102,15.985],[21.112,15.98],[21.182,15.936],[21.293,15.89],[21.305,15.888],[21.313,15.888],[21.319,15.889],[21.378,15.921],[21.389,15.924],[21.643,15.976],[21.695,15.992],[21.732,16],[21.742,16.001],[21.758,15.999],[21.763,15.998],[21.845,15.97],[21.89,15.949],[21.909,15.945],[21.916,15.944],[21.922,15.946],[21.968,15.965],[21.991,15.978],[22.018,15.986],[22.061,15.991],[22.093,15.99],[22.118,15.986],[22.144,15.979],[22.15,15.98],[22.154,15.982],[22.166,15.994],[22.173,15.999],[22.177,16],[22.179,16],[22.181,15.998],[22.209,15.972],[22.249,15.941],[22.259,15.936],[22.271,15.931],[22.28,15.929],[22.295,15.927],[22.304,15.927],[22.312,15.928],[22.317,15.929],[22.333,15.934],[22.337,15.937],[22.348,15.944],[22.356,15.948],[22.363,15.949],[22.371,15.948],[22.377,15.947],[22.381,15.944],[22.388,15.937],[22.392,15.934],[22.397,15.932],[22.419,15.924],[22.432,15.922],[22.471,15.909],[22.475,15.905],[22.479,15.898],[22.484,15.882],[22.487,15.878],[22.49,15.874],[22.494,15.871],[22.498,15.869],[22.505,15.867],[22.51,15.865],[22.513,15.861],[22.516,15.857],[22.519,15.847],[22.522,15.842],[22.526,15.839],[22.53,15.837],[22.534,15.833],[22.537,15.829],[22.538,15.824],[22.541,15.819],[22.545,15.815],[22.551,15.812],[22.561,15.81],[22.568,15.81],[22.573,15.812],[22.587,15.819],[22.592,15.821],[22.604,15.823],[22.634,15.824],[22.669,15.83],[22.691,15.83],[22.719,15.828],[22.727,15.828],[22.747,15.835],[22.759,15.838],[22.768,15.839],[22.774,15.837],[22.779,15.834],[22.799,15.819],[22.804,15.816],[22.809,15.815],[22.835,15.811],[22.84,15.809],[22.845,15.806],[22.853,15.803],[22.867,15.799],[22.876,15.797],[22.883,15.797],[22.895,15.799],[22.916,15.806],[22.936,15.815],[22.944,15.818],[22.957,15.821],[22.966,15.822],[22.974,15.821],[22.998,15.817],[23.058,15.794],[23.062,15.792],[23.066,15.788],[23.07,15.785],[23.118,15.71],[23.119,15.708],[23.119,15.707]]]}},{"type":"Feature","id":"TD-X01~","properties":{"id":"TD-X01~","countryCode":"TD","isoSubdivision":"TD-X01~","name":"Ennedi","name_en":"Ennedi","name_ko":"엔네디","type":"Préfecture","labelLongitude":22.105,"labelLatitude":18.129,"minZoom":6.6},"geometry":{"type":"Polygon","coordinates":[[[20.893,21.021],[21.017,20.96],[21.14,20.899],[21.264,20.838],[21.387,20.777],[21.511,20.716],[21.634,20.655],[21.758,20.594],[21.881,20.533],[22.005,20.472],[22.129,20.411],[22.252,20.35],[22.376,20.289],[22.499,20.228],[22.623,20.167],[22.746,20.106],[22.87,20.045],[22.993,19.984],[23.117,19.923],[23.24,19.862],[23.364,19.801],[23.487,19.74],[23.611,19.679],[23.734,19.618],[23.858,19.557],[23.981,19.496],[23.982,19.264],[23.982,19.032],[23.982,18.799],[23.982,18.567],[23.982,18.335],[23.982,18.103],[23.983,17.87],[23.983,17.638],[23.983,17.406],[23.983,17.173],[23.983,16.941],[23.984,16.709],[23.984,16.477],[23.984,16.244],[23.984,16.012],[23.984,15.78],[23.984,15.722],[23.984,15.721],[23.973,15.691],[23.946,15.692],[23.829,15.731],[23.708,15.749],[23.593,15.749],[23.527,15.735],[23.396,15.688],[23.321,15.681],[23.167,15.713],[23.119,15.707],[23.119,15.708],[23.118,15.71],[23.07,15.785],[23.066,15.788],[23.062,15.792],[23.058,15.794],[22.998,15.817],[22.974,15.821],[22.966,15.822],[22.957,15.821],[22.944,15.818],[22.936,15.815],[22.916,15.806],[22.895,15.799],[22.883,15.797],[22.876,15.797],[22.867,15.799],[22.853,15.803],[22.845,15.806],[22.84,15.809],[22.835,15.811],[22.809,15.815],[22.804,15.816],[22.799,15.819],[22.779,15.834],[22.774,15.837],[22.768,15.839],[22.759,15.838],[22.747,15.835],[22.727,15.828],[22.719,15.828],[22.691,15.83],[22.669,15.83],[22.634,15.824],[22.604,15.823],[22.592,15.821],[22.587,15.819],[22.573,15.812],[22.568,15.81],[22.561,15.81],[22.551,15.812],[22.545,15.815],[22.541,15.819],[22.538,15.824],[22.537,15.829],[22.534,15.833],[22.53,15.837],[22.526,15.839],[22.522,15.842],[22.519,15.847],[22.516,15.857],[22.513,15.861],[22.51,15.865],[22.505,15.867],[22.498,15.869],[22.494,15.871],[22.49,15.874],[22.487,15.878],[22.484,15.882],[22.479,15.898],[22.475,15.905],[22.471,15.909],[22.432,15.922],[22.419,15.924],[22.397,15.932],[22.392,15.934],[22.388,15.937],[22.381,15.944],[22.377,15.947],[22.371,15.948],[22.363,15.949],[22.356,15.948],[22.348,15.944],[22.337,15.937],[22.333,15.934],[22.317,15.929],[22.312,15.928],[22.304,15.927],[22.295,15.927],[22.28,15.929],[22.271,15.931],[22.259,15.936],[22.249,15.941],[22.209,15.972],[22.181,15.998],[22.179,16],[22.177,16],[22.173,15.999],[22.166,15.994],[22.154,15.982],[22.15,15.98],[22.144,15.979],[22.118,15.986],[22.093,15.99],[22.061,15.991],[22.018,15.986],[21.991,15.978],[21.968,15.965],[21.922,15.946],[21.916,15.944],[21.909,15.945],[21.89,15.949],[21.845,15.97],[21.763,15.998],[21.758,15.999],[21.742,16.001],[21.732,16],[21.695,15.992],[21.643,15.976],[21.389,15.924],[21.378,15.921],[21.319,15.889],[21.313,15.888],[21.305,15.888],[21.293,15.89],[21.182,15.936],[21.112,15.98],[21.102,15.985],[21.097,15.985],[21.092,15.984],[21.077,15.975],[21.053,15.955],[21.035,15.945],[20.977,15.929],[20.959,15.919],[20.951,15.913],[20.944,15.906],[20.941,15.902],[20.923,15.87],[20.91,15.854],[20.896,15.839],[20.833,15.799],[20.66,15.737],[20.625,15.718],[20.597,15.697],[20.587,15.693],[20.567,15.685],[20.558,15.685],[20.547,15.687],[20.524,15.695],[20.506,15.703],[20.497,15.709],[20.492,15.711],[20.484,15.712],[20.637,15.844],[20.548,16.067],[20.301,16.759],[20.4,17.179],[20.424,17.624],[20.424,17.97],[20.153,18.686],[20.004,19.28],[20.893,21.021]]]}}]}
