{"type":"FeatureCollection","features":[{"type":"Feature","id":"TF-X01~","properties":{"id":"TF-X01~","countryCode":"TF","isoSubdivision":"TF-X01~","name":"Kerguelen Islands","name_en":"Kerguelen Islands","name_ko":"아치펠 데 케르겔렌","type":"Principal subdivision","labelLongitude":69.273,"labelLatitude":-49.318,"minZoom":11},"geometry":{"type":"MultiPolygon","coordinates":[[[[69.946,-49.542],[69.928,-49.541],[69.917,-49.536],[69.906,-49.529],[69.891,-49.522],[69.875,-49.518],[69.848,-49.514],[69.836,-49.508],[69.836,-49.501],[69.88,-49.492],[69.921,-49.497],[69.973,-49.535],[70.005,-49.551],[70.016,-49.564],[70.007,-49.576],[69.993,-49.575],[69.946,-49.542]]],[[[68.795,-49.344],[68.786,-49.357],[68.773,-49.364],[68.757,-49.364],[68.74,-49.357],[68.689,-49.357],[68.666,-49.352],[68.643,-49.344],[68.663,-49.322],[68.674,-49.317],[68.691,-49.316],[68.709,-49.319],[68.742,-49.329],[68.76,-49.33],[68.791,-49.324],[68.798,-49.327],[68.795,-49.344]]],[[[69.59,-49.2],[69.575,-49.204],[69.56,-49.206],[69.546,-49.203],[69.534,-49.193],[69.642,-49.154],[69.678,-49.152],[69.678,-49.159],[69.655,-49.169],[69.642,-49.192],[69.624,-49.208],[69.59,-49.2]]],[[[69.192,-48.987],[69.199,-48.976],[69.209,-48.969],[69.22,-48.963],[69.229,-48.956],[69.264,-48.922],[69.285,-48.906],[69.313,-48.893],[69.343,-48.884],[69.37,-48.884],[69.359,-48.905],[69.328,-48.924],[69.315,-48.939],[69.398,-48.928],[69.411,-48.929],[69.406,-48.943],[69.394,-48.959],[69.381,-48.972],[69.37,-48.981],[69.335,-48.998],[69.322,-49.01],[69.325,-49.025],[69.335,-49.044],[69.322,-49.054],[69.3,-49.06],[69.311,-49.069],[69.223,-49.094],[69.206,-49.087],[69.206,-49.035],[69.203,-49.022],[69.194,-48.994],[69.192,-48.987]]],[[[69.226,-48.857],[69.231,-48.878],[69.242,-48.877],[69.247,-48.881],[69.244,-48.89],[69.237,-48.895],[69.228,-48.898],[69.219,-48.905],[69.209,-48.919],[69.195,-48.948],[69.178,-48.969],[69.166,-48.978],[69.154,-48.983],[69.144,-48.981],[69.137,-48.971],[69.14,-48.968],[69.152,-48.933],[69.151,-48.932],[69.163,-48.907],[69.181,-48.881],[69.203,-48.862],[69.226,-48.857]]],[[[69.466,-48.884],[69.447,-48.876],[69.428,-48.864],[69.414,-48.849],[69.404,-48.829],[69.438,-48.829],[69.486,-48.856],[69.52,-48.857],[69.512,-48.87],[69.5,-48.878],[69.484,-48.883],[69.466,-48.884]]],[[[70.549,-49.183],[70.569,-49.219],[70.556,-49.267],[70.524,-49.308],[70.464,-49.357],[70.392,-49.349],[70.359,-49.338],[70.336,-49.352],[70.331,-49.369],[70.312,-49.379],[70.394,-49.404],[70.466,-49.439],[70.376,-49.43],[70.288,-49.439],[70.243,-49.36],[70.14,-49.339],[70.101,-49.348],[70.063,-49.358],[70.016,-49.36],[69.97,-49.353],[69.895,-49.341],[69.822,-49.35],[69.875,-49.367],[69.925,-49.391],[69.913,-49.396],[69.9,-49.4],[69.923,-49.417],[69.946,-49.432],[69.921,-49.439],[69.898,-49.443],[69.869,-49.422],[69.841,-49.397],[69.815,-49.392],[69.795,-49.404],[69.797,-49.421],[69.815,-49.453],[69.756,-49.423],[69.692,-49.404],[69.715,-49.428],[69.744,-49.442],[69.766,-49.457],[69.774,-49.472],[69.789,-49.479],[69.802,-49.488],[69.805,-49.511],[69.814,-49.532],[69.893,-49.56],[69.978,-49.571],[70.057,-49.595],[70.137,-49.618],[70.065,-49.573],[70.049,-49.52],[70.093,-49.51],[70.138,-49.506],[70.18,-49.513],[70.22,-49.526],[70.296,-49.53],[70.324,-49.574],[70.257,-49.615],[70.165,-49.618],[70.228,-49.63],[70.276,-49.654],[70.244,-49.685],[70.192,-49.685],[70.154,-49.693],[70.123,-49.714],[70.068,-49.715],[70.013,-49.699],[69.929,-49.702],[69.856,-49.679],[69.821,-49.641],[69.788,-49.604],[69.783,-49.562],[69.779,-49.52],[69.739,-49.499],[69.692,-49.501],[69.707,-49.515],[69.706,-49.535],[69.673,-49.513],[69.637,-49.505],[69.672,-49.545],[69.715,-49.582],[69.712,-49.637],[69.664,-49.665],[69.627,-49.657],[69.592,-49.644],[69.531,-49.641],[69.47,-49.631],[69.419,-49.602],[69.373,-49.566],[69.326,-49.563],[69.281,-49.563],[69.258,-49.522],[69.227,-49.488],[69.204,-49.496],[69.212,-49.517],[69.205,-49.519],[69.198,-49.522],[69.218,-49.546],[69.232,-49.573],[69.184,-49.555],[69.144,-49.514],[69.156,-49.542],[69.167,-49.57],[69.178,-49.584],[69.154,-49.599],[69.151,-49.624],[69.115,-49.603],[69.106,-49.56],[69.085,-49.54],[69.072,-49.582],[69.104,-49.644],[69.067,-49.691],[69.026,-49.71],[68.982,-49.722],[68.971,-49.717],[68.963,-49.713],[68.947,-49.714],[68.928,-49.715],[68.88,-49.716],[68.832,-49.717],[68.791,-49.71],[68.764,-49.675],[68.766,-49.651],[68.777,-49.631],[68.778,-49.592],[68.799,-49.565],[68.824,-49.535],[68.843,-49.508],[68.822,-49.484],[68.865,-49.462],[68.902,-49.431],[68.875,-49.397],[68.869,-49.368],[68.847,-49.363],[68.806,-49.366],[68.857,-49.328],[68.924,-49.322],[68.921,-49.305],[68.924,-49.288],[68.892,-49.296],[68.836,-49.303],[68.815,-49.281],[68.832,-49.277],[68.85,-49.275],[68.793,-49.248],[68.774,-49.206],[68.764,-49.189],[68.77,-49.176],[68.786,-49.19],[68.809,-49.206],[68.858,-49.174],[68.931,-49.145],[68.854,-49.149],[68.801,-49.131],[68.824,-49.118],[68.85,-49.111],[68.811,-49.11],[68.772,-49.111],[68.776,-49.097],[68.781,-49.083],[68.749,-49.077],[68.756,-49.048],[68.795,-49.041],[68.827,-49.054],[68.813,-49.017],[68.813,-48.965],[68.861,-48.966],[68.903,-48.975],[68.879,-48.945],[68.85,-48.916],[68.823,-48.889],[68.798,-48.865],[68.792,-48.846],[68.815,-48.838],[68.856,-48.822],[68.897,-48.823],[68.898,-48.801],[68.903,-48.781],[68.931,-48.766],[68.935,-48.736],[68.921,-48.723],[68.938,-48.699],[68.957,-48.671],[69.016,-48.655],[69.075,-48.658],[69.061,-48.671],[69.082,-48.692],[69.075,-48.713],[69.116,-48.727],[68.983,-48.799],[68.908,-48.894],[68.923,-48.884],[68.937,-48.873],[68.96,-48.869],[68.986,-48.877],[68.974,-48.843],[69.007,-48.833],[69.02,-48.857],[69.074,-48.79],[69.151,-48.755],[69.174,-48.757],[69.189,-48.773],[69.154,-48.793],[69.109,-48.809],[69.137,-48.831],[69.164,-48.809],[69.164,-48.846],[69.131,-48.881],[69.081,-48.906],[69.054,-48.946],[69.082,-48.931],[69.112,-48.919],[69.084,-48.973],[69.022,-49.01],[69.007,-49.048],[69,-49.09],[69.034,-49.1],[69.068,-49.111],[69.057,-49.039],[69.106,-48.993],[69.144,-49.008],[69.169,-49.044],[69.174,-49.08],[69.178,-49.111],[69.215,-49.121],[69.247,-49.11],[69.352,-49.081],[69.438,-49.015],[69.451,-49.03],[69.457,-49.049],[69.449,-49.069],[69.438,-49.079],[69.452,-49.089],[69.472,-49.081],[69.521,-48.995],[69.59,-48.953],[69.589,-48.98],[69.598,-49.006],[69.616,-49.015],[69.582,-49.028],[69.568,-49.049],[69.618,-49.048],[69.658,-49.062],[69.626,-49.076],[69.582,-49.09],[69.644,-49.1],[69.644,-49.124],[69.587,-49.133],[69.531,-49.138],[69.508,-49.131],[69.485,-49.124],[69.4,-49.114],[69.34,-49.15],[69.312,-49.167],[69.282,-49.184],[69.297,-49.195],[69.324,-49.184],[69.352,-49.171],[69.42,-49.137],[69.472,-49.152],[69.427,-49.169],[69.381,-49.183],[69.445,-49.196],[69.438,-49.215],[69.472,-49.22],[69.496,-49.24],[69.534,-49.24],[69.534,-49.244],[69.534,-49.247],[69.472,-49.254],[69.411,-49.275],[69.496,-49.27],[69.581,-49.265],[69.657,-49.254],[69.726,-49.247],[69.664,-49.284],[69.582,-49.302],[69.649,-49.309],[69.712,-49.307],[69.751,-49.281],[69.788,-49.254],[69.792,-49.272],[69.802,-49.288],[69.829,-49.259],[69.861,-49.24],[69.857,-49.223],[69.854,-49.209],[69.875,-49.205],[69.898,-49.206],[69.897,-49.187],[69.918,-49.18],[69.941,-49.175],[69.956,-49.159],[69.993,-49.147],[70.032,-49.135],[70.09,-49.121],[70.151,-49.138],[70.147,-49.149],[70.143,-49.159],[70.194,-49.157],[70.235,-49.132],[70.273,-49.076],[70.336,-49.054],[70.408,-49.056],[70.477,-49.073],[70.522,-49.096],[70.529,-49.145],[70.549,-49.183]]],[[[68.671,-48.624],[68.681,-48.636],[68.668,-48.645],[68.644,-48.649],[68.623,-48.644],[68.61,-48.638],[68.626,-48.63],[68.652,-48.624],[68.671,-48.624]]],[[[68.809,-48.604],[68.79,-48.616],[68.78,-48.605],[68.781,-48.585],[68.795,-48.569],[68.819,-48.567],[68.831,-48.577],[68.829,-48.593],[68.809,-48.604]]]]}},{"type":"Feature","id":"TF-X02~","properties":{"id":"TF-X02~","countryCode":"TF","isoSubdivision":"TF-X02~","name":"Crozet Islands","name_en":"Crozet Islands","name_ko":"아치펠 데 크로제","type":"Principal subdivision","labelLongitude":51.754,"labelLatitude":-46.397,"minZoom":11},"geometry":{"type":"MultiPolygon","coordinates":[[[[51.834,-46.377],[51.845,-46.383],[51.853,-46.391],[51.868,-46.41],[51.823,-46.451],[51.789,-46.446],[51.772,-46.445],[51.758,-46.451],[51.729,-46.447],[51.706,-46.438],[51.687,-46.422],[51.67,-46.404],[51.657,-46.378],[51.667,-46.364],[51.736,-46.327],[51.76,-46.329],[51.778,-46.343],[51.786,-46.366],[51.793,-46.372],[51.809,-46.375],[51.834,-46.377]]],[[[50.176,-46.065],[50.19,-46.057],[50.268,-46.044],[50.281,-46.058],[50.293,-46.076],[50.298,-46.096],[50.292,-46.116],[50.278,-46.127],[50.261,-46.127],[50.223,-46.116],[50.201,-46.113],[50.186,-46.103],[50.178,-46.087],[50.176,-46.065]]]]}},{"type":"Feature","id":"TF-X03~","properties":{"id":"TF-X03~","countryCode":"TF","isoSubdivision":"TF-X03~","name":"Scattered Islands in the Indian Ocean","name_en":"Scattered Islands in the Indian Ocean","name_ko":"일스 에파르세스 데 로찬 인디앙","type":"Principal subdivision","labelLongitude":42.745,"labelLatitude":-17.064,"minZoom":11},"geometry":{"type":"MultiPolygon","coordinates":[[[[42.752,-17.076],[42.724,-17.064],[42.738,-17.057],[42.759,-17.061],[42.752,-17.076]]],[[[40.38,-22.324],[40.379,-22.315],[40.386,-22.318],[40.386,-22.339],[40.369,-22.363],[40.349,-22.365],[40.339,-22.36],[40.332,-22.348],[40.33,-22.331],[40.336,-22.32],[40.348,-22.317],[40.359,-22.316],[40.364,-22.319],[40.367,-22.33],[40.363,-22.335],[40.359,-22.339],[40.355,-22.345],[40.361,-22.351],[40.374,-22.35],[40.382,-22.339],[40.38,-22.324]]],[[[39.694,-21.499],[39.694,-21.495],[39.697,-21.498],[39.694,-21.499]]],[[[39.734,-21.448],[39.735,-21.446],[39.736,-21.448],[39.734,-21.448]]],[[[39.728,-21.445],[39.729,-21.442],[39.731,-21.444],[39.728,-21.445]]],[[[54.514,-15.89],[54.521,-15.885],[54.521,-15.894],[54.514,-15.89]]],[[[47.288,-11.566],[47.3,-11.551],[47.306,-11.57],[47.288,-11.566]]]]}},{"type":"Feature","id":"TF-X1~","properties":{"id":"TF-X1~","countryCode":"TF","isoSubdivision":"TF-X1~","name":"Amsterdam and Saint-Paul Islands","name_en":"Amsterdam and Saint-Paul Islands","name_ko":"일스 세인트-폴 에 누벨-암스테르담","type":"Principal subdivision","labelLongitude":77.535,"labelLatitude":-37.861,"minZoom":11},"geometry":{"type":"MultiPolygon","coordinates":[[[[77.504,-37.823],[77.544,-37.82],[77.575,-37.844],[77.585,-37.874],[77.565,-37.893],[77.537,-37.901],[77.505,-37.882],[77.488,-37.852],[77.504,-37.823]]],[[[77.533,-38.709],[77.545,-38.723],[77.549,-38.731],[77.545,-38.737],[77.536,-38.738],[77.516,-38.735],[77.512,-38.73],[77.507,-38.713],[77.511,-38.706],[77.519,-38.702],[77.528,-38.706],[77.533,-38.709]]]]}}]}
