{"type":"FeatureCollection","features":[{"type":"Feature","id":"TG-C","properties":{"id":"TG-C","countryCode":"TG","isoSubdivision":"TG-C","name":"Centre","name_en":"Centre","name_ko":"중부","type":"Region","labelLongitude":1.005,"labelLatitude":8.588,"minZoom":7.7},"geometry":{"type":"Polygon","coordinates":[[[0.462,8.788],[0.473,8.794],[0.477,8.807],[0.478,8.822],[0.484,8.835],[0.511,8.843],[0.532,8.851],[0.552,8.869],[0.558,8.871],[0.573,8.871],[0.58,8.873],[0.585,8.877],[0.589,8.884],[0.589,8.89],[0.587,8.894],[0.583,8.898],[0.58,8.901],[0.58,8.906],[0.581,8.911],[0.587,8.917],[0.627,8.943],[0.63,8.947],[0.632,8.952],[0.633,8.957],[0.635,8.963],[0.638,8.974],[0.642,8.977],[0.647,8.981],[0.665,8.984],[0.672,8.987],[0.682,8.997],[0.684,9],[0.684,9.001],[0.687,9.004],[0.69,9.007],[0.711,9.021],[0.716,9.027],[0.72,9.032],[0.722,9.037],[0.724,9.042],[0.727,9.046],[0.731,9.049],[0.736,9.05],[0.743,9.048],[0.751,9.047],[0.759,9.047],[0.772,9.048],[0.778,9.045],[0.782,9.041],[0.783,9.035],[0.785,9.03],[0.787,9.026],[0.819,9.015],[0.826,9.014],[0.838,9.013],[0.845,9.012],[0.861,9.006],[0.867,9.005],[0.874,9.004],[0.88,9.005],[0.917,9.012],[0.935,9.014],[0.943,9.017],[0.952,9.022],[0.966,9.033],[0.98,9.047],[0.997,9.062],[1,9.068],[1.001,9.074],[0.99,9.097],[0.988,9.108],[0.988,9.144],[0.986,9.163],[0.986,9.174],[0.989,9.186],[0.993,9.197],[0.996,9.201],[0.998,9.204],[1.001,9.206],[1.035,9.214],[1.11,9.224],[1.125,9.224],[1.175,9.213],[1.187,9.213],[1.206,9.213],[1.344,9.252],[1.362,9.251],[1.381,9.261],[1.42,9.292],[1.425,9.284],[1.505,9.201],[1.567,9.137],[1.588,9.101],[1.596,9.077],[1.601,9.05],[1.603,8.924],[1.604,8.815],[1.606,8.722],[1.607,8.589],[1.608,8.559],[1.609,8.547],[1.614,8.536],[1.64,8.503],[1.644,8.493],[1.64,8.476],[1.608,8.422],[1.606,8.413],[1.606,8.396],[1.601,8.372],[1.604,8.367],[1.236,8.372],[1.237,8.366],[1.236,8.362],[1.232,8.353],[1.231,8.348],[1.23,8.305],[1.231,8.299],[1.232,8.293],[1.239,8.279],[1.24,8.274],[1.241,8.262],[1.242,8.256],[1.245,8.245],[1.246,8.24],[1.244,8.223],[1.245,8.218],[1.247,8.213],[1.249,8.209],[1.252,8.205],[1.26,8.199],[1.262,8.194],[1.264,8.189],[1.265,8.183],[1.265,8.164],[1.264,8.158],[1.259,8.142],[1.257,8.13],[1.256,8.111],[1.251,8.088],[1.252,8.064],[1.251,8.058],[1.25,8.053],[1.236,8.025],[1.234,8.02],[1.235,8.015],[1.237,8.012],[1.243,8.005],[1.242,8.002],[1.241,8.001],[1.24,8],[1.21,7.979],[1.18,7.97],[1.096,7.953],[1.077,7.952],[1.061,7.953],[1.046,7.957],[1.036,7.961],[1.028,7.964],[0.986,7.973],[0.975,7.977],[0.96,7.977],[0.864,7.965],[0.85,7.965],[0.845,7.967],[0.84,7.968],[0.835,7.966],[0.825,7.952],[0.821,7.949],[0.817,7.946],[0.807,7.943],[0.727,7.933],[0.718,7.929],[0.702,7.919],[0.694,7.913],[0.689,7.908],[0.673,7.901],[0.623,7.897],[0.603,7.893],[0.593,7.959],[0.594,7.997],[0.593,8.016],[0.584,8.053],[0.58,8.1],[0.575,8.125],[0.58,8.132],[0.588,8.138],[0.593,8.151],[0.592,8.164],[0.585,8.173],[0.577,8.18],[0.573,8.191],[0.574,8.204],[0.579,8.208],[0.587,8.209],[0.595,8.213],[0.628,8.242],[0.645,8.253],[0.689,8.273],[0.705,8.283],[0.713,8.298],[0.709,8.323],[0.705,8.326],[0.693,8.328],[0.689,8.331],[0.689,8.336],[0.689,8.346],[0.687,8.361],[0.687,8.372],[0.685,8.383],[0.647,8.414],[0.634,8.452],[0.616,8.489],[0.551,8.519],[0.525,8.538],[0.501,8.56],[0.484,8.58],[0.444,8.607],[0.404,8.662],[0.374,8.725],[0.368,8.761],[0.366,8.774],[0.373,8.784],[0.385,8.786],[0.397,8.782],[0.408,8.759],[0.418,8.771],[0.425,8.787],[0.42,8.791],[0.43,8.795],[0.439,8.793],[0.45,8.79],[0.462,8.788]]]}},{"type":"Feature","id":"TG-K","properties":{"id":"TG-K","countryCode":"TG","isoSubdivision":"TG-K","name":"Kara","name_en":"Kara","name_ko":"카라","type":"Region","labelLongitude":0.821,"labelLatitude":9.589,"minZoom":7.7},"geometry":{"type":"Polygon","coordinates":[[[0.383,10.03],[0.394,10.032],[0.395,10.036],[0.4,10.031],[0.408,10.021],[0.418,10.005],[0.421,10],[0.422,9.994],[0.422,9.988],[0.42,9.977],[0.421,9.971],[0.422,9.966],[0.425,9.962],[0.429,9.959],[0.446,9.956],[0.451,9.954],[0.458,9.948],[0.464,9.945],[0.472,9.944],[0.484,9.945],[0.5,9.942],[0.509,9.942],[0.515,9.942],[0.52,9.94],[0.522,9.937],[0.522,9.933],[0.517,9.925],[0.516,9.92],[0.517,9.915],[0.519,9.911],[0.522,9.907],[0.525,9.903],[0.534,9.898],[0.539,9.895],[0.542,9.892],[0.55,9.879],[0.554,9.877],[0.56,9.875],[0.568,9.875],[0.58,9.879],[0.595,9.883],[0.608,9.883],[0.639,9.886],[0.645,9.884],[0.654,9.879],[0.66,9.878],[0.67,9.88],[0.679,9.878],[0.68,9.879],[0.682,9.886],[0.68,9.898],[0.668,9.931],[0.667,9.937],[0.668,9.943],[0.67,9.949],[0.673,9.956],[0.675,9.969],[0.678,9.976],[0.684,9.984],[0.687,9.99],[0.688,9.996],[0.688,10],[0.687,10.01],[0.688,10.04],[0.691,10.053],[0.695,10.064],[0.704,10.083],[0.734,10.124],[0.738,10.134],[0.741,10.146],[0.738,10.16],[0.737,10.165],[0.737,10.17],[0.742,10.174],[0.752,10.178],[0.783,10.176],[0.789,10.174],[0.794,10.171],[0.797,10.167],[0.799,10.163],[0.802,10.158],[0.806,10.156],[0.811,10.156],[0.827,10.167],[0.846,10.177],[0.853,10.18],[0.875,10.178],[0.88,10.176],[0.888,10.17],[0.893,10.169],[0.898,10.17],[0.91,10.181],[0.916,10.185],[0.926,10.186],[0.934,10.185],[0.961,10.181],[0.967,10.181],[0.974,10.185],[0.979,10.189],[0.997,10.217],[1.082,10.16],[1.225,10.066],[1.331,9.996],[1.344,9.962],[1.344,9.955],[1.345,9.881],[1.347,9.772],[1.348,9.694],[1.356,9.647],[1.355,9.635],[1.352,9.625],[1.353,9.605],[1.351,9.595],[1.345,9.582],[1.327,9.555],[1.323,9.542],[1.326,9.522],[1.336,9.498],[1.351,9.483],[1.368,9.491],[1.38,9.462],[1.387,9.361],[1.401,9.321],[1.42,9.292],[1.381,9.261],[1.362,9.251],[1.344,9.252],[1.206,9.213],[1.187,9.213],[1.175,9.213],[1.125,9.224],[1.11,9.224],[1.035,9.214],[1.001,9.206],[0.998,9.204],[0.996,9.201],[0.993,9.197],[0.989,9.186],[0.986,9.174],[0.986,9.163],[0.988,9.144],[0.988,9.108],[0.99,9.097],[1.001,9.074],[1,9.068],[0.997,9.062],[0.98,9.047],[0.966,9.033],[0.952,9.022],[0.943,9.017],[0.935,9.014],[0.917,9.012],[0.88,9.005],[0.874,9.004],[0.867,9.005],[0.861,9.006],[0.845,9.012],[0.838,9.013],[0.826,9.014],[0.819,9.015],[0.787,9.026],[0.785,9.03],[0.783,9.035],[0.782,9.041],[0.778,9.045],[0.772,9.048],[0.759,9.047],[0.751,9.047],[0.743,9.048],[0.736,9.05],[0.731,9.049],[0.727,9.046],[0.724,9.042],[0.722,9.037],[0.72,9.032],[0.716,9.027],[0.711,9.021],[0.69,9.007],[0.687,9.004],[0.684,9.001],[0.684,9],[0.682,8.997],[0.672,8.987],[0.665,8.984],[0.647,8.981],[0.642,8.977],[0.638,8.974],[0.635,8.963],[0.633,8.957],[0.632,8.952],[0.63,8.947],[0.627,8.943],[0.587,8.917],[0.581,8.911],[0.58,8.906],[0.58,8.901],[0.583,8.898],[0.587,8.894],[0.589,8.89],[0.589,8.884],[0.585,8.877],[0.58,8.873],[0.573,8.871],[0.558,8.871],[0.552,8.869],[0.532,8.851],[0.511,8.843],[0.484,8.835],[0.506,8.866],[0.493,8.915],[0.445,8.996],[0.445,8.997],[0.431,9.028],[0.442,9.058],[0.458,9.089],[0.464,9.121],[0.464,9.137],[0.47,9.147],[0.493,9.167],[0.505,9.187],[0.504,9.203],[0.492,9.239],[0.493,9.259],[0.501,9.268],[0.512,9.275],[0.522,9.285],[0.527,9.298],[0.528,9.327],[0.538,9.378],[0.531,9.401],[0.513,9.417],[0.484,9.427],[0.483,9.428],[0.483,9.429],[0.483,9.43],[0.489,9.441],[0.492,9.451],[0.49,9.461],[0.484,9.47],[0.43,9.489],[0.412,9.492],[0.371,9.49],[0.349,9.486],[0.334,9.479],[0.329,9.472],[0.326,9.451],[0.322,9.443],[0.314,9.436],[0.268,9.421],[0.25,9.417],[0.231,9.419],[0.227,9.432],[0.235,9.444],[0.228,9.46],[0.228,9.474],[0.27,9.482],[0.285,9.488],[0.298,9.497],[0.302,9.507],[0.293,9.518],[0.279,9.519],[0.254,9.514],[0.243,9.519],[0.233,9.526],[0.226,9.532],[0.223,9.535],[0.223,9.541],[0.228,9.569],[0.23,9.576],[0.281,9.57],[0.305,9.572],[0.322,9.583],[0.336,9.574],[0.355,9.571],[0.371,9.576],[0.378,9.589],[0.369,9.61],[0.349,9.614],[0.309,9.604],[0.278,9.607],[0.262,9.628],[0.261,9.657],[0.275,9.686],[0.302,9.658],[0.319,9.649],[0.337,9.651],[0.347,9.663],[0.35,9.681],[0.348,9.699],[0.343,9.714],[0.336,9.723],[0.329,9.731],[0.324,9.742],[0.322,9.761],[0.344,9.838],[0.344,9.85],[0.34,9.89],[0.342,9.904],[0.35,9.919],[0.363,9.933],[0.37,9.939],[0.37,9.947],[0.363,9.967],[0.351,9.99],[0.35,9.997],[0.352,10.006],[0.355,10.013],[0.356,10.019],[0.35,10.029],[0.367,10.032],[0.383,10.03]]]}},{"type":"Feature","id":"TG-M","properties":{"id":"TG-M","countryCode":"TG","isoSubdivision":"TG-M","name":"Maritime","name_en":"Maritime","name_ko":"마리팀","type":"Region","labelLongitude":1.247,"labelLatitude":6.425,"minZoom":7.7},"geometry":{"type":"Polygon","coordinates":[[[1.185,6.1],[1.188,6.136],[1.176,6.152],[1.093,6.161],[1.08,6.168],[1.069,6.18],[1.056,6.201],[1.048,6.209],[1.041,6.213],[1.033,6.217],[1.025,6.222],[1.01,6.244],[0.984,6.325],[0.907,6.325],[0.887,6.33],[0.874,6.34],[0.841,6.379],[0.816,6.395],[0.767,6.419],[0.746,6.441],[0.73,6.465],[0.718,6.489],[0.712,6.513],[0.713,6.534],[0.725,6.536],[0.765,6.541],[0.781,6.548],[0.816,6.569],[0.82,6.573],[0.826,6.581],[0.837,6.597],[0.846,6.609],[0.876,6.636],[0.883,6.644],[0.887,6.651],[0.892,6.661],[0.898,6.683],[0.902,6.722],[0.9,6.77],[0.902,6.781],[0.906,6.793],[0.91,6.8],[0.914,6.805],[0.924,6.81],[0.934,6.814],[0.953,6.818],[1.116,6.809],[1.121,6.808],[1.123,6.805],[1.12,6.798],[1.122,6.794],[1.126,6.792],[1.144,6.79],[1.148,6.788],[1.151,6.784],[1.154,6.78],[1.157,6.776],[1.161,6.773],[1.166,6.771],[1.171,6.77],[1.177,6.767],[1.18,6.765],[1.181,6.763],[1.193,6.743],[1.196,6.739],[1.2,6.736],[1.232,6.726],[1.241,6.722],[1.297,6.777],[1.366,6.828],[1.386,6.835],[1.409,6.84],[1.42,6.842],[1.43,6.841],[1.452,6.834],[1.465,6.831],[1.477,6.831],[1.483,6.832],[1.5,6.838],[1.518,6.847],[1.524,6.853],[1.53,6.861],[1.551,6.893],[1.56,6.901],[1.564,6.903],[1.579,6.892],[1.588,6.881],[1.59,6.867],[1.583,6.825],[1.583,6.808],[1.588,6.791],[1.595,6.771],[1.601,6.746],[1.597,6.731],[1.589,6.72],[1.574,6.701],[1.566,6.678],[1.572,6.667],[1.585,6.656],[1.596,6.636],[1.597,6.629],[1.595,6.62],[1.594,6.611],[1.597,6.601],[1.603,6.593],[1.611,6.585],[1.62,6.578],[1.627,6.573],[1.637,6.572],[1.647,6.573],[1.654,6.571],[1.655,6.559],[1.658,6.552],[1.674,6.539],[1.681,6.53],[1.682,6.52],[1.68,6.499],[1.682,6.49],[1.688,6.484],[1.71,6.473],[1.718,6.467],[1.744,6.426],[1.764,6.351],[1.782,6.277],[1.762,6.276],[1.633,6.246],[1.612,6.235],[1.62,6.214],[1.619,6.214],[1.43,6.182],[1.271,6.134],[1.2,6.103],[1.192,6.102],[1.185,6.1]]]}},{"type":"Feature","id":"TG-P","properties":{"id":"TG-P","countryCode":"TG","isoSubdivision":"TG-P","name":"Plateaux","name_en":"Plateaux","name_ko":"플라토","type":"Region","labelLongitude":1.06,"labelLatitude":7.383,"minZoom":7.7},"geometry":{"type":"Polygon","coordinates":[[[0.612,7.699],[0.61,7.719],[0.612,7.771],[0.603,7.828],[0.603,7.888],[0.603,7.893],[0.623,7.897],[0.673,7.901],[0.689,7.908],[0.694,7.913],[0.702,7.919],[0.718,7.929],[0.727,7.933],[0.807,7.943],[0.817,7.946],[0.821,7.949],[0.825,7.952],[0.835,7.966],[0.84,7.968],[0.845,7.967],[0.85,7.965],[0.864,7.965],[0.96,7.977],[0.975,7.977],[0.986,7.973],[1.028,7.964],[1.036,7.961],[1.046,7.957],[1.061,7.953],[1.077,7.952],[1.096,7.953],[1.18,7.97],[1.21,7.979],[1.24,8],[1.241,8.001],[1.242,8.002],[1.243,8.005],[1.237,8.012],[1.235,8.015],[1.234,8.02],[1.236,8.025],[1.25,8.053],[1.251,8.058],[1.252,8.064],[1.251,8.088],[1.256,8.111],[1.257,8.13],[1.259,8.142],[1.264,8.158],[1.265,8.164],[1.265,8.183],[1.264,8.189],[1.262,8.194],[1.26,8.199],[1.252,8.205],[1.249,8.209],[1.247,8.213],[1.245,8.218],[1.244,8.223],[1.246,8.24],[1.245,8.245],[1.242,8.256],[1.241,8.262],[1.24,8.274],[1.239,8.279],[1.232,8.293],[1.231,8.299],[1.23,8.305],[1.231,8.348],[1.232,8.353],[1.236,8.362],[1.237,8.366],[1.236,8.372],[1.604,8.367],[1.61,8.365],[1.615,8.356],[1.626,8.27],[1.624,8.156],[1.621,7.997],[1.622,7.838],[1.623,7.64],[1.623,7.622],[1.623,7.536],[1.624,7.438],[1.624,7.289],[1.625,7.144],[1.626,6.997],[1.607,6.991],[1.532,6.992],[1.551,6.921],[1.563,6.904],[1.564,6.903],[1.56,6.901],[1.551,6.893],[1.53,6.861],[1.524,6.853],[1.518,6.847],[1.5,6.838],[1.483,6.832],[1.477,6.831],[1.465,6.831],[1.452,6.834],[1.43,6.841],[1.42,6.842],[1.409,6.84],[1.386,6.835],[1.366,6.828],[1.297,6.777],[1.241,6.722],[1.232,6.726],[1.2,6.736],[1.196,6.739],[1.193,6.743],[1.181,6.763],[1.18,6.765],[1.177,6.767],[1.171,6.77],[1.166,6.771],[1.161,6.773],[1.157,6.776],[1.154,6.78],[1.151,6.784],[1.148,6.788],[1.144,6.79],[1.126,6.792],[1.122,6.794],[1.12,6.798],[1.123,6.805],[1.121,6.808],[1.116,6.809],[0.953,6.818],[0.934,6.814],[0.924,6.81],[0.914,6.805],[0.91,6.8],[0.906,6.793],[0.902,6.781],[0.9,6.77],[0.902,6.722],[0.898,6.683],[0.892,6.661],[0.887,6.651],[0.883,6.644],[0.876,6.636],[0.846,6.609],[0.837,6.597],[0.826,6.581],[0.82,6.573],[0.816,6.569],[0.781,6.548],[0.765,6.541],[0.725,6.536],[0.713,6.534],[0.713,6.54],[0.72,6.553],[0.727,6.562],[0.727,6.571],[0.715,6.584],[0.706,6.586],[0.678,6.585],[0.668,6.586],[0.659,6.602],[0.645,6.612],[0.632,6.624],[0.627,6.645],[0.635,6.695],[0.634,6.712],[0.626,6.728],[0.611,6.742],[0.594,6.751],[0.577,6.755],[0.57,6.764],[0.541,6.817],[0.529,6.827],[0.519,6.832],[0.516,6.842],[0.523,6.863],[0.544,6.898],[0.546,6.915],[0.534,6.936],[0.506,6.958],[0.495,6.973],[0.509,6.978],[0.524,6.979],[0.566,6.99],[0.579,6.997],[0.598,7.031],[0.599,7.075],[0.594,7.12],[0.598,7.159],[0.622,7.219],[0.631,7.265],[0.644,7.302],[0.646,7.324],[0.63,7.389],[0.623,7.398],[0.586,7.384],[0.566,7.381],[0.548,7.383],[0.517,7.411],[0.501,7.455],[0.496,7.504],[0.499,7.562],[0.503,7.575],[0.509,7.585],[0.519,7.595],[0.533,7.601],[0.549,7.605],[0.562,7.612],[0.568,7.626],[0.567,7.653],[0.571,7.684],[0.583,7.704],[0.612,7.699]]]}},{"type":"Feature","id":"TG-S","properties":{"id":"TG-S","countryCode":"TG","isoSubdivision":"TG-S","name":"Savanes","name_en":"Savanes","name_ko":"사반","type":"Region","labelLongitude":0.415,"labelLatitude":10.514,"minZoom":7.7},"geometry":{"type":"Polygon","coordinates":[[[-0.103,11.088],[-0.122,11.092],[-0.142,11.103],[-0.159,11.118],[-0.166,11.135],[-0.115,11.125],[-0.063,11.114],[0.06,11.089],[0.288,11.043],[0.375,11.026],[0.487,11.003],[0.489,11.002],[0.49,11],[0.491,10.996],[0.489,10.992],[0.489,10.988],[0.487,10.984],[0.484,10.98],[0.5,10.976],[0.488,10.933],[0.613,10.977],[0.675,10.989],[0.772,10.99],[0.901,10.993],[0.876,10.931],[0.873,10.911],[0.875,10.901],[0.884,10.88],[0.885,10.869],[0.87,10.84],[0.868,10.829],[0.866,10.806],[0.863,10.796],[0.85,10.778],[0.796,10.726],[0.781,10.693],[0.789,10.603],[0.789,10.564],[0.774,10.508],[0.76,10.405],[0.761,10.382],[0.769,10.367],[0.844,10.317],[0.94,10.255],[0.997,10.217],[0.979,10.189],[0.974,10.185],[0.967,10.181],[0.961,10.181],[0.934,10.185],[0.926,10.186],[0.916,10.185],[0.91,10.181],[0.898,10.17],[0.893,10.169],[0.888,10.17],[0.88,10.176],[0.875,10.178],[0.853,10.18],[0.846,10.177],[0.827,10.167],[0.811,10.156],[0.806,10.156],[0.802,10.158],[0.799,10.163],[0.797,10.167],[0.794,10.171],[0.789,10.174],[0.783,10.176],[0.752,10.178],[0.742,10.174],[0.737,10.17],[0.737,10.165],[0.738,10.16],[0.741,10.146],[0.738,10.134],[0.734,10.124],[0.704,10.083],[0.695,10.064],[0.691,10.053],[0.688,10.04],[0.687,10.01],[0.688,10],[0.688,9.996],[0.687,9.99],[0.684,9.984],[0.678,9.976],[0.675,9.969],[0.673,9.956],[0.67,9.949],[0.668,9.943],[0.667,9.937],[0.668,9.931],[0.68,9.898],[0.682,9.886],[0.68,9.879],[0.679,9.878],[0.67,9.88],[0.66,9.878],[0.654,9.879],[0.645,9.884],[0.639,9.886],[0.608,9.883],[0.595,9.883],[0.58,9.879],[0.568,9.875],[0.56,9.875],[0.554,9.877],[0.55,9.879],[0.542,9.892],[0.539,9.895],[0.534,9.898],[0.525,9.903],[0.522,9.907],[0.519,9.911],[0.517,9.915],[0.516,9.92],[0.517,9.925],[0.522,9.933],[0.522,9.937],[0.52,9.94],[0.515,9.942],[0.509,9.942],[0.5,9.942],[0.484,9.945],[0.472,9.944],[0.464,9.945],[0.458,9.948],[0.451,9.954],[0.446,9.956],[0.429,9.959],[0.425,9.962],[0.422,9.966],[0.421,9.971],[0.42,9.977],[0.422,9.988],[0.422,9.994],[0.421,10],[0.418,10.005],[0.408,10.021],[0.4,10.031],[0.395,10.036],[0.398,10.052],[0.395,10.072],[0.387,10.079],[0.376,10.082],[0.363,10.09],[0.354,10.116],[0.359,10.186],[0.357,10.22],[0.364,10.233],[0.367,10.25],[0.372,10.265],[0.397,10.283],[0.376,10.3],[0.367,10.304],[0.323,10.297],[0.309,10.297],[0.318,10.317],[0.307,10.333],[0.29,10.348],[0.279,10.367],[0.28,10.375],[0.284,10.386],[0.283,10.397],[0.273,10.407],[0.263,10.409],[0.254,10.406],[0.245,10.402],[0.233,10.399],[0.224,10.4],[0.197,10.41],[0.194,10.407],[0.192,10.401],[0.188,10.395],[0.18,10.394],[0.177,10.398],[0.126,10.492],[0.11,10.508],[0.057,10.541],[0.049,10.551],[0.037,10.573],[0.029,10.583],[0.02,10.588],[-0.011,10.598],[-0.02,10.604],[-0.026,10.61],[-0.033,10.615],[-0.056,10.618],[-0.068,10.621],[-0.079,10.626],[-0.088,10.633],[-0.098,10.654],[-0.098,10.675],[-0.092,10.7],[-0.088,10.714],[-0.083,10.756],[-0.075,10.774],[-0.061,10.791],[-0.041,10.805],[-0.032,10.813],[-0.03,10.824],[-0.035,10.843],[-0.036,10.853],[-0.014,10.954],[-0.01,10.963],[-0.002,10.971],[0.007,10.977],[0.014,10.984],[0.017,10.996],[0.019,11.032],[0.016,11.063],[0.001,11.086],[-0.032,11.099],[-0.051,11.098],[-0.085,11.089],[-0.103,11.088]]]}}]}
