{"type":"FeatureCollection","features":[{"type":"Feature","id":"TJ-DU","properties":{"id":"TJ-DU","countryCode":"TJ","isoSubdivision":"TJ-DU","name":"Dushanbe","name_en":"Dushanbe","name_ko":"두샨베","type":"Independent City","labelLongitude":68.77,"labelLatitude":38.552,"minZoom":6.7},"geometry":{"type":"Polygon","coordinates":[[[68.765,38.658],[68.773,38.652],[68.78,38.636],[68.791,38.622],[68.797,38.608],[68.801,38.592],[68.812,38.592],[68.81,38.581],[68.821,38.576],[68.838,38.573],[68.844,38.56],[68.861,38.557],[68.849,38.543],[68.843,38.53],[68.813,38.52],[68.786,38.501],[68.788,38.484],[68.786,38.474],[68.767,38.47],[68.748,38.469],[68.73,38.48],[68.727,38.502],[68.728,38.516],[68.718,38.528],[68.725,38.54],[68.718,38.552],[68.696,38.544],[68.689,38.55],[68.715,38.564],[68.706,38.582],[68.709,38.591],[68.731,38.596],[68.758,38.607],[68.763,38.618],[68.759,38.637],[68.761,38.651],[68.765,38.658]]]}},{"type":"Feature","id":"TJ-GB","properties":{"id":"TJ-GB","countryCode":"TJ","isoSubdivision":"TJ-GB","name":"Gorno-Badakhshan","name_en":"Gorno-Badakhshan","name_ko":"고르노바다흐샨 자치","type":"Region","labelLongitude":72.719,"labelLatitude":38.249,"minZoom":6.7},"geometry":{"type":"Polygon","coordinates":[[[73.512,39.467],[73.604,39.46],[73.633,39.448],[73.632,39.429],[73.643,39.372],[73.644,39.351],[73.641,39.335],[73.61,39.265],[73.602,39.236],[73.608,39.207],[73.631,39.175],[73.674,39.143],[73.683,39.129],[73.692,39.094],[73.698,39.078],[73.709,39.065],[73.769,39.03],[73.802,39.001],[73.816,38.994],[73.826,38.977],[73.829,38.96],[73.824,38.945],[73.81,38.933],[73.788,38.927],[73.74,38.927],[73.717,38.919],[73.703,38.907],[73.689,38.891],[73.681,38.873],[73.684,38.855],[73.696,38.84],[73.725,38.815],[73.736,38.8],[73.739,38.781],[73.733,38.737],[73.736,38.722],[73.772,38.675],[73.779,38.66],[73.789,38.619],[73.797,38.603],[73.816,38.587],[73.834,38.578],[73.87,38.567],[73.887,38.559],[73.917,38.537],[73.933,38.53],[74.029,38.527],[74.046,38.53],[74.059,38.547],[74.051,38.563],[74.038,38.579],[74.037,38.598],[74.045,38.603],[74.084,38.614],[74.091,38.62],[74.093,38.629],[74.093,38.638],[74.095,38.646],[74.109,38.662],[74.123,38.669],[74.14,38.669],[74.202,38.652],[74.221,38.65],[74.244,38.65],[74.313,38.669],[74.334,38.667],[74.477,38.612],[74.646,38.561],[74.664,38.549],[74.68,38.535],[74.696,38.524],[74.719,38.522],[74.742,38.523],[74.76,38.52],[74.776,38.511],[74.792,38.494],[74.801,38.483],[74.808,38.478],[74.826,38.47],[74.833,38.464],[74.836,38.455],[74.837,38.446],[74.844,38.417],[74.844,38.398],[74.838,38.379],[74.827,38.363],[74.784,38.326],[74.775,38.31],[74.771,38.292],[74.771,38.196],[74.791,38.081],[74.81,38.053],[74.88,38.022],[74.893,37.994],[74.889,37.931],[74.891,37.904],[74.891,37.898],[74.894,37.892],[74.905,37.887],[74.914,37.881],[74.912,37.874],[74.895,37.852],[74.887,37.849],[74.883,37.844],[74.886,37.831],[74.891,37.823],[74.898,37.818],[74.949,37.795],[74.961,37.785],[74.965,37.767],[74.962,37.758],[74.954,37.748],[74.939,37.731],[74.932,37.722],[74.929,37.712],[74.927,37.704],[74.924,37.695],[74.911,37.68],[74.897,37.668],[74.886,37.653],[74.882,37.634],[74.892,37.599],[74.915,37.571],[74.945,37.549],[75.036,37.506],[75.053,37.494],[75.104,37.441],[75.132,37.418],[75.164,37.401],[75.115,37.388],[75.092,37.378],[75.08,37.361],[75.077,37.324],[75.068,37.312],[74.975,37.284],[74.952,37.281],[74.933,37.273],[74.924,37.255],[74.913,37.239],[74.892,37.231],[74.863,37.245],[74.817,37.307],[74.789,37.331],[74.66,37.394],[74.631,37.381],[74.53,37.376],[74.521,37.376],[74.513,37.377],[74.477,37.386],[74.455,37.394],[74.436,37.392],[74.418,37.389],[74.389,37.393],[74.378,37.394],[74.368,37.396],[74.354,37.416],[74.344,37.421],[74.332,37.42],[74.321,37.414],[74.316,37.427],[74.304,37.4],[74.279,37.398],[74.25,37.404],[74.224,37.403],[74.208,37.39],[74.206,37.356],[74.188,37.338],[74.163,37.33],[74.052,37.312],[73.977,37.29],[73.956,37.287],[73.899,37.265],[73.856,37.262],[73.836,37.257],[73.798,37.229],[73.784,37.226],[73.769,37.229],[73.746,37.231],[73.736,37.228],[73.72,37.218],[73.709,37.217],[73.702,37.221],[73.688,37.237],[73.68,37.242],[73.66,37.244],[73.618,37.233],[73.602,37.241],[73.597,37.262],[73.61,37.281],[73.631,37.296],[73.652,37.302],[73.69,37.305],[73.705,37.311],[73.722,37.322],[73.739,37.338],[73.746,37.353],[73.746,37.395],[73.747,37.403],[73.753,37.428],[73.718,37.432],[73.675,37.431],[73.605,37.446],[73.485,37.481],[73.441,37.48],[73.378,37.453],[73.362,37.456],[73.345,37.464],[73.321,37.467],[73.296,37.465],[73.276,37.459],[73.26,37.45],[73.211,37.408],[73.201,37.404],[73.179,37.411],[73.17,37.408],[73.132,37.384],[73.116,37.369],[73.099,37.34],[73.088,37.326],[73.068,37.315],[72.996,37.309],[72.924,37.275],[72.902,37.254],[72.877,37.247],[72.831,37.24],[72.791,37.22],[72.761,37.187],[72.714,37.11],[72.673,37.058],[72.667,37.038],[72.658,37.029],[72.509,37.011],[72.475,36.997],[72.406,37.008],[72.361,37],[72.26,36.967],[72.22,36.946],[72.21,36.937],[72.196,36.919],[72.187,36.911],[72.153,36.896],[72.127,36.873],[71.837,36.699],[71.798,36.686],[71.749,36.679],[71.7,36.679],[71.653,36.687],[71.611,36.705],[71.577,36.733],[71.564,36.751],[71.553,36.77],[71.545,36.79],[71.539,36.836],[71.528,36.856],[71.472,36.93],[71.463,36.948],[71.46,36.97],[71.46,37.011],[71.456,37.023],[71.439,37.044],[71.433,37.055],[71.431,37.067],[71.433,37.127],[71.441,37.168],[71.447,37.184],[71.454,37.193],[71.45,37.217],[71.487,37.267],[71.488,37.295],[71.494,37.308],[71.497,37.329],[71.495,37.371],[71.487,37.409],[71.49,37.423],[71.502,37.446],[71.511,37.486],[71.497,37.567],[71.502,37.61],[71.505,37.616],[71.517,37.629],[71.522,37.638],[71.525,37.648],[71.53,37.679],[71.541,37.71],[71.543,37.72],[71.54,37.731],[71.531,37.752],[71.53,37.761],[71.538,37.779],[71.575,37.798],[71.59,37.816],[71.594,37.834],[71.595,37.858],[71.593,37.879],[71.59,37.891],[71.598,37.898],[71.567,37.928],[71.537,37.944],[71.501,37.946],[71.379,37.913],[71.361,37.902],[71.341,37.893],[71.32,37.901],[71.282,37.925],[71.271,37.926],[71.264,37.924],[71.258,37.926],[71.255,37.939],[71.256,37.95],[71.266,37.973],[71.273,37.998],[71.302,38.042],[71.316,38.083],[71.335,38.112],[71.341,38.141],[71.359,38.184],[71.365,38.207],[71.358,38.251],[71.334,38.281],[71.3,38.299],[71.218,38.326],[71.156,38.376],[71.117,38.399],[71.089,38.41],[71.077,38.412],[71.065,38.412],[71.057,38.409],[71.05,38.409],[71.039,38.415],[71.033,38.424],[71.025,38.442],[71.019,38.45],[71.009,38.459],[70.998,38.466],[70.987,38.471],[70.974,38.474],[70.951,38.473],[70.943,38.466],[70.947,38.443],[70.936,38.433],[70.912,38.438],[70.871,38.453],[70.859,38.452],[70.854,38.447],[70.85,38.443],[70.843,38.44],[70.834,38.441],[70.818,38.445],[70.809,38.446],[70.777,38.446],[70.761,38.444],[70.754,38.436],[70.742,38.419],[70.683,38.415],[70.665,38.405],[70.665,38.399],[70.685,38.387],[70.677,38.375],[70.641,38.354],[70.632,38.35],[70.609,38.351],[70.6,38.347],[70.596,38.338],[70.596,38.328],[70.597,38.318],[70.597,38.309],[70.583,38.275],[70.573,38.271],[70.559,38.268],[70.547,38.263],[70.538,38.238],[70.509,38.193],[70.483,38.137],[70.47,38.121],[70.46,38.112],[70.426,38.101],[70.415,38.095],[70.371,38.058],[70.326,38.011],[70.318,38.006],[70.299,37.998],[70.298,37.998],[70.281,38.016],[70.275,38.024],[70.274,38.035],[70.285,38.056],[70.327,38.115],[70.339,38.144],[70.341,38.156],[70.342,38.212],[70.339,38.241],[70.336,38.256],[70.336,38.264],[70.337,38.272],[70.345,38.296],[70.357,38.319],[70.359,38.327],[70.359,38.337],[70.355,38.354],[70.352,38.363],[70.348,38.369],[70.341,38.377],[70.338,38.385],[70.338,38.396],[70.342,38.418],[70.356,38.442],[70.424,38.488],[70.436,38.501],[70.439,38.516],[70.488,38.549],[70.499,38.559],[70.505,38.568],[70.509,38.581],[70.517,38.593],[70.531,38.604],[70.564,38.625],[70.575,38.635],[70.594,38.658],[70.595,38.671],[70.591,38.683],[70.58,38.694],[70.55,38.711],[70.545,38.717],[70.549,38.721],[70.575,38.73],[70.593,38.738],[70.648,38.775],[70.663,38.783],[70.704,38.794],[70.719,38.8],[70.733,38.804],[70.745,38.802],[70.758,38.789],[70.768,38.765],[70.773,38.76],[70.781,38.759],[70.812,38.763],[70.844,38.761],[70.859,38.762],[70.87,38.765],[70.904,38.785],[70.953,38.801],[70.973,38.805],[70.993,38.806],[71.006,38.803],[71.013,38.797],[71.012,38.786],[71.01,38.776],[71.01,38.768],[71.015,38.758],[71.047,38.712],[71.051,38.699],[71.047,38.677],[71.048,38.667],[71.047,38.656],[71.043,38.644],[71.033,38.629],[71.033,38.617],[71.042,38.607],[71.072,38.6],[71.115,38.601],[71.151,38.608],[71.166,38.61],[71.178,38.608],[71.191,38.601],[71.202,38.59],[71.208,38.575],[71.211,38.555],[71.216,38.541],[71.226,38.53],[71.253,38.515],[71.271,38.494],[71.278,38.489],[71.284,38.486],[71.296,38.487],[71.311,38.491],[71.337,38.504],[71.355,38.511],[71.372,38.514],[71.386,38.51],[71.399,38.503],[71.41,38.494],[71.422,38.478],[71.427,38.475],[71.431,38.477],[71.434,38.484],[71.438,38.493],[71.443,38.501],[71.458,38.515],[71.465,38.52],[71.479,38.522],[71.51,38.522],[71.519,38.523],[71.527,38.529],[71.531,38.538],[71.531,38.565],[71.533,38.574],[71.539,38.579],[71.551,38.583],[71.561,38.588],[71.568,38.596],[71.575,38.609],[71.58,38.614],[71.587,38.62],[71.598,38.632],[71.605,38.637],[71.614,38.64],[71.632,38.641],[71.646,38.64],[71.662,38.64],[71.675,38.642],[71.72,38.654],[71.727,38.654],[71.733,38.653],[71.742,38.647],[71.746,38.645],[71.751,38.646],[71.757,38.65],[71.764,38.66],[71.77,38.67],[71.778,38.676],[71.793,38.679],[71.81,38.684],[71.821,38.693],[71.833,38.704],[71.847,38.712],[71.875,38.719],[71.89,38.721],[71.94,38.723],[71.956,38.728],[71.974,38.736],[72.003,38.756],[72.016,38.768],[72.034,38.79],[72.063,38.808],[72.034,38.833],[72.023,38.848],[72.011,38.871],[72.007,38.885],[72.008,38.899],[72.012,38.909],[72.016,38.93],[72.027,38.957],[72.058,38.985],[72.115,39.027],[72.123,39.038],[72.125,39.047],[72.123,39.055],[72.122,39.067],[72.125,39.078],[72.131,39.086],[72.142,39.093],[72.165,39.103],[72.2,39.114],[72.213,39.12],[72.22,39.128],[72.224,39.138],[72.225,39.167],[72.229,39.19],[72.229,39.189],[72.24,39.19],[72.281,39.26],[72.304,39.314],[72.316,39.329],[72.334,39.334],[72.356,39.336],[72.393,39.351],[72.411,39.351],[72.444,39.345],[72.46,39.344],[72.477,39.346],[72.508,39.372],[72.519,39.376],[72.534,39.372],[72.559,39.36],[72.576,39.359],[72.587,39.365],[72.606,39.383],[72.616,39.39],[72.634,39.394],[72.65,39.394],[72.835,39.356],[72.85,39.357],[72.894,39.364],[72.914,39.363],[72.977,39.352],[72.994,39.348],[73.009,39.349],[73.058,39.369],[73.071,39.371],[73.083,39.368],[73.101,39.361],[73.136,39.353],[73.168,39.355],[73.269,39.383],[73.326,39.391],[73.333,39.401],[73.336,39.415],[73.343,39.431],[73.368,39.444],[73.477,39.465],[73.512,39.467]]]}},{"type":"Feature","id":"TJ-KT","properties":{"id":"TJ-KT","countryCode":"TJ","isoSubdivision":"TJ-KT","name":"Khatlon","name_en":"Khatlon","name_ko":"하틀론","type":"Region","labelLongitude":69.106,"labelLatitude":37.806,"minZoom":6.7},"geometry":{"type":"Polygon","coordinates":[[[67.781,37.189],[67.785,37.204],[67.804,37.233],[67.815,37.267],[67.821,37.303],[67.817,37.345],[67.797,37.424],[67.801,37.466],[67.829,37.528],[67.872,37.587],[67.923,37.639],[67.977,37.68],[68.05,37.76],[68.08,37.806],[68.122,37.908],[68.14,37.923],[68.171,37.931],[68.218,37.936],[68.233,37.94],[68.238,37.943],[68.238,37.942],[68.265,37.926],[68.276,37.917],[68.29,37.907],[68.315,37.905],[68.391,37.914],[68.41,37.918],[68.414,37.916],[68.418,37.912],[68.42,37.908],[68.424,37.904],[68.429,37.903],[68.435,37.903],[68.454,37.907],[68.461,37.91],[68.466,37.916],[68.482,37.963],[68.492,37.983],[68.505,37.997],[68.536,38.009],[68.541,38.012],[68.544,38.019],[68.546,38.038],[68.547,38.061],[68.55,38.079],[68.549,38.084],[68.544,38.087],[68.529,38.091],[68.522,38.093],[68.519,38.097],[68.519,38.102],[68.521,38.107],[68.537,38.133],[68.579,38.188],[68.582,38.194],[68.584,38.2],[68.586,38.212],[68.587,38.224],[68.585,38.24],[68.583,38.251],[68.57,38.285],[68.57,38.289],[68.572,38.295],[68.576,38.3],[68.591,38.315],[68.609,38.328],[68.617,38.33],[68.626,38.33],[68.663,38.321],[68.697,38.317],[68.704,38.317],[68.714,38.318],[68.727,38.323],[68.735,38.328],[68.74,38.332],[68.752,38.345],[68.756,38.349],[68.763,38.351],[68.77,38.352],[68.78,38.353],[68.789,38.351],[68.796,38.348],[68.811,38.328],[68.822,38.327],[68.86,38.334],[68.867,38.336],[68.874,38.34],[68.881,38.348],[68.886,38.354],[68.899,38.376],[68.903,38.38],[68.907,38.384],[68.927,38.393],[68.994,38.412],[69.131,38.419],[69.177,38.436],[69.181,38.437],[69.187,38.436],[69.195,38.435],[69.202,38.433],[69.21,38.428],[69.216,38.424],[69.22,38.42],[69.226,38.412],[69.229,38.408],[69.23,38.405],[69.234,38.386],[69.315,38.384],[69.325,38.38],[69.335,38.376],[69.335,38.37],[69.333,38.366],[69.329,38.361],[69.32,38.354],[69.316,38.349],[69.314,38.343],[69.32,38.332],[69.326,38.327],[69.335,38.324],[69.346,38.325],[69.364,38.323],[69.374,38.325],[69.381,38.328],[69.392,38.335],[69.405,38.347],[69.425,38.361],[69.443,38.377],[69.449,38.385],[69.453,38.389],[69.458,38.393],[69.463,38.397],[69.472,38.409],[69.477,38.413],[69.496,38.421],[69.5,38.424],[69.508,38.431],[69.511,38.435],[69.535,38.448],[69.562,38.46],[69.606,38.493],[69.616,38.505],[69.707,38.612],[69.713,38.616],[69.72,38.618],[69.734,38.617],[69.741,38.616],[69.746,38.613],[69.751,38.61],[69.758,38.602],[69.761,38.598],[69.764,38.594],[69.77,38.591],[69.779,38.59],[69.797,38.595],[69.806,38.599],[69.813,38.603],[69.849,38.655],[69.91,38.705],[69.919,38.711],[69.924,38.714],[69.971,38.728],[69.987,38.734],[70,38.735],[70.019,38.731],[70.033,38.724],[70.042,38.717],[70.049,38.709],[70.085,38.682],[70.097,38.668],[70.12,38.65],[70.145,38.638],[70.16,38.632],[70.168,38.616],[70.167,38.604],[70.161,38.581],[70.157,38.557],[70.16,38.548],[70.164,38.546],[70.168,38.549],[70.197,38.576],[70.224,38.597],[70.229,38.6],[70.237,38.602],[70.247,38.603],[70.294,38.602],[70.353,38.607],[70.36,38.604],[70.365,38.601],[70.367,38.598],[70.373,38.593],[70.414,38.569],[70.418,38.565],[70.421,38.561],[70.424,38.557],[70.428,38.548],[70.433,38.531],[70.439,38.516],[70.436,38.501],[70.424,38.488],[70.356,38.442],[70.342,38.418],[70.338,38.396],[70.338,38.385],[70.341,38.377],[70.348,38.369],[70.352,38.363],[70.355,38.354],[70.359,38.337],[70.359,38.327],[70.357,38.319],[70.345,38.296],[70.337,38.272],[70.336,38.264],[70.336,38.256],[70.339,38.241],[70.342,38.212],[70.341,38.156],[70.339,38.144],[70.327,38.115],[70.285,38.056],[70.274,38.035],[70.275,38.024],[70.281,38.016],[70.298,37.998],[70.299,37.998],[70.294,37.996],[70.289,37.991],[70.284,37.982],[70.273,37.978],[70.261,37.976],[70.254,37.973],[70.25,37.964],[70.25,37.956],[70.254,37.947],[70.262,37.939],[70.238,37.932],[70.215,37.929],[70.192,37.933],[70.172,37.946],[70.161,37.921],[70.165,37.89],[70.179,37.861],[70.196,37.84],[70.207,37.836],[70.24,37.828],[70.247,37.819],[70.25,37.805],[70.257,37.792],[70.266,37.781],[70.275,37.774],[70.27,37.763],[70.272,37.749],[70.282,37.72],[70.283,37.705],[70.281,37.696],[70.277,37.688],[70.275,37.675],[70.263,37.661],[70.258,37.658],[70.254,37.655],[70.254,37.647],[70.255,37.637],[70.254,37.631],[70.248,37.623],[70.246,37.621],[70.241,37.617],[70.238,37.618],[70.218,37.617],[70.216,37.617],[70.202,37.588],[70.199,37.579],[70.193,37.576],[70.158,37.541],[70.129,37.532],[70.099,37.537],[70.069,37.545],[70.042,37.549],[70.048,37.541],[70.017,37.546],[70.008,37.549],[70.004,37.551],[69.998,37.556],[69.995,37.562],[69.99,37.567],[69.977,37.569],[69.955,37.575],[69.945,37.59],[69.935,37.606],[69.919,37.617],[69.895,37.618],[69.853,37.601],[69.833,37.597],[69.823,37.593],[69.813,37.586],[69.802,37.582],[69.792,37.586],[69.784,37.59],[69.762,37.596],[69.754,37.597],[69.73,37.594],[69.687,37.58],[69.665,37.576],[69.529,37.586],[69.509,37.579],[69.491,37.537],[69.47,37.52],[69.425,37.494],[69.422,37.489],[69.416,37.478],[69.412,37.473],[69.404,37.467],[69.39,37.459],[69.384,37.453],[69.378,37.437],[69.376,37.419],[69.377,37.381],[69.379,37.377],[69.388,37.375],[69.391,37.371],[69.391,37.365],[69.389,37.364],[69.386,37.363],[69.384,37.36],[69.385,37.351],[69.386,37.342],[69.389,37.333],[69.395,37.326],[69.403,37.311],[69.41,37.277],[69.418,37.268],[69.41,37.246],[69.427,37.239],[69.445,37.236],[69.442,37.224],[69.408,37.177],[69.391,37.165],[69.351,37.144],[69.335,37.129],[69.324,37.121],[69.312,37.117],[69.309,37.117],[69.286,37.113],[69.266,37.105],[69.246,37.104],[69.151,37.155],[69.146,37.157],[69.124,37.169],[69.114,37.177],[69.096,37.213],[69.078,37.225],[69.056,37.237],[69.036,37.252],[69.021,37.288],[69.005,37.306],[68.985,37.32],[68.965,37.329],[68.897,37.336],[68.894,37.337],[68.888,37.338],[68.885,37.335],[68.89,37.323],[68.897,37.316],[68.913,37.307],[68.918,37.302],[68.921,37.288],[68.916,37.279],[68.905,37.277],[68.89,37.282],[68.877,37.296],[68.868,37.312],[68.857,37.325],[68.836,37.329],[68.814,37.323],[68.81,37.312],[68.822,37.282],[68.825,37.261],[68.82,37.251],[68.808,37.252],[68.771,37.271],[68.76,37.275],[68.747,37.276],[68.726,37.275],[68.687,37.279],[68.669,37.278],[68.658,37.268],[68.663,37.264],[68.665,37.259],[68.671,37.247],[68.649,37.244],[68.636,37.23],[68.631,37.214],[68.627,37.206],[68.609,37.204],[68.571,37.195],[68.551,37.193],[68.547,37.188],[68.533,37.169],[68.524,37.165],[68.513,37.164],[68.466,37.155],[68.404,37.152],[68.418,37.128],[68.411,37.113],[68.392,37.105],[68.366,37.103],[68.346,37.107],[68.327,37.113],[68.307,37.114],[68.288,37.103],[68.281,37.087],[68.282,37.066],[68.288,37.024],[68.278,37.01],[68.254,37.01],[68.213,37.021],[68.186,37.018],[68.168,37.006],[68.152,36.993],[68.133,36.987],[68.121,36.98],[68.055,36.935],[68.045,36.929],[68.033,36.925],[68.025,36.926],[68.02,36.926],[68.011,36.931],[68.006,36.939],[68.002,36.947],[67.996,36.956],[67.962,36.99],[67.953,36.996],[67.929,37.006],[67.918,37.014],[67.903,37.034],[67.892,37.052],[67.878,37.064],[67.833,37.073],[67.808,37.083],[67.785,37.097],[67.773,37.11],[67.772,37.125],[67.781,37.189]]]}},{"type":"Feature","id":"TJ-SU","properties":{"id":"TJ-SU","countryCode":"TJ","isoSubdivision":"TJ-SU","name":"Khujand","name_en":"Khujand","name_ko":"후잔트","type":"Region","labelLongitude":69.161,"labelLatitude":39.634,"minZoom":6.7},"geometry":{"type":"MultiPolygon","coordinates":[[[[70.566,41.018],[70.593,41.009],[70.617,40.994],[70.631,40.976],[70.643,40.952],[70.645,40.935],[70.625,40.939],[70.608,40.951],[70.579,40.981],[70.562,40.994],[70.561,40.995],[70.55,41.015],[70.566,41.018]]],[[[70.959,40.238],[70.98,40.214],[70.963,40.19],[70.929,40.171],[70.899,40.163],[70.845,40.172],[70.832,40.168],[70.825,40.164],[70.807,40.156],[70.806,40.158],[70.803,40.16],[70.798,40.162],[70.792,40.161],[70.789,40.159],[70.783,40.153],[70.743,40.127],[70.73,40.121],[70.666,40.104],[70.639,40.085],[70.635,40.059],[70.636,40.029],[70.627,39.994],[70.614,39.976],[70.597,39.962],[70.577,39.952],[70.555,39.946],[70.513,39.945],[70.501,39.941],[70.494,39.932],[70.486,39.91],[70.477,39.901],[70.456,39.907],[70.448,39.92],[70.451,39.937],[70.46,39.956],[70.473,39.97],[70.488,39.979],[70.505,39.985],[70.521,39.994],[70.536,40.016],[70.525,40.034],[70.502,40.046],[70.477,40.052],[70.398,40.061],[70.36,40.074],[70.324,40.078],[70.306,40.085],[70.29,40.098],[70.278,40.112],[70.263,40.124],[70.242,40.133],[70.219,40.134],[70.169,40.132],[70.147,40.137],[70.005,40.209],[69.97,40.212],[69.575,40.104],[69.559,40.102],[69.543,40.103],[69.537,40.108],[69.526,40.123],[69.518,40.125],[69.513,40.121],[69.509,40.103],[69.506,40.097],[69.486,40.074],[69.47,40.051],[69.463,40.025],[69.471,39.994],[69.475,39.988],[69.477,39.982],[69.478,39.975],[69.477,39.968],[69.5,39.936],[69.502,39.922],[69.405,39.896],[69.357,39.959],[69.328,39.985],[69.314,39.987],[69.31,39.985],[69.31,39.979],[69.306,39.969],[69.286,39.936],[69.241,39.829],[69.23,39.791],[69.226,39.751],[69.233,39.733],[69.248,39.719],[69.266,39.708],[69.28,39.694],[69.288,39.678],[69.291,39.659],[69.286,39.54],[69.3,39.516],[69.34,39.528],[69.346,39.535],[69.348,39.543],[69.352,39.55],[69.362,39.553],[69.367,39.55],[69.391,39.531],[69.412,39.525],[69.455,39.53],[69.477,39.53],[69.496,39.533],[69.514,39.538],[69.531,39.546],[69.565,39.568],[69.582,39.574],[69.669,39.578],[69.71,39.574],[69.75,39.564],[69.792,39.545],[69.83,39.536],[69.908,39.548],[69.949,39.545],[69.979,39.534],[69.987,39.54],[70.003,39.557],[70.02,39.569],[70.04,39.574],[70.062,39.573],[70.083,39.57],[70.116,39.555],[70.132,39.55],[70.149,39.554],[70.157,39.564],[70.185,39.61],[70.201,39.619],[70.21,39.61],[70.215,39.591],[70.215,39.574],[70.204,39.538],[70.206,39.524],[70.223,39.519],[70.241,39.522],[70.33,39.573],[70.343,39.577],[70.353,39.576],[70.374,39.571],[70.384,39.571],[70.39,39.574],[70.395,39.579],[70.401,39.585],[70.411,39.587],[70.428,39.59],[70.46,39.6],[70.477,39.601],[70.491,39.597],[70.514,39.582],[70.526,39.576],[70.544,39.574],[70.58,39.58],[70.598,39.578],[70.622,39.564],[70.636,39.542],[70.656,39.495],[70.619,39.473],[70.603,39.466],[70.599,39.462],[70.596,39.458],[70.59,39.446],[70.587,39.442],[70.578,39.437],[70.565,39.434],[70.51,39.428],[70.505,39.426],[70.502,39.422],[70.496,39.41],[70.491,39.406],[70.485,39.402],[70.473,39.401],[70.369,39.378],[70.328,39.376],[70.318,39.378],[70.313,39.381],[70.305,39.388],[70.3,39.39],[70.293,39.391],[70.286,39.39],[70.279,39.387],[70.271,39.38],[70.264,39.368],[70.26,39.363],[70.255,39.36],[70.149,39.32],[70.129,39.309],[70.125,39.307],[70.12,39.307],[70.117,39.312],[70.116,39.317],[70.116,39.329],[70.114,39.334],[70.111,39.338],[70.106,39.341],[70.094,39.342],[70.079,39.34],[70.052,39.331],[70.04,39.325],[70.031,39.319],[70.027,39.315],[70.022,39.313],[70.016,39.313],[70.007,39.318],[70.004,39.323],[70,39.331],[69.99,39.332],[69.889,39.321],[69.881,39.319],[69.872,39.313],[69.867,39.308],[69.857,39.294],[69.846,39.281],[69.837,39.275],[69.826,39.269],[69.815,39.265],[69.808,39.264],[69.799,39.263],[69.785,39.266],[69.778,39.27],[69.772,39.274],[69.765,39.282],[69.757,39.295],[69.746,39.295],[69.736,39.293],[69.666,39.262],[69.671,39.252],[69.676,39.246],[69.689,39.236],[69.692,39.23],[69.694,39.223],[69.689,39.182],[69.685,39.17],[69.681,39.163],[69.675,39.156],[69.671,39.152],[69.648,39.136],[69.648,39.129],[69.648,39.125],[69.65,39.12],[69.652,39.115],[69.647,39.11],[69.635,39.104],[69.601,39.097],[69.586,39.091],[69.576,39.086],[69.568,39.078],[69.564,39.074],[69.559,39.072],[69.553,39.072],[69.547,39.076],[69.544,39.081],[69.543,39.086],[69.544,39.092],[69.55,39.11],[69.551,39.122],[69.55,39.133],[69.547,39.143],[69.543,39.152],[69.536,39.16],[69.5,39.186],[69.497,39.187],[69.486,39.188],[69.411,39.18],[69.403,39.18],[69.394,39.179],[69.384,39.176],[69.371,39.166],[69.365,39.159],[69.362,39.151],[69.36,39.145],[69.358,39.108],[69.354,39.103],[69.347,39.099],[69.33,39.098],[69.233,39.101],[69.217,39.097],[69.193,39.089],[69.12,39.058],[69.107,39.05],[69.103,39.046],[69.096,39.041],[69.066,39.03],[69.034,39.035],[69.009,39.04],[69.005,39.042],[68.99,39.045],[68.984,39.047],[68.921,39.06],[68.865,39.064],[68.804,39.06],[68.792,39.062],[68.785,39.066],[68.783,39.07],[68.78,39.074],[68.775,39.077],[68.761,39.076],[68.666,39.047],[68.598,39.05],[68.59,39.048],[68.583,39.044],[68.578,39.032],[68.569,39.005],[68.567,39.001],[68.567,39],[68.535,38.983],[68.521,38.961],[68.51,38.951],[68.475,38.94],[68.455,38.936],[68.426,38.937],[68.39,38.926],[68.384,38.923],[68.374,38.92],[68.368,38.92],[68.36,38.922],[68.34,38.929],[68.333,38.931],[68.32,38.931],[68.304,38.928],[68.248,38.91],[68.23,38.906],[68.18,38.905],[68.154,38.899],[68.153,38.899],[68.135,38.921],[68.101,38.979],[68.086,38.994],[68.085,38.994],[68.077,38.996],[68.069,38.996],[68.061,38.996],[68.053,38.994],[68.036,38.984],[68.02,38.98],[68.003,38.982],[67.988,38.994],[67.98,38.997],[67.963,39.002],[67.949,39.002],[67.935,38.999],[67.922,38.994],[67.921,38.994],[67.845,38.974],[67.818,38.973],[67.691,38.99],[67.673,39.003],[67.672,39.004],[67.667,39.028],[67.679,39.106],[67.677,39.12],[67.668,39.132],[67.661,39.133],[67.645,39.131],[67.638,39.132],[67.632,39.136],[67.624,39.147],[67.62,39.151],[67.58,39.164],[67.499,39.166],[67.378,39.199],[67.35,39.22],[67.343,39.26],[67.344,39.274],[67.346,39.281],[67.351,39.285],[67.359,39.29],[67.361,39.292],[67.371,39.295],[67.38,39.292],[67.387,39.294],[67.394,39.327],[67.407,39.361],[67.408,39.398],[67.415,39.438],[67.427,39.477],[67.436,39.486],[67.452,39.487],[67.477,39.484],[67.482,39.485],[67.487,39.487],[67.491,39.49],[67.495,39.494],[67.488,39.538],[67.507,39.553],[67.587,39.563],[67.68,39.614],[67.718,39.623],[67.765,39.623],[68.106,39.554],[68.256,39.551],[68.338,39.528],[68.387,39.525],[68.436,39.529],[68.498,39.541],[68.517,39.548],[68.517,39.549],[68.51,39.561],[68.507,39.568],[68.52,39.583],[68.563,39.604],[68.587,39.623],[68.6,39.643],[68.606,39.667],[68.616,39.828],[68.626,39.85],[68.638,39.849],[68.64,39.848],[68.651,39.845],[68.685,39.868],[68.702,39.858],[68.728,39.825],[68.742,39.82],[68.748,39.826],[68.751,39.836],[68.751,39.841],[68.75,39.842],[68.758,39.858],[68.761,39.859],[68.771,39.861],[68.775,39.863],[68.787,39.882],[68.788,39.896],[68.765,39.932],[68.756,39.954],[68.752,39.973],[68.759,39.981],[68.78,39.969],[68.8,39.935],[68.815,39.892],[68.838,39.865],[68.881,39.878],[68.877,39.901],[68.789,39.994],[68.784,40.004],[68.783,40.013],[68.785,40.034],[68.782,40.042],[68.764,40.052],[68.762,40.061],[68.775,40.08],[68.79,40.07],[68.813,40.039],[68.826,40.042],[68.862,40.066],[68.882,40.071],[68.955,40.062],[68.977,40.065],[68.985,40.077],[68.987,40.092],[68.984,40.107],[68.977,40.121],[68.931,40.147],[68.697,40.112],[68.687,40.11],[68.652,40.121],[68.607,40.142],[68.581,40.164],[68.602,40.175],[68.643,40.184],[68.698,40.195],[68.721,40.197],[68.778,40.189],[68.802,40.191],[68.837,40.206],[68.857,40.213],[69.019,40.232],[69.042,40.229],[69.074,40.217],[69.108,40.204],[69.198,40.183],[69.248,40.182],[69.285,40.195],[69.285,40.219],[69.212,40.269],[69.208,40.298],[69.235,40.301],[69.273,40.29],[69.305,40.294],[69.313,40.343],[69.306,40.365],[69.295,40.384],[69.269,40.42],[69.26,40.438],[69.238,40.494],[69.198,40.546],[69.198,40.567],[69.234,40.585],[69.295,40.589],[69.309,40.596],[69.313,40.609],[69.307,40.663],[69.307,40.699],[69.314,40.729],[69.33,40.755],[69.355,40.78],[69.369,40.789],[69.385,40.796],[69.418,40.804],[69.436,40.803],[69.449,40.794],[69.462,40.784],[69.477,40.777],[69.509,40.775],[69.532,40.759],[69.571,40.712],[69.583,40.704],[69.608,40.692],[69.619,40.682],[69.637,40.658],[69.648,40.647],[69.66,40.639],[69.691,40.63],[69.718,40.636],[69.742,40.652],[69.784,40.693],[69.803,40.706],[69.825,40.714],[70.01,40.758],[70.104,40.813],[70.208,40.845],[70.28,40.878],[70.336,40.927],[70.364,41.032],[70.401,41.04],[70.446,41.026],[70.458,41.016],[70.477,41],[70.48,40.996],[70.483,40.994],[70.514,40.973],[70.697,40.816],[70.705,40.807],[70.703,40.789],[70.683,40.795],[70.649,40.818],[70.629,40.816],[70.619,40.803],[70.622,40.786],[70.637,40.771],[70.729,40.754],[70.767,40.738],[70.759,40.704],[70.756,40.696],[70.756,40.695],[70.741,40.688],[70.737,40.684],[70.736,40.679],[70.732,40.675],[70.716,40.672],[70.707,40.669],[70.693,40.66],[70.678,40.65],[70.617,40.612],[70.582,40.579],[70.569,40.57],[70.554,40.565],[70.539,40.562],[70.525,40.557],[70.512,40.547],[70.488,40.516],[70.478,40.505],[70.468,40.502],[70.399,40.49],[70.37,40.476],[70.354,40.456],[70.355,40.435],[70.357,40.43],[70.359,40.428],[70.372,40.413],[70.371,40.413],[70.374,40.412],[70.382,40.404],[70.385,40.4],[70.371,40.365],[70.421,40.348],[70.442,40.343],[70.464,40.345],[70.483,40.349],[70.502,40.351],[70.524,40.344],[70.551,40.31],[70.564,40.264],[70.582,40.222],[70.622,40.2],[70.664,40.197],[70.707,40.2],[70.85,40.234],[70.938,40.24],[70.959,40.238]]],[[[70.484,39.882],[70.499,39.882],[70.62,39.851],[70.655,39.85],[70.687,39.861],[70.699,39.858],[70.706,39.84],[70.705,39.822],[70.695,39.815],[70.662,39.81],[70.633,39.798],[70.582,39.767],[70.576,39.77],[70.547,39.808],[70.537,39.817],[70.503,39.836],[70.49,39.85],[70.483,39.867],[70.484,39.882]]]]}},{"type":"Feature","id":"TJ-X01~","properties":{"id":"TJ-X01~","countryCode":"TJ","isoSubdivision":"TJ-X01~","name":"districts of Republican Subordination","name_en":"districts of Republican Subordination","name_ko":"공화국 직할구","type":"Region","labelLongitude":70.133,"labelLatitude":38.977,"minZoom":6.7},"geometry":{"type":"Polygon","coordinates":[[[71.46,39.612],[71.493,39.596],[71.51,39.585],[71.511,39.584],[71.525,39.569],[71.531,39.553],[71.526,39.538],[71.501,39.509],[71.492,39.494],[71.513,39.459],[71.554,39.444],[71.603,39.442],[71.705,39.459],[71.724,39.459],[71.74,39.448],[71.749,39.426],[71.752,39.4],[71.748,39.38],[71.737,39.365],[71.723,39.354],[71.713,39.342],[71.711,39.321],[71.718,39.301],[71.733,39.285],[71.751,39.274],[71.77,39.27],[71.807,39.273],[71.844,39.285],[71.942,39.339],[71.959,39.346],[71.996,39.352],[72.031,39.367],[72.05,39.369],[72.067,39.358],[72.078,39.337],[72.084,39.311],[72.086,39.29],[72.095,39.275],[72.116,39.268],[72.159,39.263],[72.167,39.259],[72.182,39.249],[72.203,39.241],[72.206,39.235],[72.206,39.227],[72.209,39.217],[72.219,39.201],[72.229,39.19],[72.225,39.167],[72.224,39.138],[72.22,39.128],[72.213,39.12],[72.2,39.114],[72.165,39.103],[72.142,39.093],[72.131,39.086],[72.125,39.078],[72.122,39.067],[72.123,39.055],[72.125,39.047],[72.123,39.038],[72.115,39.027],[72.058,38.985],[72.027,38.957],[72.016,38.93],[72.012,38.909],[72.008,38.899],[72.007,38.885],[72.011,38.871],[72.023,38.848],[72.034,38.833],[72.063,38.808],[72.034,38.79],[72.016,38.768],[72.003,38.756],[71.974,38.736],[71.956,38.728],[71.94,38.723],[71.89,38.721],[71.875,38.719],[71.847,38.712],[71.833,38.704],[71.821,38.693],[71.81,38.684],[71.793,38.679],[71.778,38.676],[71.77,38.67],[71.764,38.66],[71.757,38.65],[71.751,38.646],[71.746,38.645],[71.742,38.647],[71.733,38.653],[71.727,38.654],[71.72,38.654],[71.675,38.642],[71.662,38.64],[71.646,38.64],[71.632,38.641],[71.614,38.64],[71.605,38.637],[71.598,38.632],[71.587,38.62],[71.58,38.614],[71.575,38.609],[71.568,38.596],[71.561,38.588],[71.551,38.583],[71.539,38.579],[71.533,38.574],[71.531,38.565],[71.531,38.538],[71.527,38.529],[71.519,38.523],[71.51,38.522],[71.479,38.522],[71.465,38.52],[71.458,38.515],[71.443,38.501],[71.438,38.493],[71.434,38.484],[71.431,38.477],[71.427,38.475],[71.422,38.478],[71.41,38.494],[71.399,38.503],[71.386,38.51],[71.372,38.514],[71.355,38.511],[71.337,38.504],[71.311,38.491],[71.296,38.487],[71.284,38.486],[71.278,38.489],[71.271,38.494],[71.253,38.515],[71.226,38.53],[71.216,38.541],[71.211,38.555],[71.208,38.575],[71.202,38.59],[71.191,38.601],[71.178,38.608],[71.166,38.61],[71.151,38.608],[71.115,38.601],[71.072,38.6],[71.042,38.607],[71.033,38.617],[71.033,38.629],[71.043,38.644],[71.047,38.656],[71.048,38.667],[71.047,38.677],[71.051,38.699],[71.047,38.712],[71.015,38.758],[71.01,38.768],[71.01,38.776],[71.012,38.786],[71.013,38.797],[71.006,38.803],[70.993,38.806],[70.973,38.805],[70.953,38.801],[70.904,38.785],[70.87,38.765],[70.859,38.762],[70.844,38.761],[70.812,38.763],[70.781,38.759],[70.773,38.76],[70.768,38.765],[70.758,38.789],[70.745,38.802],[70.733,38.804],[70.719,38.8],[70.704,38.794],[70.663,38.783],[70.648,38.775],[70.593,38.738],[70.575,38.73],[70.549,38.721],[70.545,38.717],[70.55,38.711],[70.58,38.694],[70.591,38.683],[70.595,38.671],[70.594,38.658],[70.575,38.635],[70.564,38.625],[70.531,38.604],[70.517,38.593],[70.509,38.581],[70.505,38.568],[70.499,38.559],[70.488,38.549],[70.439,38.516],[70.433,38.531],[70.428,38.548],[70.424,38.557],[70.421,38.561],[70.418,38.565],[70.414,38.569],[70.373,38.593],[70.367,38.598],[70.365,38.601],[70.36,38.604],[70.353,38.607],[70.294,38.602],[70.247,38.603],[70.237,38.602],[70.229,38.6],[70.224,38.597],[70.197,38.576],[70.168,38.549],[70.164,38.546],[70.16,38.548],[70.157,38.557],[70.161,38.581],[70.167,38.604],[70.168,38.616],[70.16,38.632],[70.145,38.638],[70.12,38.65],[70.097,38.668],[70.085,38.682],[70.049,38.709],[70.042,38.717],[70.033,38.724],[70.019,38.731],[70,38.735],[69.987,38.734],[69.971,38.728],[69.924,38.714],[69.919,38.711],[69.91,38.705],[69.849,38.655],[69.813,38.603],[69.806,38.599],[69.797,38.595],[69.779,38.59],[69.77,38.591],[69.764,38.594],[69.761,38.598],[69.758,38.602],[69.751,38.61],[69.746,38.613],[69.741,38.616],[69.734,38.617],[69.72,38.618],[69.713,38.616],[69.707,38.612],[69.616,38.505],[69.606,38.493],[69.562,38.46],[69.535,38.448],[69.511,38.435],[69.508,38.431],[69.5,38.424],[69.496,38.421],[69.477,38.413],[69.472,38.409],[69.463,38.397],[69.458,38.393],[69.453,38.389],[69.449,38.385],[69.443,38.377],[69.425,38.361],[69.405,38.347],[69.392,38.335],[69.381,38.328],[69.374,38.325],[69.364,38.323],[69.346,38.325],[69.335,38.324],[69.326,38.327],[69.32,38.332],[69.314,38.343],[69.316,38.349],[69.32,38.354],[69.329,38.361],[69.333,38.366],[69.335,38.37],[69.335,38.376],[69.325,38.38],[69.315,38.384],[69.234,38.386],[69.23,38.405],[69.229,38.408],[69.226,38.412],[69.22,38.42],[69.216,38.424],[69.21,38.428],[69.202,38.433],[69.195,38.435],[69.187,38.436],[69.181,38.437],[69.177,38.436],[69.131,38.419],[68.994,38.412],[68.927,38.393],[68.907,38.384],[68.903,38.38],[68.899,38.376],[68.886,38.354],[68.881,38.348],[68.874,38.34],[68.867,38.336],[68.86,38.334],[68.822,38.327],[68.811,38.328],[68.796,38.348],[68.789,38.351],[68.78,38.353],[68.77,38.352],[68.763,38.351],[68.756,38.349],[68.752,38.345],[68.74,38.332],[68.735,38.328],[68.727,38.323],[68.714,38.318],[68.704,38.317],[68.697,38.317],[68.663,38.321],[68.626,38.33],[68.617,38.33],[68.609,38.328],[68.591,38.315],[68.576,38.3],[68.572,38.295],[68.57,38.289],[68.57,38.285],[68.583,38.251],[68.585,38.24],[68.587,38.224],[68.586,38.212],[68.584,38.2],[68.582,38.194],[68.579,38.188],[68.537,38.133],[68.521,38.107],[68.519,38.102],[68.519,38.097],[68.522,38.093],[68.529,38.091],[68.544,38.087],[68.549,38.084],[68.55,38.079],[68.547,38.061],[68.546,38.038],[68.544,38.019],[68.541,38.012],[68.536,38.009],[68.505,37.997],[68.492,37.983],[68.482,37.963],[68.466,37.916],[68.461,37.91],[68.454,37.907],[68.435,37.903],[68.429,37.903],[68.424,37.904],[68.42,37.908],[68.418,37.912],[68.414,37.916],[68.41,37.918],[68.391,37.914],[68.315,37.905],[68.29,37.907],[68.276,37.917],[68.265,37.926],[68.238,37.942],[68.238,37.943],[68.249,37.949],[68.256,37.962],[68.261,37.977],[68.268,37.994],[68.269,37.994],[68.281,38.013],[68.32,38.06],[68.344,38.115],[68.361,38.174],[68.356,38.213],[68.332,38.243],[68.253,38.299],[68.201,38.322],[68.184,38.335],[68.147,38.389],[68.108,38.418],[68.098,38.432],[68.095,38.447],[68.093,38.479],[68.087,38.494],[68.063,38.523],[68.055,38.536],[68.053,38.558],[68.056,38.616],[68.054,38.636],[68.04,38.673],[68.038,38.692],[68.045,38.707],[68.071,38.721],[68.076,38.727],[68.077,38.738],[68.072,38.747],[68.066,38.756],[68.063,38.766],[68.067,38.788],[68.078,38.793],[68.096,38.793],[68.119,38.797],[68.136,38.805],[68.151,38.815],[68.164,38.829],[68.173,38.845],[68.174,38.867],[68.164,38.887],[68.153,38.899],[68.154,38.899],[68.18,38.905],[68.23,38.906],[68.248,38.91],[68.304,38.928],[68.32,38.931],[68.333,38.931],[68.34,38.929],[68.36,38.922],[68.368,38.92],[68.374,38.92],[68.384,38.923],[68.39,38.926],[68.426,38.937],[68.455,38.936],[68.475,38.94],[68.51,38.951],[68.521,38.961],[68.535,38.983],[68.567,39],[68.567,39.001],[68.569,39.005],[68.578,39.032],[68.583,39.044],[68.59,39.048],[68.598,39.05],[68.666,39.047],[68.761,39.076],[68.775,39.077],[68.78,39.074],[68.783,39.07],[68.785,39.066],[68.792,39.062],[68.804,39.06],[68.865,39.064],[68.921,39.06],[68.984,39.047],[68.99,39.045],[69.005,39.042],[69.009,39.04],[69.034,39.035],[69.066,39.03],[69.096,39.041],[69.103,39.046],[69.107,39.05],[69.12,39.058],[69.193,39.089],[69.217,39.097],[69.233,39.101],[69.33,39.098],[69.347,39.099],[69.354,39.103],[69.358,39.108],[69.36,39.145],[69.362,39.151],[69.365,39.159],[69.371,39.166],[69.384,39.176],[69.394,39.179],[69.403,39.18],[69.411,39.18],[69.486,39.188],[69.497,39.187],[69.5,39.186],[69.536,39.16],[69.543,39.152],[69.547,39.143],[69.55,39.133],[69.551,39.122],[69.55,39.11],[69.544,39.092],[69.543,39.086],[69.544,39.081],[69.547,39.076],[69.553,39.072],[69.559,39.072],[69.564,39.074],[69.568,39.078],[69.576,39.086],[69.586,39.091],[69.601,39.097],[69.635,39.104],[69.647,39.11],[69.652,39.115],[69.65,39.12],[69.648,39.125],[69.648,39.129],[69.648,39.136],[69.671,39.152],[69.675,39.156],[69.681,39.163],[69.685,39.17],[69.689,39.182],[69.694,39.223],[69.692,39.23],[69.689,39.236],[69.676,39.246],[69.671,39.252],[69.666,39.262],[69.736,39.293],[69.746,39.295],[69.757,39.295],[69.765,39.282],[69.772,39.274],[69.778,39.27],[69.785,39.266],[69.799,39.263],[69.808,39.264],[69.815,39.265],[69.826,39.269],[69.837,39.275],[69.846,39.281],[69.857,39.294],[69.867,39.308],[69.872,39.313],[69.881,39.319],[69.889,39.321],[69.99,39.332],[70,39.331],[70.004,39.323],[70.007,39.318],[70.016,39.313],[70.022,39.313],[70.027,39.315],[70.031,39.319],[70.04,39.325],[70.052,39.331],[70.079,39.34],[70.094,39.342],[70.106,39.341],[70.111,39.338],[70.114,39.334],[70.116,39.329],[70.116,39.317],[70.117,39.312],[70.12,39.307],[70.125,39.307],[70.129,39.309],[70.149,39.32],[70.255,39.36],[70.26,39.363],[70.264,39.368],[70.271,39.38],[70.279,39.387],[70.286,39.39],[70.293,39.391],[70.3,39.39],[70.305,39.388],[70.313,39.381],[70.318,39.378],[70.328,39.376],[70.369,39.378],[70.473,39.401],[70.485,39.402],[70.491,39.406],[70.496,39.41],[70.502,39.422],[70.505,39.426],[70.51,39.428],[70.565,39.434],[70.578,39.437],[70.587,39.442],[70.59,39.446],[70.596,39.458],[70.599,39.462],[70.603,39.466],[70.619,39.473],[70.656,39.495],[70.656,39.494],[70.667,39.487],[70.69,39.479],[70.7,39.472],[70.705,39.459],[70.703,39.445],[70.699,39.431],[70.698,39.419],[70.713,39.398],[70.74,39.386],[70.77,39.382],[70.798,39.385],[70.828,39.399],[70.84,39.401],[70.855,39.402],[70.864,39.401],[70.872,39.403],[70.884,39.414],[70.903,39.421],[70.925,39.413],[70.95,39.401],[70.977,39.395],[71.009,39.408],[71.028,39.435],[71.042,39.468],[71.063,39.496],[71.096,39.512],[71.137,39.521],[71.18,39.523],[71.237,39.514],[71.249,39.514],[71.26,39.521],[71.292,39.549],[71.306,39.557],[71.341,39.572],[71.348,39.576],[71.362,39.588],[71.369,39.591],[71.378,39.594],[71.407,39.598],[71.441,39.611],[71.46,39.612]],[[68.801,38.592],[68.797,38.608],[68.791,38.622],[68.78,38.636],[68.773,38.652],[68.765,38.658],[68.761,38.651],[68.759,38.637],[68.763,38.618],[68.758,38.607],[68.731,38.596],[68.709,38.591],[68.706,38.582],[68.715,38.564],[68.689,38.55],[68.696,38.544],[68.718,38.552],[68.725,38.54],[68.718,38.528],[68.728,38.516],[68.727,38.502],[68.73,38.48],[68.748,38.469],[68.767,38.47],[68.786,38.474],[68.788,38.484],[68.786,38.501],[68.813,38.52],[68.843,38.53],[68.849,38.543],[68.861,38.557],[68.844,38.56],[68.838,38.573],[68.821,38.576],[68.81,38.581],[68.812,38.592],[68.801,38.592]]]}}]}
