{"type":"FeatureCollection","features":[{"type":"Feature","id":"TK-X01~","properties":{"id":"TK-X01~","countryCode":"TK","isoSubdivision":"TK-X01~","name":"Tokelau","name_en":"Tokelau","name_ko":"토켈라우","type":"Principal subdivision","labelLongitude":-171.195,"labelLatitude":-9.344,"minZoom":7},"geometry":{"type":"MultiPolygon","coordinates":[[[[-171.191,-9.356],[-171.196,-9.351],[-171.2,-9.344],[-171.203,-9.338],[-171.206,-9.331],[-171.198,-9.336],[-171.191,-9.343],[-171.187,-9.352],[-171.186,-9.361],[-171.188,-9.362],[-171.189,-9.36],[-171.189,-9.358],[-171.191,-9.356]]],[[[-172.486,-8.565],[-172.495,-8.555],[-172.503,-8.543],[-172.492,-8.552],[-172.483,-8.563],[-172.479,-8.574],[-172.484,-8.587],[-172.484,-8.581],[-172.486,-8.565]]]]}}]}
