{"type":"FeatureCollection","features":[{"type":"Feature","id":"TL-AL","properties":{"id":"TL-AL","countryCode":"TL","isoSubdivision":"TL-AL","name":"Aileu","name_en":"Aileu","name_ko":"아일레우 현","type":"District|Regencies","labelLongitude":125.619,"labelLatitude":-8.697,"minZoom":9},"geometry":{"type":"Polygon","coordinates":[[[125.696,-8.565],[125.734,-8.567],[125.762,-8.583],[125.764,-8.583],[125.758,-8.617],[125.772,-8.649],[125.786,-8.67],[125.801,-8.706],[125.805,-8.753],[125.779,-8.751],[125.762,-8.756],[125.744,-8.774],[125.708,-8.793],[125.688,-8.795],[125.691,-8.771],[125.674,-8.768],[125.645,-8.773],[125.633,-8.781],[125.62,-8.789],[125.599,-8.794],[125.592,-8.812],[125.572,-8.837],[125.539,-8.849],[125.492,-8.855],[125.488,-8.856],[125.48,-8.84],[125.475,-8.822],[125.448,-8.809],[125.434,-8.794],[125.45,-8.774],[125.458,-8.752],[125.442,-8.736],[125.444,-8.724],[125.476,-8.713],[125.498,-8.701],[125.509,-8.67],[125.499,-8.65],[125.495,-8.65],[125.501,-8.639],[125.512,-8.62],[125.521,-8.627],[125.56,-8.621],[125.592,-8.61],[125.616,-8.606],[125.65,-8.587],[125.696,-8.565]]]}},{"type":"Feature","id":"TL-AN","properties":{"id":"TL-AN","countryCode":"TL","isoSubdivision":"TL-AN","name":"Ainaro","name_en":"Ainaro","name_ko":"아이나루 현","type":"District|Regencies","labelLongitude":125.551,"labelLatitude":-9.031,"minZoom":9},"geometry":{"type":"Polygon","coordinates":[[[125.67,-9.193],[125.66,-9.194],[125.609,-9.186],[125.593,-9.19],[125.573,-9.206],[125.552,-9.217],[125.488,-9.241],[125.495,-9.213],[125.511,-9.164],[125.495,-9.155],[125.473,-9.15],[125.46,-9.134],[125.457,-9.095],[125.446,-9.07],[125.432,-9.064],[125.425,-9.049],[125.412,-9.034],[125.411,-9.034],[125.412,-9.009],[125.413,-8.982],[125.443,-8.974],[125.443,-8.949],[125.453,-8.936],[125.465,-8.923],[125.472,-8.906],[125.49,-8.89],[125.493,-8.865],[125.488,-8.856],[125.492,-8.855],[125.539,-8.849],[125.572,-8.837],[125.592,-8.812],[125.599,-8.794],[125.62,-8.789],[125.633,-8.781],[125.645,-8.773],[125.674,-8.768],[125.691,-8.771],[125.688,-8.795],[125.688,-8.796],[125.68,-8.835],[125.675,-8.86],[125.675,-8.878],[125.672,-8.907],[125.657,-8.916],[125.624,-8.916],[125.6,-8.928],[125.597,-8.947],[125.589,-8.966],[125.581,-8.98],[125.579,-8.999],[125.582,-9.032],[125.595,-9.055],[125.625,-9.068],[125.65,-9.08],[125.665,-9.094],[125.673,-9.116],[125.667,-9.132],[125.66,-9.15],[125.667,-9.186],[125.67,-9.193]]]}},{"type":"Feature","id":"TL-BA","properties":{"id":"TL-BA","countryCode":"TL","isoSubdivision":"TL-BA","name":"Baucau","name_en":"Baucau","name_ko":"바우카우 현","type":"District|Regencies","labelLongitude":126.476,"labelLatitude":-8.537,"minZoom":9},"geometry":{"type":"Polygon","coordinates":[[[126.142,-8.503],[126.155,-8.501],[126.2,-8.5],[126.24,-8.495],[126.261,-8.485],[126.305,-8.454],[126.337,-8.444],[126.37,-8.426],[126.381,-8.424],[126.401,-8.424],[126.412,-8.419],[126.43,-8.432],[126.451,-8.441],[126.474,-8.445],[126.497,-8.447],[126.512,-8.452],[126.549,-8.487],[126.59,-8.473],[126.667,-8.437],[126.688,-8.431],[126.703,-8.453],[126.711,-8.478],[126.722,-8.49],[126.738,-8.499],[126.735,-8.516],[126.726,-8.53],[126.741,-8.544],[126.777,-8.576],[126.804,-8.604],[126.812,-8.62],[126.799,-8.63],[126.772,-8.65],[126.751,-8.68],[126.739,-8.696],[126.725,-8.678],[126.707,-8.665],[126.684,-8.658],[126.651,-8.649],[126.627,-8.66],[126.616,-8.684],[126.603,-8.69],[126.586,-8.68],[126.56,-8.677],[126.519,-8.683],[126.492,-8.67],[126.475,-8.626],[126.455,-8.607],[126.449,-8.633],[126.445,-8.663],[126.449,-8.694],[126.432,-8.706],[126.406,-8.696],[126.374,-8.685],[126.331,-8.675],[126.282,-8.678],[126.234,-8.696],[126.181,-8.695],[126.14,-8.681],[126.161,-8.662],[126.173,-8.646],[126.179,-8.624],[126.177,-8.591],[126.174,-8.561],[126.171,-8.538],[126.161,-8.518],[126.142,-8.503]]]}},{"type":"Feature","id":"TL-BO","properties":{"id":"TL-BO","countryCode":"TL","isoSubdivision":"TL-BO","name":"Bobonaro","name_en":"Bobonaro","name_ko":"보보나루 현","type":"District|Regencies","labelLongitude":125.219,"labelLatitude":-8.981,"minZoom":9},"geometry":{"type":"Polygon","coordinates":[[[124.948,-9.079],[124.933,-9.074],[124.921,-9.065],[124.913,-9.053],[124.908,-9.037],[124.909,-9.02],[124.922,-8.986],[124.92,-8.962],[124.954,-8.943],[124.975,-8.922],[125.023,-8.849],[125.028,-8.834],[125.037,-8.825],[125.082,-8.808],[125.096,-8.796],[125.1,-8.778],[125.103,-8.74],[125.123,-8.748],[125.142,-8.756],[125.172,-8.756],[125.179,-8.754],[125.186,-8.772],[125.223,-8.779],[125.239,-8.787],[125.252,-8.807],[125.28,-8.861],[125.308,-8.918],[125.313,-8.938],[125.316,-8.968],[125.326,-8.991],[125.389,-8.989],[125.413,-8.982],[125.412,-9.009],[125.411,-9.034],[125.384,-9.04],[125.361,-9.06],[125.356,-9.086],[125.352,-9.123],[125.342,-9.143],[125.309,-9.141],[125.292,-9.145],[125.319,-9.179],[125.311,-9.21],[125.255,-9.217],[125.218,-9.214],[125.213,-9.201],[125.206,-9.19],[125.192,-9.183],[125.158,-9.172],[125.153,-9.171],[125.151,-9.165],[125.147,-9.154],[125.145,-9.145],[125.162,-9.082],[125.162,-9.061],[125.154,-9.041],[125.139,-9.025],[125.121,-9.012],[125.103,-9.001],[125.095,-8.995],[125.092,-8.989],[125.087,-8.986],[125.076,-8.991],[125.073,-8.996],[125.069,-9.016],[125.065,-9.023],[125.052,-9.035],[125.004,-9.056],[124.979,-9.072],[124.966,-9.077],[124.948,-9.079]]]}},{"type":"Feature","id":"TL-CO","properties":{"id":"TL-CO","countryCode":"TL","isoSubdivision":"TL-CO","name":"Cova Lima","name_en":"Cova Lima","name_ko":"코바리마 현","type":"District|Regencies","labelLongitude":125.233,"labelLatitude":-9.308,"minZoom":9},"geometry":{"type":"Polygon","coordinates":[[[125.143,-9.189],[125.151,-9.185],[125.154,-9.176],[125.153,-9.171],[125.158,-9.172],[125.192,-9.183],[125.206,-9.19],[125.213,-9.201],[125.218,-9.214],[125.255,-9.217],[125.311,-9.21],[125.319,-9.179],[125.292,-9.145],[125.309,-9.141],[125.342,-9.143],[125.352,-9.123],[125.356,-9.086],[125.361,-9.06],[125.384,-9.04],[125.411,-9.034],[125.412,-9.034],[125.425,-9.049],[125.432,-9.064],[125.446,-9.07],[125.457,-9.095],[125.46,-9.134],[125.473,-9.15],[125.495,-9.155],[125.511,-9.164],[125.495,-9.213],[125.488,-9.241],[125.379,-9.281],[125.343,-9.303],[125.291,-9.345],[125.264,-9.357],[125.251,-9.372],[125.233,-9.399],[125.222,-9.411],[125.211,-9.42],[125.197,-9.425],[125.15,-9.428],[125.131,-9.434],[125.114,-9.444],[125.096,-9.461],[125.062,-9.486],[125.051,-9.425],[125.046,-9.41],[125.024,-9.375],[125.023,-9.368],[125.025,-9.352],[125.023,-9.346],[125.018,-9.339],[124.997,-9.326],[124.973,-9.305],[124.966,-9.293],[124.96,-9.276],[124.954,-9.242],[124.958,-9.212],[124.974,-9.192],[125.007,-9.186],[125.028,-9.186],[125.035,-9.188],[125.041,-9.193],[125.053,-9.207],[125.06,-9.21],[125.074,-9.211],[125.083,-9.206],[125.091,-9.197],[125.107,-9.188],[125.118,-9.188],[125.143,-9.189]]]}},{"type":"Feature","id":"TL-DI","properties":{"id":"TL-DI","countryCode":"TL","isoSubdivision":"TL-DI","name":"Dili","name_en":"Dili","name_ko":"딜리 현","type":"District|Regencies","labelLongitude":125.668,"labelLatitude":-8.554,"minZoom":9},"geometry":{"type":"MultiPolygon","coordinates":[[[[125.49,-8.568],[125.542,-8.545],[125.566,-8.542],[125.592,-8.55],[125.604,-8.549],[125.631,-8.522],[125.649,-8.53],[125.679,-8.53],[125.733,-8.522],[125.829,-8.491],[125.846,-8.514],[125.83,-8.534],[125.811,-8.549],[125.789,-8.576],[125.764,-8.583],[125.762,-8.583],[125.734,-8.567],[125.696,-8.565],[125.65,-8.587],[125.616,-8.606],[125.592,-8.61],[125.56,-8.621],[125.521,-8.627],[125.512,-8.62],[125.497,-8.61],[125.491,-8.577],[125.49,-8.568]]],[[[125.569,-8.196],[125.58,-8.179],[125.605,-8.153],[125.632,-8.135],[125.651,-8.143],[125.642,-8.175],[125.604,-8.269],[125.597,-8.299],[125.592,-8.307],[125.583,-8.314],[125.574,-8.317],[125.569,-8.313],[125.563,-8.309],[125.531,-8.299],[125.518,-8.292],[125.507,-8.28],[125.504,-8.271],[125.506,-8.261],[125.514,-8.248],[125.527,-8.236],[125.562,-8.209],[125.569,-8.196]]]]}},{"type":"Feature","id":"TL-ER","properties":{"id":"TL-ER","countryCode":"TL","isoSubdivision":"TL-ER","name":"Ermera","name_en":"Ermera","name_ko":"에르메라 현","type":"District|Regencies","labelLongitude":125.344,"labelLatitude":-8.847,"minZoom":9},"geometry":{"type":"Polygon","coordinates":[[[125.468,-8.649],[125.495,-8.65],[125.499,-8.65],[125.509,-8.67],[125.498,-8.701],[125.476,-8.713],[125.444,-8.724],[125.442,-8.736],[125.458,-8.752],[125.45,-8.774],[125.434,-8.794],[125.448,-8.809],[125.475,-8.822],[125.48,-8.84],[125.488,-8.856],[125.493,-8.865],[125.49,-8.89],[125.472,-8.906],[125.465,-8.923],[125.453,-8.936],[125.443,-8.949],[125.443,-8.974],[125.413,-8.982],[125.389,-8.989],[125.326,-8.991],[125.316,-8.968],[125.313,-8.938],[125.308,-8.918],[125.28,-8.861],[125.252,-8.807],[125.239,-8.787],[125.223,-8.779],[125.186,-8.772],[125.179,-8.754],[125.227,-8.744],[125.273,-8.726],[125.299,-8.712],[125.347,-8.703],[125.388,-8.695],[125.405,-8.682],[125.432,-8.661],[125.468,-8.649]]]}},{"type":"Feature","id":"TL-LA","properties":{"id":"TL-LA","countryCode":"TL","isoSubdivision":"TL-LA","name":"Lautém","name_en":"Lautém","name_ko":"라우텡 현","type":"District|Regencies","labelLongitude":127.001,"labelLatitude":-8.502,"minZoom":9},"geometry":{"type":"Polygon","coordinates":[[[126.688,-8.431],[126.693,-8.43],[126.712,-8.417],[126.72,-8.413],[126.731,-8.413],[126.748,-8.418],[126.756,-8.419],[126.799,-8.41],[126.842,-8.391],[126.945,-8.319],[126.967,-8.309],[126.984,-8.313],[126.999,-8.324],[127.07,-8.358],[127.089,-8.363],[127.114,-8.365],[127.138,-8.363],[127.156,-8.354],[127.186,-8.332],[127.193,-8.33],[127.206,-8.333],[127.211,-8.339],[127.214,-8.348],[127.22,-8.358],[127.242,-8.37],[127.287,-8.382],[127.306,-8.395],[127.313,-8.415],[127.303,-8.432],[127.23,-8.487],[127.184,-8.532],[127.093,-8.603],[127.028,-8.665],[127.021,-8.676],[127.009,-8.677],[126.939,-8.692],[126.875,-8.738],[126.846,-8.753],[126.728,-8.761],[126.728,-8.726],[126.735,-8.701],[126.739,-8.696],[126.751,-8.68],[126.772,-8.65],[126.799,-8.63],[126.812,-8.62],[126.804,-8.604],[126.777,-8.576],[126.741,-8.544],[126.726,-8.53],[126.735,-8.516],[126.738,-8.499],[126.722,-8.49],[126.711,-8.478],[126.703,-8.453],[126.688,-8.431]]]}},{"type":"Feature","id":"TL-LI","properties":{"id":"TL-LI","countryCode":"TL","isoSubdivision":"TL-LI","name":"Liquiçá","name_en":"Liquiçá","name_ko":"리키사 현","type":"District|Regencies","labelLongitude":125.308,"labelLatitude":-8.653,"minZoom":9},"geometry":{"type":"Polygon","coordinates":[[[125.103,-8.74],[125.106,-8.689],[125.115,-8.666],[125.128,-8.646],[125.144,-8.631],[125.164,-8.625],[125.21,-8.618],[125.229,-8.608],[125.237,-8.606],[125.274,-8.611],[125.285,-8.608],[125.315,-8.59],[125.381,-8.571],[125.401,-8.569],[125.467,-8.574],[125.487,-8.569],[125.49,-8.568],[125.491,-8.577],[125.497,-8.61],[125.512,-8.62],[125.501,-8.639],[125.495,-8.65],[125.468,-8.649],[125.432,-8.661],[125.405,-8.682],[125.388,-8.695],[125.347,-8.703],[125.299,-8.712],[125.273,-8.726],[125.227,-8.744],[125.179,-8.754],[125.172,-8.756],[125.142,-8.756],[125.123,-8.748],[125.103,-8.74]]]}},{"type":"Feature","id":"TL-MF","properties":{"id":"TL-MF","countryCode":"TL","isoSubdivision":"TL-MF","name":"Manufahi","name_en":"Manufahi","name_ko":"마누파이 현","type":"District|Regencies","labelLongitude":125.813,"labelLatitude":-9.004,"minZoom":9},"geometry":{"type":"Polygon","coordinates":[[[126.048,-9.057],[125.947,-9.126],[125.928,-9.132],[125.87,-9.123],[125.85,-9.124],[125.839,-9.13],[125.817,-9.148],[125.805,-9.152],[125.764,-9.152],[125.743,-9.157],[125.679,-9.193],[125.67,-9.193],[125.667,-9.186],[125.66,-9.15],[125.667,-9.132],[125.673,-9.116],[125.665,-9.094],[125.65,-9.08],[125.625,-9.068],[125.595,-9.055],[125.582,-9.032],[125.579,-8.999],[125.581,-8.98],[125.589,-8.966],[125.597,-8.947],[125.6,-8.928],[125.624,-8.916],[125.657,-8.916],[125.672,-8.907],[125.675,-8.878],[125.675,-8.86],[125.68,-8.835],[125.688,-8.796],[125.688,-8.795],[125.708,-8.793],[125.744,-8.774],[125.762,-8.756],[125.779,-8.751],[125.805,-8.753],[125.805,-8.756],[125.799,-8.812],[125.81,-8.857],[125.841,-8.882],[125.872,-8.898],[125.906,-8.915],[125.93,-8.943],[125.945,-8.967],[125.989,-8.992],[126.032,-9.023],[126.045,-9.045],[126.048,-9.057]]]}},{"type":"Feature","id":"TL-MT","properties":{"id":"TL-MT","countryCode":"TL","isoSubdivision":"TL-MT","name":"Manatuto","name_en":"Manatuto","name_ko":"마나투투 현","type":"District|Regencies","labelLongitude":125.968,"labelLatitude":-8.737,"minZoom":9},"geometry":{"type":"Polygon","coordinates":[[[126.138,-9],[126.122,-9.007],[126.048,-9.057],[126.045,-9.045],[126.032,-9.023],[125.989,-8.992],[125.945,-8.967],[125.93,-8.943],[125.906,-8.915],[125.872,-8.898],[125.841,-8.882],[125.81,-8.857],[125.799,-8.812],[125.805,-8.756],[125.805,-8.753],[125.801,-8.706],[125.786,-8.67],[125.772,-8.649],[125.758,-8.617],[125.764,-8.583],[125.789,-8.576],[125.811,-8.549],[125.83,-8.534],[125.846,-8.514],[125.829,-8.491],[125.851,-8.484],[125.898,-8.481],[126.002,-8.499],[126.042,-8.519],[126.069,-8.522],[126.091,-8.517],[126.133,-8.504],[126.142,-8.503],[126.161,-8.518],[126.171,-8.538],[126.174,-8.561],[126.177,-8.591],[126.179,-8.624],[126.173,-8.646],[126.161,-8.662],[126.14,-8.681],[126.131,-8.678],[126.111,-8.675],[126.092,-8.688],[126.08,-8.72],[126.069,-8.745],[126.05,-8.758],[126.037,-8.775],[126.034,-8.794],[126.057,-8.83],[126.078,-8.868],[126.079,-8.89],[126.083,-8.911],[126.094,-8.941],[126.111,-8.966],[126.138,-8.999],[126.138,-9]]]}},{"type":"Feature","id":"TL-OE","properties":{"id":"TL-OE","countryCode":"TL","isoSubdivision":"TL-OE","name":"Oe-Cusse Ambeno","name_en":"Oe-Cusse Ambeno","name_ko":"오에쿠시 현","type":"District|Regencies","labelLongitude":124.241,"labelLatitude":-9.323,"minZoom":9},"geometry":{"type":"Polygon","coordinates":[[[124.451,-9.18],[124.452,-9.201],[124.437,-9.256],[124.432,-9.291],[124.428,-9.299],[124.425,-9.304],[124.421,-9.307],[124.402,-9.332],[124.372,-9.357],[124.363,-9.362],[124.358,-9.362],[124.355,-9.364],[124.348,-9.375],[124.345,-9.404],[124.342,-9.412],[124.332,-9.425],[124.329,-9.433],[124.329,-9.44],[124.333,-9.457],[124.332,-9.467],[124.324,-9.48],[124.31,-9.489],[124.293,-9.493],[124.274,-9.495],[124.262,-9.498],[124.258,-9.501],[124.257,-9.499],[124.253,-9.486],[124.253,-9.481],[124.257,-9.463],[124.258,-9.455],[124.254,-9.439],[124.247,-9.422],[124.237,-9.405],[124.226,-9.392],[124.211,-9.379],[124.197,-9.373],[124.184,-9.374],[124.167,-9.381],[124.154,-9.392],[124.134,-9.419],[124.121,-9.427],[124.09,-9.422],[124.063,-9.398],[124.03,-9.342],[124.048,-9.337],[124.129,-9.305],[124.147,-9.303],[124.159,-9.296],[124.181,-9.265],[124.191,-9.255],[124.221,-9.241],[124.288,-9.221],[124.386,-9.202],[124.397,-9.196],[124.405,-9.185],[124.425,-9.182],[124.45,-9.18],[124.451,-9.18]]]}},{"type":"Feature","id":"TL-VI","properties":{"id":"TL-VI","countryCode":"TL","isoSubdivision":"TL-VI","name":"Viqueque","name_en":"Viqueque","name_ko":"비케크 현","type":"District|Regencies","labelLongitude":126.386,"labelLatitude":-8.825,"minZoom":9},"geometry":{"type":"Polygon","coordinates":[[[126.728,-8.761],[126.694,-8.763],[126.672,-8.769],[126.661,-8.774],[126.631,-8.796],[126.624,-8.799],[126.615,-8.801],[126.594,-8.802],[126.583,-8.806],[126.544,-8.85],[126.508,-8.912],[126.472,-8.943],[126.43,-8.955],[126.166,-8.988],[126.138,-9],[126.138,-8.999],[126.111,-8.966],[126.094,-8.941],[126.083,-8.911],[126.079,-8.89],[126.078,-8.868],[126.057,-8.83],[126.034,-8.794],[126.037,-8.775],[126.05,-8.758],[126.069,-8.745],[126.08,-8.72],[126.092,-8.688],[126.111,-8.675],[126.131,-8.678],[126.14,-8.681],[126.181,-8.695],[126.234,-8.696],[126.282,-8.678],[126.331,-8.675],[126.374,-8.685],[126.406,-8.696],[126.432,-8.706],[126.449,-8.694],[126.445,-8.663],[126.449,-8.633],[126.455,-8.607],[126.475,-8.626],[126.492,-8.67],[126.519,-8.683],[126.56,-8.677],[126.586,-8.68],[126.603,-8.69],[126.616,-8.684],[126.627,-8.66],[126.651,-8.649],[126.684,-8.658],[126.707,-8.665],[126.725,-8.678],[126.739,-8.696],[126.735,-8.701],[126.728,-8.726],[126.728,-8.761]]]}}]}
