{"type":"FeatureCollection","features":[{"type":"Feature","id":"TO-01","properties":{"id":"TO-01","countryCode":"TO","isoSubdivision":"TO-01","name":"ʻEua","name_en":"ʻEua","name_ko":"에우아섬","type":"Principal subdivision","labelLongitude":-174.941,"labelLatitude":-21.367,"minZoom":11},"geometry":{"type":"Polygon","coordinates":[[[-174.915,-21.292],[-174.909,-21.329],[-174.909,-21.344],[-174.915,-21.381],[-174.914,-21.444],[-174.92,-21.454],[-174.936,-21.445],[-174.942,-21.43],[-174.955,-21.418],[-174.984,-21.398],[-174.984,-21.391],[-174.98,-21.389],[-174.97,-21.384],[-174.976,-21.373],[-174.977,-21.36],[-174.972,-21.348],[-174.952,-21.34],[-174.946,-21.332],[-174.936,-21.316],[-174.934,-21.31],[-174.926,-21.295],[-174.918,-21.284],[-174.915,-21.292]]]}},{"type":"Feature","id":"TO-02","properties":{"id":"TO-02","countryCode":"TO","isoSubdivision":"TO-02","name":"Haʻapai","name_en":"Haʻapai","name_ko":"하파이 제도","type":"Principal subdivision","labelLongitude":-174.317,"labelLatitude":-19.757,"minZoom":11},"geometry":{"type":"MultiPolygon","coordinates":[[[[-174.361,-19.801],[-174.348,-19.797],[-174.337,-19.788],[-174.33,-19.775],[-174.326,-19.76],[-174.321,-19.761],[-174.31,-19.765],[-174.306,-19.767],[-174.314,-19.785],[-174.315,-19.804],[-174.32,-19.819],[-174.339,-19.822],[-174.347,-19.818],[-174.353,-19.814],[-174.358,-19.808],[-174.361,-19.801]]],[[[-175.069,-19.712],[-175.053,-19.724],[-175.046,-19.751],[-175.048,-19.781],[-175.059,-19.801],[-175.059,-19.794],[-175.066,-19.801],[-175.071,-19.796],[-175.076,-19.792],[-175.087,-19.788],[-175.086,-19.787],[-175.088,-19.785],[-175.087,-19.781],[-175.099,-19.75],[-175.1,-19.74],[-175.097,-19.721],[-175.091,-19.713],[-175.082,-19.711],[-175.069,-19.712]]],[[[-174.306,-19.733],[-174.288,-19.724],[-174.278,-19.711],[-174.27,-19.697],[-174.257,-19.685],[-174.252,-19.699],[-174.255,-19.712],[-174.261,-19.724],[-174.264,-19.736],[-174.272,-19.749],[-174.288,-19.751],[-174.302,-19.744],[-174.306,-19.733]]],[[[-174.261,-19.631],[-174.248,-19.636],[-174.244,-19.646],[-174.249,-19.654],[-174.264,-19.65],[-174.275,-19.636],[-174.288,-19.611],[-174.293,-19.593],[-174.278,-19.596],[-174.273,-19.604],[-174.268,-19.626],[-174.261,-19.631]]]]}},{"type":"Feature","id":"TO-03","properties":{"id":"TO-03","countryCode":"TO","isoSubdivision":"TO-03","name":"Niuas","name_en":"Niuas","name_ko":"니우아스 제도","type":"Principal subdivision","labelLongitude":-173.757,"labelLatitude":-15.956,"minZoom":11},"geometry":{"type":"MultiPolygon","coordinates":[[[[-175.631,-15.56],[-175.613,-15.573],[-175.618,-15.601],[-175.639,-15.624],[-175.669,-15.622],[-175.686,-15.602],[-175.683,-15.582],[-175.664,-15.566],[-175.631,-15.56]]],[[[-173.733,-15.94],[-173.72,-15.932],[-173.715,-15.932],[-173.716,-15.946],[-173.727,-15.963],[-173.741,-15.977],[-173.757,-15.977],[-173.765,-15.966],[-173.765,-15.959],[-173.754,-15.95],[-173.733,-15.94]]]]}},{"type":"Feature","id":"TO-04","properties":{"id":"TO-04","countryCode":"TO","isoSubdivision":"TO-04","name":"Tongatapu","name_en":"Tongatapu","name_ko":"통가타푸섬","type":"Principal subdivision","labelLongitude":-175.155,"labelLatitude":-21.172,"minZoom":11},"geometry":{"type":"MultiPolygon","coordinates":[[[[-175.066,-21.124],[-175.055,-21.132],[-175.051,-21.139],[-175.052,-21.155],[-175.06,-21.164],[-175.117,-21.203],[-175.121,-21.212],[-175.119,-21.222],[-175.116,-21.234],[-175.114,-21.244],[-175.118,-21.256],[-175.127,-21.263],[-175.138,-21.266],[-175.149,-21.268],[-175.17,-21.263],[-175.18,-21.255],[-175.197,-21.226],[-175.21,-21.214],[-175.257,-21.192],[-175.265,-21.2],[-175.29,-21.186],[-175.304,-21.181],[-175.316,-21.179],[-175.326,-21.174],[-175.35,-21.141],[-175.365,-21.114],[-175.355,-21.09],[-175.332,-21.071],[-175.306,-21.063],[-175.318,-21.077],[-175.334,-21.09],[-175.341,-21.103],[-175.326,-21.117],[-175.315,-21.121],[-175.307,-21.122],[-175.25,-21.111],[-175.241,-21.114],[-175.233,-21.119],[-175.225,-21.124],[-175.219,-21.13],[-175.216,-21.141],[-175.231,-21.15],[-175.238,-21.158],[-175.234,-21.169],[-175.224,-21.173],[-175.214,-21.168],[-175.204,-21.162],[-175.193,-21.158],[-175.181,-21.16],[-175.163,-21.169],[-175.155,-21.172],[-175.14,-21.168],[-175.134,-21.158],[-175.128,-21.144],[-175.114,-21.131],[-175.104,-21.126],[-175.091,-21.123],[-175.077,-21.122],[-175.066,-21.124]]],[[[-176.213,-22.324],[-176.204,-22.327],[-176.198,-22.332],[-176.202,-22.336],[-176.207,-22.339],[-176.21,-22.339],[-176.216,-22.335],[-176.219,-22.33],[-176.218,-22.325],[-176.213,-22.324]]]]}},{"type":"Feature","id":"TO-05","properties":{"id":"TO-05","countryCode":"TO","isoSubdivision":"TO-05","name":"Vavaʻu","name_en":"Vavaʻu","name_ko":"바바우 제도","type":"Principal subdivision","labelLongitude":-173.988,"labelLatitude":-18.612,"minZoom":11},"geometry":{"type":"MultiPolygon","coordinates":[[[[-173.956,-18.567],[-173.941,-18.573],[-173.934,-18.579],[-173.928,-18.587],[-173.915,-18.595],[-173.914,-18.606],[-173.915,-18.627],[-173.923,-18.637],[-173.942,-18.616],[-173.953,-18.621],[-173.959,-18.627],[-173.958,-18.634],[-173.949,-18.643],[-173.957,-18.653],[-173.963,-18.664],[-173.977,-18.661],[-173.986,-18.671],[-173.991,-18.688],[-173.991,-18.705],[-174.003,-18.698],[-174.01,-18.687],[-174.017,-18.664],[-174.001,-18.657],[-174,-18.646],[-174.006,-18.634],[-174.011,-18.629],[-174.022,-18.639],[-174.026,-18.654],[-174.03,-18.663],[-174.045,-18.657],[-174.046,-18.662],[-174.049,-18.664],[-174.054,-18.663],[-174.059,-18.664],[-174.072,-18.634],[-174.054,-18.619],[-174.025,-18.605],[-174.011,-18.578],[-174.004,-18.571],[-173.988,-18.567],[-173.97,-18.566],[-173.956,-18.567]]],[[[-174.654,-18.817],[-174.664,-18.801],[-174.661,-18.787],[-174.65,-18.78],[-174.634,-18.785],[-174.627,-18.798],[-174.63,-18.809],[-174.64,-18.817],[-174.654,-18.817]]]]}}]}
