{"type":"FeatureCollection","features":[{"type":"Feature","id":"TT-ARI","properties":{"id":"TT-ARI","countryCode":"TT","isoSubdivision":"TT-ARI","name":"Arima","name_en":"Arima","name_ko":"아리마","type":"City","labelLongitude":-61.28,"labelLatitude":10.628,"minZoom":10},"geometry":{"type":"Polygon","coordinates":[[[-61.285,10.654],[-61.271,10.641],[-61.27,10.634],[-61.265,10.62],[-61.265,10.614],[-61.267,10.61],[-61.27,10.609],[-61.275,10.607],[-61.283,10.608],[-61.293,10.611],[-61.295,10.612],[-61.296,10.614],[-61.295,10.616],[-61.294,10.618],[-61.29,10.621],[-61.289,10.623],[-61.288,10.629],[-61.288,10.631],[-61.288,10.633],[-61.288,10.634],[-61.288,10.636],[-61.287,10.638],[-61.286,10.639],[-61.285,10.64],[-61.286,10.641],[-61.286,10.643],[-61.287,10.645],[-61.285,10.654]]]}},{"type":"Feature","id":"TT-CHA","properties":{"id":"TT-CHA","countryCode":"TT","isoSubdivision":"TT-CHA","name":"Chaguanas","name_en":"Chaguanas","name_ko":"차과나스","type":"City","labelLongitude":-61.413,"labelLatitude":10.536,"minZoom":10},"geometry":{"type":"Polygon","coordinates":[[[-61.462,10.523],[-61.462,10.538],[-61.461,10.538],[-61.441,10.565],[-61.41,10.566],[-61.369,10.566],[-61.364,10.544],[-61.371,10.521],[-61.373,10.511],[-61.38,10.505],[-61.405,10.503],[-61.417,10.507],[-61.425,10.513],[-61.434,10.515],[-61.442,10.52],[-61.448,10.521],[-61.462,10.523]]]}},{"type":"Feature","id":"TT-CTT","properties":{"id":"TT-CTT","countryCode":"TT","isoSubdivision":"TT-CTT","name":"Couva-Tabaquite-Talparo","name_en":"Couva-Tabaquite-Talparo","name_ko":"쿠바타바키테탈파로 지역","type":"Region","labelLongitude":-61.342,"labelLatitude":10.452,"minZoom":10},"geometry":{"type":"Polygon","coordinates":[[[-61.46,10.31],[-61.461,10.319],[-61.466,10.335],[-61.469,10.354],[-61.471,10.359],[-61.48,10.367],[-61.483,10.371],[-61.483,10.376],[-61.48,10.378],[-61.477,10.379],[-61.475,10.382],[-61.476,10.389],[-61.482,10.409],[-61.486,10.416],[-61.488,10.43],[-61.482,10.45],[-61.469,10.481],[-61.462,10.519],[-61.462,10.523],[-61.448,10.521],[-61.442,10.52],[-61.434,10.515],[-61.425,10.513],[-61.417,10.507],[-61.405,10.503],[-61.38,10.505],[-61.373,10.511],[-61.371,10.521],[-61.364,10.544],[-61.369,10.566],[-61.365,10.573],[-61.36,10.573],[-61.35,10.571],[-61.337,10.572],[-61.325,10.578],[-61.311,10.581],[-61.268,10.583],[-61.239,10.591],[-61.228,10.582],[-61.224,10.572],[-61.221,10.529],[-61.218,10.521],[-61.21,10.513],[-61.21,10.497],[-61.219,10.475],[-61.218,10.466],[-61.217,10.462],[-61.197,10.456],[-61.211,10.432],[-61.215,10.412],[-61.221,10.355],[-61.229,10.328],[-61.244,10.307],[-61.252,10.315],[-61.265,10.321],[-61.273,10.323],[-61.281,10.327],[-61.294,10.33],[-61.311,10.333],[-61.34,10.333],[-61.374,10.326],[-61.408,10.312],[-61.428,10.31],[-61.454,10.308],[-61.46,10.31]]]}},{"type":"Feature","id":"TT-DMN","properties":{"id":"TT-DMN","countryCode":"TT","isoSubdivision":"TT-DMN","name":"Diego Martin Regional Corporation","name_en":"Diego Martin Regional Corporation","name_ko":"디에고마틴 지역","type":"Region","labelLongitude":-61.578,"labelLatitude":10.713,"minZoom":10},"geometry":{"type":"Polygon","coordinates":[[[-61.549,10.667],[-61.578,10.68],[-61.599,10.684],[-61.65,10.688],[-61.656,10.69],[-61.661,10.695],[-61.668,10.707],[-61.616,10.742],[-61.602,10.748],[-61.561,10.744],[-61.515,10.755],[-61.49,10.755],[-61.49,10.751],[-61.488,10.73],[-61.494,10.706],[-61.511,10.676],[-61.526,10.678],[-61.534,10.677],[-61.545,10.669],[-61.549,10.667]]]}},{"type":"Feature","id":"TT-ETO","properties":{"id":"TT-ETO","countryCode":"TT","isoSubdivision":"TT-ETO","name":"Tobago","name_en":"Tobago","name_ko":"토바고섬","type":"Region","labelLongitude":-60.6,"labelLatitude":11.29,"minZoom":10},"geometry":{"type":"Polygon","coordinates":[[[-60.655,11.308],[-60.636,11.315],[-60.608,11.321],[-60.596,11.327],[-60.584,11.33],[-60.568,11.32],[-60.56,11.321],[-60.541,11.343],[-60.531,11.351],[-60.523,11.344],[-60.522,11.319],[-60.526,11.288],[-60.533,11.267],[-60.544,11.269],[-60.55,11.269],[-60.557,11.254],[-60.565,11.252],[-60.575,11.256],[-60.585,11.256],[-60.587,11.251],[-60.602,11.231],[-60.606,11.231],[-60.629,11.217],[-60.636,11.211],[-60.647,11.204],[-60.665,11.219],[-60.679,11.231],[-60.704,11.241],[-60.694,11.25],[-60.667,11.268],[-60.647,11.292],[-60.655,11.308]]]}},{"type":"Feature","id":"TT-PED","properties":{"id":"TT-PED","countryCode":"TT","isoSubdivision":"TT-PED","name":"Penal-Debe Regional Corporation","name_en":"Penal-Debe Regional Corporation","name_ko":"페날데베 지역","type":"Region","labelLongitude":-61.427,"labelLatitude":10.146,"minZoom":10},"geometry":{"type":"Polygon","coordinates":[[[-61.521,10.24],[-61.518,10.24],[-61.507,10.241],[-61.495,10.245],[-61.49,10.249],[-61.489,10.248],[-61.441,10.259],[-61.392,10.238],[-61.381,10.228],[-61.373,10.217],[-61.379,10.073],[-61.417,10.076],[-61.503,10.069],[-61.504,10.07],[-61.499,10.107],[-61.496,10.118],[-61.49,10.126],[-61.478,10.141],[-61.473,10.15],[-61.469,10.169],[-61.469,10.186],[-61.472,10.193],[-61.477,10.202],[-61.489,10.21],[-61.516,10.234],[-61.521,10.24]]]}},{"type":"Feature","id":"TT-POS","properties":{"id":"TT-POS","countryCode":"TT","isoSubdivision":"TT-POS","name":"Port of Spain","name_en":"Port of Spain","name_ko":"포트오브스페인","type":"City","labelLongitude":-61.52,"labelLatitude":10.665,"minZoom":10},"geometry":{"type":"Polygon","coordinates":[[[-61.496,10.636],[-61.529,10.658],[-61.549,10.667],[-61.545,10.669],[-61.534,10.677],[-61.526,10.678],[-61.511,10.676],[-61.497,10.668],[-61.493,10.661],[-61.492,10.657],[-61.496,10.636]]]}},{"type":"Feature","id":"TT-PRT","properties":{"id":"TT-PRT","countryCode":"TT","isoSubdivision":"TT-PRT","name":"Princes Town","name_en":"Princes Town","name_ko":"프린세스타운 지역","type":"Region","labelLongitude":-61.31,"labelLatitude":10.204,"minZoom":10},"geometry":{"type":"Polygon","coordinates":[[[-61.178,10.075],[-61.192,10.074],[-61.253,10.084],[-61.275,10.082],[-61.339,10.069],[-61.379,10.073],[-61.373,10.217],[-61.381,10.228],[-61.392,10.238],[-61.441,10.259],[-61.428,10.31],[-61.408,10.312],[-61.374,10.326],[-61.34,10.333],[-61.311,10.333],[-61.294,10.33],[-61.281,10.327],[-61.273,10.323],[-61.265,10.321],[-61.252,10.315],[-61.244,10.307],[-61.236,10.285],[-61.23,10.28],[-61.226,10.272],[-61.218,10.27],[-61.208,10.259],[-61.192,10.23],[-61.178,10.075]]]}},{"type":"Feature","id":"TT-PTF","properties":{"id":"TT-PTF","countryCode":"TT","isoSubdivision":"TT-PTF","name":"Point Fortin","name_en":"Point Fortin","name_ko":"포인트포르틴","type":"City","labelLongitude":-61.668,"labelLatitude":10.167,"minZoom":10},"geometry":{"type":"Polygon","coordinates":[[[-61.707,10.166],[-61.669,10.184],[-61.639,10.21],[-61.638,10.208],[-61.632,10.202],[-61.63,10.198],[-61.631,10.192],[-61.64,10.18],[-61.644,10.173],[-61.65,10.165],[-61.671,10.147],[-61.682,10.143],[-61.692,10.142],[-61.704,10.161],[-61.707,10.166]]]}},{"type":"Feature","id":"TT-RCM","properties":{"id":"TT-RCM","countryCode":"TT","isoSubdivision":"TT-RCM","name":"Mayaro-Rio Claro","name_en":"Mayaro-Rio Claro","name_ko":"리오클라로마야로 지역","type":"Region","labelLongitude":-61.102,"labelLatitude":10.281,"minZoom":10},"geometry":{"type":"Polygon","coordinates":[[[-61.038,10.464],[-61.028,10.409],[-61.023,10.395],[-61.016,10.382],[-60.998,10.356],[-60.961,10.33],[-60.99,10.299],[-61.003,10.248],[-61.003,10.189],[-60.996,10.138],[-61.017,10.143],[-61.042,10.136],[-61.064,10.122],[-61.082,10.107],[-61.1,10.095],[-61.122,10.087],[-61.167,10.076],[-61.178,10.075],[-61.192,10.23],[-61.208,10.259],[-61.218,10.27],[-61.226,10.272],[-61.23,10.28],[-61.236,10.285],[-61.244,10.307],[-61.229,10.328],[-61.221,10.355],[-61.215,10.412],[-61.211,10.432],[-61.197,10.456],[-61.095,10.47],[-61.038,10.464]]]}},{"type":"Feature","id":"TT-SFO","properties":{"id":"TT-SFO","countryCode":"TT","isoSubdivision":"TT-SFO","name":"San Fernando","name_en":"San Fernando","name_ko":"샌퍼넌도","type":"City","labelLongitude":-61.459,"labelLatitude":10.277,"minZoom":10},"geometry":{"type":"Polygon","coordinates":[[[-61.49,10.249],[-61.482,10.256],[-61.47,10.269],[-61.462,10.282],[-61.458,10.302],[-61.46,10.31],[-61.454,10.308],[-61.428,10.31],[-61.441,10.259],[-61.489,10.248],[-61.49,10.249]]]}},{"type":"Feature","id":"TT-SGE","properties":{"id":"TT-SGE","countryCode":"TT","isoSubdivision":"TT-SGE","name":"Sangre Grande Regional Corporation","name_en":"Sangre Grande Regional Corporation","name_ko":"상그레그란데 지역","type":"Region","labelLongitude":-61.128,"labelLatitude":10.684,"minZoom":10},"geometry":{"type":"Polygon","coordinates":[[[-61.172,10.804],[-61.155,10.816],[-61.097,10.823],[-61.079,10.831],[-60.949,10.845],[-60.907,10.837],[-60.95,10.763],[-61.002,10.699],[-61.021,10.703],[-61.033,10.684],[-61.038,10.654],[-61.037,10.625],[-61.018,10.564],[-61.014,10.534],[-61.042,10.51],[-61.042,10.482],[-61.038,10.464],[-61.095,10.47],[-61.197,10.456],[-61.217,10.462],[-61.218,10.466],[-61.219,10.475],[-61.21,10.497],[-61.21,10.513],[-61.218,10.521],[-61.221,10.529],[-61.224,10.572],[-61.228,10.582],[-61.239,10.591],[-61.213,10.604],[-61.209,10.61],[-61.203,10.618],[-61.201,10.625],[-61.201,10.632],[-61.203,10.638],[-61.211,10.648],[-61.215,10.655],[-61.218,10.671],[-61.214,10.687],[-61.213,10.704],[-61.214,10.713],[-61.22,10.717],[-61.224,10.719],[-61.23,10.72],[-61.235,10.721],[-61.24,10.723],[-61.238,10.727],[-61.209,10.73],[-61.2,10.733],[-61.195,10.737],[-61.178,10.755],[-61.172,10.76],[-61.163,10.764],[-61.157,10.769],[-61.157,10.778],[-61.158,10.787],[-61.168,10.801],[-61.172,10.804]]]}},{"type":"Feature","id":"TT-SIP","properties":{"id":"TT-SIP","countryCode":"TT","isoSubdivision":"TT-SIP","name":"Siparia Regional Corporation","name_en":"Siparia Regional Corporation","name_ko":"시파리아 지역","type":"Region","labelLongitude":-61.699,"labelLatitude":10.118,"minZoom":10},"geometry":{"type":"Polygon","coordinates":[[[-61.639,10.21],[-61.639,10.211],[-61.64,10.241],[-61.627,10.247],[-61.612,10.248],[-61.56,10.239],[-61.521,10.24],[-61.516,10.234],[-61.489,10.21],[-61.477,10.202],[-61.472,10.193],[-61.469,10.186],[-61.469,10.169],[-61.473,10.15],[-61.478,10.141],[-61.49,10.126],[-61.496,10.118],[-61.499,10.107],[-61.504,10.07],[-61.544,10.076],[-61.553,10.074],[-61.582,10.063],[-61.593,10.061],[-61.613,10.057],[-61.623,10.056],[-61.637,10.058],[-61.647,10.063],[-61.656,10.07],[-61.668,10.076],[-61.686,10.082],[-61.707,10.084],[-61.793,10.084],[-61.817,10.081],[-61.835,10.073],[-61.85,10.061],[-61.869,10.05],[-61.89,10.042],[-61.907,10.042],[-61.929,10.056],[-61.919,10.07],[-61.887,10.087],[-61.882,10.09],[-61.871,10.094],[-61.839,10.1],[-61.832,10.106],[-61.822,10.121],[-61.806,10.133],[-61.789,10.141],[-61.712,10.164],[-61.707,10.166],[-61.704,10.161],[-61.692,10.142],[-61.682,10.143],[-61.671,10.147],[-61.65,10.165],[-61.644,10.173],[-61.64,10.18],[-61.631,10.192],[-61.63,10.198],[-61.632,10.202],[-61.638,10.208],[-61.639,10.21]]]}},{"type":"Feature","id":"TT-SJL","properties":{"id":"TT-SJL","countryCode":"TT","isoSubdivision":"TT-SJL","name":"San Juan–Laventille","name_en":"San Juan–Laventille","name_ko":"산후안라벤틸 지역","type":"Region","labelLongitude":-61.45,"labelLatitude":10.613,"minZoom":10},"geometry":{"type":"Polygon","coordinates":[[[-61.49,10.755],[-61.486,10.755],[-61.473,10.76],[-61.466,10.77],[-61.46,10.774],[-61.455,10.762],[-61.448,10.762],[-61.448,10.765],[-61.448,10.776],[-61.442,10.776],[-61.441,10.771],[-61.439,10.768],[-61.437,10.766],[-61.434,10.762],[-61.442,10.755],[-61.433,10.757],[-61.428,10.761],[-61.424,10.766],[-61.421,10.768],[-61.402,10.769],[-61.4,10.768],[-61.392,10.776],[-61.373,10.798],[-61.367,10.803],[-61.353,10.804],[-61.349,10.798],[-61.342,10.773],[-61.334,10.756],[-61.335,10.745],[-61.341,10.738],[-61.347,10.736],[-61.365,10.74],[-61.372,10.74],[-61.379,10.738],[-61.386,10.738],[-61.412,10.741],[-61.421,10.739],[-61.426,10.729],[-61.429,10.711],[-61.421,10.668],[-61.422,10.643],[-61.41,10.566],[-61.441,10.565],[-61.461,10.538],[-61.462,10.538],[-61.462,10.558],[-61.472,10.595],[-61.496,10.625],[-61.489,10.631],[-61.496,10.636],[-61.492,10.657],[-61.493,10.661],[-61.497,10.668],[-61.511,10.676],[-61.494,10.706],[-61.488,10.73],[-61.49,10.751],[-61.49,10.755]]]}},{"type":"Feature","id":"TT-TUP","properties":{"id":"TT-TUP","countryCode":"TT","isoSubdivision":"TT-TUP","name":"Tunapuna-Piarco Regional Corporation","name_en":"Tunapuna-Piarco Regional Corporation","name_ko":"투나푸나피아르코 지역","type":"Region","labelLongitude":-61.325,"labelLatitude":10.69,"minZoom":10},"geometry":{"type":"Polygon","coordinates":[[[-61.353,10.804],[-61.349,10.804],[-61.296,10.798],[-61.18,10.798],[-61.172,10.804],[-61.168,10.801],[-61.158,10.787],[-61.157,10.778],[-61.157,10.769],[-61.163,10.764],[-61.172,10.76],[-61.178,10.755],[-61.195,10.737],[-61.2,10.733],[-61.209,10.73],[-61.238,10.727],[-61.24,10.723],[-61.235,10.721],[-61.23,10.72],[-61.224,10.719],[-61.22,10.717],[-61.214,10.713],[-61.213,10.704],[-61.214,10.687],[-61.218,10.671],[-61.215,10.655],[-61.211,10.648],[-61.203,10.638],[-61.201,10.632],[-61.201,10.625],[-61.203,10.618],[-61.209,10.61],[-61.213,10.604],[-61.239,10.591],[-61.268,10.583],[-61.311,10.581],[-61.325,10.578],[-61.337,10.572],[-61.35,10.571],[-61.36,10.573],[-61.365,10.573],[-61.369,10.566],[-61.41,10.566],[-61.422,10.643],[-61.421,10.668],[-61.429,10.711],[-61.426,10.729],[-61.421,10.739],[-61.412,10.741],[-61.386,10.738],[-61.379,10.738],[-61.372,10.74],[-61.365,10.74],[-61.347,10.736],[-61.341,10.738],[-61.335,10.745],[-61.334,10.756],[-61.342,10.773],[-61.349,10.798],[-61.353,10.804]],[[-61.275,10.607],[-61.27,10.609],[-61.267,10.61],[-61.265,10.614],[-61.265,10.62],[-61.27,10.634],[-61.271,10.641],[-61.285,10.654],[-61.287,10.645],[-61.286,10.643],[-61.286,10.641],[-61.285,10.64],[-61.286,10.639],[-61.287,10.638],[-61.288,10.636],[-61.288,10.634],[-61.288,10.633],[-61.288,10.631],[-61.288,10.629],[-61.289,10.623],[-61.29,10.621],[-61.294,10.618],[-61.295,10.616],[-61.296,10.614],[-61.295,10.612],[-61.293,10.611],[-61.283,10.608],[-61.275,10.607]]]}},{"type":"Feature","id":"TT-WTO","properties":{"id":"TT-WTO","countryCode":"TT","isoSubdivision":"TT-WTO","name":"Tobago","name_en":"Tobago","name_ko":"토바고섬","type":"Region","labelLongitude":-60.771,"labelLatitude":11.196,"minZoom":10},"geometry":{"type":"Polygon","coordinates":[[[-60.647,11.204],[-60.66,11.204],[-60.672,11.207],[-60.681,11.207],[-60.742,11.177],[-60.76,11.173],[-60.786,11.15],[-60.803,11.143],[-60.81,11.159],[-60.825,11.152],[-60.839,11.154],[-60.848,11.164],[-60.845,11.179],[-60.837,11.183],[-60.823,11.186],[-60.81,11.191],[-60.804,11.204],[-60.794,11.217],[-60.71,11.271],[-60.692,11.289],[-60.681,11.296],[-60.669,11.303],[-60.655,11.308],[-60.647,11.292],[-60.667,11.268],[-60.694,11.25],[-60.704,11.241],[-60.679,11.231],[-60.665,11.219],[-60.647,11.204]]]}}]}
