{"type":"FeatureCollection","features":[{"type":"Feature","id":"TV-X01~","properties":{"id":"TV-X01~","countryCode":"TV","isoSubdivision":"TV-X01~","name":"Tuvalu","name_en":"Tuvalu","name_ko":"투발루","type":"Principal subdivision","labelLongitude":179.903,"labelLatitude":-9.394,"minZoom":18},"geometry":{"type":"MultiPolygon","coordinates":[[[[179.191,-8.542],[179.2,-8.53],[179.204,-8.519],[179.202,-8.51],[179.198,-8.498],[179.198,-8.482],[179.199,-8.461],[179.206,-8.474],[179.207,-8.498],[179.216,-8.511],[179.218,-8.521],[179.21,-8.53],[179.191,-8.542]]],[[[178.381,-8.07],[178.373,-8.069],[178.375,-8.056],[178.383,-8.039],[178.391,-8.027],[178.381,-8.07]]],[[[177.153,-7.197],[177.152,-7.195],[177.15,-7.19],[177.15,-7.188],[177.153,-7.195],[177.153,-7.199],[177.153,-7.2],[177.153,-7.197]]],[[[176.314,-6.302],[176.319,-6.289],[176.323,-6.289],[176.322,-6.295],[176.314,-6.302]]],[[[177.344,-6.121],[177.34,-6.115],[177.338,-6.111],[177.337,-6.108],[177.349,-6.111],[177.357,-6.115],[177.356,-6.119],[177.344,-6.121]]],[[[176.135,-5.693],[176.125,-5.679],[176.13,-5.678],[176.14,-5.687],[176.148,-5.707],[176.135,-5.693]]],[[[179.907,-9.399],[179.906,-9.419],[179.905,-9.421],[179.904,-9.4],[179.899,-9.387],[179.901,-9.388],[179.907,-9.399]]],[[[179.868,-9.343],[179.873,-9.347],[179.878,-9.361],[179.877,-9.363],[179.872,-9.35],[179.867,-9.344],[179.868,-9.343]]],[[[178.683,-7.491],[178.668,-7.464],[178.665,-7.454],[178.688,-7.474],[178.691,-7.475],[178.693,-7.484],[178.694,-7.494],[178.691,-7.499],[178.683,-7.491]]]]}}]}
