{"type":"FeatureCollection","features":[{"type":"Feature","id":"TW-CHA","properties":{"id":"TW-CHA","countryCode":"TW","isoSubdivision":"TW-CHA","name":"Changhua","name_en":"Changhua","name_ko":"장화현","type":"County","labelLongitude":120.464,"labelLatitude":24.002,"minZoom":8.7},"geometry":{"type":"Polygon","coordinates":[[[120.244,23.838],[120.247,23.843],[120.253,23.868],[120.257,23.878],[120.284,23.902],[120.292,23.912],[120.303,23.939],[120.318,23.966],[120.34,24.022],[120.35,24.038],[120.362,24.049],[120.371,24.054],[120.38,24.058],[120.386,24.063],[120.388,24.073],[120.392,24.083],[120.412,24.097],[120.416,24.107],[120.419,24.143],[120.422,24.152],[120.432,24.161],[120.475,24.207],[120.498,24.2],[120.513,24.188],[120.523,24.166],[120.527,24.14],[120.544,24.121],[120.589,24.109],[120.605,24.097],[120.618,24.079],[120.625,24.065],[120.625,24.052],[120.63,24.04],[120.646,24.037],[120.667,24.025],[120.667,24.02],[120.667,24.008],[120.651,24.002],[120.646,23.992],[120.649,23.978],[120.641,23.962],[120.635,23.944],[120.634,23.924],[120.63,23.901],[120.627,23.854],[120.634,23.832],[120.648,23.821],[120.663,23.816],[120.684,23.806],[120.681,23.794],[120.666,23.788],[120.656,23.78],[120.647,23.775],[120.644,23.772],[120.598,23.781],[120.576,23.78],[120.53,23.801],[120.455,23.809],[120.411,23.825],[120.385,23.831],[120.356,23.832],[120.273,23.823],[120.244,23.838]]]}},{"type":"Feature","id":"TW-CYI","properties":{"id":"TW-CYI","countryCode":"TW","isoSubdivision":"TW-CYI","name":"Chiayi","name_en":"Chiayi","name_ko":"자이시","type":"Provincial City","labelLongitude":120.441,"labelLatitude":23.482,"minZoom":8.7},"geometry":{"type":"Polygon","coordinates":[[[120.453,23.517],[120.474,23.51],[120.49,23.502],[120.499,23.488],[120.509,23.465],[120.498,23.457],[120.48,23.455],[120.455,23.445],[120.427,23.451],[120.4,23.467],[120.377,23.475],[120.374,23.495],[120.388,23.509],[120.423,23.515],[120.453,23.517]]]}},{"type":"Feature","id":"TW-CYQ","properties":{"id":"TW-CYQ","countryCode":"TW","isoSubdivision":"TW-CYQ","name":"Chiayi","name_en":"Chiayi","name_ko":"자이현","type":"County","labelLongitude":120.26,"labelLatitude":23.447,"minZoom":8.7},"geometry":{"type":"MultiPolygon","coordinates":[[[[120.117,23.318],[120.131,23.319],[120.144,23.324],[120.149,23.322],[120.146,23.333],[120.137,23.328],[120.13,23.329],[120.121,23.33],[120.121,23.341],[120.13,23.361],[120.144,23.362],[120.165,23.362],[120.151,23.398],[120.135,23.426],[120.142,23.439],[120.142,23.446],[120.131,23.451],[120.132,23.457],[120.139,23.464],[120.142,23.473],[120.158,23.491],[120.125,23.49],[120.124,23.52],[120.128,23.52],[120.128,23.521],[120.169,23.525],[120.2,23.508],[120.223,23.508],[120.238,23.519],[120.245,23.536],[120.252,23.547],[120.273,23.55],[120.299,23.569],[120.316,23.578],[120.331,23.591],[120.393,23.624],[120.42,23.631],[120.468,23.639],[120.494,23.64],[120.514,23.624],[120.533,23.603],[120.581,23.587],[120.595,23.589],[120.627,23.597],[120.645,23.586],[120.654,23.572],[120.678,23.574],[120.722,23.583],[120.737,23.587],[120.737,23.599],[120.739,23.616],[120.741,23.616],[120.764,23.614],[120.789,23.605],[120.805,23.601],[120.825,23.591],[120.823,23.573],[120.812,23.555],[120.817,23.538],[120.827,23.515],[120.828,23.495],[120.832,23.482],[120.861,23.477],[120.959,23.476],[120.962,23.475],[120.892,23.442],[120.86,23.419],[120.846,23.395],[120.83,23.378],[120.801,23.362],[120.77,23.341],[120.753,23.323],[120.707,23.297],[120.684,23.295],[120.658,23.297],[120.645,23.285],[120.644,23.268],[120.65,23.252],[120.653,23.229],[120.622,23.232],[120.608,23.236],[120.589,23.234],[120.568,23.225],[120.554,23.225],[120.537,23.238],[120.531,23.254],[120.537,23.303],[120.534,23.329],[120.496,23.365],[120.489,23.383],[120.481,23.397],[120.466,23.406],[120.439,23.414],[120.407,23.412],[120.349,23.402],[120.319,23.39],[120.296,23.374],[120.278,23.357],[120.253,23.34],[120.231,23.327],[120.221,23.31],[120.198,23.3],[120.17,23.306],[120.136,23.311],[120.117,23.318]],[[120.455,23.445],[120.48,23.455],[120.498,23.457],[120.509,23.465],[120.499,23.488],[120.49,23.502],[120.474,23.51],[120.453,23.517],[120.423,23.515],[120.388,23.509],[120.374,23.495],[120.377,23.475],[120.4,23.467],[120.427,23.451],[120.455,23.445]]],[[[120.022,23.452],[120.075,23.501],[120.115,23.548],[120.125,23.55],[120.09,23.499],[120.073,23.484],[120.062,23.471],[120.048,23.458],[120.037,23.451],[120.02,23.438],[120.008,23.433],[120.022,23.452]]]]}},{"type":"Feature","id":"TW-HSQ","properties":{"id":"TW-HSQ","countryCode":"TW","isoSubdivision":"TW-HSQ","name":"Hsinchu","name_en":"Hsinchu","name_ko":"신주현","type":"County","labelLongitude":121.163,"labelLatitude":24.675,"minZoom":8.7},"geometry":{"type":"Polygon","coordinates":[[[120.915,24.853],[120.915,24.854],[120.921,24.861],[120.923,24.875],[120.926,24.885],[120.934,24.895],[120.944,24.902],[120.954,24.905],[120.953,24.909],[120.955,24.919],[120.964,24.94],[120.972,24.952],[120.984,24.948],[121.036,24.951],[121.053,24.941],[121.068,24.911],[121.087,24.904],[121.104,24.9],[121.119,24.893],[121.145,24.885],[121.159,24.871],[121.155,24.851],[121.168,24.838],[121.193,24.831],[121.209,24.82],[121.221,24.809],[121.235,24.807],[121.25,24.808],[121.263,24.796],[121.273,24.78],[121.289,24.773],[121.302,24.764],[121.304,24.746],[121.31,24.721],[121.302,24.694],[121.285,24.672],[121.287,24.657],[121.306,24.643],[121.33,24.63],[121.351,24.627],[121.366,24.617],[121.394,24.603],[121.412,24.595],[121.403,24.573],[121.398,24.557],[121.4,24.541],[121.386,24.521],[121.333,24.472],[121.316,24.436],[121.306,24.439],[121.265,24.435],[121.263,24.433],[121.26,24.45],[121.243,24.477],[121.23,24.488],[121.225,24.504],[121.206,24.517],[121.158,24.506],[121.14,24.508],[121.114,24.507],[121.085,24.499],[121.07,24.503],[121.073,24.52],[121.078,24.536],[121.074,24.55],[121.07,24.56],[121.074,24.571],[121.077,24.583],[121.079,24.596],[121.076,24.614],[121.061,24.626],[121.015,24.646],[120.992,24.661],[120.977,24.677],[120.96,24.715],[120.97,24.726],[120.978,24.745],[120.991,24.76],[121.014,24.768],[121.033,24.771],[121.042,24.776],[121.046,24.789],[121.039,24.801],[121.024,24.815],[121.004,24.824],[120.946,24.841],[120.915,24.853]]]}},{"type":"Feature","id":"TW-HSZ","properties":{"id":"TW-HSZ","countryCode":"TW","isoSubdivision":"TW-HSZ","name":"Hsinchu","name_en":"Hsinchu","name_ko":"신주시","type":"Provincial City","labelLongitude":120.959,"labelLatitude":24.776,"minZoom":8.7},"geometry":{"type":"Polygon","coordinates":[[[120.873,24.748],[120.877,24.762],[120.898,24.801],[120.906,24.811],[120.909,24.817],[120.909,24.823],[120.907,24.829],[120.902,24.837],[120.908,24.847],[120.915,24.853],[120.946,24.841],[121.004,24.824],[121.024,24.815],[121.039,24.801],[121.046,24.789],[121.042,24.776],[121.033,24.771],[121.014,24.768],[120.991,24.76],[120.978,24.745],[120.97,24.726],[120.96,24.715],[120.96,24.714],[120.942,24.71],[120.925,24.716],[120.915,24.73],[120.899,24.738],[120.873,24.748]]]}},{"type":"Feature","id":"TW-HUA","properties":{"id":"TW-HUA","countryCode":"TW","isoSubdivision":"TW-HUA","name":"Hualien","name_en":"Hualien","name_ko":"화롄현","type":"County","labelLongitude":121.381,"labelLatitude":23.774,"minZoom":8.7},"geometry":{"type":"Polygon","coordinates":[[[121.763,24.326],[121.766,24.323],[121.769,24.318],[121.772,24.313],[121.773,24.309],[121.767,24.301],[121.745,24.281],[121.721,24.251],[121.704,24.238],[121.698,24.232],[121.701,24.224],[121.698,24.219],[121.672,24.201],[121.663,24.193],[121.652,24.172],[121.641,24.13],[121.613,24.092],[121.607,24.077],[121.608,24.06],[121.615,24.042],[121.621,24.035],[121.626,24.031],[121.629,24.026],[121.629,24.015],[121.625,24.002],[121.611,23.982],[121.608,23.97],[121.607,23.948],[121.594,23.892],[121.57,23.832],[121.54,23.693],[121.521,23.659],[121.48,23.435],[121.466,23.439],[121.425,23.421],[121.411,23.402],[121.417,23.378],[121.419,23.354],[121.405,23.33],[121.393,23.311],[121.382,23.288],[121.373,23.259],[121.359,23.232],[121.341,23.186],[121.329,23.165],[121.329,23.141],[121.326,23.119],[121.301,23.106],[121.27,23.11],[121.225,23.144],[121.19,23.2],[121.169,23.206],[121.145,23.209],[121.126,23.225],[121.103,23.235],[121.073,23.245],[121.054,23.274],[121.05,23.299],[121.048,23.308],[121.038,23.335],[121.014,23.353],[120.992,23.365],[120.989,23.379],[120.994,23.39],[121.015,23.399],[121.027,23.416],[121.019,23.437],[121.042,23.449],[121.054,23.459],[121.047,23.48],[121.053,23.489],[121.059,23.504],[121.079,23.517],[121.107,23.523],[121.135,23.524],[121.155,23.54],[121.16,23.57],[121.175,23.588],[121.204,23.597],[121.221,23.609],[121.227,23.626],[121.24,23.67],[121.244,23.699],[121.241,23.724],[121.236,23.743],[121.224,23.757],[121.216,23.771],[121.238,23.804],[121.238,23.817],[121.248,23.841],[121.263,23.871],[121.274,23.901],[121.28,23.936],[121.283,23.962],[121.276,23.978],[121.268,23.989],[121.277,24.016],[121.296,24.053],[121.327,24.089],[121.328,24.102],[121.322,24.118],[121.302,24.13],[121.292,24.141],[121.291,24.175],[121.305,24.185],[121.33,24.193],[121.35,24.201],[121.349,24.214],[121.343,24.235],[121.354,24.242],[121.359,24.249],[121.372,24.256],[121.383,24.269],[121.388,24.286],[121.4,24.304],[121.428,24.32],[121.437,24.341],[121.439,24.356],[121.457,24.373],[121.466,24.366],[121.491,24.355],[121.548,24.342],[121.58,24.331],[121.604,24.331],[121.623,24.346],[121.632,24.367],[121.647,24.37],[121.717,24.332],[121.759,24.326],[121.763,24.326]]]}},{"type":"Feature","id":"TW-ILA","properties":{"id":"TW-ILA","countryCode":"TW","isoSubdivision":"TW-ILA","name":"Yilan","name_en":"Yilan","name_ko":"이란현","type":"County","labelLongitude":121.644,"labelLatitude":24.591,"minZoom":8.7},"geometry":{"type":"Polygon","coordinates":[[[121.972,24.987],[121.927,24.967],[121.906,24.95],[121.835,24.872],[121.823,24.855],[121.815,24.832],[121.809,24.805],[121.807,24.779],[121.808,24.753],[121.82,24.7],[121.82,24.686],[121.814,24.672],[121.815,24.644],[121.828,24.623],[121.853,24.609],[121.882,24.604],[121.882,24.598],[121.869,24.599],[121.858,24.598],[121.848,24.595],[121.841,24.59],[121.851,24.573],[121.856,24.551],[121.853,24.531],[121.83,24.519],[121.828,24.511],[121.831,24.5],[121.838,24.491],[121.84,24.481],[121.83,24.473],[121.807,24.461],[121.78,24.433],[121.779,24.422],[121.781,24.398],[121.776,24.388],[121.771,24.381],[121.768,24.369],[121.766,24.347],[121.764,24.342],[121.761,24.337],[121.759,24.332],[121.763,24.327],[121.763,24.326],[121.759,24.326],[121.717,24.332],[121.647,24.37],[121.632,24.367],[121.623,24.346],[121.604,24.331],[121.58,24.331],[121.548,24.342],[121.491,24.355],[121.466,24.366],[121.457,24.373],[121.435,24.389],[121.416,24.389],[121.398,24.381],[121.383,24.379],[121.369,24.388],[121.352,24.397],[121.333,24.4],[121.328,24.413],[121.33,24.433],[121.316,24.436],[121.333,24.472],[121.386,24.521],[121.4,24.541],[121.398,24.557],[121.403,24.573],[121.412,24.595],[121.414,24.601],[121.429,24.606],[121.441,24.604],[121.455,24.608],[121.463,24.622],[121.451,24.665],[121.472,24.678],[121.483,24.681],[121.505,24.687],[121.524,24.693],[121.538,24.704],[121.557,24.716],[121.582,24.727],[121.597,24.737],[121.596,24.744],[121.592,24.755],[121.591,24.769],[121.599,24.786],[121.617,24.8],[121.631,24.808],[121.681,24.826],[121.732,24.854],[121.755,24.861],[121.775,24.873],[121.786,24.891],[121.799,24.905],[121.813,24.912],[121.826,24.916],[121.844,24.926],[121.85,24.939],[121.84,24.951],[121.846,24.961],[121.888,24.969],[121.902,24.978],[121.934,24.993],[121.957,24.997],[121.969,24.991],[121.972,24.987]]]}},{"type":"Feature","id":"TW-KEE","properties":{"id":"TW-KEE","countryCode":"TW","isoSubdivision":"TW-KEE","name":"Keelung","name_en":"Keelung","name_ko":"지룽시","type":"Provincial City","labelLongitude":121.704,"labelLatitude":25.113,"minZoom":8.7},"geometry":{"type":"Polygon","coordinates":[[[121.689,25.169],[121.695,25.166],[121.698,25.163],[121.704,25.157],[121.719,25.152],[121.761,25.143],[121.76,25.101],[121.761,25.091],[121.775,25.078],[121.773,25.069],[121.764,25.063],[121.749,25.058],[121.729,25.06],[121.689,25.075],[121.677,25.082],[121.664,25.094],[121.653,25.106],[121.646,25.119],[121.635,25.131],[121.633,25.141],[121.645,25.149],[121.673,25.159],[121.689,25.169]]]}},{"type":"Feature","id":"TW-KHH","properties":{"id":"TW-KHH","countryCode":"TW","isoSubdivision":"TW-KHH","name":"Kaohsiung","name_en":"Kaohsiung","name_ko":"가오슝시","type":"Special Municipality","labelLongitude":120.609,"labelLatitude":23.016,"minZoom":8.7},"geometry":{"type":"Polygon","coordinates":[[[120.412,22.483],[120.402,22.487],[120.396,22.486],[120.389,22.484],[120.381,22.484],[120.331,22.52],[120.285,22.58],[120.334,22.526],[120.328,22.552],[120.32,22.566],[120.313,22.577],[120.293,22.598],[120.259,22.628],[120.246,22.643],[120.24,22.659],[120.248,22.675],[120.252,22.69],[120.246,22.71],[120.236,22.73],[120.218,22.757],[120.2,22.792],[120.196,22.808],[120.196,22.819],[120.202,22.831],[120.203,22.84],[120.201,22.844],[120.196,22.847],[120.191,22.852],[120.189,22.86],[120.178,22.877],[120.176,22.884],[120.167,22.932],[120.191,22.945],[120.191,22.943],[120.207,22.913],[120.225,22.904],[120.284,22.897],[120.316,22.9],[120.348,22.896],[120.364,22.901],[120.377,22.91],[120.402,22.919],[120.426,22.935],[120.435,22.954],[120.446,22.973],[120.466,22.997],[120.49,23.02],[120.514,23.039],[120.542,23.064],[120.567,23.093],[120.605,23.153],[120.645,23.206],[120.653,23.229],[120.65,23.252],[120.644,23.268],[120.645,23.285],[120.658,23.297],[120.684,23.295],[120.707,23.297],[120.753,23.323],[120.77,23.341],[120.801,23.362],[120.83,23.378],[120.846,23.395],[120.86,23.419],[120.892,23.442],[120.962,23.475],[120.979,23.472],[121.001,23.464],[121.017,23.444],[121.019,23.437],[121.027,23.416],[121.015,23.399],[120.994,23.39],[120.989,23.379],[120.992,23.365],[121.014,23.353],[121.038,23.335],[121.048,23.308],[121.05,23.299],[120.99,23.286],[120.966,23.272],[120.95,23.258],[120.921,23.24],[120.918,23.22],[120.926,23.2],[120.916,23.182],[120.888,23.168],[120.885,23.144],[120.893,23.11],[120.881,23.064],[120.881,23.024],[120.865,23.004],[120.832,22.978],[120.823,22.944],[120.829,22.916],[120.84,22.9],[120.863,22.877],[120.868,22.86],[120.853,22.858],[120.833,22.862],[120.817,22.861],[120.784,22.837],[120.762,22.857],[120.733,22.888],[120.706,22.881],[120.681,22.861],[120.631,22.884],[120.595,22.868],[120.571,22.843],[120.541,22.833],[120.473,22.837],[120.466,22.82],[120.461,22.795],[120.451,22.767],[120.453,22.743],[120.453,22.709],[120.431,22.635],[120.431,22.61],[120.441,22.584],[120.443,22.555],[120.412,22.483]]]}},{"type":"Feature","id":"TW-KIN","properties":{"id":"TW-KIN","countryCode":"TW","isoSubdivision":"TW-KIN","name":"Kinmen","name_en":"Kinmen","name_ko":"진먼현","type":"County","labelLongitude":118.368,"labelLatitude":24.454,"minZoom":8.7},"geometry":{"type":"Polygon","coordinates":[[[118.394,24.523],[118.423,24.528],[118.45,24.506],[118.467,24.462],[118.463,24.432],[118.449,24.416],[118.423,24.43],[118.404,24.436],[118.373,24.433],[118.346,24.418],[118.331,24.396],[118.318,24.391],[118.303,24.397],[118.293,24.398],[118.284,24.401],[118.28,24.408],[118.281,24.411],[118.289,24.421],[118.292,24.425],[118.293,24.432],[118.292,24.441],[118.29,24.456],[118.283,24.47],[118.282,24.477],[118.288,24.48],[118.317,24.493],[118.355,24.471],[118.381,24.474],[118.385,24.504],[118.394,24.523]]]}},{"type":"Feature","id":"TW-MIA","properties":{"id":"TW-MIA","countryCode":"TW","isoSubdivision":"TW-MIA","name":"Miaoli","name_en":"Miaoli","name_ko":"먀오리현","type":"County","labelLongitude":120.942,"labelLatitude":24.525,"minZoom":8.7},"geometry":{"type":"Polygon","coordinates":[[[120.621,24.456],[120.649,24.484],[120.656,24.498],[120.659,24.521],[120.668,24.54],[120.69,24.576],[120.696,24.598],[120.702,24.607],[120.728,24.614],[120.735,24.621],[120.739,24.63],[120.745,24.639],[120.761,24.654],[120.778,24.666],[120.799,24.671],[120.827,24.666],[120.823,24.685],[120.833,24.698],[120.848,24.711],[120.855,24.731],[120.858,24.737],[120.871,24.743],[120.873,24.748],[120.899,24.738],[120.915,24.73],[120.925,24.716],[120.942,24.71],[120.96,24.714],[120.96,24.715],[120.977,24.677],[120.992,24.661],[121.015,24.646],[121.061,24.626],[121.076,24.614],[121.079,24.596],[121.077,24.583],[121.074,24.571],[121.07,24.56],[121.074,24.55],[121.078,24.536],[121.073,24.52],[121.07,24.503],[121.085,24.499],[121.114,24.507],[121.14,24.508],[121.158,24.506],[121.206,24.517],[121.225,24.504],[121.23,24.488],[121.243,24.477],[121.26,24.45],[121.263,24.433],[121.248,24.424],[121.242,24.405],[121.223,24.398],[121.203,24.398],[121.187,24.388],[121.169,24.373],[121.147,24.361],[121.103,24.329],[121.077,24.32],[121.043,24.303],[121.022,24.311],[121.003,24.33],[120.981,24.338],[120.943,24.341],[120.922,24.329],[120.919,24.304],[120.899,24.294],[120.853,24.292],[120.809,24.315],[120.784,24.319],[120.756,24.332],[120.698,24.37],[120.674,24.389],[120.656,24.407],[120.621,24.456]]]}},{"type":"Feature","id":"TW-NAN","properties":{"id":"TW-NAN","countryCode":"TW","isoSubdivision":"TW-NAN","name":"Nantou","name_en":"Nantou","name_ko":"난터우현","type":"County","labelLongitude":120.988,"labelLatitude":23.798,"minZoom":8.7},"geometry":{"type":"Polygon","coordinates":[[[121.275,24.243],[121.293,24.24],[121.343,24.235],[121.349,24.214],[121.35,24.201],[121.33,24.193],[121.305,24.185],[121.291,24.175],[121.292,24.141],[121.302,24.13],[121.322,24.118],[121.328,24.102],[121.327,24.089],[121.296,24.053],[121.277,24.016],[121.268,23.989],[121.276,23.978],[121.283,23.962],[121.28,23.936],[121.274,23.901],[121.263,23.871],[121.248,23.841],[121.238,23.817],[121.238,23.804],[121.216,23.771],[121.224,23.757],[121.236,23.743],[121.241,23.724],[121.244,23.699],[121.24,23.67],[121.227,23.626],[121.221,23.609],[121.204,23.597],[121.175,23.588],[121.16,23.57],[121.155,23.54],[121.135,23.524],[121.107,23.523],[121.079,23.517],[121.059,23.504],[121.053,23.489],[121.047,23.48],[121.054,23.459],[121.042,23.449],[121.019,23.437],[121.017,23.444],[121.001,23.464],[120.979,23.472],[120.962,23.475],[120.959,23.476],[120.861,23.477],[120.832,23.482],[120.828,23.495],[120.827,23.515],[120.817,23.538],[120.812,23.555],[120.823,23.573],[120.825,23.591],[120.805,23.601],[120.789,23.605],[120.764,23.614],[120.741,23.616],[120.731,23.629],[120.699,23.626],[120.673,23.618],[120.651,23.627],[120.636,23.644],[120.64,23.664],[120.647,23.682],[120.643,23.708],[120.647,23.733],[120.655,23.75],[120.647,23.775],[120.656,23.78],[120.666,23.788],[120.681,23.794],[120.684,23.806],[120.663,23.816],[120.648,23.821],[120.634,23.832],[120.627,23.854],[120.63,23.901],[120.634,23.924],[120.635,23.944],[120.641,23.962],[120.649,23.978],[120.646,23.992],[120.651,24.002],[120.667,24.008],[120.667,24.02],[120.683,24.02],[120.752,24.011],[120.768,24.013],[120.787,24.03],[120.815,24.08],[120.829,24.109],[120.854,24.12],[120.892,24.114],[120.915,24.115],[120.937,24.142],[120.948,24.149],[120.983,24.126],[120.996,24.129],[121.006,24.148],[121.024,24.161],[121.049,24.161],[121.068,24.167],[121.098,24.194],[121.117,24.204],[121.134,24.207],[121.168,24.223],[121.191,24.224],[121.215,24.227],[121.257,24.242],[121.275,24.243]]]}},{"type":"Feature","id":"TW-PEN","properties":{"id":"TW-PEN","countryCode":"TW","isoSubdivision":"TW-PEN","name":"Penghu","name_en":"Penghu","name_ko":"펑후현","type":"County","labelLongitude":119.597,"labelLatitude":23.572,"minZoom":8.7},"geometry":{"type":"MultiPolygon","coordinates":[[[[119.648,23.603],[119.666,23.573],[119.671,23.559],[119.668,23.549],[119.661,23.556],[119.651,23.562],[119.641,23.564],[119.626,23.556],[119.615,23.555],[119.61,23.552],[119.607,23.547],[119.603,23.533],[119.6,23.528],[119.582,23.519],[119.564,23.517],[119.546,23.523],[119.527,23.54],[119.532,23.549],[119.542,23.538],[119.557,23.535],[119.574,23.539],[119.587,23.549],[119.578,23.552],[119.571,23.556],[119.565,23.562],[119.559,23.569],[119.557,23.566],[119.557,23.565],[119.556,23.564],[119.552,23.562],[119.552,23.576],[119.552,23.59],[119.559,23.59],[119.567,23.589],[119.595,23.605],[119.613,23.61],[119.608,23.595],[119.606,23.59],[119.622,23.595],[119.633,23.593],[119.642,23.594],[119.648,23.603]]],[[[119.477,23.603],[119.489,23.64],[119.501,23.65],[119.517,23.638],[119.508,23.632],[119.501,23.62],[119.491,23.59],[119.49,23.582],[119.493,23.576],[119.492,23.571],[119.48,23.569],[119.472,23.569],[119.466,23.568],[119.461,23.566],[119.457,23.562],[119.442,23.562],[119.445,23.57],[119.449,23.574],[119.457,23.576],[119.466,23.577],[119.474,23.58],[119.477,23.587],[119.477,23.603]]],[[[119.573,23.628],[119.569,23.64],[119.562,23.65],[119.545,23.665],[119.566,23.679],[119.579,23.673],[119.591,23.664],[119.596,23.653],[119.587,23.645],[119.591,23.633],[119.585,23.625],[119.577,23.623],[119.573,23.628]]]]}},{"type":"Feature","id":"TW-PIF","properties":{"id":"TW-PIF","countryCode":"TW","isoSubdivision":"TW-PIF","name":"Pingtung","name_en":"Pingtung","name_ko":"핑둥현","type":"County","labelLongitude":120.661,"labelLatitude":22.534,"minZoom":8.7},"geometry":{"type":"Polygon","coordinates":[[[120.876,22.238],[120.879,22.056],[120.873,22.03],[120.864,22.009],[120.851,22],[120.836,21.987],[120.836,21.958],[120.842,21.925],[120.84,21.905],[120.823,21.929],[120.797,21.947],[120.767,21.959],[120.737,21.966],[120.736,21.943],[120.727,21.934],[120.714,21.937],[120.7,21.948],[120.7,21.957],[120.704,21.981],[120.683,22.014],[120.682,22.023],[120.682,22.03],[120.683,22.041],[120.683,22.079],[120.686,22.09],[120.695,22.103],[120.697,22.113],[120.621,22.295],[120.615,22.305],[120.594,22.329],[120.577,22.364],[120.57,22.374],[120.539,22.396],[120.526,22.403],[120.522,22.404],[120.518,22.407],[120.514,22.42],[120.512,22.425],[120.495,22.435],[120.457,22.452],[120.44,22.463],[120.422,22.477],[120.413,22.482],[120.412,22.483],[120.443,22.555],[120.441,22.584],[120.431,22.61],[120.431,22.635],[120.453,22.709],[120.453,22.743],[120.451,22.767],[120.461,22.795],[120.466,22.82],[120.473,22.837],[120.541,22.833],[120.571,22.843],[120.595,22.868],[120.631,22.884],[120.681,22.861],[120.706,22.881],[120.733,22.888],[120.762,22.857],[120.784,22.837],[120.817,22.861],[120.833,22.862],[120.853,22.858],[120.866,22.835],[120.869,22.818],[120.89,22.814],[120.911,22.801],[120.9,22.752],[120.899,22.734],[120.892,22.717],[120.855,22.702],[120.837,22.693],[120.807,22.687],[120.787,22.671],[120.778,22.648],[120.764,22.625],[120.752,22.599],[120.749,22.547],[120.754,22.524],[120.762,22.503],[120.765,22.478],[120.765,22.459],[120.775,22.442],[120.793,22.422],[120.784,22.409],[120.763,22.397],[120.756,22.384],[120.753,22.368],[120.764,22.354],[120.777,22.348],[120.789,22.332],[120.788,22.312],[120.79,22.291],[120.803,22.27],[120.82,22.253],[120.859,22.237],[120.876,22.238]]]}},{"type":"Feature","id":"TW-TAO","properties":{"id":"TW-TAO","countryCode":"TW","isoSubdivision":"TW-TAO","name":"Taoyuan","name_en":"Taoyuan","name_ko":"타오위안시","type":"County","labelLongitude":121.227,"labelLatitude":24.961,"minZoom":8.7},"geometry":{"type":"Polygon","coordinates":[[[120.972,24.952],[121.006,25.001],[121.032,25.029],[121.059,25.05],[121.129,25.071],[121.146,25.08],[121.16,25.092],[121.177,25.1],[121.211,25.111],[121.287,25.124],[121.304,25.108],[121.327,25.097],[121.345,25.087],[121.358,25.077],[121.373,25.074],[121.389,25.066],[121.409,25.04],[121.41,25.026],[121.407,25.012],[121.394,25],[121.344,24.987],[121.33,24.973],[121.331,24.951],[121.327,24.931],[121.331,24.914],[121.351,24.896],[121.355,24.879],[121.35,24.855],[121.37,24.845],[121.398,24.847],[121.417,24.84],[121.449,24.797],[121.444,24.779],[121.432,24.766],[121.435,24.748],[121.44,24.729],[121.474,24.7],[121.483,24.681],[121.472,24.678],[121.451,24.665],[121.463,24.622],[121.455,24.608],[121.441,24.604],[121.429,24.606],[121.414,24.601],[121.412,24.595],[121.394,24.603],[121.366,24.617],[121.351,24.627],[121.33,24.63],[121.306,24.643],[121.287,24.657],[121.285,24.672],[121.302,24.694],[121.31,24.721],[121.304,24.746],[121.302,24.764],[121.289,24.773],[121.273,24.78],[121.263,24.796],[121.25,24.808],[121.235,24.807],[121.221,24.809],[121.209,24.82],[121.193,24.831],[121.168,24.838],[121.155,24.851],[121.159,24.871],[121.145,24.885],[121.119,24.893],[121.104,24.9],[121.087,24.904],[121.068,24.911],[121.053,24.941],[121.036,24.951],[120.984,24.948],[120.972,24.952]]]}},{"type":"Feature","id":"TW-TNN","properties":{"id":"TW-TNN","countryCode":"TW","isoSubdivision":"TW-TNN","name":"Tainan","name_en":"Tainan","name_ko":"타이난시","type":"Special Municipality","labelLongitude":120.182,"labelLatitude":23.046,"minZoom":8.7},"geometry":{"type":"Polygon","coordinates":[[[120.167,22.932],[120.164,22.954],[120.157,22.967],[120.142,22.98],[120.16,22.992],[120.17,23.013],[120.166,23.032],[120.142,23.035],[120.137,23.028],[120.133,23.017],[120.127,23.007],[120.114,23.008],[120.109,23.015],[120.111,23.04],[120.108,23.049],[120.092,23.055],[120.084,23.048],[120.077,23.037],[120.066,23.035],[120.055,23.044],[120.052,23.056],[120.055,23.068],[120.059,23.076],[120.071,23.081],[120.085,23.083],[120.096,23.086],[120.1,23.097],[120.095,23.102],[120.059,23.111],[120.059,23.117],[120.089,23.118],[120.086,23.127],[120.07,23.14],[120.059,23.151],[120.062,23.165],[120.072,23.17],[120.082,23.173],[120.087,23.182],[120.084,23.196],[120.079,23.207],[120.082,23.217],[120.087,23.23],[120.096,23.239],[120.094,23.248],[120.096,23.255],[120.109,23.287],[120.115,23.293],[120.125,23.295],[120.11,23.304],[120.117,23.318],[120.136,23.311],[120.17,23.306],[120.198,23.3],[120.221,23.31],[120.231,23.327],[120.253,23.34],[120.278,23.357],[120.296,23.374],[120.319,23.39],[120.349,23.402],[120.407,23.412],[120.439,23.414],[120.466,23.406],[120.481,23.397],[120.489,23.383],[120.496,23.365],[120.534,23.329],[120.537,23.303],[120.531,23.254],[120.537,23.238],[120.554,23.225],[120.568,23.225],[120.589,23.234],[120.608,23.236],[120.622,23.232],[120.653,23.229],[120.645,23.206],[120.605,23.153],[120.567,23.093],[120.542,23.064],[120.514,23.039],[120.49,23.02],[120.466,22.997],[120.446,22.973],[120.435,22.954],[120.426,22.935],[120.402,22.919],[120.377,22.91],[120.364,22.901],[120.348,22.896],[120.316,22.9],[120.284,22.897],[120.225,22.904],[120.207,22.913],[120.191,22.943],[120.191,22.945],[120.167,22.932]]]}},{"type":"Feature","id":"TW-TPE","properties":{"id":"TW-TPE","countryCode":"TW","isoSubdivision":"TW-TPE","name":"Taipei","name_en":"Taipei","name_ko":"타이베이시","type":"Special Municipality","labelLongitude":121.559,"labelLatitude":25.09,"minZoom":8.7},"geometry":{"type":"Polygon","coordinates":[[[121.564,25.206],[121.579,25.202],[121.587,25.194],[121.585,25.182],[121.586,25.17],[121.592,25.159],[121.599,25.146],[121.608,25.112],[121.623,25.1],[121.629,25.085],[121.623,25.062],[121.624,25.044],[121.641,25.035],[121.655,25.024],[121.648,25.01],[121.619,24.977],[121.603,24.971],[121.581,24.971],[121.562,24.975],[121.548,24.986],[121.534,25.001],[121.512,25.016],[121.497,25.039],[121.503,25.065],[121.498,25.087],[121.477,25.106],[121.462,25.12],[121.468,25.13],[121.475,25.139],[121.483,25.154],[121.497,25.168],[121.538,25.19],[121.549,25.199],[121.564,25.206]]]}},{"type":"Feature","id":"TW-TPQ","properties":{"id":"TW-TPQ","countryCode":"TW","isoSubdivision":"TW-TPQ","name":"New Taipei","name_en":"New Taipei","name_ko":"신베이시","type":"Special Municipality","labelLongitude":121.646,"labelLatitude":24.911,"minZoom":8.7},"geometry":{"type":"Polygon","coordinates":[[[121.761,25.143],[121.893,25.114],[121.905,25.107],[121.899,25.094],[121.897,25.084],[121.9,25.066],[121.909,25.036],[121.919,25.022],[121.927,25.019],[121.954,25.022],[121.968,25.021],[121.984,25.017],[121.998,25.011],[122.005,25.002],[121.972,24.987],[121.969,24.991],[121.957,24.997],[121.934,24.993],[121.902,24.978],[121.888,24.969],[121.846,24.961],[121.84,24.951],[121.85,24.939],[121.844,24.926],[121.826,24.916],[121.813,24.912],[121.799,24.905],[121.786,24.891],[121.775,24.873],[121.755,24.861],[121.732,24.854],[121.681,24.826],[121.631,24.808],[121.617,24.8],[121.599,24.786],[121.591,24.769],[121.592,24.755],[121.596,24.744],[121.597,24.737],[121.582,24.727],[121.557,24.716],[121.538,24.704],[121.524,24.693],[121.505,24.687],[121.483,24.681],[121.474,24.7],[121.44,24.729],[121.435,24.748],[121.432,24.766],[121.444,24.779],[121.449,24.797],[121.417,24.84],[121.398,24.847],[121.37,24.845],[121.35,24.855],[121.355,24.879],[121.351,24.896],[121.331,24.914],[121.327,24.931],[121.331,24.951],[121.33,24.973],[121.344,24.987],[121.394,25],[121.407,25.012],[121.41,25.026],[121.409,25.04],[121.389,25.066],[121.373,25.074],[121.358,25.077],[121.345,25.087],[121.327,25.097],[121.304,25.108],[121.287,25.124],[121.33,25.131],[121.348,25.137],[121.372,25.155],[121.379,25.158],[121.387,25.159],[121.399,25.159],[121.412,25.155],[121.419,25.146],[121.424,25.137],[121.43,25.132],[121.443,25.136],[121.429,25.156],[121.407,25.176],[121.396,25.183],[121.399,25.192],[121.406,25.197],[121.413,25.2],[121.416,25.204],[121.424,25.221],[121.436,25.241],[121.461,25.262],[121.498,25.279],[121.54,25.287],[121.581,25.283],[121.598,25.271],[121.636,25.223],[121.65,25.197],[121.654,25.199],[121.664,25.201],[121.676,25.203],[121.684,25.201],[121.684,25.197],[121.68,25.193],[121.676,25.187],[121.676,25.179],[121.681,25.175],[121.689,25.169],[121.673,25.159],[121.645,25.149],[121.633,25.141],[121.635,25.131],[121.646,25.119],[121.653,25.106],[121.664,25.094],[121.677,25.082],[121.689,25.075],[121.729,25.06],[121.749,25.058],[121.764,25.063],[121.773,25.069],[121.775,25.078],[121.761,25.091],[121.76,25.101],[121.761,25.143]],[[121.603,24.971],[121.619,24.977],[121.648,25.01],[121.655,25.024],[121.641,25.035],[121.624,25.044],[121.623,25.062],[121.629,25.085],[121.623,25.1],[121.608,25.112],[121.599,25.146],[121.592,25.159],[121.586,25.17],[121.585,25.182],[121.587,25.194],[121.579,25.202],[121.564,25.206],[121.549,25.199],[121.538,25.19],[121.497,25.168],[121.483,25.154],[121.475,25.139],[121.468,25.13],[121.462,25.12],[121.477,25.106],[121.498,25.087],[121.503,25.065],[121.497,25.039],[121.512,25.016],[121.534,25.001],[121.548,24.986],[121.562,24.975],[121.581,24.971],[121.603,24.971]]]}},{"type":"Feature","id":"TW-TTT","properties":{"id":"TW-TTT","countryCode":"TW","isoSubdivision":"TW-TTT","name":"Taitung","name_en":"Taitung","name_ko":"타이둥현","type":"County","labelLongitude":121.54,"labelLatitude":22.05,"minZoom":8.7},"geometry":{"type":"MultiPolygon","coordinates":[[[[121.48,23.435],[121.462,23.343],[121.454,23.326],[121.427,23.293],[121.417,23.276],[121.409,23.255],[121.403,23.215],[121.404,23.179],[121.4,23.145],[121.382,23.111],[121.374,23.103],[121.355,23.091],[121.347,23.083],[121.343,23.075],[121.337,23.055],[121.319,23.026],[121.308,22.98],[121.3,22.959],[121.261,22.907],[121.256,22.898],[121.203,22.857],[121.19,22.843],[121.188,22.834],[121.191,22.812],[121.19,22.802],[121.186,22.791],[121.177,22.779],[121.159,22.757],[121.141,22.742],[121.08,22.704],[121.039,22.662],[121.029,22.658],[121.021,22.648],[121.001,22.601],[120.991,22.583],[120.961,22.548],[120.948,22.527],[120.941,22.484],[120.923,22.425],[120.887,22.366],[120.881,22.346],[120.875,22.289],[120.876,22.238],[120.859,22.237],[120.82,22.253],[120.803,22.27],[120.79,22.291],[120.788,22.312],[120.789,22.332],[120.777,22.348],[120.764,22.354],[120.753,22.368],[120.756,22.384],[120.763,22.397],[120.784,22.409],[120.793,22.422],[120.775,22.442],[120.765,22.459],[120.765,22.478],[120.762,22.503],[120.754,22.524],[120.749,22.547],[120.752,22.599],[120.764,22.625],[120.778,22.648],[120.787,22.671],[120.807,22.687],[120.837,22.693],[120.855,22.702],[120.892,22.717],[120.899,22.734],[120.9,22.752],[120.911,22.801],[120.89,22.814],[120.869,22.818],[120.866,22.835],[120.853,22.858],[120.868,22.86],[120.863,22.877],[120.84,22.9],[120.829,22.916],[120.823,22.944],[120.832,22.978],[120.865,23.004],[120.881,23.024],[120.881,23.064],[120.893,23.11],[120.885,23.144],[120.888,23.168],[120.916,23.182],[120.926,23.2],[120.918,23.22],[120.921,23.24],[120.95,23.258],[120.966,23.272],[120.99,23.286],[121.05,23.299],[121.054,23.274],[121.073,23.245],[121.103,23.235],[121.126,23.225],[121.145,23.209],[121.169,23.206],[121.19,23.2],[121.225,23.144],[121.27,23.11],[121.301,23.106],[121.326,23.119],[121.329,23.141],[121.329,23.165],[121.341,23.186],[121.359,23.232],[121.373,23.259],[121.382,23.288],[121.393,23.311],[121.405,23.33],[121.419,23.354],[121.417,23.378],[121.411,23.402],[121.425,23.421],[121.466,23.439],[121.48,23.435]]],[[[121.563,22.045],[121.581,22.032],[121.589,22.024],[121.588,22.014],[121.567,22.008],[121.539,22.018],[121.513,22.035],[121.498,22.048],[121.503,22.058],[121.503,22.067],[121.499,22.075],[121.492,22.082],[121.567,22.082],[121.567,22.076],[121.565,22.072],[121.561,22.064],[121.56,22.054],[121.563,22.045]]],[[[121.461,22.659],[121.455,22.674],[121.458,22.676],[121.496,22.679],[121.5,22.676],[121.503,22.67],[121.5,22.656],[121.496,22.65],[121.495,22.644],[121.496,22.638],[121.496,22.635],[121.493,22.635],[121.487,22.635],[121.483,22.636],[121.481,22.638],[121.471,22.642],[121.461,22.659]]]]}},{"type":"Feature","id":"TW-TXG","properties":{"id":"TW-TXG","countryCode":"TW","isoSubdivision":"TW-TXG","name":"Taichung City","name_en":"Taichung City","name_ko":"타이중 시티","type":"Special Municipality","labelLongitude":120.966,"labelLatitude":24.238,"minZoom":8.7},"geometry":{"type":"Polygon","coordinates":[[[120.475,24.207],[120.478,24.21],[120.481,24.221],[120.493,24.231],[120.502,24.253],[120.512,24.296],[120.547,24.352],[120.558,24.386],[120.571,24.405],[120.621,24.456],[120.656,24.407],[120.674,24.389],[120.698,24.37],[120.756,24.332],[120.784,24.319],[120.809,24.315],[120.853,24.292],[120.899,24.294],[120.919,24.304],[120.922,24.329],[120.943,24.341],[120.981,24.338],[121.003,24.33],[121.022,24.311],[121.043,24.303],[121.077,24.32],[121.103,24.329],[121.147,24.361],[121.169,24.373],[121.187,24.388],[121.203,24.398],[121.223,24.398],[121.242,24.405],[121.248,24.424],[121.263,24.433],[121.265,24.435],[121.306,24.439],[121.316,24.436],[121.33,24.433],[121.328,24.413],[121.333,24.4],[121.352,24.397],[121.369,24.388],[121.383,24.379],[121.398,24.381],[121.416,24.389],[121.435,24.389],[121.457,24.373],[121.439,24.356],[121.437,24.341],[121.428,24.32],[121.4,24.304],[121.388,24.286],[121.383,24.269],[121.372,24.256],[121.359,24.249],[121.354,24.242],[121.343,24.235],[121.293,24.24],[121.275,24.243],[121.257,24.242],[121.215,24.227],[121.191,24.224],[121.168,24.223],[121.134,24.207],[121.117,24.204],[121.098,24.194],[121.068,24.167],[121.049,24.161],[121.024,24.161],[121.006,24.148],[120.996,24.129],[120.983,24.126],[120.948,24.149],[120.937,24.142],[120.915,24.115],[120.892,24.114],[120.854,24.12],[120.829,24.109],[120.815,24.08],[120.787,24.03],[120.768,24.013],[120.752,24.011],[120.683,24.02],[120.667,24.02],[120.667,24.025],[120.646,24.037],[120.63,24.04],[120.625,24.052],[120.625,24.065],[120.618,24.079],[120.605,24.097],[120.589,24.109],[120.544,24.121],[120.527,24.14],[120.523,24.166],[120.513,24.188],[120.498,24.2],[120.475,24.207]]]}},{"type":"Feature","id":"TW-YUN","properties":{"id":"TW-YUN","countryCode":"TW","isoSubdivision":"TW-YUN","name":"Yunlin","name_en":"Yunlin","name_ko":"윈린현","type":"County","labelLongitude":120.427,"labelLatitude":23.725,"minZoom":8.7},"geometry":{"type":"Polygon","coordinates":[[[120.124,23.52],[120.142,23.538],[120.141,23.595],[120.144,23.638],[120.154,23.672],[120.171,23.699],[120.176,23.734],[120.184,23.764],[120.189,23.775],[120.213,23.803],[120.217,23.813],[120.219,23.818],[120.241,23.833],[120.244,23.838],[120.273,23.823],[120.356,23.832],[120.385,23.831],[120.411,23.825],[120.455,23.809],[120.53,23.801],[120.576,23.78],[120.598,23.781],[120.644,23.772],[120.647,23.775],[120.655,23.75],[120.647,23.733],[120.643,23.708],[120.647,23.682],[120.64,23.664],[120.636,23.644],[120.651,23.627],[120.673,23.618],[120.699,23.626],[120.731,23.629],[120.741,23.616],[120.739,23.616],[120.737,23.599],[120.737,23.587],[120.722,23.583],[120.678,23.574],[120.654,23.572],[120.645,23.586],[120.627,23.597],[120.595,23.589],[120.581,23.587],[120.533,23.603],[120.514,23.624],[120.494,23.64],[120.468,23.639],[120.42,23.631],[120.393,23.624],[120.331,23.591],[120.316,23.578],[120.299,23.569],[120.273,23.55],[120.252,23.547],[120.245,23.536],[120.238,23.519],[120.223,23.508],[120.2,23.508],[120.169,23.525],[120.128,23.521],[120.128,23.52],[120.124,23.52]]]}}]}
