{"type":"FeatureCollection","features":[{"type":"Feature","id":"TZ-01","properties":{"id":"TZ-01","countryCode":"TZ","isoSubdivision":"TZ-01","name":"Arusha","name_en":"Arusha","name_ko":"아루샤","type":"Region","labelLongitude":36.087,"labelLatitude":-3.026,"minZoom":6.7},"geometry":{"type":"Polygon","coordinates":[[[35.246,-1.707],[35.416,-1.801],[35.63,-1.921],[35.845,-2.041],[36.06,-2.161],[36.274,-2.281],[36.489,-2.401],[36.704,-2.52],[36.918,-2.64],[37.133,-2.76],[37.348,-2.88],[37.424,-2.923],[37.38,-2.913],[37.297,-2.878],[37.264,-2.859],[37.228,-2.855],[37.209,-2.862],[37.191,-2.856],[37.141,-2.857],[37.094,-2.888],[37.035,-2.937],[37.009,-2.963],[36.976,-2.978],[36.909,-2.997],[36.886,-3.063],[36.888,-3.111],[36.897,-3.158],[36.921,-3.181],[36.953,-3.195],[37.023,-3.241],[37.06,-3.31],[37.062,-3.491],[37.028,-3.504],[36.996,-3.525],[36.977,-3.552],[36.954,-3.572],[36.879,-3.573],[36.853,-3.602],[36.828,-3.635],[36.798,-3.642],[36.779,-3.609],[36.761,-3.596],[36.742,-3.591],[36.669,-3.595],[36.662,-3.603],[36.662,-3.613],[36.655,-3.63],[36.635,-3.636],[36.615,-3.654],[36.595,-3.658],[36.577,-3.665],[36.517,-3.744],[36.501,-3.784],[36.51,-3.899],[36.532,-4.025],[36.531,-4.082],[36.516,-4.089],[36.5,-4.083],[36.472,-4.082],[36.444,-4.09],[36.397,-4.094],[36.352,-4.103],[36.343,-4.124],[36.296,-4.129],[36.247,-4.109],[36.021,-3.781],[35.973,-3.692],[35.94,-3.645],[35.882,-3.664],[35.834,-3.728],[35.798,-3.759],[35.772,-3.793],[35.769,-3.823],[35.748,-3.829],[35.727,-3.76],[35.734,-3.687],[35.758,-3.615],[35.745,-3.568],[35.719,-3.564],[35.713,-3.634],[35.695,-3.67],[35.577,-3.701],[35.58,-3.74],[35.562,-3.766],[35.517,-3.76],[35.487,-3.729],[35.506,-3.695],[35.532,-3.666],[35.501,-3.653],[35.46,-3.645],[35.422,-3.624],[35.379,-3.624],[35.313,-3.691],[35.273,-3.706],[35.238,-3.73],[35.21,-3.739],[35.18,-3.738],[35.084,-3.797],[35.075,-3.809],[35.072,-3.824],[35.058,-3.839],[34.999,-3.857],[34.965,-3.875],[34.927,-3.891],[34.892,-3.909],[34.824,-3.859],[34.76,-3.802],[34.749,-3.763],[34.753,-3.723],[34.78,-3.685],[34.814,-3.654],[34.82,-3.64],[34.822,-3.625],[34.842,-3.616],[34.865,-3.623],[34.892,-3.597],[34.901,-2.883],[34.936,-2.888],[34.974,-2.919],[34.997,-2.955],[35.036,-2.968],[35.053,-2.957],[35.068,-2.944],[35.123,-2.92],[35.15,-2.869],[35.216,-2.584],[35.208,-2.487],[35.249,-2.37],[35.273,-2.359],[35.301,-2.35],[35.327,-2.296],[35.341,-2.237],[35.327,-2.187],[35.271,-2.17],[35.233,-2.146],[35.225,-2.101],[35.246,-1.707]]]}},{"type":"Feature","id":"TZ-02","properties":{"id":"TZ-02","countryCode":"TZ","isoSubdivision":"TZ-02","name":"Dar es Salaam","name_en":"Dar es Salaam","name_ko":"다르에스살람","type":"Region","labelLongitude":39.286,"labelLatitude":-6.893,"minZoom":6.7},"geometry":{"type":"Polygon","coordinates":[[[39.129,-6.562],[39.156,-6.581],[39.163,-6.589],[39.178,-6.615],[39.187,-6.624],[39.204,-6.634],[39.213,-6.642],[39.219,-6.653],[39.223,-6.666],[39.225,-6.679],[39.231,-6.704],[39.246,-6.731],[39.264,-6.744],[39.28,-6.727],[39.284,-6.756],[39.28,-6.795],[39.28,-6.83],[39.3,-6.849],[39.3,-6.831],[39.298,-6.823],[39.294,-6.815],[39.312,-6.816],[39.327,-6.822],[39.355,-6.839],[39.37,-6.843],[39.401,-6.846],[39.413,-6.853],[39.428,-6.858],[39.465,-6.858],[39.472,-6.863],[39.476,-6.877],[39.494,-6.901],[39.503,-6.931],[39.551,-6.994],[39.554,-7.001],[39.553,-7.01],[39.548,-7.017],[39.542,-7.022],[39.54,-7.028],[39.549,-7.092],[39.548,-7.118],[39.533,-7.117],[39.522,-7.13],[39.515,-7.157],[39.509,-7.168],[39.498,-7.177],[39.488,-7.177],[39.481,-7.168],[39.478,-7.151],[39.436,-7.18],[39.435,-7.182],[39.434,-7.181],[39.423,-7.166],[39.409,-7.17],[39.408,-7.028],[39.386,-6.992],[39.358,-6.96],[39.332,-6.953],[39.307,-6.949],[39.293,-6.951],[39.28,-6.95],[39.246,-6.954],[39.223,-6.987],[39.208,-6.988],[39.193,-6.986],[39.184,-7.003],[39.169,-7.016],[39.151,-7.01],[39.136,-7.003],[39.115,-7.019],[39.102,-7.041],[39.079,-7.056],[39.058,-7.037],[39.039,-7.043],[39.027,-7.033],[39.039,-7.009],[39.057,-6.988],[39.062,-6.964],[39.074,-6.943],[39.094,-6.931],[39.105,-6.912],[39.096,-6.891],[39.091,-6.871],[39.062,-6.853],[39.055,-6.819],[39.054,-6.8],[39.042,-6.789],[39.018,-6.787],[39.02,-6.773],[39.048,-6.737],[39.061,-6.693],[39.066,-6.645],[39.084,-6.601],[39.103,-6.585],[39.12,-6.566],[39.129,-6.562]]]}},{"type":"Feature","id":"TZ-03","properties":{"id":"TZ-03","countryCode":"TZ","isoSubdivision":"TZ-03","name":"Dodoma","name_en":"Dodoma","name_ko":"도도마","type":"Region","labelLongitude":35.961,"labelLatitude":-5.732,"minZoom":6.7},"geometry":{"type":"Polygon","coordinates":[[[36.862,-6.002],[36.832,-6.051],[36.83,-6.108],[36.858,-6.343],[36.803,-6.425],[36.762,-6.445],[36.738,-6.543],[36.717,-6.593],[36.711,-6.614],[36.699,-6.632],[36.685,-6.63],[36.671,-6.626],[36.668,-6.642],[36.679,-6.658],[36.68,-6.683],[36.664,-6.705],[36.641,-6.779],[36.646,-6.959],[36.641,-7.003],[36.559,-7.054],[36.516,-7.143],[36.504,-7.188],[36.51,-7.237],[36.522,-7.286],[36.515,-7.332],[36.478,-7.37],[36.472,-7.346],[36.466,-7.332],[36.449,-7.321],[36.425,-7.316],[36.379,-7.317],[36.352,-7.325],[36.339,-7.327],[36.326,-7.321],[36.322,-7.313],[36.32,-7.293],[36.316,-7.285],[36.31,-7.278],[36.299,-7.255],[36.291,-7.247],[36.276,-7.238],[36.271,-7.234],[36.262,-7.213],[36.255,-7.191],[36.243,-7.172],[36.22,-7.165],[36.2,-7.162],[36.11,-7.126],[36.096,-7.124],[36.075,-7.126],[36.063,-7.125],[36.055,-7.121],[36.041,-7.117],[35.983,-7.131],[35.962,-7.127],[35.922,-7.113],[35.905,-7.11],[35.89,-7.104],[35.872,-7.092],[35.862,-7.09],[35.774,-7.068],[35.742,-7.07],[35.707,-7.068],[35.635,-7.028],[35.587,-7.011],[35.539,-7.006],[35.525,-6.997],[35.525,-6.981],[35.512,-6.961],[35.49,-6.949],[35.443,-6.933],[35.395,-6.929],[35.362,-6.935],[35.328,-6.935],[35.299,-6.942],[35.279,-6.963],[35.178,-6.979],[35.081,-6.92],[35.076,-6.814],[35.06,-6.721],[35.186,-6.715],[35.214,-6.649],[35.196,-6.477],[35.206,-6.387],[35.223,-6.356],[35.223,-6.32],[35.214,-6.28],[35.194,-6.245],[35.185,-6.158],[35.207,-6.068],[35.211,-5.952],[35.246,-5.869],[35.272,-5.831],[35.282,-5.793],[35.287,-5.753],[35.318,-5.725],[35.339,-5.7],[35.327,-5.671],[35.294,-5.635],[35.269,-5.594],[35.267,-5.575],[35.262,-5.558],[35.253,-5.556],[35.246,-5.55],[35.235,-5.537],[35.22,-5.528],[35.202,-5.499],[35.19,-5.467],[35.163,-5.438],[35.14,-5.405],[35.124,-5.337],[35.106,-5.298],[35.093,-5.257],[35.094,-5.22],[35.091,-5.183],[35.07,-5.149],[35.076,-5.116],[35.319,-4.949],[35.328,-4.923],[35.345,-4.89],[35.341,-4.854],[35.354,-4.856],[35.367,-4.862],[35.458,-4.87],[35.51,-4.862],[35.532,-4.826],[35.601,-4.687],[35.652,-4.607],[35.661,-4.568],[35.644,-4.533],[35.638,-4.517],[35.636,-4.5],[35.641,-4.483],[35.65,-4.477],[35.672,-4.486],[35.751,-4.432],[35.794,-4.391],[35.804,-4.374],[35.82,-4.362],[35.838,-4.37],[35.855,-4.379],[35.879,-4.367],[35.903,-4.35],[35.953,-4.351],[35.983,-4.301],[35.995,-4.292],[36.019,-4.278],[36.049,-4.255],[36.299,-4.185],[36.306,-4.481],[36.316,-4.538],[36.332,-4.592],[36.355,-4.643],[36.361,-4.676],[36.349,-4.879],[36.312,-5.12],[36.291,-5.19],[36.259,-5.239],[36.237,-5.293],[36.248,-5.356],[36.231,-5.412],[36.244,-5.458],[36.283,-5.498],[36.334,-5.54],[36.381,-5.586],[36.41,-5.636],[36.445,-5.681],[36.506,-5.719],[36.57,-5.749],[36.61,-5.797],[36.639,-5.856],[36.675,-5.912],[36.725,-5.956],[36.792,-5.982],[36.862,-6.002]]]}},{"type":"Feature","id":"TZ-04","properties":{"id":"TZ-04","countryCode":"TZ","isoSubdivision":"TZ-04","name":"Iringa","name_en":"Iringa","name_ko":"이링가","type":"Region","labelLongitude":35.545,"labelLatitude":-7.839,"minZoom":6.7},"geometry":{"type":"Polygon","coordinates":[[[36.478,-7.37],[36.5,-7.471],[36.517,-7.501],[36.547,-7.514],[36.56,-7.513],[36.583,-7.509],[36.596,-7.511],[36.641,-7.521],[36.662,-7.53],[36.68,-7.544],[36.689,-7.556],[36.693,-7.558],[36.716,-7.564],[36.736,-7.572],[36.762,-7.575],[36.777,-7.578],[36.784,-7.581],[36.79,-7.586],[36.793,-7.589],[36.793,-7.593],[36.79,-7.624],[36.792,-7.635],[36.799,-7.644],[36.818,-7.652],[36.833,-7.65],[36.847,-7.643],[36.861,-7.638],[36.869,-7.637],[36.919,-7.642],[36.934,-7.649],[36.937,-7.649],[36.947,-7.649],[36.968,-7.654],[36.919,-7.718],[36.847,-7.784],[36.802,-7.867],[36.766,-7.956],[36.69,-7.978],[36.602,-7.952],[36.508,-7.943],[36.42,-7.975],[36.347,-8.031],[36.316,-8.06],[36.314,-8.071],[36.313,-8.084],[36.315,-8.101],[36.32,-8.118],[36.327,-8.151],[36.309,-8.18],[36.251,-8.189],[36.219,-8.197],[36.182,-8.189],[36.094,-8.242],[36.017,-8.314],[35.948,-8.399],[35.911,-8.503],[35.84,-8.566],[35.747,-8.609],[35.717,-8.637],[35.68,-8.764],[35.682,-8.812],[35.67,-8.857],[35.648,-8.839],[35.643,-8.754],[35.627,-8.731],[35.513,-8.712],[35.421,-8.686],[35.341,-8.688],[35.336,-8.732],[35.353,-8.773],[35.354,-8.817],[35.328,-8.854],[35.33,-8.87],[35.348,-8.878],[35.357,-8.898],[35.353,-8.969],[35.365,-9.009],[35.292,-9.033],[35.198,-9.027],[35.103,-8.96],[35.114,-8.782],[34.874,-8.698],[34.874,-8.648],[34.732,-8.605],[34.744,-8.54],[34.728,-8.506],[34.707,-8.475],[34.691,-8.434],[34.712,-8.392],[34.74,-8.349],[34.777,-8.315],[34.819,-8.301],[34.854,-8.274],[34.88,-8.231],[34.916,-8.148],[34.941,-8.118],[34.996,-8.102],[35.039,-8.068],[35.064,-8.036],[35.036,-8.008],[34.991,-7.992],[34.942,-7.996],[34.916,-7.991],[34.92,-7.965],[34.91,-7.935],[34.639,-7.892],[34.596,-7.878],[34.559,-7.853],[34.411,-7.818],[34.36,-7.814],[33.895,-7.837],[33.856,-7.832],[33.842,-7.803],[33.85,-7.762],[33.869,-7.725],[33.896,-7.689],[33.919,-7.65],[33.946,-7.586],[33.966,-7.562],[33.98,-7.535],[33.964,-7.516],[33.939,-7.499],[34.026,-7.45],[34.109,-7.394],[34.14,-7.351],[34.174,-7.314],[34.22,-7.314],[34.265,-7.331],[34.311,-7.333],[34.358,-7.326],[34.378,-7.31],[34.376,-7.278],[34.426,-7.218],[34.721,-7.157],[34.758,-7.087],[34.769,-6.99],[34.806,-6.961],[34.849,-6.936],[34.866,-6.923],[34.886,-6.916],[34.904,-6.904],[34.919,-6.89],[34.958,-6.893],[34.999,-6.903],[35.041,-6.908],[35.081,-6.92],[35.178,-6.979],[35.279,-6.963],[35.299,-6.942],[35.328,-6.935],[35.362,-6.935],[35.395,-6.929],[35.443,-6.933],[35.49,-6.949],[35.512,-6.961],[35.525,-6.981],[35.525,-6.997],[35.539,-7.006],[35.587,-7.011],[35.635,-7.028],[35.707,-7.068],[35.742,-7.07],[35.774,-7.068],[35.862,-7.09],[35.872,-7.092],[35.89,-7.104],[35.905,-7.11],[35.922,-7.113],[35.962,-7.127],[35.983,-7.131],[36.041,-7.117],[36.055,-7.121],[36.063,-7.125],[36.075,-7.126],[36.096,-7.124],[36.11,-7.126],[36.2,-7.162],[36.22,-7.165],[36.243,-7.172],[36.255,-7.191],[36.262,-7.213],[36.271,-7.234],[36.276,-7.238],[36.291,-7.247],[36.299,-7.255],[36.31,-7.278],[36.316,-7.285],[36.32,-7.293],[36.322,-7.313],[36.326,-7.321],[36.339,-7.327],[36.352,-7.325],[36.379,-7.317],[36.425,-7.316],[36.449,-7.321],[36.466,-7.332],[36.472,-7.346],[36.478,-7.37]]]}},{"type":"Feature","id":"TZ-05","properties":{"id":"TZ-05","countryCode":"TZ","isoSubdivision":"TZ-05","name":"Kagera","name_en":"Kagera","name_ko":"카게라","type":"Region","labelLongitude":31.258,"labelLatitude":-1.779,"minZoom":6.7},"geometry":{"type":"Polygon","coordinates":[[[30.476,-1.161],[30.467,-1.155],[30.466,-1.149],[30.468,-1.143],[30.472,-1.138],[30.474,-1.132],[30.471,-1.118],[30.456,-1.108],[30.453,-1.097],[30.456,-1.086],[30.464,-1.075],[30.472,-1.067],[30.473,-1.066],[30.481,-1.059],[30.493,-1.06],[30.501,-1.065],[30.506,-1.071],[30.512,-1.073],[30.524,-1.072],[30.542,-1.068],[30.593,-1.063],[30.615,-1.066],[30.639,-1.073],[30.651,-1.063],[30.687,-1.025],[30.702,-1.017],[30.739,-1.005],[30.777,-0.986],[30.812,-0.995],[30.828,-1.003],[30.893,-1.003],[31.076,-1.003],[31.259,-1.003],[31.28,-1.003],[31.442,-1.003],[31.625,-1.003],[31.808,-1.003],[31.986,-1.003],[31.991,-1.003],[32.175,-1.003],[32.358,-1.003],[32.541,-1.003],[32.722,-1.003],[32.704,-1.469],[31.877,-2.148],[31.819,-2.173],[31.747,-2.18],[31.734,-2.198],[31.74,-2.227],[31.741,-2.247],[31.735,-2.266],[31.728,-2.273],[31.728,-2.283],[31.684,-2.304],[31.634,-2.356],[31.564,-2.354],[31.364,-2.266],[31.318,-2.259],[31.265,-2.276],[31.199,-2.287],[31.167,-2.28],[31.019,-2.533],[30.91,-2.586],[30.875,-2.684],[30.921,-2.733],[30.97,-2.776],[30.982,-2.839],[30.884,-2.928],[30.865,-2.954],[30.845,-2.977],[30.819,-2.99],[30.825,-2.979],[30.802,-2.978],[30.755,-2.991],[30.732,-2.993],[30.719,-2.99],[30.696,-2.975],[30.684,-2.97],[30.671,-2.971],[30.661,-2.975],[30.651,-2.977],[30.638,-2.974],[30.635,-2.97],[30.632,-2.954],[30.63,-2.948],[30.625,-2.945],[30.612,-2.939],[30.547,-2.9],[30.539,-2.899],[30.525,-2.904],[30.513,-2.914],[30.493,-2.941],[30.488,-2.944],[30.488,-2.943],[30.484,-2.931],[30.475,-2.922],[30.47,-2.914],[30.474,-2.903],[30.456,-2.898],[30.441,-2.884],[30.416,-2.852],[30.414,-2.834],[30.425,-2.812],[30.447,-2.783],[30.447,-2.757],[30.451,-2.742],[30.459,-2.729],[30.516,-2.668],[30.523,-2.649],[30.5,-2.658],[30.464,-2.674],[30.443,-2.681],[30.423,-2.681],[30.412,-2.67],[30.416,-2.646],[30.424,-2.633],[30.448,-2.611],[30.458,-2.598],[30.462,-2.587],[30.47,-2.556],[30.508,-2.463],[30.521,-2.442],[30.555,-2.401],[30.574,-2.389],[30.595,-2.392],[30.617,-2.398],[30.638,-2.397],[30.649,-2.388],[30.663,-2.361],[30.675,-2.352],[30.688,-2.35],[30.698,-2.353],[30.751,-2.379],[30.759,-2.381],[30.768,-2.379],[30.775,-2.374],[30.789,-2.371],[30.805,-2.362],[30.821,-2.355],[30.834,-2.345],[30.845,-2.327],[30.849,-2.306],[30.845,-2.238],[30.853,-2.194],[30.888,-2.083],[30.879,-2.053],[30.869,-2.039],[30.853,-2.024],[30.835,-2.015],[30.817,-2.019],[30.83,-1.961],[30.827,-1.934],[30.797,-1.929],[30.802,-1.921],[30.808,-1.915],[30.824,-1.902],[30.817,-1.884],[30.822,-1.869],[30.832,-1.854],[30.838,-1.837],[30.83,-1.797],[30.826,-1.786],[30.838,-1.759],[30.835,-1.75],[30.827,-1.736],[30.824,-1.731],[30.825,-1.72],[30.837,-1.641],[30.838,-1.615],[30.831,-1.594],[30.807,-1.603],[30.792,-1.591],[30.782,-1.568],[30.772,-1.532],[30.768,-1.525],[30.755,-1.512],[30.739,-1.489],[30.733,-1.476],[30.738,-1.471],[30.741,-1.459],[30.743,-1.433],[30.738,-1.407],[30.718,-1.395],[30.698,-1.392],[30.632,-1.368],[30.623,-1.362],[30.608,-1.348],[30.598,-1.34],[30.568,-1.328],[30.555,-1.318],[30.55,-1.302],[30.551,-1.295],[30.553,-1.289],[30.556,-1.285],[30.557,-1.282],[30.555,-1.273],[30.545,-1.261],[30.539,-1.241],[30.521,-1.211],[30.515,-1.196],[30.511,-1.17],[30.507,-1.164],[30.495,-1.155],[30.491,-1.156],[30.484,-1.16],[30.476,-1.161]]]}},{"type":"Feature","id":"TZ-06","properties":{"id":"TZ-06","countryCode":"TZ","isoSubdivision":"TZ-06","name":"North Pemba","name_en":"North Pemba","name_ko":"펨바 북부","type":"Region","labelLongitude":39.777,"labelLatitude":-5.051,"minZoom":6.7},"geometry":{"type":"Polygon","coordinates":[[[39.743,-5.162],[39.732,-5.157],[39.718,-5.171],[39.723,-5.15],[39.726,-5.144],[39.72,-5.136],[39.713,-5.131],[39.703,-5.131],[39.691,-5.137],[39.693,-5.126],[39.695,-5.122],[39.698,-5.116],[39.694,-5.104],[39.695,-5.09],[39.701,-5.079],[39.708,-5.078],[39.72,-5.084],[39.725,-5.08],[39.725,-5.072],[39.718,-5.062],[39.71,-5.057],[39.677,-5.044],[39.68,-5.035],[39.694,-5.024],[39.698,-5.013],[39.684,-5.02],[39.676,-5.002],[39.681,-4.987],[39.695,-4.983],[39.712,-4.993],[39.716,-4.977],[39.705,-4.967],[39.688,-4.959],[39.677,-4.945],[39.677,-4.934],[39.683,-4.906],[39.684,-4.89],[39.686,-4.895],[39.689,-4.9],[39.692,-4.903],[39.695,-4.903],[39.702,-4.908],[39.708,-4.917],[39.711,-4.927],[39.712,-4.931],[39.723,-4.93],[39.727,-4.922],[39.729,-4.914],[39.735,-4.91],[39.74,-4.914],[39.756,-4.93],[39.76,-4.935],[39.806,-4.961],[39.814,-4.969],[39.815,-4.98],[39.817,-4.99],[39.822,-4.994],[39.828,-4.986],[39.827,-4.978],[39.824,-4.968],[39.824,-4.957],[39.836,-4.945],[39.837,-4.952],[39.84,-4.96],[39.842,-4.966],[39.85,-4.949],[39.856,-4.929],[39.858,-4.91],[39.856,-4.897],[39.869,-4.906],[39.869,-4.926],[39.867,-4.95],[39.878,-4.988],[39.867,-5.006],[39.849,-5.02],[39.836,-5.026],[39.841,-5.044],[39.837,-5.064],[39.831,-5.083],[39.828,-5.102],[39.838,-5.132],[39.839,-5.137],[39.848,-5.133],[39.849,-5.124],[39.847,-5.114],[39.848,-5.109],[39.861,-5.115],[39.863,-5.132],[39.856,-5.171],[39.856,-5.182],[39.828,-5.192],[39.809,-5.202],[39.789,-5.198],[39.786,-5.183],[39.789,-5.169],[39.781,-5.158],[39.752,-5.157],[39.743,-5.162]]]}},{"type":"Feature","id":"TZ-07","properties":{"id":"TZ-07","countryCode":"TZ","isoSubdivision":"TZ-07","name":"Unguja North","name_en":"Unguja North","name_ko":"잔지바르 북부","type":"Region","labelLongitude":39.229,"labelLatitude":-5.845,"minZoom":6.7},"geometry":{"type":"MultiPolygon","coordinates":[[[[39.198,-6.034],[39.186,-5.994],[39.191,-5.938],[39.189,-5.926],[39.19,-5.914],[39.193,-5.904],[39.197,-5.897],[39.2,-5.902],[39.208,-5.912],[39.211,-5.918],[39.228,-5.891],[39.264,-5.861],[39.28,-5.842],[39.288,-5.81],[39.295,-5.737],[39.313,-5.718],[39.325,-5.749],[39.356,-5.804],[39.362,-5.839],[39.355,-5.881],[39.354,-5.897],[39.357,-5.912],[39.366,-5.941],[39.368,-5.955],[39.373,-5.971],[39.391,-6],[39.385,-6.004],[39.347,-6.029],[39.274,-6.034],[39.238,-6.031],[39.202,-6.034],[39.198,-6.034]]],[[[39.226,-5.769],[39.225,-5.783],[39.23,-5.801],[39.239,-5.813],[39.232,-5.823],[39.238,-5.836],[39.238,-5.856],[39.225,-5.859],[39.214,-5.858],[39.212,-5.844],[39.214,-5.826],[39.217,-5.798],[39.214,-5.777],[39.226,-5.769]]]]}},{"type":"Feature","id":"TZ-08","properties":{"id":"TZ-08","countryCode":"TZ","isoSubdivision":"TZ-08","name":"Kigoma","name_en":"Kigoma","name_ko":"키고마","type":"Region","labelLongitude":30.406,"labelLatitude":-4.418,"minZoom":6.7},"geometry":{"type":"Polygon","coordinates":[[[29.343,-5],[29.324,-4.92],[29.321,-4.836],[29.341,-4.752],[29.401,-4.587],[29.411,-4.502],[29.407,-4.463],[29.404,-4.45],[29.638,-4.447],[29.687,-4.458],[29.728,-4.462],[29.733,-4.463],[29.744,-4.454],[29.747,-4.443],[29.748,-4.43],[29.752,-4.416],[29.758,-4.41],[29.775,-4.402],[29.78,-4.394],[29.782,-4.377],[29.784,-4.374],[29.8,-4.364],[29.811,-4.365],[29.822,-4.371],[29.839,-4.374],[29.847,-4.371],[29.9,-4.346],[29.936,-4.312],[29.971,-4.293],[29.981,-4.284],[30.003,-4.272],[30.016,-4.256],[30.041,-4.195],[30.051,-4.18],[30.12,-4.124],[30.15,-4.087],[30.173,-4.046],[30.176,-4.04],[30.191,-4.002],[30.209,-3.93],[30.221,-3.91],[30.273,-3.856],[30.312,-3.79],[30.337,-3.774],[30.382,-3.788],[30.385,-3.771],[30.382,-3.755],[30.376,-3.74],[30.372,-3.723],[30.373,-3.704],[30.38,-3.686],[30.421,-3.621],[30.429,-3.602],[30.429,-3.584],[30.427,-3.564],[30.432,-3.552],[30.46,-3.532],[30.463,-3.528],[30.466,-3.516],[30.469,-3.513],[30.486,-3.511],[30.488,-3.511],[30.488,-3.513],[30.507,-3.511],[30.508,-3.509],[30.51,-3.5],[30.512,-3.498],[30.538,-3.492],[30.545,-3.489],[30.553,-3.482],[30.566,-3.467],[30.613,-3.445],[30.639,-3.419],[30.64,-3.393],[30.61,-3.376],[30.603,-3.373],[30.622,-3.35],[30.641,-3.333],[30.663,-3.319],[30.69,-3.309],[30.702,-3.307],[30.712,-3.302],[30.718,-3.293],[30.721,-3.281],[30.748,-3.294],[30.776,-3.291],[30.8,-3.275],[30.815,-3.248],[30.814,-3.242],[30.81,-3.224],[30.809,-3.217],[30.824,-3.197],[30.832,-3.173],[30.834,-3.16],[30.833,-3.148],[30.829,-3.141],[30.816,-3.131],[30.812,-3.123],[30.813,-3.118],[30.818,-3.104],[30.818,-3.099],[30.808,-3.085],[30.783,-3.062],[30.778,-3.047],[30.785,-3.031],[30.816,-2.996],[30.819,-2.99],[30.845,-2.977],[30.865,-2.954],[30.884,-2.928],[30.982,-2.839],[31.024,-2.855],[31.048,-2.9],[31.049,-2.915],[31.056,-2.928],[31.064,-2.931],[31.069,-2.939],[31.071,-3.014],[31.043,-3.086],[31.005,-3.144],[31.003,-3.2],[31.012,-3.21],[31.024,-3.21],[31.039,-3.193],[31.058,-3.181],[31.11,-3.22],[31.122,-3.292],[31.147,-3.362],[31.165,-3.396],[31.187,-3.428],[31.188,-3.43],[31.205,-3.464],[31.202,-3.501],[31.206,-3.533],[31.216,-3.568],[31.218,-3.636],[31.242,-3.699],[31.298,-3.752],[31.359,-3.885],[31.376,-3.967],[31.371,-4.015],[31.338,-4.108],[31.335,-4.157],[31.343,-4.188],[31.347,-4.22],[31.359,-4.234],[31.362,-4.252],[31.384,-4.304],[31.417,-4.356],[31.417,-4.403],[31.424,-4.448],[31.452,-4.445],[31.464,-4.47],[31.473,-4.545],[31.491,-4.621],[31.475,-4.666],[31.467,-4.676],[31.411,-4.697],[31.392,-4.71],[31.387,-4.727],[31.398,-4.832],[31.39,-4.844],[31.344,-4.866],[31.326,-4.877],[31.322,-4.883],[31.318,-4.899],[31.314,-4.906],[31.307,-4.91],[31.284,-4.918],[31.234,-4.956],[31.228,-4.959],[31.234,-4.976],[31.246,-4.991],[31.25,-5.018],[31.202,-5.153],[31.193,-5.268],[31.23,-5.427],[31.212,-5.462],[31.14,-5.478],[31.062,-5.499],[31.038,-5.418],[31.029,-5.405],[31.011,-5.387],[31.007,-5.38],[30.995,-5.355],[30.987,-5.347],[30.98,-5.341],[30.973,-5.333],[30.967,-5.321],[30.963,-5.278],[30.957,-5.26],[30.94,-5.253],[30.923,-5.261],[30.901,-5.301],[30.886,-5.315],[30.864,-5.299],[30.835,-5.257],[30.81,-5.239],[30.803,-5.238],[30.789,-5.241],[30.782,-5.239],[30.775,-5.233],[30.762,-5.211],[30.73,-5.191],[30.684,-5.188],[30.409,-5.19],[30.374,-5.214],[30.31,-5.287],[30.27,-5.321],[30.221,-5.332],[30.007,-5.335],[29.99,-5.357],[30.08,-5.434],[30.119,-5.52],[30.184,-5.901],[30.213,-5.983],[30.273,-6.095],[30.304,-6.181],[30.35,-6.209],[30.382,-6.245],[30.372,-6.308],[30.39,-6.348],[30.393,-6.394],[30.298,-6.458],[30.269,-6.546],[30.243,-6.581],[30.005,-6.779],[29.969,-6.803],[29.873,-6.754],[29.739,-6.652],[29.707,-6.619],[29.684,-6.582],[29.634,-6.447],[29.566,-6.36],[29.538,-6.312],[29.526,-6.273],[29.509,-6.154],[29.479,-6.042],[29.476,-6.002],[29.496,-5.939],[29.571,-5.838],[29.603,-5.782],[29.612,-5.704],[29.594,-5.62],[29.496,-5.392],[29.456,-5.23],[29.378,-5.088],[29.344,-5.006],[29.343,-5]]]}},{"type":"Feature","id":"TZ-09","properties":{"id":"TZ-09","countryCode":"TZ","isoSubdivision":"TZ-09","name":"Kilimanjaro","name_en":"Kilimanjaro","name_ko":"킬리만자로","type":"Region","labelLongitude":37.651,"labelLatitude":-4.011,"minZoom":6.7},"geometry":{"type":"Polygon","coordinates":[[[37.424,-2.923],[37.562,-3],[37.645,-3.046],[37.66,-3.071],[37.678,-3.179],[37.68,-3.192],[37.7,-3.314],[37.682,-3.316],[37.672,-3.324],[37.668,-3.338],[37.67,-3.356],[37.651,-3.358],[37.627,-3.37],[37.605,-3.388],[37.59,-3.404],[37.585,-3.413],[37.58,-3.424],[37.578,-3.436],[37.579,-3.446],[37.587,-3.454],[37.603,-3.456],[37.608,-3.464],[37.604,-3.48],[37.596,-3.5],[37.599,-3.513],[37.647,-3.511],[37.668,-3.512],[37.689,-3.518],[37.708,-3.527],[37.722,-3.54],[37.73,-3.555],[37.747,-3.617],[37.757,-3.637],[37.771,-3.655],[37.825,-3.695],[37.911,-3.756],[37.996,-3.817],[38.082,-3.879],[38.167,-3.94],[38.252,-4.002],[38.338,-4.063],[38.416,-4.12],[38.075,-4.607],[38.03,-4.639],[38.003,-4.607],[37.982,-4.588],[37.971,-4.584],[37.951,-4.58],[37.941,-4.574],[37.927,-4.568],[37.867,-4.566],[37.845,-4.569],[37.808,-4.592],[37.785,-4.596],[37.761,-4.587],[37.692,-4.534],[37.605,-4.485],[37.581,-4.482],[37.53,-4.44],[37.497,-4.383],[37.495,-4.307],[37.5,-4.23],[37.498,-4.197],[37.499,-4.166],[37.514,-4.13],[37.513,-4.102],[37.507,-4.075],[37.485,-3.999],[37.473,-3.979],[37.464,-3.928],[37.467,-3.817],[37.45,-3.773],[37.42,-3.72],[37.383,-3.658],[37.329,-3.599],[37.299,-3.526],[37.303,-3.507],[37.288,-3.495],[37.259,-3.493],[37.231,-3.484],[37.219,-3.466],[37.206,-3.451],[37.186,-3.453],[37.166,-3.458],[37.14,-3.485],[37.112,-3.482],[37.087,-3.485],[37.062,-3.491],[37.06,-3.31],[37.023,-3.241],[36.953,-3.195],[36.921,-3.181],[36.897,-3.158],[36.888,-3.111],[36.886,-3.063],[36.909,-2.997],[36.976,-2.978],[37.009,-2.963],[37.035,-2.937],[37.094,-2.888],[37.141,-2.857],[37.191,-2.856],[37.209,-2.862],[37.228,-2.855],[37.264,-2.859],[37.297,-2.878],[37.38,-2.913],[37.424,-2.923]]]}},{"type":"Feature","id":"TZ-10","properties":{"id":"TZ-10","countryCode":"TZ","isoSubdivision":"TZ-10","name":"South Pemba","name_en":"South Pemba","name_ko":"펨바 남부","type":"Region","labelLongitude":39.75,"labelLatitude":-5.35,"minZoom":6.7},"geometry":{"type":"MultiPolygon","coordinates":[[[[39.856,-5.182],[39.856,-5.229],[39.848,-5.246],[39.856,-5.253],[39.844,-5.267],[39.814,-5.355],[39.807,-5.366],[39.803,-5.37],[39.801,-5.377],[39.801,-5.394],[39.796,-5.407],[39.787,-5.409],[39.782,-5.401],[39.786,-5.383],[39.781,-5.383],[39.774,-5.4],[39.771,-5.405],[39.766,-5.411],[39.769,-5.421],[39.764,-5.432],[39.753,-5.443],[39.739,-5.452],[39.729,-5.454],[39.726,-5.45],[39.73,-5.444],[39.739,-5.439],[39.739,-5.431],[39.724,-5.435],[39.714,-5.441],[39.705,-5.443],[39.698,-5.431],[39.663,-5.432],[39.649,-5.428],[39.643,-5.414],[39.644,-5.379],[39.647,-5.363],[39.657,-5.349],[39.651,-5.338],[39.663,-5.336],[39.698,-5.342],[39.69,-5.328],[39.669,-5.303],[39.664,-5.287],[39.679,-5.291],[39.699,-5.293],[39.717,-5.29],[39.726,-5.28],[39.715,-5.278],[39.705,-5.274],[39.697,-5.268],[39.691,-5.26],[39.706,-5.26],[39.73,-5.254],[39.746,-5.253],[39.764,-5.262],[39.774,-5.26],[39.781,-5.239],[39.761,-5.247],[39.736,-5.24],[39.691,-5.211],[39.681,-5.218],[39.669,-5.214],[39.657,-5.204],[39.65,-5.191],[39.661,-5.195],[39.668,-5.2],[39.674,-5.202],[39.684,-5.198],[39.694,-5.201],[39.728,-5.206],[39.746,-5.205],[39.739,-5.198],[39.746,-5.178],[39.743,-5.162],[39.752,-5.157],[39.781,-5.158],[39.789,-5.169],[39.786,-5.183],[39.789,-5.198],[39.809,-5.202],[39.828,-5.192],[39.856,-5.182]]],[[[39.575,-5.395],[39.584,-5.399],[39.599,-5.409],[39.609,-5.423],[39.621,-5.441],[39.637,-5.447],[39.652,-5.451],[39.662,-5.464],[39.66,-5.476],[39.633,-5.478],[39.615,-5.464],[39.6,-5.446],[39.591,-5.433],[39.58,-5.421],[39.569,-5.406],[39.575,-5.395]]]]}},{"type":"Feature","id":"TZ-11","properties":{"id":"TZ-11","countryCode":"TZ","isoSubdivision":"TZ-11","name":"Unguja South","name_en":"Unguja South","name_ko":"잔지바르 중부·남부","type":"Region","labelLongitude":39.424,"labelLatitude":-6.274,"minZoom":6.7},"geometry":{"type":"Polygon","coordinates":[[[39.391,-6],[39.392,-6.002],[39.403,-6.048],[39.409,-6.052],[39.43,-6.055],[39.432,-6.068],[39.43,-6.08],[39.426,-6.093],[39.423,-6.106],[39.424,-6.122],[39.426,-6.134],[39.43,-6.146],[39.437,-6.158],[39.425,-6.173],[39.42,-6.181],[39.417,-6.192],[39.431,-6.186],[39.44,-6.192],[39.448,-6.203],[39.458,-6.212],[39.458,-6.197],[39.465,-6.187],[39.473,-6.187],[39.478,-6.199],[39.482,-6.198],[39.484,-6.198],[39.484,-6.196],[39.485,-6.192],[39.501,-6.196],[39.501,-6.175],[39.496,-6.146],[39.499,-6.124],[39.516,-6.147],[39.525,-6.175],[39.543,-6.321],[39.547,-6.33],[39.574,-6.378],[39.57,-6.421],[39.544,-6.451],[39.508,-6.463],[39.472,-6.452],[39.457,-6.439],[39.444,-6.422],[39.434,-6.402],[39.414,-6.316],[39.417,-6.301],[39.394,-6.308],[39.394,-6.319],[39.404,-6.332],[39.41,-6.346],[39.408,-6.368],[39.404,-6.374],[39.376,-6.363],[39.38,-6.344],[39.374,-6.329],[39.348,-6.301],[39.317,-6.253],[39.308,-6.246],[39.307,-6.24],[39.304,-6.219],[39.287,-6.201],[39.276,-6.178],[39.275,-6.152],[39.281,-6.074],[39.276,-6.054],[39.274,-6.034],[39.347,-6.029],[39.385,-6.004],[39.391,-6]]]}},{"type":"Feature","id":"TZ-12","properties":{"id":"TZ-12","countryCode":"TZ","isoSubdivision":"TZ-12","name":"Lindi","name_en":"Lindi","name_ko":"린디","type":"Region","labelLongitude":38.423,"labelLatitude":-9.443,"minZoom":6.7},"geometry":{"type":"Polygon","coordinates":[[[39.285,-8.319],[39.293,-8.335],[39.301,-8.361],[39.305,-8.389],[39.307,-8.419],[39.3,-8.477],[39.303,-8.505],[39.336,-8.539],[39.349,-8.563],[39.358,-8.588],[39.362,-8.611],[39.36,-8.694],[39.354,-8.714],[39.389,-8.724],[39.395,-8.73],[39.398,-8.738],[39.402,-8.745],[39.413,-8.748],[39.433,-8.75],[39.439,-8.755],[39.44,-8.768],[39.444,-8.789],[39.453,-8.805],[39.464,-8.813],[39.476,-8.818],[39.489,-8.827],[39.497,-8.841],[39.509,-8.876],[39.52,-8.892],[39.548,-8.913],[39.554,-8.922],[39.54,-8.926],[39.528,-8.925],[39.521,-8.923],[39.506,-8.912],[39.504,-8.91],[39.485,-8.892],[39.465,-8.867],[39.449,-8.859],[39.43,-8.861],[39.419,-8.866],[39.413,-8.867],[39.409,-8.87],[39.389,-8.899],[39.404,-8.905],[39.464,-8.899],[39.451,-8.915],[39.448,-8.926],[39.455,-8.931],[39.475,-8.933],[39.492,-8.938],[39.492,-8.952],[39.486,-8.972],[39.485,-8.994],[39.487,-8.998],[39.496,-9.005],[39.499,-9.009],[39.499,-9.028],[39.499,-9.029],[39.493,-9.039],[39.492,-9.043],[39.494,-9.045],[39.499,-9.047],[39.504,-9.05],[39.506,-9.056],[39.503,-9.066],[39.497,-9.072],[39.493,-9.08],[39.495,-9.091],[39.503,-9.107],[39.503,-9.114],[39.499,-9.124],[39.513,-9.121],[39.53,-9.113],[39.546,-9.103],[39.557,-9.094],[39.569,-9.093],[39.584,-9.106],[39.627,-9.16],[39.644,-9.189],[39.649,-9.22],[39.633,-9.251],[39.632,-9.258],[39.638,-9.267],[39.646,-9.275],[39.65,-9.282],[39.65,-9.294],[39.644,-9.314],[39.643,-9.323],[39.646,-9.357],[39.643,-9.369],[39.629,-9.386],[39.616,-9.397],[39.607,-9.399],[39.597,-9.398],[39.582,-9.399],[39.569,-9.405],[39.564,-9.414],[39.564,-9.428],[39.567,-9.448],[39.576,-9.443],[39.588,-9.441],[39.608,-9.44],[39.611,-9.429],[39.616,-9.425],[39.626,-9.43],[39.632,-9.436],[39.636,-9.439],[39.64,-9.44],[39.651,-9.445],[39.652,-9.455],[39.65,-9.467],[39.65,-9.474],[39.657,-9.483],[39.681,-9.505],[39.689,-9.525],[39.701,-9.58],[39.711,-9.595],[39.725,-9.604],[39.722,-9.611],[39.714,-9.617],[39.712,-9.625],[39.717,-9.636],[39.722,-9.643],[39.735,-9.656],[39.741,-9.667],[39.737,-9.687],[39.747,-9.706],[39.738,-9.713],[39.718,-9.721],[39.701,-9.736],[39.697,-9.745],[39.705,-9.749],[39.745,-9.748],[39.752,-9.749],[39.756,-9.756],[39.763,-9.783],[39.77,-9.793],[39.786,-9.805],[39.794,-9.812],[39.801,-9.824],[39.807,-9.852],[39.8,-9.873],[39.781,-9.882],[39.752,-9.879],[39.761,-9.893],[39.789,-9.914],[39.79,-9.923],[39.779,-9.93],[39.745,-9.945],[39.714,-9.952],[39.714,-9.964],[39.726,-9.989],[39.724,-10.008],[39.717,-10.022],[39.705,-10.033],[39.691,-10.043],[39.716,-10.039],[39.763,-9.983],[39.784,-9.985],[39.797,-9.992],[39.827,-9.99],[39.848,-10.011],[39.861,-10.013],[39.876,-10.012],[39.889,-10.015],[39.914,-10.034],[39.975,-10.133],[39.976,-10.178],[39.944,-10.198],[39.909,-10.224],[39.748,-10.315],[39.706,-10.33],[39.68,-10.363],[39.674,-10.406],[39.657,-10.445],[39.657,-10.472],[39.683,-10.494],[39.688,-10.529],[39.665,-10.564],[39.632,-10.595],[39.591,-10.573],[39.562,-10.503],[39.546,-10.493],[39.532,-10.475],[39.498,-10.383],[39.422,-10.335],[39.397,-10.336],[39.372,-10.34],[39.346,-10.368],[39.316,-10.383],[39.283,-10.381],[39.272,-10.404],[39.262,-10.446],[39.218,-10.455],[39.205,-10.428],[39.199,-10.396],[39.166,-10.39],[39.125,-10.406],[39.043,-10.452],[38.996,-10.467],[38.919,-10.502],[38.891,-10.522],[38.873,-10.542],[38.803,-10.548],[38.764,-10.537],[38.735,-10.517],[38.701,-10.516],[38.67,-10.531],[38.58,-10.538],[38.314,-10.646],[38.252,-10.708],[38.203,-10.781],[38.168,-10.805],[37.993,-10.817],[37.943,-10.726],[37.921,-10.701],[37.904,-10.676],[37.89,-10.629],[37.864,-10.585],[37.857,-10.562],[37.846,-10.539],[37.822,-10.498],[37.795,-10.477],[37.764,-10.46],[37.718,-10.427],[37.162,-10.293],[36.921,-10.201],[36.871,-10.159],[36.874,-10.088],[36.87,-10.015],[36.877,-9.954],[36.903,-9.899],[36.985,-9.825],[37.062,-9.741],[37.106,-9.679],[37.129,-9.621],[37.143,-9.561],[37.221,-9.319],[37.237,-9.291],[37.249,-9.261],[37.258,-9.198],[37.304,-9.16],[37.36,-9.142],[37.367,-9.103],[37.337,-9.06],[37.346,-8.998],[37.319,-8.933],[37.32,-8.9],[37.306,-8.809],[37.312,-8.78],[37.355,-8.692],[37.378,-8.615],[37.381,-8.593],[37.382,-8.572],[37.378,-8.559],[37.361,-8.529],[37.369,-8.499],[37.389,-8.474],[37.409,-8.453],[37.426,-8.43],[37.455,-8.379],[37.474,-8.354],[37.48,-8.35],[37.494,-8.345],[37.502,-8.34],[37.507,-8.333],[37.511,-8.319],[37.526,-8.299],[37.538,-8.27],[37.573,-8.215],[37.581,-8.207],[37.595,-8.201],[37.613,-8.196],[37.628,-8.187],[37.635,-8.172],[37.638,-8.156],[37.646,-8.143],[37.671,-8.114],[37.675,-8.107],[37.676,-8.1],[37.676,-8.09],[37.678,-8.081],[37.684,-8.075],[37.691,-8.07],[37.697,-8.063],[37.717,-8.028],[37.728,-8.014],[37.744,-8.001],[37.77,-7.986],[37.779,-7.98],[37.785,-7.971],[37.795,-7.951],[37.801,-7.943],[37.941,-8.049],[37.992,-8.08],[38.11,-8.121],[38.234,-8.148],[38.289,-8.176],[38.381,-8.256],[38.43,-8.289],[38.504,-8.36],[38.52,-8.454],[38.536,-8.495],[38.593,-8.497],[38.64,-8.469],[38.661,-8.414],[38.687,-8.372],[38.757,-8.356],[38.776,-8.362],[38.785,-8.377],[38.802,-8.383],[38.865,-8.369],[38.989,-8.328],[39.183,-8.286],[39.233,-8.284],[39.27,-8.313],[39.285,-8.319]]]}},{"type":"Feature","id":"TZ-13","properties":{"id":"TZ-13","countryCode":"TZ","isoSubdivision":"TZ-13","name":"Mara","name_en":"Mara","name_ko":"마라","type":"Region","labelLongitude":34.023,"labelLatitude":-1.589,"minZoom":6.7},"geometry":{"type":"Polygon","coordinates":[[[33.985,-1.002],[34,-1.003],[34.002,-1.029],[34.015,-1.038],[34.053,-1.04],[34.127,-1.082],[34.342,-1.202],[34.557,-1.322],[34.719,-1.412],[34.772,-1.442],[34.986,-1.562],[35.201,-1.681],[35.246,-1.707],[35.225,-2.101],[35.233,-2.146],[35.271,-2.17],[35.327,-2.187],[35.341,-2.237],[35.327,-2.296],[35.301,-2.35],[35.273,-2.359],[35.249,-2.37],[35.208,-2.487],[34.658,-2.491],[34.621,-2.475],[34.565,-2.437],[34.54,-2.435],[34.507,-2.439],[34.479,-2.425],[34.456,-2.39],[34.428,-2.358],[34.355,-2.315],[34.322,-2.291],[34.298,-2.257],[34.275,-2.243],[34.248,-2.238],[34.17,-2.196],[34.134,-2.196],[34.1,-2.192],[34.036,-2.132],[34.011,-2.147],[34.004,-2.182],[33.965,-2.186],[33.897,-2.182],[33.871,-2.194],[33.831,-2.172],[33.832,-2.163],[33.816,-2.123],[33.786,-2.095],[33.749,-2.086],[33.712,-2.105],[33.667,-2.138],[33.657,-2.142],[33.642,-2.147],[33.629,-2.158],[33.606,-2.183],[33.566,-2.163],[33.509,-2.153],[33.449,-2.151],[33.4,-2.156],[33.373,-2.166],[33.358,-2.168],[33.352,-2.159],[33.347,-2.146],[33.337,-2.136],[33.311,-2.122],[33.283,-2.111],[33.259,-2.111],[33.24,-2.122],[33.221,-2.142],[33.214,-2.13],[33.21,-2.123],[33.208,-2.115],[33.209,-2.104],[33.218,-2.091],[33.221,-2.08],[33.221,-2.073],[33.219,-2.062],[33.217,-2.054],[33.215,-2.053],[33.219,-2.043],[33.221,-2.042],[33.223,-2.045],[33.228,-2.046],[33.256,-2.047],[33.256,-2.046],[33.281,-2.053],[33.286,-2.056],[33.293,-2.046],[33.292,-2.032],[33.285,-2.019],[33.27,-2.012],[33.282,-2.001],[33.297,-2.011],[33.31,-2.031],[33.318,-2.046],[33.325,-2.046],[33.324,-2.017],[33.34,-2.019],[33.38,-2.053],[33.383,-2.046],[33.386,-2.043],[33.4,-2.039],[33.372,-1.998],[33.4,-1.972],[33.431,-1.981],[33.496,-2.025],[33.543,-2.026],[33.55,-2.029],[33.557,-2.015],[33.569,-2.002],[33.573,-1.987],[33.558,-1.97],[33.55,-1.975],[33.547,-1.975],[33.544,-1.973],[33.537,-1.97],[33.541,-1.968],[33.542,-1.968],[33.542,-1.967],[33.544,-1.963],[33.504,-1.954],[33.462,-1.95],[33.488,-1.932],[33.49,-1.927],[33.482,-1.916],[33.461,-1.902],[33.455,-1.894],[33.462,-1.881],[33.449,-1.88],[33.438,-1.88],[33.43,-1.885],[33.428,-1.895],[33.393,-1.897],[33.353,-1.925],[33.314,-1.945],[33.283,-1.922],[33.307,-1.907],[33.311,-1.906],[33.31,-1.891],[33.311,-1.884],[33.319,-1.87],[33.305,-1.849],[33.301,-1.834],[33.343,-1.739],[33.385,-1.708],[33.429,-1.713],[33.455,-1.734],[33.464,-1.683],[33.462,-1.627],[33.467,-1.572],[33.456,-1.521],[33.334,-1.474],[32.721,-1.483],[32.704,-1.469],[32.722,-1.003],[32.724,-1.003],[32.847,-1.003],[32.907,-1.003],[33.09,-1.003],[33.273,-1.003],[33.426,-1.003],[33.456,-1.003],[33.632,-1.003],[33.639,-1.003],[33.822,-1.003],[33.904,-1.003],[33.98,-1.003],[33.985,-1.002]]]}},{"type":"Feature","id":"TZ-14","properties":{"id":"TZ-14","countryCode":"TZ","isoSubdivision":"TZ-14","name":"Mbeya","name_en":"Mbeya","name_ko":"므베야","type":"Region","labelLongitude":33.528,"labelLatitude":-8.297,"minZoom":6.7},"geometry":{"type":"Polygon","coordinates":[[[34.078,-9.51],[34.047,-9.49],[34.013,-9.477],[33.997,-9.492],[33.984,-9.506],[33.961,-9.525],[33.946,-9.55],[33.964,-9.595],[33.963,-9.612],[33.956,-9.642],[33.955,-9.661],[33.951,-9.674],[33.943,-9.684],[33.928,-9.693],[33.928,-9.7],[33.912,-9.718],[33.9,-9.71],[33.889,-9.69],[33.865,-9.67],[33.837,-9.653],[33.813,-9.643],[33.788,-9.626],[33.762,-9.601],[33.735,-9.584],[33.703,-9.593],[33.676,-9.608],[33.651,-9.611],[33.65,-9.611],[33.624,-9.606],[33.593,-9.597],[33.559,-9.593],[33.535,-9.603],[33.512,-9.617],[33.481,-9.624],[33.439,-9.622],[33.42,-9.616],[33.404,-9.605],[33.392,-9.586],[33.375,-9.549],[33.356,-9.532],[33.3,-9.492],[33.282,-9.486],[33.274,-9.488],[33.258,-9.498],[33.249,-9.501],[33.237,-9.5],[33.216,-9.493],[33.202,-9.493],[33.196,-9.497],[33.182,-9.508],[33.173,-9.511],[33.169,-9.509],[33.14,-9.497],[33.113,-9.492],[33.104,-9.488],[33.042,-9.441],[32.992,-9.391],[32.975,-9.381],[32.955,-9.382],[32.936,-9.392],[32.921,-9.408],[32.905,-9.398],[32.831,-9.37],[32.784,-9.34],[32.777,-9.338],[32.76,-9.34],[32.752,-9.337],[32.747,-9.33],[32.743,-9.315],[32.74,-9.307],[32.726,-9.293],[32.713,-9.286],[32.642,-9.28],[32.556,-9.261],[32.518,-9.258],[32.504,-9.249],[32.49,-9.227],[32.471,-9.182],[32.46,-9.168],[32.423,-9.144],[32.383,-9.134],[32.253,-9.136],[32.231,-9.134],[32.211,-9.127],[32.192,-9.112],[32.155,-9.075],[32.146,-9.07],[32.146,-9.064],[32.137,-9.004],[32.146,-8.992],[32.162,-8.99],[32.149,-8.95],[32.111,-8.914],[32.088,-8.898],[32.07,-8.879],[32.091,-8.85],[32.055,-8.813],[32.009,-8.783],[32.03,-8.743],[32.155,-8.698],[32.212,-8.664],[32.287,-8.569],[32.292,-8.456],[32.275,-8.402],[32.278,-8.345],[32.315,-8.301],[32.376,-8.299],[32.502,-8.215],[32.528,-8.227],[32.532,-8.247],[32.528,-8.277],[32.543,-8.301],[32.544,-8.331],[32.549,-8.36],[32.632,-8.465],[32.674,-8.468],[32.713,-8.463],[32.75,-8.47],[32.742,-8.405],[32.511,-8.099],[32.464,-8.052],[32.279,-7.929],[32.01,-7.789],[31.993,-7.754],[32.02,-7.668],[32.059,-7.588],[32.094,-7.534],[32.197,-7.496],[32.233,-7.424],[32.273,-7.316],[32.274,-7.21],[32.501,-7.132],[32.553,-7.104],[32.623,-7.105],[32.691,-7.094],[32.716,-7.075],[32.781,-6.972],[32.792,-6.947],[32.817,-6.937],[32.861,-6.941],[32.895,-6.92],[32.919,-6.898],[32.95,-6.887],[33.036,-6.867],[33.118,-6.891],[33.187,-6.937],[33.268,-6.956],[33.485,-6.943],[33.515,-6.968],[33.538,-7.001],[33.552,-7.053],[33.56,-7.108],[33.584,-7.148],[33.627,-7.164],[33.661,-7.197],[33.685,-7.241],[33.701,-7.264],[33.72,-7.284],[33.778,-7.302],[33.791,-7.325],[33.794,-7.352],[33.812,-7.394],[33.815,-7.435],[33.832,-7.444],[33.852,-7.449],[33.893,-7.479],[33.939,-7.499],[33.964,-7.516],[33.98,-7.535],[33.966,-7.562],[33.946,-7.586],[33.919,-7.65],[33.896,-7.689],[33.869,-7.725],[33.85,-7.762],[33.842,-7.803],[33.856,-7.832],[33.895,-7.837],[34.36,-7.814],[34.411,-7.818],[34.559,-7.853],[34.596,-7.878],[34.639,-7.892],[34.91,-7.935],[34.92,-7.965],[34.916,-7.991],[34.942,-7.996],[34.991,-7.992],[35.036,-8.008],[35.064,-8.036],[35.039,-8.068],[34.996,-8.102],[34.941,-8.118],[34.916,-8.148],[34.88,-8.231],[34.854,-8.274],[34.819,-8.301],[34.777,-8.315],[34.74,-8.349],[34.712,-8.392],[34.691,-8.434],[34.707,-8.475],[34.728,-8.506],[34.744,-8.54],[34.732,-8.605],[34.707,-8.67],[34.685,-8.686],[34.652,-8.682],[34.615,-8.696],[34.583,-8.718],[34.556,-8.77],[34.521,-8.807],[34.475,-8.826],[34.423,-8.827],[34.328,-8.813],[34.228,-8.837],[34.17,-8.838],[34.112,-8.833],[34.061,-8.854],[34.051,-8.882],[34.023,-8.892],[33.949,-8.866],[33.895,-8.877],[33.853,-8.914],[33.796,-9.006],[33.802,-9.054],[33.835,-9.092],[33.858,-9.134],[33.875,-9.179],[33.854,-9.191],[33.848,-9.211],[33.882,-9.219],[33.893,-9.232],[33.896,-9.264],[33.918,-9.292],[33.973,-9.386],[34.003,-9.427],[34.022,-9.435],[34.042,-9.438],[34.082,-9.478],[34.078,-9.51]]]}},{"type":"Feature","id":"TZ-15","properties":{"id":"TZ-15","countryCode":"TZ","isoSubdivision":"TZ-15","name":"Mjini Magharibi","name_en":"Mjini Magharibi","name_ko":"잔지바르 도시·서부","type":"Region","labelLongitude":39.243,"labelLatitude":-6.154,"minZoom":6.7},"geometry":{"type":"Polygon","coordinates":[[[39.308,-6.246],[39.3,-6.239],[39.287,-6.247],[39.287,-6.254],[39.293,-6.255],[39.293,-6.258],[39.293,-6.262],[39.294,-6.268],[39.28,-6.258],[39.276,-6.274],[39.28,-6.297],[39.29,-6.308],[39.288,-6.31],[39.286,-6.312],[39.282,-6.312],[39.273,-6.308],[39.264,-6.302],[39.261,-6.299],[39.258,-6.295],[39.208,-6.237],[39.199,-6.221],[39.186,-6.176],[39.177,-6.158],[39.213,-6.114],[39.205,-6.056],[39.198,-6.034],[39.202,-6.034],[39.238,-6.031],[39.274,-6.034],[39.276,-6.054],[39.281,-6.074],[39.275,-6.152],[39.276,-6.178],[39.287,-6.201],[39.304,-6.219],[39.307,-6.24],[39.308,-6.246]]]}},{"type":"Feature","id":"TZ-16","properties":{"id":"TZ-16","countryCode":"TZ","isoSubdivision":"TZ-16","name":"Morogoro","name_en":"Morogoro","name_ko":"모로고로","type":"Region","labelLongitude":36.922,"labelLatitude":-8.697,"minZoom":6.7},"geometry":{"type":"Polygon","coordinates":[[[37.801,-7.943],[37.795,-7.951],[37.785,-7.971],[37.779,-7.98],[37.77,-7.986],[37.744,-8.001],[37.728,-8.014],[37.717,-8.028],[37.697,-8.063],[37.691,-8.07],[37.684,-8.075],[37.678,-8.081],[37.676,-8.09],[37.676,-8.1],[37.675,-8.107],[37.671,-8.114],[37.646,-8.143],[37.638,-8.156],[37.635,-8.172],[37.628,-8.187],[37.613,-8.196],[37.595,-8.201],[37.581,-8.207],[37.573,-8.215],[37.538,-8.27],[37.526,-8.299],[37.511,-8.319],[37.507,-8.333],[37.502,-8.34],[37.494,-8.345],[37.48,-8.35],[37.474,-8.354],[37.455,-8.379],[37.426,-8.43],[37.409,-8.453],[37.389,-8.474],[37.369,-8.499],[37.361,-8.529],[37.378,-8.559],[37.382,-8.572],[37.381,-8.593],[37.378,-8.615],[37.355,-8.692],[37.312,-8.78],[37.306,-8.809],[37.32,-8.9],[37.319,-8.933],[37.346,-8.998],[37.337,-9.06],[37.367,-9.103],[37.36,-9.142],[37.304,-9.16],[37.258,-9.198],[37.249,-9.261],[37.237,-9.291],[37.221,-9.319],[37.143,-9.561],[37.069,-9.583],[36.98,-9.649],[36.947,-9.663],[36.869,-9.713],[36.802,-9.772],[36.744,-9.84],[36.664,-9.909],[36.572,-9.959],[36.504,-9.961],[36.478,-9.914],[36.533,-9.843],[36.564,-9.762],[36.524,-9.689],[36.493,-9.613],[36.494,-9.581],[36.481,-9.553],[36.47,-9.558],[36.449,-9.564],[36.449,-9.609],[36.44,-9.634],[36.396,-9.696],[36.37,-9.723],[36.364,-9.727],[36.282,-9.739],[36.221,-9.729],[36.133,-9.751],[36.107,-9.735],[36.101,-9.727],[36.092,-9.729],[36.085,-9.722],[36.088,-9.709],[36.044,-9.722],[35.999,-9.761],[35.989,-9.788],[35.973,-9.809],[35.937,-9.811],[35.901,-9.806],[35.762,-9.811],[35.718,-9.777],[35.725,-9.717],[35.741,-9.704],[35.763,-9.703],[35.782,-9.687],[35.826,-9.618],[35.861,-9.575],[35.868,-9.554],[35.858,-9.533],[35.862,-9.502],[35.878,-9.471],[35.918,-9.434],[35.934,-9.384],[35.916,-9.351],[35.905,-9.316],[35.902,-9.244],[35.897,-9.224],[35.897,-9.208],[35.903,-9.198],[35.9,-9.189],[35.836,-9.261],[35.777,-9.315],[35.737,-9.33],[35.697,-9.34],[35.694,-9.292],[35.68,-9.247],[35.491,-9.099],[35.422,-8.996],[35.401,-8.986],[35.384,-9],[35.365,-9.009],[35.353,-8.969],[35.357,-8.898],[35.348,-8.878],[35.33,-8.87],[35.328,-8.854],[35.354,-8.817],[35.353,-8.773],[35.336,-8.732],[35.341,-8.688],[35.421,-8.686],[35.513,-8.712],[35.627,-8.731],[35.643,-8.754],[35.648,-8.839],[35.67,-8.857],[35.682,-8.812],[35.68,-8.764],[35.717,-8.637],[35.747,-8.609],[35.84,-8.566],[35.911,-8.503],[35.948,-8.399],[36.017,-8.314],[36.094,-8.242],[36.182,-8.189],[36.219,-8.197],[36.251,-8.189],[36.309,-8.18],[36.327,-8.151],[36.32,-8.118],[36.315,-8.101],[36.313,-8.084],[36.314,-8.071],[36.316,-8.06],[36.347,-8.031],[36.42,-7.975],[36.508,-7.943],[36.602,-7.952],[36.69,-7.978],[36.766,-7.956],[36.802,-7.867],[36.847,-7.784],[36.919,-7.718],[36.968,-7.654],[36.947,-7.649],[36.937,-7.649],[36.934,-7.649],[36.919,-7.642],[36.869,-7.637],[36.861,-7.638],[36.847,-7.643],[36.833,-7.65],[36.818,-7.652],[36.799,-7.644],[36.792,-7.635],[36.79,-7.624],[36.793,-7.593],[36.793,-7.589],[36.79,-7.586],[36.784,-7.581],[36.777,-7.578],[36.762,-7.575],[36.736,-7.572],[36.716,-7.564],[36.693,-7.558],[36.689,-7.556],[36.68,-7.544],[36.662,-7.53],[36.641,-7.521],[36.596,-7.511],[36.583,-7.509],[36.56,-7.513],[36.547,-7.514],[36.517,-7.501],[36.5,-7.471],[36.478,-7.37],[36.515,-7.332],[36.522,-7.286],[36.51,-7.237],[36.504,-7.188],[36.516,-7.143],[36.559,-7.054],[36.641,-7.003],[36.646,-6.959],[36.641,-6.779],[36.664,-6.705],[36.68,-6.683],[36.679,-6.658],[36.668,-6.642],[36.671,-6.626],[36.685,-6.63],[36.699,-6.632],[36.711,-6.614],[36.717,-6.593],[36.738,-6.543],[36.762,-6.445],[36.803,-6.425],[36.858,-6.343],[36.83,-6.108],[36.832,-6.051],[36.862,-6.002],[36.915,-5.985],[37.061,-5.868],[37.076,-5.974],[37.106,-5.989],[37.133,-5.998],[37.112,-6.027],[37.116,-6.053],[37.119,-6.06],[37.119,-6.069],[37.142,-6.093],[37.169,-6.111],[37.195,-6.084],[37.215,-6.044],[37.257,-6.013],[37.289,-5.974],[37.325,-5.96],[37.358,-5.931],[37.376,-5.816],[37.391,-5.789],[37.423,-5.8],[37.428,-5.804],[37.431,-5.811],[37.443,-5.816],[37.459,-5.814],[37.476,-5.823],[37.493,-5.825],[37.527,-5.839],[37.539,-5.885],[37.604,-5.96],[37.628,-5.98],[37.655,-5.953],[37.707,-5.956],[37.748,-5.943],[37.746,-5.915],[37.761,-5.902],[37.785,-5.909],[37.802,-5.895],[37.849,-5.931],[37.879,-5.982],[37.881,-6.01],[37.887,-6.038],[37.905,-6.057],[37.932,-6.115],[37.958,-6.148],[37.969,-6.172],[37.984,-6.194],[38.011,-6.202],[38.034,-6.206],[38.02,-6.209],[38.013,-6.218],[38.039,-6.23],[38.057,-6.252],[38.06,-6.332],[38.039,-6.485],[38.014,-6.544],[37.996,-6.564],[37.995,-6.586],[37.991,-6.585],[38.001,-6.602],[38.014,-6.618],[38.023,-6.641],[38.042,-6.649],[38.07,-6.653],[38.1,-6.668],[38.2,-6.705],[38.223,-6.708],[38.247,-6.703],[38.256,-6.695],[38.267,-6.69],[38.286,-6.688],[38.304,-6.692],[38.321,-6.767],[38.295,-6.827],[38.286,-6.885],[38.325,-6.941],[38.347,-6.94],[38.365,-6.951],[38.374,-6.96],[38.386,-6.966],[38.402,-6.962],[38.417,-6.956],[38.437,-6.96],[38.453,-6.97],[38.478,-6.968],[38.497,-6.983],[38.5,-7.019],[38.51,-7.03],[38.516,-7.043],[38.491,-7.094],[38.454,-7.139],[38.432,-7.181],[38.393,-7.186],[38.355,-7.208],[38.327,-7.245],[38.303,-7.319],[38.346,-7.443],[38.366,-7.486],[38.36,-7.522],[38.199,-7.549],[38.151,-7.566],[38.1,-7.576],[38.066,-7.567],[38.029,-7.563],[37.94,-7.58],[37.901,-7.593],[37.872,-7.62],[37.864,-7.67],[37.864,-7.722],[37.853,-7.769],[37.855,-7.818],[37.851,-7.822],[37.845,-7.831],[37.842,-7.839],[37.838,-7.841],[37.834,-7.844],[37.829,-7.852],[37.826,-7.857],[37.815,-7.899],[37.812,-7.922],[37.809,-7.934],[37.801,-7.943]]]}},{"type":"Feature","id":"TZ-17","properties":{"id":"TZ-17","countryCode":"TZ","isoSubdivision":"TZ-17","name":"Mtwara","name_en":"Mtwara","name_ko":"므트와라","type":"Region","labelLongitude":39.221,"labelLatitude":-10.814,"minZoom":6.7},"geometry":{"type":"Polygon","coordinates":[[[40.437,-10.475],[40.421,-10.504],[40.389,-10.535],[40.353,-10.561],[40.289,-10.583],[40.251,-10.611],[40.192,-10.669],[40.173,-10.693],[40.161,-10.704],[40.133,-10.715],[40.008,-10.811],[39.989,-10.821],[39.886,-10.864],[39.786,-10.933],[39.76,-10.943],[39.593,-10.979],[39.516,-10.985],[39.498,-10.991],[39.483,-10.999],[39.287,-11.154],[39.263,-11.167],[39.238,-11.174],[39.212,-11.174],[39.191,-11.166],[39.15,-11.144],[39.126,-11.14],[39.095,-11.153],[39.061,-11.16],[38.93,-11.16],[38.896,-11.168],[38.869,-11.191],[38.852,-11.203],[38.831,-11.208],[38.818,-11.216],[38.778,-11.254],[38.76,-11.263],[38.749,-11.263],[38.727,-11.258],[38.715,-11.256],[38.704,-11.259],[38.684,-11.268],[38.654,-11.276],[38.638,-11.289],[38.616,-11.317],[38.517,-11.383],[38.492,-11.413],[38.462,-11.396],[38.383,-11.377],[38.348,-11.359],[38.292,-11.302],[38.257,-11.277],[38.21,-11.27],[38.2,-11.273],[38.178,-11.282],[38.167,-11.284],[38.155,-11.281],[38.135,-11.266],[38.126,-11.263],[38.122,-11.261],[38.117,-11.252],[38.115,-11.25],[38.109,-11.25],[38.104,-11.252],[38.101,-11.255],[38.101,-11.256],[38.093,-11.256],[38.024,-11.02],[37.993,-10.817],[38.168,-10.805],[38.203,-10.781],[38.252,-10.708],[38.314,-10.646],[38.58,-10.538],[38.67,-10.531],[38.701,-10.516],[38.735,-10.517],[38.764,-10.537],[38.803,-10.548],[38.873,-10.542],[38.891,-10.522],[38.919,-10.502],[38.996,-10.467],[39.043,-10.452],[39.125,-10.406],[39.166,-10.39],[39.199,-10.396],[39.205,-10.428],[39.218,-10.455],[39.262,-10.446],[39.272,-10.404],[39.283,-10.381],[39.316,-10.383],[39.346,-10.368],[39.372,-10.34],[39.397,-10.336],[39.422,-10.335],[39.498,-10.383],[39.532,-10.475],[39.546,-10.493],[39.562,-10.503],[39.591,-10.573],[39.632,-10.595],[39.665,-10.564],[39.688,-10.529],[39.683,-10.494],[39.657,-10.472],[39.657,-10.445],[39.674,-10.406],[39.68,-10.363],[39.706,-10.33],[39.748,-10.315],[39.909,-10.224],[39.944,-10.198],[39.976,-10.178],[39.977,-10.191],[39.985,-10.221],[39.995,-10.209],[40,-10.193],[40.001,-10.175],[39.996,-10.16],[39.987,-10.14],[39.989,-10.131],[40.001,-10.13],[40.02,-10.133],[40.034,-10.137],[40.065,-10.15],[40.085,-10.155],[40.125,-10.169],[40.13,-10.168],[40.133,-10.17],[40.136,-10.181],[40.134,-10.194],[40.127,-10.207],[40.124,-10.222],[40.132,-10.238],[40.136,-10.248],[40.128,-10.253],[40.118,-10.257],[40.115,-10.263],[40.121,-10.271],[40.126,-10.272],[40.131,-10.269],[40.136,-10.269],[40.153,-10.279],[40.16,-10.28],[40.164,-10.273],[40.165,-10.262],[40.168,-10.256],[40.174,-10.255],[40.184,-10.259],[40.197,-10.268],[40.22,-10.288],[40.232,-10.297],[40.232,-10.288],[40.234,-10.281],[40.236,-10.276],[40.239,-10.269],[40.247,-10.274],[40.253,-10.276],[40.259,-10.274],[40.267,-10.269],[40.25,-10.264],[40.198,-10.242],[40.232,-10.2],[40.245,-10.205],[40.251,-10.216],[40.254,-10.23],[40.259,-10.242],[40.268,-10.249],[40.291,-10.26],[40.301,-10.269],[40.306,-10.278],[40.339,-10.349],[40.349,-10.358],[40.351,-10.356],[40.385,-10.363],[40.39,-10.365],[40.422,-10.356],[40.427,-10.336],[40.415,-10.32],[40.397,-10.324],[40.393,-10.312],[40.396,-10.303],[40.405,-10.298],[40.418,-10.297],[40.427,-10.3],[40.431,-10.308],[40.435,-10.318],[40.441,-10.327],[40.449,-10.345],[40.44,-10.361],[40.424,-10.377],[40.411,-10.392],[40.417,-10.392],[40.431,-10.393],[40.437,-10.392],[40.426,-10.426],[40.425,-10.437],[40.427,-10.445],[40.433,-10.452],[40.438,-10.462],[40.437,-10.475]]]}},{"type":"Feature","id":"TZ-18","properties":{"id":"TZ-18","countryCode":"TZ","isoSubdivision":"TZ-18","name":"Mwanza","name_en":"Mwanza","name_ko":"므완자","type":"Region","labelLongitude":32.669,"labelLatitude":-2.673,"minZoom":6.7},"geometry":{"type":"Polygon","coordinates":[[[32.704,-1.469],[32.721,-1.483],[33.334,-1.474],[33.456,-1.521],[33.467,-1.572],[33.462,-1.627],[33.464,-1.683],[33.455,-1.734],[33.429,-1.713],[33.385,-1.708],[33.343,-1.739],[33.301,-1.834],[33.305,-1.849],[33.319,-1.87],[33.311,-1.884],[33.31,-1.891],[33.311,-1.906],[33.307,-1.907],[33.283,-1.922],[33.314,-1.945],[33.353,-1.925],[33.393,-1.897],[33.428,-1.895],[33.43,-1.885],[33.438,-1.88],[33.449,-1.88],[33.462,-1.881],[33.455,-1.894],[33.461,-1.902],[33.482,-1.916],[33.49,-1.927],[33.488,-1.932],[33.462,-1.95],[33.504,-1.954],[33.544,-1.963],[33.542,-1.967],[33.542,-1.968],[33.541,-1.968],[33.537,-1.97],[33.544,-1.973],[33.547,-1.975],[33.55,-1.975],[33.558,-1.97],[33.573,-1.987],[33.569,-2.002],[33.557,-2.015],[33.55,-2.029],[33.543,-2.026],[33.496,-2.025],[33.431,-1.981],[33.4,-1.972],[33.372,-1.998],[33.4,-2.039],[33.386,-2.043],[33.383,-2.046],[33.38,-2.053],[33.34,-2.019],[33.324,-2.017],[33.325,-2.046],[33.318,-2.046],[33.31,-2.031],[33.297,-2.011],[33.282,-2.001],[33.27,-2.012],[33.285,-2.019],[33.292,-2.032],[33.293,-2.046],[33.286,-2.056],[33.281,-2.053],[33.256,-2.046],[33.256,-2.047],[33.228,-2.046],[33.223,-2.045],[33.221,-2.042],[33.219,-2.043],[33.215,-2.053],[33.217,-2.054],[33.219,-2.062],[33.221,-2.073],[33.221,-2.08],[33.218,-2.091],[33.209,-2.104],[33.208,-2.115],[33.21,-2.123],[33.214,-2.13],[33.221,-2.142],[33.24,-2.122],[33.259,-2.111],[33.283,-2.111],[33.311,-2.122],[33.337,-2.136],[33.347,-2.146],[33.352,-2.159],[33.358,-2.168],[33.485,-2.409],[33.515,-2.449],[33.592,-2.537],[33.636,-2.581],[33.672,-2.613],[33.718,-2.634],[33.763,-2.662],[33.787,-2.707],[33.784,-2.736],[33.765,-2.755],[33.745,-2.754],[33.727,-2.762],[33.689,-2.791],[33.62,-2.771],[33.593,-2.789],[33.569,-2.796],[33.552,-2.811],[33.537,-2.829],[33.513,-2.835],[33.499,-2.861],[33.529,-2.973],[33.521,-3.013],[33.492,-3.1],[33.486,-3.147],[33.472,-3.178],[33.447,-3.202],[33.423,-3.274],[33.368,-3.307],[33.329,-3.318],[33.286,-3.324],[33.249,-3.315],[33.214,-3.328],[33.176,-3.402],[33.11,-3.433],[33.086,-3.419],[33.067,-3.4],[33.048,-3.391],[33.028,-3.389],[32.997,-3.373],[32.964,-3.363],[32.937,-3.342],[32.921,-3.305],[32.893,-3.278],[32.862,-3.255],[32.833,-3.261],[32.8,-3.271],[32.774,-3.264],[32.754,-3.276],[32.739,-3.308],[32.71,-3.322],[32.681,-3.32],[32.674,-3.347],[32.66,-3.385],[32.664,-3.416],[32.688,-3.42],[32.687,-3.448],[32.649,-3.447],[32.569,-3.398],[32.534,-3.371],[32.533,-3.32],[32.541,-3.264],[32.532,-3.227],[32.51,-3.198],[32.597,-2.96],[32.51,-2.887],[32.535,-2.811],[32.36,-2.71],[32.414,-2.609],[32.245,-2.58],[32.214,-2.538],[32.162,-2.521],[32.121,-2.493],[32.056,-2.451],[31.98,-2.412],[31.952,-2.389],[31.935,-2.358],[31.938,-2.333],[31.927,-2.31],[31.907,-2.291],[31.903,-2.26],[31.895,-2.208],[31.877,-2.148],[32.704,-1.469]]]}},{"type":"Feature","id":"TZ-19","properties":{"id":"TZ-19","countryCode":"TZ","isoSubdivision":"TZ-19","name":"Pwani","name_en":"Pwani","name_ko":"프와니","type":"Region","labelLongitude":39.749,"labelLatitude":-7.867,"minZoom":6.7},"geometry":{"type":"MultiPolygon","coordinates":[[[[39.435,-7.182],[39.427,-7.192],[39.421,-7.21],[39.419,-7.226],[39.414,-7.241],[39.403,-7.255],[39.39,-7.265],[39.384,-7.267],[39.375,-7.268],[39.367,-7.271],[39.368,-7.279],[39.373,-7.288],[39.376,-7.296],[39.37,-7.307],[39.356,-7.31],[39.34,-7.309],[39.328,-7.309],[39.338,-7.325],[39.348,-7.337],[39.354,-7.349],[39.354,-7.371],[39.35,-7.385],[39.341,-7.406],[39.33,-7.424],[39.304,-7.448],[39.292,-7.486],[39.275,-7.596],[39.276,-7.617],[39.28,-7.638],[39.293,-7.67],[39.296,-7.688],[39.29,-7.703],[39.287,-7.718],[39.302,-7.754],[39.297,-7.772],[39.253,-7.823],[39.283,-7.817],[39.305,-7.792],[39.319,-7.759],[39.328,-7.726],[39.343,-7.739],[39.355,-7.753],[39.357,-7.767],[39.341,-7.782],[39.378,-7.778],[39.396,-7.78],[39.413,-7.792],[39.44,-7.819],[39.444,-7.833],[39.437,-7.857],[39.422,-7.89],[39.421,-7.902],[39.432,-7.937],[39.433,-7.976],[39.437,-7.994],[39.452,-7.984],[39.458,-7.98],[39.454,-8.01],[39.442,-8.039],[39.41,-8.09],[39.376,-8.179],[39.362,-8.207],[39.355,-8.204],[39.352,-8.204],[39.349,-8.205],[39.341,-8.207],[39.348,-8.222],[39.346,-8.257],[39.348,-8.275],[39.334,-8.269],[39.334,-8.277],[39.328,-8.296],[39.312,-8.278],[39.303,-8.272],[39.294,-8.269],[39.302,-8.283],[39.302,-8.295],[39.295,-8.304],[39.28,-8.309],[39.285,-8.319],[39.27,-8.313],[39.233,-8.284],[39.183,-8.286],[38.989,-8.328],[38.865,-8.369],[38.802,-8.383],[38.785,-8.377],[38.776,-8.362],[38.757,-8.356],[38.687,-8.372],[38.661,-8.414],[38.64,-8.469],[38.593,-8.497],[38.536,-8.495],[38.52,-8.454],[38.504,-8.36],[38.43,-8.289],[38.381,-8.256],[38.289,-8.176],[38.234,-8.148],[38.11,-8.121],[37.992,-8.08],[37.941,-8.049],[37.801,-7.943],[37.809,-7.934],[37.812,-7.922],[37.815,-7.899],[37.826,-7.857],[37.829,-7.852],[37.834,-7.844],[37.838,-7.841],[37.842,-7.839],[37.845,-7.831],[37.851,-7.822],[37.855,-7.818],[37.853,-7.769],[37.864,-7.722],[37.864,-7.67],[37.872,-7.62],[37.901,-7.593],[37.94,-7.58],[38.029,-7.563],[38.066,-7.567],[38.1,-7.576],[38.151,-7.566],[38.199,-7.549],[38.36,-7.522],[38.366,-7.486],[38.346,-7.443],[38.303,-7.319],[38.327,-7.245],[38.355,-7.208],[38.393,-7.186],[38.432,-7.181],[38.454,-7.139],[38.491,-7.094],[38.516,-7.043],[38.51,-7.03],[38.5,-7.019],[38.497,-6.983],[38.478,-6.968],[38.453,-6.97],[38.437,-6.96],[38.417,-6.956],[38.402,-6.962],[38.386,-6.966],[38.374,-6.96],[38.365,-6.951],[38.347,-6.94],[38.325,-6.941],[38.286,-6.885],[38.295,-6.827],[38.321,-6.767],[38.304,-6.692],[38.286,-6.688],[38.267,-6.69],[38.256,-6.695],[38.247,-6.703],[38.223,-6.708],[38.2,-6.705],[38.1,-6.668],[38.07,-6.653],[38.042,-6.649],[38.023,-6.641],[38.014,-6.618],[38.001,-6.602],[37.991,-6.585],[37.995,-6.586],[37.996,-6.564],[38.014,-6.544],[38.039,-6.485],[38.06,-6.332],[38.057,-6.252],[38.039,-6.23],[38.013,-6.218],[38.02,-6.209],[38.034,-6.206],[38.011,-6.202],[37.984,-6.194],[37.969,-6.172],[37.958,-6.148],[37.932,-6.115],[37.905,-6.057],[37.887,-6.038],[37.881,-6.01],[37.879,-5.982],[37.849,-5.931],[37.802,-5.895],[37.953,-5.854],[38.021,-5.87],[38.05,-5.865],[38.076,-5.852],[38.147,-5.858],[38.21,-5.889],[38.238,-5.92],[38.275,-5.934],[38.318,-5.945],[38.344,-5.981],[38.371,-5.993],[38.403,-5.991],[38.418,-6.006],[38.435,-6.016],[38.469,-6.023],[38.479,-6.015],[38.49,-6.008],[38.508,-6.015],[38.528,-6.015],[38.542,-6.011],[38.556,-6.018],[38.613,-5.993],[38.635,-5.987],[38.653,-5.968],[38.667,-5.966],[38.68,-5.969],[38.7,-5.962],[38.717,-5.949],[38.8,-5.963],[38.795,-5.989],[38.785,-6.009],[38.778,-6.031],[38.779,-6.055],[38.783,-6.061],[38.795,-6.076],[38.8,-6.082],[38.809,-6.121],[38.813,-6.131],[38.819,-6.136],[38.841,-6.15],[38.857,-6.164],[38.859,-6.17],[38.862,-6.208],[38.86,-6.232],[38.853,-6.253],[38.841,-6.268],[38.849,-6.293],[38.852,-6.349],[38.865,-6.374],[38.876,-6.382],[38.888,-6.388],[38.898,-6.395],[38.903,-6.404],[38.904,-6.415],[38.909,-6.426],[38.915,-6.437],[38.923,-6.445],[38.929,-6.449],[38.934,-6.451],[38.947,-6.452],[38.954,-6.455],[38.957,-6.462],[38.96,-6.469],[38.965,-6.473],[38.977,-6.476],[39.005,-6.477],[39.016,-6.483],[39.026,-6.487],[39.037,-6.483],[39.036,-6.475],[39.027,-6.471],[39.011,-6.465],[38.991,-6.452],[39.02,-6.461],[39.041,-6.47],[39.096,-6.522],[39.129,-6.562],[39.12,-6.566],[39.103,-6.585],[39.084,-6.601],[39.066,-6.645],[39.061,-6.693],[39.048,-6.737],[39.02,-6.773],[39.018,-6.787],[39.042,-6.789],[39.054,-6.8],[39.055,-6.819],[39.062,-6.853],[39.091,-6.871],[39.096,-6.891],[39.105,-6.912],[39.094,-6.931],[39.074,-6.943],[39.062,-6.964],[39.057,-6.988],[39.039,-7.009],[39.027,-7.033],[39.039,-7.043],[39.058,-7.037],[39.079,-7.056],[39.102,-7.041],[39.115,-7.019],[39.136,-7.003],[39.151,-7.01],[39.169,-7.016],[39.184,-7.003],[39.193,-6.986],[39.208,-6.988],[39.223,-6.987],[39.246,-6.954],[39.28,-6.95],[39.293,-6.951],[39.307,-6.949],[39.332,-6.953],[39.358,-6.96],[39.386,-6.992],[39.408,-7.028],[39.409,-7.17],[39.423,-7.166],[39.434,-7.181],[39.435,-7.182]]],[[[39.896,-7.638],[39.911,-7.654],[39.909,-7.687],[39.893,-7.754],[39.865,-7.819],[39.852,-7.837],[39.85,-7.844],[39.85,-7.851],[39.848,-7.857],[39.842,-7.878],[39.839,-7.883],[39.83,-7.895],[39.828,-7.902],[39.823,-7.914],[39.811,-7.914],[39.784,-7.906],[39.755,-7.915],[39.742,-7.937],[39.736,-7.96],[39.726,-7.973],[39.687,-7.989],[39.667,-7.993],[39.65,-7.994],[39.63,-7.986],[39.603,-7.958],[39.587,-7.945],[39.597,-7.943],[39.613,-7.943],[39.622,-7.939],[39.622,-7.936],[39.625,-7.929],[39.628,-7.923],[39.629,-7.923],[39.632,-7.915],[39.637,-7.913],[39.644,-7.914],[39.65,-7.912],[39.693,-7.87],[39.708,-7.847],[39.698,-7.836],[39.704,-7.819],[39.715,-7.812],[39.731,-7.81],[39.749,-7.81],[39.766,-7.806],[39.797,-7.792],[39.814,-7.789],[39.809,-7.78],[39.799,-7.779],[39.773,-7.782],[39.773,-7.775],[39.785,-7.773],[39.796,-7.767],[39.814,-7.754],[39.836,-7.746],[39.845,-7.738],[39.852,-7.712],[39.86,-7.697],[39.87,-7.684],[39.879,-7.679],[39.884,-7.673],[39.894,-7.648],[39.896,-7.638]]],[[[39.742,-7.995],[39.774,-7.991],[39.797,-7.992],[39.801,-8.007],[39.791,-8.02],[39.749,-8.065],[39.719,-8.093],[39.703,-8.091],[39.697,-8.075],[39.703,-8.049],[39.715,-8.028],[39.742,-7.995]]]]}},{"type":"Feature","id":"TZ-20","properties":{"id":"TZ-20","countryCode":"TZ","isoSubdivision":"TZ-20","name":"Rukwa","name_en":"Rukwa","name_ko":"루콰","type":"Region","labelLongitude":31.334,"labelLatitude":-7.896,"minZoom":6.7},"geometry":{"type":"Polygon","coordinates":[[[30.752,-8.194],[30.728,-8.104],[30.655,-7.927],[30.442,-7.596],[30.415,-7.502],[30.405,-7.436],[30.37,-7.31],[30.294,-7.149],[30.578,-6.946],[30.687,-6.913],[30.905,-6.902],[30.992,-6.935],[31.035,-7.066],[31.035,-7.153],[31.079,-7.218],[31.22,-7.229],[31.384,-7.24],[31.438,-7.305],[31.449,-7.414],[31.471,-7.567],[31.493,-7.708],[31.624,-7.73],[31.787,-7.752],[32.01,-7.789],[32.279,-7.929],[32.464,-8.052],[32.511,-8.099],[32.742,-8.405],[32.75,-8.47],[32.713,-8.463],[32.674,-8.468],[32.632,-8.465],[32.549,-8.36],[32.544,-8.331],[32.543,-8.301],[32.528,-8.277],[32.532,-8.247],[32.528,-8.227],[32.502,-8.215],[32.376,-8.299],[32.315,-8.301],[32.278,-8.345],[32.275,-8.402],[32.292,-8.456],[32.287,-8.569],[32.212,-8.664],[32.155,-8.698],[32.03,-8.743],[32.009,-8.783],[32.055,-8.813],[32.091,-8.85],[32.07,-8.879],[32.088,-8.898],[32.111,-8.914],[32.149,-8.95],[32.162,-8.99],[32.146,-8.992],[32.137,-9.004],[32.146,-9.064],[32.146,-9.07],[32.134,-9.064],[32.125,-9.064],[32.106,-9.068],[32.096,-9.069],[32.086,-9.066],[32.057,-9.05],[32.032,-9.046],[32.016,-9.053],[32.001,-9.063],[31.981,-9.072],[31.938,-9.062],[31.918,-9.022],[31.918,-8.973],[31.937,-8.933],[31.788,-8.892],[31.764,-8.894],[31.73,-8.912],[31.71,-8.92],[31.69,-8.92],[31.673,-8.913],[31.576,-8.84],[31.553,-8.809],[31.546,-8.766],[31.546,-8.729],[31.539,-8.704],[31.519,-8.687],[31.481,-8.676],[31.465,-8.666],[31.443,-8.642],[31.428,-8.633],[31.412,-8.632],[31.399,-8.634],[31.386,-8.633],[31.373,-8.624],[31.369,-8.617],[31.366,-8.599],[31.362,-8.592],[31.353,-8.587],[31.35,-8.589],[31.348,-8.592],[31.34,-8.595],[31.329,-8.598],[31.277,-8.616],[31.269,-8.621],[31.261,-8.624],[31.248,-8.622],[31.237,-8.614],[31.218,-8.589],[31.207,-8.581],[31.183,-8.581],[31.161,-8.592],[31.141,-8.606],[31.12,-8.617],[31.078,-8.616],[31.034,-8.6],[30.992,-8.576],[30.96,-8.55],[30.892,-8.479],[30.828,-8.388],[30.778,-8.289],[30.752,-8.194]]]}},{"type":"Feature","id":"TZ-21","properties":{"id":"TZ-21","countryCode":"TZ","isoSubdivision":"TZ-21","name":"Ruvuma","name_en":"Ruvuma","name_ko":"루부마","type":"Region","labelLongitude":36.337,"labelLatitude":-10.714,"minZoom":6.7},"geometry":{"type":"Polygon","coordinates":[[[34.609,-10.582],[34.6,-10.578],[34.592,-10.567],[34.586,-10.554],[34.581,-10.54],[34.58,-10.532],[34.582,-10.532],[34.608,-10.527],[34.62,-10.53],[34.632,-10.537],[34.663,-10.535],[34.692,-10.523],[34.778,-10.468],[34.824,-10.404],[34.898,-10.368],[34.984,-10.302],[34.989,-10.236],[35.013,-10.211],[35.047,-10.198],[35.083,-10.199],[35.119,-10.191],[35.132,-10.158],[35.216,-10.042],[35.206,-9.976],[35.167,-9.919],[35.17,-9.871],[35.155,-9.835],[35.133,-9.814],[35.114,-9.787],[35.124,-9.76],[35.157,-9.742],[35.23,-9.713],[35.327,-9.61],[35.392,-9.575],[35.479,-9.495],[35.517,-9.471],[35.547,-9.44],[35.585,-9.416],[35.631,-9.394],[35.667,-9.369],[35.697,-9.34],[35.737,-9.33],[35.777,-9.315],[35.836,-9.261],[35.9,-9.189],[35.903,-9.198],[35.897,-9.208],[35.897,-9.224],[35.902,-9.244],[35.905,-9.316],[35.916,-9.351],[35.934,-9.384],[35.918,-9.434],[35.878,-9.471],[35.862,-9.502],[35.858,-9.533],[35.868,-9.554],[35.861,-9.575],[35.826,-9.618],[35.782,-9.687],[35.763,-9.703],[35.741,-9.704],[35.725,-9.717],[35.718,-9.777],[35.762,-9.811],[35.901,-9.806],[35.937,-9.811],[35.973,-9.809],[35.989,-9.788],[35.999,-9.761],[36.044,-9.722],[36.088,-9.709],[36.085,-9.722],[36.092,-9.729],[36.101,-9.727],[36.107,-9.735],[36.133,-9.751],[36.221,-9.729],[36.282,-9.739],[36.364,-9.727],[36.37,-9.723],[36.396,-9.696],[36.44,-9.634],[36.449,-9.609],[36.449,-9.564],[36.47,-9.558],[36.481,-9.553],[36.494,-9.581],[36.493,-9.613],[36.524,-9.689],[36.564,-9.762],[36.533,-9.843],[36.478,-9.914],[36.504,-9.961],[36.572,-9.959],[36.664,-9.909],[36.744,-9.84],[36.802,-9.772],[36.869,-9.713],[36.947,-9.663],[36.98,-9.649],[37.069,-9.583],[37.143,-9.561],[37.129,-9.621],[37.106,-9.679],[37.062,-9.741],[36.985,-9.825],[36.903,-9.899],[36.877,-9.954],[36.87,-10.015],[36.874,-10.088],[36.871,-10.159],[36.921,-10.201],[37.162,-10.293],[37.718,-10.427],[37.764,-10.46],[37.795,-10.477],[37.822,-10.498],[37.846,-10.539],[37.857,-10.562],[37.864,-10.585],[37.89,-10.629],[37.904,-10.676],[37.921,-10.701],[37.943,-10.726],[37.993,-10.817],[38.024,-11.02],[38.093,-11.256],[38.071,-11.256],[38.014,-11.265],[38.004,-11.275],[37.995,-11.278],[37.955,-11.28],[37.938,-11.284],[37.875,-11.319],[37.868,-11.328],[37.866,-11.342],[37.85,-11.388],[37.841,-11.4],[37.842,-11.418],[37.818,-11.46],[37.813,-11.482],[37.817,-11.496],[37.823,-11.508],[37.825,-11.52],[37.817,-11.534],[37.804,-11.545],[37.784,-11.559],[37.711,-11.59],[37.666,-11.626],[37.648,-11.636],[37.626,-11.64],[37.595,-11.64],[37.573,-11.644],[37.537,-11.663],[37.516,-11.667],[37.504,-11.673],[37.496,-11.685],[37.49,-11.699],[37.485,-11.709],[37.476,-11.716],[37.47,-11.719],[37.451,-11.723],[37.428,-11.723],[37.378,-11.709],[37.37,-11.705],[37.352,-11.686],[37.341,-11.681],[37.331,-11.682],[37.324,-11.685],[37.316,-11.69],[37.306,-11.695],[37.27,-11.698],[37.227,-11.694],[37.142,-11.675],[37.106,-11.658],[37.072,-11.629],[37.044,-11.596],[37.032,-11.565],[37.017,-11.574],[37.008,-11.581],[36.998,-11.585],[36.906,-11.593],[36.891,-11.59],[36.866,-11.574],[36.847,-11.573],[36.837,-11.568],[36.82,-11.574],[36.775,-11.626],[36.747,-11.666],[36.738,-11.675],[36.727,-11.681],[36.69,-11.695],[36.68,-11.702],[36.675,-11.709],[36.667,-11.713],[36.641,-11.716],[36.626,-11.721],[36.563,-11.731],[36.546,-11.729],[36.521,-11.717],[36.515,-11.715],[36.509,-11.71],[36.503,-11.686],[36.495,-11.681],[36.378,-11.681],[36.373,-11.683],[36.368,-11.688],[36.361,-11.692],[36.33,-11.697],[36.293,-11.707],[36.279,-11.709],[36.268,-11.706],[36.253,-11.697],[36.241,-11.695],[36.2,-11.702],[36.188,-11.694],[36.179,-11.676],[36.176,-11.655],[36.183,-11.64],[36.176,-11.62],[36.174,-11.597],[36.168,-11.579],[36.152,-11.571],[36.143,-11.569],[36.136,-11.564],[36.13,-11.557],[36.121,-11.551],[36.112,-11.547],[36.089,-11.541],[36.08,-11.537],[36.043,-11.515],[36.022,-11.506],[36.008,-11.507],[35.989,-11.512],[35.97,-11.502],[35.961,-11.484],[35.97,-11.461],[35.953,-11.441],[35.94,-11.434],[35.902,-11.435],[35.896,-11.433],[35.867,-11.421],[35.826,-11.413],[35.813,-11.422],[35.782,-11.461],[35.764,-11.475],[35.714,-11.484],[35.696,-11.495],[35.703,-11.517],[35.691,-11.524],[35.68,-11.538],[35.672,-11.551],[35.665,-11.572],[35.655,-11.578],[35.601,-11.592],[35.6,-11.592],[35.576,-11.605],[35.56,-11.601],[35.544,-11.595],[35.533,-11.596],[35.532,-11.613],[35.52,-11.609],[35.516,-11.604],[35.513,-11.597],[35.508,-11.589],[35.499,-11.582],[35.494,-11.582],[35.49,-11.584],[35.484,-11.586],[35.483,-11.587],[35.47,-11.592],[35.466,-11.593],[35.441,-11.591],[35.432,-11.588],[35.425,-11.582],[35.424,-11.577],[35.382,-11.578],[34.965,-11.574],[34.963,-11.565],[34.963,-11.513],[34.961,-11.499],[34.956,-11.487],[34.951,-11.478],[34.949,-11.472],[34.944,-11.464],[34.935,-11.456],[34.926,-11.446],[34.917,-11.419],[34.898,-11.404],[34.894,-11.396],[34.887,-11.375],[34.868,-11.359],[34.844,-11.346],[34.8,-11.332],[34.792,-11.331],[34.785,-11.333],[34.772,-11.344],[34.766,-11.345],[34.759,-11.337],[34.737,-11.297],[34.743,-11.294],[34.752,-11.287],[34.757,-11.284],[34.757,-11.278],[34.742,-11.269],[34.729,-11.254],[34.72,-11.235],[34.717,-11.212],[34.714,-11.203],[34.708,-11.195],[34.7,-11.189],[34.682,-11.185],[34.677,-11.179],[34.674,-11.17],[34.669,-11.16],[34.621,-11.12],[34.614,-11.102],[34.611,-11.078],[34.597,-11.037],[34.593,-11.016],[34.598,-10.991],[34.618,-10.966],[34.627,-10.954],[34.645,-10.913],[34.648,-10.903],[34.648,-10.859],[34.661,-10.796],[34.657,-10.77],[34.663,-10.761],[34.675,-10.752],[34.672,-10.739],[34.666,-10.732],[34.66,-10.728],[34.656,-10.722],[34.654,-10.718],[34.648,-10.708],[34.661,-10.687],[34.66,-10.665],[34.651,-10.645],[34.629,-10.62],[34.626,-10.614],[34.627,-10.595],[34.624,-10.583],[34.621,-10.582],[34.618,-10.581],[34.609,-10.582]]]}},{"type":"Feature","id":"TZ-22","properties":{"id":"TZ-22","countryCode":"TZ","isoSubdivision":"TZ-22","name":"Shinyanga","name_en":"Shinyanga","name_ko":"시니앙가","type":"Region","labelLongitude":33.202,"labelLatitude":-3.651,"minZoom":6.7},"geometry":{"type":"Polygon","coordinates":[[[33.676,-3.933],[33.656,-3.918],[33.651,-3.892],[33.596,-3.88],[33.538,-3.894],[33.51,-3.904],[33.442,-3.904],[33.386,-3.89],[33.271,-3.917],[33.182,-3.959],[33.129,-3.962],[33.069,-3.957],[33.024,-3.919],[32.983,-3.905],[32.935,-3.926],[32.864,-3.911],[32.846,-3.919],[32.832,-3.934],[32.768,-3.962],[32.713,-3.98],[32.724,-4.037],[32.709,-4.092],[32.685,-4.095],[32.674,-4.114],[32.657,-4.129],[32.65,-4.146],[32.667,-4.167],[32.687,-4.184],[32.732,-4.2],[32.713,-4.253],[32.616,-4.281],[32.592,-4.282],[32.591,-4.265],[32.592,-4.247],[32.581,-4.218],[32.562,-4.198],[32.529,-4.183],[32.494,-4.204],[32.468,-4.209],[32.452,-4.234],[32.445,-4.274],[32.452,-4.312],[32.448,-4.333],[32.433,-4.345],[32.407,-4.377],[32.371,-4.385],[32.331,-4.366],[32.293,-4.343],[32.211,-4.317],[32.128,-4.333],[32.046,-4.395],[31.972,-4.43],[31.979,-4.392],[31.982,-4.351],[31.968,-4.301],[31.964,-4.25],[31.966,-4.196],[31.959,-4.144],[31.93,-4.116],[31.896,-4.092],[31.807,-4.074],[31.691,-4.038],[31.677,-3.968],[31.691,-3.905],[31.747,-3.82],[31.835,-3.743],[31.941,-3.694],[32.043,-3.68],[32.134,-3.673],[32.148,-3.595],[32.131,-3.497],[32.117,-3.395],[32.138,-3.328],[32.181,-3.272],[32.212,-3.247],[32.25,-3.236],[32.28,-3.257],[32.289,-3.295],[32.315,-3.316],[32.346,-3.319],[32.362,-3.286],[32.386,-3.259],[32.416,-3.234],[32.478,-3.204],[32.51,-3.198],[32.532,-3.227],[32.541,-3.264],[32.533,-3.32],[32.534,-3.371],[32.569,-3.398],[32.649,-3.447],[32.687,-3.448],[32.688,-3.42],[32.664,-3.416],[32.66,-3.385],[32.674,-3.347],[32.681,-3.32],[32.71,-3.322],[32.739,-3.308],[32.754,-3.276],[32.774,-3.264],[32.8,-3.271],[32.833,-3.261],[32.862,-3.255],[32.893,-3.278],[32.921,-3.305],[32.937,-3.342],[32.964,-3.363],[32.997,-3.373],[33.028,-3.389],[33.048,-3.391],[33.067,-3.4],[33.086,-3.419],[33.11,-3.433],[33.176,-3.402],[33.214,-3.328],[33.249,-3.315],[33.286,-3.324],[33.329,-3.318],[33.368,-3.307],[33.423,-3.274],[33.475,-3.28],[33.523,-3.322],[33.594,-3.389],[33.681,-3.431],[33.732,-3.444],[33.769,-3.436],[33.803,-3.418],[33.832,-3.431],[33.862,-3.487],[33.909,-3.516],[33.983,-3.524],[34.076,-3.526],[34.158,-3.55],[34.19,-3.603],[34.225,-3.717],[34.267,-3.815],[34.323,-3.887],[34.365,-3.926],[34.413,-3.961],[34.388,-3.988],[34.327,-4.004],[34.289,-4.036],[34.26,-4.032],[34.237,-4.045],[34.224,-4.069],[34.196,-4.07],[34.162,-4.056],[34.126,-4.053],[34.106,-4.047],[34.091,-4.033],[34.071,-4.025],[34.049,-4.032],[34.017,-4.031],[33.984,-4.022],[33.957,-4.003],[33.936,-3.975],[33.91,-3.959],[33.878,-3.955],[33.818,-3.953],[33.743,-3.927],[33.709,-3.928],[33.676,-3.933]]]}},{"type":"Feature","id":"TZ-23","properties":{"id":"TZ-23","countryCode":"TZ","isoSubdivision":"TZ-23","name":"Singida","name_en":"Singida","name_ko":"싱기다","type":"Region","labelLongitude":34.415,"labelLatitude":-5.596,"minZoom":6.7},"geometry":{"type":"Polygon","coordinates":[[[35.341,-4.854],[35.345,-4.89],[35.328,-4.923],[35.319,-4.949],[35.076,-5.116],[35.07,-5.149],[35.091,-5.183],[35.094,-5.22],[35.093,-5.257],[35.106,-5.298],[35.124,-5.337],[35.14,-5.405],[35.163,-5.438],[35.19,-5.467],[35.202,-5.499],[35.22,-5.528],[35.235,-5.537],[35.246,-5.55],[35.253,-5.556],[35.262,-5.558],[35.267,-5.575],[35.269,-5.594],[35.294,-5.635],[35.327,-5.671],[35.339,-5.7],[35.318,-5.725],[35.287,-5.753],[35.282,-5.793],[35.272,-5.831],[35.246,-5.869],[35.211,-5.952],[35.207,-6.068],[35.185,-6.158],[35.194,-6.245],[35.214,-6.28],[35.223,-6.32],[35.223,-6.356],[35.206,-6.387],[35.196,-6.477],[35.214,-6.649],[35.186,-6.715],[35.06,-6.721],[35.076,-6.814],[35.081,-6.92],[35.041,-6.908],[34.999,-6.903],[34.958,-6.893],[34.919,-6.89],[34.904,-6.904],[34.886,-6.916],[34.866,-6.923],[34.849,-6.936],[34.806,-6.961],[34.769,-6.99],[34.758,-7.087],[34.721,-7.157],[34.426,-7.218],[34.376,-7.278],[34.378,-7.31],[34.358,-7.326],[34.311,-7.333],[34.265,-7.331],[34.22,-7.314],[34.174,-7.314],[34.14,-7.351],[34.109,-7.394],[34.026,-7.45],[33.939,-7.499],[33.893,-7.479],[33.852,-7.449],[33.832,-7.444],[33.815,-7.435],[33.812,-7.394],[33.794,-7.352],[33.791,-7.325],[33.778,-7.302],[33.72,-7.284],[33.701,-7.264],[33.685,-7.241],[33.661,-7.197],[33.627,-7.164],[33.584,-7.148],[33.56,-7.108],[33.552,-7.053],[33.538,-7.001],[33.515,-6.968],[33.485,-6.943],[33.528,-6.855],[33.523,-6.749],[33.529,-6.643],[33.519,-6.621],[33.566,-6.564],[33.582,-6.555],[33.654,-6.528],[33.756,-6.425],[33.796,-6.396],[33.817,-6.387],[33.842,-6.384],[33.853,-6.375],[33.888,-6.319],[33.946,-6.27],[34.015,-6.219],[34.011,-6.187],[34,-6.152],[34.003,-6.069],[34.055,-5.875],[34.056,-5.787],[34.059,-5.768],[34.065,-5.75],[34.091,-5.729],[34.112,-5.687],[34.109,-5.642],[34.079,-5.619],[34.057,-5.593],[34.101,-5.526],[34.166,-5.471],[34.203,-5.433],[34.231,-5.39],[34.21,-5.363],[34.121,-5.273],[34.087,-5.251],[34.054,-5.225],[34.009,-5.199],[33.958,-5.18],[33.929,-5.15],[33.92,-5.108],[33.914,-5.066],[33.942,-4.988],[33.933,-4.949],[33.917,-4.901],[33.916,-4.851],[33.952,-4.754],[33.95,-4.668],[33.939,-4.584],[33.96,-4.493],[34.079,-4.339],[34.122,-4.246],[34.174,-4.158],[34.197,-4.138],[34.229,-4.149],[34.26,-4.146],[34.268,-4.114],[34.277,-4.098],[34.285,-4.08],[34.289,-4.036],[34.327,-4.004],[34.388,-3.988],[34.413,-3.961],[34.443,-3.939],[34.479,-3.928],[34.515,-3.92],[34.685,-3.852],[34.698,-3.83],[34.725,-3.809],[34.76,-3.802],[34.824,-3.859],[34.892,-3.909],[34.929,-3.985],[35.014,-4.078],[35.017,-4.108],[34.96,-4.184],[34.906,-4.28],[34.869,-4.381],[34.914,-4.431],[34.982,-4.472],[35.032,-4.529],[35.069,-4.61],[35.136,-4.642],[35.145,-4.681],[35.145,-4.724],[35.185,-4.751],[35.244,-4.761],[35.281,-4.832],[35.341,-4.854]]]}},{"type":"Feature","id":"TZ-24","properties":{"id":"TZ-24","countryCode":"TZ","isoSubdivision":"TZ-24","name":"Tabora","name_en":"Tabora","name_ko":"타보라","type":"Region","labelLongitude":32.66,"labelLatitude":-6.821,"minZoom":6.7},"geometry":{"type":"Polygon","coordinates":[[[34.289,-4.036],[34.285,-4.08],[34.277,-4.098],[34.268,-4.114],[34.26,-4.146],[34.229,-4.149],[34.197,-4.138],[34.174,-4.158],[34.122,-4.246],[34.079,-4.339],[33.96,-4.493],[33.939,-4.584],[33.95,-4.668],[33.952,-4.754],[33.916,-4.851],[33.917,-4.901],[33.933,-4.949],[33.942,-4.988],[33.914,-5.066],[33.92,-5.108],[33.929,-5.15],[33.958,-5.18],[34.009,-5.199],[34.054,-5.225],[34.087,-5.251],[34.121,-5.273],[34.21,-5.363],[34.231,-5.39],[34.203,-5.433],[34.166,-5.471],[34.101,-5.526],[34.057,-5.593],[34.079,-5.619],[34.109,-5.642],[34.112,-5.687],[34.091,-5.729],[34.065,-5.75],[34.059,-5.768],[34.056,-5.787],[34.055,-5.875],[34.003,-6.069],[34,-6.152],[34.011,-6.187],[34.015,-6.219],[33.946,-6.27],[33.888,-6.319],[33.853,-6.375],[33.842,-6.384],[33.817,-6.387],[33.796,-6.396],[33.756,-6.425],[33.654,-6.528],[33.582,-6.555],[33.566,-6.564],[33.519,-6.621],[33.529,-6.643],[33.523,-6.749],[33.528,-6.855],[33.485,-6.943],[33.268,-6.956],[33.187,-6.937],[33.118,-6.891],[33.036,-6.867],[32.95,-6.887],[32.919,-6.898],[32.895,-6.92],[32.861,-6.941],[32.817,-6.937],[32.792,-6.947],[32.781,-6.972],[32.716,-7.075],[32.691,-7.094],[32.623,-7.105],[32.553,-7.104],[32.576,-7.003],[32.587,-6.901],[32.581,-6.797],[32.585,-6.693],[32.614,-6.601],[32.673,-6.527],[32.701,-6.51],[32.721,-6.484],[32.731,-6.466],[32.737,-6.447],[32.73,-6.433],[32.721,-6.42],[32.716,-6.399],[32.699,-6.389],[32.553,-6.376],[32.512,-6.361],[32.482,-6.329],[32.445,-6.272],[32.43,-6.257],[32.421,-6.253],[32.398,-6.249],[32.38,-6.235],[32.344,-6.22],[32.334,-6.213],[32.328,-6.208],[32.318,-6.192],[32.317,-6.188],[32.319,-6.176],[32.318,-6.172],[32.312,-6.167],[32.299,-6.165],[32.293,-6.161],[32.28,-6.151],[32.228,-6.124],[32.204,-6.105],[32.178,-6.077],[32.155,-6.043],[32.138,-6.007],[32.121,-5.939],[32.108,-5.921],[32.101,-5.905],[32.102,-5.855],[32.098,-5.836],[32.091,-5.827],[32.072,-5.81],[32.064,-5.801],[32.06,-5.792],[32.057,-5.78],[32.053,-5.771],[32.047,-5.767],[32.026,-5.764],[31.968,-5.746],[31.968,-5.74],[31.953,-5.748],[31.935,-5.747],[31.889,-5.738],[31.865,-5.726],[31.862,-5.727],[31.858,-5.73],[31.854,-5.732],[31.848,-5.729],[31.839,-5.719],[31.833,-5.714],[31.827,-5.712],[31.798,-5.719],[31.776,-5.734],[31.756,-5.752],[31.735,-5.767],[31.715,-5.776],[31.707,-5.781],[31.696,-5.791],[31.69,-5.798],[31.69,-5.801],[31.677,-5.804],[31.64,-5.819],[31.628,-5.825],[31.618,-5.827],[31.543,-5.804],[31.532,-5.807],[31.522,-5.822],[31.507,-5.811],[31.49,-5.812],[31.471,-5.819],[31.451,-5.822],[31.428,-5.819],[31.409,-5.81],[31.372,-5.787],[31.353,-5.795],[31.312,-5.79],[31.293,-5.798],[31.275,-5.801],[31.261,-5.786],[31.241,-5.753],[31.222,-5.746],[31.201,-5.749],[31.181,-5.756],[31.162,-5.76],[31.149,-5.757],[31.147,-5.75],[31.152,-5.736],[31.151,-5.73],[31.146,-5.72],[31.145,-5.715],[31.152,-5.692],[31.148,-5.676],[31.144,-5.666],[31.139,-5.658],[31.142,-5.65],[31.142,-5.644],[31.139,-5.637],[31.134,-5.636],[31.12,-5.636],[31.115,-5.634],[31.048,-5.584],[31.044,-5.582],[31.04,-5.579],[31.033,-5.563],[31.03,-5.551],[31.031,-5.539],[31.06,-5.523],[31.062,-5.499],[31.14,-5.478],[31.212,-5.462],[31.23,-5.427],[31.193,-5.268],[31.202,-5.153],[31.25,-5.018],[31.246,-4.991],[31.234,-4.976],[31.228,-4.959],[31.234,-4.956],[31.284,-4.918],[31.307,-4.91],[31.314,-4.906],[31.318,-4.899],[31.322,-4.883],[31.326,-4.877],[31.344,-4.866],[31.39,-4.844],[31.398,-4.832],[31.387,-4.727],[31.392,-4.71],[31.411,-4.697],[31.467,-4.676],[31.475,-4.666],[31.491,-4.621],[31.473,-4.545],[31.464,-4.47],[31.452,-4.445],[31.424,-4.448],[31.417,-4.403],[31.417,-4.356],[31.439,-4.321],[31.45,-4.279],[31.476,-4.247],[31.516,-4.236],[31.613,-4.246],[31.682,-4.212],[31.676,-4.184],[31.664,-4.158],[31.645,-4.146],[31.637,-4.128],[31.651,-4.098],[31.691,-4.038],[31.807,-4.074],[31.896,-4.092],[31.93,-4.116],[31.959,-4.144],[31.966,-4.196],[31.964,-4.25],[31.968,-4.301],[31.982,-4.351],[31.979,-4.392],[31.972,-4.43],[32.046,-4.395],[32.128,-4.333],[32.211,-4.317],[32.293,-4.343],[32.331,-4.366],[32.371,-4.385],[32.407,-4.377],[32.433,-4.345],[32.448,-4.333],[32.452,-4.312],[32.445,-4.274],[32.452,-4.234],[32.468,-4.209],[32.494,-4.204],[32.529,-4.183],[32.562,-4.198],[32.581,-4.218],[32.592,-4.247],[32.591,-4.265],[32.592,-4.282],[32.616,-4.281],[32.713,-4.253],[32.732,-4.2],[32.687,-4.184],[32.667,-4.167],[32.65,-4.146],[32.657,-4.129],[32.674,-4.114],[32.685,-4.095],[32.709,-4.092],[32.724,-4.037],[32.713,-3.98],[32.768,-3.962],[32.832,-3.934],[32.846,-3.919],[32.864,-3.911],[32.935,-3.926],[32.983,-3.905],[33.024,-3.919],[33.069,-3.957],[33.129,-3.962],[33.182,-3.959],[33.271,-3.917],[33.386,-3.89],[33.442,-3.904],[33.51,-3.904],[33.538,-3.894],[33.596,-3.88],[33.651,-3.892],[33.656,-3.918],[33.676,-3.933],[33.709,-3.928],[33.743,-3.927],[33.818,-3.953],[33.878,-3.955],[33.91,-3.959],[33.936,-3.975],[33.957,-4.003],[33.984,-4.022],[34.017,-4.031],[34.049,-4.032],[34.071,-4.025],[34.091,-4.033],[34.106,-4.047],[34.126,-4.053],[34.162,-4.056],[34.196,-4.07],[34.224,-4.069],[34.237,-4.045],[34.26,-4.032],[34.289,-4.036]]]}},{"type":"Feature","id":"TZ-25","properties":{"id":"TZ-25","countryCode":"TZ","isoSubdivision":"TZ-25","name":"Tanga","name_en":"Tanga","name_ko":"탕가","type":"Region","labelLongitude":38.141,"labelLatitude":-5.185,"minZoom":6.7},"geometry":{"type":"Polygon","coordinates":[[[38.416,-4.12],[38.423,-4.125],[38.508,-4.186],[38.594,-4.248],[38.679,-4.309],[38.764,-4.371],[38.85,-4.432],[38.935,-4.493],[39.02,-4.555],[39.106,-4.616],[39.191,-4.678],[39.197,-4.684],[39.215,-4.689],[39.222,-4.717],[39.216,-4.749],[39.197,-4.766],[39.17,-4.78],[39.192,-4.789],[39.207,-4.79],[39.216,-4.796],[39.219,-4.818],[39.217,-4.839],[39.214,-4.856],[39.207,-4.872],[39.175,-4.926],[39.162,-4.939],[39.157,-4.924],[39.16,-4.904],[39.166,-4.885],[39.17,-4.866],[39.163,-4.848],[39.146,-4.9],[39.13,-4.918],[39.109,-4.917],[39.126,-4.943],[39.129,-4.953],[39.132,-5.01],[39.129,-5.02],[39.122,-5.025],[39.107,-5.02],[39.098,-5.023],[39.094,-5.028],[39.084,-5.048],[39.083,-5.061],[39.097,-5.061],[39.129,-5.048],[39.13,-5.063],[39.141,-5.087],[39.143,-5.096],[39.139,-5.103],[39.101,-5.136],[39.094,-5.145],[39.074,-5.186],[39.044,-5.232],[39.04,-5.239],[39.048,-5.247],[39.059,-5.238],[39.075,-5.219],[39.081,-5.231],[39.037,-5.357],[39.026,-5.379],[39.012,-5.397],[39.002,-5.404],[38.99,-5.41],[38.981,-5.417],[38.978,-5.431],[38.983,-5.44],[38.99,-5.443],[38.997,-5.449],[38.999,-5.465],[38.985,-5.505],[38.957,-5.564],[38.922,-5.616],[38.889,-5.637],[38.903,-5.643],[38.896,-5.664],[38.895,-5.711],[38.886,-5.729],[38.873,-5.745],[38.855,-5.782],[38.833,-5.816],[38.825,-5.837],[38.822,-5.861],[38.821,-5.925],[38.817,-5.935],[38.811,-5.942],[38.805,-5.95],[38.801,-5.96],[38.8,-5.963],[38.717,-5.949],[38.7,-5.962],[38.68,-5.969],[38.667,-5.966],[38.653,-5.968],[38.635,-5.987],[38.613,-5.993],[38.556,-6.018],[38.542,-6.011],[38.528,-6.015],[38.508,-6.015],[38.49,-6.008],[38.479,-6.015],[38.469,-6.023],[38.435,-6.016],[38.418,-6.006],[38.403,-5.991],[38.371,-5.993],[38.344,-5.981],[38.318,-5.945],[38.275,-5.934],[38.238,-5.92],[38.21,-5.889],[38.147,-5.858],[38.076,-5.852],[38.05,-5.865],[38.021,-5.87],[37.953,-5.854],[37.802,-5.895],[37.785,-5.909],[37.761,-5.902],[37.746,-5.915],[37.748,-5.943],[37.707,-5.956],[37.655,-5.953],[37.628,-5.98],[37.604,-5.96],[37.539,-5.885],[37.527,-5.839],[37.493,-5.825],[37.476,-5.823],[37.459,-5.814],[37.443,-5.816],[37.431,-5.811],[37.428,-5.804],[37.423,-5.8],[37.391,-5.789],[37.376,-5.816],[37.358,-5.931],[37.325,-5.96],[37.289,-5.974],[37.257,-6.013],[37.215,-6.044],[37.195,-6.084],[37.169,-6.111],[37.142,-6.093],[37.119,-6.069],[37.119,-6.06],[37.116,-6.053],[37.112,-6.027],[37.133,-5.998],[37.106,-5.989],[37.076,-5.974],[37.061,-5.868],[37.18,-5.787],[37.211,-5.736],[37.233,-5.619],[37.252,-5.565],[37.344,-5.446],[37.366,-5.38],[37.388,-5.283],[37.389,-5.255],[37.381,-5.229],[37.389,-5.206],[37.537,-5.028],[37.592,-4.978],[37.642,-4.978],[37.69,-4.995],[37.75,-5.009],[37.811,-4.994],[37.861,-4.978],[37.929,-4.963],[37.947,-4.962],[37.973,-4.981],[38.001,-4.997],[38.049,-4.999],[38.04,-4.961],[38.024,-4.935],[38.012,-4.907],[38.005,-4.875],[37.985,-4.848],[37.971,-4.806],[37.972,-4.757],[37.98,-4.691],[38.03,-4.639],[38.075,-4.607],[38.416,-4.12]]]}},{"type":"Feature","id":"TZ-26","properties":{"id":"TZ-26","countryCode":"TZ","isoSubdivision":"TZ-26","name":"Manyara","name_en":"Manyara","name_ko":"마냐라","type":"Region","labelLongitude":36.459,"labelLatitude":-4.888,"minZoom":6.7},"geometry":{"type":"Polygon","coordinates":[[[37.061,-5.868],[36.915,-5.985],[36.862,-6.002],[36.792,-5.982],[36.725,-5.956],[36.675,-5.912],[36.639,-5.856],[36.61,-5.797],[36.57,-5.749],[36.506,-5.719],[36.445,-5.681],[36.41,-5.636],[36.381,-5.586],[36.334,-5.54],[36.283,-5.498],[36.244,-5.458],[36.231,-5.412],[36.248,-5.356],[36.237,-5.293],[36.259,-5.239],[36.291,-5.19],[36.312,-5.12],[36.349,-4.879],[36.361,-4.676],[36.355,-4.643],[36.332,-4.592],[36.316,-4.538],[36.306,-4.481],[36.299,-4.185],[36.049,-4.255],[36.019,-4.278],[35.995,-4.292],[35.983,-4.301],[35.953,-4.351],[35.903,-4.35],[35.879,-4.367],[35.855,-4.379],[35.838,-4.37],[35.82,-4.362],[35.804,-4.374],[35.794,-4.391],[35.751,-4.432],[35.672,-4.486],[35.65,-4.477],[35.641,-4.483],[35.636,-4.5],[35.638,-4.517],[35.644,-4.533],[35.661,-4.568],[35.652,-4.607],[35.601,-4.687],[35.532,-4.826],[35.51,-4.862],[35.458,-4.87],[35.367,-4.862],[35.354,-4.856],[35.341,-4.854],[35.281,-4.832],[35.244,-4.761],[35.185,-4.751],[35.145,-4.724],[35.145,-4.681],[35.136,-4.642],[35.069,-4.61],[35.032,-4.529],[34.982,-4.472],[34.914,-4.431],[34.869,-4.381],[34.906,-4.28],[34.96,-4.184],[35.017,-4.108],[35.014,-4.078],[34.929,-3.985],[34.892,-3.909],[34.927,-3.891],[34.965,-3.875],[34.999,-3.857],[35.058,-3.839],[35.072,-3.824],[35.075,-3.809],[35.084,-3.797],[35.18,-3.738],[35.21,-3.739],[35.238,-3.73],[35.273,-3.706],[35.313,-3.691],[35.379,-3.624],[35.422,-3.624],[35.46,-3.645],[35.501,-3.653],[35.532,-3.666],[35.506,-3.695],[35.487,-3.729],[35.517,-3.76],[35.562,-3.766],[35.58,-3.74],[35.577,-3.701],[35.695,-3.67],[35.713,-3.634],[35.719,-3.564],[35.745,-3.568],[35.758,-3.615],[35.734,-3.687],[35.727,-3.76],[35.748,-3.829],[35.769,-3.823],[35.772,-3.793],[35.798,-3.759],[35.834,-3.728],[35.882,-3.664],[35.94,-3.645],[35.973,-3.692],[36.021,-3.781],[36.247,-4.109],[36.296,-4.129],[36.343,-4.124],[36.352,-4.103],[36.397,-4.094],[36.444,-4.09],[36.472,-4.082],[36.5,-4.083],[36.516,-4.089],[36.531,-4.082],[36.532,-4.025],[36.51,-3.899],[36.501,-3.784],[36.517,-3.744],[36.577,-3.665],[36.595,-3.658],[36.615,-3.654],[36.635,-3.636],[36.655,-3.63],[36.662,-3.613],[36.662,-3.603],[36.669,-3.595],[36.742,-3.591],[36.761,-3.596],[36.779,-3.609],[36.798,-3.642],[36.828,-3.635],[36.853,-3.602],[36.879,-3.573],[36.954,-3.572],[36.977,-3.552],[36.996,-3.525],[37.028,-3.504],[37.062,-3.491],[37.087,-3.485],[37.112,-3.482],[37.14,-3.485],[37.166,-3.458],[37.186,-3.453],[37.206,-3.451],[37.219,-3.466],[37.231,-3.484],[37.259,-3.493],[37.288,-3.495],[37.303,-3.507],[37.299,-3.526],[37.329,-3.599],[37.383,-3.658],[37.42,-3.72],[37.45,-3.773],[37.467,-3.817],[37.464,-3.928],[37.473,-3.979],[37.485,-3.999],[37.507,-4.075],[37.513,-4.102],[37.514,-4.13],[37.499,-4.166],[37.498,-4.197],[37.5,-4.23],[37.495,-4.307],[37.497,-4.383],[37.53,-4.44],[37.581,-4.482],[37.605,-4.485],[37.692,-4.534],[37.761,-4.587],[37.785,-4.596],[37.808,-4.592],[37.845,-4.569],[37.867,-4.566],[37.927,-4.568],[37.941,-4.574],[37.951,-4.58],[37.971,-4.584],[37.982,-4.588],[38.003,-4.607],[38.03,-4.639],[37.98,-4.691],[37.972,-4.757],[37.971,-4.806],[37.985,-4.848],[38.005,-4.875],[38.012,-4.907],[38.024,-4.935],[38.04,-4.961],[38.049,-4.999],[38.001,-4.997],[37.973,-4.981],[37.947,-4.962],[37.929,-4.963],[37.861,-4.978],[37.811,-4.994],[37.75,-5.009],[37.69,-4.995],[37.642,-4.978],[37.592,-4.978],[37.537,-5.028],[37.389,-5.206],[37.381,-5.229],[37.389,-5.255],[37.388,-5.283],[37.366,-5.38],[37.344,-5.446],[37.252,-5.565],[37.233,-5.619],[37.211,-5.736],[37.18,-5.787],[37.061,-5.868]]]}},{"type":"Feature","id":"TZ-27","properties":{"id":"TZ-27","countryCode":"TZ","isoSubdivision":"TZ-27","name":"Geita","name_en":"Geita","name_ko":"게이타","type":"Region","labelLongitude":31.697,"labelLatitude":-3.1,"minZoom":6.7},"geometry":{"type":"Polygon","coordinates":[[[31.417,-4.356],[31.384,-4.304],[31.362,-4.252],[31.359,-4.234],[31.347,-4.22],[31.343,-4.188],[31.335,-4.157],[31.338,-4.108],[31.371,-4.015],[31.376,-3.967],[31.359,-3.885],[31.298,-3.752],[31.242,-3.699],[31.218,-3.636],[31.216,-3.568],[31.206,-3.533],[31.202,-3.501],[31.205,-3.464],[31.188,-3.43],[31.187,-3.428],[31.165,-3.396],[31.147,-3.362],[31.122,-3.292],[31.11,-3.22],[31.058,-3.181],[31.039,-3.193],[31.024,-3.21],[31.012,-3.21],[31.003,-3.2],[31.005,-3.144],[31.043,-3.086],[31.071,-3.014],[31.069,-2.939],[31.064,-2.931],[31.056,-2.928],[31.049,-2.915],[31.048,-2.9],[31.024,-2.855],[30.982,-2.839],[30.97,-2.776],[30.921,-2.733],[30.875,-2.684],[30.91,-2.586],[31.019,-2.533],[31.167,-2.28],[31.199,-2.287],[31.265,-2.276],[31.318,-2.259],[31.364,-2.266],[31.564,-2.354],[31.634,-2.356],[31.684,-2.304],[31.728,-2.283],[31.728,-2.273],[31.735,-2.266],[31.741,-2.247],[31.74,-2.227],[31.734,-2.198],[31.747,-2.18],[31.819,-2.173],[31.877,-2.148],[31.895,-2.208],[31.903,-2.26],[31.907,-2.291],[31.927,-2.31],[31.938,-2.333],[31.935,-2.358],[31.952,-2.389],[31.98,-2.412],[32.056,-2.451],[32.121,-2.493],[32.162,-2.521],[32.214,-2.538],[32.245,-2.58],[32.414,-2.609],[32.36,-2.71],[32.535,-2.811],[32.51,-2.887],[32.597,-2.96],[32.51,-3.198],[32.478,-3.204],[32.416,-3.234],[32.386,-3.259],[32.362,-3.286],[32.346,-3.319],[32.315,-3.316],[32.289,-3.295],[32.28,-3.257],[32.25,-3.236],[32.212,-3.247],[32.181,-3.272],[32.138,-3.328],[32.117,-3.395],[32.131,-3.497],[32.148,-3.595],[32.134,-3.673],[32.043,-3.68],[31.941,-3.694],[31.835,-3.743],[31.747,-3.82],[31.691,-3.905],[31.677,-3.968],[31.691,-4.038],[31.651,-4.098],[31.637,-4.128],[31.645,-4.146],[31.664,-4.158],[31.676,-4.184],[31.682,-4.212],[31.613,-4.246],[31.516,-4.236],[31.476,-4.247],[31.45,-4.279],[31.439,-4.321],[31.417,-4.356]]]}},{"type":"Feature","id":"TZ-28","properties":{"id":"TZ-28","countryCode":"TZ","isoSubdivision":"TZ-28","name":"Katavi","name_en":"Katavi","name_ko":"카타비","type":"Region","labelLongitude":31.34,"labelLatitude":-6.428,"minZoom":6.7},"geometry":{"type":"Polygon","coordinates":[[[30.294,-7.149],[30.235,-7.057],[30.091,-6.89],[30.013,-6.825],[29.969,-6.803],[30.005,-6.779],[30.243,-6.581],[30.269,-6.546],[30.298,-6.458],[30.393,-6.394],[30.39,-6.348],[30.372,-6.308],[30.382,-6.245],[30.35,-6.209],[30.304,-6.181],[30.273,-6.095],[30.213,-5.983],[30.184,-5.901],[30.119,-5.52],[30.08,-5.434],[29.99,-5.357],[30.007,-5.335],[30.221,-5.332],[30.27,-5.321],[30.31,-5.287],[30.374,-5.214],[30.409,-5.19],[30.684,-5.188],[30.73,-5.191],[30.762,-5.211],[30.775,-5.233],[30.782,-5.239],[30.789,-5.241],[30.803,-5.238],[30.81,-5.239],[30.835,-5.257],[30.864,-5.299],[30.886,-5.315],[30.901,-5.301],[30.923,-5.261],[30.94,-5.253],[30.957,-5.26],[30.963,-5.278],[30.967,-5.321],[30.973,-5.333],[30.98,-5.341],[30.987,-5.347],[30.995,-5.355],[31.007,-5.38],[31.011,-5.387],[31.029,-5.405],[31.038,-5.418],[31.062,-5.499],[31.06,-5.523],[31.031,-5.539],[31.03,-5.551],[31.033,-5.563],[31.04,-5.579],[31.044,-5.582],[31.048,-5.584],[31.115,-5.634],[31.12,-5.636],[31.134,-5.636],[31.139,-5.637],[31.142,-5.644],[31.142,-5.65],[31.139,-5.658],[31.144,-5.666],[31.148,-5.676],[31.152,-5.692],[31.145,-5.715],[31.146,-5.72],[31.151,-5.73],[31.152,-5.736],[31.147,-5.75],[31.149,-5.757],[31.162,-5.76],[31.181,-5.756],[31.201,-5.749],[31.222,-5.746],[31.241,-5.753],[31.261,-5.786],[31.275,-5.801],[31.293,-5.798],[31.312,-5.79],[31.353,-5.795],[31.372,-5.787],[31.409,-5.81],[31.428,-5.819],[31.451,-5.822],[31.471,-5.819],[31.49,-5.812],[31.507,-5.811],[31.522,-5.822],[31.532,-5.807],[31.543,-5.804],[31.618,-5.827],[31.628,-5.825],[31.64,-5.819],[31.677,-5.804],[31.69,-5.801],[31.69,-5.798],[31.696,-5.791],[31.707,-5.781],[31.715,-5.776],[31.735,-5.767],[31.756,-5.752],[31.776,-5.734],[31.798,-5.719],[31.827,-5.712],[31.833,-5.714],[31.839,-5.719],[31.848,-5.729],[31.854,-5.732],[31.858,-5.73],[31.862,-5.727],[31.865,-5.726],[31.889,-5.738],[31.935,-5.747],[31.953,-5.748],[31.968,-5.74],[31.968,-5.746],[32.026,-5.764],[32.047,-5.767],[32.053,-5.771],[32.057,-5.78],[32.06,-5.792],[32.064,-5.801],[32.072,-5.81],[32.091,-5.827],[32.098,-5.836],[32.102,-5.855],[32.101,-5.905],[32.108,-5.921],[32.121,-5.939],[32.138,-6.007],[32.155,-6.043],[32.178,-6.077],[32.204,-6.105],[32.228,-6.124],[32.28,-6.151],[32.293,-6.161],[32.299,-6.165],[32.312,-6.167],[32.318,-6.172],[32.319,-6.176],[32.317,-6.188],[32.318,-6.192],[32.328,-6.208],[32.334,-6.213],[32.344,-6.22],[32.38,-6.235],[32.398,-6.249],[32.421,-6.253],[32.43,-6.257],[32.445,-6.272],[32.482,-6.329],[32.512,-6.361],[32.553,-6.376],[32.699,-6.389],[32.716,-6.399],[32.721,-6.42],[32.73,-6.433],[32.737,-6.447],[32.731,-6.466],[32.721,-6.484],[32.701,-6.51],[32.673,-6.527],[32.614,-6.601],[32.585,-6.693],[32.581,-6.797],[32.587,-6.901],[32.576,-7.003],[32.553,-7.104],[32.501,-7.132],[32.274,-7.21],[32.273,-7.316],[32.233,-7.424],[32.197,-7.496],[32.094,-7.534],[32.059,-7.588],[32.02,-7.668],[31.993,-7.754],[32.01,-7.789],[31.787,-7.752],[31.624,-7.73],[31.493,-7.708],[31.471,-7.567],[31.449,-7.414],[31.438,-7.305],[31.384,-7.24],[31.22,-7.229],[31.079,-7.218],[31.035,-7.153],[31.035,-7.066],[30.992,-6.935],[30.905,-6.902],[30.687,-6.913],[30.578,-6.946],[30.294,-7.149]]]}},{"type":"Feature","id":"TZ-29","properties":{"id":"TZ-29","countryCode":"TZ","isoSubdivision":"TZ-29","name":"Njombe","name_en":"Njombe","name_ko":"느좀베","type":"Region","labelLongitude":34.887,"labelLatitude":-9.399,"minZoom":6.7},"geometry":{"type":"Polygon","coordinates":[[[34.58,-10.532],[34.579,-10.526],[34.581,-10.514],[34.591,-10.491],[34.593,-10.482],[34.589,-10.463],[34.569,-10.431],[34.565,-10.41],[34.585,-10.301],[34.586,-10.29],[34.583,-10.278],[34.575,-10.256],[34.566,-10.203],[34.532,-10.129],[34.525,-10.095],[34.527,-10.085],[34.536,-10.065],[34.538,-10.054],[34.536,-10.043],[34.525,-10.009],[34.495,-9.967],[34.483,-9.946],[34.383,-9.824],[34.382,-9.82],[34.364,-9.802],[34.36,-9.8],[34.337,-9.777],[34.332,-9.769],[34.327,-9.75],[34.324,-9.732],[34.318,-9.719],[34.288,-9.708],[34.191,-9.607],[34.162,-9.594],[34.145,-9.575],[34.137,-9.571],[34.103,-9.53],[34.089,-9.522],[34.08,-9.511],[34.078,-9.51],[34.082,-9.478],[34.042,-9.438],[34.022,-9.435],[34.003,-9.427],[33.973,-9.386],[33.918,-9.292],[33.896,-9.264],[33.893,-9.232],[33.882,-9.219],[33.848,-9.211],[33.854,-9.191],[33.875,-9.179],[33.858,-9.134],[33.835,-9.092],[33.802,-9.054],[33.796,-9.006],[33.853,-8.914],[33.895,-8.877],[33.949,-8.866],[34.023,-8.892],[34.051,-8.882],[34.061,-8.854],[34.112,-8.833],[34.17,-8.838],[34.228,-8.837],[34.328,-8.813],[34.423,-8.827],[34.475,-8.826],[34.521,-8.807],[34.556,-8.77],[34.583,-8.718],[34.615,-8.696],[34.652,-8.682],[34.685,-8.686],[34.707,-8.67],[34.732,-8.605],[34.874,-8.648],[34.874,-8.698],[35.114,-8.782],[35.103,-8.96],[35.198,-9.027],[35.292,-9.033],[35.365,-9.009],[35.384,-9],[35.401,-8.986],[35.422,-8.996],[35.491,-9.099],[35.68,-9.247],[35.694,-9.292],[35.697,-9.34],[35.667,-9.369],[35.631,-9.394],[35.585,-9.416],[35.547,-9.44],[35.517,-9.471],[35.479,-9.495],[35.392,-9.575],[35.327,-9.61],[35.23,-9.713],[35.157,-9.742],[35.124,-9.76],[35.114,-9.787],[35.133,-9.814],[35.155,-9.835],[35.17,-9.871],[35.167,-9.919],[35.206,-9.976],[35.216,-10.042],[35.132,-10.158],[35.119,-10.191],[35.083,-10.199],[35.047,-10.198],[35.013,-10.211],[34.989,-10.236],[34.984,-10.302],[34.898,-10.368],[34.824,-10.404],[34.778,-10.468],[34.692,-10.523],[34.663,-10.535],[34.632,-10.537],[34.62,-10.53],[34.608,-10.527],[34.582,-10.532],[34.58,-10.532]]]}},{"type":"Feature","id":"TZ-30","properties":{"id":"TZ-30","countryCode":"TZ","isoSubdivision":"TZ-30","name":"Simiyu","name_en":"Simiyu","name_ko":"시미유","type":"Region","labelLongitude":34.217,"labelLatitude":-2.967,"minZoom":6.7},"geometry":{"type":"Polygon","coordinates":[[[33.749,-2.086],[33.786,-2.095],[33.816,-2.123],[33.832,-2.163],[33.831,-2.172],[33.871,-2.194],[33.897,-2.182],[33.965,-2.186],[34.004,-2.182],[34.011,-2.147],[34.036,-2.132],[34.1,-2.192],[34.134,-2.196],[34.17,-2.196],[34.248,-2.238],[34.275,-2.243],[34.298,-2.257],[34.322,-2.291],[34.355,-2.315],[34.428,-2.358],[34.456,-2.39],[34.479,-2.425],[34.507,-2.439],[34.54,-2.435],[34.565,-2.437],[34.621,-2.475],[34.658,-2.491],[35.208,-2.487],[35.216,-2.584],[35.15,-2.869],[35.123,-2.92],[35.068,-2.944],[35.053,-2.957],[35.036,-2.968],[34.997,-2.955],[34.974,-2.919],[34.936,-2.888],[34.901,-2.883],[34.892,-3.597],[34.865,-3.623],[34.842,-3.616],[34.822,-3.625],[34.82,-3.64],[34.814,-3.654],[34.78,-3.685],[34.753,-3.723],[34.749,-3.763],[34.76,-3.802],[34.725,-3.809],[34.698,-3.83],[34.685,-3.852],[34.515,-3.92],[34.479,-3.928],[34.443,-3.939],[34.413,-3.961],[34.365,-3.926],[34.323,-3.887],[34.267,-3.815],[34.225,-3.717],[34.19,-3.603],[34.158,-3.55],[34.076,-3.526],[33.983,-3.524],[33.909,-3.516],[33.862,-3.487],[33.832,-3.431],[33.803,-3.418],[33.769,-3.436],[33.732,-3.444],[33.681,-3.431],[33.594,-3.389],[33.523,-3.322],[33.475,-3.28],[33.423,-3.274],[33.447,-3.202],[33.472,-3.178],[33.486,-3.147],[33.492,-3.1],[33.521,-3.013],[33.529,-2.973],[33.499,-2.861],[33.513,-2.835],[33.537,-2.829],[33.552,-2.811],[33.569,-2.796],[33.593,-2.789],[33.62,-2.771],[33.689,-2.791],[33.727,-2.762],[33.745,-2.754],[33.765,-2.755],[33.784,-2.736],[33.787,-2.707],[33.763,-2.662],[33.718,-2.634],[33.672,-2.613],[33.636,-2.581],[33.592,-2.537],[33.515,-2.449],[33.485,-2.409],[33.358,-2.168],[33.373,-2.166],[33.4,-2.156],[33.449,-2.151],[33.509,-2.153],[33.566,-2.163],[33.606,-2.183],[33.629,-2.158],[33.642,-2.147],[33.657,-2.142],[33.667,-2.138],[33.712,-2.105],[33.749,-2.086]]]}}]}
