{"type":"FeatureCollection","features":[{"type":"Feature","id":"UM-67","properties":{"id":"UM-67","countryCode":"UM","isoSubdivision":"UM-67","name":"Johnston Atoll","name_en":"Johnston Atoll","name_ko":"존스턴 환초","type":"Principal subdivision","labelLongitude":-169.538,"labelLatitude":16.727,"minZoom":11},"geometry":{"type":"MultiPolygon","coordinates":[[[[-169.53,16.76],[-169.521,16.763],[-169.517,16.762],[-169.524,16.758],[-169.528,16.756],[-169.533,16.755],[-169.539,16.754],[-169.537,16.756],[-169.533,16.758],[-169.53,16.76]]],[[[-169.532,16.733],[-169.522,16.732],[-169.542,16.722],[-169.547,16.721],[-169.55,16.723],[-169.548,16.727],[-169.532,16.733]]],[[[-169.514,16.744],[-169.514,16.746],[-169.513,16.744],[-169.514,16.744]]]]}},{"type":"Feature","id":"UM-71","properties":{"id":"UM-71","countryCode":"UM","isoSubdivision":"UM-71","name":"Midway Atoll","name_en":"Midway Atoll","name_ko":"미드웨이 환초","type":"Principal subdivision","labelLongitude":-177.376,"labelLatitude":28.206,"minZoom":11},"geometry":{"type":"MultiPolygon","coordinates":[[[[-177.329,28.211],[-177.323,28.208],[-177.321,28.206],[-177.325,28.205],[-177.335,28.204],[-177.329,28.211]]],[[[-177.358,28.214],[-177.364,28.208],[-177.372,28.202],[-177.381,28.199],[-177.39,28.198],[-177.385,28.207],[-177.378,28.213],[-177.369,28.215],[-177.358,28.214]]]]}},{"type":"Feature","id":"UM-76","properties":{"id":"UM-76","countryCode":"UM","isoSubdivision":"UM-76","name":"Navassa Island","name_en":"Navassa Island","name_ko":"나배사섬","type":"Principal subdivision","labelLongitude":-75.011,"labelLatitude":18.404,"minZoom":11},"geometry":{"type":"Polygon","coordinates":[[[-75.024,18.417],[-75.021,18.416],[-75.011,18.416],[-75.01,18.415],[-75.007,18.415],[-75.004,18.411],[-75.003,18.41],[-75.003,18.406],[-75.003,18.405],[-75.003,18.404],[-75.003,18.398],[-75.005,18.396],[-75.007,18.396],[-75.008,18.395],[-75.011,18.395],[-75.012,18.396],[-75.015,18.396],[-75.016,18.397],[-75.018,18.397],[-75.019,18.398],[-75.019,18.399],[-75.02,18.4],[-75.02,18.403],[-75.024,18.406],[-75.024,18.407],[-75.026,18.408],[-75.031,18.413],[-75.03,18.417],[-75.024,18.417]]]}},{"type":"Feature","id":"UM-79","properties":{"id":"UM-79","countryCode":"UM","isoSubdivision":"UM-79","name":"Wake Island","name_en":"Wake Island","name_ko":"웨이크섬","type":"Principal subdivision","labelLongitude":166.643,"labelLatitude":19.286,"minZoom":11},"geometry":{"type":"Polygon","coordinates":[[[166.619,19.282],[166.63,19.282],[166.638,19.286],[166.641,19.294],[166.635,19.306],[166.648,19.298],[166.652,19.284],[166.644,19.276],[166.619,19.282]]]}},{"type":"Feature","id":"UM-81","properties":{"id":"UM-81","countryCode":"UM","isoSubdivision":"UM-81","name":"Baker Island","name_en":"Baker Island","name_ko":"베이커 섬","type":"Principal subdivision","labelLongitude":-176.479,"labelLatitude":0.195,"minZoom":11},"geometry":{"type":"MultiPolygon","coordinates":[[[[-176.486,0.197],[-176.482,0.197],[-176.479,0.198],[-176.477,0.197],[-176.475,0.193],[-176.479,0.19],[-176.481,0.191],[-176.483,0.194],[-176.486,0.197]]],[[[-176.46,0.226],[-176.459,0.219],[-176.464,0.222],[-176.46,0.226]]]]}},{"type":"Feature","id":"UM-84","properties":{"id":"UM-84","countryCode":"UM","isoSubdivision":"UM-84","name":"Howland Island","name_en":"Howland Island","name_ko":"하울랜드 섬","type":"Principal subdivision","labelLongitude":-176.638,"labelLatitude":0.802,"minZoom":11},"geometry":{"type":"Polygon","coordinates":[[[-176.636,0.79],[-176.64,0.802],[-176.64,0.804],[-176.64,0.805],[-176.639,0.807],[-176.636,0.803],[-176.636,0.79]]]}},{"type":"Feature","id":"UM-86","properties":{"id":"UM-86","countryCode":"UM","isoSubdivision":"UM-86","name":"Jarvis Island","name_en":"Jarvis Island","name_ko":"자르비스 섬","type":"Principal subdivision","labelLongitude":-160.018,"labelLatitude":-0.38,"minZoom":11},"geometry":{"type":"Polygon","coordinates":[[[-160.03,-0.376],[-160.009,-0.372],[-160.012,-0.382],[-160.025,-0.389],[-160.03,-0.376]]]}},{"type":"Feature","id":"UM-95","properties":{"id":"UM-95","countryCode":"UM","isoSubdivision":"UM-95","name":"Palmyra Atoll","name_en":"Palmyra Atoll","name_ko":"팔미라 환초","type":"Principal subdivision","labelLongitude":-162.076,"labelLatitude":5.884,"minZoom":11},"geometry":{"type":"Polygon","coordinates":[[[-162.061,5.887],[-162.058,5.882],[-162.061,5.873],[-162.073,5.869],[-162.091,5.872],[-162.094,5.875],[-162.091,5.875],[-162.087,5.878],[-162.075,5.886],[-162.078,5.885],[-162.083,5.884],[-162.087,5.884],[-162.094,5.886],[-162.1,5.886],[-162.104,5.889],[-162.102,5.89],[-162.071,5.89],[-162.061,5.887]]]}}]}
