{"type":"FeatureCollection","features":[{"type":"Feature","id":"UY-AR","properties":{"id":"UY-AR","countryCode":"UY","isoSubdivision":"UY-AR","name":"Artigas","name_en":"Artigas","name_ko":"아르티가스","type":"Department","labelLongitude":-56.94,"labelLatitude":-30.572,"minZoom":8},"geometry":{"type":"Polygon","coordinates":[[[-57.603,-30.191],[-57.587,-30.204],[-57.567,-30.256],[-57.536,-30.274],[-57.511,-30.277],[-57.467,-30.27],[-57.443,-30.269],[-57.43,-30.275],[-57.415,-30.296],[-57.399,-30.299],[-57.389,-30.295],[-57.367,-30.277],[-57.354,-30.272],[-57.334,-30.273],[-57.322,-30.28],[-57.311,-30.288],[-57.296,-30.293],[-57.289,-30.291],[-57.276,-30.278],[-57.27,-30.275],[-57.262,-30.279],[-57.25,-30.29],[-57.245,-30.293],[-57.213,-30.287],[-57.184,-30.268],[-57.164,-30.239],[-57.158,-30.208],[-57.151,-30.182],[-57.13,-30.15],[-57.102,-30.121],[-57.077,-30.106],[-57.067,-30.107],[-57.049,-30.115],[-57.038,-30.115],[-57.018,-30.106],[-57.011,-30.103],[-56.975,-30.097],[-56.955,-30.097],[-56.906,-30.109],[-56.869,-30.103],[-56.831,-30.102],[-56.795,-30.124],[-56.777,-30.151],[-56.767,-30.161],[-56.705,-30.198],[-56.674,-30.211],[-56.657,-30.221],[-56.642,-30.234],[-56.633,-30.247],[-56.629,-30.268],[-56.632,-30.278],[-56.631,-30.285],[-56.615,-30.293],[-56.605,-30.296],[-56.596,-30.295],[-56.586,-30.297],[-56.575,-30.302],[-56.57,-30.308],[-56.561,-30.321],[-56.524,-30.357],[-56.511,-30.366],[-56.495,-30.379],[-56.441,-30.409],[-56.425,-30.424],[-56.4,-30.459],[-56.386,-30.476],[-56.373,-30.486],[-56.327,-30.508],[-56.268,-30.551],[-56.235,-30.565],[-56.215,-30.582],[-56.184,-30.615],[-56.178,-30.626],[-56.175,-30.636],[-56.171,-30.646],[-56.16,-30.654],[-56.14,-30.665],[-56.132,-30.672],[-56.125,-30.68],[-56.092,-30.736],[-56.077,-30.752],[-56.011,-30.798],[-55.995,-30.826],[-55.989,-30.856],[-55.994,-30.885],[-56.011,-30.913],[-56.016,-30.934],[-56.016,-31],[-56.022,-31.046],[-56.022,-31.067],[-56.017,-31.074],[-56.018,-31.074],[-56.055,-31.049],[-56.063,-31.042],[-56.073,-31.03],[-56.081,-31.023],[-56.106,-31.004],[-56.118,-30.992],[-56.133,-30.971],[-56.14,-30.964],[-56.16,-30.948],[-56.177,-30.94],[-56.183,-30.937],[-56.342,-30.907],[-56.398,-30.89],[-56.406,-30.888],[-56.416,-30.887],[-56.434,-30.889],[-56.443,-30.891],[-56.451,-30.894],[-56.455,-30.897],[-56.458,-30.901],[-56.464,-30.911],[-56.471,-30.925],[-56.477,-30.935],[-56.481,-30.939],[-56.489,-30.945],[-56.494,-30.947],[-56.516,-30.955],[-56.526,-30.96],[-56.53,-30.963],[-56.545,-30.979],[-56.549,-30.982],[-56.554,-30.984],[-56.566,-30.988],[-56.599,-30.991],[-56.61,-30.995],[-56.62,-31],[-56.679,-31.042],[-56.688,-31.046],[-56.699,-31.05],[-56.711,-31.052],[-56.759,-31.056],[-56.783,-31.062],[-56.797,-31.062],[-56.91,-31.044],[-56.934,-31.043],[-57,-31.05],[-57.007,-31.052],[-57.016,-31.057],[-57.044,-31.074],[-57.049,-31.076],[-57.055,-31.078],[-57.061,-31.079],[-57.071,-31.078],[-57.131,-31.062],[-57.156,-31.051],[-57.175,-31.04],[-57.221,-31],[-57.236,-30.989],[-57.244,-30.985],[-57.292,-30.972],[-57.424,-30.911],[-57.457,-30.891],[-57.463,-30.886],[-57.479,-30.875],[-57.487,-30.872],[-57.498,-30.87],[-57.519,-30.867],[-57.554,-30.868],[-57.563,-30.866],[-57.572,-30.863],[-57.584,-30.857],[-57.591,-30.852],[-57.596,-30.847],[-57.612,-30.827],[-57.62,-30.82],[-57.636,-30.807],[-57.701,-30.765],[-57.715,-30.758],[-57.726,-30.755],[-57.753,-30.752],[-57.763,-30.753],[-57.77,-30.757],[-57.775,-30.761],[-57.799,-30.791],[-57.802,-30.773],[-57.809,-30.747],[-57.818,-30.712],[-57.826,-30.69],[-57.849,-30.648],[-57.863,-30.629],[-57.886,-30.59],[-57.89,-30.551],[-57.877,-30.515],[-57.85,-30.485],[-57.653,-30.329],[-57.631,-30.297],[-57.624,-30.258],[-57.638,-30.215],[-57.642,-30.193],[-57.603,-30.191]]]}},{"type":"Feature","id":"UY-CA","properties":{"id":"UY-CA","countryCode":"UY","isoSubdivision":"UY-CA","name":"Canelones","name_en":"Canelones","name_ko":"카넬로네스","type":"Department","labelLongitude":-55.923,"labelLatitude":-34.547,"minZoom":8},"geometry":{"type":"Polygon","coordinates":[[[-55.374,-34.803],[-55.377,-34.801],[-55.402,-34.8],[-55.468,-34.795],[-55.51,-34.799],[-55.561,-34.788],[-55.602,-34.772],[-55.647,-34.781],[-55.693,-34.765],[-55.757,-34.783],[-55.792,-34.774],[-55.859,-34.793],[-55.889,-34.803],[-55.954,-34.839],[-56.004,-34.869],[-56.038,-34.886],[-56.046,-34.877],[-56.049,-34.867],[-56.053,-34.848],[-56.053,-34.829],[-56.052,-34.823],[-56.051,-34.817],[-56.04,-34.797],[-56.036,-34.786],[-56.036,-34.78],[-56.039,-34.775],[-56.045,-34.772],[-56.058,-34.772],[-56.067,-34.774],[-56.075,-34.775],[-56.082,-34.773],[-56.091,-34.768],[-56.095,-34.763],[-56.098,-34.759],[-56.1,-34.757],[-56.104,-34.754],[-56.11,-34.753],[-56.115,-34.75],[-56.12,-34.747],[-56.126,-34.738],[-56.128,-34.733],[-56.132,-34.726],[-56.138,-34.725],[-56.147,-34.725],[-56.167,-34.73],[-56.177,-34.734],[-56.183,-34.74],[-56.19,-34.748],[-56.194,-34.752],[-56.198,-34.756],[-56.203,-34.759],[-56.208,-34.761],[-56.219,-34.764],[-56.224,-34.764],[-56.233,-34.762],[-56.247,-34.755],[-56.253,-34.752],[-56.257,-34.748],[-56.269,-34.731],[-56.273,-34.727],[-56.281,-34.72],[-56.286,-34.717],[-56.293,-34.715],[-56.304,-34.714],[-56.313,-34.713],[-56.331,-34.718],[-56.364,-34.734],[-56.371,-34.724],[-56.387,-34.709],[-56.422,-34.683],[-56.455,-34.668],[-56.46,-34.664],[-56.463,-34.659],[-56.465,-34.652],[-56.466,-34.625],[-56.472,-34.597],[-56.471,-34.59],[-56.468,-34.583],[-56.46,-34.576],[-56.454,-34.572],[-56.442,-34.567],[-56.437,-34.564],[-56.433,-34.561],[-56.429,-34.557],[-56.422,-34.548],[-56.415,-34.541],[-56.398,-34.527],[-56.396,-34.521],[-56.396,-34.513],[-56.401,-34.499],[-56.404,-34.492],[-56.408,-34.488],[-56.408,-34.483],[-56.408,-34.476],[-56.402,-34.452],[-56.401,-34.433],[-56.384,-34.382],[-56.374,-34.367],[-56.364,-34.362],[-56.351,-34.357],[-56.334,-34.354],[-56.304,-34.352],[-56.289,-34.352],[-56.279,-34.354],[-56.268,-34.357],[-56.224,-34.377],[-56.212,-34.379],[-56.196,-34.378],[-56.146,-34.368],[-56.136,-34.365],[-56.128,-34.357],[-56.119,-34.343],[-56.106,-34.31],[-56.104,-34.306],[-56.098,-34.3],[-56.088,-34.293],[-55.999,-34.244],[-55.989,-34.244],[-55.976,-34.244],[-55.955,-34.249],[-55.902,-34.271],[-55.894,-34.272],[-55.882,-34.272],[-55.86,-34.27],[-55.848,-34.267],[-55.84,-34.265],[-55.772,-34.23],[-55.744,-34.222],[-55.619,-34.208],[-55.592,-34.298],[-55.579,-34.331],[-55.537,-34.395],[-55.533,-34.405],[-55.532,-34.413],[-55.532,-34.42],[-55.544,-34.469],[-55.545,-34.478],[-55.544,-34.5],[-55.542,-34.504],[-55.537,-34.512],[-55.495,-34.553],[-55.479,-34.579],[-55.473,-34.594],[-55.473,-34.622],[-55.458,-34.65],[-55.448,-34.661],[-55.433,-34.67],[-55.421,-34.68],[-55.416,-34.687],[-55.413,-34.694],[-55.419,-34.719],[-55.419,-34.726],[-55.419,-34.734],[-55.416,-34.739],[-55.412,-34.744],[-55.404,-34.75],[-55.385,-34.774],[-55.376,-34.788],[-55.375,-34.795],[-55.374,-34.803]]]}},{"type":"Feature","id":"UY-CL","properties":{"id":"UY-CL","countryCode":"UY","isoSubdivision":"UY-CL","name":"Cerro Largo","name_en":"Cerro Largo","name_ko":"세로라르고","type":"Department","labelLongitude":-54.228,"labelLatitude":-32.296,"minZoom":8},"geometry":{"type":"Polygon","coordinates":[[[-54.467,-31.664],[-54.464,-31.672],[-54.436,-31.694],[-54.404,-31.715],[-54.373,-31.739],[-54.343,-31.769],[-54.274,-31.823],[-54.219,-31.857],[-54.17,-31.896],[-54.146,-31.91],[-54.135,-31.909],[-54.126,-31.899],[-54.107,-31.884],[-54.088,-31.878],[-54.069,-31.88],[-54.05,-31.887],[-54.033,-31.898],[-54.027,-31.905],[-54.018,-31.92],[-54.009,-31.927],[-53.999,-31.93],[-53.966,-31.933],[-53.949,-31.937],[-53.934,-31.943],[-53.906,-31.959],[-53.894,-31.97],[-53.89,-31.98],[-53.887,-31.991],[-53.881,-32.001],[-53.871,-32.011],[-53.858,-32.021],[-53.83,-32.036],[-53.772,-32.047],[-53.757,-32.055],[-53.751,-32.069],[-53.75,-32.104],[-53.721,-32.162],[-53.671,-32.226],[-53.659,-32.254],[-53.652,-32.288],[-53.649,-32.339],[-53.644,-32.356],[-53.635,-32.369],[-53.609,-32.388],[-53.599,-32.4],[-53.582,-32.426],[-53.561,-32.45],[-53.538,-32.47],[-53.475,-32.508],[-53.416,-32.564],[-53.359,-32.58],[-53.316,-32.603],[-53.299,-32.607],[-53.267,-32.607],[-53.234,-32.625],[-53.201,-32.637],[-53.186,-32.647],[-53.12,-32.707],[-53.111,-32.722],[-53.114,-32.741],[-53.127,-32.755],[-53.163,-32.779],[-53.183,-32.8],[-53.304,-32.779],[-53.329,-32.776],[-53.337,-32.777],[-53.347,-32.778],[-53.363,-32.787],[-53.371,-32.789],[-53.38,-32.789],[-53.393,-32.788],[-53.401,-32.786],[-53.407,-32.783],[-53.421,-32.773],[-53.428,-32.771],[-53.439,-32.771],[-53.458,-32.772],[-53.468,-32.77],[-53.475,-32.768],[-53.482,-32.76],[-53.486,-32.756],[-53.49,-32.753],[-53.495,-32.751],[-53.5,-32.75],[-53.607,-32.761],[-53.631,-32.76],[-53.667,-32.755],[-53.834,-32.766],[-53.844,-32.765],[-53.852,-32.764],[-53.858,-32.761],[-53.868,-32.756],[-53.931,-32.712],[-53.942,-32.707],[-53.948,-32.705],[-53.957,-32.705],[-53.968,-32.708],[-53.996,-32.721],[-54.001,-32.725],[-54.008,-32.731],[-54.029,-32.748],[-54.033,-32.751],[-54.036,-32.756],[-54.037,-32.761],[-54.035,-32.766],[-54.033,-32.77],[-54.027,-32.779],[-54.025,-32.784],[-54.023,-32.789],[-54.026,-32.794],[-54.031,-32.798],[-54.045,-32.799],[-54.053,-32.797],[-54.06,-32.795],[-54.064,-32.791],[-54.119,-32.76],[-54.124,-32.758],[-54.13,-32.756],[-54.137,-32.756],[-54.158,-32.758],[-54.166,-32.757],[-54.173,-32.756],[-54.179,-32.755],[-54.185,-32.752],[-54.194,-32.746],[-54.2,-32.744],[-54.228,-32.741],[-54.248,-32.736],[-54.286,-32.731],[-54.293,-32.73],[-54.298,-32.727],[-54.303,-32.724],[-54.311,-32.718],[-54.316,-32.715],[-54.326,-32.716],[-54.341,-32.721],[-54.391,-32.744],[-54.411,-32.75],[-54.467,-32.753],[-54.481,-32.751],[-54.489,-32.752],[-54.495,-32.755],[-54.501,-32.763],[-54.506,-32.776],[-54.509,-32.781],[-54.514,-32.785],[-54.521,-32.788],[-54.536,-32.79],[-54.545,-32.789],[-54.552,-32.788],[-54.558,-32.788],[-54.564,-32.79],[-54.569,-32.796],[-54.576,-32.806],[-54.583,-32.814],[-54.589,-32.818],[-54.597,-32.821],[-54.612,-32.824],[-54.622,-32.823],[-54.63,-32.822],[-54.648,-32.816],[-54.662,-32.813],[-54.675,-32.813],[-54.684,-32.814],[-54.731,-32.83],[-54.746,-32.833],[-54.779,-32.833],[-54.807,-32.835],[-54.82,-32.838],[-54.878,-32.863],[-54.896,-32.876],[-54.911,-32.89],[-54.92,-32.897],[-54.925,-32.899],[-54.959,-32.911],[-54.971,-32.918],[-54.979,-32.925],[-54.985,-32.929],[-55.007,-32.94],[-55.012,-32.944],[-55.019,-32.95],[-55.024,-32.957],[-55.027,-32.963],[-55.028,-32.97],[-55.026,-32.979],[-55.011,-33],[-55.01,-33.007],[-55.01,-33.025],[-55.061,-33.019],[-55.133,-33.021],[-55.149,-33.02],[-55.159,-33.018],[-55.163,-33.014],[-55.175,-33],[-55.178,-32.997],[-55.273,-32.946],[-55.286,-32.936],[-55.305,-32.918],[-55.316,-32.902],[-55.321,-32.891],[-55.323,-32.88],[-55.323,-32.874],[-55.317,-32.85],[-55.316,-32.831],[-55.316,-32.826],[-55.318,-32.82],[-55.322,-32.814],[-55.338,-32.792],[-55.343,-32.784],[-55.345,-32.777],[-55.343,-32.771],[-55.34,-32.767],[-55.336,-32.764],[-55.331,-32.762],[-55.318,-32.759],[-55.312,-32.757],[-55.309,-32.754],[-55.307,-32.748],[-55.307,-32.743],[-55.308,-32.737],[-55.334,-32.686],[-55.336,-32.68],[-55.335,-32.668],[-55.332,-32.657],[-55.318,-32.625],[-55.304,-32.573],[-55.303,-32.56],[-55.303,-32.548],[-55.308,-32.527],[-55.328,-32.494],[-55.24,-32.459],[-55.205,-32.457],[-55.14,-32.479],[-55.106,-32.485],[-55.071,-32.481],[-55.04,-32.469],[-55.014,-32.451],[-54.993,-32.431],[-54.972,-32.402],[-54.957,-32.389],[-54.921,-32.38],[-54.913,-32.371],[-54.906,-32.359],[-54.897,-32.349],[-54.887,-32.343],[-54.866,-32.335],[-54.856,-32.329],[-54.84,-32.31],[-54.818,-32.269],[-54.804,-32.249],[-54.8,-32.238],[-54.804,-32.227],[-54.811,-32.216],[-54.814,-32.205],[-54.813,-32.196],[-54.809,-32.186],[-54.801,-32.171],[-54.778,-32.149],[-54.77,-32.135],[-54.767,-32.112],[-54.756,-32.102],[-54.731,-32.109],[-54.691,-32.129],[-54.676,-32.128],[-54.655,-32.123],[-54.633,-32.118],[-54.612,-32.116],[-54.589,-32.11],[-54.575,-32.095],[-54.572,-32.077],[-54.582,-32.061],[-54.572,-32.049],[-54.546,-32.032],[-54.54,-32.019],[-54.544,-32.003],[-54.556,-31.999],[-54.573,-31.996],[-54.589,-31.985],[-54.554,-31.944],[-54.542,-31.915],[-54.528,-31.893],[-54.504,-31.842],[-54.499,-31.825],[-54.504,-31.8],[-54.521,-31.756],[-54.52,-31.732],[-54.515,-31.723],[-54.506,-31.711],[-54.496,-31.702],[-54.489,-31.698],[-54.486,-31.694],[-54.472,-31.67],[-54.468,-31.665],[-54.467,-31.664]]]}},{"type":"Feature","id":"UY-CO","properties":{"id":"UY-CO","countryCode":"UY","isoSubdivision":"UY-CO","name":"Colonia","name_en":"Colonia","name_ko":"콜로니아","type":"Department","labelLongitude":-57.679,"labelLatitude":-34.195,"minZoom":8},"geometry":{"type":"Polygon","coordinates":[[[-57.167,-34.448],[-57.203,-34.442],[-57.292,-34.44],[-57.347,-34.443],[-57.365,-34.43],[-57.411,-34.432],[-57.437,-34.445],[-57.449,-34.432],[-57.475,-34.43],[-57.503,-34.441],[-57.538,-34.454],[-57.569,-34.427],[-57.595,-34.425],[-57.624,-34.43],[-57.664,-34.445],[-57.72,-34.463],[-57.739,-34.461],[-57.764,-34.474],[-57.793,-34.472],[-57.823,-34.475],[-57.855,-34.471],[-57.846,-34.463],[-57.854,-34.448],[-57.882,-34.441],[-57.9,-34.417],[-57.898,-34.376],[-57.923,-34.354],[-57.943,-34.326],[-58.017,-34.253],[-58.05,-34.24],[-58.061,-34.225],[-58.077,-34.192],[-58.095,-34.178],[-58.119,-34.169],[-58.146,-34.165],[-58.169,-34.164],[-58.196,-34.159],[-58.209,-34.148],[-58.22,-34.11],[-58.232,-34.089],[-58.317,-33.987],[-58.335,-33.973],[-58.372,-33.954],[-58.389,-33.942],[-58.403,-33.923],[-58.41,-33.902],[-58.416,-33.876],[-58.415,-33.876],[-58.383,-33.871],[-58.369,-33.867],[-58.279,-33.836],[-58.186,-33.782],[-58.17,-33.778],[-58.152,-33.78],[-58.04,-33.804],[-58.034,-33.809],[-58.028,-33.815],[-58.025,-33.82],[-58.02,-33.829],[-58.017,-33.839],[-58.014,-33.844],[-58.008,-33.852],[-58.005,-33.856],[-58.001,-33.858],[-57.999,-33.86],[-57.994,-33.862],[-57.986,-33.864],[-57.976,-33.865],[-57.958,-33.864],[-57.928,-33.86],[-57.85,-33.862],[-57.84,-33.864],[-57.827,-33.87],[-57.819,-33.875],[-57.814,-33.879],[-57.812,-33.882],[-57.81,-33.884],[-57.812,-33.882],[-57.805,-33.889],[-57.8,-33.893],[-57.791,-33.899],[-57.654,-33.938],[-57.626,-33.94],[-57.566,-33.935],[-57.393,-33.896],[-57.375,-33.9],[-57.353,-33.909],[-57.334,-33.918],[-57.317,-33.932],[-57.298,-33.944],[-57.293,-33.946],[-57.265,-33.949],[-57.182,-33.949],[-57.078,-33.963],[-57.064,-33.987],[-57.056,-34.017],[-57.051,-34.026],[-57.047,-34.032],[-57.042,-34.035],[-57.025,-34.042],[-57.018,-34.047],[-56.985,-34.079],[-56.948,-34.127],[-56.942,-34.138],[-56.942,-34.145],[-56.942,-34.148],[-56.943,-34.15],[-56.945,-34.153],[-56.952,-34.16],[-56.997,-34.19],[-57.001,-34.192],[-57.008,-34.195],[-57.051,-34.206],[-57.067,-34.213],[-57.091,-34.227],[-57.096,-34.232],[-57.099,-34.24],[-57.103,-34.253],[-57.104,-34.261],[-57.103,-34.268],[-57.1,-34.272],[-57.097,-34.277],[-57.077,-34.296],[-57.073,-34.302],[-57.074,-34.309],[-57.081,-34.329],[-57.086,-34.337],[-57.092,-34.343],[-57.098,-34.354],[-57.099,-34.365],[-57.098,-34.384],[-57.099,-34.394],[-57.102,-34.4],[-57.106,-34.404],[-57.167,-34.448]]]}},{"type":"Feature","id":"UY-DU","properties":{"id":"UY-DU","countryCode":"UY","isoSubdivision":"UY-DU","name":"Durazno","name_en":"Durazno","name_ko":"두라스노","type":"Department","labelLongitude":-56.094,"labelLatitude":-33.102,"minZoom":8},"geometry":{"type":"Polygon","coordinates":[[[-55.471,-32.427],[-55.454,-32.432],[-55.445,-32.438],[-55.444,-32.454],[-55.442,-32.46],[-55.438,-32.465],[-55.43,-32.471],[-55.424,-32.472],[-55.418,-32.471],[-55.411,-32.472],[-55.376,-32.489],[-55.372,-32.494],[-55.367,-32.497],[-55.359,-32.499],[-55.328,-32.494],[-55.308,-32.527],[-55.303,-32.548],[-55.303,-32.56],[-55.304,-32.573],[-55.318,-32.625],[-55.332,-32.657],[-55.335,-32.668],[-55.336,-32.68],[-55.334,-32.686],[-55.308,-32.737],[-55.307,-32.743],[-55.307,-32.748],[-55.309,-32.754],[-55.312,-32.757],[-55.318,-32.759],[-55.331,-32.762],[-55.336,-32.764],[-55.34,-32.767],[-55.343,-32.771],[-55.345,-32.777],[-55.343,-32.784],[-55.338,-32.792],[-55.322,-32.814],[-55.318,-32.82],[-55.316,-32.826],[-55.316,-32.831],[-55.317,-32.85],[-55.323,-32.874],[-55.323,-32.88],[-55.321,-32.891],[-55.316,-32.902],[-55.305,-32.918],[-55.286,-32.936],[-55.273,-32.946],[-55.178,-32.997],[-55.175,-33],[-55.163,-33.014],[-55.159,-33.018],[-55.149,-33.02],[-55.133,-33.021],[-55.061,-33.019],[-55.01,-33.025],[-55.019,-33.041],[-55.023,-33.045],[-55.03,-33.051],[-55.039,-33.058],[-55.095,-33.088],[-55.103,-33.097],[-55.111,-33.118],[-55.162,-33.142],[-55.179,-33.151],[-55.234,-33.195],[-55.247,-33.204],[-55.258,-33.208],[-55.265,-33.208],[-55.272,-33.206],[-55.288,-33.198],[-55.295,-33.197],[-55.304,-33.196],[-55.326,-33.205],[-55.349,-33.218],[-55.403,-33.242],[-55.412,-33.249],[-55.431,-33.27],[-55.622,-33.361],[-55.645,-33.369],[-55.652,-33.369],[-55.689,-33.363],[-55.698,-33.363],[-55.711,-33.364],[-55.718,-33.367],[-55.723,-33.371],[-55.726,-33.375],[-55.733,-33.381],[-55.742,-33.389],[-55.768,-33.403],[-55.83,-33.426],[-55.863,-33.435],[-55.871,-33.436],[-55.885,-33.435],[-55.892,-33.434],[-55.898,-33.432],[-55.915,-33.425],[-55.921,-33.423],[-55.928,-33.422],[-55.935,-33.423],[-55.988,-33.431],[-56.022,-33.434],[-56.031,-33.437],[-56.036,-33.441],[-56.039,-33.446],[-56.041,-33.457],[-56.045,-33.464],[-56.05,-33.469],[-56.071,-33.482],[-56.081,-33.489],[-56.088,-33.492],[-56.096,-33.493],[-56.144,-33.48],[-56.172,-33.478],[-56.229,-33.481],[-56.236,-33.48],[-56.242,-33.478],[-56.248,-33.476],[-56.252,-33.473],[-56.256,-33.469],[-56.259,-33.464],[-56.266,-33.444],[-56.268,-33.44],[-56.272,-33.435],[-56.275,-33.432],[-56.28,-33.429],[-56.287,-33.427],[-56.295,-33.428],[-56.341,-33.432],[-56.349,-33.431],[-56.355,-33.43],[-56.367,-33.425],[-56.382,-33.417],[-56.387,-33.414],[-56.395,-33.406],[-56.401,-33.403],[-56.411,-33.401],[-56.417,-33.404],[-56.419,-33.409],[-56.42,-33.415],[-56.42,-33.421],[-56.416,-33.444],[-56.416,-33.469],[-56.418,-33.476],[-56.424,-33.483],[-56.437,-33.492],[-56.446,-33.495],[-56.454,-33.497],[-56.533,-33.496],[-56.552,-33.477],[-56.559,-33.465],[-56.56,-33.459],[-56.561,-33.435],[-56.562,-33.43],[-56.566,-33.42],[-56.569,-33.415],[-56.574,-33.408],[-56.581,-33.401],[-56.585,-33.396],[-56.647,-33.339],[-56.667,-33.309],[-56.67,-33.305],[-56.681,-33.299],[-56.737,-33.281],[-56.77,-33.274],[-56.809,-33.273],[-56.818,-33.27],[-56.827,-33.266],[-56.839,-33.256],[-56.844,-33.25],[-56.847,-33.243],[-56.85,-33.226],[-56.854,-33.216],[-56.86,-33.207],[-56.867,-33.2],[-56.872,-33.197],[-56.883,-33.193],[-56.941,-33.181],[-56.974,-33.178],[-57.028,-33.184],[-57.039,-33.182],[-57.08,-33.162],[-57.127,-33.123],[-57.127,-33.117],[-57.133,-33.087],[-57.13,-33.075],[-57.152,-33.068],[-57.162,-33.072],[-57.172,-33.071],[-57.179,-33.065],[-57.179,-33.054],[-57.174,-33.05],[-57.156,-33.048],[-57.148,-33.044],[-57.135,-33.032],[-57.118,-33.02],[-57.1,-33.01],[-57.083,-33.006],[-57.065,-33.01],[-57.024,-33.024],[-57.004,-33.027],[-56.982,-33.027],[-56.969,-33.025],[-56.969,-33.019],[-56.983,-33.003],[-56.985,-32.994],[-56.968,-32.99],[-56.946,-32.989],[-56.932,-32.987],[-56.933,-32.982],[-56.937,-32.974],[-56.937,-32.966],[-56.925,-32.959],[-56.915,-32.959],[-56.907,-32.964],[-56.9,-32.97],[-56.894,-32.972],[-56.878,-32.985],[-56.868,-32.987],[-56.864,-32.976],[-56.869,-32.957],[-56.87,-32.947],[-56.864,-32.938],[-56.847,-32.934],[-56.828,-32.937],[-56.815,-32.933],[-56.816,-32.918],[-56.816,-32.911],[-56.805,-32.889],[-56.796,-32.881],[-56.782,-32.87],[-56.765,-32.864],[-56.735,-32.863],[-56.715,-32.856],[-56.704,-32.843],[-56.686,-32.838],[-56.667,-32.843],[-56.637,-32.858],[-56.619,-32.854],[-56.6,-32.842],[-56.583,-32.836],[-56.559,-32.832],[-56.539,-32.832],[-56.522,-32.832],[-56.496,-32.829],[-56.471,-32.831],[-56.45,-32.841],[-56.428,-32.859],[-56.407,-32.861],[-56.396,-32.843],[-56.389,-32.833],[-56.362,-32.815],[-56.329,-32.817],[-56.295,-32.823],[-56.257,-32.825],[-56.225,-32.823],[-56.219,-32.794],[-56.201,-32.768],[-56.183,-32.746],[-56.169,-32.726],[-56.126,-32.72],[-56.084,-32.707],[-56.049,-32.705],[-56.014,-32.7],[-55.986,-32.673],[-55.958,-32.65],[-55.944,-32.631],[-55.927,-32.615],[-55.903,-32.604],[-55.882,-32.603],[-55.857,-32.626],[-55.83,-32.634],[-55.809,-32.621],[-55.793,-32.608],[-55.788,-32.591],[-55.783,-32.579],[-55.773,-32.57],[-55.774,-32.556],[-55.782,-32.538],[-55.78,-32.526],[-55.768,-32.52],[-55.748,-32.522],[-55.727,-32.538],[-55.711,-32.548],[-55.692,-32.546],[-55.676,-32.54],[-55.663,-32.511],[-55.65,-32.497],[-55.634,-32.495],[-55.613,-32.503],[-55.59,-32.508],[-55.564,-32.511],[-55.542,-32.509],[-55.521,-32.503],[-55.508,-32.49],[-55.504,-32.473],[-55.498,-32.459],[-55.496,-32.445],[-55.487,-32.434],[-55.471,-32.427]]]}},{"type":"Feature","id":"UY-FD","properties":{"id":"UY-FD","countryCode":"UY","isoSubdivision":"UY-FD","name":"Florida","name_en":"Florida","name_ko":"플로리다","type":"Department","labelLongitude":-55.812,"labelLatitude":-33.835,"minZoom":8},"geometry":{"type":"Polygon","coordinates":[[[-55.258,-33.208],[-55.247,-33.204],[-55.234,-33.195],[-55.179,-33.151],[-55.162,-33.142],[-55.111,-33.118],[-55.102,-33.173],[-55.101,-33.207],[-55.091,-33.252],[-55.093,-33.262],[-55.096,-33.275],[-55.108,-33.299],[-55.115,-33.309],[-55.122,-33.316],[-55.136,-33.324],[-55.14,-33.328],[-55.144,-33.332],[-55.147,-33.337],[-55.148,-33.344],[-55.147,-33.354],[-55.145,-33.361],[-55.125,-33.382],[-55.118,-33.39],[-55.113,-33.398],[-55.111,-33.403],[-55.11,-33.409],[-55.109,-33.427],[-55.11,-33.44],[-55.113,-33.448],[-55.118,-33.457],[-55.13,-33.469],[-55.136,-33.474],[-55.142,-33.478],[-55.176,-33.488],[-55.186,-33.493],[-55.195,-33.498],[-55.197,-33.5],[-55.198,-33.5],[-55.198,-33.501],[-55.201,-33.503],[-55.206,-33.51],[-55.212,-33.522],[-55.23,-33.564],[-55.235,-33.57],[-55.245,-33.579],[-55.252,-33.584],[-55.258,-33.587],[-55.269,-33.591],[-55.301,-33.598],[-55.312,-33.602],[-55.317,-33.605],[-55.322,-33.61],[-55.325,-33.618],[-55.329,-33.634],[-55.329,-33.643],[-55.328,-33.65],[-55.326,-33.654],[-55.323,-33.659],[-55.298,-33.692],[-55.296,-33.697],[-55.293,-33.702],[-55.292,-33.707],[-55.292,-33.713],[-55.292,-33.719],[-55.295,-33.746],[-55.298,-33.758],[-55.332,-33.823],[-55.336,-33.833],[-55.339,-33.866],[-55.342,-33.873],[-55.347,-33.88],[-55.36,-33.89],[-55.38,-33.901],[-55.389,-33.907],[-55.393,-33.911],[-55.401,-33.923],[-55.413,-33.95],[-55.424,-33.963],[-55.436,-33.973],[-55.443,-33.981],[-55.447,-33.987],[-55.451,-34],[-55.451,-34.008],[-55.451,-34.013],[-55.452,-34.019],[-55.454,-34.025],[-55.459,-34.031],[-55.465,-34.037],[-55.513,-34.072],[-55.525,-34.083],[-55.53,-34.089],[-55.536,-34.098],[-55.544,-34.115],[-55.551,-34.133],[-55.555,-34.14],[-55.562,-34.149],[-55.59,-34.173],[-55.619,-34.208],[-55.744,-34.222],[-55.772,-34.23],[-55.84,-34.265],[-55.848,-34.267],[-55.86,-34.27],[-55.882,-34.272],[-55.894,-34.272],[-55.902,-34.271],[-55.955,-34.249],[-55.976,-34.244],[-55.989,-34.244],[-55.999,-34.244],[-56.088,-34.293],[-56.098,-34.3],[-56.104,-34.306],[-56.106,-34.31],[-56.119,-34.343],[-56.128,-34.357],[-56.136,-34.365],[-56.146,-34.368],[-56.196,-34.378],[-56.212,-34.379],[-56.224,-34.377],[-56.268,-34.357],[-56.279,-34.354],[-56.289,-34.352],[-56.304,-34.352],[-56.334,-34.354],[-56.351,-34.357],[-56.364,-34.362],[-56.374,-34.367],[-56.384,-34.382],[-56.401,-34.433],[-56.409,-34.42],[-56.414,-34.414],[-56.469,-34.365],[-56.471,-34.36],[-56.471,-34.354],[-56.467,-34.345],[-56.462,-34.34],[-56.457,-34.337],[-56.438,-34.328],[-56.433,-34.325],[-56.43,-34.321],[-56.427,-34.317],[-56.425,-34.307],[-56.42,-34.241],[-56.421,-34.231],[-56.426,-34.216],[-56.444,-34.178],[-56.446,-34.173],[-56.446,-34.167],[-56.444,-34.159],[-56.441,-34.153],[-56.419,-34.121],[-56.417,-34.116],[-56.415,-34.108],[-56.415,-34.097],[-56.419,-34.055],[-56.449,-33.935],[-56.463,-33.902],[-56.451,-33.894],[-56.442,-33.887],[-56.439,-33.883],[-56.435,-33.878],[-56.433,-33.874],[-56.43,-33.868],[-56.428,-33.863],[-56.427,-33.856],[-56.422,-33.763],[-56.424,-33.754],[-56.428,-33.743],[-56.446,-33.715],[-56.461,-33.696],[-56.517,-33.522],[-56.533,-33.496],[-56.454,-33.497],[-56.446,-33.495],[-56.437,-33.492],[-56.424,-33.483],[-56.418,-33.476],[-56.416,-33.469],[-56.416,-33.444],[-56.42,-33.421],[-56.42,-33.415],[-56.419,-33.409],[-56.417,-33.404],[-56.411,-33.401],[-56.401,-33.403],[-56.395,-33.406],[-56.387,-33.414],[-56.382,-33.417],[-56.367,-33.425],[-56.355,-33.43],[-56.349,-33.431],[-56.341,-33.432],[-56.295,-33.428],[-56.287,-33.427],[-56.28,-33.429],[-56.275,-33.432],[-56.272,-33.435],[-56.268,-33.44],[-56.266,-33.444],[-56.259,-33.464],[-56.256,-33.469],[-56.252,-33.473],[-56.248,-33.476],[-56.242,-33.478],[-56.236,-33.48],[-56.229,-33.481],[-56.172,-33.478],[-56.144,-33.48],[-56.096,-33.493],[-56.088,-33.492],[-56.081,-33.489],[-56.071,-33.482],[-56.05,-33.469],[-56.045,-33.464],[-56.041,-33.457],[-56.039,-33.446],[-56.036,-33.441],[-56.031,-33.437],[-56.022,-33.434],[-55.988,-33.431],[-55.935,-33.423],[-55.928,-33.422],[-55.921,-33.423],[-55.915,-33.425],[-55.898,-33.432],[-55.892,-33.434],[-55.885,-33.435],[-55.871,-33.436],[-55.863,-33.435],[-55.83,-33.426],[-55.768,-33.403],[-55.742,-33.389],[-55.733,-33.381],[-55.726,-33.375],[-55.723,-33.371],[-55.718,-33.367],[-55.711,-33.364],[-55.698,-33.363],[-55.689,-33.363],[-55.652,-33.369],[-55.645,-33.369],[-55.622,-33.361],[-55.431,-33.27],[-55.412,-33.249],[-55.403,-33.242],[-55.349,-33.218],[-55.326,-33.205],[-55.304,-33.196],[-55.295,-33.197],[-55.288,-33.198],[-55.272,-33.206],[-55.265,-33.208],[-55.258,-33.208]]]}},{"type":"Feature","id":"UY-FS","properties":{"id":"UY-FS","countryCode":"UY","isoSubdivision":"UY-FS","name":"Flores","name_en":"Flores","name_ko":"플로레스","type":"Department","labelLongitude":-56.885,"labelLatitude":-33.59,"minZoom":8},"geometry":{"type":"Polygon","coordinates":[[[-57.127,-33.123],[-57.08,-33.162],[-57.039,-33.182],[-57.028,-33.184],[-56.974,-33.178],[-56.941,-33.181],[-56.883,-33.193],[-56.872,-33.197],[-56.867,-33.2],[-56.86,-33.207],[-56.854,-33.216],[-56.85,-33.226],[-56.847,-33.243],[-56.844,-33.25],[-56.839,-33.256],[-56.827,-33.266],[-56.818,-33.27],[-56.809,-33.273],[-56.77,-33.274],[-56.737,-33.281],[-56.681,-33.299],[-56.67,-33.305],[-56.667,-33.309],[-56.647,-33.339],[-56.585,-33.396],[-56.581,-33.401],[-56.574,-33.408],[-56.569,-33.415],[-56.566,-33.42],[-56.562,-33.43],[-56.561,-33.435],[-56.56,-33.459],[-56.559,-33.465],[-56.552,-33.477],[-56.533,-33.496],[-56.517,-33.522],[-56.461,-33.696],[-56.446,-33.715],[-56.428,-33.743],[-56.424,-33.754],[-56.422,-33.763],[-56.427,-33.856],[-56.428,-33.863],[-56.43,-33.868],[-56.433,-33.874],[-56.435,-33.878],[-56.439,-33.883],[-56.442,-33.887],[-56.451,-33.894],[-56.463,-33.902],[-56.572,-33.856],[-56.603,-33.85],[-56.643,-33.878],[-56.664,-33.888],[-56.687,-33.895],[-56.755,-33.91],[-56.76,-33.911],[-56.763,-33.913],[-56.779,-33.925],[-56.821,-33.967],[-56.829,-33.972],[-56.841,-33.977],[-56.865,-33.985],[-56.879,-33.987],[-56.89,-33.988],[-57.035,-33.965],[-57.078,-33.963],[-57.086,-33.952],[-57.103,-33.932],[-57.106,-33.927],[-57.108,-33.923],[-57.112,-33.912],[-57.117,-33.887],[-57.119,-33.88],[-57.122,-33.875],[-57.126,-33.863],[-57.128,-33.848],[-57.13,-33.843],[-57.142,-33.819],[-57.184,-33.759],[-57.185,-33.756],[-57.186,-33.752],[-57.186,-33.74],[-57.171,-33.642],[-57.169,-33.636],[-57.167,-33.631],[-57.164,-33.626],[-57.162,-33.621],[-57.161,-33.616],[-57.16,-33.61],[-57.164,-33.604],[-57.169,-33.6],[-57.174,-33.597],[-57.202,-33.591],[-57.208,-33.589],[-57.218,-33.583],[-57.227,-33.576],[-57.247,-33.553],[-57.251,-33.549],[-57.255,-33.545],[-57.258,-33.541],[-57.261,-33.535],[-57.262,-33.528],[-57.262,-33.516],[-57.265,-33.503],[-57.266,-33.5],[-57.282,-33.482],[-57.285,-33.478],[-57.287,-33.473],[-57.298,-33.43],[-57.301,-33.425],[-57.304,-33.421],[-57.308,-33.417],[-57.312,-33.414],[-57.338,-33.4],[-57.342,-33.396],[-57.345,-33.392],[-57.347,-33.387],[-57.348,-33.38],[-57.348,-33.371],[-57.337,-33.355],[-57.232,-33.25],[-57.219,-33.24],[-57.147,-33.164],[-57.141,-33.155],[-57.127,-33.123]]]}},{"type":"Feature","id":"UY-LA","properties":{"id":"UY-LA","countryCode":"UY","isoSubdivision":"UY-LA","name":"Lavalleja","name_en":"Lavalleja","name_ko":"라바예하","type":"Department","labelLongitude":-54.872,"labelLatitude":-33.879,"minZoom":8},"geometry":{"type":"Polygon","coordinates":[[[-55.619,-34.208],[-55.59,-34.173],[-55.562,-34.149],[-55.555,-34.14],[-55.551,-34.133],[-55.544,-34.115],[-55.536,-34.098],[-55.53,-34.089],[-55.525,-34.083],[-55.513,-34.072],[-55.465,-34.037],[-55.459,-34.031],[-55.454,-34.025],[-55.452,-34.019],[-55.451,-34.013],[-55.451,-34.008],[-55.451,-34],[-55.447,-33.987],[-55.443,-33.981],[-55.436,-33.973],[-55.424,-33.963],[-55.413,-33.95],[-55.401,-33.923],[-55.393,-33.911],[-55.389,-33.907],[-55.38,-33.901],[-55.36,-33.89],[-55.347,-33.88],[-55.342,-33.873],[-55.339,-33.866],[-55.336,-33.833],[-55.332,-33.823],[-55.298,-33.758],[-55.295,-33.746],[-55.292,-33.719],[-55.292,-33.713],[-55.292,-33.707],[-55.293,-33.702],[-55.296,-33.697],[-55.298,-33.692],[-55.323,-33.659],[-55.326,-33.654],[-55.328,-33.65],[-55.329,-33.643],[-55.329,-33.634],[-55.325,-33.618],[-55.322,-33.61],[-55.317,-33.605],[-55.312,-33.602],[-55.301,-33.598],[-55.269,-33.591],[-55.258,-33.587],[-55.252,-33.584],[-55.245,-33.579],[-55.235,-33.57],[-55.23,-33.564],[-55.212,-33.522],[-55.206,-33.51],[-55.201,-33.503],[-55.198,-33.501],[-55.198,-33.5],[-55.197,-33.5],[-55.195,-33.498],[-55.186,-33.493],[-55.176,-33.488],[-55.142,-33.478],[-55.136,-33.474],[-55.13,-33.469],[-55.118,-33.457],[-55.113,-33.448],[-55.11,-33.44],[-55.109,-33.427],[-55.11,-33.409],[-55.111,-33.403],[-55.113,-33.398],[-55.118,-33.39],[-55.125,-33.382],[-55.076,-33.357],[-55.056,-33.35],[-55.004,-33.343],[-54.999,-33.342],[-54.996,-33.343],[-54.986,-33.348],[-54.967,-33.353],[-54.961,-33.355],[-54.957,-33.358],[-54.95,-33.362],[-54.941,-33.365],[-54.924,-33.367],[-54.914,-33.367],[-54.906,-33.365],[-54.861,-33.346],[-54.836,-33.338],[-54.826,-33.337],[-54.818,-33.338],[-54.803,-33.343],[-54.79,-33.346],[-54.782,-33.348],[-54.777,-33.352],[-54.749,-33.377],[-54.715,-33.396],[-54.685,-33.403],[-54.603,-33.414],[-54.597,-33.416],[-54.591,-33.418],[-54.578,-33.428],[-54.572,-33.43],[-54.504,-33.448],[-54.493,-33.449],[-54.484,-33.449],[-54.444,-33.435],[-54.439,-33.432],[-54.434,-33.429],[-54.431,-33.425],[-54.427,-33.421],[-54.422,-33.412],[-54.419,-33.4],[-54.417,-33.395],[-54.414,-33.391],[-54.409,-33.388],[-54.404,-33.385],[-54.392,-33.381],[-54.387,-33.379],[-54.355,-33.357],[-54.347,-33.354],[-54.318,-33.348],[-54.306,-33.348],[-54.297,-33.349],[-54.291,-33.351],[-54.287,-33.354],[-54.283,-33.358],[-54.273,-33.377],[-54.258,-33.398],[-54.243,-33.412],[-54.234,-33.419],[-54.213,-33.429],[-54.177,-33.441],[-54.15,-33.455],[-54.126,-33.465],[-54.13,-33.47],[-54.136,-33.474],[-54.143,-33.477],[-54.167,-33.48],[-54.191,-33.48],[-54.208,-33.487],[-54.23,-33.549],[-54.268,-33.577],[-54.348,-33.617],[-54.369,-33.636],[-54.379,-33.652],[-54.383,-33.673],[-54.374,-33.73],[-54.375,-33.738],[-54.38,-33.749],[-54.402,-33.779],[-54.408,-33.786],[-54.412,-33.792],[-54.416,-33.801],[-54.419,-33.817],[-54.421,-33.847],[-54.423,-33.858],[-54.427,-33.864],[-54.458,-33.894],[-54.482,-33.926],[-54.524,-33.952],[-54.535,-33.966],[-54.537,-33.972],[-54.538,-33.978],[-54.546,-34.001],[-54.559,-34.024],[-54.567,-34.033],[-54.574,-34.04],[-54.597,-34.047],[-54.646,-34.053],[-54.656,-34.056],[-54.668,-34.06],[-54.69,-34.072],[-54.699,-34.079],[-54.705,-34.086],[-54.707,-34.091],[-54.712,-34.099],[-54.741,-34.136],[-54.755,-34.163],[-54.777,-34.194],[-54.78,-34.202],[-54.779,-34.205],[-54.777,-34.212],[-54.776,-34.216],[-54.775,-34.22],[-54.775,-34.225],[-54.776,-34.231],[-54.778,-34.236],[-54.781,-34.257],[-54.785,-34.266],[-54.79,-34.273],[-54.796,-34.278],[-54.806,-34.283],[-54.811,-34.288],[-54.814,-34.294],[-54.832,-34.344],[-54.835,-34.356],[-54.836,-34.378],[-54.84,-34.388],[-54.844,-34.393],[-54.85,-34.396],[-54.868,-34.404],[-54.883,-34.414],[-54.892,-34.419],[-54.901,-34.422],[-54.919,-34.424],[-54.95,-34.438],[-54.962,-34.441],[-54.984,-34.443],[-54.997,-34.449],[-55.016,-34.461],[-55.071,-34.504],[-55.083,-34.512],[-55.089,-34.513],[-55.103,-34.515],[-55.134,-34.513],[-55.149,-34.513],[-55.155,-34.514],[-55.168,-34.518],[-55.281,-34.597],[-55.288,-34.601],[-55.312,-34.61],[-55.338,-34.616],[-55.473,-34.622],[-55.473,-34.594],[-55.479,-34.579],[-55.495,-34.553],[-55.537,-34.512],[-55.542,-34.504],[-55.544,-34.5],[-55.545,-34.478],[-55.544,-34.469],[-55.532,-34.42],[-55.532,-34.413],[-55.533,-34.405],[-55.537,-34.395],[-55.579,-34.331],[-55.592,-34.298],[-55.619,-34.208]]]}},{"type":"Feature","id":"UY-MA","properties":{"id":"UY-MA","countryCode":"UY","isoSubdivision":"UY-MA","name":"Maldonado","name_en":"Maldonado","name_ko":"말도나도","type":"Department","labelLongitude":-54.967,"labelLatitude":-34.688,"minZoom":8},"geometry":{"type":"Polygon","coordinates":[[[-54.531,-34.807],[-54.542,-34.812],[-54.604,-34.826],[-54.636,-34.849],[-54.657,-34.857],[-54.699,-34.867],[-54.873,-34.936],[-54.894,-34.939],[-54.914,-34.945],[-54.939,-34.97],[-54.959,-34.973],[-54.954,-34.963],[-54.952,-34.957],[-54.952,-34.953],[-54.962,-34.94],[-54.976,-34.928],[-54.994,-34.921],[-55.033,-34.917],[-55.035,-34.913],[-55.035,-34.907],[-55.041,-34.898],[-55.051,-34.891],[-55.06,-34.888],[-55.082,-34.884],[-55.13,-34.886],[-55.222,-34.904],[-55.26,-34.898],[-55.286,-34.876],[-55.338,-34.819],[-55.374,-34.803],[-55.375,-34.795],[-55.376,-34.788],[-55.385,-34.774],[-55.404,-34.75],[-55.412,-34.744],[-55.416,-34.739],[-55.419,-34.734],[-55.419,-34.726],[-55.419,-34.719],[-55.413,-34.694],[-55.416,-34.687],[-55.421,-34.68],[-55.433,-34.67],[-55.448,-34.661],[-55.458,-34.65],[-55.473,-34.622],[-55.338,-34.616],[-55.312,-34.61],[-55.288,-34.601],[-55.281,-34.597],[-55.168,-34.518],[-55.155,-34.514],[-55.149,-34.513],[-55.134,-34.513],[-55.103,-34.515],[-55.089,-34.513],[-55.083,-34.512],[-55.071,-34.504],[-55.016,-34.461],[-54.997,-34.449],[-54.984,-34.443],[-54.962,-34.441],[-54.95,-34.438],[-54.919,-34.424],[-54.901,-34.422],[-54.892,-34.419],[-54.883,-34.414],[-54.868,-34.404],[-54.85,-34.396],[-54.844,-34.393],[-54.84,-34.388],[-54.836,-34.378],[-54.835,-34.356],[-54.832,-34.344],[-54.814,-34.294],[-54.811,-34.288],[-54.806,-34.283],[-54.796,-34.278],[-54.79,-34.273],[-54.785,-34.266],[-54.781,-34.257],[-54.778,-34.236],[-54.776,-34.231],[-54.775,-34.225],[-54.775,-34.22],[-54.776,-34.216],[-54.777,-34.212],[-54.779,-34.205],[-54.78,-34.202],[-54.777,-34.194],[-54.755,-34.163],[-54.741,-34.136],[-54.712,-34.099],[-54.707,-34.091],[-54.705,-34.086],[-54.699,-34.079],[-54.69,-34.072],[-54.668,-34.06],[-54.656,-34.056],[-54.646,-34.053],[-54.597,-34.047],[-54.574,-34.04],[-54.567,-34.033],[-54.559,-34.024],[-54.546,-34.001],[-54.538,-33.978],[-54.537,-33.972],[-54.535,-33.966],[-54.524,-33.952],[-54.482,-33.926],[-54.461,-34.095],[-54.462,-34.1],[-54.464,-34.111],[-54.466,-34.116],[-54.478,-34.135],[-54.48,-34.141],[-54.482,-34.146],[-54.492,-34.201],[-54.49,-34.263],[-54.486,-34.28],[-54.484,-34.303],[-54.487,-34.363],[-54.493,-34.391],[-54.495,-34.394],[-54.498,-34.396],[-54.502,-34.397],[-54.507,-34.396],[-54.513,-34.394],[-54.52,-34.394],[-54.527,-34.397],[-54.534,-34.409],[-54.537,-34.421],[-54.538,-34.441],[-54.537,-34.451],[-54.535,-34.458],[-54.528,-34.466],[-54.525,-34.472],[-54.523,-34.481],[-54.521,-34.508],[-54.519,-34.515],[-54.516,-34.519],[-54.507,-34.528],[-54.503,-34.534],[-54.499,-34.546],[-54.498,-34.555],[-54.499,-34.562],[-54.501,-34.567],[-54.506,-34.578],[-54.521,-34.6],[-54.524,-34.607],[-54.533,-34.633],[-54.536,-34.655],[-54.533,-34.695],[-54.531,-34.707],[-54.518,-34.744],[-54.517,-34.749],[-54.518,-34.754],[-54.521,-34.758],[-54.528,-34.766],[-54.532,-34.772],[-54.536,-34.782],[-54.537,-34.79],[-54.536,-34.795],[-54.531,-34.806],[-54.531,-34.807]]]}},{"type":"Feature","id":"UY-MO","properties":{"id":"UY-MO","countryCode":"UY","isoSubdivision":"UY-MO","name":"Montevideo","name_en":"Montevideo","name_ko":"몬테비데오","type":"Department","labelLongitude":-56.228,"labelLatitude":-34.827,"minZoom":8},"geometry":{"type":"Polygon","coordinates":[[[-56.038,-34.886],[-56.07,-34.901],[-56.105,-34.898],[-56.136,-34.913],[-56.15,-34.92],[-56.156,-34.941],[-56.177,-34.916],[-56.195,-34.914],[-56.213,-34.908],[-56.205,-34.899],[-56.203,-34.888],[-56.215,-34.88],[-56.231,-34.878],[-56.237,-34.893],[-56.256,-34.906],[-56.266,-34.906],[-56.288,-34.903],[-56.311,-34.906],[-56.343,-34.884],[-56.403,-34.855],[-56.418,-34.843],[-56.421,-34.828],[-56.404,-34.816],[-56.387,-34.802],[-56.361,-34.797],[-56.365,-34.794],[-56.359,-34.789],[-56.356,-34.785],[-56.354,-34.777],[-56.354,-34.77],[-56.364,-34.734],[-56.331,-34.718],[-56.313,-34.713],[-56.304,-34.714],[-56.293,-34.715],[-56.286,-34.717],[-56.281,-34.72],[-56.273,-34.727],[-56.269,-34.731],[-56.257,-34.748],[-56.253,-34.752],[-56.247,-34.755],[-56.233,-34.762],[-56.224,-34.764],[-56.219,-34.764],[-56.208,-34.761],[-56.203,-34.759],[-56.198,-34.756],[-56.194,-34.752],[-56.19,-34.748],[-56.183,-34.74],[-56.177,-34.734],[-56.167,-34.73],[-56.147,-34.725],[-56.138,-34.725],[-56.132,-34.726],[-56.128,-34.733],[-56.126,-34.738],[-56.12,-34.747],[-56.115,-34.75],[-56.11,-34.753],[-56.104,-34.754],[-56.1,-34.757],[-56.098,-34.759],[-56.095,-34.763],[-56.091,-34.768],[-56.082,-34.773],[-56.075,-34.775],[-56.067,-34.774],[-56.058,-34.772],[-56.045,-34.772],[-56.039,-34.775],[-56.036,-34.78],[-56.036,-34.786],[-56.04,-34.797],[-56.051,-34.817],[-56.052,-34.823],[-56.053,-34.829],[-56.053,-34.848],[-56.049,-34.867],[-56.046,-34.877],[-56.038,-34.886]]]}},{"type":"Feature","id":"UY-PA","properties":{"id":"UY-PA","countryCode":"UY","isoSubdivision":"UY-PA","name":"Paysandú","name_en":"Paysandú","name_ko":"파이산두","type":"Department","labelLongitude":-57.224,"labelLatitude":-32.093,"minZoom":8},"geometry":{"type":"Polygon","coordinates":[[[-58.2,-32.447],[-58.2,-32.445],[-58.19,-32.434],[-58.165,-32.389],[-58.102,-32.311],[-58.097,-32.281],[-58.107,-32.252],[-58.175,-32.174],[-58.187,-32.153],[-58.181,-32.132],[-58.159,-32.102],[-58.148,-32.063],[-58.145,-32.018],[-58.149,-31.975],[-58.159,-31.944],[-58.19,-31.913],[-58.203,-31.893],[-58.196,-31.873],[-58.169,-31.846],[-58.153,-31.836],[-58.131,-31.828],[-58.083,-31.82],[-58.059,-31.811],[-58.049,-31.797],[-57.989,-31.643],[-57.98,-31.599],[-57.987,-31.554],[-58.013,-31.526],[-58.039,-31.509],[-58.036,-31.507],[-58.019,-31.5],[-58.004,-31.496],[-57.989,-31.498],[-57.971,-31.502],[-57.96,-31.502],[-57.955,-31.501],[-57.954,-31.5],[-57.953,-31.49],[-57.951,-31.485],[-57.948,-31.481],[-57.944,-31.479],[-57.907,-31.471],[-57.899,-31.47],[-57.888,-31.472],[-57.862,-31.481],[-57.796,-31.513],[-57.787,-31.519],[-57.784,-31.523],[-57.781,-31.527],[-57.768,-31.562],[-57.766,-31.567],[-57.763,-31.571],[-57.759,-31.575],[-57.755,-31.578],[-57.75,-31.581],[-57.743,-31.583],[-57.595,-31.611],[-57.524,-31.642],[-57.49,-31.662],[-57.48,-31.668],[-57.456,-31.676],[-57.432,-31.679],[-57.403,-31.679],[-57.385,-31.683],[-57.374,-31.687],[-57.37,-31.691],[-57.348,-31.72],[-57.34,-31.727],[-57.327,-31.736],[-57.304,-31.746],[-57.225,-31.765],[-57.214,-31.77],[-57.177,-31.794],[-57.166,-31.797],[-57.081,-31.806],[-57.068,-31.809],[-57.059,-31.809],[-57.05,-31.808],[-57.036,-31.804],[-57.028,-31.8],[-57.022,-31.796],[-57.018,-31.793],[-57.011,-31.791],[-57.004,-31.791],[-56.96,-31.806],[-56.939,-31.81],[-56.928,-31.809],[-56.841,-31.793],[-56.829,-31.793],[-56.812,-31.796],[-56.803,-31.798],[-56.796,-31.801],[-56.776,-31.812],[-56.77,-31.814],[-56.763,-31.815],[-56.721,-31.816],[-56.71,-31.817],[-56.702,-31.819],[-56.652,-31.846],[-56.639,-31.85],[-56.632,-31.851],[-56.58,-31.852],[-56.509,-31.871],[-56.503,-31.871],[-56.492,-31.871],[-56.476,-31.869],[-56.462,-31.865],[-56.457,-31.861],[-56.452,-31.857],[-56.447,-31.848],[-56.445,-31.844],[-56.442,-31.832],[-56.436,-31.825],[-56.406,-31.797],[-56.397,-31.787],[-56.391,-31.778],[-56.389,-31.773],[-56.374,-31.763],[-56.322,-31.751],[-56.289,-31.785],[-56.284,-31.794],[-56.28,-31.804],[-56.279,-31.81],[-56.281,-31.832],[-56.28,-31.855],[-56.277,-31.863],[-56.275,-31.869],[-56.251,-31.895],[-56.247,-31.901],[-56.245,-31.907],[-56.246,-31.914],[-56.248,-31.919],[-56.252,-31.922],[-56.256,-31.923],[-56.264,-31.925],[-56.275,-31.928],[-56.28,-31.93],[-56.285,-31.933],[-56.288,-31.94],[-56.29,-31.951],[-56.29,-31.993],[-56.29,-32],[-56.295,-32.043],[-56.301,-32.064],[-56.306,-32.074],[-56.318,-32.091],[-56.323,-32.103],[-56.351,-32.214],[-56.359,-32.232],[-56.389,-32.262],[-56.422,-32.289],[-56.46,-32.312],[-56.489,-32.335],[-56.506,-32.357],[-56.559,-32.492],[-56.591,-32.478],[-56.605,-32.47],[-56.66,-32.431],[-56.67,-32.426],[-56.725,-32.411],[-56.743,-32.41],[-56.75,-32.41],[-56.762,-32.412],[-56.772,-32.413],[-56.785,-32.412],[-56.824,-32.406],[-56.834,-32.405],[-56.859,-32.41],[-56.881,-32.411],[-56.903,-32.41],[-56.927,-32.405],[-56.959,-32.389],[-57.014,-32.368],[-57.029,-32.364],[-57.04,-32.363],[-57.045,-32.365],[-57.055,-32.37],[-57.074,-32.382],[-57.084,-32.386],[-57.089,-32.389],[-57.102,-32.391],[-57.166,-32.391],[-57.175,-32.393],[-57.186,-32.397],[-57.251,-32.438],[-57.259,-32.44],[-57.268,-32.443],[-57.286,-32.445],[-57.296,-32.444],[-57.306,-32.442],[-57.327,-32.434],[-57.336,-32.433],[-57.343,-32.434],[-57.358,-32.442],[-57.375,-32.447],[-57.401,-32.451],[-57.411,-32.45],[-57.447,-32.445],[-57.46,-32.444],[-57.47,-32.445],[-57.475,-32.447],[-57.484,-32.454],[-57.492,-32.461],[-57.496,-32.464],[-57.505,-32.472],[-57.509,-32.474],[-57.533,-32.48],[-57.539,-32.482],[-57.543,-32.485],[-57.547,-32.489],[-57.552,-32.497],[-57.553,-32.499],[-57.553,-32.5],[-57.559,-32.514],[-57.562,-32.519],[-57.57,-32.527],[-57.574,-32.53],[-57.584,-32.536],[-57.757,-32.558],[-57.762,-32.561],[-57.765,-32.566],[-57.768,-32.571],[-57.769,-32.577],[-57.773,-32.597],[-57.778,-32.602],[-57.785,-32.608],[-57.8,-32.614],[-57.809,-32.614],[-57.816,-32.613],[-57.821,-32.61],[-57.909,-32.603],[-57.921,-32.6],[-57.931,-32.595],[-57.952,-32.59],[-57.976,-32.587],[-57.988,-32.585],[-57.996,-32.582],[-57.998,-32.579],[-58,-32.577],[-58.006,-32.56],[-58.011,-32.551],[-58.015,-32.547],[-58.019,-32.544],[-58.041,-32.534],[-58.045,-32.531],[-58.05,-32.527],[-58.077,-32.5],[-58.08,-32.497],[-58.085,-32.494],[-58.091,-32.49],[-58.103,-32.486],[-58.111,-32.485],[-58.162,-32.487],[-58.191,-32.492],[-58.197,-32.47],[-58.2,-32.447]]]}},{"type":"Feature","id":"UY-RN","properties":{"id":"UY-RN","countryCode":"UY","isoSubdivision":"UY-RN","name":"Río Negro","name_en":"Río Negro","name_ko":"리오네그로","type":"Department","labelLongitude":-57.489,"labelLatitude":-32.744,"minZoom":8},"geometry":{"type":"Polygon","coordinates":[[[-58.392,-33.424],[-58.413,-33.41],[-58.419,-33.39],[-58.413,-33.372],[-58.397,-33.356],[-58.361,-33.326],[-58.351,-33.306],[-58.349,-33.283],[-58.366,-33.196],[-58.367,-33.154],[-58.351,-33.122],[-58.31,-33.109],[-58.217,-33.114],[-58.174,-33.11],[-58.138,-33.095],[-58.1,-33.066],[-58.084,-33.048],[-58.077,-33.031],[-58.075,-33.008],[-58.071,-32.99],[-58.056,-32.952],[-58.048,-32.912],[-58.057,-32.882],[-58.077,-32.858],[-58.12,-32.819],[-58.131,-32.803],[-58.136,-32.784],[-58.138,-32.763],[-58.136,-32.718],[-58.138,-32.696],[-58.145,-32.678],[-58.138,-32.671],[-58.146,-32.645],[-58.157,-32.575],[-58.169,-32.561],[-58.177,-32.545],[-58.191,-32.492],[-58.162,-32.487],[-58.111,-32.485],[-58.103,-32.486],[-58.091,-32.49],[-58.085,-32.494],[-58.08,-32.497],[-58.077,-32.5],[-58.05,-32.527],[-58.045,-32.531],[-58.041,-32.534],[-58.019,-32.544],[-58.015,-32.547],[-58.011,-32.551],[-58.006,-32.56],[-58,-32.577],[-57.998,-32.579],[-57.996,-32.582],[-57.988,-32.585],[-57.976,-32.587],[-57.952,-32.59],[-57.931,-32.595],[-57.921,-32.6],[-57.909,-32.603],[-57.821,-32.61],[-57.816,-32.613],[-57.809,-32.614],[-57.8,-32.614],[-57.785,-32.608],[-57.778,-32.602],[-57.773,-32.597],[-57.769,-32.577],[-57.768,-32.571],[-57.765,-32.566],[-57.762,-32.561],[-57.757,-32.558],[-57.584,-32.536],[-57.574,-32.53],[-57.57,-32.527],[-57.562,-32.519],[-57.559,-32.514],[-57.553,-32.5],[-57.553,-32.499],[-57.552,-32.497],[-57.547,-32.489],[-57.543,-32.485],[-57.539,-32.482],[-57.533,-32.48],[-57.509,-32.474],[-57.505,-32.472],[-57.496,-32.464],[-57.492,-32.461],[-57.484,-32.454],[-57.475,-32.447],[-57.47,-32.445],[-57.46,-32.444],[-57.447,-32.445],[-57.411,-32.45],[-57.401,-32.451],[-57.375,-32.447],[-57.358,-32.442],[-57.343,-32.434],[-57.336,-32.433],[-57.327,-32.434],[-57.306,-32.442],[-57.296,-32.444],[-57.286,-32.445],[-57.268,-32.443],[-57.259,-32.44],[-57.251,-32.438],[-57.186,-32.397],[-57.175,-32.393],[-57.166,-32.391],[-57.102,-32.391],[-57.089,-32.389],[-57.084,-32.386],[-57.074,-32.382],[-57.055,-32.37],[-57.045,-32.365],[-57.04,-32.363],[-57.029,-32.364],[-57.014,-32.368],[-56.959,-32.389],[-56.927,-32.405],[-56.903,-32.41],[-56.881,-32.411],[-56.859,-32.41],[-56.834,-32.405],[-56.824,-32.406],[-56.785,-32.412],[-56.772,-32.413],[-56.762,-32.412],[-56.75,-32.41],[-56.743,-32.41],[-56.725,-32.411],[-56.67,-32.426],[-56.66,-32.431],[-56.605,-32.47],[-56.591,-32.478],[-56.559,-32.492],[-56.564,-32.538],[-56.595,-32.65],[-56.6,-32.664],[-56.62,-32.684],[-56.629,-32.699],[-56.633,-32.718],[-56.633,-32.73],[-56.631,-32.75],[-56.641,-32.784],[-56.658,-32.813],[-56.667,-32.843],[-56.686,-32.838],[-56.704,-32.843],[-56.715,-32.856],[-56.735,-32.863],[-56.765,-32.864],[-56.782,-32.87],[-56.796,-32.881],[-56.805,-32.889],[-56.816,-32.911],[-56.816,-32.918],[-56.815,-32.933],[-56.828,-32.937],[-56.847,-32.934],[-56.864,-32.938],[-56.87,-32.947],[-56.869,-32.957],[-56.864,-32.976],[-56.868,-32.987],[-56.878,-32.985],[-56.894,-32.972],[-56.9,-32.97],[-56.907,-32.964],[-56.915,-32.959],[-56.925,-32.959],[-56.937,-32.966],[-56.937,-32.974],[-56.933,-32.982],[-56.932,-32.987],[-56.946,-32.989],[-56.968,-32.99],[-56.985,-32.994],[-56.983,-33.003],[-56.969,-33.019],[-56.969,-33.025],[-56.982,-33.027],[-57.004,-33.027],[-57.024,-33.024],[-57.065,-33.01],[-57.083,-33.006],[-57.1,-33.01],[-57.118,-33.02],[-57.135,-33.032],[-57.148,-33.044],[-57.156,-33.048],[-57.174,-33.05],[-57.179,-33.054],[-57.179,-33.065],[-57.172,-33.071],[-57.162,-33.072],[-57.152,-33.068],[-57.13,-33.075],[-57.133,-33.087],[-57.127,-33.117],[-57.127,-33.123],[-57.136,-33.126],[-57.161,-33.139],[-57.206,-33.156],[-57.217,-33.157],[-57.229,-33.153],[-57.234,-33.142],[-57.24,-33.116],[-57.25,-33.129],[-57.267,-33.143],[-57.282,-33.147],[-57.293,-33.108],[-57.305,-33.095],[-57.322,-33.088],[-57.363,-33.076],[-57.374,-33.075],[-57.385,-33.075],[-57.397,-33.08],[-57.417,-33.093],[-57.429,-33.095],[-57.44,-33.091],[-57.445,-33.081],[-57.446,-33.069],[-57.446,-33.058],[-57.45,-33.05],[-57.459,-33.044],[-57.503,-33.024],[-57.525,-33.021],[-57.547,-33.025],[-57.566,-33.037],[-57.574,-33.04],[-57.607,-33.047],[-57.614,-33.052],[-57.624,-33.074],[-57.631,-33.081],[-57.65,-33.085],[-57.689,-33.072],[-57.719,-33.066],[-57.733,-33.056],[-57.744,-33.054],[-57.756,-33.056],[-57.777,-33.061],[-57.789,-33.061],[-57.805,-33.056],[-57.833,-33.042],[-57.85,-33.04],[-57.869,-33.044],[-57.88,-33.053],[-57.891,-33.064],[-57.905,-33.075],[-57.92,-33.081],[-57.95,-33.087],[-57.959,-33.095],[-57.963,-33.11],[-57.961,-33.123],[-57.965,-33.131],[-57.987,-33.135],[-58.004,-33.134],[-58.019,-33.129],[-58.033,-33.126],[-58.049,-33.13],[-58.06,-33.137],[-58.06,-33.144],[-58.049,-33.164],[-58.049,-33.171],[-58.05,-33.18],[-58.05,-33.187],[-58.044,-33.193],[-58.031,-33.203],[-58.028,-33.205],[-58.027,-33.221],[-58.031,-33.238],[-58.039,-33.247],[-58.049,-33.239],[-58.055,-33.238],[-58.072,-33.225],[-58.084,-33.219],[-58.117,-33.234],[-58.128,-33.243],[-58.131,-33.253],[-58.131,-33.291],[-58.136,-33.308],[-58.147,-33.312],[-58.176,-33.308],[-58.224,-33.308],[-58.242,-33.318],[-58.296,-33.377],[-58.391,-33.424],[-58.392,-33.424]]]}},{"type":"Feature","id":"UY-RO","properties":{"id":"UY-RO","countryCode":"UY","isoSubdivision":"UY-RO","name":"Rocha","name_en":"Rocha","name_ko":"로차","type":"Department","labelLongitude":-53.958,"labelLatitude":-33.911,"minZoom":8},"geometry":{"type":"Polygon","coordinates":[[[-53.521,-33.125],[-53.537,-33.171],[-53.536,-33.245],[-53.514,-33.395],[-53.537,-33.56],[-53.54,-33.649],[-53.512,-33.69],[-53.491,-33.69],[-53.473,-33.687],[-53.457,-33.688],[-53.44,-33.697],[-53.431,-33.713],[-53.424,-33.731],[-53.411,-33.742],[-53.379,-33.741],[-53.396,-33.751],[-53.415,-33.764],[-53.451,-33.802],[-53.473,-33.835],[-53.486,-33.869],[-53.506,-33.952],[-53.525,-34.002],[-53.53,-34.048],[-53.539,-34.062],[-53.574,-34.083],[-53.591,-34.095],[-53.64,-34.148],[-53.694,-34.182],[-53.711,-34.199],[-53.747,-34.257],[-53.756,-34.268],[-53.758,-34.278],[-53.78,-34.336],[-53.764,-34.372],[-53.765,-34.39],[-53.806,-34.401],[-53.898,-34.444],[-53.972,-34.487],[-54.125,-34.61],[-54.137,-34.624],[-54.141,-34.641],[-54.14,-34.656],[-54.146,-34.668],[-54.237,-34.685],[-54.26,-34.686],[-54.256,-34.678],[-54.25,-34.671],[-54.232,-34.658],[-54.239,-34.653],[-54.246,-34.647],[-54.25,-34.639],[-54.253,-34.631],[-54.251,-34.618],[-54.241,-34.594],[-54.239,-34.59],[-54.253,-34.578],[-54.28,-34.568],[-54.309,-34.562],[-54.329,-34.562],[-54.317,-34.569],[-54.28,-34.582],[-54.288,-34.595],[-54.304,-34.609],[-54.323,-34.619],[-54.338,-34.624],[-54.345,-34.631],[-54.345,-34.644],[-54.337,-34.655],[-54.321,-34.653],[-54.323,-34.645],[-54.308,-34.647],[-54.289,-34.66],[-54.28,-34.682],[-54.288,-34.695],[-54.306,-34.708],[-54.531,-34.807],[-54.531,-34.806],[-54.536,-34.795],[-54.537,-34.79],[-54.536,-34.782],[-54.532,-34.772],[-54.528,-34.766],[-54.521,-34.758],[-54.518,-34.754],[-54.517,-34.749],[-54.518,-34.744],[-54.531,-34.707],[-54.533,-34.695],[-54.536,-34.655],[-54.533,-34.633],[-54.524,-34.607],[-54.521,-34.6],[-54.506,-34.578],[-54.501,-34.567],[-54.499,-34.562],[-54.498,-34.555],[-54.499,-34.546],[-54.503,-34.534],[-54.507,-34.528],[-54.516,-34.519],[-54.519,-34.515],[-54.521,-34.508],[-54.523,-34.481],[-54.525,-34.472],[-54.528,-34.466],[-54.535,-34.458],[-54.537,-34.451],[-54.538,-34.441],[-54.537,-34.421],[-54.534,-34.409],[-54.527,-34.397],[-54.52,-34.394],[-54.513,-34.394],[-54.507,-34.396],[-54.502,-34.397],[-54.498,-34.396],[-54.495,-34.394],[-54.493,-34.391],[-54.487,-34.363],[-54.484,-34.303],[-54.486,-34.28],[-54.49,-34.263],[-54.492,-34.201],[-54.482,-34.146],[-54.48,-34.141],[-54.478,-34.135],[-54.466,-34.116],[-54.464,-34.111],[-54.462,-34.1],[-54.461,-34.095],[-54.482,-33.926],[-54.458,-33.894],[-54.427,-33.864],[-54.423,-33.858],[-54.421,-33.847],[-54.419,-33.817],[-54.416,-33.801],[-54.412,-33.792],[-54.408,-33.786],[-54.402,-33.779],[-54.38,-33.749],[-54.375,-33.738],[-54.374,-33.73],[-54.383,-33.673],[-54.379,-33.652],[-54.369,-33.636],[-54.348,-33.617],[-54.268,-33.577],[-54.23,-33.549],[-54.208,-33.487],[-54.191,-33.48],[-54.167,-33.48],[-54.143,-33.477],[-54.136,-33.474],[-54.13,-33.47],[-54.126,-33.465],[-54.121,-33.459],[-54.11,-33.45],[-54.057,-33.439],[-54.033,-33.426],[-54.009,-33.41],[-53.989,-33.39],[-53.963,-33.346],[-53.953,-33.337],[-53.919,-33.329],[-53.895,-33.316],[-53.864,-33.279],[-53.846,-33.263],[-53.832,-33.256],[-53.808,-33.247],[-53.798,-33.238],[-53.792,-33.227],[-53.789,-33.216],[-53.785,-33.204],[-53.774,-33.193],[-53.769,-33.189],[-53.689,-33.17],[-53.616,-33.144],[-53.521,-33.125]]]}},{"type":"Feature","id":"UY-RV","properties":{"id":"UY-RV","countryCode":"UY","isoSubdivision":"UY-RV","name":"Rivera","name_en":"Rivera","name_ko":"리베라","type":"Department","labelLongitude":-55.328,"labelLatitude":-31.468,"minZoom":8},"geometry":{"type":"Polygon","coordinates":[[[-55.817,-31.043],[-55.778,-31.02],[-55.764,-31.008],[-55.756,-30.993],[-55.745,-30.959],[-55.732,-30.945],[-55.713,-30.943],[-55.688,-30.948],[-55.666,-30.949],[-55.653,-30.939],[-55.651,-30.92],[-55.655,-30.879],[-55.65,-30.861],[-55.634,-30.848],[-55.613,-30.843],[-55.592,-30.848],[-55.564,-30.876],[-55.527,-30.895],[-55.511,-30.906],[-55.489,-30.93],[-55.443,-30.966],[-55.369,-31.037],[-55.354,-31.056],[-55.348,-31.073],[-55.345,-31.108],[-55.338,-31.126],[-55.327,-31.135],[-55.294,-31.154],[-55.282,-31.169],[-55.269,-31.211],[-55.26,-31.229],[-55.244,-31.245],[-55.228,-31.253],[-55.188,-31.267],[-55.17,-31.276],[-55.122,-31.314],[-55.102,-31.324],[-55.087,-31.327],[-55.074,-31.321],[-55.061,-31.305],[-55.042,-31.273],[-55.029,-31.269],[-55.011,-31.288],[-54.995,-31.312],[-54.97,-31.341],[-54.941,-31.366],[-54.9,-31.382],[-54.888,-31.393],[-54.876,-31.406],[-54.863,-31.418],[-54.85,-31.425],[-54.82,-31.435],[-54.654,-31.456],[-54.62,-31.456],[-54.605,-31.46],[-54.592,-31.471],[-54.574,-31.502],[-54.562,-31.516],[-54.51,-31.552],[-54.495,-31.566],[-54.483,-31.584],[-54.479,-31.601],[-54.477,-31.642],[-54.467,-31.664],[-54.468,-31.665],[-54.472,-31.67],[-54.486,-31.694],[-54.489,-31.698],[-54.496,-31.702],[-54.506,-31.711],[-54.515,-31.723],[-54.52,-31.732],[-54.521,-31.756],[-54.504,-31.8],[-54.499,-31.825],[-54.504,-31.842],[-54.528,-31.893],[-54.542,-31.915],[-54.554,-31.944],[-54.589,-31.985],[-54.573,-31.996],[-54.556,-31.999],[-54.544,-32.003],[-54.54,-32.019],[-54.546,-32.032],[-54.572,-32.049],[-54.582,-32.061],[-54.572,-32.077],[-54.575,-32.095],[-54.589,-32.11],[-54.612,-32.116],[-54.633,-32.118],[-54.655,-32.123],[-54.669,-32.109],[-54.676,-32.1],[-54.688,-32.077],[-54.701,-32.06],[-54.738,-32.029],[-54.754,-32.009],[-54.796,-31.969],[-54.813,-31.942],[-54.828,-31.928],[-54.855,-31.909],[-54.859,-31.906],[-54.879,-31.882],[-54.883,-31.878],[-54.887,-31.875],[-54.91,-31.865],[-54.953,-31.851],[-54.965,-31.849],[-55.042,-31.843],[-55.062,-31.838],[-55.1,-31.823],[-55.116,-31.82],[-55.147,-31.819],[-55.188,-31.823],[-55.25,-31.819],[-55.348,-31.798],[-55.377,-31.795],[-55.391,-31.796],[-55.416,-31.801],[-55.504,-31.806],[-55.532,-31.804],[-55.559,-31.798],[-55.566,-31.798],[-55.573,-31.799],[-55.589,-31.805],[-55.596,-31.806],[-55.603,-31.806],[-55.61,-31.805],[-55.617,-31.802],[-55.625,-31.796],[-55.636,-31.782],[-55.645,-31.767],[-55.649,-31.758],[-55.65,-31.752],[-55.648,-31.734],[-55.649,-31.729],[-55.651,-31.724],[-55.657,-31.716],[-55.659,-31.711],[-55.661,-31.706],[-55.661,-31.699],[-55.66,-31.686],[-55.656,-31.675],[-55.648,-31.653],[-55.647,-31.647],[-55.647,-31.641],[-55.648,-31.636],[-55.652,-31.626],[-55.661,-31.594],[-55.666,-31.584],[-55.671,-31.575],[-55.678,-31.571],[-55.687,-31.566],[-55.706,-31.558],[-55.739,-31.549],[-55.746,-31.546],[-55.753,-31.542],[-55.787,-31.515],[-55.791,-31.511],[-55.794,-31.507],[-55.797,-31.5],[-55.798,-31.5],[-55.8,-31.496],[-55.815,-31.457],[-55.816,-31.452],[-55.814,-31.433],[-55.815,-31.42],[-55.816,-31.415],[-55.821,-31.405],[-55.831,-31.387],[-55.835,-31.383],[-55.84,-31.378],[-55.857,-31.367],[-55.929,-31.341],[-55.977,-31.318],[-56.059,-31.262],[-56.064,-31.259],[-56.079,-31.256],[-56.098,-31.256],[-56.105,-31.257],[-56.121,-31.263],[-56.134,-31.273],[-56.158,-31.305],[-56.167,-31.295],[-56.182,-31.28],[-56.186,-31.275],[-56.188,-31.269],[-56.188,-31.263],[-56.187,-31.257],[-56.183,-31.25],[-56.176,-31.242],[-56.161,-31.234],[-56.148,-31.228],[-56.079,-31.211],[-56.066,-31.204],[-56.056,-31.196],[-56.043,-31.175],[-56.037,-31.16],[-56.01,-31.082],[-55.985,-31.079],[-55.919,-31.082],[-55.888,-31.077],[-55.864,-31.077],[-55.855,-31.075],[-55.847,-31.069],[-55.842,-31.064],[-55.838,-31.058],[-55.832,-31.052],[-55.817,-31.043]]]}},{"type":"Feature","id":"UY-SA","properties":{"id":"UY-SA","countryCode":"UY","isoSubdivision":"UY-SA","name":"Salto","name_en":"Salto","name_ko":"살토","type":"Department","labelLongitude":-57.043,"labelLatitude":-31.44,"minZoom":8},"geometry":{"type":"Polygon","coordinates":[[[-57.82,-30.912],[-57.807,-30.908],[-57.802,-30.892],[-57.796,-30.868],[-57.795,-30.858],[-57.796,-30.816],[-57.799,-30.791],[-57.775,-30.761],[-57.77,-30.757],[-57.763,-30.753],[-57.753,-30.752],[-57.726,-30.755],[-57.715,-30.758],[-57.701,-30.765],[-57.636,-30.807],[-57.62,-30.82],[-57.612,-30.827],[-57.596,-30.847],[-57.591,-30.852],[-57.584,-30.857],[-57.572,-30.863],[-57.563,-30.866],[-57.554,-30.868],[-57.519,-30.867],[-57.498,-30.87],[-57.487,-30.872],[-57.479,-30.875],[-57.463,-30.886],[-57.457,-30.891],[-57.424,-30.911],[-57.292,-30.972],[-57.244,-30.985],[-57.236,-30.989],[-57.221,-31],[-57.175,-31.04],[-57.156,-31.051],[-57.131,-31.062],[-57.071,-31.078],[-57.061,-31.079],[-57.055,-31.078],[-57.049,-31.076],[-57.044,-31.074],[-57.016,-31.057],[-57.007,-31.052],[-57,-31.05],[-56.934,-31.043],[-56.91,-31.044],[-56.797,-31.062],[-56.783,-31.062],[-56.759,-31.056],[-56.711,-31.052],[-56.699,-31.05],[-56.688,-31.046],[-56.679,-31.042],[-56.62,-31],[-56.61,-30.995],[-56.599,-30.991],[-56.566,-30.988],[-56.554,-30.984],[-56.549,-30.982],[-56.545,-30.979],[-56.53,-30.963],[-56.526,-30.96],[-56.516,-30.955],[-56.494,-30.947],[-56.489,-30.945],[-56.481,-30.939],[-56.477,-30.935],[-56.471,-30.925],[-56.464,-30.911],[-56.458,-30.901],[-56.455,-30.897],[-56.451,-30.894],[-56.443,-30.891],[-56.434,-30.889],[-56.416,-30.887],[-56.406,-30.888],[-56.398,-30.89],[-56.342,-30.907],[-56.183,-30.937],[-56.177,-30.94],[-56.16,-30.948],[-56.14,-30.964],[-56.133,-30.971],[-56.118,-30.992],[-56.106,-31.004],[-56.081,-31.023],[-56.073,-31.03],[-56.063,-31.042],[-56.055,-31.049],[-56.018,-31.074],[-56.017,-31.074],[-56.011,-31.082],[-56.01,-31.082],[-56.037,-31.16],[-56.043,-31.175],[-56.056,-31.196],[-56.066,-31.204],[-56.079,-31.211],[-56.148,-31.228],[-56.161,-31.234],[-56.176,-31.242],[-56.183,-31.25],[-56.187,-31.257],[-56.188,-31.263],[-56.188,-31.269],[-56.186,-31.275],[-56.182,-31.28],[-56.167,-31.295],[-56.158,-31.305],[-56.164,-31.323],[-56.173,-31.341],[-56.18,-31.379],[-56.183,-31.388],[-56.187,-31.395],[-56.192,-31.398],[-56.204,-31.409],[-56.214,-31.421],[-56.22,-31.427],[-56.226,-31.431],[-56.232,-31.433],[-56.25,-31.439],[-56.257,-31.443],[-56.263,-31.449],[-56.28,-31.48],[-56.284,-31.485],[-56.317,-31.512],[-56.321,-31.519],[-56.351,-31.589],[-56.354,-31.6],[-56.352,-31.604],[-56.349,-31.609],[-56.342,-31.616],[-56.337,-31.625],[-56.333,-31.635],[-56.331,-31.646],[-56.328,-31.689],[-56.325,-31.7],[-56.322,-31.71],[-56.32,-31.724],[-56.322,-31.751],[-56.374,-31.763],[-56.389,-31.773],[-56.391,-31.778],[-56.397,-31.787],[-56.406,-31.797],[-56.436,-31.825],[-56.442,-31.832],[-56.445,-31.844],[-56.447,-31.848],[-56.452,-31.857],[-56.457,-31.861],[-56.462,-31.865],[-56.476,-31.869],[-56.492,-31.871],[-56.503,-31.871],[-56.509,-31.871],[-56.58,-31.852],[-56.632,-31.851],[-56.639,-31.85],[-56.652,-31.846],[-56.702,-31.819],[-56.71,-31.817],[-56.721,-31.816],[-56.763,-31.815],[-56.77,-31.814],[-56.776,-31.812],[-56.796,-31.801],[-56.803,-31.798],[-56.812,-31.796],[-56.829,-31.793],[-56.841,-31.793],[-56.928,-31.809],[-56.939,-31.81],[-56.96,-31.806],[-57.004,-31.791],[-57.011,-31.791],[-57.018,-31.793],[-57.022,-31.796],[-57.028,-31.8],[-57.036,-31.804],[-57.05,-31.808],[-57.059,-31.809],[-57.068,-31.809],[-57.081,-31.806],[-57.166,-31.797],[-57.177,-31.794],[-57.214,-31.77],[-57.225,-31.765],[-57.304,-31.746],[-57.327,-31.736],[-57.34,-31.727],[-57.348,-31.72],[-57.37,-31.691],[-57.374,-31.687],[-57.385,-31.683],[-57.403,-31.679],[-57.432,-31.679],[-57.456,-31.676],[-57.48,-31.668],[-57.49,-31.662],[-57.524,-31.642],[-57.595,-31.611],[-57.743,-31.583],[-57.75,-31.581],[-57.755,-31.578],[-57.759,-31.575],[-57.763,-31.571],[-57.766,-31.567],[-57.768,-31.562],[-57.781,-31.527],[-57.784,-31.523],[-57.787,-31.519],[-57.796,-31.513],[-57.862,-31.481],[-57.888,-31.472],[-57.899,-31.47],[-57.907,-31.471],[-57.944,-31.479],[-57.948,-31.481],[-57.951,-31.485],[-57.953,-31.49],[-57.954,-31.5],[-57.955,-31.501],[-57.96,-31.502],[-57.971,-31.502],[-57.989,-31.498],[-58.004,-31.496],[-58.019,-31.5],[-58.036,-31.507],[-58.039,-31.509],[-58.051,-31.501],[-58.075,-31.475],[-58.063,-31.444],[-58.044,-31.431],[-58.006,-31.411],[-57.99,-31.399],[-57.981,-31.381],[-57.976,-31.335],[-57.966,-31.315],[-57.959,-31.308],[-57.943,-31.297],[-57.936,-31.29],[-57.915,-31.252],[-57.905,-31.241],[-57.905,-31.215],[-57.912,-31.171],[-57.899,-31.126],[-57.874,-31.093],[-57.855,-31.059],[-57.863,-31.012],[-57.905,-30.959],[-57.912,-30.947],[-57.904,-30.93],[-57.885,-30.919],[-57.843,-30.909],[-57.82,-30.912]]]}},{"type":"Feature","id":"UY-SJ","properties":{"id":"UY-SJ","countryCode":"UY","isoSubdivision":"UY-SJ","name":"San José","name_en":"San José","name_ko":"산호세","type":"Department","labelLongitude":-56.765,"labelLatitude":-34.312,"minZoom":8},"geometry":{"type":"Polygon","coordinates":[[[-56.365,-34.794],[-56.376,-34.783],[-56.396,-34.776],[-56.448,-34.758],[-56.485,-34.754],[-56.52,-34.755],[-56.542,-34.767],[-56.558,-34.765],[-56.574,-34.759],[-56.611,-34.739],[-56.629,-34.733],[-56.646,-34.723],[-56.714,-34.707],[-56.795,-34.698],[-56.874,-34.67],[-56.891,-34.66],[-56.904,-34.636],[-56.92,-34.623],[-56.953,-34.603],[-56.977,-34.581],[-56.997,-34.564],[-57.016,-34.552],[-57.043,-34.538],[-57.057,-34.527],[-57.056,-34.513],[-57.062,-34.507],[-57.077,-34.498],[-57.083,-34.494],[-57.102,-34.476],[-57.12,-34.463],[-57.152,-34.451],[-57.167,-34.448],[-57.106,-34.404],[-57.102,-34.4],[-57.099,-34.394],[-57.098,-34.384],[-57.099,-34.365],[-57.098,-34.354],[-57.092,-34.343],[-57.086,-34.337],[-57.081,-34.329],[-57.074,-34.309],[-57.073,-34.302],[-57.077,-34.296],[-57.097,-34.277],[-57.1,-34.272],[-57.103,-34.268],[-57.104,-34.261],[-57.103,-34.253],[-57.099,-34.24],[-57.096,-34.232],[-57.091,-34.227],[-57.067,-34.213],[-57.051,-34.206],[-57.008,-34.195],[-57.001,-34.192],[-56.997,-34.19],[-56.952,-34.16],[-56.945,-34.153],[-56.943,-34.15],[-56.942,-34.148],[-56.942,-34.145],[-56.942,-34.138],[-56.948,-34.127],[-56.985,-34.079],[-57.018,-34.047],[-57.025,-34.042],[-57.042,-34.035],[-57.047,-34.032],[-57.051,-34.026],[-57.056,-34.017],[-57.064,-33.987],[-57.078,-33.963],[-57.035,-33.965],[-56.89,-33.988],[-56.879,-33.987],[-56.865,-33.985],[-56.841,-33.977],[-56.829,-33.972],[-56.821,-33.967],[-56.779,-33.925],[-56.763,-33.913],[-56.76,-33.911],[-56.755,-33.91],[-56.687,-33.895],[-56.664,-33.888],[-56.643,-33.878],[-56.603,-33.85],[-56.572,-33.856],[-56.463,-33.902],[-56.449,-33.935],[-56.419,-34.055],[-56.415,-34.097],[-56.415,-34.108],[-56.417,-34.116],[-56.419,-34.121],[-56.441,-34.153],[-56.444,-34.159],[-56.446,-34.167],[-56.446,-34.173],[-56.444,-34.178],[-56.426,-34.216],[-56.421,-34.231],[-56.42,-34.241],[-56.425,-34.307],[-56.427,-34.317],[-56.43,-34.321],[-56.433,-34.325],[-56.438,-34.328],[-56.457,-34.337],[-56.462,-34.34],[-56.467,-34.345],[-56.471,-34.354],[-56.471,-34.36],[-56.469,-34.365],[-56.414,-34.414],[-56.409,-34.42],[-56.401,-34.433],[-56.402,-34.452],[-56.408,-34.476],[-56.408,-34.483],[-56.408,-34.488],[-56.404,-34.492],[-56.401,-34.499],[-56.396,-34.513],[-56.396,-34.521],[-56.398,-34.527],[-56.415,-34.541],[-56.422,-34.548],[-56.429,-34.557],[-56.433,-34.561],[-56.437,-34.564],[-56.442,-34.567],[-56.454,-34.572],[-56.46,-34.576],[-56.468,-34.583],[-56.471,-34.59],[-56.472,-34.597],[-56.466,-34.625],[-56.465,-34.652],[-56.463,-34.659],[-56.46,-34.664],[-56.455,-34.668],[-56.422,-34.683],[-56.387,-34.709],[-56.371,-34.724],[-56.364,-34.734],[-56.354,-34.77],[-56.354,-34.777],[-56.356,-34.785],[-56.359,-34.789],[-56.365,-34.794]]]}},{"type":"Feature","id":"UY-SO","properties":{"id":"UY-SO","countryCode":"UY","isoSubdivision":"UY-SO","name":"Soriano","name_en":"Soriano","name_ko":"소리아노","type":"Department","labelLongitude":-57.758,"labelLatitude":-33.482,"minZoom":8},"geometry":{"type":"Polygon","coordinates":[[[-58.416,-33.876],[-58.435,-33.785],[-58.439,-33.698],[-58.426,-33.613],[-58.429,-33.592],[-58.435,-33.572],[-58.438,-33.551],[-58.433,-33.528],[-58.42,-33.508],[-58.385,-33.47],[-58.379,-33.449],[-58.385,-33.429],[-58.392,-33.424],[-58.391,-33.424],[-58.296,-33.377],[-58.242,-33.318],[-58.224,-33.308],[-58.176,-33.308],[-58.147,-33.312],[-58.136,-33.308],[-58.131,-33.291],[-58.131,-33.253],[-58.128,-33.243],[-58.117,-33.234],[-58.084,-33.219],[-58.072,-33.225],[-58.055,-33.238],[-58.049,-33.239],[-58.039,-33.247],[-58.031,-33.238],[-58.027,-33.221],[-58.028,-33.205],[-58.031,-33.203],[-58.044,-33.193],[-58.05,-33.187],[-58.05,-33.18],[-58.049,-33.171],[-58.049,-33.164],[-58.06,-33.144],[-58.06,-33.137],[-58.049,-33.13],[-58.033,-33.126],[-58.019,-33.129],[-58.004,-33.134],[-57.987,-33.135],[-57.965,-33.131],[-57.961,-33.123],[-57.963,-33.11],[-57.959,-33.095],[-57.95,-33.087],[-57.92,-33.081],[-57.905,-33.075],[-57.891,-33.064],[-57.88,-33.053],[-57.869,-33.044],[-57.85,-33.04],[-57.833,-33.042],[-57.805,-33.056],[-57.789,-33.061],[-57.777,-33.061],[-57.756,-33.056],[-57.744,-33.054],[-57.733,-33.056],[-57.719,-33.066],[-57.689,-33.072],[-57.65,-33.085],[-57.631,-33.081],[-57.624,-33.074],[-57.614,-33.052],[-57.607,-33.047],[-57.574,-33.04],[-57.566,-33.037],[-57.547,-33.025],[-57.525,-33.021],[-57.503,-33.024],[-57.459,-33.044],[-57.45,-33.05],[-57.446,-33.058],[-57.446,-33.069],[-57.445,-33.081],[-57.44,-33.091],[-57.429,-33.095],[-57.417,-33.093],[-57.397,-33.08],[-57.385,-33.075],[-57.374,-33.075],[-57.363,-33.076],[-57.322,-33.088],[-57.305,-33.095],[-57.293,-33.108],[-57.282,-33.147],[-57.267,-33.143],[-57.25,-33.129],[-57.24,-33.116],[-57.234,-33.142],[-57.229,-33.153],[-57.217,-33.157],[-57.206,-33.156],[-57.161,-33.139],[-57.136,-33.126],[-57.127,-33.123],[-57.141,-33.155],[-57.147,-33.164],[-57.219,-33.24],[-57.232,-33.25],[-57.337,-33.355],[-57.348,-33.371],[-57.348,-33.38],[-57.347,-33.387],[-57.345,-33.392],[-57.342,-33.396],[-57.338,-33.4],[-57.312,-33.414],[-57.308,-33.417],[-57.304,-33.421],[-57.301,-33.425],[-57.298,-33.43],[-57.287,-33.473],[-57.285,-33.478],[-57.282,-33.482],[-57.266,-33.5],[-57.265,-33.503],[-57.262,-33.516],[-57.262,-33.528],[-57.261,-33.535],[-57.258,-33.541],[-57.255,-33.545],[-57.251,-33.549],[-57.247,-33.553],[-57.227,-33.576],[-57.218,-33.583],[-57.208,-33.589],[-57.202,-33.591],[-57.174,-33.597],[-57.169,-33.6],[-57.164,-33.604],[-57.16,-33.61],[-57.161,-33.616],[-57.162,-33.621],[-57.164,-33.626],[-57.167,-33.631],[-57.169,-33.636],[-57.171,-33.642],[-57.186,-33.74],[-57.186,-33.752],[-57.185,-33.756],[-57.184,-33.759],[-57.142,-33.819],[-57.13,-33.843],[-57.128,-33.848],[-57.126,-33.863],[-57.122,-33.875],[-57.119,-33.88],[-57.117,-33.887],[-57.112,-33.912],[-57.108,-33.923],[-57.106,-33.927],[-57.103,-33.932],[-57.086,-33.952],[-57.078,-33.963],[-57.182,-33.949],[-57.265,-33.949],[-57.293,-33.946],[-57.298,-33.944],[-57.317,-33.932],[-57.334,-33.918],[-57.353,-33.909],[-57.375,-33.9],[-57.393,-33.896],[-57.566,-33.935],[-57.626,-33.94],[-57.654,-33.938],[-57.791,-33.899],[-57.8,-33.893],[-57.805,-33.889],[-57.812,-33.882],[-57.81,-33.884],[-57.812,-33.882],[-57.814,-33.879],[-57.819,-33.875],[-57.827,-33.87],[-57.84,-33.864],[-57.85,-33.862],[-57.928,-33.86],[-57.958,-33.864],[-57.976,-33.865],[-57.986,-33.864],[-57.994,-33.862],[-57.999,-33.86],[-58.001,-33.858],[-58.005,-33.856],[-58.008,-33.852],[-58.014,-33.844],[-58.017,-33.839],[-58.02,-33.829],[-58.025,-33.82],[-58.028,-33.815],[-58.034,-33.809],[-58.04,-33.804],[-58.152,-33.78],[-58.17,-33.778],[-58.186,-33.782],[-58.279,-33.836],[-58.369,-33.867],[-58.383,-33.871],[-58.415,-33.876],[-58.416,-33.876]]]}},{"type":"Feature","id":"UY-TA","properties":{"id":"UY-TA","countryCode":"UY","isoSubdivision":"UY-TA","name":"Tacuarembó","name_en":"Tacuarembó","name_ko":"타쿠아렘보","type":"Department","labelLongitude":-55.661,"labelLatitude":-32.106,"minZoom":8},"geometry":{"type":"Polygon","coordinates":[[[-56.559,-32.492],[-56.506,-32.357],[-56.489,-32.335],[-56.46,-32.312],[-56.422,-32.289],[-56.389,-32.262],[-56.359,-32.232],[-56.351,-32.214],[-56.323,-32.103],[-56.318,-32.091],[-56.306,-32.074],[-56.301,-32.064],[-56.295,-32.043],[-56.29,-32],[-56.29,-31.993],[-56.29,-31.951],[-56.288,-31.94],[-56.285,-31.933],[-56.28,-31.93],[-56.275,-31.928],[-56.264,-31.925],[-56.256,-31.923],[-56.252,-31.922],[-56.248,-31.919],[-56.246,-31.914],[-56.245,-31.907],[-56.247,-31.901],[-56.251,-31.895],[-56.275,-31.869],[-56.277,-31.863],[-56.28,-31.855],[-56.281,-31.832],[-56.279,-31.81],[-56.28,-31.804],[-56.284,-31.794],[-56.289,-31.785],[-56.322,-31.751],[-56.32,-31.724],[-56.322,-31.71],[-56.325,-31.7],[-56.328,-31.689],[-56.331,-31.646],[-56.333,-31.635],[-56.337,-31.625],[-56.342,-31.616],[-56.349,-31.609],[-56.352,-31.604],[-56.354,-31.6],[-56.351,-31.589],[-56.321,-31.519],[-56.317,-31.512],[-56.284,-31.485],[-56.28,-31.48],[-56.263,-31.449],[-56.257,-31.443],[-56.25,-31.439],[-56.232,-31.433],[-56.226,-31.431],[-56.22,-31.427],[-56.214,-31.421],[-56.204,-31.409],[-56.192,-31.398],[-56.187,-31.395],[-56.183,-31.388],[-56.18,-31.379],[-56.173,-31.341],[-56.164,-31.323],[-56.158,-31.305],[-56.134,-31.273],[-56.121,-31.263],[-56.105,-31.257],[-56.098,-31.256],[-56.079,-31.256],[-56.064,-31.259],[-56.059,-31.262],[-55.977,-31.318],[-55.929,-31.341],[-55.857,-31.367],[-55.84,-31.378],[-55.835,-31.383],[-55.831,-31.387],[-55.821,-31.405],[-55.816,-31.415],[-55.815,-31.42],[-55.814,-31.433],[-55.816,-31.452],[-55.815,-31.457],[-55.8,-31.496],[-55.798,-31.5],[-55.797,-31.5],[-55.794,-31.507],[-55.791,-31.511],[-55.787,-31.515],[-55.753,-31.542],[-55.746,-31.546],[-55.739,-31.549],[-55.706,-31.558],[-55.687,-31.566],[-55.678,-31.571],[-55.671,-31.575],[-55.666,-31.584],[-55.661,-31.594],[-55.652,-31.626],[-55.648,-31.636],[-55.647,-31.641],[-55.647,-31.647],[-55.648,-31.653],[-55.656,-31.675],[-55.66,-31.686],[-55.661,-31.699],[-55.661,-31.706],[-55.659,-31.711],[-55.657,-31.716],[-55.651,-31.724],[-55.649,-31.729],[-55.648,-31.734],[-55.65,-31.752],[-55.649,-31.758],[-55.645,-31.767],[-55.636,-31.782],[-55.625,-31.796],[-55.617,-31.802],[-55.61,-31.805],[-55.603,-31.806],[-55.596,-31.806],[-55.589,-31.805],[-55.573,-31.799],[-55.566,-31.798],[-55.559,-31.798],[-55.532,-31.804],[-55.504,-31.806],[-55.416,-31.801],[-55.391,-31.796],[-55.377,-31.795],[-55.348,-31.798],[-55.25,-31.819],[-55.188,-31.823],[-55.147,-31.819],[-55.116,-31.82],[-55.1,-31.823],[-55.062,-31.838],[-55.042,-31.843],[-54.965,-31.849],[-54.953,-31.851],[-54.91,-31.865],[-54.887,-31.875],[-54.883,-31.878],[-54.879,-31.882],[-54.859,-31.906],[-54.855,-31.909],[-54.828,-31.928],[-54.813,-31.942],[-54.796,-31.969],[-54.754,-32.009],[-54.738,-32.029],[-54.701,-32.06],[-54.688,-32.077],[-54.676,-32.1],[-54.669,-32.109],[-54.655,-32.123],[-54.676,-32.128],[-54.691,-32.129],[-54.731,-32.109],[-54.756,-32.102],[-54.767,-32.112],[-54.77,-32.135],[-54.778,-32.149],[-54.801,-32.171],[-54.809,-32.186],[-54.813,-32.196],[-54.814,-32.205],[-54.811,-32.216],[-54.804,-32.227],[-54.8,-32.238],[-54.804,-32.249],[-54.818,-32.269],[-54.84,-32.31],[-54.856,-32.329],[-54.866,-32.335],[-54.887,-32.343],[-54.897,-32.349],[-54.906,-32.359],[-54.913,-32.371],[-54.921,-32.38],[-54.957,-32.389],[-54.972,-32.402],[-54.993,-32.431],[-55.014,-32.451],[-55.04,-32.469],[-55.071,-32.481],[-55.106,-32.485],[-55.14,-32.479],[-55.205,-32.457],[-55.24,-32.459],[-55.328,-32.494],[-55.359,-32.499],[-55.367,-32.497],[-55.372,-32.494],[-55.376,-32.489],[-55.411,-32.472],[-55.418,-32.471],[-55.424,-32.472],[-55.43,-32.471],[-55.438,-32.465],[-55.442,-32.46],[-55.444,-32.454],[-55.445,-32.438],[-55.454,-32.432],[-55.471,-32.427],[-55.487,-32.434],[-55.496,-32.445],[-55.498,-32.459],[-55.504,-32.473],[-55.508,-32.49],[-55.521,-32.503],[-55.542,-32.509],[-55.564,-32.511],[-55.59,-32.508],[-55.613,-32.503],[-55.634,-32.495],[-55.65,-32.497],[-55.663,-32.511],[-55.676,-32.54],[-55.692,-32.546],[-55.711,-32.548],[-55.727,-32.538],[-55.748,-32.522],[-55.768,-32.52],[-55.78,-32.526],[-55.782,-32.538],[-55.774,-32.556],[-55.773,-32.57],[-55.783,-32.579],[-55.788,-32.591],[-55.793,-32.608],[-55.809,-32.621],[-55.83,-32.634],[-55.857,-32.626],[-55.882,-32.603],[-55.903,-32.604],[-55.927,-32.615],[-55.944,-32.631],[-55.958,-32.65],[-55.986,-32.673],[-56.014,-32.7],[-56.049,-32.705],[-56.084,-32.707],[-56.126,-32.72],[-56.169,-32.726],[-56.183,-32.746],[-56.201,-32.768],[-56.219,-32.794],[-56.225,-32.823],[-56.257,-32.825],[-56.295,-32.823],[-56.329,-32.817],[-56.362,-32.815],[-56.389,-32.833],[-56.396,-32.843],[-56.407,-32.861],[-56.428,-32.859],[-56.45,-32.841],[-56.471,-32.831],[-56.496,-32.829],[-56.522,-32.832],[-56.539,-32.832],[-56.559,-32.832],[-56.583,-32.836],[-56.6,-32.842],[-56.619,-32.854],[-56.637,-32.858],[-56.667,-32.843],[-56.658,-32.813],[-56.641,-32.784],[-56.631,-32.75],[-56.633,-32.73],[-56.633,-32.718],[-56.629,-32.699],[-56.62,-32.684],[-56.6,-32.664],[-56.595,-32.65],[-56.564,-32.538],[-56.559,-32.492]]]}},{"type":"Feature","id":"UY-TT","properties":{"id":"UY-TT","countryCode":"UY","isoSubdivision":"UY-TT","name":"Treinta y Tres","name_en":"Treinta y Tres","name_ko":"트레인타이트레스","type":"Department","labelLongitude":-54.166,"labelLatitude":-33.102,"minZoom":8},"geometry":{"type":"Polygon","coordinates":[[[-53.183,-32.8],[-53.204,-32.822],[-53.271,-32.864],[-53.299,-32.889],[-53.307,-32.907],[-53.31,-32.944],[-53.316,-32.963],[-53.327,-32.974],[-53.449,-33.042],[-53.483,-33.067],[-53.512,-33.099],[-53.521,-33.125],[-53.616,-33.144],[-53.689,-33.17],[-53.769,-33.189],[-53.774,-33.193],[-53.785,-33.204],[-53.789,-33.216],[-53.792,-33.227],[-53.798,-33.238],[-53.808,-33.247],[-53.832,-33.256],[-53.846,-33.263],[-53.864,-33.279],[-53.895,-33.316],[-53.919,-33.329],[-53.953,-33.337],[-53.963,-33.346],[-53.989,-33.39],[-54.009,-33.41],[-54.033,-33.426],[-54.057,-33.439],[-54.11,-33.45],[-54.121,-33.459],[-54.126,-33.465],[-54.15,-33.455],[-54.177,-33.441],[-54.213,-33.429],[-54.234,-33.419],[-54.243,-33.412],[-54.258,-33.398],[-54.273,-33.377],[-54.283,-33.358],[-54.287,-33.354],[-54.291,-33.351],[-54.297,-33.349],[-54.306,-33.348],[-54.318,-33.348],[-54.347,-33.354],[-54.355,-33.357],[-54.387,-33.379],[-54.392,-33.381],[-54.404,-33.385],[-54.409,-33.388],[-54.414,-33.391],[-54.417,-33.395],[-54.419,-33.4],[-54.422,-33.412],[-54.427,-33.421],[-54.431,-33.425],[-54.434,-33.429],[-54.439,-33.432],[-54.444,-33.435],[-54.484,-33.449],[-54.493,-33.449],[-54.504,-33.448],[-54.572,-33.43],[-54.578,-33.428],[-54.591,-33.418],[-54.597,-33.416],[-54.603,-33.414],[-54.685,-33.403],[-54.715,-33.396],[-54.749,-33.377],[-54.777,-33.352],[-54.782,-33.348],[-54.79,-33.346],[-54.803,-33.343],[-54.818,-33.338],[-54.826,-33.337],[-54.836,-33.338],[-54.861,-33.346],[-54.906,-33.365],[-54.914,-33.367],[-54.924,-33.367],[-54.941,-33.365],[-54.95,-33.362],[-54.957,-33.358],[-54.961,-33.355],[-54.967,-33.353],[-54.986,-33.348],[-54.996,-33.343],[-54.999,-33.342],[-55.004,-33.343],[-55.056,-33.35],[-55.076,-33.357],[-55.125,-33.382],[-55.145,-33.361],[-55.147,-33.354],[-55.148,-33.344],[-55.147,-33.337],[-55.144,-33.332],[-55.14,-33.328],[-55.136,-33.324],[-55.122,-33.316],[-55.115,-33.309],[-55.108,-33.299],[-55.096,-33.275],[-55.093,-33.262],[-55.091,-33.252],[-55.101,-33.207],[-55.102,-33.173],[-55.111,-33.118],[-55.103,-33.097],[-55.095,-33.088],[-55.039,-33.058],[-55.03,-33.051],[-55.023,-33.045],[-55.019,-33.041],[-55.01,-33.025],[-55.01,-33.007],[-55.011,-33],[-55.026,-32.979],[-55.028,-32.97],[-55.027,-32.963],[-55.024,-32.957],[-55.019,-32.95],[-55.012,-32.944],[-55.007,-32.94],[-54.985,-32.929],[-54.979,-32.925],[-54.971,-32.918],[-54.959,-32.911],[-54.925,-32.899],[-54.92,-32.897],[-54.911,-32.89],[-54.896,-32.876],[-54.878,-32.863],[-54.82,-32.838],[-54.807,-32.835],[-54.779,-32.833],[-54.746,-32.833],[-54.731,-32.83],[-54.684,-32.814],[-54.675,-32.813],[-54.662,-32.813],[-54.648,-32.816],[-54.63,-32.822],[-54.622,-32.823],[-54.612,-32.824],[-54.597,-32.821],[-54.589,-32.818],[-54.583,-32.814],[-54.576,-32.806],[-54.569,-32.796],[-54.564,-32.79],[-54.558,-32.788],[-54.552,-32.788],[-54.545,-32.789],[-54.536,-32.79],[-54.521,-32.788],[-54.514,-32.785],[-54.509,-32.781],[-54.506,-32.776],[-54.501,-32.763],[-54.495,-32.755],[-54.489,-32.752],[-54.481,-32.751],[-54.467,-32.753],[-54.411,-32.75],[-54.391,-32.744],[-54.341,-32.721],[-54.326,-32.716],[-54.316,-32.715],[-54.311,-32.718],[-54.303,-32.724],[-54.298,-32.727],[-54.293,-32.73],[-54.286,-32.731],[-54.248,-32.736],[-54.228,-32.741],[-54.2,-32.744],[-54.194,-32.746],[-54.185,-32.752],[-54.179,-32.755],[-54.173,-32.756],[-54.166,-32.757],[-54.158,-32.758],[-54.137,-32.756],[-54.13,-32.756],[-54.124,-32.758],[-54.119,-32.76],[-54.064,-32.791],[-54.06,-32.795],[-54.053,-32.797],[-54.045,-32.799],[-54.031,-32.798],[-54.026,-32.794],[-54.023,-32.789],[-54.025,-32.784],[-54.027,-32.779],[-54.033,-32.77],[-54.035,-32.766],[-54.037,-32.761],[-54.036,-32.756],[-54.033,-32.751],[-54.029,-32.748],[-54.008,-32.731],[-54.001,-32.725],[-53.996,-32.721],[-53.968,-32.708],[-53.957,-32.705],[-53.948,-32.705],[-53.942,-32.707],[-53.931,-32.712],[-53.868,-32.756],[-53.858,-32.761],[-53.852,-32.764],[-53.844,-32.765],[-53.834,-32.766],[-53.667,-32.755],[-53.631,-32.76],[-53.607,-32.761],[-53.5,-32.75],[-53.495,-32.751],[-53.49,-32.753],[-53.486,-32.756],[-53.482,-32.76],[-53.475,-32.768],[-53.468,-32.77],[-53.458,-32.772],[-53.439,-32.771],[-53.428,-32.771],[-53.421,-32.773],[-53.407,-32.783],[-53.401,-32.786],[-53.393,-32.788],[-53.38,-32.789],[-53.371,-32.789],[-53.363,-32.787],[-53.347,-32.778],[-53.337,-32.777],[-53.329,-32.776],[-53.304,-32.779],[-53.183,-32.8]]]}}]}
