{"type":"FeatureCollection","features":[{"type":"Feature","id":"UZ-AN","properties":{"id":"UZ-AN","countryCode":"UZ","isoSubdivision":"UZ-AN","name":"Andijan","name_en":"Andijan","name_ko":"안디잔","type":"Region","labelLongitude":72.365,"labelLatitude":40.449,"minZoom":6.6},"geometry":{"type":"Polygon","coordinates":[[[72.332,41.073],[72.346,41.066],[72.374,41.032],[72.395,41.022],[72.424,41.016],[72.477,41.012],[72.482,41.009],[72.485,41.005],[72.485,41],[72.484,40.994],[72.483,40.971],[72.501,40.963],[72.526,40.962],[72.546,40.957],[72.588,40.906],[72.619,40.88],[72.658,40.867],[72.701,40.863],[72.83,40.872],[72.869,40.864],[72.873,40.835],[72.87,40.818],[72.883,40.82],[72.929,40.844],[73.003,40.87],[73.019,40.862],[73.033,40.847],[73.054,40.836],[73.112,40.839],[73.135,40.835],[73.143,40.834],[73.149,40.814],[73.118,40.783],[73.071,40.762],[72.977,40.736],[72.891,40.695],[72.819,40.681],[72.784,40.67],[72.76,40.642],[72.748,40.575],[72.719,40.565],[72.682,40.578],[72.664,40.578],[72.656,40.561],[72.655,40.546],[72.65,40.532],[72.641,40.52],[72.625,40.511],[72.586,40.509],[72.515,40.546],[72.477,40.55],[72.448,40.56],[72.415,40.59],[72.382,40.612],[72.352,40.602],[72.349,40.586],[72.348,40.585],[72.37,40.558],[72.37,40.54],[72.363,40.524],[72.363,40.512],[72.372,40.503],[72.416,40.479],[72.42,40.471],[72.426,40.46],[72.426,40.459],[72.425,40.436],[72.414,40.411],[72.394,40.389],[72.37,40.386],[72.343,40.393],[72.284,40.42],[72.27,40.424],[72.224,40.422],[72.212,40.426],[72.217,40.435],[72.228,40.438],[72.245,40.439],[72.26,40.442],[72.264,40.453],[72.263,40.453],[72.254,40.458],[72.236,40.46],[72.228,40.46],[72.227,40.465],[72.218,40.488],[72.216,40.501],[72.219,40.519],[72.222,40.538],[72.223,40.55],[72.223,40.555],[72.222,40.56],[72.208,40.57],[72.156,40.582],[72.144,40.583],[72.137,40.587],[72.118,40.609],[72.103,40.617],[72.094,40.61],[72.083,40.6],[72.066,40.598],[72.005,40.608],[71.959,40.62],[71.93,40.619],[71.91,40.616],[71.886,40.619],[71.877,40.621],[71.869,40.624],[71.829,40.666],[71.82,40.678],[71.811,40.685],[71.8,40.69],[71.748,40.704],[71.732,40.705],[71.721,40.703],[71.716,40.701],[71.706,40.702],[71.693,40.705],[71.666,40.716],[71.655,40.716],[71.649,40.713],[71.648,40.695],[71.643,40.697],[71.633,40.708],[71.612,40.74],[71.582,40.774],[71.611,40.796],[71.595,40.821],[71.583,40.833],[71.582,40.84],[71.586,40.846],[71.619,40.868],[71.631,40.875],[71.644,40.89],[71.748,40.911],[71.781,40.898],[71.823,40.913],[71.834,40.916],[71.856,40.916],[71.88,40.915],[71.908,40.917],[72.039,40.893],[72.056,40.891],[72.073,40.894],[72.133,40.895],[72.148,40.898],[72.154,40.9],[72.158,40.901],[72.166,40.907],[72.19,40.99],[72.195,41.006],[72.253,41.02],[72.29,41.024],[72.297,41.028],[72.309,41.054],[72.314,41.062],[72.332,41.073]]]}},{"type":"Feature","id":"UZ-BU","properties":{"id":"UZ-BU","countryCode":"UZ","isoSubdivision":"UZ-BU","name":"Bukhara","name_en":"Bukhara","name_ko":"부하라","type":"Region","labelLongitude":63.773,"labelLatitude":39.946,"minZoom":6.6},"geometry":{"type":"Polygon","coordinates":[[[64.18,38.945],[64.151,38.949],[64.121,38.962],[63.96,39.051],[63.82,39.129],[63.709,39.191],[63.648,39.24],[63.541,39.356],[63.478,39.403],[63.339,39.479],[63.009,39.661],[62.846,39.751],[62.71,39.826],[62.593,39.89],[62.535,39.935],[62.525,39.94],[62.453,40.009],[62.442,40.036],[62.424,40.092],[62.422,40.115],[62.426,40.137],[62.434,40.155],[62.44,40.173],[62.436,40.194],[62.405,40.245],[62.401,40.266],[62.4,40.292],[62.397,40.312],[62.388,40.33],[62.363,40.37],[62.356,40.388],[62.353,40.43],[62.344,40.439],[62.261,40.476],[62.213,40.487],[62.192,40.499],[62.187,40.506],[62.396,40.703],[62.447,40.788],[62.435,40.822],[62.403,40.86],[62.239,40.999],[62.465,41.081],[62.465,41.095],[62.18,41.392],[62.535,41.493],[62.619,41.492],[62.651,41.437],[62.676,41.404],[62.844,41.255],[62.979,41.075],[63.002,41.064],[63.091,41.049],[63.222,41.01],[63.376,40.945],[63.677,40.804],[63.7,40.774],[63.737,40.746],[63.735,40.726],[63.854,40.758],[63.926,40.839],[63.985,40.933],[64.003,40.952],[64.023,40.965],[64.043,40.97],[64.062,40.966],[64.081,40.954],[64.102,40.93],[64.107,40.896],[64.109,40.831],[64.122,40.809],[64.165,40.797],[64.435,40.773],[64.458,40.789],[64.488,40.878],[64.507,40.886],[64.541,40.896],[64.674,40.9],[64.717,40.907],[64.749,40.918],[64.781,40.952],[64.793,40.951],[64.802,40.927],[64.823,40.826],[64.832,40.8],[64.847,40.77],[64.881,40.749],[64.916,40.733],[65.014,40.715],[65.317,40.699],[65.365,40.71],[65.342,40.648],[65.337,40.622],[65.335,40.596],[65.335,40.571],[65.337,40.551],[65.341,40.539],[65.34,40.528],[65.327,40.528],[65.275,40.536],[65.265,40.537],[65.255,40.535],[65.248,40.53],[65.236,40.517],[65.234,40.504],[65.208,40.441],[65.186,40.421],[65.167,40.408],[65.145,40.353],[65.134,40.336],[65.016,40.337],[64.994,40.343],[64.972,40.354],[64.952,40.367],[64.933,40.371],[64.91,40.371],[64.875,40.367],[64.859,40.36],[64.85,40.351],[64.847,40.342],[64.845,40.332],[64.845,40.324],[64.85,40.304],[64.875,40.285],[64.859,40.247],[64.85,40.241],[64.845,40.239],[64.844,40.237],[64.846,40.233],[64.857,40.219],[64.886,40.196],[64.902,40.181],[64.906,40.175],[64.905,40.171],[64.875,40.168],[64.868,40.167],[64.862,40.164],[64.854,40.159],[64.845,40.159],[64.83,40.15],[64.783,40.075],[64.769,40.061],[64.751,40.047],[64.733,40.038],[64.672,40.016],[64.664,40.003],[64.656,39.997],[64.653,39.993],[64.62,39.961],[64.604,39.933],[64.59,39.908],[64.606,39.883],[64.678,39.806],[64.706,39.791],[64.753,39.771],[64.754,39.765],[64.759,39.756],[64.763,39.748],[64.777,39.742],[64.796,39.741],[64.84,39.757],[64.855,39.754],[64.864,39.743],[64.983,39.7],[65.002,39.676],[65.01,39.654],[65.01,39.638],[65.013,39.616],[65.021,39.595],[65.041,39.586],[65.065,39.58],[65.08,39.573],[65.097,39.559],[65.113,39.542],[65.117,39.537],[65.124,39.526],[65.134,39.499],[65.135,39.492],[65.138,39.464],[65.091,39.437],[64.99,39.359],[64.978,39.351],[64.966,39.348],[64.957,39.349],[64.945,39.348],[64.937,39.345],[64.931,39.341],[64.855,39.277],[64.845,39.267],[64.839,39.258],[64.838,39.253],[64.838,39.247],[64.839,39.243],[64.841,39.238],[64.846,39.229],[64.853,39.222],[64.885,39.191],[64.888,39.187],[64.891,39.182],[64.892,39.176],[64.889,39.168],[64.885,39.164],[64.879,39.161],[64.713,39.114],[64.659,39.099],[64.521,39.056],[64.474,39.031],[64.383,38.953],[64.368,38.94],[64.337,38.971],[64.314,38.982],[64.283,38.98],[64.206,38.949],[64.18,38.945]]]}},{"type":"Feature","id":"UZ-FA","properties":{"id":"UZ-FA","countryCode":"UZ","isoSubdivision":"UZ-FA","name":"Fergana","name_en":"Fergana","name_ko":"페르가나","type":"Region","labelLongitude":71.728,"labelLatitude":39.935,"minZoom":6.6},"geometry":{"type":"MultiPolygon","coordinates":[[[[71.786,39.99],[71.79,39.979],[71.767,39.915],[71.757,39.903],[71.742,39.901],[71.716,39.907],[71.697,39.914],[71.675,39.926],[71.666,39.94],[71.682,39.955],[71.707,39.956],[71.724,39.963],[71.761,39.984],[71.786,39.99]]],[[[72.013,40.262],[72.02,40.259],[72.025,40.251],[72.019,40.24],[72.005,40.237],[71.989,40.239],[71.977,40.243],[71.969,40.244],[71.963,40.244],[71.952,40.241],[71.912,40.243],[71.873,40.251],[71.836,40.249],[71.805,40.225],[71.787,40.194],[71.776,40.18],[71.76,40.168],[71.707,40.144],[71.693,40.141],[71.673,40.148],[71.667,40.163],[71.667,40.204],[71.66,40.224],[71.646,40.247],[71.628,40.259],[71.61,40.246],[71.604,40.227],[71.602,40.21],[71.593,40.198],[71.568,40.197],[71.521,40.204],[71.498,40.211],[71.477,40.221],[71.459,40.234],[71.451,40.249],[71.441,40.261],[71.397,40.272],[71.365,40.294],[71.345,40.295],[71.314,40.293],[71.297,40.294],[71.283,40.298],[71.273,40.308],[71.264,40.318],[71.254,40.324],[71.24,40.321],[71.224,40.303],[71.215,40.281],[71.201,40.264],[71.169,40.261],[71.053,40.274],[70.995,40.267],[70.959,40.238],[70.938,40.24],[70.85,40.234],[70.707,40.2],[70.664,40.197],[70.622,40.2],[70.582,40.222],[70.564,40.264],[70.551,40.31],[70.524,40.344],[70.502,40.351],[70.483,40.349],[70.464,40.345],[70.442,40.343],[70.421,40.348],[70.371,40.365],[70.385,40.4],[70.382,40.404],[70.374,40.412],[70.371,40.413],[70.372,40.413],[70.359,40.428],[70.357,40.43],[70.355,40.435],[70.354,40.456],[70.37,40.476],[70.399,40.49],[70.468,40.502],[70.478,40.505],[70.488,40.516],[70.512,40.547],[70.525,40.557],[70.539,40.562],[70.554,40.565],[70.569,40.57],[70.582,40.579],[70.617,40.612],[70.678,40.65],[70.693,40.66],[70.707,40.669],[70.716,40.672],[70.732,40.675],[70.736,40.679],[70.737,40.684],[70.741,40.688],[70.756,40.695],[70.756,40.696],[70.782,40.708],[70.793,40.717],[70.802,40.727],[70.813,40.736],[70.83,40.743],[70.843,40.743],[70.871,40.741],[70.884,40.743],[70.931,40.775],[70.952,40.775],[70.967,40.77],[70.975,40.765],[70.982,40.761],[71.014,40.758],[71.127,40.762],[71.063,40.696],[71.069,40.692],[71.108,40.689],[71.115,40.686],[71.144,40.663],[71.151,40.66],[71.162,40.658],[71.18,40.655],[71.191,40.652],[71.211,40.639],[71.257,40.62],[71.271,40.617],[71.294,40.62],[71.359,40.667],[71.391,40.704],[71.41,40.717],[71.499,40.753],[71.582,40.774],[71.612,40.74],[71.633,40.708],[71.643,40.697],[71.648,40.695],[71.649,40.713],[71.655,40.716],[71.666,40.716],[71.693,40.705],[71.706,40.702],[71.716,40.701],[71.721,40.703],[71.732,40.705],[71.748,40.704],[71.8,40.69],[71.811,40.685],[71.82,40.678],[71.829,40.666],[71.869,40.624],[71.877,40.621],[71.886,40.619],[71.91,40.616],[71.93,40.619],[71.959,40.62],[72.005,40.608],[72.066,40.598],[72.083,40.6],[72.094,40.61],[72.103,40.617],[72.118,40.609],[72.137,40.587],[72.144,40.583],[72.156,40.582],[72.208,40.57],[72.222,40.56],[72.223,40.555],[72.223,40.55],[72.222,40.538],[72.219,40.519],[72.216,40.501],[72.218,40.488],[72.227,40.465],[72.228,40.46],[72.183,40.458],[72.166,40.454],[72.099,40.426],[72.09,40.416],[72.084,40.397],[72.07,40.369],[72.043,40.349],[71.957,40.316],[71.951,40.302],[71.958,40.287],[71.977,40.276],[72.006,40.266],[72.013,40.262]]],[[[71.009,40.158],[71.031,40.147],[71.048,40.123],[71.062,40.095],[71.079,40.079],[71.106,40.065],[71.162,40.047],[71.165,40.045],[71.169,40.043],[71.177,40.042],[71.182,40.043],[71.193,40.05],[71.198,40.053],[71.224,40.058],[71.236,40.056],[71.244,40.047],[71.237,40.031],[71.191,40.006],[71.175,39.994],[71.177,39.968],[71.221,39.932],[71.219,39.901],[71.208,39.889],[71.195,39.885],[71.161,39.884],[71.114,39.874],[71.099,39.876],[71.087,39.884],[71.085,39.895],[71.08,39.903],[71.061,39.904],[71.05,39.898],[71.036,39.888],[71.022,39.881],[71.009,39.886],[71.008,39.911],[71.05,39.963],[71.046,39.992],[71.034,39.999],[71.008,40.004],[70.995,40.009],[70.983,40.021],[70.958,40.063],[70.953,40.079],[70.954,40.096],[70.96,40.113],[70.977,40.145],[71.009,40.158]]]]}},{"type":"Feature","id":"UZ-JI","properties":{"id":"UZ-JI","countryCode":"UZ","isoSubdivision":"UZ-JI","name":"Jizzakh","name_en":"Jizzakh","name_ko":"지자흐","type":"Region","labelLongitude":67.656,"labelLatitude":40.391,"minZoom":6.6},"geometry":{"type":"Polygon","coordinates":[[[68.643,40.184],[68.602,40.175],[68.581,40.164],[68.607,40.142],[68.652,40.121],[68.687,40.11],[68.697,40.112],[68.654,40.068],[68.638,40.047],[68.634,40.036],[68.633,40.028],[68.634,40.022],[68.635,40.016],[68.639,40.007],[68.642,40.001],[68.643,40],[68.645,39.997],[68.653,39.979],[68.656,39.969],[68.658,39.964],[68.658,39.954],[68.655,39.921],[68.652,39.916],[68.648,39.915],[68.645,39.919],[68.641,39.923],[68.636,39.926],[68.629,39.926],[68.621,39.923],[68.62,39.919],[68.623,39.915],[68.627,39.911],[68.645,39.902],[68.65,39.899],[68.653,39.895],[68.652,39.89],[68.648,39.883],[68.643,39.874],[68.643,39.858],[68.64,39.848],[68.638,39.849],[68.626,39.85],[68.616,39.828],[68.606,39.667],[68.6,39.643],[68.587,39.623],[68.563,39.604],[68.52,39.583],[68.507,39.568],[68.51,39.561],[68.517,39.549],[68.517,39.548],[68.498,39.541],[68.436,39.529],[68.387,39.525],[68.338,39.528],[68.256,39.551],[68.106,39.554],[67.765,39.623],[67.718,39.623],[67.68,39.614],[67.587,39.563],[67.507,39.553],[67.488,39.538],[67.495,39.494],[67.491,39.49],[67.487,39.487],[67.482,39.485],[67.477,39.484],[67.452,39.487],[67.436,39.486],[67.361,39.538],[67.319,39.566],[67.305,39.579],[67.295,39.596],[67.297,39.665],[67.3,39.673],[67.306,39.682],[67.32,39.685],[67.35,39.685],[67.358,39.686],[67.367,39.689],[67.372,39.694],[67.374,39.7],[67.375,39.712],[67.374,39.717],[67.372,39.728],[67.37,39.733],[67.369,39.74],[67.368,39.748],[67.369,39.763],[67.372,39.77],[67.373,39.774],[67.382,39.78],[67.397,39.789],[67.428,39.802],[67.45,39.808],[67.477,39.813],[67.484,39.813],[67.5,39.816],[67.504,39.824],[67.477,39.917],[67.46,39.938],[67.287,39.963],[67.263,39.965],[67.253,39.963],[67.244,39.964],[67.237,39.966],[67.221,39.974],[67.214,39.974],[67.207,39.972],[67.191,39.972],[67.18,39.973],[67.101,39.99],[67.089,40.005],[67.084,40.004],[67.08,40.003],[67.066,39.999],[67.032,40.029],[67.03,40.034],[67.03,40.042],[67.033,40.049],[67.032,40.062],[67.027,40.069],[67.02,40.073],[67.012,40.073],[67.006,40.073],[67.001,40.072],[66.982,40.065],[66.976,40.063],[66.968,40.062],[66.959,40.063],[66.948,40.065],[66.943,40.069],[66.94,40.074],[66.935,40.119],[66.936,40.125],[66.939,40.129],[66.944,40.132],[66.963,40.136],[66.968,40.14],[66.971,40.143],[66.975,40.152],[66.976,40.175],[66.949,40.201],[66.945,40.209],[66.946,40.216],[66.948,40.222],[66.949,40.229],[66.946,40.233],[66.941,40.237],[66.92,40.244],[66.912,40.249],[66.909,40.254],[66.907,40.259],[66.892,40.311],[66.89,40.328],[66.888,40.375],[66.889,40.381],[66.89,40.388],[66.892,40.394],[66.901,40.409],[66.906,40.423],[66.907,40.437],[66.905,40.447],[66.901,40.456],[66.894,40.469],[66.888,40.475],[66.883,40.478],[66.877,40.478],[66.851,40.473],[66.828,40.473],[66.812,40.474],[66.796,40.478],[66.754,40.487],[66.628,40.491],[66.62,40.495],[66.773,40.722],[66.801,40.775],[66.779,40.805],[66.77,40.822],[66.769,40.827],[66.769,40.844],[66.771,40.862],[66.771,40.872],[66.771,40.879],[66.769,40.883],[66.765,40.887],[66.76,40.891],[66.669,40.909],[66.656,40.915],[66.65,40.918],[66.641,40.926],[66.635,40.935],[66.633,40.939],[66.631,40.945],[66.614,41.084],[66.627,41.097],[66.635,41.112],[66.758,41.15],[66.758,41.153],[66.774,41.15],[66.815,41.142],[66.931,41.147],[67.029,41.151],[67.175,41.158],[67.282,41.163],[67.409,41.169],[67.491,41.172],[67.62,41.178],[67.748,41.184],[67.76,41.182],[67.771,41.179],[67.792,41.171],[67.813,41.163],[67.824,41.16],[67.835,41.157],[67.845,41.158],[67.854,41.159],[67.883,41.173],[67.912,41.188],[67.925,41.194],[67.937,41.2],[67.944,41.186],[67.949,41.172],[67.951,41.171],[67.952,41.171],[67.955,41.165],[67.959,41.159],[67.981,41.137],[68.003,41.116],[68.008,41.107],[68.013,41.098],[68.017,41.079],[68.021,41.059],[68.028,41.051],[68.034,41.043],[68.04,41.046],[68.046,41.05],[68.053,41.053],[68.059,41.055],[68.065,41.054],[68.071,41.053],[68.077,41.048],[68.082,41.043],[68.089,41.054],[68.096,41.065],[68.107,41.066],[68.117,41.067],[68.119,41.056],[68.121,41.046],[68.121,41.044],[68.121,41.043],[68.12,41.039],[68.119,41.034],[68.124,41.033],[68.128,41.032],[68.13,41.031],[68.131,41.03],[68.12,41.023],[68.108,41.017],[68.104,41.015],[68.1,41.014],[68.104,41.012],[68.108,41.01],[68.11,41.008],[68.113,41.006],[68.117,41],[68.121,40.994],[68.121,40.98],[68.121,40.965],[68.116,40.949],[68.111,40.932],[68.103,40.915],[68.096,40.899],[68.088,40.886],[68.081,40.873],[68.075,40.866],[68.07,40.86],[68.062,40.854],[68.055,40.847],[68.047,40.842],[68.038,40.837],[68.021,40.831],[68.003,40.825],[67.999,40.822],[67.994,40.819],[67.993,40.815],[67.991,40.811],[67.994,40.809],[67.997,40.808],[68.017,40.804],[68.037,40.801],[68.052,40.795],[68.068,40.788],[68.113,40.754],[68.159,40.719],[68.192,40.699],[68.226,40.679],[68.266,40.663],[68.264,40.622],[68.251,40.612],[68.196,40.605],[68.183,40.602],[68.177,40.6],[68.173,40.597],[68.17,40.592],[68.169,40.568],[68.162,40.531],[68.165,40.526],[68.17,40.522],[68.187,40.524],[68.205,40.528],[68.214,40.529],[68.217,40.516],[68.099,40.309],[68.095,40.296],[68.092,40.28],[68.096,40.252],[68.1,40.244],[68.106,40.237],[68.11,40.233],[68.137,40.229],[68.364,40.226],[68.664,40.282],[68.668,40.282],[68.67,40.28],[68.664,40.273],[68.66,40.268],[68.655,40.263],[68.651,40.256],[68.638,40.218],[68.633,40.21],[68.63,40.202],[68.642,40.184],[68.643,40.184]]]}},{"type":"Feature","id":"UZ-NG","properties":{"id":"UZ-NG","countryCode":"UZ","isoSubdivision":"UZ-NG","name":"Namangan","name_en":"Namangan","name_ko":"나망간","type":"Region","labelLongitude":71.296,"labelLatitude":40.875,"minZoom":6.6},"geometry":{"type":"Polygon","coordinates":[[[70.471,41.405],[70.477,41.405],[70.511,41.414],[70.634,41.467],[70.668,41.471],[70.687,41.462],[70.704,41.445],[70.76,41.373],[70.769,41.352],[70.771,41.331],[70.756,41.27],[70.758,41.252],[70.77,41.239],[70.787,41.24],[70.806,41.247],[70.829,41.249],[70.848,41.243],[70.866,41.233],[70.882,41.22],[70.896,41.206],[70.914,41.193],[70.934,41.191],[70.977,41.196],[71.025,41.19],[71.047,41.182],[71.068,41.17],[71.086,41.162],[71.123,41.158],[71.139,41.148],[71.164,41.116],[71.18,41.108],[71.19,41.127],[71.188,41.148],[71.183,41.166],[71.186,41.18],[71.206,41.189],[71.23,41.187],[71.242,41.175],[71.254,41.137],[71.263,41.123],[71.276,41.113],[71.289,41.114],[71.3,41.133],[71.325,41.157],[71.394,41.113],[71.416,41.127],[71.421,41.162],[71.413,41.335],[71.419,41.347],[71.432,41.345],[71.481,41.311],[71.524,41.297],[71.558,41.302],[71.586,41.324],[71.619,41.378],[71.633,41.411],[71.637,41.431],[71.634,41.45],[71.606,41.477],[71.596,41.493],[71.596,41.494],[71.595,41.494],[71.615,41.532],[71.627,41.543],[71.65,41.55],[71.671,41.547],[71.684,41.534],[71.689,41.515],[71.69,41.494],[71.671,41.438],[71.672,41.425],[71.681,41.423],[71.687,41.431],[71.691,41.442],[71.696,41.447],[71.707,41.444],[71.712,41.428],[71.722,41.425],[71.73,41.43],[71.73,41.451],[71.737,41.455],[71.745,41.453],[71.753,41.447],[71.847,41.342],[71.863,41.312],[71.869,41.279],[71.866,41.237],[71.872,41.194],[71.898,41.185],[71.977,41.195],[72.001,41.18],[72.017,41.164],[72.034,41.157],[72.064,41.17],[72.085,41.185],[72.108,41.196],[72.133,41.199],[72.158,41.188],[72.17,41.169],[72.175,41.141],[72.176,41.113],[72.186,41.061],[72.186,41.041],[72.179,41.023],[72.165,40.999],[72.195,41.006],[72.19,40.99],[72.166,40.907],[72.158,40.901],[72.154,40.9],[72.148,40.898],[72.133,40.895],[72.073,40.894],[72.056,40.891],[72.039,40.893],[71.908,40.917],[71.88,40.915],[71.856,40.916],[71.834,40.916],[71.823,40.913],[71.781,40.898],[71.748,40.911],[71.644,40.89],[71.631,40.875],[71.619,40.868],[71.586,40.846],[71.582,40.84],[71.583,40.833],[71.595,40.821],[71.611,40.796],[71.582,40.774],[71.499,40.753],[71.41,40.717],[71.391,40.704],[71.359,40.667],[71.294,40.62],[71.271,40.617],[71.257,40.62],[71.211,40.639],[71.191,40.652],[71.18,40.655],[71.162,40.658],[71.151,40.66],[71.144,40.663],[71.115,40.686],[71.108,40.689],[71.069,40.692],[71.063,40.696],[71.127,40.762],[71.014,40.758],[70.982,40.761],[70.975,40.765],[70.967,40.77],[70.952,40.775],[70.931,40.775],[70.884,40.743],[70.871,40.741],[70.843,40.743],[70.83,40.743],[70.813,40.736],[70.802,40.727],[70.793,40.717],[70.782,40.708],[70.756,40.696],[70.759,40.704],[70.767,40.738],[70.729,40.754],[70.637,40.771],[70.622,40.786],[70.619,40.803],[70.629,40.816],[70.649,40.818],[70.683,40.795],[70.703,40.789],[70.705,40.807],[70.697,40.816],[70.514,40.973],[70.483,40.994],[70.48,40.996],[70.477,41],[70.458,41.016],[70.465,41.039],[70.463,41.113],[70.459,41.135],[70.438,41.161],[70.418,41.182],[70.412,41.19],[70.41,41.196],[70.409,41.203],[70.411,41.209],[70.43,41.24],[70.433,41.246],[70.438,41.26],[70.434,41.268],[70.407,41.271],[70.403,41.274],[70.4,41.28],[70.4,41.295],[70.397,41.306],[70.399,41.314],[70.401,41.319],[70.45,41.369],[70.459,41.381],[70.471,41.405]],[[70.645,40.935],[70.643,40.952],[70.631,40.976],[70.617,40.994],[70.593,41.009],[70.566,41.018],[70.55,41.015],[70.561,40.995],[70.562,40.994],[70.579,40.981],[70.608,40.951],[70.625,40.939],[70.645,40.935]]]}},{"type":"Feature","id":"UZ-NW","properties":{"id":"UZ-NW","countryCode":"UZ","isoSubdivision":"UZ-NW","name":"Navoiy","name_en":"Navoiy","name_ko":"나보이","type":"Region","labelLongitude":64.272,"labelLatitude":42.173,"minZoom":6.6},"geometry":{"type":"Polygon","coordinates":[[[64.891,43.723],[64.907,43.721],[64.923,43.719],[64.94,43.708],[64.957,43.697],[65.064,43.596],[65.172,43.494],[65.222,43.455],[65.271,43.417],[65.374,43.37],[65.477,43.323],[65.497,43.31],[65.517,43.297],[65.602,43.169],[65.656,43.087],[65.731,42.974],[65.795,42.877],[65.804,42.876],[65.813,42.876],[65.957,42.933],[66.101,42.99],[66.08,42.742],[66.058,42.494],[66.056,42.467],[66.053,42.441],[66.048,42.432],[66.043,42.424],[66.031,42.42],[66.02,42.417],[66.017,42.41],[66.014,42.403],[66.013,42.373],[66.01,42.208],[66.006,42.013],[66.008,42.008],[66.009,42.003],[66.013,42],[66.017,41.998],[66.138,41.997],[66.247,41.997],[66.357,41.997],[66.477,41.996],[66.481,41.997],[66.485,41.997],[66.489,41.997],[66.492,41.997],[66.496,41.996],[66.499,41.996],[66.502,41.995],[66.504,41.993],[66.521,41.867],[66.539,41.741],[66.571,41.617],[66.603,41.494],[66.646,41.346],[66.688,41.199],[66.711,41.179],[66.733,41.158],[66.758,41.153],[66.758,41.15],[66.635,41.112],[66.627,41.097],[66.614,41.084],[66.631,40.945],[66.633,40.939],[66.635,40.935],[66.641,40.926],[66.65,40.918],[66.656,40.915],[66.669,40.909],[66.76,40.891],[66.765,40.887],[66.769,40.883],[66.771,40.879],[66.771,40.872],[66.771,40.862],[66.769,40.844],[66.769,40.827],[66.77,40.822],[66.779,40.805],[66.801,40.775],[66.773,40.722],[66.62,40.495],[66.601,40.51],[66.589,40.521],[66.586,40.526],[66.584,40.53],[66.583,40.534],[66.583,40.538],[66.589,40.554],[66.589,40.564],[66.588,40.568],[66.585,40.572],[66.551,40.602],[66.523,40.621],[66.512,40.626],[66.503,40.627],[66.493,40.624],[66.421,40.586],[66.398,40.578],[66.378,40.576],[66.362,40.578],[66.344,40.583],[66.326,40.591],[66.305,40.603],[66.29,40.608],[66.276,40.61],[66.263,40.606],[66.251,40.599],[66.239,40.589],[66.23,40.578],[66.222,40.565],[66.209,40.538],[66.206,40.522],[66.206,40.506],[66.214,40.488],[66.221,40.48],[66.226,40.472],[66.225,40.464],[66.217,40.452],[66.21,40.447],[66.191,40.44],[66.186,40.434],[66.185,40.427],[66.196,40.403],[66.2,40.367],[66.193,40.345],[66.179,40.323],[66.178,40.316],[66.181,40.309],[66.184,40.304],[66.2,40.294],[66.198,40.285],[66.193,40.278],[66.168,40.25],[66.16,40.237],[66.153,40.224],[66.146,40.202],[66.12,40.155],[66.118,40.147],[66.12,40.142],[66.124,40.14],[66.131,40.14],[66.15,40.142],[66.159,40.143],[66.168,40.141],[66.176,40.139],[66.182,40.133],[66.184,40.126],[66.184,40.118],[66.179,40.11],[66.17,40.102],[66.105,40.056],[66.094,40.051],[65.879,40.016],[65.836,40.022],[65.793,40.044],[65.772,40.038],[65.752,40.046],[65.733,40.058],[65.693,40.069],[65.677,40.082],[65.652,40.109],[65.642,40.111],[65.638,40.112],[65.618,40.115],[65.527,40.146],[65.513,40.147],[65.506,40.144],[65.5,40.139],[65.494,40.13],[65.491,40.124],[65.491,40.118],[65.491,40.106],[65.489,40.086],[65.487,40.081],[65.486,40.076],[65.484,40.073],[65.48,40.068],[65.455,40.039],[65.454,40.032],[65.457,40.028],[65.464,40.028],[65.471,40.026],[65.477,40.024],[65.481,40.02],[65.482,40.015],[65.481,40.01],[65.477,40.002],[65.462,39.975],[65.459,39.969],[65.442,39.918],[65.435,39.906],[65.427,39.901],[65.414,39.898],[65.385,39.898],[65.357,39.901],[65.327,39.911],[65.294,39.926],[65.286,39.926],[65.28,39.924],[65.275,39.917],[65.272,39.911],[65.269,39.894],[65.26,39.888],[65.253,39.884],[65.192,39.871],[65.143,39.866],[65.134,39.864],[65.128,39.862],[65.123,39.858],[65.121,39.853],[65.129,39.841],[65.159,39.815],[65.179,39.801],[65.186,39.794],[65.195,39.785],[65.225,39.701],[65.226,39.693],[65.225,39.678],[65.223,39.669],[65.22,39.661],[65.191,39.61],[65.19,39.604],[65.202,39.574],[65.256,39.492],[65.237,39.482],[65.138,39.464],[65.135,39.492],[65.134,39.499],[65.124,39.526],[65.117,39.537],[65.113,39.542],[65.097,39.559],[65.08,39.573],[65.065,39.58],[65.041,39.586],[65.021,39.595],[65.013,39.616],[65.01,39.638],[65.01,39.654],[65.002,39.676],[64.983,39.7],[64.864,39.743],[64.855,39.754],[64.84,39.757],[64.796,39.741],[64.777,39.742],[64.763,39.748],[64.759,39.756],[64.754,39.765],[64.753,39.771],[64.706,39.791],[64.678,39.806],[64.606,39.883],[64.59,39.908],[64.604,39.933],[64.62,39.961],[64.653,39.993],[64.656,39.997],[64.664,40.003],[64.672,40.016],[64.733,40.038],[64.751,40.047],[64.769,40.061],[64.783,40.075],[64.83,40.15],[64.845,40.159],[64.854,40.159],[64.862,40.164],[64.868,40.167],[64.875,40.168],[64.905,40.171],[64.906,40.175],[64.902,40.181],[64.886,40.196],[64.857,40.219],[64.846,40.233],[64.844,40.237],[64.845,40.239],[64.85,40.241],[64.859,40.247],[64.875,40.285],[64.85,40.304],[64.845,40.324],[64.845,40.332],[64.847,40.342],[64.85,40.351],[64.859,40.36],[64.875,40.367],[64.91,40.371],[64.933,40.371],[64.952,40.367],[64.972,40.354],[64.994,40.343],[65.016,40.337],[65.134,40.336],[65.145,40.353],[65.167,40.408],[65.186,40.421],[65.208,40.441],[65.234,40.504],[65.236,40.517],[65.248,40.53],[65.255,40.535],[65.265,40.537],[65.275,40.536],[65.327,40.528],[65.34,40.528],[65.341,40.539],[65.337,40.551],[65.335,40.571],[65.335,40.596],[65.337,40.622],[65.342,40.648],[65.365,40.71],[65.317,40.699],[65.014,40.715],[64.916,40.733],[64.881,40.749],[64.847,40.77],[64.832,40.8],[64.823,40.826],[64.802,40.927],[64.793,40.951],[64.781,40.952],[64.749,40.918],[64.717,40.907],[64.674,40.9],[64.541,40.896],[64.507,40.886],[64.488,40.878],[64.458,40.789],[64.435,40.773],[64.165,40.797],[64.122,40.809],[64.109,40.831],[64.107,40.896],[64.102,40.93],[64.081,40.954],[64.062,40.966],[64.043,40.97],[64.023,40.965],[64.003,40.952],[63.985,40.933],[63.926,40.839],[63.854,40.758],[63.735,40.726],[63.737,40.746],[63.7,40.774],[63.677,40.804],[63.376,40.945],[63.222,41.01],[63.091,41.049],[63.002,41.064],[62.979,41.075],[62.844,41.255],[62.676,41.404],[62.651,41.437],[62.619,41.492],[62.535,41.493],[62.18,41.392],[61.752,41.834],[61.744,41.848],[61.743,41.861],[61.765,41.875],[61.98,41.965],[61.992,41.975],[61.996,41.98],[61.976,42.011],[61.862,42.167],[61.859,42.177],[61.859,42.189],[61.882,42.397],[61.937,42.492],[62.193,42.855],[62.465,43.231],[62.471,43.243],[62.471,43.253],[62.456,43.259],[62.185,43.314],[62.135,43.348],[62.028,43.481],[62.111,43.492],[62.146,43.497],[62.181,43.501],[62.217,43.506],[62.252,43.511],[62.308,43.518],[62.365,43.526],[62.421,43.534],[62.478,43.541],[62.569,43.552],[62.66,43.563],[62.751,43.573],[62.843,43.584],[62.934,43.595],[63.025,43.606],[63.117,43.617],[63.208,43.627],[63.36,43.617],[63.513,43.607],[63.665,43.597],[63.817,43.587],[63.956,43.578],[64.095,43.569],[64.233,43.56],[64.372,43.551],[64.427,43.547],[64.444,43.551],[64.462,43.554],[64.562,43.595],[64.658,43.634],[64.758,43.674],[64.855,43.713],[64.873,43.718],[64.891,43.723]]]}},{"type":"Feature","id":"UZ-QA","properties":{"id":"UZ-QA","countryCode":"UZ","isoSubdivision":"UZ-QA","name":"Qashqadaryo","name_en":"Qashqadaryo","name_ko":"카슈카다리야","type":"Region","labelLongitude":66.023,"labelLatitude":38.777,"minZoom":6.6},"geometry":{"type":"Polygon","coordinates":[[[67.359,39.29],[67.351,39.285],[67.346,39.281],[67.344,39.274],[67.343,39.26],[67.35,39.22],[67.378,39.199],[67.499,39.166],[67.58,39.164],[67.62,39.151],[67.624,39.147],[67.632,39.136],[67.638,39.132],[67.645,39.131],[67.661,39.133],[67.668,39.132],[67.677,39.12],[67.679,39.106],[67.667,39.028],[67.672,39.004],[67.673,39.003],[67.658,38.994],[67.64,38.988],[67.568,38.986],[67.555,38.983],[67.543,38.98],[67.538,38.977],[67.531,38.973],[67.524,38.967],[67.518,38.96],[67.516,38.952],[67.516,38.944],[67.523,38.921],[67.529,38.885],[67.553,38.851],[67.555,38.846],[67.557,38.841],[67.556,38.835],[67.555,38.829],[67.553,38.823],[67.552,38.817],[67.552,38.812],[67.552,38.807],[67.552,38.802],[67.554,38.797],[67.556,38.792],[67.559,38.782],[67.559,38.776],[67.559,38.77],[67.557,38.763],[67.552,38.755],[67.541,38.742],[67.536,38.734],[67.534,38.727],[67.534,38.709],[67.532,38.705],[67.529,38.701],[67.522,38.702],[67.516,38.704],[67.498,38.72],[67.494,38.722],[67.489,38.725],[67.482,38.727],[67.467,38.73],[67.452,38.732],[67.437,38.731],[67.425,38.729],[67.41,38.724],[67.401,38.718],[67.394,38.713],[67.389,38.708],[67.329,38.617],[67.319,38.606],[67.301,38.592],[67.292,38.586],[67.277,38.58],[67.237,38.572],[67.229,38.558],[67.218,38.543],[67.2,38.528],[67.163,38.504],[67.157,38.497],[67.151,38.485],[67.145,38.468],[67.134,38.416],[67.126,38.393],[67.124,38.387],[67.111,38.376],[67,38.306],[66.943,38.281],[66.931,38.279],[66.895,38.274],[66.887,38.269],[66.878,38.261],[66.863,38.24],[66.852,38.22],[66.848,38.209],[66.843,38.197],[66.836,38.185],[66.829,38.174],[66.707,38.084],[66.698,38.075],[66.692,38.059],[66.687,38.02],[66.682,38.006],[66.666,37.982],[66.637,37.967],[66.624,37.994],[66.59,38.013],[66.554,38.027],[66.516,38.035],[66.439,38.035],[66.408,38.043],[66.307,38.08],[66.26,38.127],[66.231,38.149],[66.198,38.161],[66.134,38.175],[66.072,38.215],[66.043,38.226],[65.977,38.235],[65.877,38.273],[65.843,38.275],[65.814,38.266],[65.766,38.236],[65.74,38.224],[65.672,38.22],[65.604,38.237],[65.44,38.325],[65.34,38.378],[65.205,38.45],[65.111,38.517],[64.978,38.612],[64.911,38.645],[64.763,38.686],[64.635,38.744],[64.424,38.883],[64.368,38.94],[64.383,38.953],[64.474,39.031],[64.521,39.056],[64.659,39.099],[64.713,39.114],[64.879,39.161],[64.885,39.164],[64.889,39.168],[64.892,39.176],[64.891,39.182],[64.888,39.187],[64.885,39.191],[64.853,39.222],[64.846,39.229],[64.841,39.238],[64.839,39.243],[64.838,39.247],[64.838,39.253],[64.839,39.258],[64.845,39.267],[64.855,39.277],[64.931,39.341],[64.937,39.345],[64.945,39.348],[64.957,39.349],[64.966,39.348],[64.978,39.351],[64.99,39.359],[65.091,39.437],[65.138,39.464],[65.237,39.482],[65.256,39.492],[65.683,39.483],[65.694,39.486],[65.716,39.495],[65.737,39.507],[65.741,39.511],[65.745,39.515],[65.746,39.52],[65.746,39.525],[65.746,39.541],[65.747,39.546],[65.749,39.551],[65.757,39.555],[65.768,39.557],[65.799,39.556],[65.809,39.555],[65.815,39.553],[65.82,39.55],[65.825,39.547],[65.828,39.543],[65.831,39.539],[65.84,39.506],[65.843,39.501],[65.843,39.5],[65.849,39.493],[65.859,39.481],[65.912,39.442],[65.941,39.426],[65.967,39.411],[65.97,39.406],[65.973,39.4],[65.973,39.385],[65.972,39.369],[65.972,39.362],[65.973,39.355],[65.975,39.343],[65.979,39.337],[65.986,39.333],[66.053,39.32],[66.089,39.32],[66.104,39.324],[66.125,39.334],[66.221,39.371],[66.226,39.371],[66.37,39.397],[66.389,39.398],[66.414,39.385],[66.473,39.349],[66.49,39.342],[66.503,39.34],[66.511,39.34],[66.585,39.364],[66.595,39.371],[66.627,39.409],[66.634,39.414],[66.642,39.42],[66.657,39.426],[66.675,39.43],[66.689,39.431],[66.767,39.421],[66.852,39.408],[66.874,39.405],[66.894,39.375],[66.897,39.362],[66.891,39.334],[66.889,39.318],[66.891,39.31],[66.895,39.304],[66.9,39.301],[66.907,39.298],[66.914,39.296],[66.928,39.294],[67.039,39.297],[67.051,39.299],[67.056,39.301],[67.061,39.305],[67.065,39.309],[67.067,39.314],[67.068,39.319],[67.068,39.324],[67.066,39.334],[67.066,39.339],[67.12,39.337],[67.359,39.29]]]}},{"type":"Feature","id":"UZ-QR","properties":{"id":"UZ-QR","countryCode":"UZ","isoSubdivision":"UZ-QR","name":"Karakalpakstan","name_en":"Karakalpakstan","name_ko":"카라칼파크스탄 공화국","type":"Automonous Region","labelLongitude":59.223,"labelLatitude":43.853,"minZoom":6.6},"geometry":{"type":"Polygon","coordinates":[[[59.055,45.324],[59.12,45.293],[59.292,45.211],[59.479,45.122],[59.676,45.029],[59.877,44.934],[60.077,44.839],[60.271,44.746],[60.454,44.659],[60.621,44.58],[60.767,44.511],[60.886,44.454],[60.974,44.412],[61.036,44.383],[61.062,44.362],[61.08,44.335],[61.087,44.311],[61.093,44.259],[61.103,44.236],[61.162,44.168],[61.276,44.079],[61.331,44.036],[61.386,43.993],[61.456,43.935],[61.513,43.887],[61.571,43.839],[61.629,43.791],[61.686,43.743],[61.742,43.697],[61.798,43.65],[61.855,43.603],[61.911,43.556],[61.986,43.493],[62.006,43.487],[62.026,43.481],[62.028,43.481],[62.135,43.348],[62.185,43.314],[62.456,43.259],[62.471,43.253],[62.471,43.243],[62.465,43.231],[62.193,42.855],[61.937,42.492],[61.882,42.397],[61.859,42.189],[61.859,42.177],[61.862,42.167],[61.976,42.011],[61.996,41.98],[61.992,41.975],[61.98,41.965],[61.765,41.875],[61.743,41.861],[61.744,41.848],[61.752,41.834],[62.18,41.392],[62.465,41.095],[62.465,41.081],[62.239,40.999],[62.187,40.986],[62.172,40.99],[62.158,40.996],[62.153,40.999],[62.034,41.143],[61.864,41.285],[61.805,41.319],[61.76,41.339],[61.711,41.355],[61.52,41.39],[61.466,41.39],[61.446,41.386],[61.428,41.379],[61.413,41.37],[61.397,41.356],[61.357,41.298],[61.34,41.288],[61.314,41.286],[61.29,41.293],[61.284,41.296],[61.269,41.302],[61.257,41.331],[61.244,41.346],[61.191,41.39],[61.172,41.398],[61.114,41.407],[61.092,41.414],[61.061,41.435],[61.025,41.465],[61.013,41.471],[61.001,41.475],[60.975,41.479],[60.738,41.64],[60.706,41.667],[60.68,41.702],[60.663,41.74],[60.652,41.757],[60.636,41.764],[60.588,41.765],[60.567,41.769],[60.55,41.777],[60.536,41.791],[60.508,41.828],[60.497,41.854],[60.47,41.885],[60.462,41.901],[60.462,41.946],[60.459,41.967],[60.445,41.975],[60.395,41.979],[60.345,41.989],[60.334,41.993],[60.313,42.006],[60.297,42.003],[60.291,42.001],[60.272,41.988],[60.221,41.962],[60.2,41.955],[60.173,41.954],[60.157,41.952],[60.151,41.948],[60.148,41.943],[60.149,41.939],[60.151,41.934],[60.163,41.917],[60.165,41.906],[60.153,41.884],[60.141,41.874],[60.118,41.9],[60.089,41.919],[59.984,41.949],[59.932,41.948],[59.918,41.952],[59.906,41.967],[59.908,41.98],[59.919,41.99],[59.937,41.993],[59.938,41.993],[59.997,42.011],[59.994,42.05],[59.974,42.099],[59.984,42.146],[60,42.155],[60.021,42.161],[60.037,42.17],[60.04,42.186],[60.028,42.2],[60.005,42.21],[59.961,42.223],[59.926,42.246],[59.898,42.279],[59.866,42.304],[59.821,42.308],[59.776,42.304],[59.69,42.31],[59.478,42.286],[59.426,42.287],[59.401,42.294],[59.362,42.326],[59.338,42.332],[59.287,42.336],[59.258,42.348],[59.245,42.365],[59.233,42.442],[59.224,42.461],[59.21,42.478],[59.146,42.527],[59.122,42.538],[59.096,42.536],[59.067,42.526],[59.039,42.52],[59.009,42.518],[58.965,42.524],[58.894,42.548],[58.827,42.594],[58.612,42.781],[58.588,42.791],[58.569,42.769],[58.556,42.684],[58.535,42.655],[58.493,42.645],[58.442,42.648],[58.391,42.657],[58.283,42.689],[58.258,42.69],[58.24,42.685],[58.187,42.661],[58.149,42.649],[58.131,42.639],[58.121,42.624],[58.127,42.605],[58.146,42.593],[58.271,42.549],[58.306,42.529],[58.337,42.494],[58.364,42.447],[58.438,42.358],[58.478,42.322],[58.49,42.315],[58.494,42.306],[58.491,42.298],[58.478,42.292],[58.414,42.285],[58.398,42.288],[58.386,42.301],[58.386,42.317],[58.392,42.334],[58.395,42.352],[58.385,42.388],[58.359,42.413],[58.325,42.432],[58.226,42.467],[58.204,42.47],[58.186,42.467],[58.149,42.456],[58.133,42.455],[58.117,42.462],[58.094,42.487],[58.08,42.497],[58.061,42.502],[58.038,42.503],[58.016,42.5],[57.998,42.493],[57.987,42.483],[57.978,42.472],[57.953,42.45],[57.926,42.441],[57.909,42.43],[57.914,42.404],[57.936,42.37],[57.937,42.354],[57.929,42.331],[57.888,42.262],[57.874,42.25],[57.835,42.24],[57.827,42.227],[57.835,42.212],[57.847,42.201],[57.85,42.191],[57.828,42.18],[57.809,42.176],[57.741,42.179],[57.722,42.175],[57.666,42.155],[57.62,42.148],[57.478,42.167],[57.382,42.164],[57.288,42.129],[57.208,42.071],[57.153,41.994],[57.153,41.993],[57.116,41.952],[57.074,41.929],[56.978,41.895],[56.95,41.866],[56.95,41.828],[56.972,41.749],[56.969,41.711],[56.962,41.679],[56.96,41.647],[56.978,41.611],[57.001,41.584],[57.012,41.558],[57.016,41.529],[57.015,41.494],[57.02,41.466],[57.033,41.438],[57.052,41.414],[57.074,41.395],[57.088,41.387],[57.104,41.382],[57.154,41.372],[57.161,41.368],[57.159,41.361],[57.148,41.351],[57.127,41.34],[57.08,41.322],[57.06,41.305],[57.03,41.263],[57.01,41.254],[56.888,41.273],[56.793,41.288],[56.57,41.297],[56.534,41.299],[56.327,41.307],[56.141,41.315],[55.978,41.322],[55.978,41.551],[55.978,41.781],[55.978,42.01],[55.978,42.24],[55.978,42.469],[55.977,42.699],[55.977,42.928],[55.977,43.157],[55.977,43.387],[55.977,43.616],[55.977,43.846],[55.976,44.075],[55.976,44.305],[55.976,44.534],[55.976,44.764],[55.976,44.993],[55.976,44.994],[55.976,44.995],[55.977,44.995],[55.977,44.996],[55.978,44.996],[56.072,45.018],[56.166,45.039],[56.259,45.06],[56.353,45.081],[56.447,45.103],[56.541,45.124],[56.635,45.145],[56.708,45.162],[56.728,45.167],[56.822,45.188],[56.916,45.209],[57.009,45.23],[57.103,45.252],[57.197,45.273],[57.291,45.294],[57.385,45.316],[57.478,45.337],[57.603,45.364],[57.728,45.391],[57.853,45.418],[57.978,45.445],[58.036,45.457],[58.094,45.469],[58.152,45.481],[58.21,45.493],[58.27,45.506],[58.33,45.518],[58.39,45.53],[58.45,45.542],[58.531,45.559],[58.555,45.557],[58.582,45.549],[58.659,45.512],[58.681,45.502],[58.743,45.472],[58.84,45.426],[58.968,45.365],[59.055,45.324]]]}},{"type":"Feature","id":"UZ-SA","properties":{"id":"UZ-SA","countryCode":"UZ","isoSubdivision":"UZ-SA","name":"Samarqand","name_en":"Samarqand","name_ko":"사마르칸트","type":"Region","labelLongitude":66.313,"labelLatitude":39.993,"minZoom":6.6},"geometry":{"type":"Polygon","coordinates":[[[67.436,39.486],[67.427,39.477],[67.415,39.438],[67.408,39.398],[67.407,39.361],[67.394,39.327],[67.387,39.294],[67.38,39.292],[67.371,39.295],[67.361,39.292],[67.359,39.29],[67.12,39.337],[67.066,39.339],[67.066,39.334],[67.068,39.324],[67.068,39.319],[67.067,39.314],[67.065,39.309],[67.061,39.305],[67.056,39.301],[67.051,39.299],[67.039,39.297],[66.928,39.294],[66.914,39.296],[66.907,39.298],[66.9,39.301],[66.895,39.304],[66.891,39.31],[66.889,39.318],[66.891,39.334],[66.897,39.362],[66.894,39.375],[66.874,39.405],[66.852,39.408],[66.767,39.421],[66.689,39.431],[66.675,39.43],[66.657,39.426],[66.642,39.42],[66.634,39.414],[66.627,39.409],[66.595,39.371],[66.585,39.364],[66.511,39.34],[66.503,39.34],[66.49,39.342],[66.473,39.349],[66.414,39.385],[66.389,39.398],[66.37,39.397],[66.226,39.371],[66.221,39.371],[66.125,39.334],[66.104,39.324],[66.089,39.32],[66.053,39.32],[65.986,39.333],[65.979,39.337],[65.975,39.343],[65.973,39.355],[65.972,39.362],[65.972,39.369],[65.973,39.385],[65.973,39.4],[65.97,39.406],[65.967,39.411],[65.941,39.426],[65.912,39.442],[65.859,39.481],[65.849,39.493],[65.843,39.5],[65.843,39.501],[65.84,39.506],[65.831,39.539],[65.828,39.543],[65.825,39.547],[65.82,39.55],[65.815,39.553],[65.809,39.555],[65.799,39.556],[65.768,39.557],[65.757,39.555],[65.749,39.551],[65.747,39.546],[65.746,39.541],[65.746,39.525],[65.746,39.52],[65.745,39.515],[65.741,39.511],[65.737,39.507],[65.716,39.495],[65.694,39.486],[65.683,39.483],[65.256,39.492],[65.202,39.574],[65.19,39.604],[65.191,39.61],[65.22,39.661],[65.223,39.669],[65.225,39.678],[65.226,39.693],[65.225,39.701],[65.195,39.785],[65.186,39.794],[65.179,39.801],[65.159,39.815],[65.129,39.841],[65.121,39.853],[65.123,39.858],[65.128,39.862],[65.134,39.864],[65.143,39.866],[65.192,39.871],[65.253,39.884],[65.26,39.888],[65.269,39.894],[65.272,39.911],[65.275,39.917],[65.28,39.924],[65.286,39.926],[65.294,39.926],[65.327,39.911],[65.357,39.901],[65.385,39.898],[65.414,39.898],[65.427,39.901],[65.435,39.906],[65.442,39.918],[65.459,39.969],[65.462,39.975],[65.477,40.002],[65.481,40.01],[65.482,40.015],[65.481,40.02],[65.477,40.024],[65.471,40.026],[65.464,40.028],[65.457,40.028],[65.454,40.032],[65.455,40.039],[65.48,40.068],[65.484,40.073],[65.486,40.076],[65.487,40.081],[65.489,40.086],[65.491,40.106],[65.491,40.118],[65.491,40.124],[65.494,40.13],[65.5,40.139],[65.506,40.144],[65.513,40.147],[65.527,40.146],[65.618,40.115],[65.638,40.112],[65.642,40.111],[65.652,40.109],[65.677,40.082],[65.693,40.069],[65.733,40.058],[65.752,40.046],[65.772,40.038],[65.793,40.044],[65.836,40.022],[65.879,40.016],[66.094,40.051],[66.105,40.056],[66.17,40.102],[66.179,40.11],[66.184,40.118],[66.184,40.126],[66.182,40.133],[66.176,40.139],[66.168,40.141],[66.159,40.143],[66.15,40.142],[66.131,40.14],[66.124,40.14],[66.12,40.142],[66.118,40.147],[66.12,40.155],[66.146,40.202],[66.153,40.224],[66.16,40.237],[66.168,40.25],[66.193,40.278],[66.198,40.285],[66.2,40.294],[66.184,40.304],[66.181,40.309],[66.178,40.316],[66.179,40.323],[66.193,40.345],[66.2,40.367],[66.196,40.403],[66.185,40.427],[66.186,40.434],[66.191,40.44],[66.21,40.447],[66.217,40.452],[66.225,40.464],[66.226,40.472],[66.221,40.48],[66.214,40.488],[66.206,40.506],[66.206,40.522],[66.209,40.538],[66.222,40.565],[66.23,40.578],[66.239,40.589],[66.251,40.599],[66.263,40.606],[66.276,40.61],[66.29,40.608],[66.305,40.603],[66.326,40.591],[66.344,40.583],[66.362,40.578],[66.378,40.576],[66.398,40.578],[66.421,40.586],[66.493,40.624],[66.503,40.627],[66.512,40.626],[66.523,40.621],[66.551,40.602],[66.585,40.572],[66.588,40.568],[66.589,40.564],[66.589,40.554],[66.583,40.538],[66.583,40.534],[66.584,40.53],[66.586,40.526],[66.589,40.521],[66.601,40.51],[66.62,40.495],[66.628,40.491],[66.754,40.487],[66.796,40.478],[66.812,40.474],[66.828,40.473],[66.851,40.473],[66.877,40.478],[66.883,40.478],[66.888,40.475],[66.894,40.469],[66.901,40.456],[66.905,40.447],[66.907,40.437],[66.906,40.423],[66.901,40.409],[66.892,40.394],[66.89,40.388],[66.889,40.381],[66.888,40.375],[66.89,40.328],[66.892,40.311],[66.907,40.259],[66.909,40.254],[66.912,40.249],[66.92,40.244],[66.941,40.237],[66.946,40.233],[66.949,40.229],[66.948,40.222],[66.946,40.216],[66.945,40.209],[66.949,40.201],[66.976,40.175],[66.975,40.152],[66.971,40.143],[66.968,40.14],[66.963,40.136],[66.944,40.132],[66.939,40.129],[66.936,40.125],[66.935,40.119],[66.94,40.074],[66.943,40.069],[66.948,40.065],[66.959,40.063],[66.968,40.062],[66.976,40.063],[66.982,40.065],[67.001,40.072],[67.006,40.073],[67.012,40.073],[67.02,40.073],[67.027,40.069],[67.032,40.062],[67.033,40.049],[67.03,40.042],[67.03,40.034],[67.032,40.029],[67.066,39.999],[67.08,40.003],[67.084,40.004],[67.089,40.005],[67.101,39.99],[67.18,39.973],[67.191,39.972],[67.207,39.972],[67.214,39.974],[67.221,39.974],[67.237,39.966],[67.244,39.964],[67.253,39.963],[67.263,39.965],[67.287,39.963],[67.46,39.938],[67.477,39.917],[67.504,39.824],[67.5,39.816],[67.484,39.813],[67.477,39.813],[67.45,39.808],[67.428,39.802],[67.397,39.789],[67.382,39.78],[67.373,39.774],[67.372,39.77],[67.369,39.763],[67.368,39.748],[67.369,39.74],[67.37,39.733],[67.372,39.728],[67.374,39.717],[67.375,39.712],[67.374,39.7],[67.372,39.694],[67.367,39.689],[67.358,39.686],[67.35,39.685],[67.32,39.685],[67.306,39.682],[67.3,39.673],[67.297,39.665],[67.295,39.596],[67.305,39.579],[67.319,39.566],[67.361,39.538],[67.436,39.486]]]}},{"type":"Feature","id":"UZ-SI","properties":{"id":"UZ-SI","countryCode":"UZ","isoSubdivision":"UZ-SI","name":"Sirdaryo","name_en":"Sirdaryo","name_ko":"시르다리야","type":"Region","labelLongitude":68.804,"labelLatitude":39.952,"minZoom":6.6},"geometry":{"type":"MultiPolygon","coordinates":[[[[69.074,40.217],[69.042,40.229],[69.019,40.232],[68.857,40.213],[68.837,40.206],[68.802,40.191],[68.778,40.189],[68.721,40.197],[68.698,40.195],[68.643,40.184],[68.642,40.184],[68.63,40.202],[68.633,40.21],[68.638,40.218],[68.651,40.256],[68.655,40.263],[68.66,40.268],[68.664,40.273],[68.67,40.28],[68.668,40.282],[68.664,40.282],[68.364,40.226],[68.137,40.229],[68.11,40.233],[68.106,40.237],[68.1,40.244],[68.096,40.252],[68.092,40.28],[68.095,40.296],[68.099,40.309],[68.217,40.516],[68.214,40.529],[68.205,40.528],[68.187,40.524],[68.17,40.522],[68.165,40.526],[68.162,40.531],[68.169,40.568],[68.17,40.592],[68.173,40.597],[68.177,40.6],[68.183,40.602],[68.196,40.605],[68.251,40.612],[68.264,40.622],[68.266,40.663],[68.344,40.632],[68.462,40.585],[68.463,40.587],[68.465,40.59],[68.471,40.594],[68.477,40.599],[68.485,40.599],[68.492,40.599],[68.496,40.602],[68.5,40.606],[68.503,40.61],[68.505,40.614],[68.51,40.617],[68.515,40.619],[68.521,40.618],[68.526,40.618],[68.546,40.61],[68.566,40.602],[68.58,40.601],[68.593,40.599],[68.604,40.604],[68.614,40.609],[68.617,40.616],[68.62,40.622],[68.611,40.626],[68.601,40.63],[68.613,40.645],[68.625,40.66],[68.626,40.664],[68.627,40.667],[68.623,40.673],[68.619,40.678],[68.615,40.684],[68.612,40.691],[68.61,40.697],[68.609,40.703],[68.609,40.71],[68.609,40.716],[68.597,40.718],[68.584,40.72],[68.579,40.722],[68.575,40.724],[68.57,40.728],[68.566,40.733],[68.563,40.742],[68.56,40.751],[68.555,40.793],[68.55,40.835],[68.551,40.843],[68.553,40.85],[68.556,40.853],[68.559,40.855],[68.562,40.857],[68.565,40.859],[68.569,40.865],[68.572,40.87],[68.573,40.875],[68.573,40.88],[68.572,40.891],[68.571,40.903],[68.571,40.908],[68.571,40.914],[68.573,40.913],[68.575,40.912],[68.58,40.91],[68.585,40.909],[68.587,40.908],[68.589,40.907],[68.595,40.918],[68.6,40.93],[68.614,40.937],[68.628,40.945],[68.65,40.952],[68.7,40.916],[68.708,40.908],[68.711,40.898],[68.713,40.874],[68.715,40.866],[68.721,40.864],[68.729,40.869],[68.734,40.869],[68.737,40.862],[68.74,40.845],[68.756,40.85],[68.778,40.847],[68.8,40.84],[68.815,40.831],[68.824,40.823],[68.836,40.806],[68.843,40.798],[68.85,40.794],[68.876,40.784],[68.888,40.777],[68.893,40.772],[68.903,40.756],[68.904,40.751],[68.902,40.74],[68.903,40.735],[68.91,40.73],[68.917,40.73],[68.924,40.731],[68.931,40.729],[68.945,40.719],[68.956,40.707],[68.958,40.694],[68.945,40.681],[68.96,40.674],[68.974,40.677],[68.988,40.684],[69.003,40.688],[69.013,40.684],[69.009,40.674],[68.993,40.653],[69.035,40.659],[69.054,40.658],[69.066,40.633],[69.084,40.622],[69.089,40.612],[69.085,40.604],[69.069,40.592],[69.068,40.584],[69.076,40.581],[69.086,40.586],[69.097,40.594],[69.106,40.599],[69.115,40.595],[69.121,40.588],[69.122,40.581],[69.097,40.573],[69.087,40.559],[69.076,40.523],[69.087,40.524],[69.098,40.523],[69.108,40.521],[69.117,40.515],[69.098,40.507],[69.1,40.499],[69.11,40.492],[69.117,40.485],[69.119,40.477],[69.122,40.469],[69.124,40.46],[69.12,40.451],[69.106,40.437],[69.1,40.429],[69.094,40.419],[69.092,40.412],[69.071,40.321],[69.085,40.293],[69.091,40.285],[69.093,40.27],[69.079,40.23],[69.074,40.217]]],[[[68.931,40.147],[68.977,40.121],[68.984,40.107],[68.987,40.092],[68.985,40.077],[68.977,40.065],[68.955,40.062],[68.882,40.071],[68.862,40.066],[68.826,40.042],[68.813,40.039],[68.79,40.07],[68.775,40.08],[68.762,40.061],[68.764,40.052],[68.782,40.042],[68.785,40.034],[68.783,40.013],[68.784,40.004],[68.789,39.994],[68.877,39.901],[68.881,39.878],[68.838,39.865],[68.815,39.892],[68.8,39.935],[68.78,39.969],[68.759,39.981],[68.752,39.973],[68.756,39.954],[68.765,39.932],[68.788,39.896],[68.787,39.882],[68.775,39.863],[68.771,39.861],[68.761,39.859],[68.758,39.858],[68.75,39.842],[68.751,39.841],[68.751,39.836],[68.748,39.826],[68.742,39.82],[68.728,39.825],[68.702,39.858],[68.685,39.868],[68.651,39.845],[68.64,39.848],[68.643,39.858],[68.643,39.874],[68.648,39.883],[68.652,39.89],[68.653,39.895],[68.65,39.899],[68.645,39.902],[68.627,39.911],[68.623,39.915],[68.62,39.919],[68.621,39.923],[68.629,39.926],[68.636,39.926],[68.641,39.923],[68.645,39.919],[68.648,39.915],[68.652,39.916],[68.655,39.921],[68.658,39.954],[68.658,39.964],[68.656,39.969],[68.653,39.979],[68.645,39.997],[68.643,40],[68.642,40.001],[68.639,40.007],[68.635,40.016],[68.634,40.022],[68.633,40.028],[68.634,40.036],[68.638,40.047],[68.654,40.068],[68.697,40.112],[68.931,40.147]]]]}},{"type":"Feature","id":"UZ-SU","properties":{"id":"UZ-SU","countryCode":"UZ","isoSubdivision":"UZ-SU","name":"Surxondaryo","name_en":"Surxondaryo","name_ko":"수르한다리야","type":"Region","labelLongitude":67.427,"labelLatitude":37.984,"minZoom":6.6},"geometry":{"type":"Polygon","coordinates":[[[67.673,39.003],[67.691,38.99],[67.818,38.973],[67.845,38.974],[67.921,38.994],[67.922,38.994],[67.935,38.999],[67.949,39.002],[67.963,39.002],[67.98,38.997],[67.988,38.994],[68.003,38.982],[68.02,38.98],[68.036,38.984],[68.053,38.994],[68.061,38.996],[68.069,38.996],[68.077,38.996],[68.085,38.994],[68.086,38.994],[68.101,38.979],[68.135,38.921],[68.153,38.899],[68.164,38.887],[68.174,38.867],[68.173,38.845],[68.164,38.829],[68.151,38.815],[68.136,38.805],[68.119,38.797],[68.096,38.793],[68.078,38.793],[68.067,38.788],[68.063,38.766],[68.066,38.756],[68.072,38.747],[68.077,38.738],[68.076,38.727],[68.071,38.721],[68.045,38.707],[68.038,38.692],[68.04,38.673],[68.054,38.636],[68.056,38.616],[68.053,38.558],[68.055,38.536],[68.063,38.523],[68.087,38.494],[68.093,38.479],[68.095,38.447],[68.098,38.432],[68.108,38.418],[68.147,38.389],[68.184,38.335],[68.201,38.322],[68.253,38.299],[68.332,38.243],[68.356,38.213],[68.361,38.174],[68.344,38.115],[68.32,38.06],[68.281,38.013],[68.269,37.994],[68.268,37.994],[68.261,37.977],[68.256,37.962],[68.249,37.949],[68.238,37.943],[68.233,37.94],[68.218,37.936],[68.171,37.931],[68.14,37.923],[68.122,37.908],[68.08,37.806],[68.05,37.76],[67.977,37.68],[67.923,37.639],[67.872,37.587],[67.829,37.528],[67.801,37.466],[67.797,37.424],[67.817,37.345],[67.821,37.303],[67.815,37.267],[67.804,37.233],[67.785,37.204],[67.781,37.189],[67.776,37.208],[67.764,37.221],[67.747,37.229],[67.726,37.234],[67.69,37.232],[67.678,37.234],[67.666,37.238],[67.645,37.251],[67.633,37.254],[67.622,37.253],[67.603,37.248],[67.592,37.247],[67.586,37.243],[67.58,37.233],[67.572,37.223],[67.561,37.22],[67.545,37.232],[67.526,37.273],[67.503,37.282],[67.482,37.277],[67.464,37.266],[67.431,37.24],[67.411,37.228],[67.391,37.22],[67.37,37.215],[67.345,37.213],[67.32,37.208],[67.281,37.189],[67.259,37.185],[67.237,37.192],[67.225,37.208],[67.218,37.226],[67.208,37.243],[67.188,37.258],[67.143,37.272],[67.123,37.282],[67.114,37.297],[67.097,37.341],[67.085,37.35],[67.064,37.355],[67.024,37.377],[67.006,37.384],[66.958,37.385],[66.866,37.368],[66.735,37.363],[66.724,37.36],[66.705,37.347],[66.694,37.343],[66.667,37.344],[66.655,37.346],[66.589,37.368],[66.565,37.371],[66.539,37.369],[66.52,37.364],[66.495,37.379],[66.497,37.398],[66.512,37.415],[66.531,37.43],[66.547,37.451],[66.543,37.467],[66.527,37.48],[66.507,37.494],[66.493,37.522],[66.497,37.558],[66.519,37.625],[66.523,37.665],[66.515,37.743],[66.519,37.783],[66.554,37.832],[66.609,37.889],[66.646,37.946],[66.637,37.967],[66.666,37.982],[66.682,38.006],[66.687,38.02],[66.692,38.059],[66.698,38.075],[66.707,38.084],[66.829,38.174],[66.836,38.185],[66.843,38.197],[66.848,38.209],[66.852,38.22],[66.863,38.24],[66.878,38.261],[66.887,38.269],[66.895,38.274],[66.931,38.279],[66.943,38.281],[67,38.306],[67.111,38.376],[67.124,38.387],[67.126,38.393],[67.134,38.416],[67.145,38.468],[67.151,38.485],[67.157,38.497],[67.163,38.504],[67.2,38.528],[67.218,38.543],[67.229,38.558],[67.237,38.572],[67.277,38.58],[67.292,38.586],[67.301,38.592],[67.319,38.606],[67.329,38.617],[67.389,38.708],[67.394,38.713],[67.401,38.718],[67.41,38.724],[67.425,38.729],[67.437,38.731],[67.452,38.732],[67.467,38.73],[67.482,38.727],[67.489,38.725],[67.494,38.722],[67.498,38.72],[67.516,38.704],[67.522,38.702],[67.529,38.701],[67.532,38.705],[67.534,38.709],[67.534,38.727],[67.536,38.734],[67.541,38.742],[67.552,38.755],[67.557,38.763],[67.559,38.77],[67.559,38.776],[67.559,38.782],[67.556,38.792],[67.554,38.797],[67.552,38.802],[67.552,38.807],[67.552,38.812],[67.552,38.817],[67.553,38.823],[67.555,38.829],[67.556,38.835],[67.557,38.841],[67.555,38.846],[67.553,38.851],[67.529,38.885],[67.523,38.921],[67.516,38.944],[67.516,38.952],[67.518,38.96],[67.524,38.967],[67.531,38.973],[67.538,38.977],[67.543,38.98],[67.555,38.983],[67.568,38.986],[67.64,38.988],[67.658,38.994],[67.673,39.003]]]}},{"type":"Feature","id":"UZ-TK","properties":{"id":"UZ-TK","countryCode":"UZ","isoSubdivision":"UZ-TK","name":"Tashkent","name_en":"Tashkent","name_ko":"타슈켄트","type":"Region","labelLongitude":69.246,"labelLatitude":41.323,"minZoom":6.6},"geometry":{"type":"Polygon","coordinates":[[[69.257,41.404],[69.281,41.391],[69.311,41.388],[69.348,41.37],[69.352,41.354],[69.337,41.334],[69.35,41.327],[69.361,41.316],[69.354,41.307],[69.364,41.298],[69.326,41.284],[69.275,41.25],[69.243,41.219],[69.213,41.225],[69.201,41.242],[69.207,41.252],[69.206,41.256],[69.19,41.243],[69.165,41.265],[69.158,41.276],[69.156,41.288],[69.139,41.281],[69.136,41.283],[69.162,41.331],[69.17,41.363],[69.223,41.403],[69.257,41.404]]]}},{"type":"Feature","id":"UZ-TO","properties":{"id":"UZ-TO","countryCode":"UZ","isoSubdivision":"UZ-TO","name":"Tashkent","name_en":"Tashkent","name_ko":"타슈켄트","type":"Region","labelLongitude":69.951,"labelLatitude":41.247,"minZoom":6.6},"geometry":{"type":"Polygon","coordinates":[[[71.25,42.198],[71.253,42.198],[71.238,42.16],[71.201,42.141],[71.118,42.123],[70.977,42.044],[70.936,42.037],[70.887,42.038],[70.845,42.03],[70.828,41.994],[70.825,41.936],[70.814,41.92],[70.779,41.91],[70.68,41.901],[70.649,41.887],[70.55,41.824],[70.506,41.786],[70.477,41.738],[70.454,41.712],[70.423,41.697],[70.391,41.685],[70.331,41.65],[70.169,41.578],[70.148,41.552],[70.167,41.52],[70.203,41.506],[70.344,41.494],[70.345,41.494],[70.345,41.493],[70.382,41.476],[70.399,41.465],[70.414,41.451],[70.438,41.416],[70.453,41.405],[70.471,41.405],[70.459,41.381],[70.45,41.369],[70.401,41.319],[70.399,41.314],[70.397,41.306],[70.4,41.295],[70.4,41.28],[70.403,41.274],[70.407,41.271],[70.434,41.268],[70.438,41.26],[70.433,41.246],[70.43,41.24],[70.411,41.209],[70.409,41.203],[70.41,41.196],[70.412,41.19],[70.418,41.182],[70.438,41.161],[70.459,41.135],[70.463,41.113],[70.465,41.039],[70.458,41.016],[70.446,41.026],[70.401,41.04],[70.364,41.032],[70.336,40.927],[70.28,40.878],[70.208,40.845],[70.104,40.813],[70.01,40.758],[69.825,40.714],[69.803,40.706],[69.784,40.693],[69.742,40.652],[69.718,40.636],[69.691,40.63],[69.66,40.639],[69.648,40.647],[69.637,40.658],[69.619,40.682],[69.608,40.692],[69.583,40.704],[69.571,40.712],[69.532,40.759],[69.509,40.775],[69.477,40.777],[69.462,40.784],[69.449,40.794],[69.436,40.803],[69.418,40.804],[69.385,40.796],[69.369,40.789],[69.355,40.78],[69.33,40.755],[69.314,40.729],[69.307,40.699],[69.307,40.663],[69.313,40.609],[69.309,40.596],[69.295,40.589],[69.234,40.585],[69.198,40.567],[69.198,40.546],[69.238,40.494],[69.26,40.438],[69.269,40.42],[69.295,40.384],[69.306,40.365],[69.313,40.343],[69.305,40.294],[69.273,40.29],[69.235,40.301],[69.208,40.298],[69.212,40.269],[69.285,40.219],[69.285,40.195],[69.248,40.182],[69.198,40.183],[69.108,40.204],[69.074,40.217],[69.079,40.23],[69.093,40.27],[69.091,40.285],[69.085,40.293],[69.071,40.321],[69.092,40.412],[69.094,40.419],[69.1,40.429],[69.106,40.437],[69.12,40.451],[69.124,40.46],[69.122,40.469],[69.119,40.477],[69.117,40.485],[69.11,40.492],[69.1,40.499],[69.098,40.507],[69.117,40.515],[69.108,40.521],[69.098,40.523],[69.087,40.524],[69.076,40.523],[69.087,40.559],[69.097,40.573],[69.122,40.581],[69.121,40.588],[69.115,40.595],[69.106,40.599],[69.097,40.594],[69.086,40.586],[69.076,40.581],[69.068,40.584],[69.069,40.592],[69.085,40.604],[69.089,40.612],[69.084,40.622],[69.066,40.633],[69.054,40.658],[69.035,40.659],[68.993,40.653],[69.009,40.674],[69.013,40.684],[69.003,40.688],[68.988,40.684],[68.974,40.677],[68.96,40.674],[68.945,40.681],[68.958,40.694],[68.956,40.707],[68.945,40.719],[68.931,40.729],[68.924,40.731],[68.917,40.73],[68.91,40.73],[68.903,40.735],[68.902,40.74],[68.904,40.751],[68.903,40.756],[68.893,40.772],[68.888,40.777],[68.876,40.784],[68.85,40.794],[68.843,40.798],[68.836,40.806],[68.824,40.823],[68.815,40.831],[68.8,40.84],[68.778,40.847],[68.756,40.85],[68.74,40.845],[68.737,40.862],[68.734,40.869],[68.729,40.869],[68.721,40.864],[68.715,40.866],[68.713,40.874],[68.711,40.898],[68.708,40.908],[68.7,40.916],[68.65,40.952],[68.659,40.955],[68.689,40.965],[68.7,40.974],[68.71,40.984],[68.728,41.024],[68.746,41.064],[68.76,41.076],[68.774,41.087],[68.808,41.099],[68.842,41.11],[68.855,41.126],[68.867,41.143],[68.874,41.149],[68.88,41.156],[68.891,41.158],[68.901,41.161],[68.922,41.163],[68.944,41.165],[68.962,41.172],[68.98,41.178],[68.997,41.187],[69.014,41.196],[69.023,41.202],[69.031,41.209],[69.035,41.214],[69.039,41.22],[69.047,41.268],[69.055,41.315],[69.054,41.324],[69.054,41.332],[69.053,41.338],[69.051,41.344],[69.05,41.345],[69.048,41.347],[69.046,41.349],[69.044,41.35],[69.039,41.354],[69.034,41.359],[69.033,41.363],[69.032,41.367],[69.034,41.37],[69.036,41.374],[69.04,41.377],[69.044,41.379],[69.068,41.388],[69.091,41.396],[69.1,41.399],[69.109,41.401],[69.119,41.398],[69.128,41.395],[69.133,41.406],[69.138,41.416],[69.15,41.425],[69.163,41.434],[69.19,41.447],[69.217,41.46],[69.225,41.461],[69.233,41.463],[69.248,41.459],[69.263,41.455],[69.27,41.455],[69.278,41.456],[69.297,41.465],[69.316,41.475],[69.324,41.476],[69.331,41.478],[69.361,41.474],[69.391,41.47],[69.396,41.472],[69.402,41.475],[69.402,41.48],[69.401,41.485],[69.393,41.497],[69.384,41.508],[69.383,41.513],[69.381,41.519],[69.387,41.532],[69.394,41.545],[69.407,41.552],[69.42,41.56],[69.449,41.566],[69.477,41.573],[69.528,41.603],[69.579,41.633],[69.593,41.646],[69.608,41.658],[69.616,41.663],[69.625,41.668],[69.692,41.682],[69.759,41.696],[69.815,41.698],[69.871,41.7],[69.892,41.706],[69.912,41.713],[69.928,41.726],[69.943,41.74],[69.95,41.747],[69.957,41.755],[69.964,41.76],[69.972,41.765],[70,41.772],[70.028,41.78],[70.069,41.803],[70.111,41.826],[70.124,41.837],[70.136,41.848],[70.17,41.892],[70.204,41.936],[70.211,41.941],[70.219,41.947],[70.227,41.951],[70.236,41.954],[70.245,41.957],[70.254,41.959],[70.262,41.962],[70.27,41.966],[70.277,41.971],[70.283,41.976],[70.287,41.985],[70.29,41.994],[70.303,42.014],[70.315,42.035],[70.336,42.048],[70.358,42.062],[70.407,42.078],[70.455,42.094],[70.463,42.093],[70.47,42.092],[70.479,42.087],[70.488,42.082],[70.497,42.075],[70.504,42.068],[70.508,42.062],[70.512,42.055],[70.515,42.046],[70.519,42.037],[70.527,42.031],[70.534,42.025],[70.545,42.022],[70.555,42.019],[70.567,42.018],[70.579,42.016],[70.595,42.022],[70.61,42.027],[70.621,42.042],[70.631,42.057],[70.641,42.075],[70.65,42.093],[70.661,42.11],[70.673,42.126],[70.687,42.138],[70.701,42.151],[70.706,42.158],[70.712,42.164],[70.716,42.174],[70.72,42.183],[70.727,42.19],[70.734,42.197],[70.746,42.198],[70.758,42.198],[70.781,42.193],[70.805,42.188],[70.823,42.191],[70.842,42.193],[70.861,42.2],[70.88,42.207],[70.914,42.228],[70.948,42.248],[70.97,42.263],[71.014,42.288],[71.046,42.291],[71.078,42.281],[71.218,42.206],[71.25,42.198]],[[69.243,41.219],[69.275,41.25],[69.326,41.284],[69.364,41.298],[69.354,41.307],[69.361,41.316],[69.35,41.327],[69.337,41.334],[69.352,41.354],[69.348,41.37],[69.311,41.388],[69.281,41.391],[69.257,41.404],[69.223,41.403],[69.17,41.363],[69.162,41.331],[69.136,41.283],[69.139,41.281],[69.156,41.288],[69.158,41.276],[69.165,41.265],[69.19,41.243],[69.206,41.256],[69.207,41.252],[69.201,41.242],[69.213,41.225],[69.243,41.219]]]}},{"type":"Feature","id":"UZ-XO","properties":{"id":"UZ-XO","countryCode":"UZ","isoSubdivision":"UZ-XO","name":"Xorazm","name_en":"Xorazm","name_ko":"호레즘","type":"Region","labelLongitude":61.248,"labelLatitude":41.249,"minZoom":6.6},"geometry":{"type":"Polygon","coordinates":[[[60.225,41.765],[60.241,41.767],[60.253,41.78],[60.251,41.794],[60.241,41.808],[60.229,41.82],[60.215,41.829],[60.168,41.85],[60.153,41.861],[60.141,41.874],[60.153,41.884],[60.165,41.906],[60.163,41.917],[60.151,41.934],[60.149,41.939],[60.148,41.943],[60.151,41.948],[60.157,41.952],[60.173,41.954],[60.2,41.955],[60.221,41.962],[60.272,41.988],[60.291,42.001],[60.297,42.003],[60.313,42.006],[60.334,41.993],[60.345,41.989],[60.395,41.979],[60.445,41.975],[60.459,41.967],[60.462,41.946],[60.462,41.901],[60.47,41.885],[60.497,41.854],[60.508,41.828],[60.536,41.791],[60.55,41.777],[60.567,41.769],[60.588,41.765],[60.636,41.764],[60.652,41.757],[60.663,41.74],[60.68,41.702],[60.706,41.667],[60.738,41.64],[60.975,41.479],[61.001,41.475],[61.013,41.471],[61.025,41.465],[61.061,41.435],[61.092,41.414],[61.114,41.407],[61.172,41.398],[61.191,41.39],[61.244,41.346],[61.257,41.331],[61.269,41.302],[61.284,41.296],[61.29,41.293],[61.314,41.286],[61.34,41.288],[61.357,41.298],[61.397,41.356],[61.413,41.37],[61.428,41.379],[61.446,41.386],[61.466,41.39],[61.52,41.39],[61.711,41.355],[61.76,41.339],[61.805,41.319],[61.864,41.285],[62.034,41.143],[62.153,40.999],[62.158,40.996],[62.172,40.99],[62.187,40.986],[62.239,40.999],[62.403,40.86],[62.435,40.822],[62.447,40.788],[62.396,40.703],[62.187,40.506],[62.185,40.508],[62.177,40.531],[62.171,40.54],[62.134,40.578],[62.121,40.599],[62.1,40.66],[62.089,40.674],[62.056,40.702],[62.045,40.715],[62.037,40.736],[62.025,40.782],[61.994,40.866],[61.983,40.886],[61.99,40.893],[61.985,40.908],[61.983,40.978],[61.979,40.999],[61.971,41.015],[61.897,41.109],[61.878,41.125],[61.654,41.249],[61.567,41.278],[61.47,41.297],[61.433,41.3],[61.411,41.292],[61.397,41.271],[61.387,41.236],[61.363,41.225],[61.344,41.194],[61.316,41.17],[61.281,41.157],[61.243,41.156],[61.203,41.169],[61.1,41.224],[61.082,41.225],[61.023,41.217],[61.017,41.226],[61.014,41.235],[61.01,41.237],[61.004,41.23],[60.991,41.212],[60.985,41.207],[60.978,41.203],[60.93,41.24],[60.86,41.253],[60.659,41.244],[60.538,41.213],[60.478,41.212],[60.443,41.22],[60.415,41.235],[60.36,41.276],[60.3,41.31],[60.204,41.347],[60.094,41.39],[60.066,41.41],[60.059,41.434],[60.072,41.514],[60.08,41.531],[60.093,41.545],[60.11,41.557],[60.151,41.572],[60.165,41.585],[60.156,41.603],[60.089,41.674],[60.058,41.719],[60.049,41.753],[60.075,41.781],[60.102,41.795],[60.134,41.797],[60.171,41.788],[60.206,41.772],[60.225,41.765]]]}}]}
