{"type":"FeatureCollection","features":[{"type":"Feature","id":"VI-X01~","properties":{"id":"VI-X01~","countryCode":"VI","isoSubdivision":"VI-X01~","name":"Saint Croix","name_en":"Saint Croix","name_ko":"생 크루아","type":"Principal subdivision","labelLongitude":-64.78,"labelLatitude":17.735,"minZoom":11},"geometry":{"type":"Polygon","coordinates":[[[-64.559,17.752],[-64.585,17.749],[-64.607,17.742],[-64.649,17.724],[-64.671,17.717],[-64.876,17.689],[-64.895,17.683],[-64.888,17.7],[-64.887,17.714],[-64.888,17.755],[-64.885,17.768],[-64.876,17.776],[-64.839,17.765],[-64.817,17.774],[-64.795,17.788],[-64.772,17.793],[-64.769,17.79],[-64.731,17.765],[-64.71,17.758],[-64.699,17.753],[-64.69,17.745],[-64.667,17.763],[-64.631,17.77],[-64.592,17.768],[-64.559,17.758],[-64.559,17.752]]]}},{"type":"Feature","id":"VI-X02~","properties":{"id":"VI-X02~","countryCode":"VI","isoSubdivision":"VI-X02~","name":"Saint Thomas","name_en":"Saint Thomas","name_ko":"세인트 토마스","type":"Principal subdivision","labelLongitude":-64.926,"labelLatitude":18.354,"minZoom":11},"geometry":{"type":"Polygon","coordinates":[[[-64.872,18.315],[-64.879,18.304],[-64.91,18.316],[-64.922,18.323],[-64.931,18.34],[-64.935,18.33],[-64.945,18.337],[-64.966,18.333],[-64.982,18.336],[-64.994,18.348],[-65.025,18.339],[-65.041,18.354],[-65.012,18.369],[-64.987,18.375],[-64.95,18.374],[-64.935,18.363],[-64.926,18.366],[-64.942,18.378],[-64.95,18.387],[-64.929,18.38],[-64.891,18.36],[-64.855,18.34],[-64.84,18.317],[-64.851,18.316],[-64.86,18.319],[-64.872,18.315]]]}},{"type":"Feature","id":"VI-X03~","properties":{"id":"VI-X03~","countryCode":"VI","isoSubdivision":"VI-X03~","name":"Saint John","name_en":"Saint John","name_ko":"세인트존구","type":"Principal subdivision","labelLongitude":-64.746,"labelLatitude":18.342,"minZoom":11},"geometry":{"type":"Polygon","coordinates":[[[-64.701,18.343],[-64.708,18.34],[-64.697,18.327],[-64.704,18.303],[-64.736,18.32],[-64.786,18.315],[-64.801,18.328],[-64.786,18.35],[-64.77,18.357],[-64.752,18.362],[-64.756,18.369],[-64.747,18.374],[-64.714,18.365],[-64.697,18.362],[-64.682,18.356],[-64.665,18.347],[-64.66,18.337],[-64.674,18.334],[-64.701,18.343]]]}}]}
