{"type":"FeatureCollection","features":[{"type":"Feature","id":"WF-AL","properties":{"id":"WF-AL","countryCode":"WF","isoSubdivision":"WF-AL","name":"Alo","name_en":"Alo","name_ko":"알로","type":"Principal subdivision","labelLongitude":-178.094,"labelLatitude":-14.303,"minZoom":9},"geometry":{"type":"MultiPolygon","coordinates":[[[[-178.131,-14.256],[-178.108,-14.279],[-178.105,-14.285],[-178.092,-14.289],[-178.047,-14.313],[-178.047,-14.319],[-178.1,-14.316],[-178.109,-14.319],[-178.121,-14.314],[-178.127,-14.313],[-178.13,-14.302],[-178.137,-14.289],[-178.135,-14.274],[-178.131,-14.256]]],[[[-177.982,-14.344],[-177.977,-14.348],[-177.984,-14.354],[-178.003,-14.362],[-178.018,-14.372],[-178.024,-14.379],[-178.033,-14.379],[-178.059,-14.368],[-178.068,-14.361],[-178.066,-14.352],[-178.059,-14.346],[-178.026,-14.331],[-178.015,-14.333],[-178.003,-14.339],[-177.994,-14.34],[-177.99,-14.34],[-177.982,-14.344]]]]}},{"type":"Feature","id":"WF-SG","properties":{"id":"WF-SG","countryCode":"WF","isoSubdivision":"WF-SG","name":"Sigave","name_en":"Sigave","name_ko":"시가베","type":"Principal subdivision","labelLongitude":-178.161,"labelLatitude":-14.266,"minZoom":9},"geometry":{"type":"Polygon","coordinates":[[[-178.127,-14.313],[-178.147,-14.31],[-178.157,-14.305],[-178.175,-14.277],[-178.186,-14.248],[-178.178,-14.233],[-178.142,-14.244],[-178.131,-14.256],[-178.135,-14.274],[-178.137,-14.289],[-178.13,-14.302],[-178.127,-14.313]]]}},{"type":"Feature","id":"WF-UV","properties":{"id":"WF-UV","countryCode":"WF","isoSubdivision":"WF-UV","name":"Uvea","name_en":"Uvea","name_ko":"우베아","type":"Principal subdivision","labelLongitude":-176.169,"labelLatitude":-13.277,"minZoom":9},"geometry":{"type":"Polygon","coordinates":[[[-176.155,-13.209],[-176.143,-13.231],[-176.131,-13.248],[-176.126,-13.264],[-176.136,-13.285],[-176.132,-13.289],[-176.131,-13.291],[-176.128,-13.298],[-176.144,-13.301],[-176.148,-13.31],[-176.142,-13.336],[-176.147,-13.348],[-176.159,-13.35],[-176.173,-13.346],[-176.183,-13.339],[-176.184,-13.324],[-176.195,-13.307],[-176.2,-13.291],[-176.183,-13.278],[-176.19,-13.257],[-176.184,-13.238],[-176.17,-13.221],[-176.155,-13.209]]]}}]}
