{"type":"FeatureCollection","features":[{"type":"Feature","id":"WS-AA","properties":{"id":"WS-AA","countryCode":"WS","isoSubdivision":"WS-AA","name":"A'ana","name_en":"A'ana","name_ko":"아아나 구","type":"Principal subdivision","labelLongitude":-171.919,"labelLatitude":-13.9,"minZoom":9},"geometry":{"type":"MultiPolygon","coordinates":[[[[-171.993,-13.828],[-171.965,-13.819],[-171.88,-13.805],[-171.858,-13.806],[-171.853,-13.873],[-171.844,-13.907],[-171.848,-13.944],[-171.872,-13.942],[-171.876,-14.005],[-171.894,-14.007],[-171.911,-14.006],[-171.927,-14.001],[-171.941,-13.99],[-171.962,-13.958],[-171.972,-13.946],[-171.982,-13.949],[-171.989,-13.949],[-172.006,-13.925],[-172.018,-13.918],[-172.041,-13.915],[-171.972,-13.873],[-171.993,-13.828]]],[[[-172.056,-13.862],[-172.044,-13.846],[-172.028,-13.841],[-172.018,-13.864],[-172.032,-13.871],[-172.056,-13.862]]]]}},{"type":"Feature","id":"WS-AL","properties":{"id":"WS-AL","countryCode":"WS","isoSubdivision":"WS-AL","name":"Aiga-i-le-Tai","name_en":"Aiga-i-le-Tai","name_ko":"아이가이레타이 구","type":"Principal subdivision","labelLongitude":-172.039,"labelLatitude":-13.89,"minZoom":9},"geometry":{"type":"Polygon","coordinates":[[[-172.028,-13.841],[-171.993,-13.828],[-171.972,-13.873],[-172.041,-13.915],[-172.061,-13.906],[-172.064,-13.885],[-172.056,-13.862],[-172.032,-13.871],[-172.018,-13.864],[-172.028,-13.841]]]}},{"type":"Feature","id":"WS-AT","properties":{"id":"WS-AT","countryCode":"WS","isoSubdivision":"WS-AT","name":"Atua","name_en":"Atua","name_ko":"아투아 구","type":"Principal subdivision","labelLongitude":-171.592,"labelLatitude":-14.021,"minZoom":9},"geometry":{"type":"Polygon","coordinates":[[[-171.568,-13.897],[-171.557,-13.915],[-171.559,-13.925],[-171.585,-13.928],[-171.592,-13.969],[-171.558,-13.983],[-171.519,-13.976],[-171.485,-13.992],[-171.469,-13.969],[-171.438,-14.006],[-171.448,-14.038],[-171.445,-14.041],[-171.441,-14.052],[-171.466,-14.053],[-171.537,-14.046],[-171.579,-14.049],[-171.599,-14.048],[-171.619,-14.038],[-171.636,-14.046],[-171.652,-14.045],[-171.666,-13.93],[-171.65,-13.871],[-171.607,-13.876],[-171.585,-13.884],[-171.599,-13.907],[-171.588,-13.91],[-171.568,-13.897]]]}},{"type":"Feature","id":"WS-FA","properties":{"id":"WS-FA","countryCode":"WS","isoSubdivision":"WS-FA","name":"Fa'asaleleaga","name_en":"Fa'asaleleaga","name_ko":"파아살렐레아가 구","type":"Principal subdivision","labelLongitude":-172.243,"labelLatitude":-13.652,"minZoom":9},"geometry":{"type":"Polygon","coordinates":[[[-172.223,-13.558],[-172.222,-13.563],[-172.224,-13.574],[-172.223,-13.578],[-172.218,-13.583],[-172.205,-13.588],[-172.201,-13.593],[-172.198,-13.603],[-172.196,-13.614],[-172.195,-13.637],[-172.19,-13.656],[-172.181,-13.668],[-172.176,-13.68],[-172.181,-13.702],[-172.191,-13.718],[-172.202,-13.73],[-172.211,-13.745],[-172.215,-13.768],[-172.212,-13.791],[-172.213,-13.801],[-172.235,-13.772],[-172.254,-13.756],[-172.311,-13.64],[-172.297,-13.562],[-172.223,-13.558]]]}},{"type":"Feature","id":"WS-GE","properties":{"id":"WS-GE","countryCode":"WS","isoSubdivision":"WS-GE","name":"Gaga'emauga","name_en":"Gaga'emauga","name_ko":"가가에마우가 구","type":"Principal subdivision","labelLongitude":-171.861,"labelLatitude":-13.966,"minZoom":9},"geometry":{"type":"MultiPolygon","coordinates":[[[[-172.366,-13.463],[-172.344,-13.463],[-172.322,-13.467],[-172.301,-13.476],[-172.281,-13.494],[-172.223,-13.558],[-172.297,-13.562],[-172.311,-13.64],[-172.347,-13.639],[-172.391,-13.637],[-172.414,-13.637],[-172.366,-13.463]]],[[[-171.815,-13.812],[-171.792,-13.817],[-171.791,-13.871],[-171.812,-13.866],[-171.815,-13.812]]],[[[-171.854,-14.002],[-171.876,-14.005],[-171.872,-13.942],[-171.848,-13.944],[-171.854,-14.002]]]]}},{"type":"Feature","id":"WS-GI","properties":{"id":"WS-GI","countryCode":"WS","isoSubdivision":"WS-GI","name":"Gaga'ifomauga","name_en":"Gaga'ifomauga","name_ko":"가가이포마우가 구","type":"Principal subdivision","labelLongitude":-172.467,"labelLatitude":-13.546,"minZoom":9},"geometry":{"type":"Polygon","coordinates":[[[-172.639,-13.522],[-172.615,-13.509],[-172.604,-13.506],[-172.582,-13.504],[-172.569,-13.501],[-172.542,-13.488],[-172.531,-13.484],[-172.452,-13.484],[-172.431,-13.481],[-172.389,-13.467],[-172.366,-13.463],[-172.414,-13.637],[-172.579,-13.633],[-172.632,-13.6],[-172.639,-13.522]]]}},{"type":"Feature","id":"WS-PA","properties":{"id":"WS-PA","countryCode":"WS","isoSubdivision":"WS-PA","name":"Palauli","name_en":"Palauli","name_ko":"팔라울리 구","type":"Principal subdivision","labelLongitude":-172.454,"labelLatitude":-13.719,"minZoom":9},"geometry":{"type":"MultiPolygon","coordinates":[[[[-172.354,-13.784],[-172.369,-13.789],[-172.523,-13.805],[-172.533,-13.799],[-172.543,-13.785],[-172.551,-13.778],[-172.567,-13.769],[-172.575,-13.763],[-172.578,-13.754],[-172.581,-13.745],[-172.59,-13.725],[-172.592,-13.713],[-172.597,-13.701],[-172.609,-13.693],[-172.579,-13.633],[-172.414,-13.637],[-172.391,-13.637],[-172.354,-13.784]]],[[[-172.213,-13.801],[-172.219,-13.805],[-172.243,-13.805],[-172.253,-13.803],[-172.264,-13.798],[-172.28,-13.785],[-172.288,-13.775],[-172.298,-13.77],[-172.318,-13.771],[-172.347,-13.639],[-172.311,-13.64],[-172.254,-13.756],[-172.235,-13.772],[-172.213,-13.801]]]]}},{"type":"Feature","id":"WS-SA","properties":{"id":"WS-SA","countryCode":"WS","isoSubdivision":"WS-SA","name":"Satupa'itea","name_en":"Satupa'itea","name_ko":"사투파이테아 구","type":"Principal subdivision","labelLongitude":-172.635,"labelLatitude":-13.636,"minZoom":9},"geometry":{"type":"MultiPolygon","coordinates":[[[[-172.609,-13.693],[-172.623,-13.688],[-172.633,-13.682],[-172.655,-13.649],[-172.667,-13.634],[-172.693,-13.624],[-172.703,-13.617],[-172.657,-13.585],[-172.632,-13.6],[-172.579,-13.633],[-172.609,-13.693]]],[[[-172.318,-13.771],[-172.354,-13.784],[-172.391,-13.637],[-172.347,-13.639],[-172.318,-13.771]]]]}},{"type":"Feature","id":"WS-TU","properties":{"id":"WS-TU","countryCode":"WS","isoSubdivision":"WS-TU","name":"Tuamasaga","name_en":"Tuamasaga","name_ko":"투아마사가 구","type":"Principal subdivision","labelLongitude":-171.752,"labelLatitude":-13.941,"minZoom":9},"geometry":{"type":"Polygon","coordinates":[[[-171.792,-13.817],[-171.65,-13.871],[-171.666,-13.93],[-171.652,-14.045],[-171.684,-14.038],[-171.7,-14.039],[-171.743,-14.052],[-171.753,-14.052],[-171.762,-14.049],[-171.768,-14.043],[-171.77,-14.035],[-171.775,-14.026],[-171.784,-14.022],[-171.804,-14.018],[-171.822,-14.008],[-171.838,-14.003],[-171.854,-14.002],[-171.848,-13.944],[-171.844,-13.907],[-171.853,-13.873],[-171.858,-13.806],[-171.835,-13.807],[-171.815,-13.812],[-171.812,-13.866],[-171.791,-13.871],[-171.792,-13.817]]]}},{"type":"Feature","id":"WS-VF","properties":{"id":"WS-VF","countryCode":"WS","isoSubdivision":"WS-VF","name":"Va'a-o-Fonoti","name_en":"Va'a-o-Fonoti","name_ko":"바아오포노티 구","type":"Principal subdivision","labelLongitude":-171.549,"labelLatitude":-13.963,"minZoom":9},"geometry":{"type":"MultiPolygon","coordinates":[[[[-171.585,-13.884],[-171.568,-13.897],[-171.588,-13.91],[-171.599,-13.907],[-171.585,-13.884]]],[[[-171.559,-13.925],[-171.566,-13.931],[-171.57,-13.938],[-171.564,-13.949],[-171.519,-13.945],[-171.469,-13.969],[-171.485,-13.992],[-171.519,-13.976],[-171.558,-13.983],[-171.592,-13.969],[-171.585,-13.928],[-171.559,-13.925]]]]}},{"type":"Feature","id":"WS-VS","properties":{"id":"WS-VS","countryCode":"WS","isoSubdivision":"WS-VS","name":"Vaisigano","name_en":"Vaisigano","name_ko":"바이시가노 구","type":"Principal subdivision","labelLongitude":-172.701,"labelLatitude":-13.556,"minZoom":9},"geometry":{"type":"Polygon","coordinates":[[[-172.703,-13.617],[-172.719,-13.603],[-172.722,-13.598],[-172.723,-13.587],[-172.726,-13.582],[-172.731,-13.579],[-172.744,-13.58],[-172.75,-13.578],[-172.761,-13.565],[-172.776,-13.542],[-172.783,-13.52],[-172.767,-13.511],[-172.732,-13.511],[-172.695,-13.524],[-172.661,-13.525],[-172.639,-13.522],[-172.632,-13.6],[-172.657,-13.585],[-172.703,-13.617]]]}}]}
