{"type":"FeatureCollection","features":[{"type":"Feature","id":"YE-AB","properties":{"id":"YE-AB","countryCode":"YE","isoSubdivision":"YE-AB","name":"Abyan","name_en":"Abyan","name_ko":"아브얀","type":"Governorate","labelLongitude":46.212,"labelLatitude":13.827,"minZoom":8.7},"geometry":{"type":"Polygon","coordinates":[[[47.324,13.633],[47.167,13.586],[46.912,13.533],[46.824,13.476],[46.701,13.43],[46.684,13.427],[46.664,13.43],[46.628,13.441],[46.605,13.441],[46.584,13.435],[46.54,13.417],[46.52,13.413],[46.313,13.414],[46.27,13.42],[46.248,13.432],[46.235,13.436],[46.229,13.431],[46.224,13.429],[46.198,13.42],[46.111,13.407],[45.941,13.399],[45.923,13.395],[45.89,13.382],[45.876,13.379],[45.834,13.381],[45.815,13.38],[45.803,13.372],[45.666,13.342],[45.632,13.325],[45.536,13.229],[45.508,13.209],[45.494,13.195],[45.481,13.158],[45.434,13.098],[45.403,13.07],[45.365,13.054],[45.194,13.013],[45.154,12.992],[45.118,12.962],[45.105,12.945],[45.099,12.936],[45.131,13.163],[45.197,13.34],[45.245,13.374],[45.254,13.395],[45.252,13.407],[45.24,13.419],[45.226,13.428],[45.211,13.444],[45.208,13.472],[45.211,13.512],[45.238,13.553],[45.294,13.614],[45.304,13.628],[45.298,13.637],[45.281,13.644],[45.231,13.647],[45.216,13.654],[45.216,13.667],[45.254,13.69],[45.273,13.705],[45.275,13.719],[45.275,13.736],[45.272,13.752],[45.279,13.768],[45.292,13.779],[45.328,13.788],[45.344,13.795],[45.358,13.804],[45.36,13.819],[45.357,13.839],[45.361,13.871],[45.368,13.887],[45.405,13.897],[45.417,13.891],[45.555,13.878],[45.586,13.868],[45.602,13.84],[45.637,13.823],[45.657,13.823],[45.678,13.825],[45.706,13.831],[45.737,13.844],[45.778,13.868],[45.949,13.991],[45.986,14.024],[46.002,14.071],[46.029,14.108],[46.044,14.192],[46.135,14.2],[46.18,14.214],[46.218,14.232],[46.248,14.254],[46.336,14.285],[46.367,14.3],[46.397,14.302],[46.42,14.275],[46.434,14.238],[46.469,14.176],[46.475,14.149],[46.492,14.125],[46.608,14.144],[46.688,14.177],[46.789,14.204],[46.865,14.214],[46.936,14.205],[47.001,14.182],[47.068,14.168],[47.206,14.161],[47.242,14.138],[47.256,14.096],[47.254,14.051],[47.259,14.018],[47.246,13.994],[47.233,13.975],[47.223,13.952],[47.275,13.845],[47.306,13.748],[47.308,13.709],[47.315,13.684],[47.324,13.633]]]}},{"type":"Feature","id":"YE-AD","properties":{"id":"YE-AD","countryCode":"YE","isoSubdivision":"YE-AD","name":"'Adan","name_en":"'Adan","name_ko":"아덴","type":"Governorate","labelLongitude":44.754,"labelLatitude":12.809,"minZoom":8.7},"geometry":{"type":"Polygon","coordinates":[[[45.093,12.925],[45.087,12.907],[45.084,12.889],[45.082,12.887],[45.059,12.827],[45.057,12.817],[45.062,12.777],[45.059,12.762],[45.039,12.756],[45.018,12.76],[44.995,12.769],[44.979,12.782],[44.981,12.797],[44.997,12.803],[45.018,12.802],[45.035,12.804],[45.042,12.821],[45.039,12.821],[45.023,12.841],[45.022,12.845],[45.02,12.849],[45.021,12.853],[45.021,12.857],[45.015,12.859],[45.009,12.857],[45.008,12.852],[45.009,12.848],[45.008,12.845],[45.001,12.833],[44.998,12.831],[44.993,12.832],[44.984,12.837],[44.978,12.838],[44.955,12.837],[44.945,12.834],[44.94,12.828],[44.933,12.813],[44.917,12.799],[44.898,12.796],[44.885,12.811],[44.872,12.804],[44.867,12.795],[44.872,12.77],[44.879,12.776],[44.885,12.778],[44.916,12.775],[44.921,12.771],[44.919,12.759],[44.913,12.748],[44.898,12.737],[44.881,12.73],[44.868,12.732],[44.84,12.743],[44.831,12.749],[44.825,12.757],[44.825,12.762],[44.823,12.765],[44.81,12.77],[44.785,12.772],[44.765,12.766],[44.728,12.742],[44.727,12.747],[44.723,12.752],[44.721,12.756],[44.726,12.767],[44.719,12.78],[44.707,12.794],[44.694,12.803],[44.652,12.818],[44.611,12.82],[44.573,12.812],[44.543,12.797],[44.49,12.753],[44.433,12.694],[44.431,12.688],[44.424,12.676],[44.416,12.67],[44.415,12.673],[44.415,12.674],[44.484,12.778],[44.528,12.804],[44.619,12.836],[44.826,12.871],[45.009,12.918],[45.093,12.925]]]}},{"type":"Feature","id":"YE-AM","properties":{"id":"YE-AM","countryCode":"YE","isoSubdivision":"YE-AM","name":"'Amran","name_en":"'Amran","name_ko":"암란","type":"Governorate","labelLongitude":44.011,"labelLatitude":16.094,"minZoom":8.7},"geometry":{"type":"Polygon","coordinates":[[[43.818,16.679],[43.857,16.679],[43.928,16.661],[44.03,16.621],[44.075,16.612],[44.118,16.611],[44.189,16.631],[44.24,16.598],[44.256,16.591],[44.314,16.549],[44.329,16.534],[44.335,16.518],[44.329,16.503],[44.32,16.491],[44.32,16.473],[44.335,16.445],[44.343,16.408],[44.352,16.382],[44.366,16.357],[44.369,16.335],[44.367,16.315],[44.362,16.297],[44.367,16.285],[44.373,16.275],[44.375,16.26],[44.352,16.195],[44.362,16.168],[44.364,16.137],[44.369,16.111],[44.401,16.056],[44.426,16.028],[44.371,16.025],[44.313,16.003],[44.255,15.974],[44.244,15.951],[44.236,15.925],[44.24,15.87],[44.246,15.842],[44.254,15.823],[44.253,15.801],[44.248,15.783],[44.226,15.755],[44.198,15.733],[44.18,15.708],[44.178,15.662],[44.167,15.621],[44.106,15.575],[44.079,15.56],[44.046,15.556],[44.008,15.559],[43.994,15.546],[43.995,15.53],[43.984,15.505],[43.921,15.533],[43.904,15.544],[43.895,15.556],[43.881,15.561],[43.863,15.564],[43.843,15.551],[43.799,15.533],[43.747,15.535],[43.729,15.528],[43.705,15.526],[43.725,15.564],[43.727,15.577],[43.713,15.601],[43.713,15.614],[43.717,15.628],[43.722,15.638],[43.73,15.647],[43.744,15.655],[43.76,15.656],[43.778,15.652],[43.794,15.655],[43.804,15.667],[43.811,15.694],[43.817,15.731],[43.81,15.74],[43.792,15.754],[43.79,15.774],[43.785,15.798],[43.787,15.834],[43.792,15.853],[43.785,15.893],[43.775,15.931],[43.75,15.97],[43.738,15.98],[43.728,15.986],[43.718,15.982],[43.68,15.939],[43.668,15.937],[43.657,15.948],[43.66,15.958],[43.666,15.969],[43.676,15.977],[43.689,15.987],[43.698,15.998],[43.699,16.012],[43.66,16.089],[43.659,16.112],[43.655,16.136],[43.656,16.166],[43.645,16.184],[43.615,16.203],[43.609,16.214],[43.609,16.229],[43.606,16.243],[43.606,16.261],[43.607,16.283],[43.61,16.299],[43.596,16.436],[43.6,16.609],[43.73,16.639],[43.749,16.646],[43.777,16.661],[43.792,16.671],[43.818,16.679]]]}},{"type":"Feature","id":"YE-BA","properties":{"id":"YE-BA","countryCode":"YE","isoSubdivision":"YE-BA","name":"Al Bayda'","name_en":"Al Bayda'","name_ko":"바이다","type":"Governorate","labelLongitude":45.337,"labelLatitude":14.29,"minZoom":8.7},"geometry":{"type":"Polygon","coordinates":[[[45.006,14.814],[45.059,14.804],[45.086,14.79],[45.107,14.768],[45.111,14.741],[45.112,14.711],[45.121,14.66],[45.129,14.627],[45.131,14.594],[45.14,14.571],[45.143,14.55],[45.151,14.528],[45.164,14.509],[45.183,14.498],[45.215,14.498],[45.254,14.525],[45.265,14.539],[45.282,14.544],[45.324,14.535],[45.33,14.546],[45.326,14.556],[45.335,14.566],[45.354,14.568],[45.382,14.578],[45.415,14.594],[45.45,14.597],[45.476,14.589],[45.499,14.586],[45.515,14.592],[45.515,14.61],[45.497,14.64],[45.498,14.655],[45.507,14.666],[45.517,14.664],[45.523,14.657],[45.53,14.646],[45.54,14.641],[45.554,14.648],[45.562,14.656],[45.569,14.689],[45.681,14.689],[45.704,14.678],[45.722,14.663],[45.717,14.645],[45.704,14.624],[45.697,14.604],[45.696,14.58],[45.715,14.564],[45.758,14.555],[45.781,14.537],[45.837,14.389],[45.859,14.355],[45.894,14.332],[45.94,14.324],[45.982,14.307],[46.002,14.294],[46.005,14.283],[46.004,14.271],[46.008,14.259],[46.009,14.246],[46.018,14.229],[46.022,14.212],[46.044,14.192],[46.029,14.108],[46.002,14.071],[45.986,14.024],[45.949,13.991],[45.778,13.868],[45.737,13.844],[45.706,13.831],[45.678,13.825],[45.657,13.823],[45.637,13.823],[45.602,13.84],[45.586,13.868],[45.555,13.878],[45.417,13.891],[45.405,13.897],[45.412,13.973],[45.399,14.023],[45.384,14.032],[45.361,14.029],[45.309,13.996],[45.287,13.977],[45.255,13.961],[45.239,13.964],[45.18,13.964],[45.18,13.991],[45.174,14.015],[45.149,14.046],[45.075,14.114],[45.047,14.148],[45.03,14.177],[45.007,14.205],[44.975,14.217],[44.933,14.218],[44.907,14.222],[44.885,14.214],[44.868,14.211],[44.855,14.201],[44.838,14.194],[44.811,14.194],[44.781,14.189],[44.762,14.178],[44.718,14.162],[44.683,14.183],[44.672,14.186],[44.663,14.2],[44.663,14.257],[44.63,14.277],[44.654,14.33],[44.69,14.348],[44.724,14.38],[44.749,14.428],[44.768,14.569],[44.793,14.667],[44.869,14.756],[44.922,14.764],[44.964,14.78],[45.006,14.814]]]}},{"type":"Feature","id":"YE-DA","properties":{"id":"YE-DA","countryCode":"YE","isoSubdivision":"YE-DA","name":"Ad Dali'","name_en":"Ad Dali'","name_ko":"달리","type":"Governorate","labelLongitude":44.794,"labelLatitude":13.897,"minZoom":8.7},"geometry":{"type":"Polygon","coordinates":[[[44.907,14.222],[44.933,14.218],[44.975,14.217],[45.007,14.205],[45.03,14.177],[45.047,14.148],[45.075,14.114],[45.149,14.046],[45.174,14.015],[45.18,13.991],[45.18,13.964],[45.119,13.83],[45.083,13.797],[45.041,13.778],[44.997,13.748],[44.914,13.716],[44.882,13.713],[44.858,13.708],[44.855,13.635],[44.859,13.611],[44.853,13.591],[44.831,13.588],[44.791,13.603],[44.776,13.592],[44.759,13.574],[44.69,13.545],[44.655,13.522],[44.628,13.517],[44.587,13.547],[44.573,13.563],[44.533,13.577],[44.531,13.597],[44.525,13.61],[44.494,13.625],[44.473,13.627],[44.45,13.622],[44.429,13.627],[44.414,13.643],[44.415,13.664],[44.424,13.687],[44.428,13.711],[44.425,13.734],[44.407,13.761],[44.413,13.786],[44.411,13.793],[44.419,13.811],[44.435,13.821],[44.45,13.861],[44.462,13.869],[44.474,13.868],[44.484,13.873],[44.486,13.884],[44.491,13.902],[44.494,13.92],[44.51,13.946],[44.535,13.962],[44.56,13.972],[44.584,13.977],[44.604,13.977],[44.622,13.981],[44.632,13.999],[44.614,14.016],[44.608,14.037],[44.615,14.058],[44.631,14.074],[44.642,14.096],[44.642,14.109],[44.652,14.117],[44.672,14.119],[44.692,14.119],[44.707,14.13],[44.718,14.162],[44.762,14.178],[44.781,14.189],[44.811,14.194],[44.838,14.194],[44.855,14.201],[44.868,14.211],[44.885,14.214],[44.907,14.222]]]}},{"type":"Feature","id":"YE-DH","properties":{"id":"YE-DH","countryCode":"YE","isoSubdivision":"YE-DH","name":"Dhamar","name_en":"Dhamar","name_ko":"다마르","type":"Governorate","labelLongitude":44.2,"labelLatitude":14.681,"minZoom":8.7},"geometry":{"type":"Polygon","coordinates":[[[43.726,14.076],[43.706,14.084],[43.65,14.117],[43.619,14.127],[43.596,14.141],[43.579,14.156],[43.566,14.189],[43.565,14.223],[43.532,14.36],[43.539,14.373],[43.558,14.374],[43.582,14.375],[43.599,14.377],[43.659,14.409],[43.693,14.438],[43.703,14.451],[43.721,14.458],[43.751,14.459],[43.773,14.452],[43.788,14.45],[43.802,14.453],[43.813,14.454],[43.83,14.458],[43.845,14.469],[43.908,14.506],[43.925,14.523],[43.943,14.536],[43.973,14.574],[43.981,14.599],[43.972,14.617],[43.956,14.638],[43.945,14.665],[43.925,14.695],[43.86,14.767],[43.837,14.798],[43.825,14.832],[43.824,14.85],[43.838,14.863],[43.886,14.859],[43.925,14.862],[43.947,14.869],[43.981,14.899],[44,14.91],[44.02,14.923],[44.043,14.935],[44.097,14.974],[44.133,14.986],[44.164,14.992],[44.192,14.993],[44.21,14.981],[44.237,14.971],[44.257,14.95],[44.281,14.931],[44.356,14.915],[44.387,14.924],[44.4,14.943],[44.406,14.962],[44.415,14.977],[44.439,14.974],[44.457,14.952],[44.483,14.936],[44.509,14.933],[44.551,14.948],[44.571,14.959],[44.594,14.986],[44.611,15.012],[44.635,15.026],[44.656,15.029],[44.683,15.026],[44.707,15.029],[44.732,15.027],[44.755,15.012],[44.784,14.972],[44.799,14.904],[44.817,14.868],[44.857,14.813],[44.868,14.79],[44.869,14.756],[44.793,14.667],[44.768,14.569],[44.749,14.428],[44.724,14.38],[44.69,14.348],[44.654,14.33],[44.63,14.277],[44.61,14.268],[44.598,14.273],[44.58,14.281],[44.523,14.3],[44.477,14.329],[44.454,14.339],[44.425,14.347],[44.403,14.361],[44.353,14.374],[44.331,14.385],[44.312,14.403],[44.269,14.438],[44.253,14.444],[44.241,14.441],[44.23,14.424],[44.228,14.41],[44.22,14.393],[44.209,14.377],[44.163,14.359],[44.138,14.365],[44.13,14.379],[44.116,14.431],[44.102,14.434],[44.083,14.425],[44.059,14.4],[44.032,14.379],[44.009,14.351],[43.999,14.352],[43.986,14.352],[43.97,14.345],[43.963,14.335],[43.963,14.318],[43.971,14.302],[43.974,14.279],[43.973,14.257],[43.946,14.208],[43.922,14.197],[43.896,14.191],[43.88,14.198],[43.875,14.216],[43.879,14.237],[43.874,14.247],[43.866,14.246],[43.859,14.23],[43.843,14.208],[43.826,14.165],[43.813,14.146],[43.798,14.114],[43.782,14.108],[43.769,14.098],[43.754,14.09],[43.741,14.078],[43.726,14.076]]]}},{"type":"Feature","id":"YE-HD","properties":{"id":"YE-HD","countryCode":"YE","isoSubdivision":"YE-HD","name":"Hadhramaut","name_en":"Hadhramaut","name_ko":"하드라마우트","type":"Governorate","labelLongitude":48.913,"labelLatitude":16.378,"minZoom":8.7},"geometry":{"type":"MultiPolygon","coordinates":[[[[51.979,18.996],[51.986,18.98],[51.712,18.596],[51.541,18.184],[51.479,17.884],[51.385,17.6],[51.262,17.338],[51.132,17.153],[50.73,16.835],[50.653,16.747],[50.572,16.695],[50.397,16.624],[50.355,16.599],[50.33,16.58],[50.31,16.554],[50.292,16.515],[50.294,16.493],[50.305,16.471],[50.313,16.435],[50.235,16.146],[50.233,16.108],[50.249,16.089],[50.263,16.075],[50.285,16.063],[50.296,16.036],[50.302,16.002],[50.264,15.9],[50.247,15.871],[50.23,15.853],[50.222,15.818],[50.222,15.793],[50.211,15.765],[50.213,15.738],[50.217,15.714],[50.218,15.695],[50.208,15.675],[50.201,15.649],[50.192,15.609],[50.201,15.575],[50.219,15.553],[50.25,15.543],[50.279,15.54],[50.321,15.529],[50.33,15.519],[50.336,15.5],[50.332,15.459],[50.321,15.444],[50.305,15.431],[50.287,15.4],[50.271,15.381],[50.259,15.364],[50.257,15.347],[50.257,15.328],[50.264,15.311],[50.279,15.294],[50.341,15.274],[50.392,15.272],[50.469,15.279],[50.494,15.285],[50.517,15.294],[50.584,15.297],[50.651,15.28],[50.706,15.272],[50.728,15.261],[50.747,15.236],[50.756,15.217],[50.767,15.198],[50.774,15.172],[50.785,15.154],[50.792,15.137],[50.801,15.122],[50.802,15.104],[50.805,15.097],[50.661,15.058],[50.554,15.049],[50.459,15.01],[50.432,14.995],[50.358,14.933],[50.343,14.925],[50.302,14.917],[50.244,14.887],[50.18,14.843],[50.165,14.842],[50.146,14.85],[50.121,14.844],[50.079,14.826],[50.06,14.82],[50.052,14.819],[50.042,14.818],[50.036,14.839],[50.03,14.85],[50.021,14.849],[50.006,14.844],[49.942,14.839],[49.799,14.792],[49.578,14.737],[49.46,14.674],[49.418,14.657],[49.372,14.65],[49.352,14.64],[49.313,14.613],[49.229,14.575],[49.19,14.549],[49.182,14.517],[49.172,14.518],[49.157,14.526],[49.137,14.533],[49.114,14.53],[49.093,14.52],[49.078,14.506],[49.028,14.436],[49.01,14.401],[49,14.36],[49.008,14.354],[49.009,14.343],[49.006,14.331],[49.004,14.325],[48.992,14.317],[48.951,14.301],[48.942,14.294],[48.936,14.27],[48.922,14.262],[48.903,14.258],[48.887,14.25],[48.882,14.243],[48.88,14.235],[48.88,14.212],[48.877,14.207],[48.87,14.201],[48.863,14.195],[48.853,14.167],[48.835,14.156],[48.798,14.14],[48.738,14.068],[48.719,14.057],[48.714,14.055],[48.702,14.047],[48.696,14.044],[48.689,14.042],[48.681,14.044],[48.672,14.044],[48.672,14.052],[48.67,14.065],[48.662,14.085],[48.634,14.134],[48.628,14.15],[48.626,14.167],[48.617,14.187],[48.602,14.208],[48.58,14.233],[48.489,14.275],[48.404,14.296],[48.327,14.294],[48.26,14.3],[48.187,14.335],[48.137,14.384],[48.123,14.411],[48.099,14.442],[48.089,14.473],[48.069,14.513],[48.049,14.535],[48.024,14.549],[47.999,14.558],[47.925,14.56],[47.822,14.574],[47.745,14.601],[47.668,14.65],[47.597,14.718],[47.486,14.794],[47.478,14.819],[47.502,14.847],[47.664,14.981],[47.679,15.01],[47.679,15.04],[47.637,15.094],[47.613,15.119],[47.612,15.144],[47.615,15.171],[47.644,15.257],[47.644,15.281],[47.655,15.316],[47.678,15.365],[47.722,15.415],[47.852,15.613],[47.84,15.645],[47.749,15.675],[46.34,15.571],[46.833,16.15],[47.039,16.345],[46.997,16.949],[47.129,16.943],[47.161,16.947],[47.191,16.959],[47.314,17.028],[47.428,17.092],[47.429,17.093],[47.458,17.131],[47.525,17.308],[47.572,17.432],[47.589,17.463],[47.686,17.58],[47.836,17.758],[47.994,17.948],[48.084,18.056],[48.162,18.149],[48.184,18.164],[48.313,18.227],[48.484,18.31],[48.676,18.404],[48.848,18.488],[48.991,18.558],[49.036,18.58],[49.129,18.612],[49.258,18.63],[49.418,18.651],[49.578,18.673],[49.738,18.694],[49.899,18.716],[50.059,18.737],[50.219,18.759],[50.379,18.78],[50.539,18.802],[50.699,18.824],[50.86,18.845],[51.02,18.867],[51.18,18.888],[51.34,18.91],[51.5,18.931],[51.66,18.953],[51.821,18.974],[51.979,18.996]]],[[[53.248,12.121],[53.268,12.129],[53.287,12.127],[53.298,12.122],[53.308,12.118],[53.31,12.111],[53.277,12.114],[53.263,12.115],[53.248,12.121]]],[[[53.053,12.175],[53.068,12.175],[53.083,12.165],[53.087,12.149],[53.086,12.134],[53.072,12.13],[53.057,12.128],[53.027,12.14],[53.007,12.157],[52.985,12.163],[52.989,12.172],[53.004,12.177],[53.017,12.176],[53.027,12.18],[53.039,12.18],[53.053,12.175]]],[[[52.289,12.201],[52.319,12.188],[52.375,12.201],[52.389,12.197],[52.39,12.197],[52.395,12.187],[52.381,12.183],[52.371,12.172],[52.379,12.166],[52.388,12.149],[52.36,12.154],[52.348,12.151],[52.331,12.146],[52.285,12.154],[52.24,12.157],[52.235,12.165],[52.224,12.18],[52.218,12.181],[52.212,12.181],[52.191,12.175],[52.18,12.173],[52.176,12.176],[52.165,12.193],[52.162,12.197],[52.157,12.196],[52.137,12.205],[52.124,12.202],[52.112,12.199],[52.106,12.204],[52.102,12.207],[52.068,12.222],[52.064,12.235],[52.079,12.24],[52.094,12.242],[52.118,12.242],[52.148,12.235],[52.179,12.214],[52.2,12.206],[52.217,12.207],[52.246,12.202],[52.289,12.201]]],[[[54.471,12.544],[54.497,12.547],[54.516,12.558],[54.527,12.557],[54.54,12.55],[54.528,12.537],[54.498,12.529],[54.477,12.523],[54.457,12.519],[54.447,12.511],[54.445,12.485],[54.402,12.467],[54.369,12.46],[54.328,12.443],[54.283,12.447],[54.246,12.434],[54.237,12.425],[54.219,12.399],[54.21,12.394],[54.184,12.383],[54.155,12.36],[54.14,12.351],[54.111,12.354],[54.064,12.351],[54.048,12.353],[54.031,12.348],[54.008,12.33],[53.986,12.337],[53.97,12.342],[53.939,12.335],[53.896,12.328],[53.776,12.305],[53.731,12.3],[53.673,12.306],[53.618,12.323],[53.572,12.335],[53.552,12.354],[53.536,12.374],[53.52,12.394],[53.506,12.416],[53.479,12.425],[53.438,12.452],[53.334,12.516],[53.31,12.538],[53.307,12.543],[53.316,12.55],[53.342,12.543],[53.363,12.545],[53.385,12.557],[53.389,12.561],[53.391,12.57],[53.4,12.588],[53.403,12.598],[53.396,12.656],[53.411,12.662],[53.428,12.665],[53.47,12.671],[53.48,12.687],[53.49,12.702],[53.5,12.712],[53.519,12.714],[53.574,12.704],[53.606,12.7],[53.63,12.702],[53.655,12.705],[53.694,12.67],[53.763,12.62],[53.808,12.608],[53.846,12.599],[53.866,12.623],[53.876,12.647],[53.903,12.653],[53.922,12.651],[53.94,12.642],[53.974,12.647],[54.008,12.646],[54.045,12.667],[54.058,12.671],[54.082,12.686],[54.093,12.699],[54.119,12.701],[54.132,12.688],[54.147,12.678],[54.168,12.665],[54.183,12.668],[54.195,12.675],[54.201,12.673],[54.211,12.662],[54.219,12.653],[54.237,12.652],[54.26,12.648],[54.269,12.632],[54.285,12.626],[54.319,12.611],[54.36,12.603],[54.401,12.58],[54.422,12.574],[54.471,12.544]]]]}},{"type":"Feature","id":"YE-HJ","properties":{"id":"YE-HJ","countryCode":"YE","isoSubdivision":"YE-HJ","name":"Hajjah","name_en":"Hajjah","name_ko":"하자","type":"Governorate","labelLongitude":43.18,"labelLatitude":16.181,"minZoom":8.7},"geometry":{"type":"Polygon","coordinates":[[[43.163,16.662],[43.18,16.665],[43.186,16.683],[43.186,16.685],[43.206,16.672],[43.374,16.626],[43.392,16.616],[43.413,16.613],[43.489,16.618],[43.6,16.609],[43.596,16.436],[43.61,16.299],[43.607,16.283],[43.606,16.261],[43.606,16.243],[43.609,16.229],[43.609,16.214],[43.615,16.203],[43.645,16.184],[43.656,16.166],[43.655,16.136],[43.659,16.112],[43.66,16.089],[43.699,16.012],[43.698,15.998],[43.689,15.987],[43.676,15.977],[43.666,15.969],[43.66,15.958],[43.657,15.948],[43.668,15.937],[43.68,15.939],[43.718,15.982],[43.728,15.986],[43.738,15.98],[43.75,15.97],[43.775,15.931],[43.785,15.893],[43.792,15.853],[43.787,15.834],[43.785,15.798],[43.79,15.774],[43.792,15.754],[43.81,15.74],[43.817,15.731],[43.811,15.694],[43.804,15.667],[43.794,15.655],[43.778,15.652],[43.76,15.656],[43.744,15.655],[43.73,15.647],[43.722,15.638],[43.717,15.628],[43.713,15.614],[43.713,15.601],[43.727,15.577],[43.725,15.564],[43.705,15.526],[43.679,15.534],[43.588,15.545],[43.566,15.543],[43.545,15.546],[43.37,15.529],[43.314,15.51],[43.299,15.597],[43.301,15.61],[43.305,15.62],[43.312,15.678],[43.3,15.711],[43.301,15.729],[43.309,15.743],[43.315,15.76],[43.322,15.785],[43.323,15.817],[43.311,15.844],[43.285,15.864],[43.183,15.856],[43.144,15.847],[43.129,15.837],[43.107,15.826],[43.065,15.829],[42.997,15.82],[42.835,15.914],[42.835,15.915],[42.843,16.052],[42.84,16.098],[42.813,16.238],[42.809,16.313],[42.808,16.32],[42.802,16.34],[42.803,16.339],[42.803,16.342],[42.803,16.347],[42.802,16.353],[42.799,16.358],[42.791,16.369],[42.789,16.371],[42.837,16.387],[42.872,16.402],[42.898,16.419],[42.907,16.435],[42.906,16.451],[42.903,16.466],[42.907,16.479],[42.917,16.484],[42.956,16.491],[42.971,16.496],[43.015,16.521],[43.036,16.536],[43.049,16.553],[43.075,16.619],[43.079,16.638],[43.08,16.659],[43.085,16.673],[43.098,16.678],[43.123,16.673],[43.163,16.662]]]}},{"type":"Feature","id":"YE-HU","properties":{"id":"YE-HU","countryCode":"YE","isoSubdivision":"YE-HU","name":"Al Hudaydah","name_en":"Al Hudaydah","name_ko":"호데이다","type":"Governorate","labelLongitude":43.221,"labelLatitude":14.928,"minZoom":8.7},"geometry":{"type":"MultiPolygon","coordinates":[[[[43.284,13.665],[43.285,13.687],[43.281,13.722],[43.248,13.784],[43.244,13.794],[43.233,13.876],[43.227,13.885],[43.162,13.954],[43.139,14.007],[43.118,14.052],[43.096,14.084],[43.084,14.159],[43.076,14.195],[43.066,14.225],[43.048,14.276],[43.019,14.368],[43.011,14.388],[43.006,14.419],[42.994,14.448],[42.99,14.48],[42.987,14.489],[42.982,14.495],[42.963,14.508],[42.959,14.513],[42.961,14.525],[42.966,14.53],[42.973,14.528],[42.984,14.52],[42.994,14.5],[43.006,14.455],[43.021,14.442],[43.022,14.471],[43.02,14.485],[43.014,14.497],[43.029,14.538],[43.018,14.571],[42.998,14.602],[42.987,14.634],[42.99,14.641],[42.999,14.651],[43.001,14.657],[43,14.663],[42.997,14.666],[42.995,14.668],[42.99,14.68],[42.984,14.685],[42.977,14.688],[42.974,14.692],[42.971,14.697],[42.967,14.702],[42.962,14.709],[42.954,14.743],[42.953,14.754],[42.942,14.789],[42.895,14.847],[42.884,14.884],[42.882,14.905],[42.883,14.916],[42.891,14.914],[42.896,14.906],[42.894,14.899],[42.891,14.891],[42.891,14.88],[42.898,14.862],[42.91,14.841],[42.927,14.823],[42.946,14.811],[42.947,14.826],[42.953,14.859],[42.952,14.88],[42.942,14.915],[42.937,14.948],[42.932,14.961],[42.924,14.971],[42.898,14.995],[42.887,15.008],[42.88,15.025],[42.877,15.049],[42.882,15.102],[42.877,15.12],[42.864,15.136],[42.829,15.152],[42.797,15.179],[42.777,15.191],[42.755,15.202],[42.733,15.209],[42.711,15.214],[42.691,15.214],[42.677,15.206],[42.671,15.185],[42.66,15.183],[42.638,15.191],[42.618,15.208],[42.617,15.23],[42.61,15.244],[42.621,15.245],[42.655,15.237],[42.672,15.24],[42.683,15.246],[42.689,15.257],[42.692,15.271],[42.691,15.281],[42.681,15.296],[42.678,15.308],[42.704,15.355],[42.712,15.366],[42.718,15.353],[42.715,15.337],[42.708,15.322],[42.699,15.312],[42.719,15.303],[42.734,15.294],[42.774,15.26],[42.779,15.253],[42.781,15.24],[42.779,15.222],[42.782,15.215],[42.795,15.209],[42.796,15.217],[42.795,15.223],[42.792,15.226],[42.788,15.23],[42.803,15.245],[42.809,15.268],[42.807,15.344],[42.797,15.38],[42.781,15.408],[42.777,15.422],[42.778,15.433],[42.78,15.443],[42.781,15.456],[42.781,15.467],[42.778,15.479],[42.774,15.491],[42.76,15.516],[42.719,15.57],[42.721,15.578],[42.733,15.592],[42.724,15.602],[42.715,15.614],[42.708,15.628],[42.706,15.644],[42.716,15.68],[42.714,15.695],[42.692,15.702],[42.699,15.717],[42.709,15.726],[42.721,15.733],[42.733,15.743],[42.742,15.753],[42.746,15.762],[42.747,15.773],[42.747,15.788],[42.752,15.816],[42.766,15.836],[42.783,15.849],[42.802,15.86],[42.82,15.875],[42.83,15.893],[42.835,15.914],[42.997,15.82],[43.065,15.829],[43.107,15.826],[43.129,15.837],[43.144,15.847],[43.183,15.856],[43.285,15.864],[43.311,15.844],[43.323,15.817],[43.322,15.785],[43.315,15.76],[43.309,15.743],[43.301,15.729],[43.3,15.711],[43.312,15.678],[43.305,15.62],[43.301,15.61],[43.299,15.597],[43.314,15.51],[43.316,15.467],[43.321,15.456],[43.322,15.434],[43.327,15.417],[43.328,15.388],[43.325,15.356],[43.33,15.333],[43.332,15.306],[43.359,15.266],[43.381,15.25],[43.406,15.229],[43.448,15.217],[43.457,15.2],[43.469,15.172],[43.489,15.139],[43.5,15.11],[43.515,15.087],[43.546,15.058],[43.571,15.044],[43.603,15.014],[43.635,14.998],[43.662,14.992],[43.681,14.992],[43.7,14.995],[43.725,14.973],[43.724,14.962],[43.718,14.957],[43.702,14.933],[43.688,14.924],[43.673,14.922],[43.642,14.933],[43.632,14.934],[43.624,14.92],[43.595,14.89],[43.576,14.874],[43.557,14.848],[43.541,14.804],[43.554,14.731],[43.549,14.715],[43.538,14.7],[43.535,14.683],[43.536,14.665],[43.539,14.65],[43.535,14.634],[43.538,14.614],[43.577,14.514],[43.58,14.497],[43.593,14.472],[43.596,14.46],[43.597,14.434],[43.594,14.416],[43.558,14.374],[43.539,14.373],[43.532,14.36],[43.565,14.223],[43.566,14.189],[43.579,14.156],[43.596,14.141],[43.619,14.127],[43.65,14.117],[43.706,14.084],[43.726,14.076],[43.741,14.078],[43.754,14.09],[43.769,14.098],[43.782,14.108],[43.798,14.114],[43.8,14.086],[43.805,14.069],[43.799,14.042],[43.76,13.981],[43.745,13.972],[43.735,13.978],[43.72,13.984],[43.702,13.976],[43.698,13.964],[43.712,13.946],[43.72,13.933],[43.722,13.918],[43.71,13.92],[43.684,13.912],[43.601,13.898],[43.577,13.891],[43.541,13.875],[43.465,13.779],[43.455,13.76],[43.444,13.747],[43.422,13.743],[43.387,13.734],[43.358,13.722],[43.288,13.666],[43.285,13.665],[43.284,13.665]]],[[[42.719,13.743],[42.762,13.772],[42.783,13.78],[42.795,13.77],[42.792,13.751],[42.761,13.719],[42.754,13.698],[42.744,13.688],[42.689,13.664],[42.688,13.664],[42.686,13.676],[42.686,13.678],[42.686,13.679],[42.694,13.699],[42.719,13.743]]],[[[42.76,14.065],[42.768,14.072],[42.796,14.037],[42.802,14.023],[42.802,14.012],[42.788,13.975],[42.787,13.944],[42.789,13.927],[42.782,13.92],[42.754,13.921],[42.768,13.949],[42.747,13.957],[42.722,13.969],[42.712,13.977],[42.701,13.988],[42.699,13.992],[42.692,14.013],[42.701,14.028],[42.721,14.046],[42.744,14.06],[42.76,14.065]]],[[[42.636,15.446],[42.61,15.429],[42.607,15.423],[42.612,15.421],[42.612,15.417],[42.608,15.41],[42.599,15.404],[42.585,15.397],[42.582,15.392],[42.593,15.389],[42.606,15.393],[42.619,15.4],[42.628,15.399],[42.628,15.386],[42.616,15.348],[42.613,15.335],[42.615,15.326],[42.613,15.319],[42.608,15.314],[42.609,15.312],[42.615,15.314],[42.614,15.308],[42.594,15.279],[42.582,15.268],[42.568,15.269],[42.557,15.278],[42.546,15.294],[42.546,15.317],[42.556,15.341],[42.559,15.393],[42.571,15.41],[42.584,15.423],[42.593,15.431],[42.598,15.439],[42.602,15.446],[42.624,15.457],[42.631,15.454],[42.636,15.446]]]]}},{"type":"Feature","id":"YE-IB","properties":{"id":"YE-IB","countryCode":"YE","isoSubdivision":"YE-IB","name":"Ibb","name_en":"Ibb","name_ko":"이브","type":"Governorate","labelLongitude":44.201,"labelLatitude":14.054,"minZoom":8.7},"geometry":{"type":"Polygon","coordinates":[[[43.745,13.972],[43.76,13.981],[43.799,14.042],[43.805,14.069],[43.8,14.086],[43.798,14.114],[43.813,14.146],[43.826,14.165],[43.843,14.208],[43.859,14.23],[43.866,14.246],[43.874,14.247],[43.879,14.237],[43.875,14.216],[43.88,14.198],[43.896,14.191],[43.922,14.197],[43.946,14.208],[43.973,14.257],[43.974,14.279],[43.971,14.302],[43.963,14.318],[43.963,14.335],[43.97,14.345],[43.986,14.352],[43.999,14.352],[44.009,14.351],[44.032,14.379],[44.059,14.4],[44.083,14.425],[44.102,14.434],[44.116,14.431],[44.13,14.379],[44.138,14.365],[44.163,14.359],[44.209,14.377],[44.22,14.393],[44.228,14.41],[44.23,14.424],[44.241,14.441],[44.253,14.444],[44.269,14.438],[44.312,14.403],[44.331,14.385],[44.353,14.374],[44.403,14.361],[44.425,14.347],[44.454,14.339],[44.477,14.329],[44.523,14.3],[44.58,14.281],[44.598,14.273],[44.61,14.268],[44.63,14.277],[44.663,14.257],[44.663,14.2],[44.672,14.186],[44.683,14.183],[44.718,14.162],[44.707,14.13],[44.692,14.119],[44.672,14.119],[44.652,14.117],[44.642,14.109],[44.642,14.096],[44.631,14.074],[44.615,14.058],[44.608,14.037],[44.614,14.016],[44.632,13.999],[44.622,13.981],[44.604,13.977],[44.584,13.977],[44.56,13.972],[44.535,13.962],[44.51,13.946],[44.494,13.92],[44.491,13.902],[44.486,13.884],[44.484,13.873],[44.474,13.868],[44.462,13.869],[44.45,13.861],[44.435,13.821],[44.419,13.811],[44.411,13.793],[44.413,13.786],[44.407,13.761],[44.397,13.747],[44.384,13.732],[44.345,13.705],[44.321,13.703],[44.3,13.71],[44.286,13.718],[44.266,13.725],[44.23,13.726],[44.155,13.749],[44.131,13.764],[44.08,13.769],[43.963,13.802],[43.956,13.816],[43.961,13.828],[43.961,13.847],[43.946,13.853],[43.901,13.835],[43.892,13.845],[43.893,13.863],[43.887,13.878],[43.84,13.872],[43.819,13.863],[43.794,13.87],[43.772,13.859],[43.712,13.861],[43.684,13.912],[43.71,13.92],[43.722,13.918],[43.72,13.933],[43.712,13.946],[43.698,13.964],[43.702,13.976],[43.72,13.984],[43.735,13.978],[43.745,13.972]]]}},{"type":"Feature","id":"YE-JA","properties":{"id":"YE-JA","countryCode":"YE","isoSubdivision":"YE-JA","name":"Al Jawf","name_en":"Al Jawf","name_ko":"자우프","type":"Governorate","labelLongitude":45.614,"labelLatitude":16.563,"minZoom":8.7},"geometry":{"type":"Polygon","coordinates":[[[44.972,17.43],[44.997,17.43],[45.165,17.428],[45.222,17.417],[45.385,17.326],[45.43,17.312],[45.642,17.291],[45.891,17.267],[46.08,17.248],[46.323,17.224],[46.488,17.246],[46.71,17.275],[46.747,17.255],[46.812,17.168],[46.886,17.07],[46.97,16.957],[46.983,16.949],[46.997,16.949],[47.039,16.345],[46.833,16.15],[45.994,16],[45.693,15.898],[45.564,15.79],[45.45,15.78],[45.239,15.813],[44.998,15.936],[44.661,16.011],[44.595,16.051],[44.51,16.057],[44.489,16.049],[44.481,16.04],[44.426,16.028],[44.401,16.056],[44.369,16.111],[44.364,16.137],[44.362,16.168],[44.352,16.195],[44.375,16.26],[44.373,16.275],[44.367,16.285],[44.362,16.297],[44.367,16.315],[44.369,16.335],[44.366,16.357],[44.352,16.382],[44.343,16.408],[44.335,16.445],[44.32,16.473],[44.32,16.491],[44.329,16.503],[44.335,16.518],[44.329,16.534],[44.314,16.549],[44.256,16.591],[44.24,16.598],[44.189,16.631],[44.203,16.666],[44.215,16.716],[44.236,16.753],[44.248,16.77],[44.271,16.787],[44.284,16.793],[44.295,16.796],[44.303,16.802],[44.318,16.809],[44.359,16.834],[44.377,16.854],[44.391,16.856],[44.401,16.864],[44.419,16.894],[44.433,16.906],[44.473,16.961],[44.491,16.979],[44.623,17.043],[44.678,17.062],[44.745,17.076],[44.809,17.078],[44.868,17.071],[44.95,17.111],[44.972,17.43]]]}},{"type":"Feature","id":"YE-LA","properties":{"id":"YE-LA","countryCode":"YE","isoSubdivision":"YE-LA","name":"Lahij","name_en":"Lahij","name_ko":"라히즈","type":"Governorate","labelLongitude":44.656,"labelLatitude":13.183,"minZoom":8.7},"geometry":{"type":"Polygon","coordinates":[[[44.415,12.673],[44.412,12.684],[44.407,12.685],[44.383,12.676],[44.354,12.669],[44.29,12.639],[44.267,12.637],[44.247,12.639],[44.229,12.639],[44.191,12.619],[44.169,12.618],[44.149,12.625],[44.138,12.639],[44.152,12.638],[44.176,12.633],[44.19,12.632],[44.198,12.639],[44.198,12.652],[44.191,12.66],[44.18,12.653],[44.153,12.656],[44.121,12.643],[44.062,12.612],[44.034,12.604],[44.017,12.604],[43.992,12.612],[43.961,12.6],[43.946,12.598],[43.927,12.61],[43.909,12.645],[43.895,12.653],[43.874,12.655],[43.858,12.663],[43.83,12.681],[43.813,12.688],[43.795,12.695],[43.774,12.699],[43.751,12.701],[43.738,12.706],[43.699,12.728],[43.679,12.735],[43.644,12.735],[43.635,12.739],[43.619,12.75],[43.61,12.754],[43.601,12.756],[43.588,12.751],[43.531,12.695],[43.567,12.767],[43.643,12.883],[43.701,12.938],[43.735,12.99],[43.739,13.012],[43.734,13.029],[43.726,13.041],[43.726,13.057],[43.74,13.067],[43.775,13.071],[43.79,13.08],[43.808,13.087],[43.823,13.102],[43.842,13.11],[43.862,13.116],[43.882,13.113],[43.901,13.104],[43.919,13.098],[43.956,13.077],[43.975,13.061],[44.002,13.048],[44.021,13.047],[44.026,13.063],[44.022,13.112],[44.029,13.119],[44.069,13.096],[44.092,13.092],[44.103,13.102],[44.107,13.123],[44.117,13.143],[44.131,13.146],[44.152,13.15],[44.164,13.157],[44.162,13.171],[44.162,13.188],[44.172,13.196],[44.184,13.205],[44.197,13.227],[44.239,13.22],[44.282,13.221],[44.334,13.234],[44.357,13.251],[44.361,13.274],[44.356,13.294],[44.358,13.319],[44.356,13.336],[44.349,13.355],[44.355,13.368],[44.377,13.374],[44.442,13.376],[44.452,13.387],[44.449,13.404],[44.438,13.417],[44.408,13.421],[44.395,13.429],[44.377,13.436],[44.369,13.451],[44.377,13.467],[44.393,13.477],[44.411,13.485],[44.439,13.489],[44.446,13.495],[44.447,13.502],[44.445,13.509],[44.449,13.516],[44.462,13.52],[44.475,13.52],[44.492,13.526],[44.503,13.538],[44.511,13.55],[44.525,13.556],[44.533,13.577],[44.573,13.563],[44.587,13.547],[44.628,13.517],[44.655,13.522],[44.69,13.545],[44.759,13.574],[44.776,13.592],[44.791,13.603],[44.831,13.588],[44.853,13.591],[44.859,13.611],[44.855,13.635],[44.858,13.708],[44.882,13.713],[44.914,13.716],[44.997,13.748],[45.041,13.778],[45.083,13.797],[45.119,13.83],[45.18,13.964],[45.239,13.964],[45.255,13.961],[45.287,13.977],[45.309,13.996],[45.361,14.029],[45.384,14.032],[45.399,14.023],[45.412,13.973],[45.405,13.897],[45.368,13.887],[45.361,13.871],[45.357,13.839],[45.36,13.819],[45.358,13.804],[45.344,13.795],[45.328,13.788],[45.292,13.779],[45.279,13.768],[45.272,13.752],[45.275,13.736],[45.275,13.719],[45.273,13.705],[45.254,13.69],[45.216,13.667],[45.216,13.654],[45.231,13.647],[45.281,13.644],[45.298,13.637],[45.304,13.628],[45.294,13.614],[45.238,13.553],[45.211,13.512],[45.208,13.472],[45.211,13.444],[45.226,13.428],[45.24,13.419],[45.252,13.407],[45.254,13.395],[45.245,13.374],[45.197,13.34],[45.131,13.163],[45.099,12.936],[45.094,12.926],[45.093,12.925],[45.009,12.918],[44.826,12.871],[44.619,12.836],[44.528,12.804],[44.484,12.778],[44.415,12.674],[44.415,12.673]]]}},{"type":"Feature","id":"YE-MA","properties":{"id":"YE-MA","countryCode":"YE","isoSubdivision":"YE-MA","name":"Ma'rib","name_en":"Ma'rib","name_ko":"마리브","type":"Governorate","labelLongitude":45.738,"labelLatitude":15.537,"minZoom":8.7},"geometry":{"type":"Polygon","coordinates":[[[45.45,15.78],[45.564,15.79],[45.693,15.898],[45.994,16],[46.833,16.15],[46.34,15.571],[45.753,15.173],[45.614,15.06],[45.593,15.017],[45.585,14.996],[45.562,14.954],[45.554,14.914],[45.555,14.897],[45.55,14.884],[45.537,14.875],[45.539,14.867],[45.54,14.854],[45.533,14.828],[45.528,14.798],[45.525,14.743],[45.535,14.716],[45.547,14.701],[45.569,14.689],[45.562,14.656],[45.554,14.648],[45.54,14.641],[45.53,14.646],[45.523,14.657],[45.517,14.664],[45.507,14.666],[45.498,14.655],[45.497,14.64],[45.515,14.61],[45.515,14.592],[45.499,14.586],[45.476,14.589],[45.45,14.597],[45.415,14.594],[45.382,14.578],[45.354,14.568],[45.335,14.566],[45.326,14.556],[45.33,14.546],[45.324,14.535],[45.282,14.544],[45.265,14.539],[45.254,14.525],[45.215,14.498],[45.183,14.498],[45.164,14.509],[45.151,14.528],[45.143,14.55],[45.14,14.571],[45.131,14.594],[45.129,14.627],[45.121,14.66],[45.112,14.711],[45.111,14.741],[45.107,14.768],[45.086,14.79],[45.059,14.804],[45.006,14.814],[45.007,14.875],[45.012,14.89],[45.012,14.909],[45.004,14.916],[44.999,14.922],[45.001,14.931],[45.012,14.942],[45.019,14.962],[45.032,14.984],[45.043,14.996],[45.055,15.008],[45.068,15.036],[45.072,15.05],[45.09,15.063],[45.139,15.084],[45.154,15.108],[45.165,15.139],[45.161,15.163],[45.165,15.182],[45.164,15.204],[45.154,15.238],[45.135,15.258],[45.105,15.27],[45.059,15.275],[45.024,15.283],[44.998,15.306],[44.965,15.341],[44.921,15.374],[44.903,15.38],[44.888,15.383],[44.868,15.371],[44.855,15.353],[44.843,15.33],[44.809,15.319],[44.776,15.332],[44.742,15.371],[44.708,15.399],[44.685,15.406],[44.662,15.409],[44.647,15.415],[44.642,15.431],[44.663,15.449],[44.782,15.529],[44.809,15.558],[44.828,15.596],[44.807,15.629],[44.742,15.708],[44.727,15.754],[44.727,15.823],[44.71,15.916],[44.661,16.011],[44.998,15.936],[45.239,15.813],[45.45,15.78]]]}},{"type":"Feature","id":"YE-MR","properties":{"id":"YE-MR","countryCode":"YE","isoSubdivision":"YE-MR","name":"Al Mahrah","name_en":"Al Mahrah","name_ko":"마라","type":"Governorate","labelLongitude":51.641,"labelLatitude":16.879,"minZoom":8.7},"geometry":{"type":"Polygon","coordinates":[[[51.986,18.98],[52.014,18.916],[52.057,18.82],[52.1,18.723],[52.142,18.627],[52.185,18.53],[52.228,18.433],[52.271,18.337],[52.313,18.24],[52.356,18.144],[52.399,18.047],[52.442,17.951],[52.485,17.854],[52.527,17.758],[52.57,17.661],[52.613,17.565],[52.656,17.468],[52.698,17.371],[52.73,17.3],[52.728,17.299],[52.723,17.299],[52.721,17.298],[52.736,17.289],[52.774,17.287],[52.791,17.281],[52.802,17.267],[52.84,17.184],[52.903,17.048],[52.965,16.913],[53.028,16.777],[53.09,16.642],[53.069,16.632],[53.022,16.619],[52.985,16.628],[52.974,16.618],[52.962,16.616],[52.951,16.616],[52.94,16.61],[52.921,16.591],[52.91,16.583],[52.885,16.575],[52.851,16.556],[52.809,16.548],[52.789,16.54],[52.752,16.518],[52.737,16.512],[52.598,16.477],[52.533,16.447],[52.42,16.371],[52.319,16.291],[52.293,16.264],[52.279,16.244],[52.261,16.209],[52.229,16.172],[52.221,16.161],[52.217,16.148],[52.217,16.138],[52.22,16.126],[52.223,16.116],[52.224,16.114],[52.217,16.095],[52.194,16.07],[52.184,16.029],[52.16,16.002],[52.156,15.984],[52.163,15.965],[52.177,15.942],[52.187,15.919],[52.175,15.878],[52.192,15.863],[52.224,15.847],[52.225,15.832],[52.217,15.761],[52.221,15.717],[52.231,15.675],[52.238,15.669],[52.243,15.663],[52.245,15.658],[52.244,15.652],[52.239,15.643],[52.237,15.638],[52.237,15.629],[52.234,15.622],[52.228,15.616],[52.221,15.614],[52.199,15.611],[52.047,15.57],[52.039,15.563],[52.032,15.556],[52.026,15.551],[52.017,15.549],[52.002,15.547],[51.992,15.545],[51.913,15.515],[51.874,15.492],[51.875,15.469],[51.874,15.465],[51.872,15.464],[51.869,15.464],[51.868,15.463],[51.869,15.452],[51.865,15.45],[51.86,15.453],[51.854,15.456],[51.847,15.46],[51.839,15.466],[51.829,15.469],[51.817,15.459],[51.809,15.456],[51.759,15.446],[51.68,15.403],[51.667,15.391],[51.662,15.377],[51.668,15.358],[51.677,15.347],[51.676,15.34],[51.655,15.333],[51.549,15.323],[51.531,15.317],[51.513,15.308],[51.498,15.298],[51.474,15.271],[51.454,15.27],[51.447,15.266],[51.444,15.26],[51.432,15.26],[51.382,15.238],[51.368,15.23],[51.342,15.238],[51.314,15.227],[51.288,15.21],[51.269,15.202],[51.07,15.15],[50.851,15.11],[50.805,15.097],[50.802,15.104],[50.801,15.122],[50.792,15.137],[50.785,15.154],[50.774,15.172],[50.767,15.198],[50.756,15.217],[50.747,15.236],[50.728,15.261],[50.706,15.272],[50.651,15.28],[50.584,15.297],[50.517,15.294],[50.494,15.285],[50.469,15.279],[50.392,15.272],[50.341,15.274],[50.279,15.294],[50.264,15.311],[50.257,15.328],[50.257,15.347],[50.259,15.364],[50.271,15.381],[50.287,15.4],[50.305,15.431],[50.321,15.444],[50.332,15.459],[50.336,15.5],[50.33,15.519],[50.321,15.529],[50.279,15.54],[50.25,15.543],[50.219,15.553],[50.201,15.575],[50.192,15.609],[50.201,15.649],[50.208,15.675],[50.218,15.695],[50.217,15.714],[50.213,15.738],[50.211,15.765],[50.222,15.793],[50.222,15.818],[50.23,15.853],[50.247,15.871],[50.264,15.9],[50.302,16.002],[50.296,16.036],[50.285,16.063],[50.263,16.075],[50.249,16.089],[50.233,16.108],[50.235,16.146],[50.313,16.435],[50.305,16.471],[50.294,16.493],[50.292,16.515],[50.31,16.554],[50.33,16.58],[50.355,16.599],[50.397,16.624],[50.572,16.695],[50.653,16.747],[50.73,16.835],[51.132,17.153],[51.262,17.338],[51.385,17.6],[51.479,17.884],[51.541,18.184],[51.712,18.596],[51.986,18.98]]]}},{"type":"Feature","id":"YE-MW","properties":{"id":"YE-MW","countryCode":"YE","isoSubdivision":"YE-MW","name":"Al Mahwit","name_en":"Al Mahwit","name_ko":"마위트","type":"Governorate","labelLongitude":43.649,"labelLatitude":15.38,"minZoom":8.7},"geometry":{"type":"Polygon","coordinates":[[[43.571,15.044],[43.546,15.058],[43.515,15.087],[43.5,15.11],[43.489,15.139],[43.469,15.172],[43.457,15.2],[43.448,15.217],[43.406,15.229],[43.381,15.25],[43.359,15.266],[43.332,15.306],[43.33,15.333],[43.325,15.356],[43.328,15.388],[43.327,15.417],[43.322,15.434],[43.321,15.456],[43.316,15.467],[43.314,15.51],[43.37,15.529],[43.545,15.546],[43.566,15.543],[43.588,15.545],[43.679,15.534],[43.705,15.526],[43.729,15.528],[43.747,15.535],[43.799,15.533],[43.843,15.551],[43.863,15.564],[43.881,15.561],[43.895,15.556],[43.904,15.544],[43.921,15.533],[43.984,15.505],[43.971,15.46],[43.966,15.418],[43.949,15.4],[43.909,15.373],[43.888,15.364],[43.818,15.314],[43.78,15.278],[43.713,15.265],[43.702,15.253],[43.64,15.217],[43.623,15.195],[43.615,15.169],[43.619,15.12],[43.608,15.095],[43.597,15.086],[43.571,15.044]]]}},{"type":"Feature","id":"YE-RA","properties":{"id":"YE-RA","countryCode":"YE","isoSubdivision":"YE-RA","name":"Raymah","name_en":"Raymah","name_ko":"라이마","type":"Governorate","labelLongitude":43.758,"labelLatitude":14.666,"minZoom":8.7},"geometry":{"type":"Polygon","coordinates":[[[43.632,14.934],[43.642,14.933],[43.673,14.922],[43.688,14.924],[43.702,14.933],[43.718,14.91],[43.726,14.88],[43.778,14.873],[43.782,14.862],[43.824,14.85],[43.825,14.832],[43.837,14.798],[43.86,14.767],[43.925,14.695],[43.945,14.665],[43.956,14.638],[43.972,14.617],[43.981,14.599],[43.973,14.574],[43.943,14.536],[43.925,14.523],[43.908,14.506],[43.845,14.469],[43.83,14.458],[43.813,14.454],[43.802,14.453],[43.788,14.45],[43.773,14.452],[43.751,14.459],[43.721,14.458],[43.703,14.451],[43.693,14.438],[43.659,14.409],[43.599,14.377],[43.582,14.375],[43.558,14.374],[43.594,14.416],[43.597,14.434],[43.596,14.46],[43.593,14.472],[43.58,14.497],[43.577,14.514],[43.538,14.614],[43.535,14.634],[43.539,14.65],[43.536,14.665],[43.535,14.683],[43.538,14.7],[43.549,14.715],[43.554,14.731],[43.541,14.804],[43.557,14.848],[43.576,14.874],[43.595,14.89],[43.624,14.92],[43.632,14.934]]]}},{"type":"Feature","id":"YE-SA","properties":{"id":"YE-SA","countryCode":"YE","isoSubdivision":"YE-SA","name":"Sanaa","name_en":"Sanaa","name_ko":"사나","type":"Governorate","labelLongitude":44.212,"labelLatitude":15.349,"minZoom":8.7},"geometry":{"type":"Polygon","coordinates":[[[44.319,15.612],[44.336,15.606],[44.353,15.599],[44.361,15.591],[44.373,15.578],[44.391,15.567],[44.398,15.557],[44.399,15.549],[44.393,15.541],[44.384,15.534],[44.368,15.533],[44.361,15.538],[44.362,15.546],[44.365,15.554],[44.359,15.556],[44.353,15.556],[44.348,15.551],[44.341,15.546],[44.337,15.537],[44.337,15.526],[44.333,15.52],[44.313,15.522],[44.303,15.522],[44.296,15.512],[44.291,15.521],[44.283,15.512],[44.277,15.502],[44.28,15.488],[44.281,15.48],[44.278,15.471],[44.268,15.462],[44.252,15.45],[44.238,15.438],[44.233,15.429],[44.234,15.419],[44.232,15.409],[44.234,15.399],[44.241,15.387],[44.243,15.376],[44.244,15.365],[44.25,15.36],[44.257,15.362],[44.262,15.348],[44.262,15.329],[44.258,15.321],[44.249,15.316],[44.239,15.314],[44.236,15.309],[44.238,15.299],[44.237,15.295],[44.229,15.293],[44.208,15.293],[44.181,15.293],[44.177,15.298],[44.181,15.32],[44.177,15.329],[44.159,15.341],[44.142,15.352],[44.139,15.369],[44.144,15.389],[44.151,15.397],[44.162,15.399],[44.166,15.401],[44.165,15.412],[44.151,15.428],[44.141,15.435],[44.133,15.438],[44.126,15.445],[44.12,15.457],[44.122,15.465],[44.133,15.469],[44.151,15.473],[44.161,15.476],[44.167,15.483],[44.18,15.485],[44.188,15.495],[44.191,15.504],[44.201,15.505],[44.203,15.51],[44.199,15.516],[44.201,15.541],[44.21,15.552],[44.228,15.559],[44.235,15.567],[44.244,15.571],[44.257,15.571],[44.262,15.577],[44.27,15.588],[44.283,15.601],[44.292,15.606],[44.306,15.611],[44.319,15.612]]]}},{"type":"Feature","id":"YE-SD","properties":{"id":"YE-SD","countryCode":"YE","isoSubdivision":"YE-SD","name":"Sa'dah","name_en":"Sa'dah","name_ko":"사다","type":"Governorate","labelLongitude":44.04,"labelLatitude":16.988,"minZoom":8.7},"geometry":{"type":"Polygon","coordinates":[[[43.435,17.523],[43.453,17.519],[43.487,17.517],[43.503,17.513],[43.577,17.483],[43.62,17.459],[43.638,17.439],[43.689,17.384],[43.731,17.352],[43.751,17.346],[43.769,17.346],[43.806,17.35],[43.846,17.346],[43.863,17.347],[43.887,17.354],[43.893,17.351],[43.893,17.34],[43.89,17.32],[43.894,17.312],[43.897,17.307],[43.903,17.304],[43.915,17.302],[43.939,17.305],[43.954,17.32],[43.967,17.34],[43.982,17.357],[44.004,17.368],[44.021,17.366],[44.059,17.347],[44.085,17.343],[44.104,17.352],[44.12,17.37],[44.134,17.395],[44.149,17.405],[44.169,17.402],[44.212,17.391],[44.231,17.392],[44.307,17.409],[44.404,17.419],[44.465,17.416],[44.534,17.403],[44.562,17.404],[44.625,17.427],[44.646,17.432],[44.849,17.431],[44.972,17.43],[44.95,17.111],[44.868,17.071],[44.809,17.078],[44.745,17.076],[44.678,17.062],[44.623,17.043],[44.491,16.979],[44.473,16.961],[44.433,16.906],[44.419,16.894],[44.401,16.864],[44.391,16.856],[44.377,16.854],[44.359,16.834],[44.318,16.809],[44.303,16.802],[44.295,16.796],[44.284,16.793],[44.271,16.787],[44.248,16.77],[44.236,16.753],[44.215,16.716],[44.203,16.666],[44.189,16.631],[44.118,16.611],[44.075,16.612],[44.03,16.621],[43.928,16.661],[43.857,16.679],[43.818,16.679],[43.792,16.671],[43.777,16.661],[43.749,16.646],[43.73,16.639],[43.6,16.609],[43.489,16.618],[43.413,16.613],[43.392,16.616],[43.374,16.626],[43.206,16.672],[43.186,16.685],[43.18,16.708],[43.171,16.723],[43.169,16.737],[43.183,16.758],[43.192,16.764],[43.201,16.768],[43.209,16.773],[43.213,16.784],[43.212,16.797],[43.205,16.808],[43.194,16.815],[43.157,16.825],[43.146,16.834],[43.134,16.871],[43.113,16.91],[43.109,16.927],[43.115,16.952],[43.132,16.99],[43.136,17.01],[43.136,17.031],[43.13,17.053],[43.122,17.07],[43.118,17.086],[43.124,17.107],[43.145,17.147],[43.151,17.167],[43.15,17.19],[43.156,17.21],[43.177,17.226],[43.203,17.236],[43.226,17.241],[43.249,17.252],[43.252,17.272],[43.242,17.293],[43.222,17.308],[43.165,17.326],[43.168,17.331],[43.216,17.387],[43.303,17.459],[43.342,17.482],[43.391,17.512],[43.413,17.52],[43.435,17.523]]]}},{"type":"Feature","id":"YE-SH","properties":{"id":"YE-SH","countryCode":"YE","isoSubdivision":"YE-SH","name":"Shabwah","name_en":"Shabwah","name_ko":"샤브와","type":"Governorate","labelLongitude":47.099,"labelLatitude":14.897,"minZoom":8.7},"geometry":{"type":"Polygon","coordinates":[[[48.681,14.044],[48.565,14.046],[48.548,14.041],[48.503,14.003],[48.494,13.999],[48.486,13.998],[48.478,13.997],[48.469,13.989],[48.45,14.011],[48.415,14.017],[48.338,14.016],[48.341,14.012],[48.346,14.003],[48.304,14.002],[48.189,13.969],[48.194,13.993],[48.178,14.009],[48.155,14.02],[48.14,14.031],[48.134,14.023],[48.106,14.036],[48.017,14.057],[48.002,14.049],[47.949,14.033],[47.931,14.031],[47.917,14.021],[47.867,13.962],[47.821,13.938],[47.667,13.887],[47.646,13.873],[47.564,13.789],[47.436,13.678],[47.398,13.655],[47.324,13.633],[47.315,13.684],[47.308,13.709],[47.306,13.748],[47.275,13.845],[47.223,13.952],[47.233,13.975],[47.246,13.994],[47.259,14.018],[47.254,14.051],[47.256,14.096],[47.242,14.138],[47.206,14.161],[47.068,14.168],[47.001,14.182],[46.936,14.205],[46.865,14.214],[46.789,14.204],[46.688,14.177],[46.608,14.144],[46.492,14.125],[46.475,14.149],[46.469,14.176],[46.434,14.238],[46.42,14.275],[46.397,14.302],[46.367,14.3],[46.336,14.285],[46.248,14.254],[46.218,14.232],[46.18,14.214],[46.135,14.2],[46.044,14.192],[46.022,14.212],[46.018,14.229],[46.009,14.246],[46.008,14.259],[46.004,14.271],[46.005,14.283],[46.002,14.294],[45.982,14.307],[45.94,14.324],[45.894,14.332],[45.859,14.355],[45.837,14.389],[45.781,14.537],[45.758,14.555],[45.715,14.564],[45.696,14.58],[45.697,14.604],[45.704,14.624],[45.717,14.645],[45.722,14.663],[45.704,14.678],[45.681,14.689],[45.569,14.689],[45.547,14.701],[45.535,14.716],[45.525,14.743],[45.528,14.798],[45.533,14.828],[45.54,14.854],[45.539,14.867],[45.537,14.875],[45.55,14.884],[45.555,14.897],[45.554,14.914],[45.562,14.954],[45.585,14.996],[45.593,15.017],[45.614,15.06],[45.753,15.173],[46.34,15.571],[47.749,15.675],[47.84,15.645],[47.852,15.613],[47.722,15.415],[47.678,15.365],[47.655,15.316],[47.644,15.281],[47.644,15.257],[47.615,15.171],[47.612,15.144],[47.613,15.119],[47.637,15.094],[47.679,15.04],[47.679,15.01],[47.664,14.981],[47.502,14.847],[47.478,14.819],[47.486,14.794],[47.597,14.718],[47.668,14.65],[47.745,14.601],[47.822,14.574],[47.925,14.56],[47.999,14.558],[48.024,14.549],[48.049,14.535],[48.069,14.513],[48.089,14.473],[48.099,14.442],[48.123,14.411],[48.137,14.384],[48.187,14.335],[48.26,14.3],[48.327,14.294],[48.404,14.296],[48.489,14.275],[48.58,14.233],[48.602,14.208],[48.617,14.187],[48.626,14.167],[48.628,14.15],[48.634,14.134],[48.662,14.085],[48.67,14.065],[48.672,14.052],[48.672,14.044],[48.681,14.044]]]}},{"type":"Feature","id":"YE-SN","properties":{"id":"YE-SN","countryCode":"YE","isoSubdivision":"YE-SN","name":"Sanaa","name_en":"Sanaa","name_ko":"사나","type":"Governorate","labelLongitude":44.368,"labelLatitude":15.226,"minZoom":8.7},"geometry":{"type":"Polygon","coordinates":[[[44.51,16.057],[44.595,16.051],[44.661,16.011],[44.71,15.916],[44.727,15.823],[44.727,15.754],[44.742,15.708],[44.807,15.629],[44.828,15.596],[44.809,15.558],[44.782,15.529],[44.663,15.449],[44.642,15.431],[44.647,15.415],[44.662,15.409],[44.685,15.406],[44.708,15.399],[44.742,15.371],[44.776,15.332],[44.809,15.319],[44.843,15.33],[44.855,15.353],[44.868,15.371],[44.888,15.383],[44.903,15.38],[44.921,15.374],[44.965,15.341],[44.998,15.306],[45.024,15.283],[45.059,15.275],[45.105,15.27],[45.135,15.258],[45.154,15.238],[45.164,15.204],[45.165,15.182],[45.161,15.163],[45.165,15.139],[45.154,15.108],[45.139,15.084],[45.09,15.063],[45.072,15.05],[45.068,15.036],[45.055,15.008],[45.043,14.996],[45.032,14.984],[45.019,14.962],[45.012,14.942],[45.001,14.931],[44.999,14.922],[45.004,14.916],[45.012,14.909],[45.012,14.89],[45.007,14.875],[45.006,14.814],[44.964,14.78],[44.922,14.764],[44.869,14.756],[44.868,14.79],[44.857,14.813],[44.817,14.868],[44.799,14.904],[44.784,14.972],[44.755,15.012],[44.732,15.027],[44.707,15.029],[44.683,15.026],[44.656,15.029],[44.635,15.026],[44.611,15.012],[44.594,14.986],[44.571,14.959],[44.551,14.948],[44.509,14.933],[44.483,14.936],[44.457,14.952],[44.439,14.974],[44.415,14.977],[44.406,14.962],[44.4,14.943],[44.387,14.924],[44.356,14.915],[44.281,14.931],[44.257,14.95],[44.237,14.971],[44.21,14.981],[44.192,14.993],[44.164,14.992],[44.133,14.986],[44.097,14.974],[44.043,14.935],[44.02,14.923],[44,14.91],[43.981,14.899],[43.947,14.869],[43.925,14.862],[43.886,14.859],[43.838,14.863],[43.824,14.85],[43.782,14.862],[43.778,14.873],[43.726,14.88],[43.718,14.91],[43.702,14.933],[43.718,14.957],[43.724,14.962],[43.725,14.973],[43.7,14.995],[43.681,14.992],[43.662,14.992],[43.635,14.998],[43.603,15.014],[43.571,15.044],[43.597,15.086],[43.608,15.095],[43.619,15.12],[43.615,15.169],[43.623,15.195],[43.64,15.217],[43.702,15.253],[43.713,15.265],[43.78,15.278],[43.818,15.314],[43.888,15.364],[43.909,15.373],[43.949,15.4],[43.966,15.418],[43.971,15.46],[43.984,15.505],[43.995,15.53],[43.994,15.546],[44.008,15.559],[44.046,15.556],[44.079,15.56],[44.106,15.575],[44.167,15.621],[44.178,15.662],[44.18,15.708],[44.198,15.733],[44.226,15.755],[44.248,15.783],[44.253,15.801],[44.254,15.823],[44.246,15.842],[44.24,15.87],[44.236,15.925],[44.244,15.951],[44.255,15.974],[44.313,16.003],[44.371,16.025],[44.426,16.028],[44.481,16.04],[44.489,16.049],[44.51,16.057]],[[44.368,15.533],[44.384,15.534],[44.393,15.541],[44.399,15.549],[44.398,15.557],[44.391,15.567],[44.373,15.578],[44.361,15.591],[44.353,15.599],[44.336,15.606],[44.319,15.612],[44.306,15.611],[44.292,15.606],[44.283,15.601],[44.27,15.588],[44.262,15.577],[44.257,15.571],[44.244,15.571],[44.235,15.567],[44.228,15.559],[44.21,15.552],[44.201,15.541],[44.199,15.516],[44.203,15.51],[44.201,15.505],[44.191,15.504],[44.188,15.495],[44.18,15.485],[44.167,15.483],[44.161,15.476],[44.151,15.473],[44.133,15.469],[44.122,15.465],[44.12,15.457],[44.126,15.445],[44.133,15.438],[44.141,15.435],[44.151,15.428],[44.165,15.412],[44.166,15.401],[44.162,15.399],[44.151,15.397],[44.144,15.389],[44.139,15.369],[44.142,15.352],[44.159,15.341],[44.177,15.329],[44.181,15.32],[44.177,15.298],[44.181,15.293],[44.208,15.293],[44.229,15.293],[44.237,15.295],[44.238,15.299],[44.236,15.309],[44.239,15.314],[44.249,15.316],[44.258,15.321],[44.262,15.329],[44.262,15.348],[44.257,15.362],[44.25,15.36],[44.244,15.365],[44.243,15.376],[44.241,15.387],[44.234,15.399],[44.232,15.409],[44.234,15.419],[44.233,15.429],[44.238,15.438],[44.252,15.45],[44.268,15.462],[44.278,15.471],[44.281,15.48],[44.28,15.488],[44.277,15.502],[44.283,15.512],[44.291,15.521],[44.296,15.512],[44.303,15.522],[44.313,15.522],[44.333,15.52],[44.337,15.526],[44.337,15.537],[44.341,15.546],[44.348,15.551],[44.353,15.556],[44.359,15.556],[44.365,15.554],[44.362,15.546],[44.361,15.538],[44.368,15.533]]]}},{"type":"Feature","id":"YE-TA","properties":{"id":"YE-TA","countryCode":"YE","isoSubdivision":"YE-TA","name":"Ta'izz","name_en":"Ta'izz","name_ko":"타이즈","type":"Governorate","labelLongitude":43.731,"labelLatitude":13.428,"minZoom":8.7},"geometry":{"type":"MultiPolygon","coordinates":[[[[43.531,12.695],[43.526,12.69],[43.512,12.683],[43.491,12.681],[43.468,12.684],[43.462,12.693],[43.481,12.773],[43.482,12.812],[43.473,12.847],[43.453,12.879],[43.423,12.906],[43.419,12.916],[43.416,12.929],[43.408,12.937],[43.401,12.943],[43.398,12.951],[43.397,12.971],[43.393,12.99],[43.386,13.007],[43.377,13.023],[43.342,13.063],[43.336,13.074],[43.335,13.082],[43.323,13.106],[43.313,13.131],[43.309,13.139],[43.249,13.213],[43.226,13.284],[43.24,13.315],[43.248,13.349],[43.254,13.527],[43.275,13.558],[43.278,13.567],[43.28,13.574],[43.285,13.58],[43.295,13.586],[43.282,13.617],[43.284,13.665],[43.285,13.665],[43.288,13.666],[43.358,13.722],[43.387,13.734],[43.422,13.743],[43.444,13.747],[43.455,13.76],[43.465,13.779],[43.541,13.875],[43.577,13.891],[43.601,13.898],[43.684,13.912],[43.712,13.861],[43.772,13.859],[43.794,13.87],[43.819,13.863],[43.84,13.872],[43.887,13.878],[43.893,13.863],[43.892,13.845],[43.901,13.835],[43.946,13.853],[43.961,13.847],[43.961,13.828],[43.956,13.816],[43.963,13.802],[44.08,13.769],[44.131,13.764],[44.155,13.749],[44.23,13.726],[44.266,13.725],[44.286,13.718],[44.3,13.71],[44.321,13.703],[44.345,13.705],[44.384,13.732],[44.397,13.747],[44.407,13.761],[44.425,13.734],[44.428,13.711],[44.424,13.687],[44.415,13.664],[44.414,13.643],[44.429,13.627],[44.45,13.622],[44.473,13.627],[44.494,13.625],[44.525,13.61],[44.531,13.597],[44.533,13.577],[44.525,13.556],[44.511,13.55],[44.503,13.538],[44.492,13.526],[44.475,13.52],[44.462,13.52],[44.449,13.516],[44.445,13.509],[44.447,13.502],[44.446,13.495],[44.439,13.489],[44.411,13.485],[44.393,13.477],[44.377,13.467],[44.369,13.451],[44.377,13.436],[44.395,13.429],[44.408,13.421],[44.438,13.417],[44.449,13.404],[44.452,13.387],[44.442,13.376],[44.377,13.374],[44.355,13.368],[44.349,13.355],[44.356,13.336],[44.358,13.319],[44.356,13.294],[44.361,13.274],[44.357,13.251],[44.334,13.234],[44.282,13.221],[44.239,13.22],[44.197,13.227],[44.184,13.205],[44.172,13.196],[44.162,13.188],[44.162,13.171],[44.164,13.157],[44.152,13.15],[44.131,13.146],[44.117,13.143],[44.107,13.123],[44.103,13.102],[44.092,13.092],[44.069,13.096],[44.029,13.119],[44.022,13.112],[44.026,13.063],[44.021,13.047],[44.002,13.048],[43.975,13.061],[43.956,13.077],[43.919,13.098],[43.901,13.104],[43.882,13.113],[43.862,13.116],[43.842,13.11],[43.823,13.102],[43.808,13.087],[43.79,13.08],[43.775,13.071],[43.74,13.067],[43.726,13.057],[43.726,13.041],[43.734,13.029],[43.739,13.012],[43.735,12.99],[43.701,12.938],[43.643,12.883],[43.567,12.767],[43.531,12.695]]],[[[43.429,12.674],[43.442,12.667],[43.444,12.664],[43.449,12.653],[43.447,12.639],[43.436,12.632],[43.429,12.635],[43.417,12.647],[43.411,12.653],[43.4,12.65],[43.393,12.653],[43.39,12.666],[43.398,12.671],[43.406,12.673],[43.429,12.674]]]]}}]}
